 2011  5 5 13 5 54.4 L                                                         1
 ACTION:ARG 12-04-07 10:05 OP:RALL STATUS:               ID:20110505130554     I
 2011-05-05-1305-54S.PLUR1_003                                                 6
 STAT SP IPHASW D HRMM SECON CODA AMPLIT PERI AZIMU VELO AIN AR TRES W  DIS CAZ7
 LZ4  SN IP       13 6  0.09                                                    
 LZ4  SE IS       13 6  4.11                                                    
                                                                                
