 2011  5 6 1620 30.9 L                                                         1
 ACTION:ARG 12-04-07 10:05 OP:RALL STATUS:               ID:20110506162030     I
 2011-05-06-1620-30S.PLUR1_003                                                 6
 STAT SP IPHASW D HRMM SECON CODA AMPLIT PERI AZIMU VELO AIN AR TRES W  DIS CAZ7
 LZ4  SN IP       1620 40.71                                                    
 LZ4  SE IS       1620 40.79                                                    
                                                                                
