 2011  529 1341 22.8 L                                                         1
 ACTION:REG 12-04-07 10:07 OP:RALL STATUS:               ID:20110529134122     I
 2011-05-29-1341-22S.PLUR1_003                                                 6
 STAT SP IPHASW D HRMM SECON CODA AMPLIT PERI AZIMU VELO AIN AR TRES W  DIS CAZ7
 LZ4  SZ E        1341 31.86                  267.7  8.8                        
 LZ4  SZ  AML     1341 32.54        14.3 0.16                                   
 LZ4  SN IP       1341 31.89                                                    
 LZ4  SE IS       1341 32.08                                                    
                                                                                
