 2011  529 1341 29.5 L  21.333 -99.271 10.0  RAL  1 1.0 0.4LRAL                1
 GAP=360       12.40     999.9   999.9  0.0  0.2131E+08  0.0000E+00  0.0000E+00E
 ACTION:REG 12-04-07 10:07 OP:RALL STATUS:               ID:20110529134122     I
 2011-05-29-1341-22S.PLUR1_003                                                 6
 STAT SP IPHASW D HRMM SECON CODA AMPLIT PERI AZIMU VELO AIN AR TRES W  DIS CAZ7
 LZ4  SZ E        1341 31.86                  267.7  8.8    -58        0.35 147 
 LZ4  SN IP       1341 31.89                             178    0.5710 0.35 147 
 LZ4  SE IS       1341 32.08                             178   -0.5710 0.35 147 
 LZ4  SZ  AML     1341 32.54        14.3 0.16                          0.35 147 
                                                                                
