 2010  5 1 1151 42.1 L  21.578 -99.171 10.0  RAL  1 0.0 0.6LRAL                1
 GAP=360        0.30       3.6     1.6  0.0  0.4987E+01  0.2900E+02 -0.2286E+02E
 ACTION:UPD 12-06-08 11:37 OP:RALL STATUS:               ID:20100501115142     I
 2010-05-01-1151-41S.PLUR1_003                                                 6
 STAT SP IPHASW D HRMM SECON CODA AMPLIT PERI AZIMU VELO AIN AR TRES W  DIS CAZ7
 LZ4  SZ E        1151 47.27                   20.5 10.9      0        29.2 201 
 LZ4  SN IP       1151 47.27                             105    0.0210 29.2 201 
 LZ4  SE IS       1151 50.98                             105   -0.0210 29.2 201 
 LZ4  SZ  AML     1151 53.46         7.3 0.26                          29.2 201 
                                                                                
