 2010  5 1 1132 14.7 L  21.570 -99.379 10.0  RAL  1 0.0 2.7LRAL                1
 GAP=360        0.30       3.5     1.8  0.0 -0.5532E+01  0.2900E+02 -0.2286E+02E
 ACTION:UPD 12-06-08 11:37 OP:RALL STATUS:               ID:20100501113214     I
 2010-05-01-1132-10S.PLUR1_003                                                 6
 STAT SP IPHASW D HRMM SECON CODA AMPLIT PERI AZIMU VELO AIN AR TRES W  DIS CAZ7
 LZ4  SN IP       1132 19.83                             105    0.0210 28.8 157 
 LZ4  SZ E        1132 19.88                  336.8  9.2      0        28.8 157 
 LZ4  SE IS       1132 23.49                             105   -0.0210 28.8 157 
 LZ4  SZ  AML     1132 24.59       943.2 0.16                          28.8 157 
                                                                                
