 2010  5 1 1253 48.9 L  21.470 -99.042 10.0  RAL  1 0.0 0.9LRAL                1
 GAP=360        0.30       2.2     3.5  0.0  0.7058E+01  0.2900E+02 -0.2286E+02E
 ACTION:UPD 12-06-08 11:37 OP:RALL STATUS:               ID:20100501125348     I
 2010-05-01-1253-48S.PLUR1_003                                                 6
 STAT SP IPHASW D HRMM SECON CODA AMPLIT PERI AZIMU VELO AIN AR TRES W  DIS CAZ7
 LZ4  SZ E        1253 53.88                   56.9 32.0      0        28.2 237 
 LZ4  SN EP       1253 53.89                             105    0.0310 28.2 237 
 LZ4  SE IS       1253 57.47                             105   -0.0310 28.2 237 
 LZ4  SZ  AML     1253 58.63        15.6 0.28                          28.2 237 
                                                                                
