 2010  5 1 1138 28.6 L  21.592 -99.304 10.0  RAL  1 0.0 0.8LRAL                1
 GAP=360        0.30       3.8     0.9  0.0 -0.1860E+01  0.2900E+02 -0.2286E+02E
 ACTION:UPD 12-06-08 11:37 OP:RALL STATUS:               ID:20100501113828     I
 2010-05-01-1138-28S.PLUR1_003                                                 6
 STAT SP IPHASW D HRMM SECON CODA AMPLIT PERI AZIMU VELO AIN AR TRES W  DIS CAZ7
 LZ4  SZ E        1138 33.72                  352.9 12.0      0        29.1 173 
 LZ4  SN IP       1138 33.72                             105    0.0110 29.1 173 
 LZ4  SE IS       1138 37.43                             105   -0.0110 29.1 173 
 LZ4  SZ  AML     1138 39.04        12.3 0.70                          29.1 173 
                                                                                
