 2010  5 1 2111  1.1 L  21.484 -99.313 10.0  RAL  4 1.3 2.1LRAL                1
 GAP=267       24.29       9.8    20.7112.7  0.1078E+03 -0.3234E+02  0.4175E+02E
 ACTION:UPD 12-06-08 11:37 OP:RALL STATUS:               ID:20100501211101     I
 2010-05-01-2110-52S.PLUR1_012                                                 6
 STAT SP IPHASW D HRMM SECON CODA AMPLIT PERI AZIMU VELO AIN AR TRES W  DIS CAZ7
 LA4  SZ E        2111  2.41                  270.4 13.3     -3        0.43  95 
 LA4  SN EP       2111  2.45                             178   -0.5410 0.43  95 
 LA4  SE IS       2111  4.32                             178   -0.0210 0.43  95 
 LA4  SZ  AML     2111  5.45      3905.7 0.28                          0.43  95 
 LT7  SN IP       2111  2.52                             134   -1.0410 9.91 188 
 LT7  SZ E        2111  2.61                  330.3  7.8     38        9.91 188 
 LT7  SE IS       2111  4.70                             134   -0.6210 9.91 188 
 LT7  SZ  AML     2111  6.03       166.5 0.20                          9.91 188 
 LG3  SZ E        2111  5.14                   53.5 24.1     69        23.9 165 
 LG3  SN IP       2111  5.15                             109   -0.3410 23.9 165 
 LG3  SE IS       2111  9.92                             109    1.2610 23.9 165 
 LG3  SZ  AML     2111 14.13       856.1 0.62                          23.9 165 
 LO8  SZ E        2111  7.07                  121.6  7.6    138        37.4 164 
 LO8  SN IP       2111  7.09                             101   -0.4510 37.4 164 
 LO8  SE IS       2111 13.96                             101    1.7610 37.4 164 
 LO8  SZ  AML     2111 16.00        32.8 0.28                          37.4 164 
                                                                                
