 2010  5 2 1120 47.2 L  21.286 -99.253 10.0  RAL  1 0.2 0.7LRAL                1
 GAP=360        1.95     177.5   582.1  0.0 -0.1033E+06 -0.3234E+02  0.4175E+02E
 ACTION:UPD 12-06-08 11:37 OP:RALL STATUS:               ID:20100502112047     I
 2010-05-02-1120-40S.PLUR1_003                                                 6
 STAT SP IPHASW D HRMM SECON CODA AMPLIT PERI AZIMU VELO AIN AR TRES W  DIS CAZ7
 LG3  SZ E        1120 49.45                  347.1 11.4     -8        1.18 176 
 LG3  SN IP       1120 49.51                             174    0.4310 1.18 176 
 LG3  SE IS       1120 50.00                             174   -0.4310 1.18 176 
 LG3  SZ  AML     1120 50.49        30.6 0.58                          1.18 176 
                                                                                
