 2010  5 2 2232 57.7 L  21.485 -99.452 10.0  RAL  1 0.0 1.0LRAL                1
 GAP=360        0.30       0.4     4.7  0.0 -0.1303E+00 -0.3234E+02  0.4175E+02E
 ACTION:UPD 12-06-08 11:37 OP:RALL STATUS:               ID:20100502223257     I
 2010-05-02-2232-52S.PLUR1_003                                                 6
 STAT SP IPHASW D HRMM SECON CODA AMPLIT PERI AZIMU VELO AIN AR TRES W  DIS CAZ7
 LA4  SZ E        2233  0.79                  270.4 19.0      0        14.8  90 
 LA4  SN IP       2233  0.80                             122    0.0310 14.8  90 
 LA4  SE IS       2233  2.99                             122   -0.0310 14.8  90 
 LA4  SZ  AML     2233  3.82        33.2 0.26                          14.8  90 
                                                                                
