 2010  5 5 0534  1.5 L  21.691 -99.492 10.0  RAL  1 0.0 1.4LRAL                1
 GAP=360        0.30       3.3     2.3  0.0 -0.5854E+01 -0.3234E+02  0.4175E+02E
 ACTION:UPD 12-06-08 11:37 OP:RALL STATUS:               ID:20100505053401     I
 2010-05-05-0534-00S.PLUR1_003                                                 6
 STAT SP IPHASW D HRMM SECON CODA AMPLIT PERI AZIMU VELO AIN AR TRES W  DIS CAZ7
 LZ4  SZ E         534  9.22                  330.1 13.6      0        46.1 150 
 LZ4  SN IP        534  9.22                              98    0.0110 46.1 150 
 LZ4  SE IS        534 14.81                              98   -0.0110 46.1 150 
 LZ4  SZ  AML      534 16.74        33.1 0.22                          46.1 150 
                                                                                
