 2010  5 5 1018 11.0 L  21.974 -99.461 10.0  RAL  1 0.0 2.2LRAL                1
 GAP=360        0.30       3.6     2.3  0.0 -0.2817E+01 -0.3234E+02  0.4175E+02E
 ACTION:UPD 12-06-08 11:37 OP:RALL STATUS:               ID:20100505101811     I
 2010-05-05-1018-14S.PLUR1_003                                                 6
 STAT SP IPHASW D HRMM SECON CODA AMPLIT PERI AZIMU VELO AIN AR TRES W  DIS CAZ7
 LZ4  SN IP       1018 23.03                              95    0.0110 73.9 164 
 LZ4  SZ E        1018 23.09                  344.5  7.9      0        73.9 164 
 LZ4  SE IS       1018 31.77                              95   -0.0110 73.9 164 
 LZ4  SZ  AML     1018 35.86       125.1 0.50                          73.9 164 
                                                                                
