 2010  5 5 1515 30.3 L  21.687 -99.514  5.0  RAL  2 0.0 0.8LRAL                1
 GAP=348        0.50       7.9     6.8 21.1 -0.5215E+02 -0.1292E+03  0.1518E+03E
 ACTION:UPD 12-06-08 11:37 OP:RALL STATUS:               ID:20100505151530     I
 2010-05-05-1515-25S.PLUR1_006                                                 6
 STAT SP IPHASW D HRMM SECON CODA AMPLIT PERI AZIMU VELO AIN AR TRES W  DIS CAZ7
 LA4  SZ E        1515 35.32                  318.0 11.8      1        30.9 137 
 LA4  SN IP       1515 35.33                              63    0.0810 30.9 137 
 LA4  SE IS       1515 38.86                              63   -0.0110 30.9 137 
 LA4  SZ  AML     1515 39.09        40.1 0.28                          30.9 137 
 LT7  SN IP       1515 36.22                              63   -0.0510 37.7 149 
 LT7  SZ E        1515 36.28                  327.5  7.3     -1        37.7 149 
 LT7  SE IS       1515 40.60                              63   -0.0310 37.7 149 
 LT7  SZ  AML     1515 42.35         3.0 0.36                          37.7 149 
                                                                                
