 2010  5 5 2000  4.6 L  21.955 -99.474  7.1  RAL  2 0.3 1.7LRAL                1
 GAP=356        4.95     477.9   149.5964.4 -0.7080E+05 -0.1425E+06  0.4591E+06E
 ACTION:UPD 12-06-08 11:37 OP:RALL STATUS:               ID:20100505200004     I
 2010-05-05-2000-04S.PLUR1_006                                                 6
 STAT SP IPHASW D HRMM SECON CODA AMPLIT PERI AZIMU VELO AIN AR TRES W  DIS CAZ7
 LA4  SZ E        20 0 13.09                  357.8 12.8     16        54.9 162 
 LA4  SN IP       20 0 13.48                              63   -0.1510 54.9 162 
 LA4  SE IS       20 0 19.78                              63   -0.4310 54.9 162 
 LA4  SZ  AML     20 0 25.09       208.1 0.58                          54.9 162 
 LT7  SZ E        20 0 15.46                  328.2  8.6    -17        63.8 166 
 LT7  SN IP       20 0 15.46                              63    0.4810 63.8 166 
 LT7  SE IS       20 0 22.65                              63    0.1010 63.8 166 
 LT7  SZ  AML     20 0 26.16        11.1 0.74                          63.8 166 
                                                                                
