 2010  5 7 0521 28.3 L  21.506 -99.331 10.0  RAL  1 0.1 0.1LRAL                1
 GAP=360        0.40      11.8    11.8  0.0 -0.1396E+03 -0.1425E+06  0.4591E+06E
 ACTION:UPD 12-06-08 11:37 OP:RALL STATUS:               ID:20100507052128     I
 2010-05-07-0521-21S.PLUR1_003                                                 6
 STAT SP IPHASW D HRMM SECON CODA AMPLIT PERI AZIMU VELO AIN AR TRES W  DIS CAZ7
 LA4  SN IP        521 30.46                             162    0.1810 3.39 137 
 LA4  SZ E         521 30.51                  316.9 10.0      0        3.39 137 
 LA4  SZ  AML      521 30.81         6.9 0.18                          3.39 137 
 LA4  SE IS        521 31.50                             162   -0.1810 3.39 137 
                                                                                
