 2010  5 7 0631 59.4 L  21.394 -99.366 10.0  RAL  1 0.0 0.4LRAL                1
 GAP=360        0.30       2.7     4.2  0.0 -0.1121E+02 -0.1425E+06  0.4591E+06E
 ACTION:UPD 12-06-08 11:37 OP:RALL STATUS:               ID:20100507063159     I
 2010-05-07-0631-54S.PLUR1_003                                                 6
 STAT SP IPHASW D HRMM SECON CODA AMPLIT PERI AZIMU VELO AIN AR TRES W  DIS CAZ7
 LZ4  SN IP        632  2.14                             128    0.0210 12.2 125 
 LZ4  SZ E         632  2.17                  305.1 21.0      0        12.2 125 
 LZ4  SE IS        632  4.09                             128   -0.0210 12.2 125 
 LZ4  SZ  AML      632  5.19         9.5 0.48                          12.2 125 
                                                                                
