 2010  5 7 1427 29.8 L  21.315 -99.305 10.0  RAL  1 0.0 0.7LRAL                1
 GAP=360        0.30       4.1     0.5  0.0 -0.4357E+00 -0.1425E+06  0.4591E+06E
 ACTION:UPD 12-06-08 11:37 OP:RALL STATUS:               ID:20100507142729     I
 2010-05-07-1427-26S.PLUR1_003                                                 6
 STAT SP IPHASW D HRMM SECON CODA AMPLIT PERI AZIMU VELO AIN AR TRES W  DIS CAZ7
 LA4  SN IP       1427 33.45                             115    0.0210 18.7 359 
 LA4  SZ E        1427 33.46                  178.6 10.0      0        18.7 359 
 LA4  SE IS       1427 36.04                             115   -0.0210 18.7 359 
 LA4  SZ  AML     1427 36.64        13.9 0.22                          18.7 359 
                                                                                
