 2010  5 9 0753  9.9 L  21.289 -99.252 10.0  RAL  1 0.3 1.1LRAL                1
 GAP=360        3.06     218.0   999.9  0.0  0.2643E+06 -0.1425E+06  0.4591E+06E
 ACTION:UPD 12-06-08 11:37 OP:RALL STATUS:               ID:20100509075309     I
 2010-05-09-0753-02S.PLUR1_003                                                 6
 STAT SP IPHASW D HRMM SECON CODA AMPLIT PERI AZIMU VELO AIN AR TRES W  DIS CAZ7
 LG3  SZ E         753 12.18                  348.2 24.6     14        1.51 182 
 LG3  SN IP        753 12.21                             172    0.4110 1.51 182 
 LG3  SE IS        753 12.75                             172   -0.4110 1.51 182 
 LG3  SZ  AML      753 13.51        69.7 0.40                          1.51 182 
                                                                                
