 2010  5 9 0700  2.9 L  21.298 -99.382 10.0  RAL  1 0.0 1.9LRAL                1
 GAP=360        0.30       1.4     4.8  0.0  0.6741E+01 -0.1425E+06  0.4591E+06E
 ACTION:UPD 12-06-08 11:37 OP:RALL STATUS:               ID:20100509070002     I
 2010-05-09-0659-56S.PLUR1_003                                                 6
 STAT SP IPHASW D HRMM SECON CODA AMPLIT PERI AZIMU VELO AIN AR TRES W  DIS CAZ7
 LZ4  SZ E         7 0  5.61                  252.6 11.8      0        12.2  73 
 LZ4  SN IP        7 0  5.63                             128    0.0110 12.2  73 
 LZ4  SE IS        7 0  7.61                             128   -0.0110 12.2  73 
 LZ4  SZ  AML      7 0  8.58       306.9 0.22                          12.2  73 
                                                                                
