 2010  5 9 1205 35.9 L  21.715 -99.355 10.0  RAL  1 0.0 2.5LRAL                1
 GAP=360        0.30       3.7     1.4  0.0 -0.2729E+01 -0.1425E+06  0.4591E+06E
 ACTION:UPD 12-06-08 11:37 OP:RALL STATUS:               ID:20100509120535     I
 2010-05-09-1205-33S.PLUR1_003                                                 6
 STAT SP IPHASW D HRMM SECON CODA AMPLIT PERI AZIMU VELO AIN AR TRES W  DIS CAZ7
 LZ4  SN IP       12 5 43.16                              99    0.0110 43.5 168 
 LZ4  SZ E        12 5 43.27                  348.3 12.6      0        43.5 168 
 LZ4  SE IS       12 5 48.47                              99   -0.0110 43.5 168 
 LZ4  SZ  AML     12 5 49.43       446.5 0.58                          43.5 168 
                                                                                
