 2010  5 9 1644 48.8 L  21.121 -99.133 40.8  RAL  4 0.9 1.5LRAL                1
 GAP=321       11.46      20.4    32.3 92.2 -0.5826E+03  0.3385E+02 -0.4077E+02E
 ACTION:UPD 12-06-08 11:37 OP:RALL STATUS:               ID:20100509164448     I
 2010-05-09-1644-47S.PLUR1_012                                                 6
 STAT SP IPHASW D HRMM SECON CODA AMPLIT PERI AZIMU VELO AIN AR TRES W  DIS CAZ7
 LO8  SZ E        1644 57.99                  138.5  6.7     22        9.31 297 
 LO8  SN IP       1644 58.02                             165    2.8910 9.31 297 
 LO8  SE IS       1645  1.07                             165    1.2910 9.31 297 
 LO8  SZ  AML     1645  1.14        19.7 0.18                          9.31 297 
 LG3  SZ E        1644 56.87                   86.3 65.7    -57        21.1 324 
 LG3  SN IP       1644 56.90                             148    1.2310 21.1 324 
 LG3  SE IS       1644 58.85                             148   -1.8610 21.1 324 
 LG3  SZ  AML     1644 59.01       154.4 0.18                          21.1 324 
 LT7  SZ E        1644 57.20                  175.4  8.5     29        36.3 327 
 LT7  SN IP       1644 57.20                             130    0.3710 36.3 327 
 LT7  SE IS       1644 59.50                             130   -3.2210 36.3 327 
 LT7  SZ  AML     1644 59.56        15.4 0.22                          36.3 327 
 LA4  SZ E        1644 58.66                  171.5  8.5     16        44.0 336 
 LA4  SN IP       1644 58.70                             123    1.0510 44.0 336 
 LA4  SE IS       1645  2.37                             123   -1.7610 44.0 336 
 LA4  SZ  AML     1645  3.68        30.7 0.24                          44.0 336 
                                                                                
