 2010  5 9 2150 51.4 L  21.828 -99.173  5.0  RAL  3 1.6 1.8LRAL                1
 GAP=343       29.34     683.1   235.2999.9  0.1503E+06  0.3033E+06  0.9323E+06E
 ACTION:UPD 12-06-08 11:37 OP:RALL STATUS:               ID:20100509215051     I
 2010-05-09-2150-48S.PLUR1_009                                                 6
 STAT SP IPHASW D HRMM SECON CODA AMPLIT PERI AZIMU VELO AIN AR TRES W  DIS CAZ7
 LA4  SZ E        2150 58.20                    5.2 10.1    -14        40.6 200 
 LA4  SN IP       2150 58.27                              63    0.3810 40.6 200 
 LA4  SE IS       2151  0.90                              63   -1.7110 40.6 200 
 LA4  SZ  AML     2151  3.46       867.3 0.40                          40.6 200 
 LT7  SN IP       2151  0.13                              63    0.7510 50.5 198 
 LT7  SZ E        2151  0.14                  339.1 10.5     39        50.5 198 
 LT7  SE IS       2151  4.13                              63   -1.0610 50.5 198 
 LT7  SZ  AML     2151  5.38        30.5 0.44                          50.5 198 
 LO8  SN IP       2151  4.54                              63    1.4310 74.1 183 
 LO8  SZ E        2151  4.57                  166.9  6.7    164        74.1 183 
 LO8  SE IS       2151 11.85                              63    0.2110 74.1 183 
 LO8  SZ  AML     2151 15.46        11.1 0.54                          74.1 183 
                                                                                
