 2010  510 0830 58.4 L  21.378-100.267 10.0  RAL  1 0.0 1.4LRAL                1
 GAP=360        0.30       2.7     4.0  0.0 -0.6859E+00  0.3033E+06  0.9323E+06E
 ACTION:UPD 12-06-08 11:37 OP:RALL STATUS:               ID:20100510083058     I
 2010-05-10-0831-10S.PLUR1_003                                                 6
 STAT SP IPHASW D HRMM SECON CODA AMPLIT PERI AZIMU VELO AIN AR TRES W  DIS CAZ7
 LG3  SN IP        831 15.34                              93    0.0010  106  96 
 LG3  SZ E         831 15.42                  276.3 15.3      0         106  96 
 LG3  SE IS        831 27.72                              93    0.0010  106  96 
 LG3  SZ  AML      831 29.92        12.7 0.22                           106  96 
                                                                                
