 2010  511 0952 42.4 L  21.350 -99.275 10.0  RAL  1 0.1 0.5LRAL                1
 GAP=360        0.43     999.9   999.9  0.0  0.5736E+08  0.3033E+06  0.9323E+06E
 ACTION:UPD 12-06-08 11:37 OP:RALL STATUS:               ID:20100511095242     I
 2010-05-11-0952-36S.PLUR1_003                                                 6
 STAT SP IPHASW D HRMM SECON CODA AMPLIT PERI AZIMU VELO AIN AR TRES W  DIS CAZ7
 LZ4  SZ E         952 44.49                  345.4 23.6      0        2.14 165 
 LZ4  SN IP        952 44.49                             168    0.2110 2.14 165 
 LZ4  SE IS        952 45.44                             168   -0.2110 2.14 165 
 LZ4  SZ  AML      952 45.81        18.7 0.12                          2.14 165 
                                                                                
