 2010  513 0337 13.4 L  21.289 -99.253 10.0  RAL  1 0.2 1.6LRAL                1
 GAP=360        2.64     999.9   999.9  0.0  0.2693E+09  0.3033E+06  0.9323E+06E
 ACTION:UPD 12-06-08 11:37 OP:RALL STATUS:               ID:20100513033713     I
 2010-05-13-0337-06S.PLUR1_003                                                 6
 STAT SP IPHASW D HRMM SECON CODA AMPLIT PERI AZIMU VELO AIN AR TRES W  DIS CAZ7
 LG3  SN IP        337 15.65                             172    0.4010 1.47 177 
 LG3  SZ E         337 15.65                  345.2 22.5    -11        1.47 177 
 LG3  SE IS        337 16.21                             172   -0.4010 1.47 177 
 LG3  SZ  AML      337 16.31       246.9 0.26                          1.47 177 
                                                                                
