 2010  514 0410 31.3 L  21.259 -99.272 10.0  RAL  1 0.1 0.6LRAL                1
 GAP=360        0.62      20.9    24.3  0.0  0.5067E+03  0.3033E+06  0.9323E+06E
 ACTION:UPD 12-06-08 11:37 OP:RALL STATUS:               ID:20100514041031     I
 2010-05-14-0410-24S.PLUR1_003                                                 6
 STAT SP IPHASW D HRMM SECON CODA AMPLIT PERI AZIMU VELO AIN AR TRES W  DIS CAZ7
 LG3  SN IP        410 33.58                             165    0.3710 2.71  47 
 LG3  SZ E         410 33.62                  227.4 14.0      0        2.71  47 
 LG3  SE IS        410 34.23                             165   -0.3710 2.71  47 
 LG3  SZ  AML      410 34.28        21.4 0.32                          2.71  47 
                                                                                
