 2010  514 1010 17.3 R  21.917 -99.652 10.0  RAL  1 0.0 1.5LRAL                1
 GAP=360        0.30       3.3     2.8  0.0 -0.4747E+01  0.3033E+06  0.9323E+06E
 ACTION:UPD 12-06-08 11:37 OP:RALL STATUS:               ID:20100514101017     I
 2010-05-14-1010-20S.PLUR1_003                                                 6
 STAT SP IPHASW D HRMM SECON CODA AMPLIT PERI AZIMU VELO AIN AR TRES W  DIS CAZ7
 LZ4  SZ E        1010 29.46                  328.7 37.3      0        76.0 149 
 LZ4  SN IP       1010 29.58                              94    0.0110 76.0 149 
 LZ4  SE IS       1010 38.55                              94   -0.0110 76.0 149 
 LZ4  SZ  AML     1010 39.57        25.2 0.24                          76.0 149 
                                                                                
