 2010  514 1027  0.2 R  20.712 -99.545 10.0  RAL  1 0.0 1.6LRAL                1
 GAP=360        0.30       3.5     2.4  0.0  0.3827E+01  0.3033E+06  0.9323E+06E
 ACTION:UPD 12-06-08 11:37 OP:RALL STATUS:               ID:20100514102700     I
 2010-05-14-1027-03S.PLUR1_003                                                 6
 STAT SP IPHASW D HRMM SECON CODA AMPLIT PERI AZIMU VELO AIN AR TRES W  DIS CAZ7
 LZ4  SZ E        1027 11.99                  202.7 14.2      0        74.2  23 
 LZ4  SN IP       1027 12.26                              95    0.0110 74.2  23 
 LZ4  SE IS       1027 21.03                              95   -0.0110 74.2  23 
 LZ4  SZ  AML     1027 22.44        29.3 0.22                          74.2  23 
                                                                                
