 2010  515 1009 37.4 L  21.292 -99.222 10.0  RAL  1 0.1 0.1LRAL                1
 GAP=360        0.39       7.3    13.6  0.0  0.9868E+02  0.3033E+06  0.9323E+06E
 ACTION:UPD 12-06-08 11:37 OP:RALL STATUS:               ID:20100515100937     I
 2010-05-15-1009-30S.PLUR1_003                                                 6
 STAT SP IPHASW D HRMM SECON CODA AMPLIT PERI AZIMU VELO AIN AR TRES W  DIS CAZ7
 LG3  SN IP       10 9 39.48                             161    0.1710 3.66 240 
 LG3  SZ E        10 9 39.55                   60.1 19.5      0        3.66 240 
 LG3  SE IS       10 9 40.56                             161   -0.1710 3.66 240 
 LG3  SZ  AML     10 9 40.91         6.0 0.36                          3.66 240 
                                                                                
