 2010  516 0745 19.6 L  21.321 -99.275 10.0  RAL  1 0.3 1.0LRAL                1
 GAP=360        2.36     999.9   999.9  0.0 -0.3513E+08  0.3033E+06  0.9323E+06E
 ACTION:UPD 12-06-08 11:37 OP:RALL STATUS:               ID:20100516074519     I
 2010-05-16-0745-13S.PLUR1_003                                                 6
 STAT SP IPHASW D HRMM SECON CODA AMPLIT PERI AZIMU VELO AIN AR TRES W  DIS CAZ7
 LZ4  SN IP        745 22.09                             173    0.6110 1.21  27 
 LZ4  SZ E         745 22.11                  217.1  8.8     10        1.21  27 
 LZ4  SE IS        745 22.21                             173   -0.6110 1.21  27 
 LZ4  SZ  AML      745 22.29        52.2 0.20                          1.21  27 
                                                                                
