 2010  517 0922 18.5 L  21.322 -99.249 10.0  RAL  1 0.1 0.7LRAL                1
 GAP=360        0.53      13.3    29.0  0.0 -0.3854E+03  0.3033E+06  0.9323E+06E
 ACTION:UPD 12-06-08 11:37 OP:RALL STATUS:               ID:20100517092218     I
 2010-05-17-0922-11S.PLUR1_003                                                 6
 STAT SP IPHASW D HRMM SECON CODA AMPLIT PERI AZIMU VELO AIN AR TRES W  DIS CAZ7
 LZ4  SZ E         922 20.68                  116.1 33.2      0        2.32 296 
 LZ4  SN IP        922 20.69                             167    0.3010 2.32 296 
 LZ4  SE IS        922 21.46                             167   -0.3010 2.32 296 
 LZ4  SZ  AML      922 21.92        30.2 0.24                          2.32 296 
                                                                                
