 2010  517 0341 45.0 L  21.423 -99.270 10.0  RAL  1 0.0 0.2LRAL                1
 GAP=360        0.30       4.2     0.7  0.0 -0.2084E+01  0.3033E+06  0.9323E+06E
 ACTION:UPD 12-06-08 11:37 OP:RALL STATUS:               ID:20100517034145     I
 2010-05-17-0341-41S.PLUR1_003                                                 6
 STAT SP IPHASW D HRMM SECON CODA AMPLIT PERI AZIMU VELO AIN AR TRES W  DIS CAZ7
 LG3  SZ E         341 48.22                  353.8 13.2      0        16.4 174 
 LG3  SN IP        341 48.27                             119    0.0210 16.4 174 
 LG3  SE IS        341 50.62                             119   -0.0210 16.4 174 
 LG3  SZ  AML      341 51.45         5.1 0.22                          16.4 174 
                                                                                
