 2010  518 0528 46.6 R  21.592-100.267 10.0  RAL  1 0.0 2.6LRAL                1
 GAP=360        0.30       3.0     3.9  0.0 -0.1755E+01  0.3033E+06  0.9323E+06E
 ACTION:UPD 12-06-08 11:37 OP:RALL STATUS:               ID:20100518052846     I
 2010-05-18-0528-53S.PLUR1_003                                                 6
 STAT SP IPHASW D HRMM SECON CODA AMPLIT PERI AZIMU VELO AIN AR TRES W  DIS CAZ7
 LG3  SZ E         529  4.23                  288.6 14.2      0         111 108 
 LG3  SN IP        529  4.29                              93    0.0010  111 108 
 LG3  SE IS        529 17.23                              93    0.0010  111 108 
 LG3  SZ  AML      529 21.30       224.2 0.34                           111 108 
                                                                                
