 2010  518 0737 13.1 R  20.260 -99.629 10.0  RAL  1 0.0 1.8LRAL                1
 GAP=360        0.30       3.6     3.4  0.0  0.1397E+01  0.3033E+06  0.9323E+06E
 ACTION:UPD 12-06-08 11:37 OP:RALL STATUS:               ID:20100518073713     I
 2010-05-18-0737-23S.PLUR1_003                                                 6
 STAT SP IPHASW D HRMM SECON CODA AMPLIT PERI AZIMU VELO AIN AR TRES W  DIS CAZ7
 LG3  SN IP        737 32.05                              93    0.0010  119  19 
 LG3  SZ E         737 32.06                  199.3  6.0      0         119  19 
 LG3  SE IS        737 45.92                              93    0.0010  119  19 
 LG3  SZ  AML      737 50.39        31.9 0.50                           119  19 
                                                                                
