 2010  518 0532 35.8 R  20.194 -98.765 10.0  RAL  1 0.0                        1
 GAP=360        0.30       4.6     4.3  0.0 -0.2348E+01  0.3033E+06  0.9323E+06E
 ACTION:UPD 12-06-08 11:37 OP:RALL STATUS:               ID:20100518053235     I
 2010-05-18-0532-42S.PLUR1_006                                                 6
 STAT SP IPHASW D HRMM SECON CODA AMPLIT PERI AZIMU VELO AIN AR TRES W  DIS CAZ7
 LA4  SZ E         532 59.21                  158.3  8.0      0         154 338 
 LA4  SN IP        532 59.34                              52    0.0110  154 338 
 LA4  SE IS        533 16.47                              52   -0.0110  154 338 
                                                                                
