 2010  518 1011  7.1 R  20.576 -98.531 10.0  RAL  1 0.0 1.6LRAL                1
 GAP=360        0.30       3.4     3.5  0.0 -0.2705E+01  0.3033E+06  0.9323E+06E
 ACTION:UPD 12-06-08 11:37 OP:RALL STATUS:               ID:20100518101107     I
 2010-05-18-1011-15S.PLUR1_003                                                 6
 STAT SP IPHASW D HRMM SECON CODA AMPLIT PERI AZIMU VELO AIN AR TRES W  DIS CAZ7
 LZ4  SN IP       1011 25.28                              93    0.0010  114 318 
 LZ4  SZ E        1011 25.32                  137.3 22.3      0         114 318 
 LZ4  SE IS       1011 38.52                              93    0.0010  114 318 
 LZ4  SZ  AML     1011 41.43        21.9 0.32                           114 318 
                                                                                
