 2010  519 0434 43.8 R  20.675-100.010 10.0  RAL  2 1.7 1.9LRAL                1
 GAP=342       22.82     351.3   506.4999.9  0.1565E+06  0.4866E+07  0.3206E+07E
 ACTION:UPD 12-06-08 11:37 OP:RALL STATUS:               ID:20100519043443     I
 2010-05-19-0434-48S.PLUR1_006                                                 6
 STAT SP IPHASW D HRMM SECON CODA AMPLIT PERI AZIMU VELO AIN AR TRES W  DIS CAZ7
 LO8  SZ E         434 55.89                  317.2 13.2     80        98.8  57 
 LO8  SN IP        434 56.43                              93   -3.2510 98.8  57 
 LO8  SE IS        435  8.60                              93   -2.6610 98.8  57 
 LO8  SZ  AML      435 10.59        23.1 0.30                          98.8  57 
 LA4  SZ E         435  3.31                  148.2  8.6    -70         115  39 
 LA4  SN IP        435  3.34                              93    1.1010  115  39 
 LA4  SE IS        435 20.51                              93    4.8110  115  39 
 LA4  SZ  AML      435 23.43        71.6 0.50                           115  39 
                                                                                
