 2010  519 0500 57.5 R  21.347-100.433 10.0  RAL  1 0.0 1.0LRAL                1
 GAP=360        0.30       3.2     4.0  0.0 -0.2355E+00  0.4866E+07  0.3206E+07E
 ACTION:UPD 12-06-08 11:37 OP:RALL STATUS:               ID:20100519050057     I
 2010-05-19-0501-11S.PLUR1_003                                                 6
 STAT SP IPHASW D HRMM SECON CODA AMPLIT PERI AZIMU VELO AIN AR TRES W  DIS CAZ7
 LG3  SZ E         5 1 16.92                  273.9 12.1      0         123  93 
 LG3  SN IP        5 1 17.08                              93    0.0010  123  93 
 LG3  SE IS        5 1 31.37                              93    0.0010  123  93 
 LG3  SZ  AML      5 1 32.36         5.1 0.16                           123  93 
                                                                                
