 2010  519 0932 47.7 R  22.398 -99.301 10.0  RAL  1 0.0 1.2LRAL                1
 GAP=360        0.30       3.7     3.5  0.0 -0.1469E+00  0.4866E+07  0.3206E+07E
 ACTION:UPD 12-06-08 11:37 OP:RALL STATUS:               ID:20100519093247     I
 2010-05-19-0933-00S.PLUR1_003                                                 6
 STAT SP IPHASW D HRMM SECON CODA AMPLIT PERI AZIMU VELO AIN AR TRES W  DIS CAZ7
 LG3  SZ E         933  7.56                  357.7  4.9      0         124 178 
 LG3  SN IP        933  7.57                              93    0.0010  124 178 
 LG3  SE IS        933 22.04                              93    0.0010  124 178 
 LG3  SZ  AML      933 23.04         7.6 0.14                           124 178 
                                                                                
