 2010  520 0823 51.9 R  20.766-100.256 10.0  RAL  1 0.0 1.4LRAL                1
 GAP=360        0.30       3.2     3.8  0.0  0.1930E+01  0.4866E+07  0.3206E+07E
 ACTION:UPD 12-06-08 11:37 OP:RALL STATUS:               ID:20100520082351     I
 2010-05-20-0824-03S.PLUR1_003                                                 6
 STAT SP IPHASW D HRMM SECON CODA AMPLIT PERI AZIMU VELO AIN AR TRES W  DIS CAZ7
 LG3  SN IP        824 10.87                              93    0.0010  119  61 
 LG3  SZ E         824 10.94                  241.8 10.0      0         119  61 
 LG3  SE IS        824 24.69                              93    0.0010  119  61 
 LG3  SZ  AML      824 28.12        12.2 0.12                           119  61 
                                                                                
