 2010  520 0656 20.4 R  21.832 -99.371 10.0  RAL  1 0.0 2.1LRAL                1
 GAP=360        0.30       3.7     1.7  0.0 -0.2309E+01  0.4866E+07  0.3206E+07E
 ACTION:UPD 12-06-08 11:37 OP:RALL STATUS:               ID:20100520065620     I
 2010-05-20-0656-20S.PLUR1_003                                                 6
 STAT SP IPHASW D HRMM SECON CODA AMPLIT PERI AZIMU VELO AIN AR TRES W  DIS CAZ7
 LZ4  SN IP        656 29.66                              96    0.0110 56.4 169 
 LZ4  SZ E         656 29.71                  349.3  6.8      0        56.4 169 
 LZ4  SE IS        656 36.43                              96   -0.0110 56.4 169 
 LZ4  SZ  AML      656 37.67       118.3 0.24                          56.4 169 
                                                                                
