 2010  520 1056 11.7 R  20.860 -98.047 10.0  RAL  1 0.0 2.7LRAL                1
 GAP=360        0.30       3.7     4.9  0.0 -0.3645E+01  0.4866E+07  0.3206E+07E
 ACTION:UPD 12-06-08 11:37 OP:RALL STATUS:               ID:20100520105611     I
 2010-05-20-1056-24S.PLUR1_003                                                 6
 STAT SP IPHASW D HRMM SECON CODA AMPLIT PERI AZIMU VELO AIN AR TRES W  DIS CAZ7
 LZ4  SZ E        1056 33.15                  112.1 17.6      0         137 293 
 LZ4  SN IP       1056 33.21                              52    0.0110  137 293 
 LZ4  SE IS       1056 48.88                              52   -0.0110  137 293 
 LZ4  SZ  AML     1056 51.66       219.4 0.26                           137 293 
                                                                                
