 2010  520 1649 16.8 R  21.858 -99.393  4.6  RAL  2 0.2 1.3LRAL                1
 GAP=356        2.41     189.3    37.4373.8 -0.6930E+04 -0.1362E+05  0.7031E+05E
 ACTION:UPD 12-06-08 11:37 OP:RALL STATUS:               ID:20100520164916     I
 2010-05-20-1649-15S.PLUR1_006                                                 6
 STAT SP IPHASW D HRMM SECON CODA AMPLIT PERI AZIMU VELO AIN AR TRES W  DIS CAZ7
 LA4  SN IP       1649 23.50                              63   -0.4010 42.3 168 
 LA4  SZ E        1649 23.51                  355.7  8.6      8        42.3 168 
 LA4  SE IS       1649 28.93                              63   -0.1410 42.3 168 
 LA4  SZ  AML     1649 29.60        93.6 0.48                          42.3 168 
 LT7  SN IP       1649 25.82                              63    0.5110 51.7 172 
 LT7  SZ E        1649 25.85                  344.0 10.6     -7        51.7 172 
 LT7  SE IS       1649 31.56                              63    0.0310 51.7 172 
 LT7  SZ  AML     1649 32.06         6.8 0.26                          51.7 172 
                                                                                
