 2010  520 2049 46.6 R  21.160 -99.215 10.0  RAL  2 0.8 0.1LRAL                1
 GAP=242       12.31      12.4    30.5 68.7  0.3516E+03  0.4731E+02 -0.1842E-01E
 ACTION:UPD 12-06-08 11:37 OP:RALL STATUS:               ID:20100520204946     I
 2010-05-20-2049-41S.PLUR1_006                                                 6
 STAT SP IPHASW D HRMM SECON CODA AMPLIT PERI AZIMU VELO AIN AR TRES W  DIS CAZ7
 LO8  SZ E        2049 48.11                  333.1  9.4     59        0.16  94 
 LO8  SN IP       2049 48.24                             179   -0.2910 0.16  94 
 LO8  SE IS       2049 48.82                             179   -1.0810 0.16  94 
 LO8  SZ  AML     2049 53.57         3.3 0.14                          0.16  94 
 LT7  SN IP       2049 53.18                             104    1.5510 28.5 336 
 LT7  SZ E        2049 53.56                  158.7  7.7      3        28.5 336 
 LT7  SE IS       2049 55.10                             104   -0.1810 28.5 336 
 LT7  SZ  AML     2049 55.63         5.3 0.32                          28.5 336 
                                                                                
