 2010  521 0510 27.7 R  21.229 -99.229 10.0  RAL  1 0.0 0.5LRAL                1
 GAP=360        0.30       4.5     1.8  0.0 -0.7859E+01  0.4731E+02 -0.1842E-01E
 ACTION:UPD 12-06-08 11:37 OP:RALL STATUS:               ID:20100521051027     I
 2010-05-21-0510-23S.PLUR1_003                                                 6
 STAT SP IPHASW D HRMM SECON CODA AMPLIT PERI AZIMU VELO AIN AR TRES W  DIS CAZ7
 LZ4  SN IP        510 30.41                             129    0.0110 12.0 340 
 LZ4  SZ E         510 30.48                  159.6 14.8      0        12.0 340 
 LZ4  SE IS        510 32.36                             129   -0.0110 12.0 340 
 LZ4  SZ  AML      510 32.99        11.1 0.38                          12.0 340 
                                                                                
