 2010  521 1356 37.3 L  20.983 -98.212 13.0  RAL  2 1.8 2.0LRAL                1
 GAP=345       25.38     190.4   242.1174.9 -0.8900E+04 -0.1191E+05 -0.7032E+04E
 ACTION:UPD 12-06-08 11:37 OP:RALL STATUS:               ID:20100521135637     I
 2010-05-21-1356-42S.PLUR1_006                                                 6
 STAT SP IPHASW D HRMM SECON CODA AMPLIT PERI AZIMU VELO AIN AR TRES W  DIS CAZ7
 LO8  SZ E        1356 50.77                  344.2  9.7    116         106 281 
 LO8  SN IP       1356 51.15                              95   -3.1010  106 281 
 LO8  SE IS       1357  3.84                              95   -2.8210  106 281 
 LO8  SZ  AML     1357  5.68        26.8 0.38                           106 281 
 LA4  SZ E        1356 58.24                  146.4  9.5     31         127 296 
 LA4  SN IP       1356 58.63                              52    1.4610  127 296 
 LA4  SE IS       1357 16.17                              52    4.4610  127 296 
 LA4  SZ  AML     1357 21.27        80.3 0.40                           127 296 
                                                                                
