 2010  521 1204 30.7 L  21.417 -99.236  9.9  RAL  2 1.2 1.2LRAL                1
 GAP=349       20.51     186.3    31.9384.9  0.2553E+04 -0.2748E+04 -0.3203E+05E
 ACTION:UPD 12-06-08 11:37 OP:RALL STATUS:               ID:20100521120430     I
 2010-05-21-1204-25S.PLUR1_006                                                 6
 STAT SP IPHASW D HRMM SECON CODA AMPLIT PERI AZIMU VELO AIN AR TRES W  DIS CAZ7
 LG3  SZ E        12 4 34.77                  343.0 25.2     23        15.7 186 
 LG3  SN IP       12 4 34.81                             116    0.8910 15.7 186 
 LG3  SE IS       12 4 35.31                             116   -0.9410 15.7 186 
 LG3  SZ  AML     12 4 35.77       345.4 0.10                          15.7 186 
 LO8  SZ E        12 4 36.47                   92.6  9.3     97        28.6 175 
 LO8  SN IP       12 4 36.48                             103    0.6810 28.6 175 
 LO8  SE IS       12 4 38.86                             103   -0.6310 28.6 175 
 LO8  SZ  AML     12 4 40.13         3.7 0.48                          28.6 175 
                                                                                
