 2010  522 0841 17.5 L  21.202 -99.221 10.0  RAL  1 0.0 0.3LRAL                1
 GAP=360        0.30       4.1     1.6  0.0 -0.6236E+01 -0.1191E+05 -0.7032E+04E
 ACTION:UPD 12-06-08 11:37 OP:RALL STATUS:               ID:20100522084117     I
 2010-05-22-0841-14S.PLUR1_003                                                 6
 STAT SP IPHASW D HRMM SECON CODA AMPLIT PERI AZIMU VELO AIN AR TRES W  DIS CAZ7
 LZ4  SN IP        841 20.62                             122    0.0010 15.1 341 
 LZ4  SZ E         841 20.63                  160.7 43.2      0        15.1 341 
 LZ4  SE IS        841 22.87                             122    0.0010 15.1 341 
 LZ4  SZ  AML      841 23.49         5.8 0.40                          15.1 341 
                                                                                
