 2010  522 1306 29.6 L  21.338 -99.296 10.0  RAL  1 0.1 1.5LRAL                1
 GAP=360        0.36       5.0    17.4  0.0 -0.8697E+02 -0.1191E+05 -0.7032E+04E
 ACTION:UPD 12-06-08 11:37 OP:RALL STATUS:               ID:20100522130629     I
 2010-05-22-1306-21S.PLUR1_003                                                 6
 STAT SP IPHASW D HRMM SECON CODA AMPLIT PERI AZIMU VELO AIN AR TRES W  DIS CAZ7
 LZ4  SZ E        13 6 31.57                  287.2 22.1      0        2.84 107 
 LZ4  SN IP       13 6 31.59                             165    0.1410 2.84 107 
 LZ4  SE IS       13 6 32.69                             165   -0.1410 2.84 107 
 LZ4  SZ  AML     13 6 32.93       153.9 0.10                          2.84 107 
                                                                                
