 2010  522 2301 34.9 L  21.395 -99.327 10.5  RAL  2 0.4 0.5LRAL                1
 GAP=249        6.83       4.9     8.7 51.4  0.3341E+02 -0.4895E+01  0.4251E+01E
 ACTION:UPD 12-06-08 11:37 OP:RALL STATUS:               ID:20100522230134     I
 2010-05-22-2301-28S.PLUR1_006                                                 6
 STAT SP IPHASW D HRMM SECON CODA AMPLIT PERI AZIMU VELO AIN AR TRES W  DIS CAZ7
 LT7  SZ E        23 1 37.20                  225.2 31.2      6        0.07  39 
 LT7  SN IP       23 1 37.35                             180    0.6110 0.07  39 
 LT7  SE IS       23 1 38.44                             180    0.3510 0.07  39 
 LT7  SZ  AML     23 1 38.53         6.1 0.16                          0.07  39 
 LG3  SZ E        23 1 37.92                    2.1  9.0     32        15.3 150 
 LG3  SN IP       23 1 37.92                             123   -0.1510 15.3 150 
 LG3  SE IS       23 1 39.57                             123   -0.8110 15.3 150 
 LG3  SZ  AML     23 1 39.73        24.4 0.52                          15.3 150 
                                                                                
