 2010  523 0755 31.5 L  21.416 -99.256 10.0  RAL  1 0.0 0.1LRAL                1
 GAP=360        0.30       4.3     0.4  0.0 -0.4570E+00 -0.4895E+01  0.4251E+01E
 ACTION:UPD 12-06-08 11:37 OP:RALL STATUS:               ID:20100523075531     I
 2010-05-23-0755-27S.PLUR1_003                                                 6
 STAT SP IPHASW D HRMM SECON CODA AMPLIT PERI AZIMU VELO AIN AR TRES W  DIS CAZ7
 LG3  SZ E         755 34.66                  358.7  4.7      0        15.5 179 
 LG3  SN IP        755 34.68                             121    0.0210 15.5 179 
 LG3  SE IS        755 36.94                             121   -0.0210 15.5 179 
 LG3  SZ  AML      755 37.47         3.8 0.36                          15.5 179 
                                                                                
