 2010  523 1248 16.1 R  20.641-100.091  2.8  RAL  2 1.9 2.3LRAL                1
 GAP=343       25.87     819.8   999.9999.9  0.8279E+06 -0.2522E+07 -0.1962E+07E
 ACTION:UPD 12-06-08 11:37 OP:RALL STATUS:               ID:20100523124816     I
 2010-05-23-1248-22S.PLUR1_006                                                 6
 STAT SP IPHASW D HRMM SECON CODA AMPLIT PERI AZIMU VELO AIN AR TRES W  DIS CAZ7
 LO8  SZ E        1248 30.22                  332.1  7.8     94         108  58 
 LO8  SN IP       1248 30.41                              63   -3.0810  108  58 
 LO8  SE IS       1248 42.69                              63   -3.5310  108  58 
 LO8  SZ  AML     1248 44.56        37.7 0.26                           108  58 
 LA4  SZ E        1248 37.62                  143.9  8.1    -76         124  41 
 LA4  SN IP       1248 37.66                              63    1.7310  124  41 
 LA4  SE IS       1248 55.32                              63    4.8810  124  41 
 LA4  SZ  AML     1248 57.52       240.4 0.58                           124  41 
                                                                                
