 2010  524 0847 51.7 L  21.206 -99.234 10.0  RAL  1 0.0 0.7LRAL                1
 GAP=360        0.30       4.3     1.3  0.0 -0.5120E+01 -0.2522E+07 -0.1962E+07E
 ACTION:UPD 12-06-08 11:37 OP:RALL STATUS:               ID:20100524084751     I
 2010-05-24-0847-47S.PLUR1_003                                                 6
 STAT SP IPHASW D HRMM SECON CODA AMPLIT PERI AZIMU VELO AIN AR TRES W  DIS CAZ7
 LZ4  SZ E         847 54.59                  165.2 25.2      0        14.3 345 
 LZ4  SN IP        847 54.69                             123    0.0010 14.3 345 
 LZ4  SE IS        847 56.87                             123    0.0010 14.3 345 
 LZ4  SZ  AML      847 57.15        16.1 0.10                          14.3 345 
                                                                                
