 2010  526 0138 46.6 L  21.460 -99.040  5.1  RAL  2 1.1 1.3LRAL                1
 GAP=341       18.60     185.2   167.8555.6  0.2950E+05  0.7510E+05  0.8382E+05E
 ACTION:UPD 12-06-08 11:37 OP:RALL STATUS:               ID:20100526013846     I
 2010-05-26-0138-42S.PLUR1_006                                                 6
 STAT SP IPHASW D HRMM SECON CODA AMPLIT PERI AZIMU VELO AIN AR TRES W  DIS CAZ7
 LG3  SZ E         138 52.55                  348.2 11.6     59        30.0 227 
 LG3  SN IP        138 52.55                              63    1.1610 30.0 227 
 LG3  SE IS        138 53.25                              63   -1.6510 30.0 227 
 LG3  SZ  AML      138 53.37       476.7 0.28                          30.0 227 
 LO8  SN IP        138 54.05                              63    1.4410 37.8 208 
 LO8  SZ E         138 54.06                   96.5  8.1     68        37.8 208 
 LO8  SE IS        138 56.08                              63   -0.9410 37.8 208 
 LO8  SZ  AML      138 56.51         3.1 0.26                          37.8 208 
                                                                                
