 2010  527 0430 43.5 L  21.610 -99.399 10.0  RAL  1 0.0 0.3LRAL                1
 GAP=360        0.30       3.5     2.5  0.0 -0.8704E+01  0.7510E+05  0.8382E+05E
 ACTION:UPD 12-06-08 11:37 OP:RALL STATUS:               ID:20100527043043     I
 2010-05-27-0430-40S.PLUR1_003                                                 6
 STAT SP IPHASW D HRMM SECON CODA AMPLIT PERI AZIMU VELO AIN AR TRES W  DIS CAZ7
 LA4  SN IP        430 46.87                             118    0.0110 16.8 146 
 LA4  SZ E         430 46.94                  326.2 14.4      0        16.8 146 
 LA4  SE IS        430 49.29                             118   -0.0110 16.8 146 
 LA4  SZ  AML      430 50.34         6.7 0.24                          16.8 146 
                                                                                
