 2010  528 2104 50.4 L  21.190 -98.991 32.7  RAL  4 1.3 1.3LRAL                1
 GAP=307       19.44      32.1    83.1175.6 -0.1218E+04 -0.3849E+04  0.3088E+03E
 ACTION:UPD 12-06-08 11:37 OP:RALL STATUS:               ID:20100528210450     I
 2010-05-28-2104-48S.PLUR1_012                                                 6
 STAT SP IPHASW D HRMM SECON CODA AMPLIT PERI AZIMU VELO AIN AR TRES W  DIS CAZ7
 LA4  SZ E        21 4 59.99                  154.1  9.9               46.3 315 
 LA4  SZ  AML     21 5  6.95        32.7 0.22                          46.3 315 
 LA4  SN IP     C 21 5  0.04                             117           46.3 315 
 LA4  SE IS     C 21 5  3.51                             117           46.3 315 
 LO8  SZ E        21 4 59.78                  129.3  7.5     48        23.3 262 
 LO8  SZ  AML     21 5  4.67         9.2 0.34                          23.3 262 
 LO8  SN IP     D 21 4 59.70                             139           23.3 262 
 LO8  SE IS     D 21 5  3.12                             139           23.3 262 
                                                                                
