 2010  529 0613 54.2 L  21.249 -98.895 10.0  RAL  3 0.9 1.2LRAL                1
 GAP=312       13.50      26.8    88.1552.6  0.2362E+03 -0.2831E+05 -0.3015E+04E
 ACTION:UPD 12-06-08 11:37 OP:RALL STATUS:               ID:20100529061354     I
 2010-05-29-0613-51S.PLUR1_009                                                 6
 STAT SP IPHASW D HRMM SECON CODA AMPLIT PERI AZIMU VELO AIN AR TRES W  DIS CAZ7
 LO8  SZ E         614  2.27                  134.3  8.3     61        34.5 253 
 LO8  SN IP        614  2.28                             102    2.1710 34.5 253 
 LO8  SE IS        614  5.75                             102    1.3010 34.5 253 
 LO8  SZ  AML      614  7.25         7.1 0.26                          34.5 253 
 LG3  SN IP        614  0.87                             101    0.3610 37.2 275 
 LG3  SZ E         614  0.91                   63.3 35.2    -30        37.2 275 
 LG3  SE IS        614  3.18                             101   -1.9710 37.2 275 
 LG3  SZ  AML      614  3.66        75.9 0.10                          37.2 275 
 LA4  SZ E         614  2.59                  153.2  9.8     32        50.2 301 
 LA4  SN IP        614  2.61                              97    0.1110 50.2 301 
 LA4  SE IS        614  6.61                              97   -1.9810 50.2 301 
 LA4  SZ  AML      614  9.63        22.0 0.20                          50.2 301 
                                                                                
