 2010  529 1311 50.0 L  21.356 -99.287 10.0  RAL  1 0.1 0.2LRAL                1
 GAP=360        0.45      15.2    11.0  0.0 -0.1665E+03 -0.2831E+05 -0.3015E+04E
 ACTION:UPD 12-06-08 11:37 OP:RALL STATUS:               ID:20100529131150     I
 2010-05-29-1311-43S.PLUR1_003                                                 6
 STAT SP IPHASW D HRMM SECON CODA AMPLIT PERI AZIMU VELO AIN AR TRES W  DIS CAZ7
 LZ4  SZ E        1311 52.09                  326.0 31.8      0        3.30 146 
 LZ4  SN IP       1311 52.11                             162    0.2310 3.30 146 
 LZ4  SE IS       1311 53.05                             162   -0.2310 3.30 146 
 LZ4  SZ  AML     1311 53.39         8.8 0.42                          3.30 146 
                                                                                
