 2010  530 1047 29.1 L  21.491 -99.308 10.0  RAL  1 0.0 0.9LRAL                1
 GAP=360        0.30       4.0     1.1  0.0 -0.3911E+01 -0.2831E+05 -0.3015E+04E
 ACTION:UPD 12-06-08 11:37 OP:RALL STATUS:               ID:20100530104729     I
 2010-05-30-1047-23S.PLUR1_003                                                 6
 STAT SP IPHASW D HRMM SECON CODA AMPLIT PERI AZIMU VELO AIN AR TRES W  DIS CAZ7
 LZ4  SZ E        1047 32.54                  347.3 10.3      0        18.2 167 
 LZ4  SN IP       1047 32.65                             116    0.0210 18.2 167 
 LZ4  SE IS       1047 35.17                             116   -0.0210 18.2 167 
 LZ4  SZ  AML     1047 36.16        23.0 0.24                          18.2 167 
                                                                                
