 2010  530 2047 18.5 L  21.435 -99.371 10.0  RAL  1 0.0-0.4LRAL                1
 GAP=360        0.30       4.8     5.5  0.0 -0.2604E+02 -0.2831E+05 -0.3015E+04E
 ACTION:UPD 12-06-08 11:37 OP:RALL STATUS:               ID:20100530204718     I
 2010-05-30-2047-13S.PLUR1_003                                                 6
 STAT SP IPHASW D HRMM SECON CODA AMPLIT PERI AZIMU VELO AIN AR TRES W  DIS CAZ7
 LT7  SN IP       2047 20.64                             147    0.0410 6.36 133 
 LT7  SZ E        2047 20.66                  313.3 12.8      0        6.36 133 
 LT7  SE IS       2047 22.06                             147   -0.0410 6.36 133 
 LT7  SZ  AML     2047 24.31         2.1 0.36                          6.36 133 
                                                                                
