 2010  531 1051 30.7 L  21.273 -99.262 10.0  RAL  1 0.2 0.6LRAL                1
 GAP=360        2.53     582.4   506.7  0.0 -0.2950E+06 -0.2831E+05 -0.3015E+04E
 ACTION:UPD 12-06-08 11:37 OP:RALL STATUS:               ID:20100531105130     I
 2010-05-31-1051-23S.PLUR1_003                                                 6
 STAT SP IPHASW D HRMM SECON CODA AMPLIT PERI AZIMU VELO AIN AR TRES W  DIS CAZ7
 LG3  SZ E        1051 32.97                  268.1 29.8     12        1.03  76 
 LG3  SN IP       1051 32.99                             174    0.3910 1.03  76 
 LG3  SE IS       1051 33.57                             174   -0.3910 1.03  76 
 LG3  SZ  AML     1051 33.64        23.2 0.12                          1.03  76 
                                                                                
