 2009  5 1 0602 18.5 L  21.488 -99.315 10.0  RAL  1 0.5 0.1LRAL                1
 GAP=360        5.71     999.9   999.9  0.0  0.2363E+08  0.2858E+02 -0.3548E+02E
 ACTION:UPD 12-06-08 11:37 OP:RALL STATUS:               ID:20090501060218     I
 2009-05-01-0602-06S.PLUR1_003                                                 6
 STAT SP IPHASW D HRMM SECON CODA AMPLIT PERI AZIMU VELO AIN AR TRES W  DIS CAZ7
 LA4  SZ E         6 2 20.78                  282.3 24.7    -26        0.75 129 
 LA4  SN IP        6 2 20.82                             176    0.4610 0.75 129 
 LA4  SE IS        6 2 21.24                             176   -0.4610 0.75 129 
 LA4  SZ  AML      6 2 21.32         6.9 0.46                          0.75 129 
                                                                                
