 2009  5 1 0553 45.4 R  22.146 -98.371 10.0  RAL  1 0.0 1.9LRAL                1
 GAP=360        0.30       4.1     4.4  0.0  0.5937E+01  0.2858E+02 -0.3548E+02E
 ACTION:UPD 12-06-08 11:37 OP:RALL STATUS:               ID:20090501055345     I
 2009-05-01-0553-59S.PLUR1_003                                                 6
 STAT SP IPHASW D HRMM SECON CODA AMPLIT PERI AZIMU VELO AIN AR TRES W  DIS CAZ7
 LZ4  SZ E         554  5.87                   45.7 99.9      0         130 226 
 LZ4  SN IP        554  5.92                              52    0.0110  130 226 
 LZ4  SE IS        554 20.90                              52   -0.0110  130 226 
 LZ4  SZ  AML      554 24.89        34.6 0.28                           130 226 
                                                                                
