 2009  5 1 0418 28.7 L  21.325 -99.266 10.0  RAL  1 0.2 0.4LRAL                1
 SPEC LZ4 S  N MO 12.8 ST0.002 OM  1.9 f00.931 R2.4634 AL-0.05 WI  5.6 MW  2.5 3
 SPEC LZ4 S  N T 41830 K 0.000 GD   10 VP 6.20 DE 3.00 Q0440.0 QA 0.70 VS 3.60 3
 GAP=360        2.21     999.9   999.9  0.0  0.7869E+08  0.2858E+02 -0.3548E+02E
 ACTION:UPD 12-06-08 11:37 OP:RALL STATUS:               ID:20090501041828     I
 2009-05-01-0418-21S.PLUR1_003                                                 6
 STAT SP IPHASW D HRMM SECON CODA AMPLIT PERI AZIMU VELO AIN AR TRES W  DIS CAZ7
 LZ4  SE IS        418 31.45                             176   -0.3710 0.72 330 
 LZ4  SZ E         418 30.88                  160.2 17.7     10        0.72 330 
 LZ4  SZ  AML      418 32.29        13.1 0.16                          0.72 330 
 LZ4  SN IP        418 30.86                             176    0.3710 0.72 330 
                                                                                
