 2009  5 1 0542 20.1 L  21.256 -99.263 10.0  RAL  1 0.1 0.1LRAL                1
 GAP=360        0.63      30.4    17.0  0.0  0.5182E+03  0.2858E+02 -0.3548E+02E
 ACTION:UPD 12-06-08 11:37 OP:RALL STATUS:               ID:20090501054220     I
 2009-05-01-0542-13S.PLUR1_003                                                 6
 STAT SP IPHASW D HRMM SECON CODA AMPLIT PERI AZIMU VELO AIN AR TRES W  DIS CAZ7
 LG3  SZ E         542 22.32                  208.8 12.8      1        2.45  28 
 LG3  SN IP        542 22.34                             167    0.3310 2.45  28 
 LG3  SE IS        542 23.06                             167   -0.3310 2.45  28 
 LG3  SZ  AML      542 23.42         7.2 0.10                          2.45  28 
                                                                                
