 2009  5 1 0651 14.1 R  20.308 -99.868 10.0  RAL  1 0.0 2.3LRAL                1
 GAP=360        0.30       4.4     3.9  0.0  0.4973E+01  0.2858E+02 -0.3548E+02E
 ACTION:UPD 12-06-08 11:37 OP:RALL STATUS:               ID:20090501065114     I
 2009-05-01-0651-28S.PLUR1_003                                                 6
 STAT SP IPHASW D HRMM SECON CODA AMPLIT PERI AZIMU VELO AIN AR TRES W  DIS CAZ7
 LZ4  SN IP        651 34.60                              52    0.0110  129  29 
 LZ4  SZ E         651 34.61                  208.9 43.5      0         129  29 
 LZ4  SE IS        651 49.55                              52   -0.0110  129  29 
 LZ4  SZ  AML      651 56.41        77.5 0.28                           129  29 
                                                                                
