 2009  5 1 0815 20.3 L  20.741 -98.248  0.0  RAL  2 0.7 2.3LRAL                1
 GAP=353        7.94     549.6   905.8999.9 -0.4934E+06  0.1761E+07 -0.1065E+07E
 ACTION:UPD 12-06-08 11:37 OP:RALL STATUS:               ID:20090501081520     I
 2009-05-01-0815-30S.PLUR1_009                                                 6
 STAT SP IPHASW D HRMM SECON CODA AMPLIT PERI AZIMU VELO AIN AR TRES W  DIS CAZ7
 LG3  SZ E         815 38.30                   93.3 18.9    -25         120 300 
 LG3  SN IP        815 38.58                              63   -1.2510  120 300 
 LG3  SE IS        815 52.47                              63   -1.6210  120 300 
 LG3  SZ  AML      815 56.65        95.4 0.56                           120 300 
 LA4  SZ E         815 43.38                  151.3 12.8     25         138 307 
 LA4  SN IP        815 43.49                              63    0.9510  138 307 
 LA4  SE IS        816  0.69                              63    1.9110  138 307 
 LA4  SZ  AML      816  3.36        76.7 0.42                           138 307 
                                                                                
