 2009  5 1 1455 56.9 L  21.749 -99.378 10.0  RAL  1 0.0 0.9LRAL                1
 GAP=360        0.30       3.7     1.3  0.0 -0.3464E+01  0.1761E+07 -0.1065E+07E
 ACTION:UPD 12-06-08 11:37 OP:RALL STATUS:               ID:20090501145556     I
 2009-05-01-1455-48S.PLUR1_003                                                 6
 STAT SP IPHASW D HRMM SECON CODA AMPLIT PERI AZIMU VELO AIN AR TRES W  DIS CAZ7
 LA4  SN IP       1456  2.16                             104    0.0110 30.3 166 
 LA4  SZ E        1456  2.21                  346.3  8.5      0        30.3 166 
 LA4  SE IS       1456  6.00                             104   -0.0110 30.3 166 
 LA4  SZ  AML     1456  7.32        16.3 0.32                          30.3 166 
                                                                                
