 2009  5 1 1202 57.6 L  21.245 -99.219 10.0  RAL  1 0.0 1.2LRAL                1
 GAP=360        0.30       4.4     2.6  0.0 -0.1128E+02  0.1761E+07 -0.1065E+07E
 ACTION:UPD 12-06-08 11:37 OP:RALL STATUS:               ID:20090501120257     I
 2009-05-01-1202-51S.PLUR1_003                                                 6
 STAT SP IPHASW D HRMM SECON CODA AMPLIT PERI AZIMU VELO AIN AR TRES W  DIS CAZ7
 LZ4  SN IP       12 3  0.24                             132    0.0210 10.9 331 
 LZ4  SZ E        12 3  0.26                  151.0 12.3      0        10.9 331 
 LZ4  SE IS       12 3  2.07                             132   -0.0210 10.9 331 
 LZ4  SZ  AML     12 3  2.21        61.4 0.30                          10.9 331 
                                                                                
