 2009  5 1 1516  2.4 L  21.572 -99.314 10.0  RAL  1 0.0 0.1LRAL                1
 GAP=360        0.30       5.3     0.4  0.0 -0.1450E+01  0.1761E+07 -0.1065E+07E
 ACTION:UPD 12-06-08 11:37 OP:RALL STATUS:               ID:20090501151602     I
 2009-05-01-1515-52S.PLUR1_003                                                 6
 STAT SP IPHASW D HRMM SECON CODA AMPLIT PERI AZIMU VELO AIN AR TRES W  DIS CAZ7
 LA4  SN IP       1516  4.83                             135    0.0010 9.79 177 
 LA4  SZ E        1516  4.84                  357.2  9.4      0        9.79 177 
 LA4  SE IS       1516  6.62                             135    0.0010 9.79 177 
 LA4  SZ  AML     1516  7.47         5.8 0.38                          9.79 177 
                                                                                
