 2009  5 1 1327 28.9 L  21.268 -99.233 10.0  RAL  1 0.2 1.1LRAL                1
 GAP=360        1.49      33.6    88.9  0.0 -0.2990E+04  0.1761E+07 -0.1065E+07E
 ACTION:UPD 12-06-08 11:37 OP:RALL STATUS:               ID:20090501132728     I
 2009-05-01-1327-22S.PLUR1_003                                                 6
 STAT SP IPHASW D HRMM SECON CODA AMPLIT PERI AZIMU VELO AIN AR TRES W  DIS CAZ7
 LG3  SZ E        1327 31.06                  105.4 14.7     -6        2.21 292 
 LG3  SN IP       1327 31.10                             168    0.2910 2.21 292 
 LG3  SE IS       1327 31.90                             168   -0.2910 2.21 292 
 LG3  SZ  AML     1327 32.58        76.7 0.30                          2.21 292 
                                                                                
