 2009  5 2 0909 30.7 L  21.345 -99.263 10.0  RAL  1 0.1 0.3LRAL                1
 GAP=360        0.55     649.1   999.9  0.0 -0.1124E+07  0.1761E+07 -0.1065E+07E
 ACTION:UPD 12-06-08 11:37 OP:RALL STATUS:               ID:20090502090930     I
 2009-05-02-0909-24S.PLUR1_003                                                 6
 STAT SP IPHASW D HRMM SECON CODA AMPLIT PERI AZIMU VELO AIN AR TRES W  DIS CAZ7
 LZ4  SN IP        9 9 32.90                             171    0.3210 1.67 203 
 LZ4  SZ E         9 9 32.92                   23.4 19.6      0        1.67 203 
 LZ4  SE IS        9 9 33.62                             171   -0.3210 1.67 203 
 LZ4  SZ  AML      9 9 33.91        11.6 0.28                          1.67 203 
                                                                                
