 2009  5 2 0927  3.0 L  21.253 -99.224 10.0  RAL  1 0.1 0.2LRAL                1
 GAP=360        0.42       9.8    12.1  0.0 -0.1184E+03  0.1761E+07 -0.1065E+07E
 ACTION:UPD 12-06-08 11:37 OP:RALL STATUS:               ID:20090502092703     I
 2009-05-02-0926-56S.PLUR1_003                                                 6
 STAT SP IPHASW D HRMM SECON CODA AMPLIT PERI AZIMU VELO AIN AR TRES W  DIS CAZ7
 LG3  SZ E         927  5.08                  130.7 14.8      0        3.87 311 
 LG3  SN IP        927  5.12                             160    0.2010 3.87 311 
 LG3  SE IS        927  6.15                             160   -0.2010 3.87 311 
 LG3  SZ  AML      927  6.76         8.6 0.66                          3.87 311 
                                                                                
