 2009  5 2 0423 54.0 L  21.271 -99.250 10.0  RAL  1 0.5 0.2LRAL                1
 GAP=360        6.74     382.4   999.9  0.0 -0.1279E+07  0.1761E+07 -0.1065E+07E
 ACTION:UPD 12-06-08 11:37 OP:RALL STATUS:               ID:20090502042354     I
 2009-05-02-0423-48S.PLUR1_003                                                 6
 STAT SP IPHASW D HRMM SECON CODA AMPLIT PERI AZIMU VELO AIN AR TRES W  DIS CAZ7
 LG3  SZ E         423 55.97                  186.8  5.6     32        0.52 335 
 LG3  SN IP        423 56.03                             177    0.1910 0.52 335 
 LG3  SE IS        423 57.00                             177   -0.1910 0.52 335 
 LG3  SZ  AML      423 57.71         8.7 0.16                          0.52 335 
                                                                                
