 2009  5 2 0258  3.7 L  21.334 -99.265 10.0  RAL  1 0.6 1.6LRAL                1
 GAP=360        7.39     773.1   999.9  0.0 -0.2046E+07  0.1761E+07 -0.1065E+07E
 ACTION:UPD 12-06-08 11:37 OP:RALL STATUS:               ID:20090502025803     I
 2009-05-02-0257-56S.PLUR1_003                                                 6
 STAT SP IPHASW D HRMM SECON CODA AMPLIT PERI AZIMU VELO AIN AR TRES W  DIS CAZ7
 LZ4  SZ E         258  6.05                   90.3 10.3     35        0.60 235 
 LZ4  SN IP        258  6.08                             177    0.5410 0.60 235 
 LZ4  SE IS        258  6.33                             177   -0.5410 0.60 235 
 LZ4  SZ  AML      258  6.64       232.2 0.26                          0.60 235 
                                                                                
