 2009  5 2 0800 47.9 L  21.303 -99.186 10.0  RAL  1 0.0 0.5LRAL                1
 GAP=360        0.30       1.8     5.5  0.0 -0.1007E+02  0.1761E+07 -0.1065E+07E
 ACTION:UPD 12-06-08 11:37 OP:RALL STATUS:               ID:20090502080047     I
 2009-05-02-0800-43S.PLUR1_003                                                 6
 STAT SP IPHASW D HRMM SECON CODA AMPLIT PERI AZIMU VELO AIN AR TRES W  DIS CAZ7
 LZ4  SZ E         8 0 50.27                  109.6 50.3      0        9.22 290 
 LZ4  SN IP        8 0 50.32                             137    0.0210 9.22 290 
 LZ4  SE IS        8 0 52.02                             137   -0.0210 9.22 290 
 LZ4  SZ  AML      8 0 54.36        13.3 0.60                          9.22 290 
                                                                                
