 2009  5 2 0022 44.0 L  22.015 -99.380 10.0  RAL  1 0.0 2.1LRAL                1
 GAP=360        0.30       3.7     1.7  0.0 -0.1523E+01  0.1761E+07 -0.1065E+07E
 ACTION:UPD 12-06-08 11:37 OP:RALL STATUS:               ID:20090502002244     I
 2009-05-02-0022-40S.PLUR1_003                                                 6
 STAT SP IPHASW D HRMM SECON CODA AMPLIT PERI AZIMU VELO AIN AR TRES W  DIS CAZ7
 LA4  SN IP        022 53.71                              96    0.0110 59.2 173 
 LA4  SZ E         022 53.76                  352.9  8.0      0        59.2 173 
 LA4  SE IS        023  0.80                              96   -0.0110 59.2 173 
 LA4  SZ  AML      023  3.73       113.2 0.34                          59.2 173 
                                                                                
