 2009  5 2 0335 22.3 L  21.315 -99.292 10.0  RAL  1 0.1 0.1LRAL                1
 GAP=360        0.48      12.7    18.7  0.0  0.2368E+03  0.1761E+07 -0.1065E+07E
 ACTION:UPD 12-06-08 11:37 OP:RALL STATUS:               ID:20090502033522     I
 2009-05-02-0335-16S.PLUR1_003                                                 6
 STAT SP IPHASW D HRMM SECON CODA AMPLIT PERI AZIMU VELO AIN AR TRES W  DIS CAZ7
 LZ4  SZ E         335 24.10                  233.9 43.1      0        2.95  54 
 LZ4  SN IP        335 24.49                             164    0.2510 2.95  54 
 LZ4  SZ  AML      335 24.99         7.0 0.58                          2.95  54 
 LZ4  SE IS        335 25.37                             164   -0.2510 2.95  54 
                                                                                
