 2009  5 2 1927 39.9 L  21.325 -99.257 10.0  RAL  1 0.3 0.4LRAL                1
 GAP=360        2.55     201.1   397.8  0.0  0.7996E+05  0.1761E+07 -0.1065E+07E
 ACTION:UPD 12-06-08 11:37 OP:RALL STATUS:               ID:20090502192739     I
 2009-05-02-1927-33S.PLUR1_003                                                 6
 STAT SP IPHASW D HRMM SECON CODA AMPLIT PERI AZIMU VELO AIN AR TRES W  DIS CAZ7
 LZ4  SZ E        1927 42.28                  107.4  9.7    -10        1.45 299 
 LZ4  SN IP       1927 42.39                             172    0.6110 1.45 299 
 LZ4  SE IS       1927 42.52                             172   -0.6110 1.45 299 
 LZ4  SZ  AML     1927 43.06        14.1 0.54                          1.45 299 
                                                                                
