 2009  5 2 1555 42.3 L  21.796 -99.434 10.0  RAL  1 0.0 0.9LRAL                1
 GAP=360        0.30       3.5     1.7  0.0 -0.4708E+01  0.1761E+07 -0.1065E+07E
 ACTION:UPD 12-06-08 11:37 OP:RALL STATUS:               ID:20090502155542     I
 2009-05-02-1555-37S.PLUR1_003                                                 6
 STAT SP IPHASW D HRMM SECON CODA AMPLIT PERI AZIMU VELO AIN AR TRES W  DIS CAZ7
 LA4  SN IP       1555 48.56                             101    0.0110 36.9 159 
 LA4  SZ E        1555 48.65                  339.5 10.2      0        36.9 159 
 LA4  SE IS       1555 53.13                             101   -0.0110 36.9 159 
 LA4  SZ  AML     1555 56.84        13.9 0.30                          36.9 159 
                                                                                
