 2009  5 3 0618 29.6 L  21.798 -99.487 10.0  RAL  1 0.0 0.7LRAL                1
 GAP=360        0.30       3.4     2.1  0.0 -0.5835E+01  0.1761E+07 -0.1065E+07E
 ACTION:UPD 12-06-08 11:37 OP:RALL STATUS:               ID:20090503061829     I
 2009-05-03-0618-22S.PLUR1_003                                                 6
 STAT SP IPHASW D HRMM SECON CODA AMPLIT PERI AZIMU VELO AIN AR TRES W  DIS CAZ7
 LA4  SZ E         618 36.17                  332.2 10.0      0        39.3 152 
 LA4  SN IP        618 36.28                             100    0.0210 39.3 152 
 LA4  SE IS        618 41.12                             100   -0.0210 39.3 152 
 LA4  SZ  AML      618 44.08         8.3 0.46                          39.3 152 
                                                                                
