 2009  5 3 0838  5.3 L  21.472 -99.328 10.0  RAL  1 0.2 0.4LRAL                1
 GAP=360        0.71      22.4    37.0  0.0  0.8263E+03  0.1761E+07 -0.1065E+07E
 ACTION:UPD 12-06-08 11:37 OP:RALL STATUS:               ID:20090503083805     I
 2009-05-03-0837-53S.PLUR1_003                                                 6
 STAT SP IPHASW D HRMM SECON CODA AMPLIT PERI AZIMU VELO AIN AR TRES W  DIS CAZ7
 LA4  SZ E         838  7.57                  237.0 22.0      0        2.31  57 
 LA4  SN IP        838  7.59                             167    0.4410 2.31  57 
 LA4  SE IS        838  8.09                             167   -0.4410 2.31  57 
 LA4  SZ  AML      838  8.13        14.7 0.24                          2.31  57 
                                                                                
