 2009  5 3 1337 46.2 L  21.474 -99.327 10.0  RAL  1 0.2 0.0LRAL                1
 GAP=360        0.70      21.6    39.1  0.0  0.8439E+03  0.1761E+07 -0.1065E+07E
 ACTION:UPD 12-06-08 11:37 OP:RALL STATUS:               ID:20090503133746     I
 2009-05-03-1337-34S.PLUR1_003                                                 6
 STAT SP IPHASW D HRMM SECON CODA AMPLIT PERI AZIMU VELO AIN AR TRES W  DIS CAZ7
 LA4  SZ E        1337 48.42                  239.3 23.1      0        2.18  59 
 LA4  SN IP       1337 48.46                             168    0.4310 2.18  59 
 LA4  SE IS       1337 48.98                             168   -0.4310 2.18  59 
 LA4  SZ  AML     1337 49.07         5.0 0.18                          2.18  59 
                                                                                
