 2009  5 3 1735 33.1 L  21.702 -99.540 10.0  RAL  1 0.0 0.5LRAL                1
 GAP=360        0.30       2.8     3.0  0.0 -0.7353E+01  0.1761E+07 -0.1065E+07E
 ACTION:UPD 12-06-08 11:37 OP:RALL STATUS:               ID:20090503173533     I
 2009-05-03-1735-29S.PLUR1_003                                                 6
 STAT SP IPHASW D HRMM SECON CODA AMPLIT PERI AZIMU VELO AIN AR TRES W  DIS CAZ7
 LA4  SN IP       1735 38.95                             102    0.0210 34.0 135 
 LA4  SZ E        1735 39.20                  315.3 16.5      0        34.0 135 
 LA4  SE IS       1735 43.18                             102   -0.0210 34.0 135 
 LA4  SZ  AML     1735 45.42         5.4 0.40                          34.0 135 
                                                                                
