 2009  5 3 15 6 57.1 L                       RAL  1                            1
 ACTION:UPD 12-06-08 11:37 OP:RALL STATUS:               ID:20090503150657     I
 2009-05-03-1506-57S.PLUR1_003                                                 6
 STAT SP IPHASW D HRMM SECON CODA AMPLIT PERI AZIMU VELO AIN AR TRES W  DIS CAZ7
 LZ4  SZ E        15 7  6.00                  341.7 10.1                        
 LZ4  SN IP       15 7  6.01                                                    
 LZ4  SZ  AML     15 7  7.10        34.6 0.16                                   
                                                                                
