 2009  5 3 1606 31.3 L  21.568 -99.534 10.0  RAL  1 0.0 0.9LRAL                1
 GAP=360        0.30       2.7     3.0  0.0 -0.7127E+01  0.1761E+07 -0.1065E+07E
 ACTION:UPD 12-06-08 11:37 OP:RALL STATUS:               ID:20090503160631     I
 2009-05-03-1606-32S.PLUR1_003                                                 6
 STAT SP IPHASW D HRMM SECON CODA AMPLIT PERI AZIMU VELO AIN AR TRES W  DIS CAZ7
 LZ4  SZ E        16 6 37.73                  313.8 10.0      0        38.0 134 
 LZ4  SN IP       16 6 37.75                             100    0.0210 38.0 134 
 LZ4  SE IS       16 6 42.42                             100   -0.0210 38.0 134 
 LZ4  SZ  AML     16 6 43.50        12.6 0.64                          38.0 134 
                                                                                
