 2009  5 3 2041 36.4 L  21.244 -99.392 10.0  RAL  1 0.0 1.5LRAL                1
 GAP=360        0.30       2.6     3.7  0.0  0.9501E+01  0.1761E+07 -0.1065E+07E
 ACTION:UPD 12-06-08 11:37 OP:RALL STATUS:               ID:20090503204136     I
 2009-05-03-2041-29S.PLUR1_003                                                 6
 STAT SP IPHASW D HRMM SECON CODA AMPLIT PERI AZIMU VELO AIN AR TRES W  DIS CAZ7
 LZ4  SZ E        2041 39.38                  233.1 68.0      0        15.9  53 
 LZ4  SN IP       2041 39.64                             120   -0.0210 15.9  53 
 LZ4  SE IS       2041 42.01                             120    0.0210 15.9  53 
 LZ4  SZ  AML     2041 42.34       103.5 0.52                          15.9  53 
                                                                                
