 2009  5 3 2319 46.0 L  21.633 -99.455 10.0  RAL  1 0.0 1.3LRAL                1
 GAP=360        0.30       2.9     2.9  0.0 -0.8158E+01  0.1761E+07 -0.1065E+07E
 ACTION:UPD 12-06-08 11:37 OP:RALL STATUS:               ID:20090503231946     I
 2009-05-03-2319-36S.PLUR1_003                                                 6
 STAT SP IPHASW D HRMM SECON CODA AMPLIT PERI AZIMU VELO AIN AR TRES W  DIS CAZ7
 LA4  SZ E        2319 50.10                  317.6  9.2      0        22.5 138 
 LA4  SN IP       2319 50.11                             111    0.0010 22.5 138 
 LA4  SE IS       2319 53.12                             111    0.0010 22.5 138 
 LA4  SZ  AML     2319 56.50        45.0 0.36                          22.5 138 
                                                                                
