 2009  5 3 2150 12.6 L  21.733 -99.229 10.0  RAL  1 0.0 1.3LRAL                1
 GAP=360        0.30       3.7     1.3  0.0  0.1278E+01  0.1761E+07 -0.1065E+07E
 ACTION:UPD 12-06-08 11:37 OP:RALL STATUS:               ID:20090503215012     I
 2009-05-03-2150-13S.PLUR1_003                                                 6
 STAT SP IPHASW D HRMM SECON CODA AMPLIT PERI AZIMU VELO AIN AR TRES W  DIS CAZ7
 LZ4  SN IP       2150 20.07                              98    0.0110 44.7 185 
 LZ4  SZ E        2150 20.41                    5.4 11.4      0        44.7 185 
 LZ4  SE IS       2150 25.52                              98   -0.0110 44.7 185 
 LZ4  SZ  AML     2150 27.38        23.6 0.26                          44.7 185 
                                                                                
