 2009  5 4 0938 44.9 L  21.337 -99.287 10.0  RAL  1 0.1 0.5LRAL                1
 GAP=360        0.46      11.0    31.9  0.0 -0.3523E+03  0.1761E+07 -0.1065E+07E
 ACTION:UPD 12-06-08 11:37 OP:RALL STATUS:               ID:20090504093844     I
 2009-05-04-0938-38S.PLUR1_003                                                 6
 STAT SP IPHASW D HRMM SECON CODA AMPLIT PERI AZIMU VELO AIN AR TRES W  DIS CAZ7
 LZ4  SN IP        938 47.02                             170    0.2410 1.90 110 
 LZ4  SZ E         938 47.02                  290.4 22.7      0        1.90 110 
 LZ4  SE IS        938 47.90                             170   -0.2410 1.90 110 
 LZ4  SZ  AML      938 50.26        16.5 0.56                          1.90 110 
                                                                                
