 2009  5 4 0207 59.5 L  21.198 -99.306 10.0  RAL  1 0.0 1.0LRAL                1
 GAP=360        0.30       3.8     0.9  0.0 -0.1289E+00  0.1761E+07 -0.1065E+07E
 ACTION:UPD 12-06-08 11:37 OP:RALL STATUS:               ID:20090504020759     I
 2009-05-04-0207-51S.PLUR1_003                                                 6
 STAT SP IPHASW D HRMM SECON CODA AMPLIT PERI AZIMU VELO AIN AR TRES W  DIS CAZ7
 LA4  SZ E         2 8  4.94                  179.5 14.7      0        31.7 359 
 LA4  SN IP        2 8  4.97                             103    0.0110 31.7 359 
 LA4  SE IS        2 8  8.97                             103   -0.0110 31.7 359 
 LA4  SZ  AML      2 8 15.99        16.1 0.34                          31.7 359 
                                                                                
