 2009  5 4 0340 11.6 L  21.318 -99.270 10.0  RAL  1 0.2 0.6LRAL                1
 GAP=360        1.76     151.6   340.5  0.0  0.5160E+05  0.1761E+07 -0.1065E+07E
 ACTION:UPD 12-06-08 11:37 OP:RALL STATUS:               ID:20090504034011     I
 2009-05-04-0340-05S.PLUR1_003                                                 6
 STAT SP IPHASW D HRMM SECON CODA AMPLIT PERI AZIMU VELO AIN AR TRES W  DIS CAZ7
 LZ4  SZ E         340 13.99                  188.0 85.1      7        1.47   1 
 LZ4  SN IP        340 14.01                             172    0.5310 1.47   1 
 LZ4  SE IS        340 14.29                             172   -0.5310 1.47   1 
 LZ4  SZ  AML      340 14.76        20.0 0.74                          1.47   1 
                                                                                
