 2009  5 4 0153 12.8 L  21.320 -99.270 10.0  RAL  1 0.1 0.4LRAL                1
 GAP=360        1.80     138.4   999.9  0.0  0.2156E+06  0.1761E+07 -0.1065E+07E
 ACTION:UPD 12-06-08 11:37 OP:RALL STATUS:               ID:20090504015312     I
 2009-05-04-0153-06S.PLUR1_003                                                 6
 STAT SP IPHASW D HRMM SECON CODA AMPLIT PERI AZIMU VELO AIN AR TRES W  DIS CAZ7
 LZ4  SZ E         153 14.68                  174.0 19.9     -7        1.16   2 
 LZ4  SN IP        153 14.71                             174    0.0810 1.16   2 
 LZ4  SE IS        153 15.89                             174   -0.0810 1.16   2 
 LZ4  SZ  AML      153 16.01        14.3 0.22                          1.16   2 
                                                                                
