 2009  5 4 1510 58.3 L  21.307 -99.277 10.0  RAL  1 0.1 0.3LRAL                1
 GAP=360        0.36      16.8     5.1  0.0  0.8581E+02  0.1761E+07 -0.1065E+07E
 ACTION:UPD 12-06-08 11:37 OP:RALL STATUS:               ID:20090504151058     I
 2009-05-04-1510-52S.PLUR1_003                                                 6
 STAT SP IPHASW D HRMM SECON CODA AMPLIT PERI AZIMU VELO AIN AR TRES W  DIS CAZ7
 LZ4  SN IP       1511  0.35                             165    0.1310 2.71  16 
 LZ4  SZ E        1511  0.37                  195.9 25.7      0        2.71  16 
 LZ4  SE IS       1511  1.46                             165   -0.1310 2.71  16 
 LZ4  SZ  AML     1511  2.00        11.0 0.26                          2.71  16 
                                                                                
