 2009  5 4 1226 12.2 L  21.488 -99.315 10.0  RAL  1 0.5 0.5LRAL                1
 GAP=360        5.71     999.9   999.9  0.0  0.2363E+08  0.1761E+07 -0.1065E+07E
 ACTION:UPD 12-06-08 11:37 OP:RALL STATUS:               ID:20090504122612     I
 2009-05-04-1226-00S.PLUR1_003                                                 6
 STAT SP IPHASW D HRMM SECON CODA AMPLIT PERI AZIMU VELO AIN AR TRES W  DIS CAZ7
 LA4  SZ E        1226 14.46                  282.3 19.6    -26        0.75 129 
 LA4  SN IP       1226 14.47                             176    0.4610 0.75 129 
 LA4  SE IS       1226 14.89                             176   -0.4610 0.75 129 
 LA4  SZ  AML     1226 14.98        16.6 0.18                          0.75 129 
                                                                                
