 2009  5 5 0849 40.3 L  21.310 -99.286 10.0  RAL  1 0.1 0.3LRAL                1
 GAP=360        0.53      20.1    15.8  0.0  0.3173E+03  0.1438E+04  0.1077E+04E
 ACTION:UPD 12-06-08 11:37 OP:RALL STATUS:               ID:20090505084940     I
 2009-05-05-0849-34S.PLUR1_003                                                 6
 STAT SP IPHASW D HRMM SECON CODA AMPLIT PERI AZIMU VELO AIN AR TRES W  DIS CAZ7
 LZ4  SZ E         849 42.30                  216.1 35.3      0        2.85  36 
 LZ4  SN IP        849 42.50                             165    0.3010 2.85  36 
 LZ4  SE IS        849 43.28                             165   -0.3010 2.85  36 
 LZ4  SZ  AML      849 43.60        10.4 0.68                          2.85  36 
                                                                                
