 2009  5 5 0609 23.7 L  21.725 -99.421 10.0  RAL  1 0.0 1.8LRAL                1
 GAP=360        0.30       3.5     1.8  0.0 -0.4289E+01  0.1761E+07 -0.1065E+07E
 ACTION:UPD 12-06-08 11:37 OP:RALL STATUS:               ID:20090505060923     I
 2009-05-05-0609-22S.PLUR1_003                                                 6
 STAT SP IPHASW D HRMM SECON CODA AMPLIT PERI AZIMU VELO AIN AR TRES W  DIS CAZ7
 LZ4  SN IP        6 9 31.44                              98    0.0110 46.4 160 
 LZ4  SZ E         6 9 32.01                  340.3 15.0      0        46.4 160 
 LZ4  SE IS        6 9 37.07                              98   -0.0110 46.4 160 
 LZ4  SZ  AML      6 9 37.99        73.8 0.16                          46.4 160 
                                                                                
