 2009  5 5 0937  8.1 L  21.284 -99.224 10.0  RAL  1 0.0 0.3LRAL                1
 GAP=360        0.30       4.9     4.8  0.0 -0.2324E+02  0.1438E+04  0.1077E+04E
 ACTION:UPD 12-06-08 11:37 OP:RALL STATUS:               ID:20090505093708     I
 2009-05-05-0937-02S.PLUR1_003                                                 6
 STAT SP IPHASW D HRMM SECON CODA AMPLIT PERI AZIMU VELO AIN AR TRES W  DIS CAZ7
 LZ4  SZ E         937 10.26                  137.5 29.2      0        6.98 318 
 LZ4  SN IP        937 10.33                             145    0.0410 6.98 318 
 LZ4  SE IS        937 11.84                             145   -0.0410 6.98 318 
 LZ4  SZ  AML      937 12.95         8.6 0.70                          6.98 318 
                                                                                
