 2009  5 5 0200  8.1 L  21.738 -99.366 10.0  RAL  1 0.0 1.0LRAL                1
 GAP=360        0.30       3.8     1.2  0.0 -0.3079E+01  0.1761E+07 -0.1065E+07E
 ACTION:UPD 12-06-08 11:37 OP:RALL STATUS:               ID:20090505020008     I
 2009-05-05-0200-02S.PLUR1_003                                                 6
 STAT SP IPHASW D HRMM SECON CODA AMPLIT PERI AZIMU VELO AIN AR TRES W  DIS CAZ7
 LA4  SZ E         2 0 13.15                  348.1  8.9      0        28.7 168 
 LA4  SN IP        2 0 13.20                             105    0.0110 28.7 168 
 LA4  SE IS        2 0 16.87                             105   -0.0110 28.7 168 
 LA4  SZ  AML      2 0 18.40        19.9 0.52                          28.7 168 
                                                                                
