 2009  5 5 0741 42.4 L  21.632 -99.641  5.5  RAL  2 1.1 1.6LRAL                1
 GAP=341       18.23      84.4   128.5149.9 -0.7625E+04  0.1438E+04  0.1077E+04E
 ACTION:UPD 12-06-08 11:37 OP:RALL STATUS:               ID:20090505074142     I
 2009-05-05-0741-34S.PLUR1_006                                                 6
 STAT SP IPHASW D HRMM SECON CODA AMPLIT PERI AZIMU VELO AIN AR TRES W  DIS CAZ7
 LA4  SN IP        741 48.68                              92   -0.1310 38.1 115 
 LA4  SZ E         741 48.70                  342.6  8.6     47        38.1 115 
 LA4  SE IS        741 51.65                              92   -1.8310 38.1 115 
 LA4  SZ  AML      741 53.64        83.2 0.36                          38.1 115 
 LG3  SZ E         741 53.00                  239.5 17.7    -74        56.3 134 
 LG3  SN IP        741 53.01                              63    1.3710 56.3 134 
 LG3  SE IS        741 58.98                              63    0.5910 56.3 134 
 LG3  SZ  AML      742  0.55        33.5 0.34                          56.3 134 
                                                                                
