 2009  5 5 1815 16.9 L  21.407 -99.304 10.0  RAL  1 0.0 0.1LRAL                1
 GAP=360        0.30       5.7     0.4  0.0 -0.1953E+01  0.1438E+04  0.1077E+04E
 ACTION:UPD 12-06-08 11:37 OP:RALL STATUS:               ID:20090505181516     I
 2009-05-05-1815-06S.PLUR1_003                                                 6
 STAT SP IPHASW D HRMM SECON CODA AMPLIT PERI AZIMU VELO AIN AR TRES W  DIS CAZ7
 LA4  SZ E        1815 19.18                  176.8 10.8      0        8.51 357 
 LA4  SN IP       1815 19.20                             140    0.0010 8.51 357 
 LA4  SE IS       1815 20.89                             140    0.0010 8.51 357 
 LA4  SZ  AML     1815 20.96         5.0 0.10                          8.51 357 
                                                                                
