 2009  5 5 2141 57.3 L  21.294 -99.236 10.0  RAL  1 0.0 1.4LRAL                1
 GAP=360        0.32       6.5     6.0  0.0 -0.3877E+02  0.1438E+04  0.1077E+04E
 ACTION:UPD 12-06-08 11:37 OP:RALL STATUS:               ID:20090505214157     I
 2009-05-05-2141-49S.PLUR1_003                                                 6
 STAT SP IPHASW D HRMM SECON CODA AMPLIT PERI AZIMU VELO AIN AR TRES W  DIS CAZ7
 LZ4  SN IP       2141 59.45                             152    0.0810 5.33 319 
 LZ4  SZ E        2141 59.46                  139.1 17.2      0        5.33 319 
 LZ4  SE IS       2142  0.78                             152   -0.0810 5.33 319 
 LZ4  SZ  AML     2142  1.11       128.7 0.18                          5.33 319 
                                                                                
