 2009  5 6 0937 54.3 L  21.278 -99.247 10.0  RAL  1 0.4 0.7LRAL                1
 GAP=360        4.44     999.9   999.9  0.0 -0.4515E+09  0.2199E+07 -0.1299E+07E
 ACTION:UPD 12-06-08 11:37 OP:RALL STATUS:               ID:20090506093754     I
 2009-05-06-0937-46S.PLUR1_003                                                 6
 STAT SP IPHASW D HRMM SECON CODA AMPLIT PERI AZIMU VELO AIN AR TRES W  DIS CAZ7
 LG3  SN IP        937 56.74                             176    0.5410 0.67 247 
 LG3  SZ E         937 56.75                   87.7 20.1     21        0.67 247 
 LG3  SE IS        937 57.02                             176   -0.5410 0.67 247 
 LG3  SZ  AML      937 57.17        31.5 0.20                          0.67 247 
                                                                                
