 2009  5 6 0418 22.8 L  21.343 -99.274 10.0  RAL  1 0.2 0.3LRAL                1
 GAP=360        0.73     944.8   999.9  0.0  0.3309E+07  0.1438E+04  0.1077E+04E
 ACTION:UPD 12-06-08 11:37 OP:RALL STATUS:               ID:20090506041822     I
 2009-05-06-0418-16S.PLUR1_003                                                 6
 STAT SP IPHASW D HRMM SECON CODA AMPLIT PERI AZIMU VELO AIN AR TRES W  DIS CAZ7
 LZ4  SN IP        418 25.06                             172    0.4510 1.46 163 
 LZ4  SZ E         418 25.08                  342.8 11.9      0        1.46 163 
 LZ4  SE IS        418 25.50                             172   -0.4510 1.46 163 
 LZ4  SZ  AML      418 25.81        11.7 0.72                          1.46 163 
                                                                                
