 2009  5 6 0330 18.7 R  20.261 -99.762 10.0  RAL  1 0.0 2.7LRAL                1
 GAP=360        0.30       4.5     3.8  0.0  0.4300E+01  0.1438E+04  0.1077E+04E
 ACTION:UPD 12-06-08 11:37 OP:RALL STATUS:               ID:20090506033018     I
 2009-05-06-0330-30S.PLUR1_003                                                 6
 STAT SP IPHASW D HRMM SECON CODA AMPLIT PERI AZIMU VELO AIN AR TRES W  DIS CAZ7
 LZ4  SN IP        330 39.21                              52    0.0110  129  23 
 LZ4  SZ E         330 39.28                  203.5 15.5      0         129  23 
 LZ4  SE IS        330 54.15                              52   -0.0110  129  23 
 LZ4  SZ  AML      330 58.17       197.0 0.28                           129  23 
                                                                                
