 2009  5 6 0504 30.3 L  20.724 -98.194  0.1  RAL  2 0.7 2.7LRAL                1
 GAP=353        8.21     601.9   999.9999.9 -0.6061E+06  0.2199E+07 -0.1299E+07E
 ACTION:UPD 12-06-08 11:37 OP:RALL STATUS:               ID:20090506050430     I
 2009-05-06-0504-40S.PLUR1_009                                                 6
 STAT SP IPHASW D HRMM SECON CODA AMPLIT PERI AZIMU VELO AIN AR TRES W  DIS CAZ7
 LG3  SZ E         5 4 49.77                   91.7 13.9    -26         126 299 
 LG3  SN IP        5 4 49.83                              63   -0.9110  126 299 
 LG3  SE IS        5 5  4.06                              63   -1.6010  126 299 
 LG3  SZ  AML      5 5  8.26       259.1 0.62                           126 299 
 LA4  SZ E         5 4 53.79                  152.0 10.3     26         143 306 
 LA4  SN IP        5 4 53.92                              63    0.5010  143 306 
 LA4  SE IS        5 5 12.30                              63    2.0010  143 306 
 LA4  SZ  AML      5 5 15.01       198.6 0.40                           143 306 
                                                                                
