 2009  5 6 0132 27.5 L  21.517 -99.606 10.0  RAL  1 0.0 0.9LRAL                1
 GAP=360        0.30       2.1     3.5  0.0 -0.6124E+01  0.1438E+04  0.1077E+04E
 ACTION:UPD 12-06-08 11:37 OP:RALL STATUS:               ID:20090506013227     I
 2009-05-06-0132-30S.PLUR1_003                                                 6
 STAT SP IPHASW D HRMM SECON CODA AMPLIT PERI AZIMU VELO AIN AR TRES W  DIS CAZ7
 LZ4  SN IP        132 34.39                             100    0.0210 40.5 121 
 LZ4  SZ E         132 34.40                  300.6 22.3      0        40.5 121 
 LZ4  SE IS        132 39.35                             100   -0.0210 40.5 121 
 LZ4  SZ  AML      132 41.00        11.2 0.76                          40.5 121 
                                                                                
