 2009  5 6 0120 13.8 L  21.491 -99.323 10.0  RAL  1 0.2 0.4LRAL                1
 GAP=360        0.76      30.3    55.7  0.0 -0.1687E+04  0.1438E+04  0.1077E+04E
 ACTION:UPD 12-06-08 11:37 OP:RALL STATUS:               ID:20090506012013     I
 2009-05-06-0120-02S.PLUR1_003                                                 6
 STAT SP IPHASW D HRMM SECON CODA AMPLIT PERI AZIMU VELO AIN AR TRES W  DIS CAZ7
 LA4  SZ E         120 16.10                  300.2 24.7      0        1.65 120 
 LA4  SN IP        120 16.10                             171    0.4710 1.65 120 
 LA4  SE IS        120 16.52                             171   -0.4710 1.65 120 
 LA4  SZ  AML      120 16.63        13.5 0.16                          1.65 120 
                                                                                
