 2009  5 7 0612 15.0 L  21.361 -99.289 10.0  RAL  1 0.1 0.2LRAL                1
 GAP=360        0.38      11.5     7.6  0.0 -0.8737E+02  0.3283E+00 -0.4848E+00E
 ACTION:UPD 12-06-08 11:37 OP:RALL STATUS:               ID:20090507061215     I
 2009-05-07-0612-09S.PLUR1_003                                                 6
 STAT SP IPHASW D HRMM SECON CODA AMPLIT PERI AZIMU VELO AIN AR TRES W  DIS CAZ7
 LZ4  SN IP        612 17.13                             159    0.1610 3.86 148 
 LZ4  SZ E         612 17.19                  328.5 45.5      0        3.86 148 
 LZ4  SE IS        612 18.22                             159   -0.1610 3.86 148 
 LZ4  SZ  AML      612 19.22         7.9 0.66                          3.86 148 
                                                                                
