 2009  5 7 0117 44.6 L  21.299 -99.254 10.0  RAL  1 0.0 1.9LRAL                1
 GAP=360        0.35      11.2     5.4  0.0 -0.6058E+02  0.2199E+07 -0.1299E+07E
 ACTION:UPD 12-06-08 11:37 OP:RALL STATUS:               ID:20090507011744     I
 2009-05-07-0117-37S.PLUR1_003                                                 6
 STAT SP IPHASW D HRMM SECON CODA AMPLIT PERI AZIMU VELO AIN AR TRES W  DIS CAZ7
 LZ4  SN IP        117 46.67                             159    0.1210 3.88 336 
 LZ4  SZ E         117 46.69                  155.6 12.9      0        3.88 336 
 LZ4  SE IS        117 47.84                             159   -0.1210 3.88 336 
 LZ4  SZ  AML      117 48.25       400.7 0.10                          3.88 336 
                                                                                
