 2009  5 7 0714  8.3 L  21.261 -99.250 10.0  RAL  1 0.1 0.0LRAL                1
 GAP=360        0.36     393.1   999.9  0.0  0.1108E+07  0.3283E+00 -0.4848E+00E
 ACTION:UPD 12-06-08 11:37 OP:RALL STATUS:               ID:20090507071408     I
 2009-05-07-0714-02S.PLUR1_003                                                 6
 STAT SP IPHASW D HRMM SECON CODA AMPLIT PERI AZIMU VELO AIN AR TRES W  DIS CAZ7
 LG3  SN IP        714 10.33                             171    0.1310 1.68 351 
 LG3  SZ E         714 10.35                  170.9  5.9      0        1.68 351 
 LG3  SE IS        714 11.43                             171   -0.1310 1.68 351 
 LG3  SZ  AML      714 11.60         5.1 0.26                          1.68 351 
                                                                                
