 2009  5 7 0359 22.3 L  21.447 -99.284 10.0  RAL  1 0.0-0.2LRAL                1
 GAP=360        0.32       7.9     5.4  0.0 -0.4253E+02  0.3283E+00 -0.4848E+00E
 ACTION:UPD 12-06-08 11:37 OP:RALL STATUS:               ID:20090507035922     I
 2009-05-07-0359-11S.PLUR1_003                                                 6
 STAT SP IPHASW D HRMM SECON CODA AMPLIT PERI AZIMU VELO AIN AR TRES W  DIS CAZ7
 LA4  SZ E         359 24.38                  147.7 13.0      0        4.83 328 
 LA4  SN IP        359 24.40                             155    0.0810 4.83 328 
 LA4  SE IS        359 25.71                             155   -0.0810 4.83 328 
 LA4  SZ  AML      359 25.92         3.4 0.20                          4.83 328 
                                                                                
