 2009  5 7 0621 21.5 L  21.707 -99.270 10.0  RAL  1 0.0 0.9LRAL                1
 GAP=360        0.30       3.7     1.2  0.0 -0.2884E-06  0.3283E+00 -0.4848E+00E
 ACTION:UPD 12-06-08 11:37 OP:RALL STATUS:               ID:20090507062121     I
 2009-05-07-0621-24S.PLUR1_003                                                 6
 STAT SP IPHASW D HRMM SECON CODA AMPLIT PERI AZIMU VELO AIN AR TRES W  DIS CAZ7
 LZ4  SZ E         621 28.44                    0.0 13.7      0        41.7 180 
 LZ4  SN IP        621 28.49                              99    0.0110 41.7 180 
 LZ4  SE IS        621 33.60                              99   -0.0110 41.7 180 
 LZ4  SZ  AML      621 36.81        10.5 0.64                          41.7 180 
                                                                                
