 2009  5 7 0003 34.3 L  21.367 -99.248 10.0  RAL  1 0.0 0.2LRAL                1
 GAP=360        0.32       8.6     5.2  0.0  0.4440E+02  0.2199E+07 -0.1299E+07E
 ACTION:UPD 12-06-08 11:37 OP:RALL STATUS:               ID:20090507000334     I
 2009-05-07-0003-28S.PLUR1_003                                                 6
 STAT SP IPHASW D HRMM SECON CODA AMPLIT PERI AZIMU VELO AIN AR TRES W  DIS CAZ7
 LZ4  SZ E         0 3 36.31                   29.1 10.0      0        4.53 209 
 LZ4  SN IP        0 3 36.34                             156    0.0810 4.53 209 
 LZ4  SE IS        0 3 37.62                             156   -0.0810 4.53 209 
 LZ4  SZ  AML      0 3 38.83         9.0 0.38                          4.53 209 
                                                                                
