 2009  5 7 0757 51.1 L  21.686 -99.433 10.0  RAL  1 0.0 0.7LRAL                1
 GAP=360        0.30       3.4     2.2  0.0 -0.6762E+01  0.3283E+00 -0.4848E+00E
 ACTION:UPD 12-06-08 11:37 OP:RALL STATUS:               ID:20090507075751     I
 2009-05-07-0757-45S.PLUR1_003                                                 6
 STAT SP IPHASW D HRMM SECON CODA AMPLIT PERI AZIMU VELO AIN AR TRES W  DIS CAZ7
 LA4  SZ E         757 55.41                  330.1 23.6      0        25.8 150 
 LA4  SN IP        757 55.68                             107    0.0010 25.8 150 
 LA4  SE IS        757 59.05                             107    0.0010 25.8 150 
 LA4  SZ  AML      758  2.95         9.7 0.66                          25.8 150 
                                                                                
