 2009  5 7 0501 22.3 L  21.294 -99.249 10.0  RAL  1 0.0 0.2LRAL                1
 GAP=360        0.31       8.5     4.6  0.0 -0.3908E+02  0.3283E+00 -0.4848E+00E
 ACTION:UPD 12-06-08 11:37 OP:RALL STATUS:               ID:20090507050122     I
 2009-05-07-0501-16S.PLUR1_003                                                 6
 STAT SP IPHASW D HRMM SECON CODA AMPLIT PERI AZIMU VELO AIN AR TRES W  DIS CAZ7
 LZ4  SZ E         5 1 24.34                  153.0 15.1      0        4.63 333 
 LZ4  SN IP        5 1 24.37                             156    0.0710 4.63 333 
 LZ4  SE IS        5 1 25.68                             156   -0.0710 4.63 333 
 LZ4  SZ  AML      5 1 27.86         7.9 0.50                          4.63 333 
                                                                                
