 2009  5 7 0526 41.5 L  21.307 -99.255 10.0  RAL  1 0.1 0.3LRAL                1
 GAP=360        0.45      17.3    11.0  0.0 -0.1905E+03  0.3283E+00 -0.4848E+00E
 ACTION:UPD 12-06-08 11:37 OP:RALL STATUS:               ID:20090507052641     I
 2009-05-07-0526-35S.PLUR1_003                                                 6
 STAT SP IPHASW D HRMM SECON CODA AMPLIT PERI AZIMU VELO AIN AR TRES W  DIS CAZ7
 LZ4  SZ E         526 43.63                  149.2 13.3      0        3.02 329 
 LZ4  SN IP        526 43.65                             164    0.2310 3.02 329 
 LZ4  SE IS        526 44.57                             164   -0.2310 3.02 329 
 LZ4  SZ  AML      526 45.78        10.2 0.34                          3.02 329 
                                                                                
