 2009  5 7 0253 46.7 L  21.155 -99.210 27.0  RAL  2 0.3 0.9LRAL                1
 GAP=345        2.02       1.9     6.9 15.9  0.1162E+02  0.3283E+00 -0.4848E+00E
 ACTION:UPD 12-06-08 11:37 OP:RALL STATUS:               ID:20090507025346     I
 2009-05-07-0253-41S.PLUR1_006                                                 6
 STAT SP IPHASW D HRMM SECON CODA AMPLIT PERI AZIMU VELO AIN AR TRES W  DIS CAZ7
 LO8  SZ E         253 52.29                  150.2  6.4      1        0.56 329 
 LO8  SN IP        253 52.35                             179    1.1910 0.56 329 
 LO8  SE IS        253 54.36                             179   -0.0610 0.56 329 
 LO8  SZ  AML      253 54.92         6.5 0.32                          0.56 329 
 LA4  SN IP        253 54.25                             121    0.1710 37.8 344 
 LA4  SZ E         253 54.39                  160.2  6.8     -3        37.8 344 
 LA4  SE IS        253 58.16                             121   -1.3010 37.8 344 
 LA4  SZ  AML      253 58.73        23.7 0.30                          37.8 344 
                                                                                
