 2009  5 7 1915 23.3 L  21.575 -99.395 10.0  RAL  1 0.0 0.6LRAL                1
 GAP=360        0.30       3.4     3.2  0.0 -0.1093E+02  0.3283E+00 -0.4848E+00E
 ACTION:UPD 12-06-08 11:37 OP:RALL STATUS:               ID:20090507191523     I
 2009-05-07-1915-14S.PLUR1_003                                                 6
 STAT SP IPHASW D HRMM SECON CODA AMPLIT PERI AZIMU VELO AIN AR TRES W  DIS CAZ7
 LA4  SN IP       1915 26.20                             125    0.0210 13.5 139 
 LA4  SZ E        1915 26.54                  318.6 16.0      0        13.5 139 
 LA4  SE IS       1915 28.28                             125   -0.0210 13.5 139 
 LA4  SZ  AML     1915 29.82        15.1 0.64                          13.5 139 
                                                                                
