 2009  5 7 2013 29.5 L  21.243 -99.354 10.0  RAL  1 0.0 0.4LRAL                1
 GAP=360        0.30       3.8     1.0  0.0  0.2587E+01  0.3283E+00 -0.4848E+00E
 ACTION:UPD 12-06-08 11:37 OP:RALL STATUS:               ID:20090507201329     I
 2009-05-07-2013-24S.PLUR1_003                                                 6
 STAT SP IPHASW D HRMM SECON CODA AMPLIT PERI AZIMU VELO AIN AR TRES W  DIS CAZ7
 LA4  SZ E        2013 34.24                  189.8 17.1      0        27.1  10 
 LA4  SN IP       2013 34.34                             106    0.0110 27.1  10 
 LA4  SE IS       2013 37.83                             106   -0.0110 27.1  10 
 LA4  SZ  AML     2013 40.53         5.4 0.36                          27.1  10 
                                                                                
