 2009  5 8 0512 15.7 L  21.480 -99.327 10.0  RAL  1 0.2 1.1LRAL                1
 GAP=360        0.97      14.5    68.2  0.0  0.9920E+03  0.3283E+00 -0.4848E+00E
 ACTION:UPD 12-06-08 11:37 OP:RALL STATUS:               ID:20090508051215     I
 2009-05-08-0512-04S.PLUR1_003                                                 6
 STAT SP IPHASW D HRMM SECON CODA AMPLIT PERI AZIMU VELO AIN AR TRES W  DIS CAZ7
 LA4  SN IP        512 18.08                             169    0.4710 1.97  77 
 LA4  SZ E         512 18.09                  260.0 26.0      3        1.97  77 
 LA4  SE IS        512 18.50                             169   -0.4710 1.97  77 
 LA4  SZ  AML      512 18.60        63.6 0.18                          1.97  77 
                                                                                
