 2009  5 8 1806  0.4 L  21.524 -99.450 10.0  RAL  1 0.0 1.3LRAL                1
 GAP=360        0.30       2.9     2.8  0.0 -0.7518E+01  0.3283E+00 -0.4848E+00E
 ACTION:UPD 12-06-08 11:37 OP:RALL STATUS:               ID:20090508180600     I
 2009-05-08-1805-56S.PLUR1_003                                                 6
 STAT SP IPHASW D HRMM SECON CODA AMPLIT PERI AZIMU VELO AIN AR TRES W  DIS CAZ7
 LZ4  SZ E        18 6  5.40                  318.9 14.6      0        28.4 139 
 LZ4  SN IP       18 6  5.43                             105    0.0010 28.4 139 
 LZ4  SE IS       18 6  9.08                             105    0.0010 28.4 139 
 LZ4  SZ  AML     18 6  9.74        43.7 0.16                          28.4 139 
                                                                                
