 2009  5 8 1945 37.6 L  21.314 -99.469 10.0  RAL  1 0.0 0.8LRAL                1
 GAP=360        0.30       2.9     2.8  0.0  0.7810E+01  0.3283E+00 -0.4848E+00E
 ACTION:UPD 12-06-08 11:37 OP:RALL STATUS:               ID:20090508194537     I
 2009-05-08-1945-28S.PLUR1_003                                                 6
 STAT SP IPHASW D HRMM SECON CODA AMPLIT PERI AZIMU VELO AIN AR TRES W  DIS CAZ7
 LA4  SN IP       1945 42.12                             108    0.0010 25.1  42 
 LA4  SZ E        1945 42.13                  221.6 13.4      0        25.1  42 
 LA4  SE IS       1945 45.41                             108    0.0010 25.1  42 
 LA4  SZ  AML     1945 47.02        13.2 0.62                          25.1  42 
                                                                                
