 2009  5 9 0740 12.1 L  21.147 -99.148 10.0  RAL  1 0.0 0.1LRAL                1
 GAP=360        0.30       1.4     7.1  0.0 -0.9556E+01  0.3283E+00 -0.4848E+00E
 ACTION:UPD 12-06-08 11:37 OP:RALL STATUS:               ID:20090509074012     I
 2009-05-09-0740-06S.PLUR1_003                                                 6
 STAT SP IPHASW D HRMM SECON CODA AMPLIT PERI AZIMU VELO AIN AR TRES W  DIS CAZ7
 LO8  SN IP        740 14.34                             147    0.0210 6.85 282 
 LO8  SZ E         740 14.40                  101.5  7.8      0        6.85 282 
 LO8  SE IS        740 15.91                             147   -0.0210 6.85 282 
 LO8  SZ  AML      740 16.19         5.6 0.20                          6.85 282 
                                                                                
