 2009  5 9 0149 33.7 L  21.249 -99.231 10.0  RAL  1 0.0 0.7LRAL                1
 GAP=360        0.30       4.8     2.3  0.0 -0.1076E+02  0.3283E+00 -0.4848E+00E
 ACTION:UPD 12-06-08 11:37 OP:RALL STATUS:               ID:20090509014933     I
 2009-05-09-0149-27S.PLUR1_003                                                 6
 STAT SP IPHASW D HRMM SECON CODA AMPLIT PERI AZIMU VELO AIN AR TRES W  DIS CAZ7
 LZ4  SZ E         149 36.18                  156.5 13.2      0        9.90 337 
 LZ4  SN IP        149 36.18                             135    0.0210 9.90 337 
 LZ4  SE IS        149 37.93                             135   -0.0210 9.90 337 
 LZ4  SZ  AML      149 38.62        22.3 0.32                          9.90 337 
                                                                                
