 2009  5 9 0042 10.7 L  21.257 -99.232 10.0  RAL  1 0.2 0.8LRAL                1
 GAP=360        0.67      21.7    24.0  0.0 -0.5194E+03  0.3283E+00 -0.4848E+00E
 ACTION:UPD 12-06-08 11:37 OP:RALL STATUS:               ID:20090509004210     I
 2009-05-09-0042-03S.PLUR1_003                                                 6
 STAT SP IPHASW D HRMM SECON CODA AMPLIT PERI AZIMU VELO AIN AR TRES W  DIS CAZ7
 LG3  SZ E         042 12.99                  134.1 16.6      0        2.91 314 
 LG3  SN IP        042 13.00                             164    0.4110 2.91 314 
 LG3  SE IS        042 13.58                             164   -0.4110 2.91 314 
 LG3  SZ  AML      042 13.71        31.3 0.22                          2.91 314 
                                                                                
