 2009  5 9 0559 33.4 L  21.158 -99.185 10.0  RAL  1 0.0 1.2LRAL                1
 GAP=360        0.30       3.6     1.9  0.0 -0.6320E+01  0.3283E+00 -0.4848E+00E
 ACTION:UPD 12-06-08 11:37 OP:RALL STATUS:               ID:20090509055933     I
 2009-05-09-0559-28S.PLUR1_003                                                 6
 STAT SP IPHASW D HRMM SECON CODA AMPLIT PERI AZIMU VELO AIN AR TRES W  DIS CAZ7
 LZ4  SZ E         559 37.21                  155.4 12.0      0        21.1 335 
 LZ4  SN IP        559 37.31                             112    0.0010 21.1 335 
 LZ4  SE IS        559 40.17                             112    0.0010 21.1 335 
 LZ4  SZ  AML      559 41.06        36.1 0.80                          21.1 335 
                                                                                
