 2009  5 9 1621 45.3 L  21.205 -99.095 10.0  RAL  1 0.0 0.5LRAL                1
 GAP=360        0.30       3.1     2.5  0.0 -0.6745E+01  0.3283E+00 -0.4848E+00E
 ACTION:UPD 12-06-08 11:37 OP:RALL STATUS:               ID:20090509162145     I
 2009-05-09-1621-42S.PLUR1_003                                                 6
 STAT SP IPHASW D HRMM SECON CODA AMPLIT PERI AZIMU VELO AIN AR TRES W  DIS CAZ7
 LA4  SN IP       1621 51.80                             100    0.0210 38.0 324 
 LA4  SZ E        1621 51.82                  144.2  9.2      0        38.0 324 
 LA4  SE IS       1621 56.48                             100   -0.0210 38.0 324 
 LA4  SZ  AML     1621 57.64         4.6 0.56                          38.0 324 
                                                                                
