 2009  5 9 1707  4.1 L  21.526 -99.311 10.0  RAL  1 0.0 0.7LRAL                1
 GAP=360        0.30       8.9     0.5  0.0 -0.4045E+01  0.3283E+00 -0.4848E+00E
 ACTION:UPD 12-06-08 11:37 OP:RALL STATUS:               ID:20090509170704     I
 2009-05-09-1706-52S.PLUR1_003                                                 6
 STAT SP IPHASW D HRMM SECON CODA AMPLIT PERI AZIMU VELO AIN AR TRES W  DIS CAZ7
 LA4  SN IP       17 7  6.15                             156    0.0110 4.68 177 
 LA4  SZ E        17 7  6.17                  357.3  9.7      0        4.68 177 
 LA4  SE IS       17 7  7.59                             156   -0.0110 4.68 177 
 LA4  SZ  AML     17 7  8.49        26.2 0.32                          4.68 177 
                                                                                
