 2009  5 9 1945 58.9 L  21.590 -99.330 10.0  RAL  1 0.0 0.5LRAL                1
 GAP=360        0.30       4.7     1.0  0.0 -0.4270E+01  0.3283E+00 -0.4848E+00E
 ACTION:UPD 12-06-08 11:37 OP:RALL STATUS:               ID:20090509194558     I
 2009-05-09-1945-48S.PLUR1_003                                                 6
 STAT SP IPHASW D HRMM SECON CODA AMPLIT PERI AZIMU VELO AIN AR TRES W  DIS CAZ7
 LA4  SZ E        1946  1.59                  349.7  8.3      0        12.0 170 
 LA4  SN IP       1946  1.60                             129    0.0010 12.0 170 
 LA4  SE IS       1946  3.57                             129    0.0010 12.0 170 
 LA4  SZ  AML     1946  3.63        12.4 0.34                          12.0 170 
                                                                                
