 2009  5 9 1359 44.2 L  21.196 -99.109 10.0  RAL  1 0.0 0.5LRAL                1
 GAP=360        0.30       3.2     2.4  0.0 -0.6499E+01  0.3283E+00 -0.4848E+00E
 ACTION:UPD 12-06-08 11:37 OP:RALL STATUS:               ID:20090509135944     I
 2009-05-09-1359-41S.PLUR1_003                                                 6
 STAT SP IPHASW D HRMM SECON CODA AMPLIT PERI AZIMU VELO AIN AR TRES W  DIS CAZ7
 LA4  SN IP       1359 50.66                             100    0.0210 38.0 327 
 LA4  SZ E        1359 50.70                  146.9  8.8      0        38.0 327 
 LA4  SE IS       1359 55.34                             100   -0.0210 38.0 327 
 LA4  SZ  AML     1359 57.35         4.9 0.50                          38.0 327 
                                                                                
