 2009  5 9 1920 45.7 L  21.314 -99.262 10.0  RAL  1 0.2 0.4LRAL                1
 GAP=360        0.79     774.3   999.9  0.0  0.1641E+07  0.3283E+00 -0.4848E+00E
 ACTION:UPD 12-06-08 11:37 OP:RALL STATUS:               ID:20090509192045     I
 2009-05-09-1920-39S.PLUR1_003                                                 6
 STAT SP IPHASW D HRMM SECON CODA AMPLIT PERI AZIMU VELO AIN AR TRES W  DIS CAZ7
 LZ4  SN IP       1920 48.05                             169    0.4910 1.99 337 
 LZ4  SZ E        1920 48.05                  157.2 17.1      0        1.99 337 
 LZ4  SE IS       1920 48.42                             169   -0.4910 1.99 337 
 LZ4  SZ  AML     1920 48.51        12.6 0.12                          1.99 337 
                                                                                
