 2009  5 9 1440 22.7 L  21.188 -99.200 10.0  RAL  1 0.0 1.0LRAL                1
 GAP=360        0.30       3.8     1.9  0.0 -0.6909E+01  0.3283E+00 -0.4848E+00E
 ACTION:UPD 12-06-08 11:37 OP:RALL STATUS:               ID:20090509144022     I
 2009-05-09-1440-16S.PLUR1_003                                                 6
 STAT SP IPHASW D HRMM SECON CODA AMPLIT PERI AZIMU VELO AIN AR TRES W  DIS CAZ7
 LZ4  SZ E        1440 25.88                  155.5 37.1      0        17.4 336 
 LZ4  SN IP       1440 26.07                             117    0.0010 17.4 336 
 LZ4  SE IS       1440 28.55                             117    0.0010 17.4 336 
 LZ4  SZ  AML     1440 28.84        32.7 0.38                          17.4 336 
                                                                                
