 2009  5 9 2302  8.8 L  21.370 -99.212 10.0  RAL  1 0.0 0.4LRAL                1
 GAP=360        0.30       3.7     5.5  0.0  0.2005E+02  0.3283E+00 -0.4848E+00E
 ACTION:UPD 12-06-08 11:37 OP:RALL STATUS:               ID:20090509230208     I
 2009-05-09-2302-03S.PLUR1_003                                                 6
 STAT SP IPHASW D HRMM SECON CODA AMPLIT PERI AZIMU VELO AIN AR TRES W  DIS CAZ7
 LZ4  SZ E        23 2 11.04                   54.4 17.3      0        7.40 234 
 LZ4  SN IP       23 2 11.06                             144    0.0210 7.40 234 
 LZ4  SE IS       23 2 12.62                             144   -0.0210 7.40 234 
 LZ4  SZ  AML     23 2 12.91        11.8 0.38                          7.40 234 
                                                                                
