 2009  510 1803 11.0 L  21.587 -99.323 10.0  RAL  1 0.0 0.1LRAL                1
 GAP=360        0.30       4.8     0.7  0.0 -0.3136E+01  0.3283E+00 -0.4848E+00E
 ACTION:UPD 12-06-08 11:37 OP:RALL STATUS:               ID:20090510180311     I
 2009-05-10-1803-01S.PLUR1_003                                                 6
 STAT SP IPHASW D HRMM SECON CODA AMPLIT PERI AZIMU VELO AIN AR TRES W  DIS CAZ7
 LA4  SZ E        18 3 13.65                  352.8  9.4      0        11.5 173 
 LA4  SN IP       18 3 13.68                             130    0.0010 11.5 173 
 LA4  SE IS       18 3 15.61                             130    0.0010 11.5 173 
 LA4  SZ  AML     18 3 16.21         4.9 0.10                          11.5 173 
                                                                                
