 2009  511 0708 39.9 L  21.275 -99.230 10.0  RAL  1 0.0 0.5LRAL                1
 GAP=360        0.30       5.2     3.7  0.0 -0.1952E+02  0.3283E+00 -0.4848E+00E
 ACTION:UPD 12-06-08 11:37 OP:RALL STATUS:               ID:20090511070839     I
 2009-05-11-0708-34S.PLUR1_003                                                 6
 STAT SP IPHASW D HRMM SECON CODA AMPLIT PERI AZIMU VELO AIN AR TRES W  DIS CAZ7
 LZ4  SZ E         7 8 42.11                  146.4 13.0      0        7.39 326 
 LZ4  SN IP        7 8 42.15                             144    0.0210 7.39 326 
 LZ4  SE IS        7 8 43.71                             144   -0.0210 7.39 326 
 LZ4  SZ  AML      7 8 44.14        13.6 0.30                          7.39 326 
                                                                                
