 2009  511 0948 47.9 L  21.498 -99.316 10.0  RAL  1 0.2-0.1LRAL                1
 GAP=360        0.69     767.2   999.9  0.0  0.1451E+07  0.3283E+00 -0.4848E+00E
 ACTION:UPD 12-06-08 11:37 OP:RALL STATUS:               ID:20090511094847     I
 2009-05-11-0948-36S.PLUR1_003                                                 6
 STAT SP IPHASW D HRMM SECON CODA AMPLIT PERI AZIMU VELO AIN AR TRES W  DIS CAZ7
 LA4  SN IP        948 50.15                             170    0.4210 1.78 155 
 LA4  SZ E         948 50.17                  334.9  8.8      0        1.78 155 
 LA4  SZ  AML      948 50.55         4.5 0.46                          1.78 155 
 LA4  SE IS        948 50.67                             170   -0.4210 1.78 155 
                                                                                
