 2009  511 1456 24.6 L  21.248 -99.238 10.0  RAL  1 0.0 0.4LRAL                1
 GAP=360        0.30       5.0     1.9  0.0 -0.9297E+01  0.3283E+00 -0.4848E+00E
 ACTION:UPD 12-06-08 11:37 OP:RALL STATUS:               ID:20090511145624     I
 2009-05-11-1456-19S.PLUR1_003                                                 6
 STAT SP IPHASW D HRMM SECON CODA AMPLIT PERI AZIMU VELO AIN AR TRES W  DIS CAZ7
 LZ4  SN IP       1456 27.05                             135    0.0210 9.78 341 
 LZ4  SZ E        1456 27.08                  160.6 32.9      0        9.78 341 
 LZ4  SE IS       1456 28.80                             135   -0.0210 9.78 341 
 LZ4  SZ  AML     1456 28.96        11.5 0.18                          9.78 341 
                                                                                
