 2009  511 1641 59.5 L  21.256 -99.223 10.0  RAL  1 0.1 0.8LRAL                1
 GAP=360        0.38       8.2    12.1  0.0 -0.9967E+02  0.3283E+00 -0.4848E+00E
 ACTION:UPD 12-06-08 11:37 OP:RALL STATUS:               ID:20090511164159     I
 2009-05-11-1641-53S.PLUR1_003                                                 6
 STAT SP IPHASW D HRMM SECON CODA AMPLIT PERI AZIMU VELO AIN AR TRES W  DIS CAZ7
 LG3  SN IP       1642  1.64                             160    0.1610 3.76 306 
 LG3  SZ E        1642  1.68                  125.9 20.0      0        3.76 306 
 LG3  SE IS       1642  2.74                             160   -0.1610 3.76 306 
 LG3  SZ  AML     1642  2.93        33.8 0.26                          3.76 306 
                                                                                
