 2009  511 2350 50.4 L  21.314 -99.244 10.0  RAL  1 0.1 0.2LRAL                1
 GAP=360        0.47      11.5    17.5  0.0 -0.2018E+03  0.3283E+00 -0.4848E+00E
 ACTION:UPD 12-06-08 11:37 OP:RALL STATUS:               ID:20090511235050     I
 2009-05-11-2350-44S.PLUR1_003                                                 6
 STAT SP IPHASW D HRMM SECON CODA AMPLIT PERI AZIMU VELO AIN AR TRES W  DIS CAZ7
 LZ4  SZ E        2350 52.54                  125.3 27.1      0        3.19 305 
 LZ4  SN IP       2350 52.55                             163    0.2510 3.19 305 
 LZ4  SE IS       2350 53.44                             163   -0.2510 3.19 305 
 LZ4  SZ  AML     2350 53.56         8.5 0.18                          3.19 305 
                                                                                
