 2009  512 0908 50.9 L  21.493 -99.329 10.0  RAL  1 0.2 1.2LRAL                1
 GAP=360        0.77      19.5    42.8  0.0 -0.8327E+03  0.3283E+00 -0.4848E+00E
 ACTION:UPD 12-06-08 11:37 OP:RALL STATUS:               ID:20090512090850     I
 2009-05-12-0908-38S.PLUR1_003                                                 6
 STAT SP IPHASW D HRMM SECON CODA AMPLIT PERI AZIMU VELO AIN AR TRES W  DIS CAZ7
 LA4  SZ E         9 8 53.20                  296.0 20.5      0        2.30 116 
 LA4  SN IP        9 8 53.23                             168    0.4810 2.30 116 
 LA4  SE IS        9 8 53.65                             168   -0.4810 2.30 116 
 LA4  SZ  AML      9 8 53.72        79.8 0.20                          2.30 116 
                                                                                
