 2009  512 0313 57.0 L  21.719 -99.350 10.0  RAL  1 0.0 0.7LRAL                1
 GAP=360        0.30       3.8     1.0  0.0 -0.2467E+01  0.3283E+00 -0.4848E+00E
 ACTION:UPD 12-06-08 11:37 OP:RALL STATUS:               ID:20090512031357     I
 2009-05-12-0313-50S.PLUR1_003                                                 6
 STAT SP IPHASW D HRMM SECON CODA AMPLIT PERI AZIMU VELO AIN AR TRES W  DIS CAZ7
 LA4  SN IP        314  1.76                             107    0.0110 26.4 171 
 LA4  SZ E         314  1.82                  350.8 13.1      0        26.4 171 
 LA4  SE IS        314  5.18                             107   -0.0110 26.4 171 
 LA4  SZ  AML      314  9.19        10.7 0.68                          26.4 171 
                                                                                
