 2009  512 0851 37.4 L  21.490 -99.322 10.0  RAL  1 0.2 1.1LRAL                1
 GAP=360        0.76      31.0    64.8  0.0 -0.2011E+04  0.3283E+00 -0.4848E+00E
 ACTION:UPD 12-06-08 11:37 OP:RALL STATUS:               ID:20090512085137     I
 2009-05-12-0851-25S.PLUR1_003                                                 6
 STAT SP IPHASW D HRMM SECON CODA AMPLIT PERI AZIMU VELO AIN AR TRES W  DIS CAZ7
 LA4  SZ E         851 39.72                  297.2 22.2      0        1.46 117 
 LA4  SN IP        851 39.72                             172    0.4710 1.46 117 
 LA4  SE IS        851 40.14                             172   -0.4710 1.46 117 
 LA4  SZ  AML      851 40.24        76.9 0.18                          1.46 117 
                                                                                
