 2009  512 0511 41.5 L  20.894 -98.867 10.0  RAL  1 0.0 1.2LRAL                1
 GAP=360        0.30       3.0     2.9  0.0 -0.5864E+01  0.3283E+00 -0.4848E+00E
 ACTION:UPD 12-06-08 11:37 OP:RALL STATUS:               ID:20090512051141     I
 2009-05-12-0511-50S.PLUR1_003                                                 6
 STAT SP IPHASW D HRMM SECON CODA AMPLIT PERI AZIMU VELO AIN AR TRES W  DIS CAZ7
 LZ4  SZ E         511 51.74                  139.1 13.0      0        64.0 319 
 LZ4  SN IP        511 51.97                              95    0.0110 64.0 319 
 LZ4  SE IS        511 59.58                              95   -0.0110 64.0 319 
 LZ4  SZ  AML      512  1.19        14.7 0.32                          64.0 319 
                                                                                
