 2009  512 0937 13.5 L  21.159 -99.190 10.0  RAL  1 0.0 0.5LRAL                1
 GAP=360        0.30       3.6     1.6  0.0 -0.4351E+01  0.3283E+00 -0.4848E+00E
 ACTION:UPD 12-06-08 11:37 OP:RALL STATUS:               ID:20090512093713     I
 2009-05-12-0937-10S.PLUR1_003                                                 6
 STAT SP IPHASW D HRMM SECON CODA AMPLIT PERI AZIMU VELO AIN AR TRES W  DIS CAZ7
 LA4  SZ E         937 19.90                  161.0 16.0      0        38.0 341 
 LA4  SN IP        937 20.03                             100    0.0110 38.0 341 
 LA4  SE IS        937 24.73                             100   -0.0110 38.0 341 
 LA4  SZ  AML      937 25.79         5.0 0.54                          38.0 341 
                                                                                
