 2009  512 0544 38.9 L  21.190 -99.304 10.0  RAL  1 0.0 0.8LRAL                1
 GAP=360        0.30       4.2     1.1  0.0  0.4163E+01  0.3283E+00 -0.4848E+00E
 ACTION:UPD 12-06-08 11:37 OP:RALL STATUS:               ID:20090512054438     I
 2009-05-12-0544-34S.PLUR1_003                                                 6
 STAT SP IPHASW D HRMM SECON CODA AMPLIT PERI AZIMU VELO AIN AR TRES W  DIS CAZ7
 LZ4  SN IP        544 42.10                             120    0.0010 16.0  13 
 LZ4  SZ E         544 42.12                  192.8 99.9      0        16.0  13 
 LZ4  SE IS        544 44.44                             120    0.0010 16.0  13 
 LZ4  SZ  AML      544 45.87        17.7 0.90                          16.0  13 
                                                                                
