 2009  512 0750 11.6 L  21.275 -99.212 10.0  RAL  1 0.0 1.2LRAL                1
 GAP=360        0.30       4.1     4.2  0.0 -0.1725E+02  0.3283E+00 -0.4848E+00E
 ACTION:UPD 12-06-08 11:37 OP:RALL STATUS:               ID:20090512075011     I
 2009-05-12-0750-05S.PLUR1_003                                                 6
 STAT SP IPHASW D HRMM SECON CODA AMPLIT PERI AZIMU VELO AIN AR TRES W  DIS CAZ7
 LZ4  SZ E         750 13.97                  136.3 15.6      0        8.60 316 
 LZ4  SN IP        750 13.98                             139    0.0210 8.60 316 
 LZ4  SE IS        750 15.64                             139   -0.0210 8.60 316 
 LZ4  SZ  AML      750 16.65        64.8 0.22                          8.60 316 
                                                                                
