 2009  512 1145 49.3 L  21.349 -99.279 10.0  RAL  1 0.1 0.4LRAL                1
 GAP=360        0.67      35.0    18.3  0.0 -0.6390E+03  0.3283E+00 -0.4848E+00E
 ACTION:UPD 12-06-08 11:37 OP:RALL STATUS:               ID:20090512114549     I
 2009-05-12-1145-42S.PLUR1_003                                                 6
 STAT SP IPHASW D HRMM SECON CODA AMPLIT PERI AZIMU VELO AIN AR TRES W  DIS CAZ7
 LZ4  SZ E        1145 51.50                  332.9 33.2      0        2.26 154 
 LZ4  SN IP       1145 51.51                             168    0.3710 2.26 154 
 LZ4  SE IS       1145 52.13                             168   -0.3710 2.26 154 
 LZ4  SZ  AML     1145 52.20        14.4 0.16                          2.26 154 
                                                                                
