 2009  512 2329 59.1 L  21.601 -99.320 10.0  RAL  1 0.0 0.5LRAL                1
 GAP=360        0.30       4.6     0.5  0.0 -0.1878E+01  0.3283E+00 -0.4848E+00E
 ACTION:UPD 12-06-08 11:37 OP:RALL STATUS:               ID:20090512232959     I
 2009-05-12-2329-49S.PLUR1_003                                                 6
 STAT SP IPHASW D HRMM SECON CODA AMPLIT PERI AZIMU VELO AIN AR TRES W  DIS CAZ7
 LA4  SZ E        2330  1.94                  355.2 12.3      0        13.0 175 
 LA4  SN IP       2330  1.95                             126    0.0010 13.0 175 
 LA4  SZ  AML     2330  3.98        10.5 0.16                          13.0 175 
 LA4  SE IS       2330  4.02                             126    0.0010 13.0 175 
                                                                                
