 2009  513 0635 15.1 L  21.288 -99.278 10.0  RAL  1 0.0 0.0LRAL                1
 GAP=360        0.30       8.6     1.7  0.0  0.1488E+02  0.3283E+00 -0.4848E+00E
 ACTION:UPD 12-06-08 11:37 OP:RALL STATUS:               ID:20090513063515     I
 2009-05-13-0635-09S.PLUR1_003                                                 6
 STAT SP IPHASW D HRMM SECON CODA AMPLIT PERI AZIMU VELO AIN AR TRES W  DIS CAZ7
 LZ4  SZ E         635 17.02                  190.6 17.5      0        4.78  11 
 LZ4  SN IP        635 17.10                             155    0.0210 4.78  11 
 LZ4  SE IS        635 18.52                             155   -0.0210 4.78  11 
 LZ4  SZ  AML      635 22.00         5.7 0.48                          4.78  11 
                                                                                
