 2009  513 0939 31.1 L  21.311 -99.254 10.0  RAL  1 0.2 0.5LRAL                1
 GAP=360        0.81      31.6    24.7  0.0 -0.7810E+03  0.3283E+00 -0.4848E+00E
 ACTION:UPD 12-06-08 11:37 OP:RALL STATUS:               ID:20090513093931     I
 2009-05-13-0939-24S.PLUR1_003                                                 6
 STAT SP IPHASW D HRMM SECON CODA AMPLIT PERI AZIMU VELO AIN AR TRES W  DIS CAZ7
 LZ4  SN IP        939 33.54                             165    0.5110 2.75 324 
 LZ4  SZ E         939 33.55                  143.9 20.6      0        2.75 324 
 LZ4  SZ  AML      939 33.86        16.4 0.28                          2.75 324 
 LZ4  SE IS        939 33.90                             165   -0.5110 2.75 324 
                                                                                
