 2009  513 0155 23.0 L  21.699 -99.534 10.0  RAL  1 0.0 0.6LRAL                1
 GAP=360        0.30       2.8     2.9  0.0 -0.7396E+01  0.3283E+00 -0.4848E+00E
 ACTION:UPD 12-06-08 11:37 OP:RALL STATUS:               ID:20090513015523     I
 2009-05-13-0155-18S.PLUR1_003                                                 6
 STAT SP IPHASW D HRMM SECON CODA AMPLIT PERI AZIMU VELO AIN AR TRES W  DIS CAZ7
 LA4  SZ E         155 28.50                  315.7 13.7      0        33.3 136 
 LA4  SN IP        155 28.73                             102    0.0210 33.3 136 
 LA4  SE IS        155 32.88                             102   -0.0210 33.3 136 
 LA4  SZ  AML      155 33.81         6.7 0.56                          33.3 136 
                                                                                
