 2009  513 0006 54.8 L  21.706 -99.231 10.0  RAL  1 0.0 0.9LRAL                1
 GAP=360        0.30       3.7     1.2  0.0  0.1301E+01  0.3283E+00 -0.4848E+00E
 ACTION:UPD 12-06-08 11:37 OP:RALL STATUS:               ID:20090513000654     I
 2009-05-13-0006-52S.PLUR1_003                                                 6
 STAT SP IPHASW D HRMM SECON CODA AMPLIT PERI AZIMU VELO AIN AR TRES W  DIS CAZ7
 LZ4  SZ E         0 7  1.80                    5.4 10.8      0        41.8 185 
 LZ4  SN IP        0 7  1.80                              99    0.0110 41.8 185 
 LZ4  SE IS        0 7  6.92                              99   -0.0110 41.8 185 
 LZ4  SZ  AML      0 7  7.02        11.6 0.10                          41.8 185 
                                                                                
