 2009  513 0824 15.7 L  21.265 -99.230 10.0  RAL  1 0.1 0.5LRAL                1
 GAP=360        0.50      12.0    24.5  0.0 -0.2929E+03  0.3283E+00 -0.4848E+00E
 ACTION:UPD 12-06-08 11:37 OP:RALL STATUS:               ID:20090513082415     I
 2009-05-13-0824-08S.PLUR1_003                                                 6
 STAT SP IPHASW D HRMM SECON CODA AMPLIT PERI AZIMU VELO AIN AR TRES W  DIS CAZ7
 LG3  SZ E         824 17.82                  117.6 19.6      0        2.60 298 
 LG3  SN IP        824 17.83                             166    0.2710 2.60 298 
 LG3  SE IS        824 18.67                             166   -0.2710 2.60 298 
 LG3  SZ  AML      824 18.88        15.5 0.24                          2.60 298 
                                                                                
