 2009  513 1102 14.2 L  21.341 -99.421 10.0  RAL  1 0.0 0.6LRAL                1
 GAP=360        0.30       0.5     4.6  0.0 -0.1359E+01  0.3283E+00 -0.4848E+00E
 ACTION:UPD 12-06-08 11:37 OP:RALL STATUS:               ID:20090513110214     I
 2009-05-13-1102-10S.PLUR1_003                                                 6
 STAT SP IPHASW D HRMM SECON CODA AMPLIT PERI AZIMU VELO AIN AR TRES W  DIS CAZ7
 LZ4  SZ E        11 2 17.39                  274.0 26.6      0        15.8  94 
 LZ4  SN IP       11 2 17.40                             120    0.0210 15.8  94 
 LZ4  SE IS       11 2 19.68                             120   -0.0210 15.8  94 
 LZ4  SZ  AML     11 2 20.30        13.5 0.44                          15.8  94 
                                                                                
