 2009  513 1757  6.5 L  21.796 -99.305 10.0  RAL  1 0.0 1.1LRAL                1
 GAP=360        0.30       3.8     1.0  0.0  0.1525E+00  0.3283E+00 -0.4848E+00E
 ACTION:UPD 12-06-08 11:37 OP:RALL STATUS:               ID:20090513175706     I
 2009-05-13-1757-01S.PLUR1_003                                                 6
 STAT SP IPHASW D HRMM SECON CODA AMPLIT PERI AZIMU VELO AIN AR TRES W  DIS CAZ7
 LA4  SN IP       1757 12.50                             102    0.0110 34.6 181 
 LA4  SZ E        1757 12.52                    0.6 11.4      0        34.6 181 
 LA4  SE IS       1757 16.83                             102   -0.0110 34.6 181 
 LA4  SZ  AML     1757 20.01        21.8 0.64                          34.6 181 
                                                                                
