 2009  513 1912  6.3 L  21.374 -99.449 10.0  RAL  1 0.0 0.8LRAL                1
 GAP=360        0.30       1.1     4.3  0.0 -0.4231E+01  0.3283E+00 -0.4848E+00E
 ACTION:UPD 12-06-08 11:37 OP:RALL STATUS:               ID:20090513191206     I
 2009-05-13-1912-02S.PLUR1_003                                                 6
 STAT SP IPHASW D HRMM SECON CODA AMPLIT PERI AZIMU VELO AIN AR TRES W  DIS CAZ7
 LZ4  SN IP       1912  9.94                             115    0.0210 19.2 104 
 LZ4  SZ E        1912  9.98                  284.3 19.4      0        19.2 104 
 LZ4  SE IS       1912 12.56                             115   -0.0210 19.2 104 
 LZ4  SZ  AML     1912 13.59        17.6 0.58                          19.2 104 
                                                                                
