 2009  513 2020 16.8 L  21.517 -99.341 10.0  RAL  1 0.0 0.0LRAL                1
 GAP=360        0.32       7.0     6.6  0.0 -0.4591E+02  0.3283E+00 -0.4848E+00E
 ACTION:UPD 12-06-08 11:37 OP:RALL STATUS:               ID:20090513202016     I
 2009-05-13-2020-06S.PLUR1_003                                                 6
 STAT SP IPHASW D HRMM SECON CODA AMPLIT PERI AZIMU VELO AIN AR TRES W  DIS CAZ7
 LA4  SN IP       2020 18.94                             154    0.0910 4.97 138 
 LA4  SZ E        2020 18.96                  318.5 11.8      0        4.97 138 
 LA4  SE IS       2020 20.24                             154   -0.0910 4.97 138 
 LA4  SZ  AML     2020 21.16         5.2 0.22                          4.97 138 
                                                                                
