 2009  514 0827 23.0 L  21.550 -99.068 10.0  RAL  1 0.0 0.7LRAL                1
 GAP=360        0.30       2.9     2.8  0.0  0.7387E+01  0.3283E+00 -0.4848E+00E
 ACTION:UPD 12-06-08 11:37 OP:RALL STATUS:               ID:20090514082723     I
 2009-05-14-0827-23S.PLUR1_003                                                 6
 STAT SP IPHASW D HRMM SECON CODA AMPLIT PERI AZIMU VELO AIN AR TRES W  DIS CAZ7
 LZ4  SZ E         827 28.40                   40.8 57.5      0        32.0 221 
 LZ4  SN IP        827 28.52                             103    0.0210 32.0 221 
 LZ4  SE IS        827 32.52                             103   -0.0210 32.0 221 
 LZ4  SZ  AML      827 32.70         9.8 0.56                          32.0 221 
                                                                                
