 2009  514 0218 14.8 L  21.839 -99.468 10.0  RAL  1 0.0 0.7LRAL                1
 GAP=360        0.30       3.5     1.9  0.0 -0.4914E+01  0.3283E+00 -0.4848E+00E
 ACTION:UPD 12-06-08 11:37 OP:RALL STATUS:               ID:20090514021814     I
 2009-05-14-0218-12S.PLUR1_003                                                 6
 STAT SP IPHASW D HRMM SECON CODA AMPLIT PERI AZIMU VELO AIN AR TRES W  DIS CAZ7
 LA4  SZ E         218 21.97                  337.4 10.4      0        42.6 157 
 LA4  SN IP        218 22.00                              99    0.0110 42.6 157 
 LA4  SE IS        218 27.21                              99   -0.0110 42.6 157 
 LA4  SZ  AML      218 27.81         7.0 0.28                          42.6 157 
                                                                                
