 2009  514 1235 36.0 L  21.311 -99.257 10.0  RAL  1 0.2 1.7LRAL                1
 GAP=360        0.80      36.3    22.8  0.0 -0.8287E+03  0.3283E+00 -0.4848E+00E
 ACTION:UPD 12-06-08 11:37 OP:RALL STATUS:               ID:20090514123536     I
 2009-05-14-1235-29S.PLUR1_003                                                 6
 STAT SP IPHASW D HRMM SECON CODA AMPLIT PERI AZIMU VELO AIN AR TRES W  DIS CAZ7
 LZ4  SZ E        1235 38.39                  149.6 13.4      0        2.53 330 
 LZ4  SN IP       1235 38.39                             166    0.5110 2.53 330 
 LZ4  SE IS       1235 38.75                             166   -0.5110 2.53 330 
 LZ4  SZ  AML     1235 38.83       302.1 0.10                          2.53 330 
                                                                                
