 2009  514 1030  7.2 L  21.831 -99.443 10.0  RAL  1 0.0 0.4LRAL                1
 GAP=360        0.30       3.5     1.7  0.0 -0.4459E+01  0.3283E+00 -0.4848E+00E
 ACTION:UPD 12-06-08 11:37 OP:RALL STATUS:               ID:20090514103007     I
 2009-05-14-1030-05S.PLUR1_003                                                 6
 STAT SP IPHASW D HRMM SECON CODA AMPLIT PERI AZIMU VELO AIN AR TRES W  DIS CAZ7
 LA4  SZ E        1030 14.01                  340.2  8.1      0        40.9 160 
 LA4  SN IP       1030 14.07                             100    0.0110 40.9 160 
 LA4  SE IS       1030 19.09                             100   -0.0110 40.9 160 
 LA4  SZ  AML     1030 19.45         4.0 0.44                          40.9 160 
                                                                                
