 2009  515 0851 58.4 L  21.518 -99.458 10.0  RAL  1 0.0 1.2LRAL                1
 GAP=360        0.30       2.8     2.9  0.0 -0.7573E+01  0.3283E+00 -0.4848E+00E
 ACTION:UPD 12-06-08 11:37 OP:RALL STATUS:               ID:20090515085158     I
 2009-05-15-0851-54S.PLUR1_003                                                 6
 STAT SP IPHASW D HRMM SECON CODA AMPLIT PERI AZIMU VELO AIN AR TRES W  DIS CAZ7
 LZ4  SZ E         852  3.39                  316.7 11.5      0        28.4 137 
 LZ4  SN IP        852  3.39                             105    0.0010 28.4 137 
 LZ4  SE IS        852  7.04                             105    0.0010 28.4 137 
 LZ4  SZ  AML      852  7.37        29.1 0.18                          28.4 137 
                                                                                
