 2009  515 1220  6.3 L  21.617 -99.387 10.0  RAL  1 0.0 0.7LRAL                1
 GAP=360        0.30       3.7     2.2  0.0 -0.7939E+01  0.3283E+00 -0.4848E+00E
 ACTION:UPD 12-06-08 11:37 OP:RALL STATUS:               ID:20090515122006     I
 2009-05-15-1219-56S.PLUR1_003                                                 6
 STAT SP IPHASW D HRMM SECON CODA AMPLIT PERI AZIMU VELO AIN AR TRES W  DIS CAZ7
 LA4  SZ E        1220  9.60                  331.3 10.0      0        16.8 151 
 LA4  SN IP       1220  9.62                             119    0.0110 16.8 151 
 LA4  SE IS       1220 12.04                             119   -0.0110 16.8 151 
 LA4  SZ  AML     1220 13.22        14.8 0.22                          16.8 151 
                                                                                
