 2009  515 1341 49.8 L  21.729 -99.366 10.0  RAL  1 0.0 0.6LRAL                1
 GAP=360        0.30       3.8     1.2  0.0 -0.3208E+01  0.3283E+00 -0.4848E+00E
 ACTION:UPD 12-06-08 11:37 OP:RALL STATUS:               ID:20090515134149     I
 2009-05-15-1341-43S.PLUR1_003                                                 6
 STAT SP IPHASW D HRMM SECON CODA AMPLIT PERI AZIMU VELO AIN AR TRES W  DIS CAZ7
 LA4  SZ E        1341 54.77                  347.7  8.8      0        27.7 168 
 LA4  SN IP       1341 54.77                             106    0.0110 27.7 168 
 LA4  SE IS       1341 58.33                             106   -0.0110 27.7 168 
 LA4  SZ  AML     1342  0.15         8.2 0.22                          27.7 168 
                                                                                
