 2009  515 1045 21.5 L  21.342 -99.512 10.0  RAL  1 0.0 0.7LRAL                1
 GAP=360        0.30       2.4     3.3  0.0  0.7437E+01  0.3283E+00 -0.4848E+00E
 ACTION:UPD 12-06-08 11:37 OP:RALL STATUS:               ID:20090515104521     I
 2009-05-15-1045-12S.PLUR1_003                                                 6
 STAT SP IPHASW D HRMM SECON CODA AMPLIT PERI AZIMU VELO AIN AR TRES W  DIS CAZ7
 LA4  SZ E        1045 26.19                  233.3 14.8      0        26.3  53 
 LA4  SN IP       1045 26.21                             107    0.0010 26.3  53 
 LA4  SE IS       1045 29.63                             107    0.0010 26.3  53 
 LA4  SZ  AML     1045 31.32        10.5 0.52                          26.3  53 
                                                                                
