 2009  516 0101 22.8 L  21.316 -99.284 10.0  RAL  1 0.2 1.4LRAL                1
 GAP=360        1.09      46.6    48.1  0.0  0.2239E+04  0.3283E+00 -0.4848E+00E
 ACTION:UPD 12-06-08 11:37 OP:RALL STATUS:               ID:20090516010122     I
 2009-05-16-0101-15S.PLUR1_003                                                 6
 STAT SP IPHASW D HRMM SECON CODA AMPLIT PERI AZIMU VELO AIN AR TRES W  DIS CAZ7
 LZ4  SN IP        1 1 25.25                             168    0.6210 2.21  44 
 LZ4  SZ E         1 1 25.26                  221.5  9.7     -1        2.21  44 
 LZ4  SE IS        1 1 25.38                             168   -0.6210 2.21  44 
 LZ4  SZ  AML      1 1 25.60       140.1 0.16                          2.21  44 
                                                                                
