 2009  516 1814 25.1 L  21.556 -99.460 10.0  RAL  1 0.0 1.6LRAL                1
 GAP=360        0.30       3.0     2.6  0.0 -0.7272E+01  0.3283E+00 -0.4848E+00E
 ACTION:UPD 12-06-08 11:37 OP:RALL STATUS:               ID:20090516181425     I
 2009-05-16-1814-24S.PLUR1_003                                                 6
 STAT SP IPHASW D HRMM SECON CODA AMPLIT PERI AZIMU VELO AIN AR TRES W  DIS CAZ7
 LZ4  SZ E        1814 30.64                  321.7  9.8      0        31.8 142 
 LZ4  SN IP       1814 30.65                             103    0.0210 31.8 142 
 LZ4  SE IS       1814 34.63                             103   -0.0210 31.8 142 
 LZ4  SZ  AML     1814 35.12        77.7 0.18                          31.8 142 
                                                                                
