 2009  516 1752 59.1 L  21.316 -99.266 10.0  RAL  1 0.2 1.2LRAL                1
 GAP=360        1.82     999.9   999.9  0.0  0.2151E+08  0.3283E+00 -0.4848E+00E
 ACTION:UPD 12-06-08 11:37 OP:RALL STATUS:               ID:20090516175259     I
 2009-05-16-1752-52S.PLUR1_003                                                 6
 STAT SP IPHASW D HRMM SECON CODA AMPLIT PERI AZIMU VELO AIN AR TRES W  DIS CAZ7
 LZ4  SN IP       1753  1.46                             171    0.5010 1.69 348 
 LZ4  SZ E        1753  1.48                  160.4  8.8     -7        1.69 348 
 LZ4  SE IS       1753  1.81                             171   -0.5010 1.69 348 
 LZ4  SZ  AML     1753  2.07        86.8 0.30                          1.69 348 
                                                                                
