 2009  516 2010 42.1 L  21.235 -99.357 10.0  RAL  1 0.0 1.2LRAL                1
 GAP=360        0.30       3.8     1.1  0.0  0.2663E+01  0.3283E+00 -0.4848E+00E
 ACTION:UPD 12-06-08 11:37 OP:RALL STATUS:               ID:20090516201042     I
 2009-05-16-2010-32S.PLUR1_003                                                 6
 STAT SP IPHASW D HRMM SECON CODA AMPLIT PERI AZIMU VELO AIN AR TRES W  DIS CAZ7
 LA4  SZ E        2010 47.00                  190.2 13.3      0        28.0  10 
 LA4  SN IP       2010 47.03                             106    0.0110 28.0  10 
 LA4  SE IS       2010 50.62                             106   -0.0110 28.0  10 
 LA4  SZ  AML     2010 51.91        30.8 0.46                          28.0  10 
                                                                                
