 2009  517 0313 23.1 L  21.220 -99.272 10.0  RAL  1 0.0 0.9LRAL                1
 GAP=360        0.30       3.8     1.0  0.0 -0.1923E+01  0.2328E+01 -0.4868E+00E
 ACTION:UPD 12-06-08 11:37 OP:RALL STATUS:               ID:20090517031323     I
 2009-05-17-0313-13S.PLUR1_003                                                 6
 STAT SP IPHASW D HRMM SECON CODA AMPLIT PERI AZIMU VELO AIN AR TRES W  DIS CAZ7
 LA4  SZ E         313 28.21                  172.6 15.4      0        29.4 353 
 LA4  SN IP        313 28.25                             105    0.0110 29.4 353 
 LA4  SE IS        313 32.00                             105   -0.0110 29.4 353 
 LA4  SZ  AML      313 33.12        16.4 0.62                          29.4 353 
                                                                                
