 2009  517 0035 29.8 L  21.269 -99.261 10.0  RAL  2 0.4 1.3LRAL                1
 GAP=299        3.01       1.7     6.8 19.4  0.9099E+01  0.2328E+01 -0.4868E+00E
 ACTION:UPD 12-06-08 11:37 OP:RALL STATUS:               ID:20090517003529     I
 2009-05-17-0035-19S.PLUR1_006                                                 6
 STAT SP IPHASW D HRMM SECON CODA AMPLIT PERI AZIMU VELO AIN AR TRES W  DIS CAZ7
 LG3  SZ E         035 32.58                  238.2 19.0      9        1.18  49 
 LG3  SN IP        035 32.62                             175    0.9210 1.18  49 
 LG3  SE IS        035 34.21                             175    1.1510 1.18  49 
 LG3  SZ  AML      035 35.17       158.6 0.22                          1.18  49 
 LA4  SZ E         035 33.50                  163.0 10.5     -4        24.3 348 
 LA4  SN IP        035 33.50                             113   -0.7410 24.3 348 
 LA4  SE IS        035 36.14                             113   -1.3210 24.3 348 
 LA4  SZ  AML      035 37.29        27.8 0.22                          24.3 348 
                                                                                
