 2009  517 0116 30.1 L  21.521 -99.481 10.0  RAL  1 0.0 1.2LRAL                1
 GAP=360        0.30       2.7     3.0  0.0 -0.7568E+01  0.2328E+01 -0.4868E+00E
 ACTION:UPD 12-06-08 11:37 OP:RALL STATUS:               ID:20090517011630     I
 2009-05-17-0116-26S.PLUR1_003                                                 6
 STAT SP IPHASW D HRMM SECON CODA AMPLIT PERI AZIMU VELO AIN AR TRES W  DIS CAZ7
 LZ4  SZ E         116 35.42                  313.8 12.6      0        30.4 134 
 LZ4  SN IP        116 35.47                             104    0.0310 30.4 134 
 LZ4  SE IS        116 39.29                             104   -0.0310 30.4 134 
 LZ4  SZ  AML      116 39.95        32.2 0.28                          30.4 134 
                                                                                
