 2009  518 0558 34.4 L  21.204 -99.283 10.0  RAL  1 0.0 0.6LRAL                1
 GAP=360        0.30       4.4     0.6  0.0  0.2147E+01  0.2328E+01 -0.4868E+00E
 ACTION:UPD 12-06-08 11:37 OP:RALL STATUS:               ID:20090518055834     I
 2009-05-18-0558-29S.PLUR1_003                                                 6
 STAT SP IPHASW D HRMM SECON CODA AMPLIT PERI AZIMU VELO AIN AR TRES W  DIS CAZ7
 LZ4  SZ E         558 37.32                  185.9 24.0      0        14.1   6 
 LZ4  SN IP        558 37.35                             124    0.0010 14.1   6 
 LZ4  SE IS        558 39.51                             124    0.0010 14.1   6 
 LZ4  SZ  AML      558 39.88        14.4 0.50                          14.1   6 
                                                                                
