 2009  518 0642 12.1 L  21.493 -99.308 10.0  RAL  1 0.1-0.1LRAL                1
 GAP=360        0.73     999.9   999.9  0.0 -0.3067E+08  0.2328E+01 -0.4868E+00E
 ACTION:UPD 12-06-08 11:37 OP:RALL STATUS:               ID:20090518064212     I
 2009-05-18-0642-01S.PLUR1_003                                                 6
 STAT SP IPHASW D HRMM SECON CODA AMPLIT PERI AZIMU VELO AIN AR TRES W  DIS CAZ7
 LA4  SN IP        642 14.36                             174    0.3710 1.08 183 
 LA4  SZ E         642 14.36                    4.9  9.7      2        1.08 183 
 LA4  SE IS        642 14.98                             174   -0.3710 1.08 183 
 LA4  SZ  AML      642 15.62         4.9 0.40                          1.08 183 
                                                                                
