 2009  518 0653 41.8 L  21.625 -99.328 10.0  RAL  1 0.0 1.1LRAL                1
 GAP=360        0.30       4.3     0.7  0.0 -0.2514E+01  0.2328E+01 -0.4868E+00E
 ACTION:UPD 12-06-08 11:37 OP:RALL STATUS:               ID:20090518065341     I
 2009-05-18-0653-31S.PLUR1_003                                                 6
 STAT SP IPHASW D HRMM SECON CODA AMPLIT PERI AZIMU VELO AIN AR TRES W  DIS CAZ7
 LA4  SZ E         653 45.03                  352.7 10.9      0        15.8 173 
 LA4  SN IP        653 45.03                             120    0.0310 15.8 173 
 LA4  SE IS        653 47.31                             120   -0.0310 15.8 173 
 LA4  SZ  AML      653 48.68        38.2 0.42                          15.8 173 
                                                                                
