 2009  518 1934 19.2 L  21.733 -99.283 10.0  RAL  1 0.0 1.1LRAL                1
 GAP=360        0.30       3.8     0.9  0.0  0.1468E+01 -0.4858E+06  0.3745E+06E
 ACTION:UPD 12-06-08 11:37 OP:RALL STATUS:               ID:20090518193419     I
 2009-05-18-1934-11S.PLUR1_003                                                 6
 STAT SP IPHASW D HRMM SECON CODA AMPLIT PERI AZIMU VELO AIN AR TRES W  DIS CAZ7
 LA4  SN IP       1934 24.13                             106    0.0110 27.8 186 
 LA4  SZ E        1934 24.15                    5.5  7.9      0        27.8 186 
 LA4  SE IS       1934 27.70                             106   -0.0110 27.8 186 
 LA4  SZ  AML     1934 28.30        25.6 0.46                          27.8 186 
                                                                                
