 2009  518 1544 49.2 L  21.731 -99.337 10.0  RAL  1 0.0 3.5LRAL                1
 GAP=360        0.30       3.7     1.4  0.0 -0.2083E+01  0.2328E+01 -0.4868E+00E
 ACTION:UPD 12-06-08 11:37 OP:RALL STATUS:               ID:20090518154449     I
 2009-05-18-1544-47S.PLUR1_003                                                 6
 STAT SP IPHASW D HRMM SECON CODA AMPLIT PERI AZIMU VELO AIN AR TRES W  DIS CAZ7
 LZ4  SN IP       1544 56.74                              98    0.0110 44.9 171 
 LZ4  SZ E        1544 56.84                  351.1  7.5      0        44.9 171 
 LZ4  SE IS       1545  2.21                              98   -0.0110 44.9 171 
 LZ4  SZ  AML     1545  3.59      4589.8 0.38                          44.9 171 
                                                                                
