 2009  518 1824 16.5 L  21.733 -99.340 10.0  RAL  1 0.0 0.8LRAL                1
 GAP=360        0.30       3.8     0.9  0.0 -0.1783E+01 -0.4858E+06  0.3745E+06E
 ACTION:UPD 12-06-08 11:37 OP:RALL STATUS:               ID:20090518182416     I
 2009-05-18-1824-10S.PLUR1_003                                                 6
 STAT SP IPHASW D HRMM SECON CODA AMPLIT PERI AZIMU VELO AIN AR TRES W  DIS CAZ7
 LA4  SZ E        1824 21.42                  353.3 10.8      0        27.8 173 
 LA4  SN IP       1824 21.43                             106    0.0110 27.8 173 
 LA4  SE IS       1824 25.00                             106   -0.0110 27.8 173 
 LA4  SZ  AML     1824 25.56        14.0 0.54                          27.8 173 
                                                                                
