 2009  518 1744 59.9 L  21.706 -99.647  5.1  RAL  2 1.2 3.5LRAL                1
 SPEC LG3 S  N MO 12.9 ST0.733 OM  1.2 f0 6.44 R0.3561 AL 5.06 WI  3.3 MW  2.5 3
 SPEC LG3 S  N T174510 K 0.000 GD   63 VP 6.20 DE 3.00 Q0440.0 QA 0.70 VS 3.60 3
 SPEC LA4 S  E MO 12.8 ST 74.2 OM  2.0 f0 18.7 R0.0713 AL 8.13 WI  7.5 MW  2.5 3
 SPEC LA4 S  E T1745 9 K 0.000 GD   43 VS 3.60 DE 3.00 Q0440.0 QA 0.70 VS 3.60 3
 SPEC LA4 S  N MO 13.1 ST 45.2 OM  1.6 f0 21.7 R0.1059 AL 8.16 WI  4.3 MW  2.7 3
 SPEC LA4 S  N T1745 4 K 0.000 GD   43 VP 6.20 DE 3.00 Q0440.0 QA 0.70 VS 3.60 3
 GAP=346       20.72     356.3   460.4999.9 -0.1596E+06 -0.4858E+06  0.3745E+06E
 ACTION:UPD 12-06-08 11:37 OP:RALL STATUS:               ID:20090518174459     I
 2009-05-18-1744-52S.PLUR1_006                                                 6
 STAT SP IPHASW D HRMM SECON CODA AMPLIT PERI AZIMU VELO AIN AR TRES W  DIS CAZ7
 LG3  SE IS       1745 17.17                              63    0.1010 62.8 139 
 LG3  SZ E        1745 11.10                  237.2 13.6    -81        62.8 139 
 LG3  SZ  AML     1745 20.67      2279.8 0.46                          62.8 139 
 LG3  SN IP       1745 11.17                              63    1.3210 62.8 139 
 LA4  SZ E        1745  6.84                    3.9  9.5     59        42.8 125 
 LA4  SZ  AML     1745 11.11      6783.2 0.40                          42.8 125 
 LA4  SN IP       1745  6.67                              63   -0.0710 42.8 125 
 LA4  SE IS       1745 10.35                              63   -1.3510 42.8 125 
                                                                                
