 2009  518 2105 19.3 L  21.734 -99.266 10.0  RAL  1 0.0 1.1LRAL                1
 GAP=360        0.30       3.8     1.0  0.0  0.2372E+01 -0.4858E+06  0.3745E+06E
 ACTION:UPD 12-06-08 11:37 OP:RALL STATUS:               ID:20090518210519     I
 2009-05-18-2105-10S.PLUR1_003                                                 6
 STAT SP IPHASW D HRMM SECON CODA AMPLIT PERI AZIMU VELO AIN AR TRES W  DIS CAZ7
 LA4  SZ E        21 5 24.22                    9.0  8.4      0        28.1 189 
 LA4  SN IP       21 5 24.25                             106    0.0110 28.1 189 
 LA4  SE IS       21 5 27.85                             106   -0.0110 28.1 189 
 LA4  SZ  AML     21 5 28.38        26.0 0.42                          28.1 189 
                                                                                
