 2009  518 2350 50.2 L  21.750 -99.298 10.0  RAL  1 0.0 0.9LRAL                1
 GAP=360        0.30       3.8     0.8  0.0  0.6069E+00 -0.4858E+06  0.3745E+06E
 ACTION:UPD 12-06-08 11:37 OP:RALL STATUS:               ID:20090518235050     I
 2009-05-18-2350-44S.PLUR1_003                                                 6
 STAT SP IPHASW D HRMM SECON CODA AMPLIT PERI AZIMU VELO AIN AR TRES W  DIS CAZ7
 LA4  SZ E        2350 55.29                    2.3 11.5      0        29.5 182 
 LA4  SN IP       2350 55.39                             105    0.0110 29.5 182 
 LA4  SE IS       2350 59.15                             105   -0.0110 29.5 182 
 LA4  SZ  AML     2351  1.30        15.9 0.36                          29.5 182 
                                                                                
