 2009  519 0844 24.7 L  21.798 -99.417 10.0  RAL  1 0.0 1.9LRAL                1
 GAP=360        0.30       3.6     1.6  0.0 -0.4183E+01 -0.4858E+06  0.3745E+06E
 ACTION:UPD 12-06-08 11:37 OP:RALL STATUS:               ID:20090519084424     I
 2009-05-19-0844-16S.PLUR1_003                                                 6
 STAT SP IPHASW D HRMM SECON CODA AMPLIT PERI AZIMU VELO AIN AR TRES W  DIS CAZ7
 LA4  SN IP        844 30.99                             101    0.0110 36.6 162 
 LA4  SZ E         844 31.06                  342.2  9.1      0        36.6 162 
 LA4  SE IS        844 35.53                             101   -0.0110 36.6 162 
 LA4  SZ  AML      844 37.51       140.8 0.28                          36.6 162 
                                                                                
