 2009  519 0642 54.5 L  21.786 -99.416 10.0  RAL  1 0.0 1.9LRAL                1
 GAP=360        0.30       3.6     1.8  0.0 -0.3575E+01 -0.4858E+06  0.3745E+06E
 ACTION:UPD 12-06-08 11:37 OP:RALL STATUS:               ID:20090519064254     I
 2009-05-19-0642-53S.PLUR1_003                                                 6
 STAT SP IPHASW D HRMM SECON CODA AMPLIT PERI AZIMU VELO AIN AR TRES W  DIS CAZ7
 LZ4  SZ E         643  3.17                  343.3  7.3      0        52.6 163 
 LZ4  SN IP        643  3.24                              97    0.0110 52.6 163 
 LZ4  SE IS        643  9.57                              97   -0.0110 52.6 163 
 LZ4  SZ  AML      643 15.44        96.4 0.22                          52.6 163 
                                                                                
