 2009  519 0213  2.2 L  21.701 -99.369 10.0  RAL  1 0.0 0.7LRAL                1
 GAP=360        0.30       3.8     1.2  0.0 -0.3848E+01 -0.4858E+06  0.3745E+06E
 ACTION:UPD 12-06-08 11:37 OP:RALL STATUS:               ID:20090519021302     I
 2009-05-19-0212-55S.PLUR1_003                                                 6
 STAT SP IPHASW D HRMM SECON CODA AMPLIT PERI AZIMU VELO AIN AR TRES W  DIS CAZ7
 LA4  SZ E         213  6.65                  345.6  9.7      0        24.9 166 
 LA4  SN IP        213  6.67                             108    0.0210 24.9 166 
 LA4  SE IS        213  9.91                             108   -0.0210 24.9 166 
 LA4  SZ  AML      213 11.69        10.4 0.26                          24.9 166 
                                                                                
