 2009  519 2337 35.1 L  21.312 -99.250 10.0  RAL  1 0.1 0.5LRAL                1
 GAP=360        0.55      18.1    18.3  0.0 -0.3310E+03 -0.4858E+06  0.3745E+06E
 ACTION:UPD 12-06-08 11:37 OP:RALL STATUS:               ID:20090519233735     I
 2009-05-19-2337-28S.PLUR1_003                                                 6
 STAT SP IPHASW D HRMM SECON CODA AMPLIT PERI AZIMU VELO AIN AR TRES W  DIS CAZ7
 LZ4  SZ E        2337 37.27                  136.6 18.4      0        2.95 317 
 LZ4  SN IP       2337 37.27                             164    0.3110 2.95 317 
 LZ4  SE IS       2337 38.03                             164   -0.3110 2.95 317 
 LZ4  SZ  AML     2337 38.12        15.7 0.30                          2.95 317 
                                                                                
