 2009  520 1626 26.2 L  21.769 -99.478 10.0  RAL  1 0.0 0.6LRAL                1
 GAP=360        0.30       3.3     2.2  0.0 -0.6131E+01 -0.4858E+06  0.3745E+06E
 ACTION:UPD 12-06-08 11:37 OP:RALL STATUS:               ID:20090520162626     I
 2009-05-20-1626-22S.PLUR1_003                                                 6
 STAT SP IPHASW D HRMM SECON CODA AMPLIT PERI AZIMU VELO AIN AR TRES W  DIS CAZ7
 LA4  SZ E        1626 32.34                  331.0  9.0      0        36.1 151 
 LA4  SN IP       1626 32.36                             101    0.0210 36.1 151 
 LA4  SE IS       1626 36.83                             101   -0.0210 36.1 151 
 LA4  SZ  AML     1626 37.73         5.8 0.56                          36.1 151 
                                                                                
