 2009  520 1923 46.8 L  21.244 -99.118 10.0  RAL  1 0.0 0.8LRAL                1
 GAP=360        0.30       2.2     3.8  0.0 -0.7933E+01 -0.4858E+06  0.3745E+06E
 ACTION:UPD 12-06-08 11:37 OP:RALL STATUS:               ID:20090520192346     I
 2009-05-20-1923-41S.PLUR1_003                                                 6
 STAT SP IPHASW D HRMM SECON CODA AMPLIT PERI AZIMU VELO AIN AR TRES W  DIS CAZ7
 LZ4  SZ E        1923 50.24                  121.5 28.7      0        18.4 302 
 LZ4  SN IP       1923 50.35                             116    0.0110 18.4 302 
 LZ4  SE IS       1923 52.93                             116   -0.0110 18.4 302 
 LZ4  SZ  AML     1923 54.99        17.5 0.46                          18.4 302 
                                                                                
