 2009  520 2128 29.2 L  21.188 -99.155 10.0  RAL  1 0.0 0.7LRAL                1
 GAP=360        0.30       3.1     3.5  0.0 -0.1069E+02 -0.4858E+06  0.3745E+06E
 ACTION:UPD 12-06-08 11:37 OP:RALL STATUS:               ID:20090520212829     I
 2009-05-20-2128-25S.PLUR1_003                                                 6
 STAT SP IPHASW D HRMM SECON CODA AMPLIT PERI AZIMU VELO AIN AR TRES W  DIS CAZ7
 LG3  SN IP       2128 32.17                             124    0.0210 14.0 314 
 LG3  SZ E        2128 32.26                  133.8 18.5      0        14.0 314 
 LG3  SE IS       2128 34.30                             124   -0.0210 14.0 314 
 LG3  SZ  AML     2128 34.62        18.6 0.24                          14.0 314 
                                                                                
