 2009  520 2244  9.6 L  21.701 -99.315 10.0  RAL  1 0.0 1.1LRAL                1
 GAP=360        0.30       3.9     0.7  0.0 -0.4493E+00 -0.4858E+06  0.3745E+06E
 ACTION:UPD 12-06-08 11:37 OP:RALL STATUS:               ID:20090520224409     I
 2009-05-20-2243-59S.PLUR1_003                                                 6
 STAT SP IPHASW D HRMM SECON CODA AMPLIT PERI AZIMU VELO AIN AR TRES W  DIS CAZ7
 LA4  SZ E        2244 13.98                  358.4  9.5      0        24.0 178 
 LA4  SN IP       2244 14.01                             109    0.0110 24.0 178 
 LA4  SE IS       2244 17.17                             109   -0.0110 24.0 178 
 LA4  SZ  AML     2244 19.10        29.2 0.30                          24.0 178 
                                                                                
