 2009  520 2300 21.1 L  21.667 -99.369 10.0  RAL  1 0.0 0.6LRAL                1
 GAP=360        0.30       3.8     1.4  0.0 -0.4785E+01 -0.4858E+06  0.3745E+06E
 ACTION:UPD 12-06-08 11:37 OP:RALL STATUS:               ID:20090520230021     I
 2009-05-20-2300-14S.PLUR1_003                                                 6
 STAT SP IPHASW D HRMM SECON CODA AMPLIT PERI AZIMU VELO AIN AR TRES W  DIS CAZ7
 LA4  SN IP       23 0 25.04                             112    0.0210 21.2 163 
 LA4  SZ E        23 0 25.06                  342.9  8.4      0        21.2 163 
 LA4  SE IS       23 0 27.88                             112   -0.0210 21.2 163 
 LA4  SZ  AML     23 0 30.36        10.2 0.68                          21.2 163 
                                                                                
