 2009  521 1840  9.3 L  21.319 -99.267 10.0  RAL  1 0.2 1.2LRAL                1
 GAP=360        1.26     488.4   999.9  0.0  0.9285E+06 -0.4858E+06  0.3745E+06E
 ACTION:UPD 12-06-08 11:37 OP:RALL STATUS:               ID:20090521184009     I
 2009-05-21-1840-02S.PLUR1_003                                                 6
 STAT SP IPHASW D HRMM SECON CODA AMPLIT PERI AZIMU VELO AIN AR TRES W  DIS CAZ7
 LZ4  SZ E        1840 11.66                  163.7 16.4     -4        1.32 348 
 LZ4  SN IP       1840 11.67                             173    0.4810 1.32 348 
 LZ4  SE IS       1840 12.06                             173   -0.4810 1.32 348 
 LZ4  SZ  AML     1840 12.14        83.8 0.12                          1.32 348 
                                                                                
