 2009  522 0153 36.3 L  21.341 -99.251 10.0  RAL  1 0.2 0.7LRAL                1
 GAP=360        0.85      26.2    47.5  0.0  0.1242E+04 -0.4858E+06  0.3745E+06E
 ACTION:UPD 12-06-08 11:37 OP:RALL STATUS:               ID:20090522015336     I
 2009-05-22-0153-29S.PLUR1_003                                                 6
 STAT SP IPHASW D HRMM SECON CODA AMPLIT PERI AZIMU VELO AIN AR TRES W  DIS CAZ7
 LZ4  SZ E         153 38.72                   59.4 16.7      0        2.19 239 
 LZ4  SN IP        153 38.74                             168    0.5410 2.19 239 
 LZ4  SE IS        153 39.02                             168   -0.5410 2.19 239 
 LZ4  SZ  AML      153 39.16        25.4 0.24                          2.19 239 
                                                                                
