 2009  522 0302 21.5 L  21.322 -99.265 10.0  RAL  1 0.3                        1
 GAP=360        3.91     999.9   999.9  0.0  0.1360E+09 -0.4858E+06  0.3745E+06E
 ACTION:UPD 12-06-08 11:37 OP:RALL STATUS:               ID:20090522030221     I
 2009-05-22-0302-14S.PLUR1_003                                                 6
 STAT SP IPHASW D HRMM SECON CODA AMPLIT PERI AZIMU VELO AIN AR TRES W  DIS CAZ7
 LZ4  SN IP        3 2 23.60                             174    0.3010 1.07 337 
 LZ4  SZ E         3 2 23.64                  175.6 16.6     18        1.07 337 
 LZ4  SE IS        3 2 24.34                             174   -0.3010 1.07 337 
                                                                                
