 2009  522 0707 49.0 L  21.324 -99.285 10.0  RAL  1 0.1                        1
 GAP=360        0.61     999.9   696.2  0.0 -0.9014E+06 -0.4858E+06  0.3745E+06E
 ACTION:UPD 12-06-08 11:37 OP:RALL STATUS:               ID:20090522070749     I
 2009-05-22-0707-42S.PLUR1_003                                                 6
 STAT SP IPHASW D HRMM SECON CODA AMPLIT PERI AZIMU VELO AIN AR TRES W  DIS CAZ7
 LZ4  SZ E         7 7 51.17                  245.1 33.1      0        1.78  65 
 LZ4  SN IP        7 7 51.20                             170    0.3610 1.78  65 
 LZ4  SE IS        7 7 51.83                             170   -0.3610 1.78  65 
                                                                                
