 2009  522 2136 38.8 L  21.248 -99.253 10.0  RAL  1 0.0 1.2LRAL                1
 GAP=360        0.30       5.3     1.1  0.0 -0.5617E+01 -0.4858E+06  0.3745E+06E
 ACTION:UPD 12-06-08 11:37 OP:RALL STATUS:               ID:20090522213638     I
 2009-05-22-2136-33S.PLUR1_003                                                 6
 STAT SP IPHASW D HRMM SECON CODA AMPLIT PERI AZIMU VELO AIN AR TRES W  DIS CAZ7
 LZ4  SZ E        2136 41.16                  169.5 14.8      0        9.27 350 
 LZ4  SN IP       2136 41.17                             137    0.0110 9.27 350 
 LZ4  SE IS       2136 42.90                             137   -0.0110 9.27 350 
 LZ4  SZ  AML     2136 44.17        62.5 0.16                          9.27 350 
                                                                                
