 2009  522 2345 41.4 L  21.255 -99.228 10.0  RAL  1 0.1 1.2LRAL                1
 GAP=360        0.46      12.6    14.7  0.0 -0.1854E+03 -0.4858E+06  0.3745E+06E
 ACTION:UPD 12-06-08 11:37 OP:RALL STATUS:               ID:20090522234541     I
 2009-05-22-2345-34S.PLUR1_003                                                 6
 STAT SP IPHASW D HRMM SECON CODA AMPLIT PERI AZIMU VELO AIN AR TRES W  DIS CAZ7
 LG3  SZ E        2345 43.52                  132.7 12.1      0        3.39 313 
 LG3  SN IP       2345 43.55                             162    0.2410 3.39 313 
 LG3  SE IS       2345 44.48                             162   -0.2410 3.39 313 
 LG3  SZ  AML     2345 45.02        89.5 0.14                          3.39 313 
                                                                                
