 2009  523 0938 13.1 L  21.715 -99.565 10.0  RAL  1 0.0 1.2LRAL                1
 GAP=360        0.30       3.1     2.6  0.0 -0.6162E+01 -0.4858E+06  0.3745E+06E
 ACTION:UPD 12-06-08 11:37 OP:RALL STATUS:               ID:20090523093813     I
 2009-05-23-0938-12S.PLUR1_003                                                 6
 STAT SP IPHASW D HRMM SECON CODA AMPLIT PERI AZIMU VELO AIN AR TRES W  DIS CAZ7
 LZ4  SN IP        938 21.81                              97    0.0110 52.4 144 
 LZ4  SZ E         938 21.82                  324.3  8.7      0        52.4 144 
 LZ4  SE IS        938 28.11                              97   -0.0110 52.4 144 
 LZ4  SZ  AML      938 31.71        19.8 0.40                          52.4 144 
                                                                                
