 2009  523 0154 14.8 L  21.311 -99.406 10.0  RAL  1 0.0 0.6LRAL                1
 GAP=360        0.30       0.8     4.7  0.0  0.3161E+01 -0.4858E+06  0.3745E+06E
 ACTION:UPD 12-06-08 11:37 OP:RALL STATUS:               ID:20090523015414     I
 2009-05-23-0154-10S.PLUR1_003                                                 6
 STAT SP IPHASW D HRMM SECON CODA AMPLIT PERI AZIMU VELO AIN AR TRES W  DIS CAZ7
 LZ4  SZ E         154 17.74                  261.2 17.6      0        14.3  81 
 LZ4  SN IP        154 17.84                             123    0.0010 14.3  81 
 LZ4  SE IS        154 20.02                             123    0.0010 14.3  81 
 LZ4  SZ  AML      154 20.90        12.6 0.56                          14.3  81 
                                                                                
