 2009  523 1057 20.7 L  21.312 -99.258 10.0  RAL  1 0.1 0.8LRAL                1
 GAP=360        0.58      27.5    16.5  0.0 -0.4544E+03 -0.4858E+06  0.3745E+06E
 ACTION:UPD 12-06-08 11:37 OP:RALL STATUS:               ID:20090523105720     I
 2009-05-23-1057-13S.PLUR1_003                                                 6
 STAT SP IPHASW D HRMM SECON CODA AMPLIT PERI AZIMU VELO AIN AR TRES W  DIS CAZ7
 LZ4  SN IP       1057 22.92                             167    0.3310 2.42 331 
 LZ4  SZ E        1057 22.93                  150.8 13.2      0        2.42 331 
 LZ4  SE IS       1057 23.62                             167   -0.3310 2.42 331 
 LZ4  SZ  AML     1057 24.28        36.4 0.24                          2.42 331 
                                                                                
