 2009  523 1855 47.6 L  21.632 -99.296 10.0  RAL  1 0.0 0.3LRAL                1
 GAP=360        0.30       4.2     0.6  0.0  0.1544E+01 -0.4858E+06  0.3745E+06E
 ACTION:UPD 12-06-08 11:37 OP:RALL STATUS:               ID:20090523185547     I
 2009-05-23-1855-38S.PLUR1_003                                                 6
 STAT SP IPHASW D HRMM SECON CODA AMPLIT PERI AZIMU VELO AIN AR TRES W  DIS CAZ7
 LA4  SN IP       1855 50.91                             119    0.0210 16.5 185 
 LA4  SZ E        1855 50.97                    4.6  9.2      0        16.5 185 
 LA4  SE IS       1855 53.27                             119   -0.0210 16.5 185 
 LA4  SZ  AML     1855 53.45         5.9 0.44                          16.5 185 
                                                                                
