 2009  523 2150 47.0 R  22.204-100.849 10.0  RAL  1 0.0 2.4LRAL                1
 SPEC LZ4 S  N MO 12.0 ST0.071 OM -0.1 f0 5.59 R0.4107 AL 2.09 WI  3.5 MW  2.0 3
 SPEC LZ4 S  N T215113 K 0.000 GD  190 VP 6.20 DE 3.00 Q0440.0 QA 0.70 VS 3.60 3
 GAP=360        0.30       4.9     5.1  0.0  0.8720E+00 -0.4858E+06  0.3745E+06E
 ACTION:UPD 12-06-08 11:37 OP:RALL STATUS:               ID:20090523215047     I
 2009-05-23-2151-06S.PLUR1_003                                                 6
 STAT SP IPHASW D HRMM SECON CODA AMPLIT PERI AZIMU VELO AIN AR TRES W  DIS CAZ7
 LZ4  SE IS       2151 35.23                              52   -0.0110  190 120 
 LZ4  SZ E        2151 15.70                  300.9  8.5      0         190 120 
 LZ4  SZ  AML     2151 37.57        70.9 0.40                           190 120 
 LZ4  SN IP       2151 14.88                              52    0.0110  190 120 
                                                                                
