 2009  524 2328  8.3 L  21.288 -99.309 10.0  RAL  1 0.0 0.4LRAL                1
 GAP=360        0.30       5.4     5.0  0.0  0.2730E+02 -0.4858E+06  0.3745E+06E
 ACTION:UPD 12-06-08 11:37 OP:RALL STATUS:               ID:20090524232808     I
 2009-05-24-2328-02S.PLUR1_003                                                 6
 STAT SP IPHASW D HRMM SECON CODA AMPLIT PERI AZIMU VELO AIN AR TRES W  DIS CAZ7
 LZ4  SZ E        2328 10.35                  220.7 61.7      0        6.29  41 
 LZ4  SN IP       2328 10.47                             148    0.0410 6.29  41 
 LZ4  SE IS       2328 11.92                             148   -0.0410 6.29  41 
 LZ4  SZ  AML     2328 12.34        12.6 0.12                          6.29  41 
                                                                                
