 2009  524 2042 14.4 L  21.179 -99.259 10.0  RAL  1 0.0 0.8LRAL                1
 GAP=360        0.30       4.2     0.5  0.0 -0.1217E+01 -0.4858E+06  0.3745E+06E
 ACTION:UPD 12-06-08 11:37 OP:RALL STATUS:               ID:20090524204214     I
 2009-05-24-2042-10S.PLUR1_003                                                 6
 STAT SP IPHASW D HRMM SECON CODA AMPLIT PERI AZIMU VELO AIN AR TRES W  DIS CAZ7
 LZ4  SN IP       2042 17.71                             118    0.0210 16.9 356 
 LZ4  SZ E        2042 17.75                  176.3 23.3      0        16.9 356 
 LZ4  SE IS       2042 20.10                             118   -0.0210 16.9 356 
 LZ4  SZ  AML     2042 21.17        17.4 0.66                          16.9 356 
                                                                                
