 2009  525 0432 41.3 R  21.747 -99.536 10.0  RAL  1 0.0 1.0LRAL                1
 GAP=360        0.30       3.3     2.4  0.0 -0.5682E+01 -0.4858E+06  0.3745E+06E
 ACTION:UPD 12-06-08 11:37 OP:RALL STATUS:               ID:20090525043241     I
 2009-05-25-0432-47S.PLUR1_003                                                 6
 STAT SP IPHASW D HRMM SECON CODA AMPLIT PERI AZIMU VELO AIN AR TRES W  DIS CAZ7
 LZ4  SN IP        432 50.15                              97    0.0110 53.7 149 
 LZ4  SZ E         432 50.20                  329.1 12.5      0        53.7 149 
 LZ4  SE IS        432 56.60                              97   -0.0110 53.7 149 
 LZ4  SZ  AML      432 57.69        11.0 0.44                          53.7 149 
                                                                                
