 2009  525 1935 43.2 L  21.257 -99.242 10.0  RAL  1 0.1 1.1LRAL                1
 GAP=360        0.64     628.4   999.9  0.0  0.8704E+06 -0.4858E+06  0.3745E+06E
 ACTION:UPD 12-06-08 11:37 OP:RALL STATUS:               ID:20090525193543     I
 2009-05-25-1935-36S.PLUR1_003                                                 6
 STAT SP IPHASW D HRMM SECON CODA AMPLIT PERI AZIMU VELO AIN AR TRES W  DIS CAZ7
 LG3  SZ E        1935 45.37                  152.6 11.1      0        2.35 333 
 LG3  SN IP       1935 45.44                             167    0.3810 2.35 333 
 LG3  SE IS       1935 46.06                             167   -0.3810 2.35 333 
 LG3  SZ  AML     1935 46.23        67.9 0.22                          2.35 333 
                                                                                
