 2009  525 1720 48.7 L  21.305 -99.239 10.0  RAL  1 0.1 0.6LRAL                1
 GAP=360        0.38       8.2     9.7  0.0 -0.7998E+02 -0.4858E+06  0.3745E+06E
 ACTION:UPD 12-06-08 11:37 OP:RALL STATUS:               ID:20090525172048     I
 2009-05-25-1720-42S.PLUR1_003                                                 6
 STAT SP IPHASW D HRMM SECON CODA AMPLIT PERI AZIMU VELO AIN AR TRES W  DIS CAZ7
 LZ4  SZ E        1720 50.75                  132.2 11.4      0        4.33 312 
 LZ4  SN IP       1720 50.84                             157    0.1610 4.33 312 
 LZ4  SE IS       1720 51.95                             157   -0.1610 4.33 312 
 LZ4  SZ  AML     1720 52.09        19.4 0.22                          4.33 312 
                                                                                
