 2009  525 2203 12.5 L  21.380 -99.300 10.0  RAL  1 0.0 0.3LRAL                1
 GAP=360        0.30       3.7     1.6  0.0 -0.5149E+01 -0.4858E+06  0.3745E+06E
 ACTION:UPD 12-06-08 11:37 OP:RALL STATUS:               ID:20090525220312     I
 2009-05-25-2203-11S.PLUR1_003                                                 6
 STAT SP IPHASW D HRMM SECON CODA AMPLIT PERI AZIMU VELO AIN AR TRES W  DIS CAZ7
 LO8  SN IP       22 3 17.16                             108    0.0210 26.0 160 
 LO8  SZ E        22 3 17.16                  339.7  8.7      0        26.0 160 
 LO8  SE IS       22 3 20.53                             108   -0.0210 26.0 160 
 LO8  SZ  AML     22 3 21.45         4.1 0.40                          26.0 160 
                                                                                
