 2009  526 0227 41.7 L  21.189 -99.351 10.0  RAL  1 0.0 0.5LRAL                1
 GAP=360        0.30       3.6     2.1  0.0  0.7546E+01 -0.4858E+06  0.3745E+06E
 ACTION:UPD 12-06-08 11:37 OP:RALL STATUS:               ID:20090526022741     I
 2009-05-26-0227-37S.PLUR1_003                                                 6
 STAT SP IPHASW D HRMM SECON CODA AMPLIT PERI AZIMU VELO AIN AR TRES W  DIS CAZ7
 LZ4  SZ E         227 45.09                  208.3 18.1      0        17.8  28 
 LZ4  SN IP        227 45.14                             117    0.0010 17.8  28 
 LZ4  SE IS        227 47.66                             117    0.0010 17.8  28 
 LZ4  SZ  AML      227 50.84         9.4 0.60                          17.8  28 
                                                                                
