 2009  526 2006 51.8 L  21.552 -99.435 10.0  RAL  1 0.0 1.7LRAL                1
 GAP=360        0.30       3.2     2.5  0.0 -0.7132E+01 -0.4858E+06  0.3745E+06E
 ACTION:UPD 12-06-08 11:37 OP:RALL STATUS:               ID:20090526200651     I
 2009-05-26-2006-51S.PLUR1_003                                                 6
 STAT SP IPHASW D HRMM SECON CODA AMPLIT PERI AZIMU VELO AIN AR TRES W  DIS CAZ7
 LZ4  SN IP       20 6 57.06                             104    0.0210 29.9 145 
 LZ4  SZ E        20 6 57.08                  325.1 12.7      0        29.9 145 
 LZ4  SE IS       20 7  0.83                             104   -0.0210 29.9 145 
 LZ4  SZ  AML     20 7  1.70        98.8 0.14                          29.9 145 
                                                                                
