 2009  527 1441 54.0 L  20.920 -98.867 10.0  RAL  1 0.0 1.6LRAL                1
 GAP=360        0.30       2.9     3.0  0.0 -0.6014E+01 -0.4858E+06  0.3745E+06E
 ACTION:UPD 12-06-08 11:37 OP:RALL STATUS:               ID:20090527144154     I
 2009-05-27-1441-55S.PLUR1_003                                                 6
 STAT SP IPHASW D HRMM SECON CODA AMPLIT PERI AZIMU VELO AIN AR TRES W  DIS CAZ7
 LZ4  SN IP       1442  4.17                              96    0.0110 61.8 317 
 LZ4  SZ E        1442  4.37                  137.3  9.7      0        61.8 317 
 LZ4  SE IS       1442 11.53                              96   -0.0110 61.8 317 
 LZ4  SZ  AML     1442 14.00        38.6 0.24                          61.8 317 
                                                                                
