 2009  527 2222 52.5 L  22.150 -98.740  5.2  RAL  2 1.9 2.4LRAL                1
 GAP=345       29.59     999.9   926.5999.9  0.1173E+07  0.2716E+07  0.3889E+07E
 ACTION:UPD 12-06-08 11:37 OP:RALL STATUS:               ID:20090527222252     I
 2009-05-27-2222-53S.PLUR1_006                                                 6
 STAT SP IPHASW D HRMM SECON CODA AMPLIT PERI AZIMU VELO AIN AR TRES W  DIS CAZ7
 LA4  SN IP       2223  7.90                              63    0.2810 94.3 219 
 LA4  SZ E        2223  8.06                  354.6  8.5     44        94.3 219 
 LA4  SE IS       2223 15.38                              63   -3.2910 94.3 219 
 LA4  SZ  AML     2223 18.93       615.4 0.50                          94.3 219 
 LO8  SN IP       2223 14.78                              63    3.1510  120 204 
 LO8  SZ E        2223 15.19                  160.2  6.8    136         120 204 
 LO8  SE IS       2223 25.48                              63   -0.1410  120 204 
 LO8  SZ  AML     2223 27.82        37.3 0.48                           120 204 
                                                                                
