 2009  527 2003 39.9 L  21.830 -99.762 10.0  RAL  1 0.0 2.7LRAL                1
 GAP=360        0.30       3.0     3.1  0.0 -0.5361E+01 -0.4858E+06  0.3745E+06E
 ACTION:UPD 12-06-08 11:37 OP:RALL STATUS:               ID:20090527200339     I
 2009-05-27-2003-42S.PLUR1_003                                                 6
 STAT SP IPHASW D HRMM SECON CODA AMPLIT PERI AZIMU VELO AIN AR TRES W  DIS CAZ7
 LZ4  SN IP       20 3 52.13                              94    0.0110 75.2 137 
 LZ4  SZ E        20 3 52.17                  317.4  6.1      0        75.2 137 
 LZ4  SE IS       20 4  1.01                              94   -0.0110 75.2 137 
 LZ4  SZ  AML     20 4  2.62       370.3 0.16                          75.2 137 
                                                                                
