 2009  527 2322 44.6 L  21.739 -99.333 10.0  RAL  1 0.0 0.8LRAL                1
 GAP=360        0.30       3.8     0.9  0.0 -0.1354E+01  0.2716E+07  0.3889E+07E
 ACTION:UPD 12-06-08 11:37 OP:RALL STATUS:               ID:20090527232244     I
 2009-05-27-2322-38S.PLUR1_003                                                 6
 STAT SP IPHASW D HRMM SECON CODA AMPLIT PERI AZIMU VELO AIN AR TRES W  DIS CAZ7
 LA4  SN IP       2322 49.60                             105    0.0110 28.4 175 
 LA4  SZ E        2322 49.63                  354.9 11.0      0        28.4 175 
 LA4  SE IS       2322 53.24                             105   -0.0110 28.4 175 
 LA4  SZ  AML     2322 55.33        11.6 0.82                          28.4 175 
                                                                                
