 2009  527 2342 55.4 L  21.965 -99.445 10.0  RAL  1 0.0 3.5LRAL                1
 GAP=360        0.30       3.6     2.2  0.0 -0.2689E+01  0.2716E+07  0.3889E+07E
 ACTION:UPD 12-06-08 11:37 OP:RALL STATUS:               ID:20090527234255     I
 2009-05-27-2342-57S.PLUR1_003                                                 6
 STAT SP IPHASW D HRMM SECON CODA AMPLIT PERI AZIMU VELO AIN AR TRES W  DIS CAZ7
 LZ4  SN IP       2343  7.20                              95    0.0110 72.5 165 
 LZ4  SZ E        2343  7.25                  345.5  6.4      0        72.5 165 
 LZ4  SE IS       2343 15.78                              95   -0.0110 72.5 165 
 LZ4  SZ  AML     2343 16.55      2450.5 0.48                          72.5 165 
                                                                                
