 2009  528 0151 12.7 L  21.235 -99.413 10.0  RAL  1 0.0 1.0LRAL                1
 GAP=360        0.30       2.4     3.6  0.0  0.8449E+01  0.2716E+07  0.3889E+07E
 ACTION:UPD 12-06-08 11:37 OP:RALL STATUS:               ID:20090528015112     I
 2009-05-28-0151-07S.PLUR1_003                                                 6
 STAT SP IPHASW D HRMM SECON CODA AMPLIT PERI AZIMU VELO AIN AR TRES W  DIS CAZ7
 LZ4  SZ E         151 16.04                  234.6 20.4      0        18.3  55 
 LZ4  SN IP        151 16.28                             116    0.0110 18.3  55 
 LZ4  SE IS        151 18.84                             116   -0.0110 18.3  55 
 LZ4  SZ  AML      151 19.19        26.5 0.40                          18.3  55 
                                                                                
