 2009  528 0413 54.4 L  21.285 -99.423 10.0  RAL  1 0.0 0.8LRAL                1
 GAP=360        0.30       1.3     4.3  0.0  0.5402E+01  0.2716E+07  0.3889E+07E
 ACTION:UPD 12-06-08 11:37 OP:RALL STATUS:               ID:20090528041354     I
 2009-05-28-0413-48S.PLUR1_003                                                 6
 STAT SP IPHASW D HRMM SECON CODA AMPLIT PERI AZIMU VELO AIN AR TRES W  DIS CAZ7
 LZ4  SZ E         413 57.56                  252.5 24.6      0        16.7  72 
 LZ4  SN IP        413 57.71                             119    0.0010 16.7  72 
 LZ4  SE IS        414  0.12                             119    0.0010 16.7  72 
 LZ4  SZ  AML      414  0.44        17.0 0.68                          16.7  72 
                                                                                
