 2009  528 0857 28.1 L  21.305 -99.289 10.0  RAL  1 0.1 0.8LRAL                1
 GAP=360        0.43      13.2    10.2  0.0  0.1351E+03  0.2716E+07  0.3889E+07E
 ACTION:UPD 12-06-08 11:37 OP:RALL STATUS:               ID:20090528085728     I
 2009-05-28-0857-20S.PLUR1_003                                                 6
 STAT SP IPHASW D HRMM SECON CODA AMPLIT PERI AZIMU VELO AIN AR TRES W  DIS CAZ7
 LZ4  SZ E         857 30.19                  215.8 29.3      0        3.54  36 
 LZ4  SN IP        857 30.20                             161    0.2110 3.54  36 
 LZ4  SE IS        857 31.19                             161   -0.2110 3.54  36 
 LZ4  SZ  AML      857 31.40        35.4 0.26                          3.54  36 
                                                                                
