 2009  528 0230 12.5 L  21.325 -99.293 10.0  RAL  1 0.1 0.4LRAL                1
 GAP=360        0.36       0.3     0.3999.9  0.3289E-01  0.2716E+07  0.3889E+07E
 ACTION:UPD 12-06-08 11:37 OP:RALL STATUS:               ID:20090528023012     I
 2009-05-28-0230-05S.PLUR1_003                                                 6
 STAT SP IPHASW D HRMM SECON CODA AMPLIT PERI AZIMU VELO AIN AR TRES W  DIS CAZ7
 LZ4  SZ E         230 14.54                  255.6 19.8      1        2.53  74 
 LZ4  SN IP        230 14.56                             166    0.1810 2.53  74 
 LZ4  SE IS        230 15.58                             166   -0.1810 2.53  74 
 LZ4  SZ  AML      230 16.83        13.2 0.90                          2.53  74 
                                                                                
