 2009  528 1931  3.0 L  21.307 -99.275 10.0  RAL  1 0.0 0.6LRAL                1
 GAP=360        0.33      15.9     3.5  0.0  0.5624E+02  0.2716E+07  0.3889E+07E
 ACTION:UPD 12-06-08 11:37 OP:RALL STATUS:               ID:20090528193103     I
 2009-05-28-1930-57S.PLUR1_003                                                 6
 STAT SP IPHASW D HRMM SECON CODA AMPLIT PERI AZIMU VELO AIN AR TRES W  DIS CAZ7
 LZ4  SN IP       1931  4.94                             165    0.1010 2.70  12 
 LZ4  SZ E        1931  4.98                  191.7 19.3      0        2.70  12 
 LZ4  SE IS       1931  6.12                             165   -0.1010 2.70  12 
 LZ4  SZ  AML     1931  6.72        24.0 0.10                          2.70  12 
                                                                                
