 2009  528 1813 13.2 L  21.689 -99.453 10.0  RAL  1 0.0 1.6LRAL                1
 GAP=360        0.30       3.4     2.1  0.0 -0.5331E+01  0.2716E+07  0.3889E+07E
 ACTION:UPD 12-06-08 11:37 OP:RALL STATUS:               ID:20090528181313     I
 2009-05-28-1813-11S.PLUR1_003                                                 6
 STAT SP IPHASW D HRMM SECON CODA AMPLIT PERI AZIMU VELO AIN AR TRES W  DIS CAZ7
 LZ4  SN IP       1813 20.60                              99    0.0110 44.0 154 
 LZ4  SZ E        1813 20.60                  334.5 20.6      0        44.0 154 
 LZ4  SE IS       1813 25.96                              99   -0.0110 44.0 154 
 LZ4  SZ  AML     1813 27.85        47.5 0.72                          44.0 154 
                                                                                
