 2009  528 1117 54.6 L  21.258 -99.248 10.0  RAL  1 0.1 0.3LRAL                1
 GAP=360        0.46     237.0   999.9  0.0  0.2680E+06  0.2716E+07  0.3889E+07E
 ACTION:UPD 12-06-08 11:37 OP:RALL STATUS:               ID:20090528111754     I
 2009-05-28-1117-47S.PLUR1_003                                                 6
 STAT SP IPHASW D HRMM SECON CODA AMPLIT PERI AZIMU VELO AIN AR TRES W  DIS CAZ7
 LG3  SZ E        1117 56.66                  166.8 26.0      1        2.01 346 
 LG3  SN IP       1117 56.71                             169    0.1810 2.01 346 
 LG3  SE IS       1117 57.72                             169   -0.1810 2.01 346 
 LG3  SZ  AML     1117 57.83        11.6 0.10                          2.01 346 
                                                                                
