 2009  529 0530  6.5 L  21.641 -99.662 10.0  RAL  1 0.0 1.1LRAL                1
 GAP=360        0.30       1.9     3.7  0.0 -0.5424E+01  0.2716E+07  0.3889E+07E
 ACTION:UPD 12-06-08 11:37 OP:RALL STATUS:               ID:20090529053006     I
 2009-05-29-0529-58S.PLUR1_003                                                 6
 STAT SP IPHASW D HRMM SECON CODA AMPLIT PERI AZIMU VELO AIN AR TRES W  DIS CAZ7
 LA4  SZ E         530 13.28                  295.5 13.3      0        40.5 115 
 LA4  SN IP        530 13.31                             100    0.0110 40.5 115 
 LA4  SE IS        530 18.28                             100   -0.0110 40.5 115 
 LA4  SZ  AML      530 24.05        16.5 0.34                          40.5 115 
                                                                                
