 2009  529 0959 58.9 L  21.558 -99.402 10.0  RAL  1 0.0 0.5LRAL                1
 GAP=360        0.30       3.0     3.8  0.0 -0.1148E+02  0.2716E+07  0.3889E+07E
 ACTION:UPD 12-06-08 11:37 OP:RALL STATUS:               ID:20090529095958     I
 2009-05-29-0959-49S.PLUR1_003                                                 6
 STAT SP IPHASW D HRMM SECON CODA AMPLIT PERI AZIMU VELO AIN AR TRES W  DIS CAZ7
 LA4  SN IP       10 0  1.70                             127    0.0210 12.7 131 
 LA4  SZ E        10 0  1.86                  310.6 12.1      0        12.7 131 
 LA4  SE IS       10 0  3.70                             127   -0.0210 12.7 131 
 LA4  SZ  AML     10 0  5.72        10.8 0.80                          12.7 131 
                                                                                
