 2009  529 0831 25.7 L  21.742 -99.283 10.0  RAL  1 0.0 0.9LRAL                1
 GAP=360        0.30       3.8     0.9  0.0  0.1401E+01  0.2716E+07  0.3889E+07E
 ACTION:UPD 12-06-08 11:37 OP:RALL STATUS:               ID:20090529083125     I
 2009-05-29-0831-18S.PLUR1_003                                                 6
 STAT SP IPHASW D HRMM SECON CODA AMPLIT PERI AZIMU VELO AIN AR TRES W  DIS CAZ7
 LA4  SN IP        831 30.75                             105    0.0110 28.8 185 
 LA4  SZ E         831 30.93                    5.3  9.5      0        28.8 185 
 LA4  SE IS        831 34.43                             105   -0.0110 28.8 185 
 LA4  SZ  AML      831 36.53        16.1 0.34                          28.8 185 
                                                                                
