 2009  529 0949 28.1 L  21.351 -99.296 10.0  RAL  1 0.1 1.3LRAL                1
 GAP=360        0.46      10.9    14.7  0.0 -0.1595E+03  0.2716E+07  0.3889E+07E
 ACTION:UPD 12-06-08 11:37 OP:RALL STATUS:               ID:20090529094928     I
 2009-05-29-0949-20S.PLUR1_003                                                 6
 STAT SP IPHASW D HRMM SECON CODA AMPLIT PERI AZIMU VELO AIN AR TRES W  DIS CAZ7
 LZ4  SZ E         949 30.26                  308.5 22.5      0        3.56 128 
 LZ4  SN IP        949 30.28                             161    0.2410 3.56 128 
 LZ4  SE IS        949 31.21                             161   -0.2410 3.56 128 
 LZ4  SZ  AML      949 31.33       117.1 0.14                          3.56 128 
                                                                                
