 2009  529 1212  4.1 L  21.273 -99.265 10.0  RAL  2 0.4 0.5LRAL                1
 GAP=270        3.82      22.0     8.8 33.2 -0.7473E+02  0.9774E+02 -0.5020E+03E
 ACTION:UPD 12-06-08 11:37 OP:RALL STATUS:               ID:20090529121204     I
 2009-05-29-1211-56S.PLUR1_006                                                 6
 STAT SP IPHASW D HRMM SECON CODA AMPLIT PERI AZIMU VELO AIN AR TRES W  DIS CAZ7
 LG3  SN IP       1212  6.73                             175    0.7610 1.35  79 
 LG3  SZ E        1212  6.74                  257.0 24.2     -1        1.35  79 
 LG3  SE IS       1212  8.28                             175    0.9510 1.35  79 
 LG3  SZ  AML     1212  8.69        20.9 0.10                          1.35  79 
 LA4  SZ E        1212  7.78                  152.7  6.7    -15        23.7 349 
 LA4  SN IP       1212  7.85                             111   -0.5710 23.7 349 
 LA4  SE IS       1212 10.42                             111   -1.1510 23.7 349 
 LA4  SZ  AML     1212 10.80         7.5 0.26                          23.7 349 
                                                                                
