 2009  529 1830 18.0 L  21.309 -99.251 10.0  RAL  1 0.1 1.3LRAL                1
 GAP=360        0.52      18.3    15.4  0.0 -0.2804E+03  0.9774E+02 -0.5020E+03E
 ACTION:UPD 12-06-08 11:37 OP:RALL STATUS:               ID:20090529183018     I
 2009-05-29-1830-11S.PLUR1_003                                                 6
 STAT SP IPHASW D HRMM SECON CODA AMPLIT PERI AZIMU VELO AIN AR TRES W  DIS CAZ7
 LZ4  SZ E        1830 20.22                  141.9 11.9      0        3.03 322 
 LZ4  SN IP       1830 20.22                             164    0.2910 3.03 322 
 LZ4  SE IS       1830 21.02                             164   -0.2910 3.03 322 
 LZ4  SZ  AML     1830 21.29       120.4 0.16                          3.03 322 
                                                                                
