 2009  529 2053 39.9 L  21.270 -99.277  4.5  RAL  2 0.0 0.8LRAL                1
 GAP=276        0.30       0.2     0.7  0.9  0.9660E-01  0.1058E+00  0.1950E-01E
 ACTION:UPD 12-06-08 11:37 OP:RALL STATUS:               ID:20090529205339     I
 2009-05-29-2053-32S.PLUR1_006                                                 6
 STAT SP IPHASW D HRMM SECON CODA AMPLIT PERI AZIMU VELO AIN AR TRES W  DIS CAZ7
 LG3  SZ E        2053 40.99                  256.5 17.7      0        2.61  76 
 LG3  SN IP       2053 41.01                             155    0.0710 2.61  76 
 LG3  SE IS       2053 41.69                             155   -0.0410 2.61  76 
 LG3  SZ  AML     2053 41.91       116.0 0.10                          2.61  76 
 LA4  SZ E        2053 44.01                  172.0  7.6      0        23.9 352 
 LA4  SN IP       2053 44.06                              63   -0.0310 23.9 352 
 LA4  SE IS       2053 47.20                              63    0.0110 23.9 352 
 LA4  SZ  AML     2053 48.23         7.1 0.20                          23.9 352 
                                                                                
