 2009  530 1656 41.9 L  21.775 -99.603 10.0  RAL  1 0.0 0.4LRAL                1
 GAP=360        0.30       2.8     2.9  0.0 -0.6842E+01  0.1058E+00  0.1950E-01E
 ACTION:UPD 12-06-08 11:37 OP:RALL STATUS:               ID:20090530165641     I
 2009-05-30-1656-41S.PLUR1_003                                                 6
 STAT SP IPHASW D HRMM SECON CODA AMPLIT PERI AZIMU VELO AIN AR TRES W  DIS CAZ7
 LA4  SZ E        1656 49.35                  316.7 12.4      0        44.4 137 
 LA4  SN IP       1656 49.37                              99    0.0210 44.4 137 
 LA4  SE IS       1656 54.77                              99   -0.0210 44.4 137 
 LA4  SZ  AML     1656 54.82         3.5 0.40                          44.4 137 
                                                                                
