 2009  531 0027 52.8 L  21.685 -99.274 10.0  RAL  1 0.0 0.7LRAL                1
 GAP=360        0.30       3.9     0.9  0.0  0.2632E+01  0.1058E+00  0.1950E-01E
 ACTION:UPD 12-06-08 11:37 OP:RALL STATUS:               ID:20090531002752     I
 2009-05-31-0027-45S.PLUR1_003                                                 6
 STAT SP IPHASW D HRMM SECON CODA AMPLIT PERI AZIMU VELO AIN AR TRES W  DIS CAZ7
 LA4  SN IP        027 56.97                             110    0.0210 22.6 189 
 LA4  SZ E         027 57.00                    9.3  8.8      0        22.6 189 
 LA4  SE IS        027 59.97                             110   -0.0210 22.6 189 
 LA4  SZ  AML      028  1.31        11.9 0.42                          22.6 189 
                                                                                
