 2009  531 0611 32.6 L  21.512 -99.269 10.0  RAL  1 0.0 0.6LRAL                1
 GAP=360        0.30       4.0     0.6  0.0  0.6033E-01  0.1058E+00  0.1950E-01E
 ACTION:UPD 12-06-08 11:37 OP:RALL STATUS:               ID:20090531061132     I
 2009-05-31-0611-29S.PLUR1_003                                                 6
 STAT SP IPHASW D HRMM SECON CODA AMPLIT PERI AZIMU VELO AIN AR TRES W  DIS CAZ7
 LZ4  SN IP        611 36.41                             113    0.0210 20.1 180 
 LZ4  SZ E         611 36.42                    0.2 10.8      0        20.1 180 
 LZ4  SE IS        611 39.14                             113   -0.0210 20.1 180 
 LZ4  SZ  AML      611 40.22        10.4 0.20                          20.1 180 
                                                                                
