 2009  531 0630  5.1 L  21.318 -99.291 10.0  RAL  1 0.1 0.0LRAL                1
 GAP=360        0.57      15.1    26.0  0.0  0.3932E+03  0.1058E+00  0.1950E-01E
 ACTION:UPD 12-06-08 11:37 OP:RALL STATUS:               ID:20090531063005     I
 2009-05-31-0629-59S.PLUR1_003                                                 6
 STAT SP IPHASW D HRMM SECON CODA AMPLIT PERI AZIMU VELO AIN AR TRES W  DIS CAZ7
 LZ4  SZ E         630  7.19                  238.0 14.5      0        2.67  58 
 LZ4  SN IP        630  7.30                             165    0.3310 2.67  58 
 LZ4  SE IS        630  8.01                             165   -0.3310 2.67  58 
 LZ4  SZ  AML      630  8.44         5.7 0.32                          2.67  58 
                                                                                
