 2009  531 0222 58.6 L  21.658 -99.375 10.0  RAL  1 0.0 1.1LRAL                1
 GAP=360        0.30       3.8     1.5  0.0 -0.5386E+01  0.1058E+00  0.1950E-01E
 ACTION:UPD 12-06-08 11:37 OP:RALL STATUS:               ID:20090531022258     I
 2009-05-31-0222-48S.PLUR1_003                                                 6
 STAT SP IPHASW D HRMM SECON CODA AMPLIT PERI AZIMU VELO AIN AR TRES W  DIS CAZ7
 LA4  SZ E         223  2.41                  340.4  9.3      0        20.4 160 
 LA4  SN IP        223  2.44                             113    0.0010 20.4 160 
 LA4  SE IS        223  5.24                             113    0.0010 20.4 160 
 LA4  SZ  AML      223  6.29        34.5 0.20                          20.4 160 
                                                                                
