 2009  531 1833 18.9 L  21.305 -99.262 10.0  RAL  1 0.0 0.7LRAL                1
 GAP=360        0.35      15.0     4.5  0.0 -0.6697E+02  0.1058E+00  0.1950E-01E
 ACTION:UPD 12-06-08 11:37 OP:RALL STATUS:               ID:20090531183318     I
 2009-05-31-1833-11S.PLUR1_003                                                 6
 STAT SP IPHASW D HRMM SECON CODA AMPLIT PERI AZIMU VELO AIN AR TRES W  DIS CAZ7
 LZ4  SN IP       1833 20.88                             164    0.1210 2.99 344 
 LZ4  SZ E        1833 20.90                  164.4  9.5      0        2.99 344 
 LZ4  SE IS       1833 22.02                             164   -0.1210 2.99 344 
 LZ4  SZ  AML     1833 22.42        29.5 0.24                          2.99 344 
                                                                                
