 2009  531 2100 48.6 L  21.269 -99.233 10.0  RAL  1 0.2 1.3LRAL                1
 GAP=360        2.24     869.4   199.3  0.0  0.1732E+06  0.1058E+00  0.1950E-01E
 ACTION:UPD 12-06-08 11:37 OP:RALL STATUS:               ID:20090531210048     I
 2009-05-31-2100-41S.PLUR1_003                                                 6
 STAT SP IPHASW D HRMM SECON CODA AMPLIT PERI AZIMU VELO AIN AR TRES W  DIS CAZ7
 LG3  SZ E        21 0 50.91                  101.0 31.3     -9        2.14 291 
 LG3  SN IP       21 0 50.92                             168    0.4710 2.14 291 
 LG3  SE IS       21 0 51.36                             168   -0.4710 2.14 291 
 LG3  SZ  AML     21 0 51.42       122.2 0.10                          2.14 291 
                                                                                
