 2010  719 0806 23.9 L  20.886 -99.281 10.0  RAL  1 0.0                        1
 GAP=360        0.30       3.7     1.2  0.0  0.9251E+00  0.0000E+00  0.0000E+00E
 2010-07-19-0806-22S.PLUR1_003                                                 6
 STAT SP IPHASW D HRMM SECON CODA AMPLIT PERI AZIMU VELO AIN AR TRES W  DIS CAZ7
 LG3  SZ E         8 6 31.12                  183.9 11.6      0        43.2   4 
 LG3  SN IP     C  8 6 31.13                              99    0.0110 43.2   4 
 LG3  SE IS     D  8 6 36.42                              99   -0.0110 43.2   4 
                                                                                
