 2010 10 1 2031 59.1 L  21.344 -99.300 10.0  RAL  1 0.0 0.0LRAL                1
 GAP=360        0.30       6.2     3.2  0.0 -0.1974E+02  0.5903E+01 -0.6551E+01E
 ACTION:UPD 12-06-08 11:37 OP:RALL STATUS:               ID:20101001203159     I
 2010-10-01-2031-52S.PLUR1_003                                                 6
 STAT SP IPHASW D HRMM SECON CODA AMPLIT PERI AZIMU VELO AIN AR TRES W  DIS CAZ7
 LT9  SN IP       2032  1.16                             147    0.0210 6.37 334 
 LT9  SZ E        2032  1.19                  154.2  7.6      0        6.37 334 
 LT9  SE IS       2032  2.62                             147   -0.0210 6.37 334 
 LT9  SZ  AML     2032  2.91         5.0 0.44                          6.37 334 
                                                                                
