 2010 10 3 0441 50.1 L  21.370 -99.303 10.0  RAL  1 0.0 0.5LRAL                1
 GAP=360        0.30       4.6     0.4  0.0 -0.1209E+01  0.5903E+01 -0.6551E+01E
 ACTION:UPD 12-06-08 11:37 OP:RALL STATUS:               ID:20101003044150     I
 2010-10-03-0441-45S.PLUR1_003                                                 6
 STAT SP IPHASW D HRMM SECON CODA AMPLIT PERI AZIMU VELO AIN AR TRES W  DIS CAZ7
 LA4  SZ E         441 52.87                  177.0  7.6      0        12.6 357 
 LA4  SN IP        441 52.87                             127    0.0010 12.6 357 
 LA4  SE IS        441 54.90                             127    0.0010 12.6 357 
 LA4  SZ  AML      441 55.03        10.2 0.42                          12.6 357 
                                                                                
