 2010 10 3 0357 48.3 L  21.310 -99.229 10.0  RAL  1 0.0 1.1LRAL                1
 GAP=360        0.30       3.7     1.8  0.0 -0.6124E+01  0.5903E+01 -0.6551E+01E
 ACTION:UPD 12-06-08 11:37 OP:RALL STATUS:               ID:20101003035748     I
 2010-10-03-0357-43S.PLUR1_003                                                 6
 STAT SP IPHASW D HRMM SECON CODA AMPLIT PERI AZIMU VELO AIN AR TRES W  DIS CAZ7
 LA4  SZ E         357 52.17                  156.6  7.6      0        20.9 337 
 LA4  SN IP        357 52.19                             112    0.0010 20.9 337 
 LA4  SE IS        357 55.04                             112    0.0010 20.9 337 
 LA4  SZ  AML      357 57.08        33.6 0.38                          20.9 337 
                                                                                
