 2010 10 3 1714 10.8 L  21.464 -99.331 10.0  RAL  1 0.1 0.2LRAL                1
 GAP=360        0.51      15.0    16.9  0.0  0.2527E+03  0.5903E+01 -0.6551E+01E
 ACTION:UPD 12-06-08 11:37 OP:RALL STATUS:               ID:20101003171410     I
 2010-10-03-1714-04S.PLUR1_003                                                 6
 STAT SP IPHASW D HRMM SECON CODA AMPLIT PERI AZIMU VELO AIN AR TRES W  DIS CAZ7
 LA4  SZ E        1714 12.99                  226.3 14.7      0        3.18  46 
 LA4  SN IP       1714 13.00                             163    0.2810 3.18  46 
 LA4  SE IS       1714 13.84                             163   -0.2810 3.18  46 
 LA4  SZ  AML     1714 13.97         8.8 0.22                          3.18  46 
                                                                                
