 2010 10 4 0147 35.8 L  21.195 -99.215 10.0  RAL  1 0.0 2.1LRAL                1
 GAP=360        0.30       3.6     1.5  0.0 -0.4082E+01  0.5903E+01 -0.6551E+01E
 ACTION:UPD 12-06-08 11:37 OP:RALL STATUS:               ID:20101004014735     I
 2010-10-04-0147-31S.PLUR1_003                                                 6
 STAT SP IPHASW D HRMM SECON CODA AMPLIT PERI AZIMU VELO AIN AR TRES W  DIS CAZ7
 LA4  SZ E         147 41.51                  163.0  8.1      0        33.4 343 
 LA4  SN IP        147 41.54                             102    0.0110 33.4 343 
 LA4  SE IS        147 45.72                             102   -0.0110 33.4 343 
 LA4  SZ  AML      147 48.85       214.4 0.54                          33.4 343 
                                                                                
