 2010 10 4 2326 14.8 L  21.323 -99.201 10.0  RAL  1 0.0 1.3LRAL                1
 GAP=360        0.30       3.4     2.3  0.0 -0.7561E+01  0.5903E+01 -0.6551E+01E
 ACTION:UPD 12-06-08 11:37 OP:RALL STATUS:               ID:20101004232614     I
 2010-10-04-2326-09S.PLUR1_003                                                 6
 STAT SP IPHASW D HRMM SECON CODA AMPLIT PERI AZIMU VELO AIN AR TRES W  DIS CAZ7
 LA4  SZ E        2326 18.69                  147.8  6.1      0        21.0 328 
 LA4  SN IP       2326 18.71                             112    0.0010 21.0 328 
 LA4  SE IS       2326 21.57                             112    0.0010 21.0 328 
 LA4  SZ  AML     2326 23.75        53.1 0.26                          21.0 328 
                                                                                
