 2010 10 5 1656 35.4 L  21.525 -99.338 10.0  RAL  1 0.0 0.6LRAL                1
 GAP=360        0.31       6.8     4.8  0.0 -0.3247E+02  0.5903E+01 -0.6551E+01E
 ACTION:UPD 12-06-08 11:37 OP:RALL STATUS:               ID:20101005165635     I
 2010-10-05-1656-29S.PLUR1_003                                                 6
 STAT SP IPHASW D HRMM SECON CODA AMPLIT PERI AZIMU VELO AIN AR TRES W  DIS CAZ7
 LA4  SZ E        1656 37.48                  326.7  8.7      0        5.51 147 
 LA4  SN IP       1656 37.51                             152    0.0610 5.51 147 
 LA4  SE IS       1656 38.90                             152   -0.0610 5.51 147 
 LA4  SZ  AML     1656 39.47        20.9 0.22                          5.51 147 
                                                                                
