 2010 10 5 1540 45.1 L  21.494 -99.329 10.0  RAL  1 0.2 0.4LRAL                1
 GAP=360        0.76      21.3    39.8  0.0 -0.8499E+03  0.5903E+01 -0.6551E+01E
 ACTION:UPD 12-06-08 11:37 OP:RALL STATUS:               ID:20101005154045     I
 2010-10-05-1540-38S.PLUR1_003                                                 6
 STAT SP IPHASW D HRMM SECON CODA AMPLIT PERI AZIMU VELO AIN AR TRES W  DIS CAZ7
 LA4  SZ E        1540 47.48                  299.9 18.2      0        2.36 120 
 LA4  SN IP       1540 47.48                             167    0.4710 2.36 120 
 LA4  SE IS       1540 47.91                             167   -0.4710 2.36 120 
 LA4  SZ  AML     1540 48.02        14.1 0.20                          2.36 120 
                                                                                
