 2010 10 6 0428 34.8 L  21.621 -99.320 10.0  RAL  1 0.0 1.5LRAL                1
 GAP=360        0.30       4.4     0.6  0.0 -0.1525E+01  0.5903E+01 -0.6551E+01E
 ACTION:UPD 12-06-08 11:37 OP:RALL STATUS:               ID:20101006042834     I
 2010-10-06-0428-28S.PLUR1_003                                                 6
 STAT SP IPHASW D HRMM SECON CODA AMPLIT PERI AZIMU VELO AIN AR TRES W  DIS CAZ7
 LA4  SZ E         428 37.95                  355.7  8.4      0        15.2 176 
 LA4  SN IP        428 37.98                             121    0.0310 15.2 176 
 LA4  SE IS        428 40.21                             121   -0.0310 15.2 176 
 LA4  SZ  AML      428 40.47       105.6 0.34                          15.2 176 
                                                                                
