 2010 10 7 0007 49.3 L  21.473 -99.310 10.0  RAL  1 0.1 0.5LRAL                1
 GAP=360        0.54     818.0   999.9  0.0 -0.1071E+08  0.5903E+01 -0.6551E+01E
 ACTION:UPD 12-06-08 11:37 OP:RALL STATUS:               ID:20101007000749     I
 2010-10-07-0007-42S.PLUR1_003                                                 6
 STAT SP IPHASW D HRMM SECON CODA AMPLIT PERI AZIMU VELO AIN AR TRES W  DIS CAZ7
 LA4  SN IP        0 7 51.44                             174    0.3110 1.18   4 
 LA4  SZ E         0 7 51.45                  184.0 13.2      0        1.18   4 
 LA4  SE IS        0 7 52.18                             174   -0.3110 1.18   4 
 LA4  SZ  AML      0 7 52.34        17.5 0.20                          1.18   4 
                                                                                
