 2010 10 7 2339 53.0 L  21.481 -99.310 10.0  RAL  1 0.5-0.2LRAL                1
 GAP=360        6.17     999.9   999.9  0.0 -0.3408E+10  0.5903E+01 -0.6551E+01E
 ACTION:UPD 12-06-08 11:37 OP:RALL STATUS:               ID:20101007233953     I
 2010-10-07-2339-46S.PLUR1_003                                                 6
 STAT SP IPHASW D HRMM SECON CODA AMPLIT PERI AZIMU VELO AIN AR TRES W  DIS CAZ7
 LA4  SN IP       2339 55.27                             178    0.3910 0.31  29 
 LA4  SZ E        2339 55.28                  180.0 10.2    -28        0.31  29 
 LA4  SE IS       2339 55.83                             178   -0.3910 0.31  29 
 LA4  SZ  AML     2339 55.86         3.8 0.18                          0.31  29 
                                                                                
