 2010 10 9 0551 34.1 L  21.279 -99.217 10.0  RAL  1 0.0 2.5LRAL                1
 GAP=360        0.30       3.6     1.7  0.0 -0.5732E+01  0.5903E+01 -0.6551E+01E
 ACTION:UPD 12-06-08 11:37 OP:RALL STATUS:               ID:20101009055134     I
 2010-10-09-0551-29S.PLUR1_003                                                 6
 STAT SP IPHASW D HRMM SECON CODA AMPLIT PERI AZIMU VELO AIN AR TRES W  DIS CAZ7
 LA4  SN IP        551 38.54                             108    0.0210 24.6 337 
 LA4  SZ E         551 38.55                  157.2  6.6      0        24.6 337 
 LA4  SE IS        551 41.74                             108   -0.0210 24.6 337 
 LA4  SZ  AML      551 45.73       700.5 0.54                          24.6 337 
                                                                                
