 2010 10 9 0216 23.4 L  21.562 -99.334 10.0  RAL  1 0.0 0.4LRAL                1
 GAP=360        0.30       5.3     1.7  0.0 -0.9117E+01  0.5903E+01 -0.6551E+01E
 ACTION:UPD 12-06-08 11:37 OP:RALL STATUS:               ID:20101009021623     I
 2010-10-09-0216-18S.PLUR1_003                                                 6
 STAT SP IPHASW D HRMM SECON CODA AMPLIT PERI AZIMU VELO AIN AR TRES W  DIS CAZ7
 LA4  SN IP        216 25.83                             138    0.0210 9.01 163 
 LA4  SZ E         216 25.84                  343.2  8.5      0        9.01 163 
 LA4  SE IS        216 27.53                             138   -0.0210 9.01 163 
 LA4  SZ  AML      216 27.63        10.1 0.26                          9.01 163 
                                                                                
