 2010 10 9 1635 49.3 L  21.334 -99.231 10.0  RAL  1 0.0 1.5LRAL                1
 GAP=360        0.30       3.7     2.0  0.0 -0.7044E+01  0.5903E+01 -0.6551E+01E
 ACTION:UPD 12-06-08 11:37 OP:RALL STATUS:               ID:20101009163549     I
 2010-10-09-1635-43S.PLUR1_003                                                 6
 STAT SP IPHASW D HRMM SECON CODA AMPLIT PERI AZIMU VELO AIN AR TRES W  DIS CAZ7
 LA4  SZ E        1635 52.88                  153.9  6.7      0        18.4 334 
 LA4  SN IP       1635 52.89                             116    0.0010 18.4 334 
 LA4  SE IS       1635 55.48                             116    0.0010 18.4 334 
 LA4  SZ  AML     1635 55.74        80.6 0.14                          18.4 334 
                                                                                
