 2010 10 9 1506  6.2 L  21.318 -99.267 10.0  RAL  1 0.0 1.6LRAL                1
 GAP=360        0.30       4.0     1.2  0.0 -0.4069E+01  0.5903E+01 -0.6551E+01E
 ACTION:UPD 12-06-08 11:37 OP:RALL STATUS:               ID:20101009150606     I
 2010-10-09-1506-02S.PLUR1_003                                                 6
 STAT SP IPHASW D HRMM SECON CODA AMPLIT PERI AZIMU VELO AIN AR TRES W  DIS CAZ7
 LA4  SZ E        15 6  9.83                  166.5  7.3      0        18.8 346 
 LA4  SN IP       15 6  9.85                             115    0.0210 18.8 346 
 LA4  SE IS       15 6 12.44                             115   -0.0210 18.8 346 
 LA4  SZ  AML     15 6 12.70        99.1 0.14                          18.8 346 
                                                                                
