 2010 1011 0952 30.4 L  21.321 -99.350 10.0  RAL  1 0.0 0.4LRAL                1
 GAP=360        0.30       4.0     1.1  0.0  0.4048E+01  0.5903E+01 -0.6551E+01E
 ACTION:UPD 12-06-08 11:37 OP:RALL STATUS:               ID:20101011095230     I
 2010-10-11-0952-26S.PLUR1_003                                                 6
 STAT SP IPHASW D HRMM SECON CODA AMPLIT PERI AZIMU VELO AIN AR TRES W  DIS CAZ7
 LA4  SZ E         952 33.99                  193.3 10.7      0        18.5  13 
 LA4  SN IP        952 34.01                             116    0.0210 18.5  13 
 LA4  SE IS        952 36.57                             116   -0.0210 18.5  13 
 LA4  SZ  AML      952 36.59         6.4 0.28                          18.5  13 
                                                                                
