 2010 1011 1019 23.7 L  21.329 -99.280 10.0  RAL  1 0.1 0.3LRAL                1
 GAP=360        0.89     999.9   181.1  0.0 -0.3123E+06  0.5903E+01 -0.6551E+01E
 ACTION:UPD 12-06-08 11:37 OP:RALL STATUS:               ID:20101011101923     I
 2010-10-11-1019-16S.PLUR1_003                                                 6
 STAT SP IPHASW D HRMM SECON CODA AMPLIT PERI AZIMU VELO AIN AR TRES W  DIS CAZ7
 LZ4  SZ E        1019 25.63                  264.9 26.2      4        1.15  81 
 LZ4  SN IP       1019 25.71                             174    0.1710 1.15  81 
 LZ4  SE IS       1019 26.72                             174   -0.1710 1.15  81 
 LZ4  SZ  AML     1019 28.37        11.1 0.26                          1.15  81 
                                                                                
