 2010 1012 0302 48.5 L  21.469 -99.300 10.0  RAL  1 0.2 1.3LRAL                1
 GAP=360        0.82      49.9    29.0  0.0 -0.1446E+04  0.5903E+01 -0.6551E+01E
 ACTION:UPD 12-06-08 11:37 OP:RALL STATUS:               ID:20101012030248     I
 2010-10-12-0302-41S.PLUR1_003                                                 6
 STAT SP IPHASW D HRMM SECON CODA AMPLIT PERI AZIMU VELO AIN AR TRES W  DIS CAZ7
 LA4  SN IP        3 2 50.85                             170    0.5110 1.89 332 
 LA4  SZ E         3 2 50.86                  151.6  7.8      0        1.89 332 
 LA4  SE IS        3 2 51.19                             170   -0.5110 1.89 332 
 LA4  SZ  AML      3 2 51.31       119.6 0.18                          1.89 332 
                                                                                
