 2010 1012 1402 47.4 L  21.499 -99.327 10.0  RAL  1 0.2 0.6LRAL                1
 GAP=360        0.73      25.4    31.1  0.0 -0.7894E+03  0.5903E+01 -0.6551E+01E
 ACTION:UPD 12-06-08 11:37 OP:RALL STATUS:               ID:20101012140247     I
 2010-10-12-1402-40S.PLUR1_003                                                 6
 STAT SP IPHASW D HRMM SECON CODA AMPLIT PERI AZIMU VELO AIN AR TRES W  DIS CAZ7
 LA4  SZ E        14 2 49.58                  311.3  8.7      0        2.53 131 
 LA4  SN IP       14 2 49.74                             166    0.4510 2.53 131 
 LA4  SE IS       14 2 50.22                             166   -0.4510 2.53 131 
 LA4  SZ  AML     14 2 50.30        19.8 0.16                          2.53 131 
                                                                                
