 2010 1012 1406  8.2 L  21.441 -99.279 10.0  RAL  1 0.0 0.5LRAL                1
 GAP=360        0.30       4.7     0.5  0.0 -0.1849E+01  0.5903E+01 -0.6551E+01E
 ACTION:UPD 12-06-08 11:37 OP:RALL STATUS:               ID:20101012140608     I
 2010-10-12-1406-03S.PLUR1_003                                                 6
 STAT SP IPHASW D HRMM SECON CODA AMPLIT PERI AZIMU VELO AIN AR TRES W  DIS CAZ7
 LZ4  SZ E        14 6 10.87                  355.5  9.9      0        12.2 175 
 LZ4  SN IP       14 6 10.89                             128    0.0010 12.2 175 
 LZ4  SE IS       14 6 12.88                             128    0.0010 12.2 175 
 LZ4  SZ  AML     14 6 13.04        10.5 0.16                          12.2 175 
                                                                                
