 2010 1012 2101 16.4 L  21.382 -99.272 10.0  RAL  1 0.0 1.5LRAL                1
 GAP=360        0.30       4.5     1.7  0.0 -0.7384E+01  0.5903E+01 -0.6551E+01E
 ACTION:UPD 12-06-08 11:37 OP:RALL STATUS:               ID:20101012210116     I
 2010-10-12-2101-09S.PLUR1_003                                                 6
 STAT SP IPHASW D HRMM SECON CODA AMPLIT PERI AZIMU VELO AIN AR TRES W  DIS CAZ7
 LA4  SZ E        21 1 19.02                  161.4  7.0      0        11.9 341 
 LA4  SN IP       21 1 19.06                             129    0.0110 11.9 341 
 LA4  SE IS       21 1 21.01                             129   -0.0110 11.9 341 
 LA4  SZ  AML     21 1 22.75       114.4 0.52                          11.9 341 
                                                                                
