 2010 1013 1519 44.5 L  21.600 -99.352 10.0  RAL  1 0.0 0.7LRAL                1
 GAP=360        0.30       4.3     1.6  0.0 -0.6732E+01  0.5903E+01 -0.6551E+01E
 ACTION:UPD 12-06-08 11:37 OP:RALL STATUS:               ID:20101013151944     I
 2010-10-13-1519-38S.PLUR1_003                                                 6
 STAT SP IPHASW D HRMM SECON CODA AMPLIT PERI AZIMU VELO AIN AR TRES W  DIS CAZ7
 LA4  SN IP       1519 47.38                             125    0.0110 13.7 161 
 LA4  SZ E        1519 47.43                  340.8  8.4      0        13.7 161 
 LA4  SE IS       1519 49.50                             125   -0.0110 13.7 161 
 LA4  SZ  AML     1519 51.07        16.0 0.22                          13.7 161 
                                                                                
