 2010 1014 1906 53.7 L  21.629 -99.344 10.0  RAL  1 0.0 0.5LRAL                1
 GAP=360        0.30       4.1     1.1  0.0 -0.4053E+01  0.5903E+01 -0.6551E+01E
 ACTION:UPD 12-06-08 11:37 OP:RALL STATUS:               ID:20101014190653     I
 2010-10-14-1906-49S.PLUR1_003                                                 6
 STAT SP IPHASW D HRMM SECON CODA AMPLIT PERI AZIMU VELO AIN AR TRES W  DIS CAZ7
 LA4  SN IP       19 6 56.99                             119    0.0010 16.5 167 
 LA4  SZ E        19 6 57.00                  347.4  8.2      0        16.5 167 
 LA4  SE IS       19 6 59.39                             119    0.0010 16.5 167 
 LA4  SZ  AML     19 6 59.77         9.2 0.72                          16.5 167 
                                                                                
