 2010 1014 1109  0.3 L  21.501 -99.330 10.0  RAL  1 0.1 0.5LRAL                1
 GAP=360        0.52      15.8    19.5  0.0 -0.3092E+03  0.5903E+01 -0.6551E+01E
 ACTION:UPD 12-06-08 11:37 OP:RALL STATUS:               ID:20101014110900     I
 2010-10-14-1108-54S.PLUR1_003                                                 6
 STAT SP IPHASW D HRMM SECON CODA AMPLIT PERI AZIMU VELO AIN AR TRES W  DIS CAZ7
 LA4  SZ E        11 9  2.48                  311.1 12.5      0        2.92 131 
 LA4  SN IP       11 9  2.49                             164    0.2910 2.92 131 
 LA4  SE IS       11 9  3.30                             164   -0.2910 2.92 131 
 LA4  SZ  AML     11 9  3.51        16.4 0.26                          2.92 131 
                                                                                
