 2010 1015 0602 29.5 L  21.469 -99.408 10.0  RAL  1 0.0 0.8LRAL                1
 GAP=360        0.30       0.9     5.4  0.0  0.4388E+01  0.5903E+01 -0.6551E+01E
 ACTION:UPD 12-06-08 11:37 OP:RALL STATUS:               ID:20101015060229     I
 2010-10-15-0602-22S.PLUR1_003                                                 6
 STAT SP IPHASW D HRMM SECON CODA AMPLIT PERI AZIMU VELO AIN AR TRES W  DIS CAZ7
 LA4  SZ E         6 2 31.99                  260.9 13.9      0        10.3  81 
 LA4  SN IP        6 2 32.07                             134    0.0010 10.3  81 
 LA4  SZ  AML      6 2 33.83        26.9 0.24                          10.3  81 
 LA4  SE IS        6 2 33.90                             134    0.0010 10.3  81 
                                                                                
