 2010 1015 0838 43.1 L  21.584 -99.326 10.0  RAL  1 0.0 0.4LRAL                1
 GAP=360        0.30       4.8     0.9  0.0 -0.3924E+01  0.5903E+01 -0.6551E+01E
 ACTION:UPD 12-06-08 11:37 OP:RALL STATUS:               ID:20101015083843     I
 2010-10-15-0838-38S.PLUR1_003                                                 6
 STAT SP IPHASW D HRMM SECON CODA AMPLIT PERI AZIMU VELO AIN AR TRES W  DIS CAZ7
 LA4  SZ E         838 45.59                  351.1  7.1      0        11.3 171 
 LA4  SN IP        838 45.69                             131    0.0010 11.3 171 
 LA4  SE IS        838 47.60                             131    0.0010 11.3 171 
 LA4  SZ  AML      838 48.07         9.3 0.28                          11.3 171 
                                                                                
