 2010 1015 1806 16.5 L  21.311 -99.241 10.0  RAL  1 0.0 0.8LRAL                1
 GAP=360        0.30       3.8     1.6  0.0 -0.5511E+01  0.5903E+01 -0.6551E+01E
 ACTION:UPD 12-06-08 11:37 OP:RALL STATUS:               ID:20101015180616     I
 2010-10-15-1806-11S.PLUR1_003                                                 6
 STAT SP IPHASW D HRMM SECON CODA AMPLIT PERI AZIMU VELO AIN AR TRES W  DIS CAZ7
 LA4  SZ E        18 6 20.29                  159.8  6.5      0        20.3 340 
 LA4  SN IP       18 6 20.30                             113    0.0010 20.3 340 
 LA4  SE IS       18 6 23.09                             113    0.0010 20.3 340 
 LA4  SZ  AML     18 6 23.44        15.6 0.34                          20.3 340 
                                                                                
