 2010 1016 2012  0.2 L  21.398 -99.296 10.0  RAL  1 0.0 0.5LRAL                1
 GAP=360        0.30       5.3     0.8  0.0 -0.4181E+01  0.5903E+01 -0.6551E+01E
 ACTION:UPD 12-06-08 11:37 OP:RALL STATUS:               ID:20101016201200     I
 2010-10-16-2011-54S.PLUR1_003                                                 6
 STAT SP IPHASW D HRMM SECON CODA AMPLIT PERI AZIMU VELO AIN AR TRES W  DIS CAZ7
 LA4  SN IP       2012  2.67                             136    0.0010 9.61 352 
 LA4  SZ E        2012  2.70                  172.0  8.1      0        9.61 352 
 LA4  SE IS       2012  4.44                             136    0.0010 9.61 352 
 LA4  SZ  AML     2012  4.57        12.2 0.20                          9.61 352 
                                                                                
