 2010 1017 1228 23.6 L  21.419 -99.272 10.0  RAL  1 0.0 0.6LRAL                1
 GAP=360        0.30       5.3     3.0  0.0 -0.1578E+02  0.5903E+01 -0.6551E+01E
 ACTION:UPD 12-06-08 11:37 OP:RALL STATUS:               ID:20101017122823     I
 2010-10-17-1228-18S.PLUR1_003                                                 6
 STAT SP IPHASW D HRMM SECON CODA AMPLIT PERI AZIMU VELO AIN AR TRES W  DIS CAZ7
 LA4  SN IP       1228 25.92                             141    0.0210 8.06 332 
 LA4  SZ E        1228 25.95                  151.9  7.0      0        8.06 332 
 LA4  SE IS       1228 27.54                             141   -0.0210 8.06 332 
 LA4  SZ  AML     1228 27.65        17.9 0.70                          8.06 332 
                                                                                
