 2010 1018 1346 59.8 L  21.574 -99.338 10.0  RAL  1 0.0 0.6LRAL                1
 GAP=360        0.30       4.9     1.6  0.0 -0.7650E+01  0.5903E+01 -0.6551E+01E
 ACTION:UPD 12-06-08 11:37 OP:RALL STATUS:               ID:20101018134659     I
 2010-10-18-1346-54S.PLUR1_003                                                 6
 STAT SP IPHASW D HRMM SECON CODA AMPLIT PERI AZIMU VELO AIN AR TRES W  DIS CAZ7
 LA4  SZ E        1347  2.31                  343.2  9.4      0        10.5 163 
 LA4  SN IP       1347  2.33                             133    0.0110 10.5 163 
 LA4  SE IS       1347  4.16                             133   -0.0110 10.5 163 
 LA4  SZ  AML     1347  4.29        14.8 0.28                          10.5 163 
                                                                                
