 2010 1018 1038 24.8 L  21.501 -99.325 10.0  RAL  1 0.1 1.3LRAL                1
 GAP=360        0.60      23.9    22.6  0.0 -0.5411E+03  0.5903E+01 -0.6551E+01E
 ACTION:UPD 12-06-08 11:37 OP:RALL STATUS:               ID:20101018103824     I
 2010-10-18-1038-17S.PLUR1_003                                                 6
 STAT SP IPHASW D HRMM SECON CODA AMPLIT PERI AZIMU VELO AIN AR TRES W  DIS CAZ7
 LA4  SZ E        1038 27.02                  318.7  9.0      0        2.52 139 
 LA4  SN IP       1038 27.03                             166    0.3610 2.52 139 
 LA4  SE IS       1038 27.70                             166   -0.3610 2.52 139 
 LA4  SZ  AML     1038 27.86       115.8 0.22                          2.52 139 
                                                                                
