 2010 1019 0314 37.0 L  21.540 -99.321 10.0  RAL  1 0.0 1.5LRAL                1
 GAP=360        0.30       6.9     1.5  0.0 -0.9937E+01  0.5903E+01 -0.6551E+01E
 ACTION:UPD 12-06-08 11:37 OP:RALL STATUS:               ID:20101019031437     I
 2010-10-19-0314-29S.PLUR1_003                                                 6
 STAT SP IPHASW D HRMM SECON CODA AMPLIT PERI AZIMU VELO AIN AR TRES W  DIS CAZ7
 LA4  SZ E         314 39.11                  349.0  9.0      0        6.36 169 
 LA4  SN IP        314 39.12                             148    0.0210 6.36 169 
 LA4  SE IS        314 40.63                             148   -0.0210 6.36 169 
 LA4  SZ  AML      314 41.15       142.1 0.22                          6.36 169 
                                                                                
