 2010 1019 1229 33.2 L  21.520 -99.383 10.0  RAL  1 0.0 0.5LRAL                1
 GAP=360        0.30       2.7     5.4  0.0 -0.1429E+02  0.5903E+01 -0.6551E+01E
 ACTION:UPD 12-06-08 11:37 OP:RALL STATUS:               ID:20101019122933     I
 2010-10-19-1229-27S.PLUR1_003                                                 6
 STAT SP IPHASW D HRMM SECON CODA AMPLIT PERI AZIMU VELO AIN AR TRES W  DIS CAZ7
 LA4  SZ E        1229 35.57                  297.7 16.7      0        8.63 118 
 LA4  SN IP       1229 35.59                             139    0.0210 8.63 118 
 LA4  SE IS       1229 37.26                             139   -0.0210 8.63 118 
 LA4  SZ  AML     1229 37.58        12.7 0.18                          8.63 118 
                                                                                
