 2010 1021 1340 19.3 L  21.494 -99.332 10.0  RAL  1 0.1 0.4LRAL                1
 GAP=360        0.41       8.8    20.4  0.0 -0.1807E+03  0.5903E+01 -0.6551E+01E
 ACTION:UPD 12-06-08 11:37 OP:RALL STATUS:               ID:20101021134019     I
 2010-10-21-1340-12S.PLUR1_003                                                 6
 STAT SP IPHASW D HRMM SECON CODA AMPLIT PERI AZIMU VELO AIN AR TRES W  DIS CAZ7
 LA4  SN IP       1340 21.37                             166    0.1910 2.61 115 
 LA4  SZ E        1340 21.43                  294.9 17.0      0        2.61 115 
 LA4  SE IS       1340 22.37                             166   -0.1910 2.61 115 
 LA4  SZ  AML     1340 22.46        12.9 0.26                          2.61 115 
                                                                                
