 2010 1021 1930 53.3 L  21.265 -99.190 10.0  RAL  1 0.0 1.6LRAL                1
 GAP=360        0.30       3.5     2.0  0.0 -0.6294E+01  0.5903E+01 -0.6551E+01E
 ACTION:UPD 12-06-08 11:37 OP:RALL STATUS:               ID:20101021193053     I
 2010-10-21-1930-48S.PLUR1_003                                                 6
 STAT SP IPHASW D HRMM SECON CODA AMPLIT PERI AZIMU VELO AIN AR TRES W  DIS CAZ7
 LA4  SZ E        1930 58.09                  153.0  6.3      0        27.2 333 
 LA4  SN IP       1930 58.12                             106    0.0210 27.2 333 
 LA4  SE IS       1931  1.60                             106   -0.0210 27.2 333 
 LA4  SZ  AML     1931  2.15        85.9 0.26                          27.2 333 
                                                                                
