 2010 1022 0356  0.7 L  21.486 -99.320 10.0  RAL  1 0.2 0.9LRAL                1
 GAP=360        0.95      26.8   109.4  0.0 -0.2935E+04  0.5903E+01 -0.6551E+01E
 ACTION:UPD 12-06-08 11:37 OP:RALL STATUS:               ID:20101022035600     I
 2010-10-22-0355-54S.PLUR1_003                                                 6
 STAT SP IPHASW D HRMM SECON CODA AMPLIT PERI AZIMU VELO AIN AR TRES W  DIS CAZ7
 LA4  SN IP        356  3.03                             174    0.4710 1.18 105 
 LA4  SZ E         356  3.03                  282.0 16.3     -2        1.18 105 
 LA4  SE IS        356  3.44                             174   -0.4710 1.18 105 
 LA4  SZ  AML      356  3.54        43.5 0.16                          1.18 105 
                                                                                
