 2010 1023 0301 18.6 L  21.505 -99.312 10.0  RAL  1 0.0 1.1LRAL                1
 GAP=360        0.30      16.8     2.2  0.0 -0.3684E+02  0.5903E+01 -0.6551E+01E
 ACTION:UPD 12-06-08 11:37 OP:RALL STATUS:               ID:20101023030118     I
 2010-10-23-0301-12S.PLUR1_003                                                 6
 STAT SP IPHASW D HRMM SECON CODA AMPLIT PERI AZIMU VELO AIN AR TRES W  DIS CAZ7
 LA4  SN IP        3 1 20.50                             167    0.0310 2.34 173 
 LA4  SZ E         3 1 20.51                  353.1 12.0      0        2.34 173 
 LA4  SE IS        3 1 21.82                             167   -0.0310 2.34 173 
 LA4  SZ  AML      3 1 21.90        72.0 0.10                          2.34 173 
                                                                                
