 2010 1024 0905  7.8 L  21.274 -99.260 10.0  RAL  1 0.0 0.8LRAL                1
 GAP=360        0.30       3.8     1.1  0.0 -0.3359E+01  0.5903E+01 -0.6551E+01E
 ACTION:UPD 12-06-08 11:37 OP:RALL STATUS:               ID:20101024090507     I
 2010-10-24-0905-02S.PLUR1_003                                                 6
 STAT SP IPHASW D HRMM SECON CODA AMPLIT PERI AZIMU VELO AIN AR TRES W  DIS CAZ7
 LA4  SZ E         9 5 12.06                  167.7  7.4      0        23.7 348 
 LA4  SN IP        9 5 12.09                             109    0.0210 23.7 348 
 LA4  SE IS        9 5 15.21                             109   -0.0210 23.7 348 
 LA4  SZ  AML      9 5 15.59        15.4 0.24                          23.7 348 
                                                                                
