 2010 1025 2130 31.1 L  21.616 -99.368 10.0  RAL  1 0.0 1.1LRAL                1
 GAP=360        0.30       4.0     1.8  0.0 -0.6902E+01  0.5903E+01 -0.6551E+01E
 ACTION:UPD 12-06-08 11:37 OP:RALL STATUS:               ID:20101025213031     I
 2010-10-25-2130-25S.PLUR1_003                                                 6
 STAT SP IPHASW D HRMM SECON CODA AMPLIT PERI AZIMU VELO AIN AR TRES W  DIS CAZ7
 LA4  SZ E        2130 34.27                  337.5  8.9      0        15.9 157 
 LA4  SN IP       2130 34.31                             120    0.0010 15.9 157 
 LA4  SE IS       2130 36.64                             120    0.0010 15.9 157 
 LA4  SZ  AML     2130 36.70        43.3 0.28                          15.9 157 
                                                                                
