 2010 1027 1505 38.6 L  21.733 -99.382 10.0  RAL  1 0.0 2.5LRAL                1
 GAP=360        0.30       3.7     1.3  0.0 -0.3890E+01  0.5903E+01 -0.6551E+01E
 ACTION:UPD 12-06-08 11:37 OP:RALL STATUS:               ID:20101027150538     I
 2010-10-27-1505-34S.PLUR1_003                                                 6
 STAT SP IPHASW D HRMM SECON CODA AMPLIT PERI AZIMU VELO AIN AR TRES W  DIS CAZ7
 LA4  SZ E        15 5 43.66                  344.7 10.2      0        28.7 165 
 LA4  SN IP       15 5 43.67                             105    0.0110 28.7 165 
 LA4  SE IS       15 5 47.33                             105   -0.0110 28.7 165 
 LA4  SZ  AML     15 5 49.22       566.3 0.28                          28.7 165 
                                                                                
