 2010 1028 1121 29.7 L  21.579 -99.364 10.0  RAL  1 0.0 0.9LRAL                1
 GAP=360        0.30       4.2     2.5  0.0 -0.1021E+02  0.5903E+01 -0.6551E+01E
 ACTION:UPD 12-06-08 11:37 OP:RALL STATUS:               ID:20101028112129     I
 2010-10-28-1121-23S.PLUR1_003                                                 6
 STAT SP IPHASW D HRMM SECON CODA AMPLIT PERI AZIMU VELO AIN AR TRES W  DIS CAZ7
 LA4  SZ E        1121 32.41                  331.7 13.1      0        11.9 152 
 LA4  SN IP       1121 32.43                             129    0.0210 11.9 152 
 LA4  SE IS       1121 34.37                             129   -0.0210 11.9 152 
 LA4  SZ  AML     1121 34.97        32.1 0.10                          11.9 152 
                                                                                
