 2010 1029 0026 55.7 L  21.494 -99.326 10.0  RAL  1 0.2 0.4LRAL                1
 GAP=360        0.69      23.2    38.7  0.0 -0.8975E+03  0.5903E+01 -0.6551E+01E
 ACTION:UPD 12-06-08 11:37 OP:RALL STATUS:               ID:20101029002655     I
 2010-10-29-0026-48S.PLUR1_003                                                 6
 STAT SP IPHASW D HRMM SECON CODA AMPLIT PERI AZIMU VELO AIN AR TRES W  DIS CAZ7
 LA4  SZ E         026 57.97                  302.7  8.9      0        2.13 123 
 LA4  SN IP        026 57.99                             168    0.4210 2.13 123 
 LA4  SE IS        026 58.52                             168   -0.4210 2.13 123 
 LA4  SZ  AML      026 59.02        13.2 0.26                          2.13 123 
                                                                                
