 2010 1029 1830 37.8 L  21.322 -99.237 10.0  RAL  1 0.0 1.1LRAL                1
 GAP=360        0.30       3.8     1.8  0.0 -0.6190E+01  0.5903E+01 -0.6551E+01E
 ACTION:UPD 12-06-08 11:37 OP:RALL STATUS:               ID:20101029183037     I
 2010-10-29-1830-34S.PLUR1_003                                                 6
 STAT SP IPHASW D HRMM SECON CODA AMPLIT PERI AZIMU VELO AIN AR TRES W  DIS CAZ7
 LA4  SN IP       1830 41.52                             114    0.0010 19.4 337 
 LA4  SZ E        1830 41.57                  157.3  7.6      0        19.4 337 
 LA4  SE IS       1830 44.21                             114    0.0010 19.4 337 
 LA4  SZ  AML     1830 44.44        32.0 0.38                          19.4 337 
                                                                                
