 2010 1029 1351 44.7 L  21.472 -99.305 10.0  RAL  1 0.1 0.4LRAL                1
 GAP=360        0.68     335.0   999.9  0.0  0.4313E+06  0.5903E+01 -0.6551E+01E
 ACTION:UPD 12-06-08 11:37 OP:RALL STATUS:               ID:20101029135144     I
 2010-10-29-1351-38S.PLUR1_003                                                 6
 STAT SP IPHASW D HRMM SECON CODA AMPLIT PERI AZIMU VELO AIN AR TRES W  DIS CAZ7
 LA4  SZ E        1351 46.80                  163.8  9.3      2        1.34 341 
 LA4  SN IP       1351 46.81                             173    0.2310 1.34 341 
 LA4  SE IS       1351 47.71                             173   -0.2310 1.34 341 
 LA4  SZ  AML     1351 47.82        14.0 0.28                          1.34 341 
                                                                                
