 2010 1030 0742 28.9 L  21.481 -99.320 10.0  RAL  1 0.1 0.7LRAL                1
 GAP=360        0.82     999.9   999.9  0.0 -0.6756E+07  0.5903E+01 -0.6551E+01E
 ACTION:UPD 12-06-08 11:37 OP:RALL STATUS:               ID:20101030074228     I
 2010-10-30-0742-21S.PLUR1_003                                                 6
 STAT SP IPHASW D HRMM SECON CODA AMPLIT PERI AZIMU VELO AIN AR TRES W  DIS CAZ7
 LA4  SN IP        742 31.01                             173    0.2910 1.21  75 
 LA4  SZ E         742 31.03                  258.4 30.0      3        1.21  75 
 LA4  SE IS        742 31.79                             173   -0.2910 1.21  75 
 LA4  SZ  AML      742 31.89        25.3 0.18                          1.21  75 
                                                                                
