 2007 1110 2054 28.1 L  21.464 -99.462 10.0  RAL  3 0.7 1.7LRAL                1
 GAP=319        7.47      40.5    23.1 54.7 -0.5958E+03 -0.7079E+03  0.1643E+04E
 2007-11-10-2054-22S.PLUR1_009                                                 6
 ACTION:UPD 12-06-08 11:37 OP:RALL STATUS:               ID:20071110205428     I
 STAT SP IPHASW D HRMM SECON CODA AMPLIT PERI AZIMU VELO AIN AR TRES W  DIS CAZ7
 LD3  SN IP     D 2054 32.33                             178    2.3610 0.99 119 
 LD3  SZ E        2054 32.36                  289.2 31.3     -9        0.99 119 
 LD3  SE IS     D 2054 33.00                             178    1.6710 0.99 119 
 LD3  SZ  AML     2054 33.20       443.1 0.14                          0.99 119 
 LD5  SZ E        2054 33.66                    3.9 12.1     30        34.0 154 
 LD5  SN IP     D 2054 33.68                             103   -0.2810 34.0 154 
 LD5  SE IS       2054 35.55                             103   -2.6810 34.0 154 
 LD5  SZ  AML     2054 36.50        80.0 0.42                          34.0 154 
 LD2  SN IP     C 2054 34.42                             103    0.3110 34.9 161 
 LD2  SE IS     D 2054 37.11                             103   -1.3810 34.9 161 
 LD2  SZ E        2054 34.36                    1.7  9.9     21        34.9 161 
 LD2  SZ  AML     2054 37.69        65.5 0.20                          34.9 161 
 LD2  SZ IP     C 2054 34.36                                                    
 LD2  SR  AMS     2054 38.46      1668.1 0.17                                   
 LD2  ST  AMSG    2054 37.77      1248.7 0.10                                   
 LD2  ST IS     C 2054 37.08                                                    
                                                                                
