 2007 1111 0404 38.9 L  21.189 -99.309 20.8  RAL  3 0.7 0.8LRAL                1
 GAP=266        9.40       9.8    17.9 55.9  0.1680E+03 -0.7468E+02 -0.4657E+02E
 ACTION:UPD 12-06-08 11:37 OP:RALL STATUS:               ID:20071111040438     I
 2007-11-11-0404-33S.PLUR1_009                                                 6
 STAT SP IPHASW D HRMM SECON CODA AMPLIT PERI AZIMU VELO AIN AR TRES W  DIS CAZ7
 LD5  SZ E         4 4 43.66                   97.9 10.7     21        1.14 257 
 LD5  SN IP     D  4 4 43.69                             179    1.2910 1.14 257 
 LD5  SE IS     D  4 4 44.22                             179   -0.7310 1.14 257 
 LD5  SZ  AML      4 4 44.28        23.1 0.14                          1.14 257 
 LD2  SZ E         4 4 44.22                   22.5 17.5    -36        4.96 239 
 LD2  SN IP     C  4 4 44.30                             168    1.7910 4.96 239 
 LD2  SE IS     C  4 4 45.37                             168    0.2310 4.96 239 
 LD2  SZ  AML      4 4 45.58        36.0 0.18                          4.96 239 
 LD3  SN IP        4 4 45.32                             116    0.0110 33.5 333 
 LD3  SZ E         4 4 45.32                  182.9 18.5     30        33.5 333 
 LD3  SE IS     C  4 4 47.38                             116   -2.6010 33.5 333 
 LD3  SZ  AML      4 4 47.47         4.3 0.18                          33.5 333 
                                                                                
