 2007 1114 1122 27.7 L  21.469 -99.460100.0  RAL  3 0.7 2.0LRAL                1
 GAP=350        4.02      49.5    23.0 40.6 -0.1025E+04  0.1905E+03 -0.4422E+03E
 ACTION:UPD 12-06-08 11:37 OP:RALL STATUS:               ID:20071114112227     I
 2007-11-14-1122-32S.PLUR1_009                                                 6
 STAT SP IPHASW D HRMM SECON CODA AMPLIT PERI AZIMU VELO AIN AR TRES W  DIS CAZ7
 LD3  SN IP     D 1122 41.85                             179    0.8010 1.20 151 
 LD3  SZ E        1122 41.88                  328.6 12.5     -1        1.20 151 
 LD3  SE IS       1122 48.03                             179   -2.7310 1.20 151 
 LD3  SZ  AML     1122 52.71        58.0 0.52                          1.20 151 
 LD5  SN IP       1122 43.39                             159    1.6310 34.4 155 
 LD5  SZ E        1122 43.41                  341.1  8.5      6        34.4 155 
 LD5  SE IS       1122 50.64                             159   -1.3610 34.4 155 
 LD5  SZ  AML     1122 51.77        52.8 0.42                          34.4 155 
 LD2  SN IP     C 1122 43.90                             159    2.0810 35.4 161 
 LD2  SZ E        1122 44.01                  349.6 15.2      8        35.4 161 
 LD2  SE IS       1122 51.68                             159   -0.4210 35.4 161 
 LD2  SZ  AML     1122 54.34        48.6 0.28                          35.4 161 
                                                                                
