 2007 1117 1738 30.9 L  21.467 -99.495 10.0  RAL  1 0.0-0.2LRAL                1
 GAP=360        0.30       2.0    10.2  0.0 -0.2026E+02  0.7759E+05  0.5740E+04E
 ACTION:UPD 12-06-08 11:37 OP:RALL STATUS:               ID:20071117173830     I
 2007-11-17-1738-24S.PLUR1_006                                                 6
 STAT SP IPHASW D HRMM SECON CODA AMPLIT PERI AZIMU VELO AIN AR TRES W  DIS CAZ7
 LD3  SZ E        1738 32.86                  281.8 16.9      0        4.31 102 
 LD3  SN IP       1738 32.92                             157    0.0310 4.31 102 
 LD3  SE IS       1738 34.32                             157   -0.0310 4.31 102 
 LD3  SZ  AML     1738 34.39         3.0 0.40                          4.31 102 
                                                                                
