 2007 1117 1549 51.3 L  21.409 -99.760 10.0  RAL  3 1.5 1.2LRAL                1
 GAP=318       23.33      52.0   138.7999.9 -0.1212E+04  0.7759E+05  0.5740E+04E
 ACTION:UP  12-06-08 11:37 OP:RALL STATUS:               ID:20071117154951     I
 2007-11-17-1549-49S.PLUR1_009                                                 6
 STAT SP IPHASW D HRMM SECON CODA AMPLIT PERI AZIMU VELO AIN AR TRES W  DIS CAZ7
 LD3  SZ E        1549 58.92                  317.6 15.0     58        32.2  80 
 LD3  SN IP       1549 59.08                              99    2.1910 32.2  80 
 LD3  SZ  AML     1550  0.76        48.7 0.20                          32.2  80 
 LD3  SE IS       1550  0.76                              99   -0.2210 32.2  80 
 LD2  SZ IP       1550  0.82                              95    1.1610 50.3 122 
 LD2  SZ E        1550  0.82                  205.4 10.5    -96        50.3 122 
 LD2  SN IP       1550  1.17                              95    1.5110 50.3 122 
 LD2  SE IS       1550  4.02                              95   -1.7410 50.3 122 
 LD2  SZ  AML     1550  5.81        14.9 0.28                          50.3 122 
 LD5  SZ E        1550  0.23                   19.7  9.8     81        51.9 118 
 LD5  SN IP       1550  0.30                              95    0.4110 51.9 118 
 LD5  SE IS       1550  2.86                              95   -3.3010 51.9 118 
 LD5  SZ  AML     1550  3.80        11.1 0.48                          51.9 118 
                                                                                
