 2007 1117 2114 16.4 L  21.380 -99.711 10.0  RAL  3 1.3 1.1LRAL                1
 GAP=309       23.54      45.3   106.6638.0  0.2431E+03  0.2389E+05  0.7262E+04E
 ACTION:UPD 12-06-08 11:37 OP:RALL STATUS:               ID:20071117211416     I
 2007-11-17-2114-13S.PLUR1_009                                                 6
 STAT SP IPHASW D HRMM SECON CODA AMPLIT PERI AZIMU VELO AIN AR TRES W  DIS CAZ7
 LD3  SZ E        2114 23.05                  320.8 15.7     69        28.0  72 
 LD3  SN IP       2114 23.05                             106    1.7110 28.0  72 
 LD3  SE IS       2114 24.74                             106   -0.2210 28.0  72 
 LD3  SZ  AML     2114 24.89        35.8 0.20                          28.0  72 
 LD2  SN IP       2114 24.94                              99    1.1310 44.3 122 
 LD2  SZ E        2114 24.95                  203.6  6.4    -98        44.3 122 
 LD2  SE IS       2114 28.60                              99   -0.6410 44.3 122 
 LD2  SZ  AML     2114 29.00        17.1 0.28                          44.3 122 
 LD5  SZ E        2114 24.27                  359.0 13.1     61        45.9 118 
 LD5  SN IP       2114 24.29                              98    0.2510 45.9 118 
 LD5  SE IS       2114 27.40                              98   -2.2310 45.9 118 
 LD5  SZ  AML     2114 27.70        10.7 0.44                          45.9 118 
                                                                                
