 2007 1118 0454 37.4 L  21.462 -99.465 45.7  RAL  3 0.5 1.1LRAL                1
 GAP=306        4.29       4.2     9.2 41.5  0.2999E+02  0.2908E+00  0.1267E+01E
 ACTION:UPD 12-06-08 11:37 OP:RALL STATUS:               ID:20071118045437     I
 2007-11-18-0454-36S.PLUR1_009                                                 6
 STAT SP IPHASW D HRMM SECON CODA AMPLIT PERI AZIMU VELO AIN AR TRES W  DIS CAZ7
 LD3  SZ E         454 45.78                  301.5 13.9     15        1.24 106 
 LD3  SN IP        454 45.99                             178    1.8010 1.24 106 
 LD3  SE IS        454 50.26                             178    1.1210 1.24 106 
 LD3  SZ  AML      454 50.75        10.7 0.22                          1.24 106 
 LD5  SN IP        454 45.76                             139    0.0310 34.1 154 
 LD5  SZ E         454 45.81                  323.2  9.1    -10        34.1 154 
 LD5  SE IS        454 50.62                             139   -1.1910 34.1 154 
 LD5  SZ  AML      454 51.79        10.2 0.76                          34.1 154 
 LD2  SZ E         454 45.66                  346.8  5.8      7        34.9 160 
 LD2  SN IP        454 45.75                             138   -0.0710 34.9 160 
 LD2  SE IS        454 50.28                             138   -1.6910 34.9 160 
 LD2  SZ  AML      454 52.39        22.1 0.26                          34.9 160 
                                                                                
