 2007 1118 1102 52.7 L  21.234 -98.700 10.0  RAL  1 0.0                        1
 GAP=360        0.30       1.8     4.0  0.0  0.1247E+01  0.2908E+00  0.1267E+01E
 ACTION:UP  12-06-08 11:37 OP:RALL STATUS:               ID:20071118110252     I
 2007-11-18-1103-00S.PLUR1_009                                                 6
 STAT SP IPHASW D HRMM SECON CODA AMPLIT PERI AZIMU VELO AIN AR TRES W  DIS CAZ7
 LD2  SN IP       11 3  3.77                              95    0.0110 68.0 264 
 LD2  SZ E        11 3  4.43                   83.5 20.1      0        68.0 264 
 LD2  SE IS     C 11 3 11.85                              95   -0.0110 68.0 264 
                                                                                
