 2007 1119 1552 28.2 L  21.462 -99.462 27.3  RAL  2 0.6 0.5LRAL                1
 GAP=318        4.84       7.5    19.2 41.2 -0.1431E+03 -0.1910E+03  0.7455E+02E
 ACTION:UPD 12-06-08 11:37 OP:RALL STATUS:               ID:20071119155228     I
 2007-11-19-1552-24S.PLUR1_006                                                 6
 STAT SP IPHASW D HRMM SECON CODA AMPLIT PERI AZIMU VELO AIN AR TRES W  DIS CAZ7
 LD3  SZ E        1552 34.41                  289.4 15.9     -2        0.90 113 
 LD3  SN IP       1552 34.42                             178    1.7910 0.90 113 
 LD3  SE IS       1552 36.18                             178    0.2910 0.90 113 
 LD3  SZ  AML     1552 36.65        10.2 0.18                          0.90 113 
 LD5  SZ E        1552 35.28                  352.6 11.4     18        33.9 154 
 LD5  SN IP       1552 35.30                             125    0.2210 33.9 154 
 LD5  SE IS       1552 37.83                             125   -2.3010 33.9 154 
 LD5  SZ  AML     1552 38.69         2.6 0.38                          33.9 154 
                                                                                
