 2007 1123 1814  2.0 L  21.462 -99.458 23.6  RAL  2 0.8 1.1LRAL                1
 GAP=331       10.38      65.1    43.5 99.0 -0.1648E+04 -0.1869E+04  0.3781E+04E
 ACTION:UPD 12-06-08 11:37 OP:RALL STATUS:               ID:20071123181402     I
 2007-11-23-1813-57S.PLUR1_006                                                 6
 STAT SP IPHASW D HRMM SECON CODA AMPLIT PERI AZIMU VELO AIN AR TRES W  DIS CAZ7
 LD3  SN IP       1814  7.64                             179    1.7210 0.53 126 
 LD3  SZ E        1814  7.67                  301.8 22.8     -4        0.53 126 
 LD3  SE IS       1814  8.68                             179   -0.1110 0.53 126 
 LD3  SZ  AML     1814  8.84        79.9 0.20                          0.53 126 
 LD5  SZ E        1814  9.02                   23.7  7.1     49        33.7 155 
 LD5  SN IP       1814  9.03                             120    0.4310 33.7 155 
 LD5  SN IS       1814 11.38                             120   -2.0410 33.7 155 
 LD5  SE IS       1814 11.40                                           33.7 155 
 LD5  SZ  AML     1814 12.37         9.0 0.24                          33.7 155 
                                                                                
