 2007 1123 2014 50.3 L  21.307 -99.441 43.3  RAL  2 0.1 0.7LRAL                1
 GAP=219        0.56       3.1     3.2  7.0 -0.9152E+01  0.3789E+00 -0.1811E+00E
 ACTION:UPD 12-06-08 11:37 OP:RALL STATUS:               ID:20071123201450     I
 2007-11-23-2014-52S.PLUR1_006                                                 6
 STAT SP IPHASW D HRMM SECON CODA AMPLIT PERI AZIMU VELO AIN AR TRES W  DIS CAZ7
 LD3  SN IP       2014 57.49                             155    0.2610 17.0 355 
 LD3  SZ E        2014 57.51                                           17.0 355 
 LD3  SE IS       2015  2.14                             155   -0.1510 17.0 355 
 LD3  SZ  AML     2015  2.83        10.9 0.24                          17.0 355 
 LD5  SN IP       2014 57.01                             153   -0.2610 18.3 137 
 LD5  SZ E        2014 57.37                  316.7 10.7      0        18.3 137 
 LD5  SE IS       2015  2.52                             153    0.1510 18.3 137 
 LD5  SZ  AML     2015  4.03         4.4 0.28                          18.3 137 
                                                                                
