 2007 1125 0626  8.4 L  21.466 -99.459 66.9  RAL  2 0.3 1.6LRAL                1
 GAP=350        3.95       5.2    11.9 45.8  0.4572E+02  0.3832E+00  0.1144E+00E
 ACTION:UPD 12-06-08 11:37 OP:RALL STATUS:               ID:20071125062608     I
 2007-11-25-0626-10S.PLUR1_006                                                 6
 STAT SP IPHASW D HRMM SECON CODA AMPLIT PERI AZIMU VELO AIN AR TRES W  DIS CAZ7
 LD3  SZ E         626 18.06                  312.7 11.6    -12        0.92 145 
 LD3  SN IP        626 18.08                             179    0.3610 0.92 145 
 LD3  SE IS        626 24.72                             179    0.1610 0.92 145 
 LD3  SZ  AML      626 27.21        45.2 0.52                          0.92 145 
 LD5  SZ E         626 18.83                  349.1 10.8     14        34.1 155 
 LD5  SN IP        626 18.90                             150    0.1110 34.1 155 
 LD5  SE IS        626 25.77                             150   -0.6310 34.1 155 
 LD5  SZ  AML      626 28.21        20.4 0.50                          34.1 155 
                                                                                
