 2007 1125 0841 56.6 L  21.331 -99.358  0.0  RAL  2 1.1 0.0LRAL                1
 GAP=201       19.55      36.0    26.2999.9 -0.4100E+03 -0.5922E+04  0.9636E+04E
 ACTION:UP  12-06-08 11:37 OP:RALL STATUS:               ID:20071125084156     I
 2007-11-25-0841-50S.PLUR1_006                                                 6
 STAT SP IPHASW D HRMM SECON CODA AMPLIT PERI AZIMU VELO AIN AR TRES W  DIS CAZ7
 LD5  SZ E         842  0.33                   63.3 10.0     77        16.4 166 
 LD5  SN IP        842  0.38                              94    0.8910 16.4 166 
 LD5  SE IS        842  1.79                              94    0.2010 16.4 166 
 LD5  SZ  AML      842  1.84         1.6 0.18                          16.4 166 
 LD3  SZ E         841 59.80                  201.2 13.4     56        17.4 325 
 LD3  SN IP        841 59.81                              94    0.1610 17.4 325 
 LD3  SE IS        842  0.61                              94   -1.2610 17.4 325 
 LD3  SZ  AML      842  0.73         6.1 0.14                          17.4 325 
                                                                                
