 2007 1125 1821 52.8 L  21.512 -99.503 65.2  RAL  2 0.1 1.4LRAL                1
 GAP=347        0.94       6.0     5.9 10.9 -0.3498E+02  0.2445E+00 -0.2457E+00E
 ACTION:UPD 12-06-08 11:37 OP:RALL STATUS:               ID:20071125182152     I
 2007-11-25-1821-56S.PLUR1_006                                                 6
 STAT SP IPHASW D HRMM SECON CODA AMPLIT PERI AZIMU VELO AIN AR TRES W  DIS CAZ7
 LD3  SZ E        1822  2.29                  317.3 14.5     -1        7.78 139 
 LD3  SN IP       1822  2.29                             176    0.2910 7.78 139 
 LD3  SE IS       1822  8.48                             176   -0.2410 7.78 139 
 LD3  SZ  AML     1822 11.10        22.3 0.68                          7.78 139 
 LD5  SZ E        1822  3.14                  335.4  9.1      3        40.8 152 
 LD5  SN IP       1822  3.19                             147   -0.2810 40.8 152 
 LD5  SE IS       1822 11.49                             147    0.2210 40.8 152 
 LD5  SZ IS       1822 12.15                             145           40.8 152 
                                                                                
