 2007 1127 0802 13.7 L  21.730 -99.906 10.0  RAL  1 0.0 0.7LRAL                1
 GAP=360        0.30       2.3     3.5  0.0 -0.5764E+01  0.2445E+00 -0.2457E+00E
 ACTION:UPD 12-06-08 11:37 OP:RALL STATUS:               ID:20071127080213     I
 2007-11-27-0802-19S.PLUR1_006                                                 6
 STAT SP IPHASW D HRMM SECON CODA AMPLIT PERI AZIMU VELO AIN AR TRES W  DIS CAZ7
 LD3  SZ E         8 2 22.68                  302.7 13.1      0        55.6 123 
 LD3  SN IP        8 2 22.88                              96    0.0110 55.6 123 
 LD3  SZ  AML      8 2 29.48         5.4 0.30                          55.6 123 
 LD3  SE IS        8 2 29.55                              96   -0.0110 55.6 123 
                                                                                
