 2007 1110 2054 30.7 L  21.454 -99.579 10.0  RAL  1 0.0                        1
 GAP=360        0.30       4.1     0.6  0.0  0.5194E+00  0.0000E+00  0.0000E+00E
 2007-11-10-2054-22S.PLUR1_009                                                 6
 STAT SP IPHASW D HRMM SECON CODA AMPLIT PERI AZIMU VELO AIN AR TRES W  DIS CAZ7
 LD2  SZ E        2054 34.36                    1.7  9.9      0        19.6 182 
 LD2  SN IP     C 2054 34.42                             114    0.0210 19.6 182 
 LD2  SE IS     D 2054 37.11                             114   -0.0210 19.6 182 
                                                                                
