 2010  1 5 0545 38.6 L  21.091 -99.144 10.0  RAL  1 0.0-0.5LRAL                1
 GAP=360        0.30       3.8     3.8  0.0 -0.1415E+02  0.4890E+07  0.4851E+07E
 ACTION:UPD 12-06-08 11:37 OP:RALL STATUS:               ID:20100105054538     I
 2010-01-05-0545-33S.PLUR1_003                                                 6
 STAT SP IPHASW D HRMM SECON CODA AMPLIT PERI AZIMU VELO AIN AR TRES W  DIS CAZ7
 LO8  SN IP        545 41.14                             134    0.0210 10.4 317 
 LO8  SZ E         545 41.21                  136.7  5.8      0        10.4 317 
 LO8  SE IS        545 42.98                             134   -0.0210 10.4 317 
 LO8  SZ  AML      545 43.58         1.4 0.26                          10.4 317 
                                                                                
