 2010  1 5 1252 29.0 L  21.073 -99.134 10.0  RAL  1 0.0-0.4LRAL                1
 GAP=360        0.30       3.6     3.3  0.0 -0.1176E+02  0.4890E+07  0.4851E+07E
 ACTION:UPD 12-06-08 11:37 OP:RALL STATUS:               ID:20100105125229     I
 2010-01-05-1252-24S.PLUR1_003                                                 6
 STAT SP IPHASW D HRMM SECON CODA AMPLIT PERI AZIMU VELO AIN AR TRES W  DIS CAZ7
 LO8  SN IP       1252 31.84                             128    0.0210 12.6 319 
 LO8  SZ E        1252 31.87                  139.2  6.0      0        12.6 319 
 LO8  SE IS       1252 33.85                             128   -0.0210 12.6 319 
 LO8  SZ  AML     1252 34.00         1.5 0.36                          12.6 319 
                                                                                
