 2010  1 7 0320  7.8 L  21.082 -99.088 10.0  RAL  1 0.0-0.2LRAL                1
 GAP=360        0.30       2.4     3.9  0.0 -0.9182E+01  0.4890E+07  0.4851E+07E
 ACTION:UPD 12-06-08 11:37 OP:RALL STATUS:               ID:20100107032007     I
 2010-01-07-0320-04S.PLUR1_003                                                 6
 STAT SP IPHASW D HRMM SECON CODA AMPLIT PERI AZIMU VELO AIN AR TRES W  DIS CAZ7
 LO8  SN IP        320 11.03                             121    0.0110 15.5 303 
 LO8  SZ E         320 11.06                  123.4  6.2      0        15.5 303 
 LO8  SE IS        320 13.34                             121   -0.0110 15.5 303 
 LO8  SZ  AML      320 14.00         1.8 0.26                          15.5 303 
                                                                                
