 2010  1 8 1708 44.4 L  21.318 -99.275 10.0  RAL  1 0.0 0.4LRAL                1
 GAP=360        0.30       3.9     1.6  0.0 -0.5770E+01  0.4890E+07  0.4851E+07E
 ACTION:UPD 12-06-08 11:37 OP:RALL STATUS:               ID:20100108170844     I
 2010-01-08-1708-40S.PLUR1_003                                                 6
 STAT SP IPHASW D HRMM SECON CODA AMPLIT PERI AZIMU VELO AIN AR TRES W  DIS CAZ7
 LO8  SN IP       17 8 48.02                             116    0.0010 18.7 160 
 LO8  SZ E        17 8 48.10                  339.9  9.3      0        18.7 160 
 LO8  SE IS       17 8 50.66                             116    0.0010 18.7 160 
 LO8  SZ  AML     17 8 51.74         7.5 0.40                          18.7 160 
                                                                                
