 2010  119 0931 26.0 L  21.324 -99.341 10.0  RAL  1 0.0 1.4LRAL                1
 GAP=360        0.30       4.1     1.0  0.0  0.3343E+01  0.4890E+07  0.4851E+07E
 ACTION:UPD 12-06-08 11:37 OP:RALL STATUS:               ID:20100119093126     I
 2010-01-19-0931-20S.PLUR1_003                                                 6
 STAT SP IPHASW D HRMM SECON CODA AMPLIT PERI AZIMU VELO AIN AR TRES W  DIS CAZ7
 LA4  SN IP        931 29.51                             116    0.0210 18.0  11 
 LA4  SE IS        931 32.02                             116   -0.0210 18.0  11 
 LA4  SZ E         931 29.51                  190.7 12.3      0        18.0  11 
 LA4  SZ  AML      931 34.60        78.3 0.54                                   
                                                                                
