 2010  120 1546 50.5 L  21.327 -99.278 10.0  RAL  1 0.0 0.5LRAL                1
 GAP=360        0.30       3.8     1.6  0.0 -0.5602E+01  0.4890E+07  0.4851E+07E
 ACTION:UPD 12-06-08 11:37 OP:RALL STATUS:               ID:20100120154650     I
 2010-01-20-1546-47S.PLUR1_003                                                 6
 STAT SP IPHASW D HRMM SECON CODA AMPLIT PERI AZIMU VELO AIN AR TRES W  DIS CAZ7
 LO8  SE IS       1546 57.05                             115    0.0010 19.7 160 
 LO8  SN IP       1546 54.31                             115    0.0010 19.7 160 
 LO8  SZ E        1546 54.24                  340.0  6.5      0        19.7 160 
 LO8  SZ  AML     1546 57.91         8.5 0.32                          19.7 160 
                                                                                
