 2010  128 0828 59.5 L  21.892 -99.191 10.0  RAL  2 1.9 1.6LRAL                1
 GAP=346       33.45     366.0   159.0999.9  0.3236E+05 -0.1776E+06 -0.5550E+06E
 ACTION:UPD 12-06-08 11:37 OP:RALL STATUS:               ID:20100128082859     I
 2010-01-28-0828-59S.PLUR1_006                                                 6
 STAT SP IPHASW D HRMM SECON CODA AMPLIT PERI AZIMU VELO AIN AR TRES W  DIS CAZ7
 LA4  SN IP        829  8.21                              98    0.8710 46.8 195 
 LA4  SE IS        829 12.74                              98   -0.3010 46.8 195 
 LO8  SN IP        829 12.70                              94    0.0410 81.1 182 
 LO8  SZ E         829 12.82                  140.8  6.6    139        81.1 182 
 LO8  SE IS        829 21.63                              94   -0.6110 81.1 182 
 LO8  SZ  AML      829 22.81        10.5 0.34                          81.1 182 
 LA4  SZ E         829  8.20                  288.9 14.7     86        46.8 195 
 LA4  SZ  AML      829 13.15       159.7 0.32                          46.8 195 
                                                                                
