 2010  719 0806 23.9 L  21.665 -99.243 10.0  RAL  1 0.0                        1
 GAP=360        0.30       3.7     1.2  0.0  0.3121E+00  0.0000E+00  0.0000E+00E
 2010-07-19-0806-22S.PLUR1_003                                                 6
 STAT SP IPHASW D HRMM SECON CODA AMPLIT PERI AZIMU VELO AIN AR TRES W  DIS CAZ7
 LG3  SZ E         8 6 31.12                    1.3 11.9      0        43.1 181 
 LG3  SN IP        8 6 31.12                              99    0.0110 43.1 181 
 LG3  SE IS        8 6 36.40                              99   -0.0110 43.1 181 
                                                                                
