 2010  719  8 6 22.1 L                                                         1
 2010-07-19-0806-22S.PLUR1_003                                                 6
 STAT SP IPHASW D HRMM SECON CODA AMPLIT PERI AZIMU VELO AIN AR TRES W  DIS CAZ7
 LG3  SZ E         8 6 31.12                    1.3 11.9                        
 LG3  SN IP        8 6 31.12                                                    
 LG3  SE IS        8 6 36.40                                                    
                                                                                
