 2008 11 1 0146 56.4 L  21.691 -99.330 10.0  RAL  2 1.0 1.4LRAL                1
 GAP=356       18.20     193.4    41.4489.4 -0.4172E+04  0.5603E+04 -0.5086E+05E
 ACTION:UPD 12-06-08 11:37 OP:RALL STATUS:               ID:20081101014656     I
 2008-11-01-0146-47S.PLUR1_006                                                 6
 STAT SP IPHASW D HRMM SECON CODA AMPLIT PERI AZIMU VELO AIN AR TRES W  DIS CAZ7
 LA4  SN IP        147  0.94                             108    0.3410 23.1 175 
 LA4  SZ E         147  1.09                  307.0 11.7    -47        23.1 175 
 LA4  SE IS        147  3.32                             108   -0.3610 23.1 175 
 LA4  SZ  AML      147  5.43        69.2 0.72                          23.1 175 
 LZ4  SZ E         147  1.96                   66.4 99.9     75        40.4 171 
 LZ4  SN IP        147  3.21                              99    0.0110 40.4 171 
 LZ4  SE IS        147  8.18                              99    0.0010 40.4 171 
 LZ4  SZ  AML      147 12.79        27.2 0.56                          40.4 171 
                                                                                
