 2008 11 1 0958 41.9 L  21.338 -99.293 10.0  RAL  1 0.1 0.2LRAL                1
 GAP=360        0.42       7.3    22.4  0.0 -0.1633E+03  0.5603E+04 -0.5086E+05E
 ACTION:UPD 12-06-08 11:37 OP:RALL STATUS:               ID:20081101095841     I
 2008-11-01-0958-30S.PLUR1_003                                                 6
 STAT SP IPHASW D HRMM SECON CODA AMPLIT PERI AZIMU VELO AIN AR TRES W  DIS CAZ7
 LZ4  SZ E         958 43.92                  289.2 12.7      0        2.54 109 
 LZ4  SN IP        958 44.00                             166    0.2110 2.54 109 
 LZ4  SE IS        958 44.96                             166   -0.2110 2.54 109 
 LZ4  SZ  AML      958 45.08         9.4 0.20                          2.54 109 
                                                                                
