 2008 11 1 0117 24.8 L  21.340 -99.291 10.0  RAL  1 0.1 0.0LRAL                1
 GAP=360        0.45     685.2   338.0  0.0  0.2316E+06  0.3278E+00 -0.5576E+00E
 ACTION:UPD 12-06-08 11:37 OP:RALL STATUS:               ID:20081101011724     I
 2008-11-01-0117-12S.PLUR1_003                                                 6
 STAT SP IPHASW D HRMM SECON CODA AMPLIT PERI AZIMU VELO AIN AR TRES W  DIS CAZ7
 LZ4  SZ E         117 26.88                  293.0  8.6      0        2.47 113 
 LZ4  SN IP        117 26.94                             167    0.2210 2.47 113 
 LZ4  SE IS        117 27.86                             167   -0.2210 2.47 113 
 LZ4  SZ  AML      117 28.64         5.9 0.16                          2.47 113 
                                                                                
