 2008 11 1 0659 40.6 L  21.397 -99.345 10.0  RAL  1 0.0 0.5LRAL                1
 GAP=360        0.30       3.4     3.9  0.0 -0.1346E+02  0.5603E+04 -0.5086E+05E
 ACTION:UPD 12-06-08 11:37 OP:RALL STATUS:               ID:20081101065940     I
 2008-11-01-0659-29S.PLUR1_003                                                 6
 STAT SP IPHASW D HRMM SECON CODA AMPLIT PERI AZIMU VELO AIN AR TRES W  DIS CAZ7
 LZ4  SN IP        659 43.14                             132    0.0110 10.7 133 
 LZ4  SZ E         659 43.22                  313.1  6.4      0        10.7 133 
 LZ4  SE IS        659 44.97                             132   -0.0110 10.7 133 
 LZ4  SZ  AML      659 46.63        12.2 0.24                          10.7 133 
                                                                                
