 2008 11 1 0813 14.6 L  21.333 -99.279 10.0  RAL  1 0.1 0.9LRAL                1
 GAP=360        0.83     999.9   466.9  0.0  0.5387E+06  0.5603E+04 -0.5086E+05E
 ACTION:UPD 12-06-08 11:37 OP:RALL STATUS:               ID:20081101081314     I
 2008-11-01-0813-02S.PLUR1_003                                                 6
 STAT SP IPHASW D HRMM SECON CODA AMPLIT PERI AZIMU VELO AIN AR TRES W  DIS CAZ7
 LZ4  SZ E         813 16.68                  288.8 10.0      3        1.00 106 
 LZ4  SN IP        813 16.69                             174    0.2810 1.00 106 
 LZ4  SE IS        813 17.47                             174   -0.2810 1.00 106 
 LZ4  SZ  AML      813 17.61        49.3 0.20                          1.00 106 
                                                                                
