 2008 11 1 1010 45.1 L  21.756 -99.502 10.0  RAL  1 0.0 1.0LRAL                1
 GAP=360        0.30       3.4     2.2  0.0 -0.5243E+01  0.5603E+04 -0.5086E+05E
 ACTION:UPD 12-06-08 11:37 OP:RALL STATUS:               ID:20081101101045     I
 2008-11-01-1010-46S.PLUR1_003                                                 6
 STAT SP IPHASW D HRMM SECON CODA AMPLIT PERI AZIMU VELO AIN AR TRES W  DIS CAZ7
 LZ4  SZ E        1010 52.91                  333.0 48.5      0        52.9 153 
 LZ4  SN IP       1010 53.90                              97    0.0110 52.9 153 
 LZ4  SE IS       1011  0.26                              97   -0.0110 52.9 153 
 LZ4  SZ  AML     1011  5.22        10.4 0.40                          52.9 153 
                                                                                
