 2008 11 1 1332 19.9 L  21.400 -99.363 10.0  RAL  1 0.0 0.4LRAL                1
 GAP=360        0.30       2.9     4.0  0.0 -0.1152E+02  0.5603E+04 -0.5086E+05E
 ACTION:UPD 12-06-08 11:37 OP:RALL STATUS:               ID:20081101133219     I
 2008-11-01-1332-10S.PLUR1_003                                                 6
 STAT SP IPHASW D HRMM SECON CODA AMPLIT PERI AZIMU VELO AIN AR TRES W  DIS CAZ7
 LZ4  SZ E        1332 22.51                  308.5 12.3      0        12.4 128 
 LZ4  SN IP       1332 22.62                             128    0.0210 12.4 128 
 LZ4  SE IS       1332 24.58                             128   -0.0210 12.4 128 
 LZ4  SZ  AML     1332 25.52         9.5 0.32                          12.4 128 
                                                                                
