 2008 11 1 1059  2.7 L  21.509 -99.366 10.0  RAL  1 0.0 1.2LRAL                1
 GAP=360        0.30       3.5     2.0  0.0 -0.6619E+01  0.5603E+04 -0.5086E+05E
 ACTION:UPD 12-06-08 11:37 OP:RALL STATUS:               ID:20081101105902     I
 2008-11-01-1058-55S.PLUR1_003                                                 6
 STAT SP IPHASW D HRMM SECON CODA AMPLIT PERI AZIMU VELO AIN AR TRES W  DIS CAZ7
 LZ4  SN IP       1059  6.80                             111    0.0010 22.1 153 
 LZ4  SZ E        1059  7.46                  333.2 10.6      0        22.1 153 
 LZ4  SZ  AML     1059  9.61        38.0 0.76                          22.1 153 
 LZ4  SE IS       1059  9.77                             111    0.0010 22.1 153 
                                                                                
