 2008 11 1 2300 40.6 L  21.273 -99.249 10.0  RAL  1 0.0 0.3LRAL                1
 GAP=360        0.30       6.4     2.2  0.0 -0.1422E+02  0.5603E+04 -0.5086E+05E
 ACTION:UPD 12-06-08 11:37 OP:RALL STATUS:               ID:20081101230040     I
 2008-11-01-2300-30S.PLUR1_003                                                 6
 STAT SP IPHASW D HRMM SECON CODA AMPLIT PERI AZIMU VELO AIN AR TRES W  DIS CAZ7
 LZ4  SZ E        23 0 42.14                  161.8 31.1      0        6.74 342 
 LZ4  SN IP       23 0 42.76                             146    0.0210 6.74 342 
 LZ4  SE IS       23 0 44.29                             146   -0.0210 6.74 342 
 LZ4  SZ  AML     23 0 46.35         8.6 0.24                          6.74 342 
                                                                                
