 2008 11 2 0647  0.1 L  21.622 -99.599 10.0  RAL  1 0.0 1.1LRAL                1
 GAP=360        0.30       2.7     3.1  0.0 -0.6722E+01  0.5603E+04 -0.5086E+05E
 ACTION:UPD 12-06-08 11:37 OP:RALL STATUS:               ID:20081102064700     I
 2008-11-02-0646-58S.PLUR1_003                                                 6
 STAT SP IPHASW D HRMM SECON CODA AMPLIT PERI AZIMU VELO AIN AR TRES W  DIS CAZ7
 LZ4  SN IP        647  7.97                              98    0.0210 46.9 133 
 LZ4  SZ E         647  8.23                  313.4  9.3      0        46.9 133 
 LZ4  SE IS        647 13.65                              98   -0.0210 46.9 133 
 LZ4  SZ  AML      647 17.10        15.9 0.32                          46.9 133 
                                                                                
