 2008 11 2 0343  7.1 L  21.335 -99.282 10.0  RAL  1 0.2 0.4LRAL                1
 GAP=360        2.44     999.9   999.9  0.0  0.4250E+08  0.5603E+04 -0.5086E+05E
 ACTION:UPD 12-06-08 11:37 OP:RALL STATUS:               ID:20081102034307     I
 2008-11-02-0342-55S.PLUR1_003                                                 6
 STAT SP IPHASW D HRMM SECON CODA AMPLIT PERI AZIMU VELO AIN AR TRES W  DIS CAZ7
 LZ4  SZ IP        343  9.03                             173    0.1110 1.32 108 
 LZ4  SN E         343  9.06                  276.8 18.7    -11        1.32 108 
 LZ4  SE IS        343 10.15                             173   -0.1110 1.32 108 
 LZ4  SN  AML      343 10.36        12.8 0.20                          1.32 108 
                                                                                
