 2008 11 2 0446 44.3 L  21.336 -99.287 10.0  RAL  1 0.1 1.1LRAL                1
 GAP=360        1.20      24.8    85.4  0.0 -0.2120E+04  0.5603E+04 -0.5086E+05E
 ACTION:UPD 12-06-08 11:37 OP:RALL STATUS:               ID:20081102044644     I
 2008-11-02-0446-32S.PLUR1_003                                                 6
 STAT SP IPHASW D HRMM SECON CODA AMPLIT PERI AZIMU VELO AIN AR TRES W  DIS CAZ7
 LZ4  SZ E         446 46.44                  282.2  9.4     -4        1.89 107 
 LZ4  SN IP        446 46.48                             170    0.3110 1.89 107 
 LZ4  SE IS        446 47.21                             170   -0.3110 1.89 107 
 LZ4  SZ  AML      446 47.35        69.8 0.12                          1.89 107 
                                                                                
