 2008 11 2 0616 13.4 L  21.527 -99.479 10.0  RAL  1 0.0                        1
 GAP=360        0.30       2.8     3.0  0.0 -0.7550E+01  0.5603E+04 -0.5086E+05E
 ACTION:UPD 12-06-08 11:37 OP:RALL STATUS:               ID:20081102061613     I
 2008-11-02-0616-08S.PLUR1_003                                                 6
 STAT SP IPHASW D HRMM SECON CODA AMPLIT PERI AZIMU VELO AIN AR TRES W  DIS CAZ7
 LZ4  SN IP        616 18.77                             104    0.0310 30.8 135 
 LZ4  SZ E         616 18.82                  315.0 14.8      0        30.8 135 
 LZ4  SE IS        616 22.63                             104   -0.0310 30.8 135 
                                                                                
