 2008 11 2 0009 18.2 L  21.666 -99.337 10.0  RAL  1 0.0 1.0LRAL                1
 GAP=360        0.30       4.0     0.8  0.0 -0.2464E+01  0.5603E+04 -0.5086E+05E
 ACTION:UPD 12-06-08 11:37 OP:RALL STATUS:               ID:20081102000918     I
 2008-11-02-0009-10S.PLUR1_003                                                 6
 STAT SP IPHASW D HRMM SECON CODA AMPLIT PERI AZIMU VELO AIN AR TRES W  DIS CAZ7
 LA4  SZ E         0 9 21.99                  351.7  8.3      0        20.3 172 
 LA4  SN IP        0 9 22.06                             113    0.0210 20.3 172 
 LA4  SE IS        0 9 24.82                             113   -0.0210 20.3 172 
 LA4  SZ  AML      0 9 25.27        28.9 0.20                          20.3 172 
                                                                                
