 2008 11 2 2321 55.9 L  21.329 -99.273 10.0  RAL  1 0.5 0.6LRAL                1
 GAP=360        6.97     999.9   999.9  0.0 -0.1770E+10  0.5603E+04 -0.5086E+05E
 ACTION:UPD 12-06-08 11:37 OP:RALL STATUS:               ID:20081102232155     I
 2008-11-02-2321-43S.PLUR1_003                                                 6
 STAT SP IPHASW D HRMM SECON CODA AMPLIT PERI AZIMU VELO AIN AR TRES W  DIS CAZ7
 LZ4  SN IP       2321 57.93                             177    0.2210 0.48  59 
 LZ4  SZ E        2321 57.94                  272.3 11.6     33        0.48  59 
 LZ4  SE IS       2321 58.82                             177   -0.2210 0.48  59 
 LZ4  SZ  AML     2321 59.80        25.1 0.40                          0.48  59 
                                                                                
