 2008 11 3 0934 51.2 L  21.338 -99.274 10.0  RAL  1 0.4 0.2LRAL                1
 GAP=360        4.34     999.9   999.9  0.0  0.1719E+09  0.5603E+04 -0.5086E+05E
 ACTION:UPD 12-06-08 11:37 OP:RALL STATUS:               ID:20081103093451     I
 2008-11-03-0934-39S.PLUR1_003                                                 6
 STAT SP IPHASW D HRMM SECON CODA AMPLIT PERI AZIMU VELO AIN AR TRES W  DIS CAZ7
 LZ4  SN IP        934 53.42                             175    0.4310 0.96 150 
 LZ4  SZ E         934 53.43                  350.9  7.5     20        0.96 150 
 LZ4  SE IS        934 53.90                             175   -0.4310 0.96 150 
 LZ4  SZ  AML      934 54.00         9.7 0.36                          0.96 150 
                                                                                
