 2008 11 3 0157 15.2 L  21.171 -99.325 10.0  RAL  1 0.1-0.1LRAL                1
 GAP=360        1.26     148.1   831.1  0.0 -0.1231E+06  0.5603E+04 -0.5086E+05E
 ACTION:UPD 12-06-08 11:37 OP:RALL STATUS:               ID:20081103015715     I
 2008-11-03-0157-02S.PLUR1_003                                                 6
 STAT SP IPHASW D HRMM SECON CODA AMPLIT PERI AZIMU VELO AIN AR TRES W  DIS CAZ7
 LD5  SZ E         157 17.23                  191.9 18.9     -5        1.80  17 
 LD5  SN IP        157 17.26                             170    0.2510 1.80  17 
 LD5  SE IS        157 18.11                             170   -0.2510 1.80  17 
 LD5  SZ  AML      157 18.60         4.3 0.24                          1.80  17 
                                                                                
