 2008 11 3 0850 31.0 L  21.327 -99.273 10.0  RAL  1 0.8 0.4LRAL                1
 GAP=360       10.49     999.9   474.3  0.0  0.1468E+07  0.5603E+04 -0.5086E+05E
 ACTION:UPD 12-06-08 11:37 OP:RALL STATUS:               ID:20081103085031     I
 2008-11-03-0850-19S.PLUR1_003                                                 6
 STAT SP IPHASW D HRMM SECON CODA AMPLIT PERI AZIMU VELO AIN AR TRES W  DIS CAZ7
 LZ4  SZ E         850 32.97                  276.3 10.1     50        0.54  46 
 LZ4  SN IP        850 33.03                             177    0.1910 0.54  46 
 LZ4  SE IS        850 33.99                             177   -0.1910 0.54  46 
 LZ4  SZ  AML      850 34.12        14.1 0.20                          0.54  46 
                                                                                
