 2008 11 3 0544  4.7 L  21.276 -99.280 10.0  RAL  1 0.0 0.6LRAL                1
 GAP=360        0.30       7.0     1.3  0.0  0.9284E+01  0.5603E+04 -0.5086E+05E
 ACTION:UPD 12-06-08 11:37 OP:RALL STATUS:               ID:20081103054404     I
 2008-11-03-0543-53S.PLUR1_003                                                 6
 STAT SP IPHASW D HRMM SECON CODA AMPLIT PERI AZIMU VELO AIN AR TRES W  DIS CAZ7
 LZ4  SZ E         544  6.72                  189.9 12.4      0        6.17  10 
 LZ4  SN IP        544  6.82                             149    0.0210 6.17  10 
 LZ4  SE IS        544  8.31                             149   -0.0210 6.17  10 
 LZ4  SZ  AML      544  9.43        17.4 0.24                          6.17  10 
                                                                                
