 2008 11 3 1745 42.9 L  21.693 -99.369  0.0  RAL  2 0.2 1.8LRAL                1
 GAP=359        2.73      27.3     9.4503.9 -0.2062E+03  0.2568E+04 -0.8920E+04E
 ACTION:UPD 12-06-08 11:37 OP:RALL STATUS:               ID:20081103174542     I
 2008-11-03-1745-32S.PLUR1_006                                                 6
 STAT SP IPHASW D HRMM SECON CODA AMPLIT PERI AZIMU VELO AIN AR TRES W  DIS CAZ7
 LA4  SN IP       1745 46.88                              93   -0.2710 24.0 165 
 LA4  SZ E        1745 47.01                  351.5  7.6      7        24.0 165 
 LA4  SE IS       1745 49.82                              93   -0.4010 24.0 165 
 LA4  SZ  AML     1745 50.27       210.3 0.24                          24.0 165 
 LZ4  SZ E        1745 50.29                  334.5  6.9    -10        41.4 166 
 LZ4  SN IP       1745 50.51                              91    0.3210 41.4 166 
 LZ4  SE IS       1745 55.83                              91    0.3510 41.4 166 
 LZ4  SZ  AML     1745 55.98        74.7 0.24                          41.4 166 
                                                                                
