 2008 11 3 1017 55.0 L  21.305 -99.300 10.0  RAL  1 0.0 0.7LRAL                1
 GAP=360        0.34       7.3     9.0  0.0  0.6569E+02  0.5603E+04 -0.5086E+05E
 ACTION:UPD 12-06-08 11:37 OP:RALL STATUS:               ID:20081103101755     I
 2008-11-03-1017-43S.PLUR1_003                                                 6
 STAT SP IPHASW D HRMM SECON CODA AMPLIT PERI AZIMU VELO AIN AR TRES W  DIS CAZ7
 LZ4  SZ E        1017 57.06                  228.8 12.4      0        4.27  49 
 LZ4  SN IP       1017 57.08                             157    0.1210 4.27  49 
 LZ4  SE IS       1017 58.28                             157   -0.1210 4.27  49 
 LZ4  SZ  AML     1017 58.48        29.3 0.36                          4.27  49 
                                                                                
