 2008 11 3 1633 14.3 L  21.313 -99.301 10.0  RAL  1 0.1 0.6LRAL                1
 GAP=360        0.36       6.8    11.7  0.0  0.7877E+02  0.5603E+04 -0.5086E+05E
 ACTION:UPD 12-06-08 11:37 OP:RALL STATUS:               ID:20081103163314     I
 2008-11-03-1633-02S.PLUR1_003                                                 6
 STAT SP IPHASW D HRMM SECON CODA AMPLIT PERI AZIMU VELO AIN AR TRES W  DIS CAZ7
 LZ4  SZ E        1633 16.30                  238.2 20.8      0        3.83  58 
 LZ4  SN IP       1633 16.34                             160    0.1410 3.83  58 
 LZ4  SE IS       1633 17.48                             160   -0.1410 3.83  58 
 LZ4  SZ  AML     1633 17.93        20.7 0.48                          3.83  58 
                                                                                
