 2008 11 3 1814 39.9 L  21.642 -99.408 10.0  RAL  1 0.0 0.8LRAL                1
 GAP=360        0.30       3.5     2.2  0.0 -0.7449E+01  0.2568E+04 -0.8920E+04E
 ACTION:UPD 12-06-08 11:37 OP:RALL STATUS:               ID:20081103181439     I
 2008-11-03-1814-31S.PLUR1_003                                                 6
 STAT SP IPHASW D HRMM SECON CODA AMPLIT PERI AZIMU VELO AIN AR TRES W  DIS CAZ7
 LA4  SZ E        1814 43.62                  329.7  7.6      0        20.3 150 
 LA4  SN IP       1814 43.74                             113    0.0010 20.3 150 
 LA4  SE IS       1814 46.52                             113    0.0010 20.3 150 
 LA4  SZ  AML     1814 46.68        16.5 0.60                          20.3 150 
                                                                                
