 2008 11 3 1413 28.6 L  21.670 -99.563 10.0  RAL  1 0.0 0.9LRAL                1
 GAP=360        0.30       3.0     2.7  0.0 -0.6527E+01  0.5603E+04 -0.5086E+05E
 ACTION:UPD 12-06-08 11:37 OP:RALL STATUS:               ID:20081103141328     I
 2008-11-03-1413-27S.PLUR1_003                                                 6
 STAT SP IPHASW D HRMM SECON CODA AMPLIT PERI AZIMU VELO AIN AR TRES W  DIS CAZ7
 LZ4  SZ E        1413 36.58                  321.1 13.9      0        48.3 141 
 LZ4  SN IP       1413 36.61                              98    0.0210 48.3 141 
 LZ4  SE IS       1413 42.45                              98   -0.0210 48.3 141 
 LZ4  SZ  AML     1413 43.07         9.7 0.20                          48.3 141 
                                                                                
