 2008 11 3 1457 52.6 L  20.918 -99.282 10.0  RAL  1 0.0 1.2LRAL                1
 GAP=360        0.30       3.7     1.3  0.0  0.3747E+00  0.5603E+04 -0.5086E+05E
 ACTION:UPD 12-06-08 11:37 OP:RALL STATUS:               ID:20081103145752     I
 2008-11-03-1457-46S.PLUR1_003                                                 6
 STAT SP IPHASW D HRMM SECON CODA AMPLIT PERI AZIMU VELO AIN AR TRES W  DIS CAZ7
 LZ4  SZ E        1457 59.75                  181.6 20.8      0        45.7   2 
 LZ4  SN IP       1458  0.20                              98    0.0110 45.7   2 
 LZ4  SE IS       1458  5.76                              98   -0.0110 45.7   2 
 LZ4  SZ  AML     1458  6.65        21.7 0.28                          45.7   2 
                                                                                
