 2008 11 3 1744 23.3 L  21.324 -99.300 10.0  RAL  1 0.0 0.5LRAL                1
 GAP=360        0.31       3.1    13.2  0.0  0.4076E+02 -0.6995E+02  0.1012E+03E
 ACTION:UPD 12-06-08 11:37 OP:RALL STATUS:               ID:20081103174423     I
 2008-11-03-1744-11S.PLUR1_003                                                 6
 STAT SP IPHASW D HRMM SECON CODA AMPLIT PERI AZIMU VELO AIN AR TRES W  DIS CAZ7
 LZ4  SZ E        1744 25.22                  255.9 10.3      0        3.25  76 
 LZ4  SN IP       1744 25.23                             162    0.0510 3.25  76 
 LZ4  SE IS       1744 26.52                             162   -0.0510 3.25  76 
 LZ4  SZ  AML     1744 27.90        16.6 0.68                          3.25  76 
                                                                                
