 2008 11 3 1652 38.9 L  21.411 -99.261 20.3  RAL  2 0.3 0.7LRAL                1
 GAP=225        3.77      10.8     7.7 35.3 -0.8049E+02 -0.6995E+02  0.1012E+03E
 ACTION:UPD 12-06-08 11:37 OP:RALL STATUS:               ID:20081103165238     I
 2008-11-03-1652-31S.PLUR1_006                                                 6
 STAT SP IPHASW D HRMM SECON CODA AMPLIT PERI AZIMU VELO AIN AR TRES W  DIS CAZ7
 LA4  SZ E        1652 43.35                  144.4  7.2     -3        9.43 328 
 LA4  SN IP       1652 43.39                             170    0.7610 9.43 328 
 LA4  SE IS       1652 45.82                             170    0.4510 9.43 328 
 LA4  SZ  AML     1652 47.59        33.3 0.52                          9.43 328 
 LD5  SN IP       1652 44.00                             130   -0.2110 25.6 194 
 LD5  SZ E        1652 44.03                  357.1 17.6     17        25.6 194 
 LD5  SE IS       1652 47.12                             130   -0.9910 25.6 194 
 LD5  SZ  AML     1652 49.75         3.0 0.70                          25.6 194 
                                                                                
