 2008 11 3 2321  9.7 L  20.644 -98.556 10.0  RAL  1 0.0 1.1LRAL                1
 GAP=360        0.30       3.0     3.6  0.0 -0.3637E+01 -0.1272E+01 -0.1830E+02E
 ACTION:UPD 12-06-08 11:37 OP:RALL STATUS:               ID:20081103232109     I
 2008-11-03-2321-14S.PLUR1_006                                                 6
 STAT SP IPHASW D HRMM SECON CODA AMPLIT PERI AZIMU VELO AIN AR TRES W  DIS CAZ7
 LD5  SZ E        2321 24.56                  126.9 16.0      0        99.6 307 
 LD5  SN IP       2321 25.67                              93    0.0010 99.6 307 
 LD5  SE IS       2321 37.34                              93    0.0010 99.6 307 
 LD5  SZ  AML     2321 38.28         7.1 0.46                          99.6 307 
                                                                                
