 2008 11 3 2202  6.2 L  21.288 -99.312 15.6  RAL  2 0.1 0.7LRAL                1
 GAP=184        0.87       3.3     0.8 10.7  0.7185E+00 -0.1272E+01 -0.1830E+02E
 ACTION:UPD 12-06-08 11:37 OP:RALL STATUS:               ID:20081103220206     I
 2008-11-03-2201-54S.PLUR1_006                                                 6
 STAT SP IPHASW D HRMM SECON CODA AMPLIT PERI AZIMU VELO AIN AR TRES W  DIS CAZ7
 LD5  SZ E        22 2  9.54                    6.2 13.2      2        11.2 184 
 LD5  SN IP       22 2  9.57                             145    0.1210 11.2 184 
 LD5  SE IS       22 2 11.81                             145   -0.0210 11.2 184 
 LD5  SZ  AML     22 2 12.24         6.7 0.30                          11.2 184 
 LA4  SZ E        22 2 10.54                  184.3 10.1      4        21.7   1 
 LA4  SN IP       22 2 10.56                             125   -0.0710 21.7   1 
 LA4  SE IS       22 2 13.85                             125   -0.0310 21.7   1 
 LA4  SZ  AML     22 2 14.93        25.7 0.16                          21.7   1 
                                                                                
