 2008 11 4 0002 29.8 L  21.580 -99.726 10.0  RAL  1 0.0 1.4LRAL                1
 GAP=360        0.30       2.2     3.5  0.0 -0.5546E+01 -0.1272E+01 -0.1830E+02E
 ACTION:UPD 12-06-08 11:37 OP:RALL STATUS:               ID:20081104000229     I
 2008-11-04-0002-24S.PLUR1_003                                                 6
 STAT SP IPHASW D HRMM SECON CODA AMPLIT PERI AZIMU VELO AIN AR TRES W  DIS CAZ7
 LZ4  SZ E         0 2 38.70                  300.3  7.5      0        54.7 120 
 LZ4  SN IP        0 2 38.84                              97    0.0110 54.7 120 
 LZ4  SE IS        0 2 45.41                              97   -0.0110 54.7 120 
 LZ4  SZ  AML      0 2 50.24        26.3 0.24                          54.7 120 
                                                                                
