 2008 11 4 0421 53.3 L  21.202 -99.338 10.0  RAL  1 0.2-0.2LRAL                1
 GAP=360        0.74      26.6    30.1  0.0 -0.7997E+03 -0.1272E+01 -0.1830E+02E
 ACTION:UPD 12-06-08 11:37 OP:RALL STATUS:               ID:20081104042153     I
 2008-11-04-0421-41S.PLUR1_003                                                 6
 STAT SP IPHASW D HRMM SECON CODA AMPLIT PERI AZIMU VELO AIN AR TRES W  DIS CAZ7
 LD5  SZ E         421 55.65                  313.4 10.4      0        2.52 133 
 LD5  SN IP        421 55.66                             166    0.4510 2.52 133 
 LD5  SE IS        421 56.12                             166   -0.4510 2.52 133 
 LD5  SZ  AML      421 56.30         3.5 0.16                          2.52 133 
                                                                                
