 2008 11 4 0754 10.4 L  21.336 -99.283 10.0  RAL  1 0.1 0.6LRAL                1
 GAP=360        0.54     999.9   503.7  0.0  0.5436E+06 -0.1272E+01 -0.1830E+02E
 ACTION:UPD 12-06-08 11:37 OP:RALL STATUS:               ID:20081104075410     I
 2008-11-04-0753-58S.PLUR1_003                                                 6
 STAT SP IPHASW D HRMM SECON CODA AMPLIT PERI AZIMU VELO AIN AR TRES W  DIS CAZ7
 LZ4  SZ E         754 12.51                  291.7 12.1      1        1.46 111 
 LZ4  SN IP        754 12.55                             172    0.2910 1.46 111 
 LZ4  SE IS        754 13.31                             172   -0.2910 1.46 111 
 LZ4  SZ  AML      754 13.66        20.5 0.36                          1.46 111 
                                                                                
