 2008 11 4 1541 47.6 L  21.334 -99.288 10.0  RAL  1 0.0 1.0LRAL                1
 GAP=360        0.34     999.9   387.6  0.0  0.7078E+06 -0.1272E+01 -0.1830E+02E
 ACTION:UPD 12-06-08 11:37 OP:RALL STATUS:               ID:20081104154147     I
 2008-11-04-1541-35S.PLUR1_003                                                 6
 STAT SP IPHASW D HRMM SECON CODA AMPLIT PERI AZIMU VELO AIN AR TRES W  DIS CAZ7
 LZ4  SZ E        1541 49.54                  280.5  7.5      0        1.99 101 
 LZ4  SN IP       1541 49.61                             169    0.1210 1.99 101 
 LZ4  SE IS       1541 50.73                             169   -0.1210 1.99 101 
 LZ4  SZ  AML     1541 52.03        59.6 0.20                          1.99 101 
                                                                                
