 2008 11 4 1739 28.5 L  21.652 -99.306 10.0  RAL  1 0.0 1.1LRAL                1
 GAP=360        0.30       4.1     0.5  0.0  0.3457E+00 -0.1272E+01 -0.1830E+02E
 ACTION:UPD 12-06-08 11:37 OP:RALL STATUS:               ID:20081104173928     I
 2008-11-04-1739-19S.PLUR1_003                                                 6
 STAT SP IPHASW D HRMM SECON CODA AMPLIT PERI AZIMU VELO AIN AR TRES W  DIS CAZ7
 LA4  SN IP       1739 32.06                             116    0.0210 18.6 181 
 LA4  SZ E        1739 32.07                    1.1  8.4      0        18.6 181 
 LA4  SE IS       1739 34.64                             116   -0.0210 18.6 181 
 LA4  SZ  AML     1739 34.68        31.4 0.24                          18.6 181 
                                                                                
