 2008 11 4 2106 49.2 L  21.890 -98.988  5.7  RAL  3 1.5 1.7LRAL                1
 GAP=351       26.29     399.3   210.1999.9  0.6900E+05 -0.6360E+07 -0.1363E+08E
 ACTION:UPD 12-06-08 11:37 OP:RALL STATUS:               ID:20081104210649     I
 2008-11-04-2106-46S.PLUR1_009                                                 6
 STAT SP IPHASW D HRMM SECON CODA AMPLIT PERI AZIMU VELO AIN AR TRES W  DIS CAZ7
 LZ4  SZ E        21 7  0.85                  308.9  6.8     76        68.4 205 
 LZ4  SN IP       21 7  0.92                              91    0.5810 68.4 205 
 LZ4  SE IS       21 7  7.30                              91   -1.1410 68.4 205 
 LZ4  SZ  AML     21 7  8.13       263.9 0.36                          68.4 205 
 LO8  SZ E        21 7  4.94                  145.5  6.3    129        84.1 196 
 LO8  SN IP       21 7  4.97                              91    2.1710 84.1 196 
 LO8  SE IS       21 7 12.80                              91    0.0910 84.1 196 
 LO8  SZ  AML     21 7 13.35        11.9 0.52                          84.1 196 
 LD5  SZ E        21 7  2.86                    7.5 16.9    -15        85.1 204 
 LD5  SN IP       21 7  3.01                              91    0.0810 85.1 204 
 LD5  SE IS       21 7 11.16                              91   -1.7710 85.1 204 
 LD5  SZ  AML     21 7 14.18        13.0 0.74                          85.1 204 
                                                                                
