 2008 11 4 2333  4.8 L  22.102 -99.535 10.0  RAL  1 0.0 1.4LRAL                1
 GAP=360        0.30       3.6     2.3  0.0 -0.3394E+01  0.3962E+02 -0.1166E+03E
 ACTION:UPD 12-06-08 11:37 OP:RALL STATUS:               ID:20081104233304     I
 2008-11-04-2333-10S.PLUR1_003                                                 6
 STAT SP IPHASW D HRMM SECON CODA AMPLIT PERI AZIMU VELO AIN AR TRES W  DIS CAZ7
 LA4  SZ E        2333 16.56                  341.2 10.3      0        72.3 161 
 LA4  SN IP       2333 16.59                              95    0.0110 72.3 161 
 LA4  SE IS       2333 25.15                              95   -0.0110 72.3 161 
 LA4  SZ  AML     2333 25.68        19.2 0.28                          72.3 161 
                                                                                
