 2008 11 4 2320 25.9 L  21.390 -99.292 10.0  RAL  2 0.2 0.4LRAL                1
 GAP=190        3.14       9.9     3.7 35.5 -0.3219E+02  0.3962E+02 -0.1166E+03E
 ACTION:UPD 12-06-08 11:37 OP:RALL STATUS:               ID:20081104232025     I
 2008-11-04-2320-15S.PLUR1_006                                                 6
 STAT SP IPHASW D HRMM SECON CODA AMPLIT PERI AZIMU VELO AIN AR TRES W  DIS CAZ7
 LZ4  SZ E        2320 28.20                  333.1  6.3     -6        6.95 160 
 LZ4  SN IP       2320 28.25                             147    0.2010 6.95 160 
 LZ4  SE IS       2320 29.74                             147    0.1210 6.95 160 
 LZ4  SZ  AML     2320 31.98        14.4 0.64                          6.95 160 
 LA4  SZ E        2320 28.38                  157.0  9.3    -12        10.5 350 
 LA4  SN IP       2320 28.41                             131   -0.0110 10.5 350 
 LA4  SE IS       2320 29.97                             131   -0.3110 10.5 350 
 LA4  SZ  AML     2320 30.97         9.7 0.40                          10.5 350 
                                                                                
