 2008 11 5 0406 35.9 L  21.316 -99.300 10.0  RAL  1 0.0 0.8LRAL                1
 GAP=360        0.35       5.9    12.6  0.0  0.7434E+02  0.3962E+02 -0.1166E+03E
 ACTION:UPD 12-06-08 11:37 OP:RALL STATUS:               ID:20081105040635     I
 2008-11-05-0406-23S.PLUR1_003                                                 6
 STAT SP IPHASW D HRMM SECON CODA AMPLIT PERI AZIMU VELO AIN AR TRES W  DIS CAZ7
 LZ4  SZ E         4 6 37.86                  243.2 16.2      0        3.59  63 
 LZ4  SN IP        4 6 37.92                             161    0.1210 3.59  63 
 LZ4  SE IS        4 6 39.08                             161   -0.1210 3.59  63 
 LZ4  SZ  AML      4 6 39.24        34.3 0.44                          3.59  63 
                                                                                
