 2008 11 5 0311 23.9 L  20.954 -99.166 10.0  RAL  1 0.0 0.2LRAL                1
 GAP=360        0.30       3.3     2.3  0.0 -0.6747E+01  0.3962E+02 -0.1166E+03E
 ACTION:UPD 12-06-08 11:37 OP:RALL STATUS:               ID:20081105031123     I
 2008-11-05-0311-18S.PLUR1_003                                                 6
 STAT SP IPHASW D HRMM SECON CODA AMPLIT PERI AZIMU VELO AIN AR TRES W  DIS CAZ7
 LD5  SZ E         311 29.08                  148.1 17.5      0        30.3 328 
 LD5  SN IP        311 29.22                             104    0.0210 30.3 328 
 LD5  SE IS        311 33.04                             104   -0.0210 30.3 328 
 LD5  SZ  AML      311 36.15         2.9 0.54                          30.3 328 
                                                                                
