 2008 11 5 0105 25.4 L  21.648 -99.347 10.0  RAL  1 0.0 0.6LRAL                1
 GAP=360        0.30       4.0     1.1  0.0 -0.3764E+01  0.3962E+02 -0.1166E+03E
 ACTION:UPD 12-06-08 11:37 OP:RALL STATUS:               ID:20081105010525     I
 2008-11-05-0105-18S.PLUR1_003                                                 6
 STAT SP IPHASW D HRMM SECON CODA AMPLIT PERI AZIMU VELO AIN AR TRES W  DIS CAZ7
 LA4  SN IP        1 5 28.97                             116    0.0210 18.6 168 
 LA4  SZ E         1 5 28.99                  347.7  7.5      0        18.6 168 
 LA4  SE IS        1 5 31.54                             116   -0.0210 18.6 168 
 LA4  SZ  AML      1 5 32.60        10.6 0.28                          18.6 168 
                                                                                
