 2008 11 5 0608 37.7 L  21.349 -99.299  7.0  RAL  2 0.0 0.7LRAL                1
 GAP=297        0.29       0.3     0.5  1.9 -0.1312E+00  0.3854E-01 -0.1388E-01E
 ACTION:UPD 12-06-08 11:37 OP:RALL STATUS:               ID:20081105060837     I
 2008-11-05-0608-24S.PLUR1_006                                                 6
 STAT SP IPHASW D HRMM SECON CODA AMPLIT PERI AZIMU VELO AIN AR TRES W  DIS CAZ7
 LZ4  SZ E         6 8 39.21                  303.9  9.1      0        3.70 124 
 LZ4  SN IP        6 8 39.24                             153    0.0310 3.70 124 
 LZ4  SE IS        6 8 40.29                             153   -0.0210 3.70 124 
 LZ4  SZ  AML      6 8 40.33       174.4 0.16                          3.70 124 
 LD5  SZ E         6 8 40.95                    6.9  9.2      0        18.2 187 
 LD5  SN IP        6 8 41.03                             104   -0.0210 18.2 187 
 LD5  SE IS        6 8 43.51                             104    0.0110 18.2 187 
 LD5  SZ  AML      6 8 45.85         3.8 0.66                          18.2 187 
                                                                                
