 2008 11 5 1117 19.6 L  21.322 -99.290 11.5  RAL  2 0.1 0.5LRAL                1
 GAP=234        0.70       0.5     1.1  5.7  0.5074E+00  0.9150E+00  0.4017E+00E
 ACTION:UPD 12-06-08 11:37 OP:RALL STATUS:               ID:20081105111719     I
 2008-11-05-1117-07S.PLUR1_006                                                 6
 STAT SP IPHASW D HRMM SECON CODA AMPLIT PERI AZIMU VELO AIN AR TRES W  DIS CAZ7
 LZ4  SN IP       1117 22.04                             169    0.3810 2.38  66 
 LZ4  SZ E        1117 22.07                  246.1 10.4      0        2.38  66 
 LZ4  SE IS       1117 23.24                             169    0.0510 2.38  66 
 LZ4  SZ  AML     1117 23.33        63.9 0.28                          2.38  66 
 LD5  SZ E        1117 22.83                   12.2  9.4      1        15.3 192 
 LD5  SN IP       1117 22.85                             126    0.0410 15.3 192 
 LD5  SE IS       1117 24.71                             126   -0.4710 15.3 192 
 LD5  SZ  AML     1117 25.64         2.6 0.28                          15.3 192 
                                                                                
