 2008 11 5 1729 38.8 L  21.309 -99.301  4.5  RAL  3 0.3 0.8LRAL                1
 GAP=169        4.69       3.9     4.9 30.2  0.1582E+02  0.2212E+02  0.1547E+02E
 ACTION:UPD 12-06-08 11:37 OP:RALL STATUS:               ID:20081105172938     I
 2008-11-05-1729-25S.PLUR1_009                                                 6
 STAT SP IPHASW D HRMM SECON CODA AMPLIT PERI AZIMU VELO AIN AR TRES W  DIS CAZ7
 LZ4  SZ E        1729 39.81                  242.7 10.7      9        4.11  53 
 LZ4  SN IP       1729 39.85                             143   -0.1710 4.11  53 
 LZ4  SE IS       1729 41.18                             143    0.2810 4.11  53 
 LZ4  SZ  AML     1729 41.30       219.9 0.20                          4.11  53 
 LD5  SZ E        1729 40.67                    7.9 10.9      0        13.7 188 
 LD5  SN IP       1729 40.70                             112   -0.6910 13.7 188 
 LD5  SE IS       1729 42.68                             112   -0.5910 13.7 188 
 LD5  SZ  AML     1729 43.59         7.1 0.26                          13.7 188 
 LA4  SZ E        1729 42.22                  153.4  7.8    -23        19.4 358 
 LA4  SN IP       1729 42.32                             106   -0.0210 19.4 358 
 LA4  SE IS       1729 46.11                             106    1.1910 19.4 358 
 LA4  SZ  AML     1729 47.38        21.6 0.36                          19.4 358 
                                                                                
