 2008 11 5 1430 25.0 L  21.221 -99.261 10.0  RAL  1 0.0-0.4LRAL                1
 GAP=360        0.30       3.4     5.8  0.0  0.1971E+02 -0.1707E+01 -0.1558E+01E
 ACTION:UPD 12-06-08 11:37 OP:RALL STATUS:               ID:20081105143025     I
 2008-11-05-1430-13S.PLUR1_003                                                 6
 STAT SP IPHASW D HRMM SECON CODA AMPLIT PERI AZIMU VELO AIN AR TRES W  DIS CAZ7
 LD5  SZ E        1430 27.17                   57.7 12.3      0        7.22 238 
 LD5  SN IP       1430 27.22                             144    0.0210 7.22 238 
 LD5  SE IS       1430 28.77                             144   -0.0210 7.22 238 
 LD5  SZ  AML     1430 28.82         2.0 0.10                          7.22 238 
                                                                                
