 2008 11 5 1827 44.2 L  21.693 -99.334  0.0  RAL  3 0.1 1.4LRAL                1
 GAP=352        2.13      13.6     4.1 14.9 -0.2088E+02  0.4388E+01 -0.1409E+02E
 ACTION:UPD 12-06-08 11:37 OP:RALL STATUS:               ID:20081105182744     I
 2008-11-05-1827-33S.PLUR1_009                                                 6
 STAT SP IPHASW D HRMM SECON CODA AMPLIT PERI AZIMU VELO AIN AR TRES W  DIS CAZ7
 LA4  SN IP       1827 47.79                              93   -0.4710 23.3 174 
 LA4  SZ E        1827 47.84                  355.4  8.8      2        23.3 174 
 LA4  SE IS       1827 51.05                              93   -0.1910 23.3 174 
 LA4  SZ  AML     1827 52.93       148.2 0.32                          23.3 174 
 LZ4  SN IP       1827 51.31                              91    0.0210 40.6 171 
 LZ4  SZ E        1827 51.45                  341.0  6.6     -9        40.6 171 
 LZ4  SE IS       1827 56.78                              91    0.3110 40.6 171 
 LZ4  SZ  AML     1827 58.04       111.5 0.28                          40.6 171 
 LD5  SN IP       1827 53.96                              63    0.1910 56.1 179 
 LD5  SZ E        1827 54.05                    5.2 23.2      7        56.1 179 
 LD5  SE IS       1828  0.92                              63    0.1410 56.1 179 
 LD5  SZ  AML     1828  2.06         3.0 0.24                          56.1 179 
                                                                                
