 2008 11 5 1344 55.8 L  21.221 -99.270 10.0  RAL  2 0.2 0.5LRAL                1
 GAP=233        1.09       1.1     1.3 10.9  0.1065E+01 -0.1707E+01 -0.1558E+01E
 ACTION:UPD 12-06-08 11:37 OP:RALL STATUS:               ID:20081105134455     I
 2008-11-05-1344-44S.PLUR1_006                                                 6
 STAT SP IPHASW D HRMM SECON CODA AMPLIT PERI AZIMU VELO AIN AR TRES W  DIS CAZ7
 LD5  SZ E        1344 58.20                   54.8 12.0      1        6.41 234 
 LD5  SN IP       1344 58.39                             153    0.5210 6.41 234 
 LD5  SE IS       1344 59.69                             153    0.2710 6.41 234 
 LD5  SZ  AML     1344 59.81         7.0 0.10                          6.41 234 
 LZ4  SZ E        1344 58.15                  183.1  8.6      3        12.2   0 
 LZ4  SN IP       1344 58.26                             132   -0.2210 12.2   0 
 LZ4  SE IS       1344 59.89                             132   -0.5810 12.2   0 
 LZ4  SZ  AML     1345  0.14        26.0 0.32                          12.2   0 
                                                                                
