 2008 11 5 1104 17.5 L  21.333 -99.278 10.0  RAL  1 0.1 0.5LRAL                1
 GAP=360        1.06     999.9   489.0  0.0  0.6343E+06  0.3854E-01 -0.1388E-01E
 ACTION:UPD 12-06-08 11:37 OP:RALL STATUS:               ID:20081105110417     I
 2008-11-05-1104-05S.PLUR1_003                                                 6
 STAT SP IPHASW D HRMM SECON CODA AMPLIT PERI AZIMU VELO AIN AR TRES W  DIS CAZ7
 LZ4  SZ E        11 4 19.44                  287.5 20.2      5        0.90 103 
 LZ4  SN IP       11 4 19.63                             175    0.2610 0.90 103 
 LZ4  SE IS       11 4 20.45                             175   -0.2610 0.90 103 
 LZ4  SZ  AML     11 4 20.79        17.7 0.28                          0.90 103 
                                                                                
