 2008 11 5 1826  3.6 L  21.780 -99.366 10.0  RAL  1 0.0 1.3LRAL                1
 GAP=360        0.30       3.7     1.2  0.0 -0.2560E+01  0.2212E+02  0.1547E+02E
 ACTION:UPD 12-06-08 11:37 OP:RALL STATUS:               ID:20081105182603     I
 2008-11-05-1825-59S.PLUR1_003                                                 6
 STAT SP IPHASW D HRMM SECON CODA AMPLIT PERI AZIMU VELO AIN AR TRES W  DIS CAZ7
 LA4  SN IP       1826  9.41                             102    0.0110 33.3 170 
 LA4  SZ E        1826  9.61                  349.8  8.5      0        33.3 170 
 LA4  SE IS       1826 13.59                             102   -0.0110 33.3 170 
 LA4  SZ  AML     1826 16.82        34.0 0.52                          33.3 170 
                                                                                
