 2008 11 5 1829 48.5 L  21.441 -99.293 10.0  RAL  1 0.0 0.5LRAL                1
 GAP=360        0.30       8.0     3.1  0.0 -0.2437E+02  0.4388E+01 -0.1409E+02E
 ACTION:UPD 12-06-08 11:37 OP:RALL STATUS:               ID:20081105182948     I
 2008-11-05-1829-39S.PLUR1_003                                                 6
 STAT SP IPHASW D HRMM SECON CODA AMPLIT PERI AZIMU VELO AIN AR TRES W  DIS CAZ7
 LA4  SZ E        1829 50.40                  160.4 16.9      0        5.05 340 
 LA4  SN IP       1829 50.58                             154    0.0310 5.05 340 
 LA4  SE IS       1829 52.00                             154   -0.0310 5.05 340 
 LA4  SZ  AML     1829 53.17        15.7 0.44                          5.05 340 
                                                                                
