 2008 11 5 2109 47.8 L  21.697 -99.347 10.0  RAL  1 0.0 0.7LRAL                1
 GAP=360        0.30       3.9     1.0  0.0 -0.2574E+01  0.4388E+01 -0.1409E+02E
 ACTION:UPD 12-06-08 11:37 OP:RALL STATUS:               ID:20081105210947     I
 2008-11-05-2109-40S.PLUR1_003                                                 6
 STAT SP IPHASW D HRMM SECON CODA AMPLIT PERI AZIMU VELO AIN AR TRES W  DIS CAZ7
 LA4  SZ E        21 9 52.17                  350.7  7.7      0        24.0 171 
 LA4  SN IP       21 9 52.21                             109    0.0110 24.0 171 
 LA4  SE IS       21 9 55.36                             109   -0.0110 24.0 171 
 LA4  SZ  AML     21 9 56.46        11.4 0.56                          24.0 171 
                                                                                
