 2008 11 6 0738 53.5 L  21.759 -99.487  5.1  RAL  3 0.4 1.4LRAL                1
 GAP=344        5.35     110.4    61.7248.8 -0.6604E+04 -0.1435E+05  0.2618E+05E
 ACTION:UPD 12-06-08 11:37 OP:RALL STATUS:               ID:20081106073853     I
 2008-11-06-0738-44S.PLUR1_009                                                 6
 STAT SP IPHASW D HRMM SECON CODA AMPLIT PERI AZIMU VELO AIN AR TRES W  DIS CAZ7
 LA4  SN IP        738 59.25                              63    0.0310 35.7 149 
 LA4  SZ E         738 59.26                  347.0  9.3     18        35.7 149 
 LA4  SE IS        739  2.22                              63   -1.1510 35.7 149 
 LA4  SZ  AML      739  4.48       160.9 0.28                          35.7 149 
 LZ4  SN IP        739  1.90                              63    0.0710 52.5 155 
 LZ4  SZ E         739  2.18                  320.1  7.2    -13        52.5 155 
 LZ4  SE IS        739  8.78                              63    0.8910 52.5 155 
 LZ4  SZ  AML      739 10.82        59.2 0.36                          52.5 155 
 LD5  SZ E         739  4.08                  325.9 15.3    -18        65.7 165 
 LD5  SN IP        739  4.30                              63    0.4210 65.7 165 
 LD5  SE IS        739 11.19                              63   -0.2510 65.7 165 
 LD5  SZ  AML      739 14.33         2.9 0.52                          65.7 165 
                                                                                
