 2008 11 6 0630 10.1 L  21.635 -99.328 10.0  RAL  1 0.0 0.8LRAL                1
 GAP=360        0.30       4.2     0.7  0.0 -0.2182E+01 -0.5093E+02  0.6185E+02E
 ACTION:UPD 12-06-08 11:37 OP:RALL STATUS:               ID:20081106063010     I
 2008-11-06-0630-01S.PLUR1_003                                                 6
 STAT SP IPHASW D HRMM SECON CODA AMPLIT PERI AZIMU VELO AIN AR TRES W  DIS CAZ7
 LA4  SZ E         630 13.40                  353.4  7.9      0        16.8 173 
 LA4  SN IP        630 13.43                             119    0.0210 16.8 173 
 LA4  SE IS        630 15.82                             119   -0.0210 16.8 173 
 LA4  SZ  AML      630 16.82        19.8 0.28                          16.8 173 
                                                                                
