 2008 11 6 0557 52.6 L  21.452 -99.285 22.1  RAL  2 0.8 1.7LRAL                1
 GAP=208        6.12      13.0    10.8 59.4 -0.1374E+03 -0.5093E+02  0.6185E+02E
 ACTION:UPD 12-06-08 11:37 OP:RALL STATUS:               ID:20081106055752     I
 2008-11-06-0557-41S.PLUR1_006                                                 6
 STAT SP IPHASW D HRMM SECON CODA AMPLIT PERI AZIMU VELO AIN AR TRES W  DIS CAZ7
 LA4  SZ E         557 58.37                  138.2  7.8     -6        4.33 325 
 LA4  SN IP        557 58.40                             174    2.0410 4.33 325 
 LA4  SE IS        558  0.80                             174    1.6910 4.33 325 
 LA4  SZ  AML      558  2.59        22.6 0.52                          4.33 325 
 LZ4  SN IP        557 56.29                             143   -0.5710 13.5 173 
 LZ4  SZ E         557 56.31                  332.7  7.0    -19        13.5 173 
 LZ4  SE IS        557 56.81                             143   -3.1610 13.5 173 
 LZ4  SZ  AML      557 56.91       704.9 0.80                          13.5 173 
                                                                                
