 2008 11 6 0637 50.3 L  21.312 -99.307 10.0  RAL  1 0.0 0.5LRAL                1
 GAP=360        0.32       4.8     9.6  0.0  0.4607E+02 -0.5093E+02  0.6185E+02E
 ACTION:UPD 12-06-08 11:37 OP:RALL STATUS:               ID:20081106063750     I
 2008-11-06-0637-38S.PLUR1_003                                                 6
 STAT SP IPHASW D HRMM SECON CODA AMPLIT PERI AZIMU VELO AIN AR TRES W  DIS CAZ7
 LZ4  SN IP        637 52.34                             157    0.0810 4.41  62 
 LZ4  SZ E         637 52.36                  241.7 12.7      0        4.41  62 
 LZ4  SE IS        637 53.61                             157   -0.0810 4.41  62 
 LZ4  SZ  AML      637 53.78        17.4 0.20                          4.41  62 
                                                                                
