 2008 11 6 1832 50.1 L  21.332 -99.272  2.1  RAL  3 0.1 0.7LRAL                1
 GAP=150        1.67       3.1     1.9  6.9  0.4559E+00  0.1215E+01 -0.3520E+00E
 ACTION:UPD 12-06-08 11:37 OP:RALL STATUS:               ID:20081106183250     I
 2008-11-06-1832-36S.PLUR1_009                                                 6
 STAT SP IPHASW D HRMM SECON CODA AMPLIT PERI AZIMU VELO AIN AR TRES W  DIS CAZ7
 LZ4  SN IP       1832 50.56                             174   -0.0810 0.31 112 
 LZ4  SZ E        1832 50.59                  293.6  6.9      1        0.31 112 
 LZ4  SE IS       1832 51.10                             174    0.0610 0.31 112 
 LZ4  SZ  AML     1832 51.21       408.1 0.16                          0.31 112 
 LD5  SN IP       1832 52.89                             101   -0.1910 16.8 197 
 LD5  SZ E        1832 52.94                   25.3  7.2      8        16.8 197 
 LD5  SE IS       1832 55.68                             101    0.4110 16.8 197 
 LD5  SZ  AML     1832 56.71         2.7 0.46                          16.8 197 
 LA4  SN IP       1832 52.91                             101   -0.2410 17.2 347 
 LA4  SZ E        1832 52.93                  163.3  8.8     -3        17.2 347 
 LA4  SE IS       1832 55.41                             101    0.0310 17.2 347 
 LA4  SZ  AML     1832 55.89        42.0 0.28                          17.2 347 
                                                                                
