 2008 11 6 1334 14.6 L  21.320 -99.324  9.3  RAL  2 0.1 0.8LRAL                1
 GAP=259        0.41       0.2     0.6  3.8  0.6192E-01  0.3285E+00  0.1089E+00E
 ACTION:UPD 12-06-08 11:37 OP:RALL STATUS:               ID:20081106133414     I
 2008-11-06-1334-03S.PLUR1_006                                                 6
 STAT SP IPHASW D HRMM SECON CODA AMPLIT PERI AZIMU VELO AIN AR TRES W  DIS CAZ7
 LZ4  SN IP       1334 16.80                             149    0.2110 5.74  78 
 LZ4  SZ E        1334 16.83                  257.7 12.0      0        5.74  78 
 LZ4  SE IS       1334 18.01                             149   -0.0110 5.74  78 
 LZ4  SZ  AML     1334 18.40       141.9 0.28                          5.74  78 
 LD5  SN IP       1334 17.59                             120   -0.0210 14.7 179 
 LD5  SZ E        1334 17.63                  358.8 12.6      0        14.7 179 
 LD5  SE IS       1334 19.61                             120   -0.1810 14.7 179 
 LD5  SZ  AML     1334 20.89         4.4 0.24                          14.7 179 
                                                                                
