 2008 11 6 1233 24.1 R  22.238 -99.553 10.0  RAL  1 0.0 2.0LRAL                1
 GAP=360        0.30       3.6     3.0  0.0 -0.1859E+01 -0.1435E+05  0.2618E+05E
 ACTION:UPD 12-06-08 11:37 OP:RALL STATUS:               ID:20081106123324     I
 2008-11-06-1233-29S.PLUR1_003                                                 6
 STAT SP IPHASW D HRMM SECON CODA AMPLIT PERI AZIMU VELO AIN AR TRES W  DIS CAZ7
 LZ4  SZ E        1233 40.75                  343.8  8.3      0         105 164 
 LZ4  SN IP       1233 40.80                              93    0.0010  105 164 
 LZ4  SE IS       1233 53.03                              93    0.0010  105 164 
 LZ4  SZ  AML     1234  0.66        54.1 0.48                           105 164 
                                                                                
