 2008 11 6 1501 34.7 L  21.348 -99.279 10.0  RAL  1 0.2 0.9LRAL                1
 GAP=360        0.70     665.0   999.9  0.0  0.9564E+06  0.3285E+00  0.1089E+00E
 ACTION:UPD 12-06-08 11:37 OP:RALL STATUS:               ID:20081106150134     I
 2008-11-06-1501-22S.PLUR1_003                                                 6
 STAT SP IPHASW D HRMM SECON CODA AMPLIT PERI AZIMU VELO AIN AR TRES W  DIS CAZ7
 LZ4  SN IP       15 1 37.03                             168    0.4310 2.14 152 
 LZ4  SZ E        15 1 37.05                  332.0  6.9      0        2.14 152 
 LZ4  SE IS       15 1 37.54                             168   -0.4310 2.14 152 
 LZ4  SZ  AML     15 1 37.65        48.2 0.36                          2.14 152 
                                                                                
