 2008 11 6 1333 24.1 L  21.314 -99.305 10.0  RAL  1 0.0 0.6LRAL                1
 GAP=360        0.32       4.9    10.4  0.0  0.5078E+02 -0.1435E+05  0.2618E+05E
 ACTION:UPD 12-06-08 11:37 OP:RALL STATUS:               ID:20081106133324     I
 2008-11-06-1333-12S.PLUR1_003                                                 6
 STAT SP IPHASW D HRMM SECON CODA AMPLIT PERI AZIMU VELO AIN AR TRES W  DIS CAZ7
 LZ4  SZ E        1333 26.15                  243.4 12.1      0        4.09  63 
 LZ4  SN IP       1333 26.16                             158    0.0910 4.09  63 
 LZ4  SE IS       1333 27.41                             158   -0.0910 4.09  63 
 LZ4  SZ  AML     1333 27.93        21.7 0.32                          4.09  63 
                                                                                
