 2008 11 6 2235 15.9 L  21.752 -99.304 10.0  RAL  1 0.0 0.8LRAL                1
 GAP=360        0.30       3.8     0.8  0.0  0.2371E+00  0.2724E+02 -0.1547E+02E
 ACTION:UPD 12-06-08 11:37 OP:RALL STATUS:               ID:20081106223515     I
 2008-11-06-2235-10S.PLUR1_003                                                 6
 STAT SP IPHASW D HRMM SECON CODA AMPLIT PERI AZIMU VELO AIN AR TRES W  DIS CAZ7
 LA4  SZ E        2235 21.11                    0.9  8.8      0        29.7 181 
 LA4  SN IP       2235 21.15                             104    0.0110 29.7 181 
 LA4  SE IS       2235 24.93                             104   -0.0110 29.7 181 
 LA4  SZ  AML     2235 25.53        10.9 0.28                          29.7 181 
                                                                                
