 2008 11 6 2204 35.1 L  21.618 -99.339 10.0  RAL  1 0.0 1.0LRAL                1
 GAP=360        0.30       4.2     1.0  0.0 -0.3988E+01  0.2724E+02 -0.1547E+02E
 ACTION:UPD 12-06-08 11:37 OP:RALL STATUS:               ID:20081106220435     I
 2008-11-06-2204-24S.PLUR1_003                                                 6
 STAT SP IPHASW D HRMM SECON CODA AMPLIT PERI AZIMU VELO AIN AR TRES W  DIS CAZ7
 LA4  SZ E        22 4 38.25                  348.3  9.4      0        15.2 168 
 LA4  SN IP       22 4 38.25                             122    0.0010 15.2 168 
 LA4  SZ  AML     22 4 40.44        31.1 0.24                          15.2 168 
 LA4  SE IS       22 4 40.52                             122    0.0010 15.2 168 
                                                                                
