 2008 11 6 2057 49.6 L  21.675 -99.425 10.0  RAL  1 0.0 0.8LRAL                1
 GAP=360        0.30       3.4     2.2  0.0 -0.6840E+01  0.2724E+02 -0.1547E+02E
 ACTION:UPD 12-06-08 11:37 OP:RALL STATUS:               ID:20081106205749     I
 2008-11-06-2057-42S.PLUR1_003                                                 6
 STAT SP IPHASW D HRMM SECON CODA AMPLIT PERI AZIMU VELO AIN AR TRES W  DIS CAZ7
 LA4  SZ E        2057 53.88                  330.4  9.8      0        24.4 150 
 LA4  SN IP       2057 54.01                             109    0.0010 24.4 150 
 LA4  SE IS       2057 57.23                             109    0.0010 24.4 150 
 LA4  SZ  AML     2057 57.59        13.7 0.32                          24.4 150 
                                                                                
