 2008 11 6 2019 42.1 L  21.305 -99.307 10.0  RAL  1 0.0 1.1LRAL                1
 GAP=360        0.33       5.6     8.3  0.0  0.4645E+02  0.1215E+01 -0.3520E+00E
 ACTION:UPD 12-06-08 11:37 OP:RALL STATUS:               ID:20081106201942     I
 2008-11-06-2019-29S.PLUR1_003                                                 6
 STAT SP IPHASW D HRMM SECON CODA AMPLIT PERI AZIMU VELO AIN AR TRES W  DIS CAZ7
 LZ4  SZ E        2019 44.22                  233.9 13.5      0        4.85  54 
 LZ4  SN IP       2019 44.23                             155    0.0910 4.85  54 
 LZ4  SE IS       2019 45.50                             155   -0.0910 4.85  54 
 LZ4  SZ  AML     2019 45.68        71.6 0.16                          4.85  54 
                                                                                
