 2008 11 6 2020 43.6 L  21.336 -99.270 10.0  RAL  3 0.6 1.3LRAL                1
 GAP=184        9.44      20.0    11.2 54.1  0.1386E+02  0.2724E+02 -0.1547E+02E
 ACTION:UPD 12-06-08 11:37 OP:RALL STATUS:               ID:20081106202043     I
 2008-11-06-2020-30S.PLUR1_009                                                 6
 STAT SP IPHASW D HRMM SECON CODA AMPLIT PERI AZIMU VELO AIN AR TRES W  DIS CAZ7
 LZ4  SN IP       2020 44.97                             179   -0.4910 0.52 170 
 LZ4  SZ E        2020 45.00                  296.9  7.3    -52        0.52 170 
 LZ4  SE IS       2020 45.53                             179   -1.2710 0.52 170 
 LZ4  SZ  AML     2020 46.13      2245.9 0.64                          0.52 170 
 LA4  SZ E        2020 47.32                  156.5  8.8     -9        16.9 346 
 LA4  SN IP       2020 47.42                             113    0.4510 16.9 346 
 LA4  SE IS       2020 49.82                             113    0.4110 16.9 346 
 LA4  SZ  AML     2020 50.30        52.2 0.28                          16.9 346 
 LD5  SZ E        2020 47.34                   16.7 12.9      0        17.3 197 
 LD5  SN IP       2020 47.36                             113    0.3410 17.3 197 
 LD5  SE IS       2020 50.07                             113    0.5810 17.3 197 
 LD5  SZ  AML     2020 51.14         3.8 0.58                          17.3 197 
                                                                                
