 2008 11 7 0316 57.8 L  21.558 -99.308 10.0  RAL  1 0.0 0.8LRAL                1
 GAP=360        0.30       5.8     0.3  0.0  0.6372E+00  0.2724E+02 -0.1547E+02E
 ACTION:UPD 12-06-08 11:37 OP:RALL STATUS:               ID:20081107031657     I
 2008-11-07-0316-47S.PLUR1_003                                                 6
 STAT SP IPHASW D HRMM SECON CODA AMPLIT PERI AZIMU VELO AIN AR TRES W  DIS CAZ7
 LA4  SN IP        317  0.13                             141    0.0010 8.23 181 
 LA4  SZ E         317  0.15                    1.0  8.1      0        8.23 181 
 LA4  SE IS        317  1.80                             141    0.0010 8.23 181 
 LA4  SZ  AML      317  2.41        25.1 0.16                          8.23 181 
                                                                                
