 2008 11 7 0147 37.1 L  22.007 -99.337 10.0  RAL  1 0.0 1.1LRAL                1
 GAP=360        0.30       3.7     1.6  0.0 -0.6332E+00  0.2724E+02 -0.1547E+02E
 ACTION:UPD 12-06-08 11:37 OP:RALL STATUS:               ID:20081107014737     I
 2008-11-07-0147-39S.PLUR1_003                                                 6
 STAT SP IPHASW D HRMM SECON CODA AMPLIT PERI AZIMU VELO AIN AR TRES W  DIS CAZ7
 LA4  SZ E         147 46.64                  357.1  7.9      0        58.0 177 
 LA4  SN IP        147 46.69                              96    0.0110 58.0 177 
 LA4  SE IS        147 53.64                              96   -0.0110 58.0 177 
 LA4  SZ  AML      147 57.47        13.3 0.76                          58.0 177 
                                                                                
