 2008 11 7 0002 48.7 L  21.541 -99.316 10.0  RAL  1 0.0 0.1LRAL                1
 GAP=360        0.30       7.0     0.9  0.0 -0.6100E+01  0.2724E+02 -0.1547E+02E
 ACTION:UPD 12-06-08 11:37 OP:RALL STATUS:               ID:20081107000248     I
 2008-11-07-0002-38S.PLUR1_003                                                 6
 STAT SP IPHASW D HRMM SECON CODA AMPLIT PERI AZIMU VELO AIN AR TRES W  DIS CAZ7
 LA4  SZ E         0 2 50.76                  353.3  9.2      0        6.36 173 
 LA4  SN IP        0 2 50.81                             148    0.0110 6.36 173 
 LA4  SE IS        0 2 52.34                             148   -0.0110 6.36 173 
 LA4  SZ  AML      0 2 53.07         6.5 0.16                          6.36 173 
                                                                                
