 2008 11 7 1715 22.4 L  21.222 -99.281 10.0  RAL  1 0.0 0.1LRAL                1
 GAP=360        0.31       5.5     6.2  0.0  0.3409E+02  0.2724E+02 -0.1547E+02E
 ACTION:UPD 12-06-08 11:37 OP:RALL STATUS:               ID:20081107171522     I
 2008-11-07-1715-11S.PLUR1_003                                                 6
 STAT SP IPHASW D HRMM SECON CODA AMPLIT PERI AZIMU VELO AIN AR TRES W  DIS CAZ7
 LD5  SN IP       1715 24.53                             151    0.0710 5.68 226 
 LD5  SZ E        1715 24.79                   46.2 10.5      0        5.68 226 
 LD5  SE IS       1715 25.90                             151   -0.0710 5.68 226 
 LD5  SZ  AML     1715 27.01         6.5 0.32                          5.68 226 
                                                                                
