 2008 11 7 1952 44.2 L  21.822 -99.390 10.0  RAL  1 0.0 1.4LRAL                1
 GAP=360        0.30       3.7     1.4  0.0 -0.3022E+01  0.2724E+02 -0.1547E+02E
 ACTION:UPD 12-06-08 11:37 OP:RALL STATUS:               ID:20081107195244     I
 2008-11-07-1952-42S.PLUR1_003                                                 6
 STAT SP IPHASW D HRMM SECON CODA AMPLIT PERI AZIMU VELO AIN AR TRES W  DIS CAZ7
 LA4  SN IP       1952 50.70                             100    0.0110 38.4 167 
 LA4  SZ E        1952 50.99                  347.4 11.0      0        38.4 167 
 LA4  SE IS       1952 55.45                             100   -0.0110 38.4 167 
 LA4  SZ  AML     1953  0.27        34.8 0.52                          38.4 167 
                                                                                
