 2008 11 7 1520  6.6 L  21.687 -99.314 10.0  RAL  1 0.0 0.8LRAL                1
 GAP=360        0.30       4.0     0.6  0.0 -0.3456E+00  0.2724E+02 -0.1547E+02E
 ACTION:UPD 12-06-08 11:37 OP:RALL STATUS:               ID:20081107152006     I
 2008-11-07-1519-57S.PLUR1_003                                                 6
 STAT SP IPHASW D HRMM SECON CODA AMPLIT PERI AZIMU VELO AIN AR TRES W  DIS CAZ7
 LA4  SN IP       1520 10.74                             110    0.0110 22.5 179 
 LA4  SZ E        1520 10.85                  358.8  8.2      0        22.5 179 
 LA4  SE IS       1520 13.74                             110   -0.0110 22.5 179 
 LA4  SZ  AML     1520 13.82        15.2 0.24                          22.5 179 
                                                                                
