 2008 11 7 2013 33.6 L  21.674 -99.345 10.0  RAL  1 0.0 1.7LRAL                1
 GAP=360        0.30       3.9     0.9  0.0 -0.2858E+01  0.2724E+02 -0.1547E+02E
 ACTION:UPD 12-06-08 11:37 OP:RALL STATUS:               ID:20081107201333     I
 2008-11-07-2013-23S.PLUR1_003                                                 6
 STAT SP IPHASW D HRMM SECON CODA AMPLIT PERI AZIMU VELO AIN AR TRES W  DIS CAZ7
 LA4  SN IP       2013 37.60                             112    0.0210 21.4 170 
 LA4  SZ E        2013 37.64                  350.1  9.1      0        21.4 170 
 LA4  SE IS       2013 40.47                             112   -0.0210 21.4 170 
 LA4  SZ  AML     2013 42.37       116.9 0.52                          21.4 170 
                                                                                
