 2008 11 8 0218 52.5 L  21.434 -99.293 10.0  RAL  1 0.0 1.2LRAL                1
 GAP=360        0.30       4.7     1.1  0.0 -0.4994E+01  0.2724E+02 -0.1547E+02E
 ACTION:UPD 12-06-08 11:37 OP:RALL STATUS:               ID:20081108021852     I
 2008-11-08-0218-40S.PLUR1_003                                                 6
 STAT SP IPHASW D HRMM SECON CODA AMPLIT PERI AZIMU VELO AIN AR TRES W  DIS CAZ7
 LZ4  SN IP        218 55.16                             130    0.0010 11.6 168 
 LZ4  SZ E         218 55.19                  348.1  8.2      0        11.6 168 
 LZ4  SE IS        218 57.09                             130    0.0010 11.6 168 
 LZ4  SZ  AML      218 58.29        56.1 0.20                          11.6 168 
                                                                                
