 2008 11 8 0511  6.4 L  21.232 -99.295 10.0  RAL  1 0.0 0.0LRAL                1
 GAP=360        0.30       6.9     3.8  0.0  0.2647E+02  0.2724E+02 -0.1547E+02E
 ACTION:UPD 12-06-08 11:37 OP:RALL STATUS:               ID:20081108051106     I
 2008-11-08-0510-55S.PLUR1_003                                                 6
 STAT SP IPHASW D HRMM SECON CODA AMPLIT PERI AZIMU VELO AIN AR TRES W  DIS CAZ7
 LD5  SZ E         511  8.47                   27.3  9.4      0        5.63 207 
 LD5  SN IP        511  8.53                             151    0.0410 5.63 207 
 LD5  SE IS        511  9.95                             151   -0.0410 5.63 207 
 LD5  SZ  AML      511 10.29         5.3 0.20                          5.63 207 
                                                                                
