 2008 11 8 0254  6.0 L  21.429 -99.318 10.0  RAL  1 0.0 1.4LRAL                1
 GAP=360        0.30       4.3     2.2  0.0 -0.9193E+01  0.2724E+02 -0.1547E+02E
 ACTION:UPD 12-06-08 11:37 OP:RALL STATUS:               ID:20081108025406     I
 2008-11-08-0253-54S.PLUR1_003                                                 6
 STAT SP IPHASW D HRMM SECON CODA AMPLIT PERI AZIMU VELO AIN AR TRES W  DIS CAZ7
 LZ4  SZ E         254  8.64                  335.3  7.0      0        12.0 155 
 LZ4  SN IP        254  8.66                             129    0.0110 12.0 155 
 LZ4  SE IS        254 10.60                             129   -0.0110 12.0 155 
 LZ4  SZ  AML      254 11.92       102.8 0.56                          12.0 155 
                                                                                
