 2008 11 8 1041 59.2 L  21.384 -99.318 10.0  RAL  1 0.0 1.0LRAL                1
 GAP=360        0.30       4.6     4.3  0.0 -0.1980E+02  0.2724E+02 -0.1547E+02E
 ACTION:UPD 12-06-08 11:37 OP:RALL STATUS:               ID:20081108104159     I
 2008-11-08-1041-47S.PLUR1_003                                                 6
 STAT SP IPHASW D HRMM SECON CODA AMPLIT PERI AZIMU VELO AIN AR TRES W  DIS CAZ7
 LZ4  SN IP       1042  1.50                             142    0.0210 7.71 139 
 LZ4  SZ E        1042  1.51                  319.4 11.7      0        7.71 139 
 LZ4  SE IS       1042  3.08                             142   -0.0210 7.71 139 
 LZ4  SZ  AML     1042  5.52        44.8 0.24                          7.71 139 
                                                                                
