 2008 11 8 1837 43.2 L  21.316 -99.236  7.4  RAL  3 0.3 0.6LRAL                1
 GAP=234        2.24       4.1     3.1 13.2  0.2364E+01 -0.9963E+00  0.2593E+00E
 ACTION:UPD 12-06-08 11:37 OP:RALL STATUS:               ID:20081108183743     I
 2008-11-08-1837-30S.PLUR1_009                                                 6
 STAT SP IPHASW D HRMM SECON CODA AMPLIT PERI AZIMU VELO AIN AR TRES W  DIS CAZ7
 LZ4  SN IP       1837 44.93                             153    0.1510 3.85 295 
 LZ4  SZ E        1837 44.94                                           3.85 295 
 LZ4  SE IS       1837 45.96                             153    0.0310 3.85 295 
 LZ4  SZ  AML     1837 46.36       101.0 0.36                          3.85 295 
 LD5  SN IP       1837 45.64                             108   -0.7410 16.8 211 
 LD5  SZ E        1837 45.66                   25.9 12.9     -4        16.8 211 
 LD5  SE IS       1837 47.68                             108   -1.0010 16.8 211 
 LD5  SZ  AML     1837 48.02         2.8 0.14                          16.8 211 
 LA4  SZ E        1837 47.08                  151.4  9.0     -5        20.0 338 
 LA4  SN IP       1837 47.21                             104    0.3410 20.0 338 
 LA4  SE IS       1837 50.76                             104    1.2310 20.0 338 
 LA4  SZ  AML     1837 52.21        11.5 0.56                          20.0 338 
                                                                                
