 2008 11 8 2305 29.4 L  21.224 -99.223 10.0  RAL  1 0.0 1.0LRAL                1
 GAP=360        0.30       3.7     1.5  0.0 -0.4236E+01 -0.9963E+00  0.2593E+00E
 ACTION:UPD 12-06-08 11:37 OP:RALL STATUS:               ID:20081108230529     I
 2008-11-08-2305-24S.PLUR1_003                                                 6
 STAT SP IPHASW D HRMM SECON CODA AMPLIT PERI AZIMU VELO AIN AR TRES W  DIS CAZ7
 LA4  SZ E        23 5 34.69                  162.8  9.5      0        30.1 343 
 LA4  SN IP       23 5 34.71                             104    0.0110 30.1 343 
 LA4  SE IS       23 5 38.53                             104   -0.0110 30.1 343 
 LA4  SZ  AML     23 5 40.01        19.0 0.44                          30.1 343 
                                                                                
