 2008 11 8 2328  0.0 L  21.305 -99.303 10.0  RAL  1 0.0 0.6LRAL                1
 GAP=360        0.33       6.5     8.5  0.0  0.5537E+02 -0.9963E+00  0.2593E+00E
 ACTION:UPD 12-06-08 11:37 OP:RALL STATUS:               ID:20081108232800     I
 2008-11-08-2327-49S.PLUR1_003                                                 6
 STAT SP IPHASW D HRMM SECON CODA AMPLIT PERI AZIMU VELO AIN AR TRES W  DIS CAZ7
 LZ4  SN IP       2328  2.12                             156    0.1010 4.53  51 
 LZ4  SZ E        2328  2.16                  230.6 17.2      0        4.53  51 
 LZ4  SE IS       2328  3.36                             156   -0.1010 4.53  51 
 LZ4  SZ  AML     2328  3.80        21.8 0.48                          4.53  51 
                                                                                
