 2008 11 9 0725 27.7 L  21.786 -99.310 10.0  RAL  1 0.0 0.9LRAL                1
 GAP=360        0.30       3.8     0.9  0.0 -0.2519E-01 -0.9963E+00  0.2593E+00E
 ACTION:UPD 12-06-08 11:37 OP:RALL STATUS:               ID:20081109072527     I
 2008-11-09-0725-23S.PLUR1_003                                                 6
 STAT SP IPHASW D HRMM SECON CODA AMPLIT PERI AZIMU VELO AIN AR TRES W  DIS CAZ7
 LA4  SN EP        725 33.47                             102    0.0110 33.5 180 
 LA4  SZ E         725 33.51                  359.9  9.1      0        33.5 180 
 LA4  SE IS        725 37.67                             102   -0.0110 33.5 180 
 LA4  SZ  AML      725 37.69        12.9 0.44                          33.5 180 
                                                                                
