 2008 11 9 0539 31.2 L  21.292 -99.279 10.0  RAL  1 0.0 0.7LRAL                1
 GAP=360        0.30       9.1     2.2  0.0  0.2035E+02 -0.9963E+00  0.2593E+00E
 ACTION:UPD 12-06-08 11:37 OP:RALL STATUS:               ID:20081109053931     I
 2008-11-09-0539-20S.PLUR1_003                                                 6
 STAT SP IPHASW D HRMM SECON CODA AMPLIT PERI AZIMU VELO AIN AR TRES W  DIS CAZ7
 LZ4  SN IP        539 33.17                             156    0.0210 4.46  13 
 LZ4  SZ E         539 33.27                  193.0 11.2      0        4.46  13 
 LZ4  SE IS        539 34.57                             156   -0.0210 4.46  13 
 LZ4  SZ  AML      539 35.33        26.4 0.52                          4.46  13 
                                                                                
