 2008 11 9 0914 56.6 L  21.480 -99.317 10.0  RAL  1 0.2 0.0LRAL                1
 GAP=360        2.66     160.3   338.4  0.0  0.5425E+05 -0.9963E+00  0.2593E+00E
 ACTION:UPD 12-06-08 11:37 OP:RALL STATUS:               ID:20081109091456     I
 2008-11-09-0914-44S.PLUR1_003                                                 6
 STAT SP IPHASW D HRMM SECON CODA AMPLIT PERI AZIMU VELO AIN AR TRES W  DIS CAZ7
 LA4  SN IP        914 58.79                             175    0.3810 0.98  63 
 LA4  SZ E         914 58.80                  255.4 15.2     12        0.98  63 
 LA4  SE IS        914 59.38                             175   -0.3810 0.98  63 
 LA4  SZ  AML      914 59.89         6.3 0.52                          0.98  63 
                                                                                
