 2008 11 9 1623 46.9 L  21.684 -99.408 10.0  RAL  1 0.0 1.7LRAL                1
 GAP=360        0.30       3.5     1.8  0.0 -0.4490E+01 -0.2915E+06  0.6169E+06E
 ACTION:UPD 12-06-08 11:37 OP:RALL STATUS:               ID:20081109162346     I
 2008-11-09-1623-40S.PLUR1_003                                                 6
 STAT SP IPHASW D HRMM SECON CODA AMPLIT PERI AZIMU VELO AIN AR TRES W  DIS CAZ7
 LZ4  SN IP       1623 53.96                              99    0.0110 41.7 160 
 LZ4  SZ E        1623 54.03                  339.9  8.3      0        41.7 160 
 LZ4  SE IS       1623 59.06                              99   -0.0110 41.7 160 
 LZ4  SZ  AML     1624  2.36        74.1 0.56                          41.7 160 
                                                                                
