 2008 11 9 1043 39.8 L  21.626 -99.391 10.0  RAL  1 0.0 0.4LRAL                1
 GAP=360        0.30       3.6     2.2  0.0 -0.7613E+01 -0.2915E+06  0.6169E+06E
 ACTION:UPD 12-06-08 11:37 OP:RALL STATUS:               ID:20081109104339     I
 2008-11-09-1043-32S.PLUR1_003                                                 6
 STAT SP IPHASW D HRMM SECON CODA AMPLIT PERI AZIMU VELO AIN AR TRES W  DIS CAZ7
 LA4  SZ E        1043 43.13                  331.6 10.6      0        17.9 152 
 LA4  SN IP       1043 43.27                             117    0.0010 17.9 152 
 LA4  SE IS       1043 45.80                             117    0.0010 17.9 152 
 LA4  SZ  AML     1043 46.05         7.5 0.28                          17.9 152 
                                                                                
