 2008 11 9 1943 45.2 L  21.575 -99.317 10.0  RAL  1 0.0 0.5LRAL                1
 GAP=360        0.30       5.1     0.5  0.0 -0.2183E+01 -0.2915E+06  0.6169E+06E
 ACTION:UPD 12-06-08 11:37 OP:RALL STATUS:               ID:20081109194345     I
 2008-11-09-1943-34S.PLUR1_003                                                 6
 STAT SP IPHASW D HRMM SECON CODA AMPLIT PERI AZIMU VELO AIN AR TRES W  DIS CAZ7
 LA4  SN IP       1943 47.72                             134    0.0010 10.2 176 
 LA4  SZ E        1943 47.84                  355.6  8.8      0        10.2 176 
 LA4  SE IS       1943 49.54                             134    0.0010 10.2 176 
 LA4  SZ  AML     1943 50.85        13.8 0.32                          10.2 176 
                                                                                
