 2008 11 9 1036 17.8 L  21.786 -99.459  5.1  RAL  2 0.4 1.3LRAL                1
 GAP=356        6.47     540.7   256.0999.9 -0.1380E+06 -0.2915E+06  0.6169E+06E
 ACTION:UPD 12-06-08 11:37 OP:RALL STATUS:               ID:20081109103617     I
 2008-11-09-1036-11S.PLUR1_006                                                 6
 STAT SP IPHASW D HRMM SECON CODA AMPLIT PERI AZIMU VELO AIN AR TRES W  DIS CAZ7
 LA4  SN IP       1036 23.71                              63    0.0110 36.9 155 
 LA4  SZ E        1036 23.93                  352.8  9.0     18        36.9 155 
 LA4  SE IS       1036 27.64                              63   -0.3510 36.9 155 
 LA4  SZ  AML     1036 27.64        22.9 0.20                          36.9 155 
 LZ4  SN IP       1036 26.70                              63    0.3310 54.1 159 
 LZ4  SZ E        1036 27.10                  312.6 12.7    -25        54.1 159 
 LZ4  SE IS       1036 32.61                              63    0.0110 54.1 159 
 LZ4  SZ  AML     1036 36.10        28.3 0.28                          54.1 159 
                                                                                
