 2008 11 9 1445 57.7 L  21.711 -99.334 10.0  RAL  1 0.0 1.3LRAL                1
 GAP=360        0.30       3.7     1.3  0.0 -0.2134E+01 -0.2915E+06  0.6169E+06E
 ACTION:UPD 12-06-08 11:37 OP:RALL STATUS:               ID:20081109144557     I
 2008-11-09-1445-55S.PLUR1_003                                                 6
 STAT SP IPHASW D HRMM SECON CODA AMPLIT PERI AZIMU VELO AIN AR TRES W  DIS CAZ7
 LZ4  SN IP       1446  4.89                              99    0.0110 42.7 171 
 LZ4  SZ E        1446  4.90                  351.0 12.1      0        42.7 171 
 LZ4  SE IS       1446 10.11                              99   -0.0110 42.7 171 
 LZ4  SZ  AML     1446 13.19        27.2 0.56                          42.7 171 
                                                                                
