 2008 11 9 1900  3.8 L  21.712 -99.381 10.0  RAL  1 0.0 0.7LRAL                1
 GAP=360        0.30       3.7     1.4  0.0 -0.4272E+01 -0.2915E+06  0.6169E+06E
 ACTION:UPD 12-06-08 11:37 OP:RALL STATUS:               ID:20081109190003     I
 2008-11-09-1859-57S.PLUR1_003                                                 6
 STAT SP IPHASW D HRMM SECON CODA AMPLIT PERI AZIMU VELO AIN AR TRES W  DIS CAZ7
 LA4  SZ E        19 0  8.07                  343.5 10.1      0        26.3 163 
 LA4  SN IP       19 0  8.56                             107    0.0210 26.3 163 
 LA4  SE IS       19 0 11.96                             107   -0.0210 26.3 163 
 LA4  SZ  AML     19 0 14.08        11.6 0.36                          26.3 163 
                                                                                
