 2008 11 9 1823 44.7 L  21.729 -99.375 10.0  RAL  1 0.0 0.7LRAL                1
 GAP=360        0.30       3.7     1.3  0.0 -0.3610E+01 -0.2915E+06  0.6169E+06E
 ACTION:UPD 12-06-08 11:37 OP:RALL STATUS:               ID:20081109182344     I
 2008-11-09-1823-38S.PLUR1_003                                                 6
 STAT SP IPHASW D HRMM SECON CODA AMPLIT PERI AZIMU VELO AIN AR TRES W  DIS CAZ7
 LA4  SZ E        1823 49.53                  346.0  9.0      0        28.0 166 
 LA4  SN IP       1823 49.67                             106    0.0110 28.0 166 
 LA4  SZ  AML     1823 53.09         9.0 0.32                          28.0 166 
 LA4  SE IS       1823 53.26                             106   -0.0110 28.0 166 
                                                                                
