 2008 11 9 2105 36.6 L  21.332 -99.283 10.0  RAL  1 0.1 1.3LRAL                1
 GAP=360        0.82     955.9   169.4  0.0  0.1619E+06 -0.2915E+06  0.6169E+06E
 ACTION:UPD 12-06-08 11:37 OP:RALL STATUS:               ID:20081109210536     I
 2008-11-09-2105-23S.PLUR1_003                                                 6
 STAT SP IPHASW D HRMM SECON CODA AMPLIT PERI AZIMU VELO AIN AR TRES W  DIS CAZ7
 LZ4  SZ E        21 5 38.60                  278.4  7.3      3        1.43  95 
 LZ4  SN IP       21 5 38.62                             172    0.1710 1.43  95 
 LZ4  SE IS       21 5 39.63                             172   -0.1710 1.43  95 
 LZ4  SZ  AML     21 5 39.84       113.5 0.40                          1.43  95 
                                                                                
