 2008 1110 0022 14.7 L  21.600 -99.440 10.0  RAL  1 0.0 0.6LRAL                1
 GAP=360        0.30       2.8     3.2  0.0 -0.8871E+01 -0.2915E+06  0.6169E+06E
 ACTION:UPD 12-06-08 11:37 OP:RALL STATUS:               ID:20081110002214     I
 2008-11-10-0022-06S.PLUR1_003                                                 6
 STAT SP IPHASW D HRMM SECON CODA AMPLIT PERI AZIMU VELO AIN AR TRES W  DIS CAZ7
 LA4  SZ E         022 18.33                  313.5  9.7      0        18.7 133 
 LA4  SN IP        022 18.34                             115    0.0110 18.7 133 
 LA4  SZ  AML      022 20.26        10.6 0.32                          18.7 133 
 LA4  SE IS        022 20.95                             115   -0.0110 18.7 133 
                                                                                
