 2008 1110 0752 42.1 L  21.649 -99.359 10.0  RAL  1 0.0 0.3LRAL                1
 GAP=360        0.30       4.0     1.3  0.0 -0.4642E+01 -0.2915E+06  0.6169E+06E
 ACTION:UPD 12-06-08 11:37 OP:RALL STATUS:               ID:20081110075242     I
 2008-11-10-0752-34S.PLUR1_003                                                 6
 STAT SP IPHASW D HRMM SECON CODA AMPLIT PERI AZIMU VELO AIN AR TRES W  DIS CAZ7
 LA4  SN IP        752 45.74                             115    0.0310 19.1 164 
 LA4  SZ E         752 45.91                  344.4 10.2      0        19.1 164 
 LA4  SE IS        752 48.35                             115   -0.0310 19.1 164 
 LA4  SZ  AML      752 48.79         5.8 0.28                          19.1 164 
                                                                                
