 2008 1110 0714 37.9 L  21.630 -99.357 10.0  RAL  1 0.0 0.5LRAL                1
 GAP=360        0.30       4.0     1.4  0.0 -0.5217E+01 -0.2915E+06  0.6169E+06E
 ACTION:UPD 12-06-08 11:37 OP:RALL STATUS:               ID:20081110071437     I
 2008-11-10-0714-29S.PLUR1_003                                                 6
 STAT SP IPHASW D HRMM SECON CODA AMPLIT PERI AZIMU VELO AIN AR TRES W  DIS CAZ7
 LA4  SZ E         714 41.14                  343.1 13.1      0        16.9 163 
 LA4  SN EP        714 41.21                             118    0.0010 16.9 163 
 LA4  SE IS        714 43.65                             118    0.0010 16.9 163 
 LA4  SZ  AML      714 46.04         9.5 0.52                          16.9 163 
                                                                                
