 2008 1110 0006  3.5 L  21.309 -99.290 10.0  RAL  1 0.1 0.8LRAL                1
 GAP=360        0.58      18.3    17.4  0.0  0.3188E+03 -0.2915E+06  0.6169E+06E
 ACTION:UPD 12-06-08 11:37 OP:RALL STATUS:               ID:20081110000603     I
 2008-11-10-0005-51S.PLUR1_003                                                 6
 STAT SP IPHASW D HRMM SECON CODA AMPLIT PERI AZIMU VELO AIN AR TRES W  DIS CAZ7
 LZ4  SZ E         0 6  5.66                  221.5 25.2      0        3.17  41 
 LZ4  SN IP        0 6  5.78                             163    0.3410 3.17  41 
 LZ4  SE IS        0 6  6.50                             163   -0.3410 3.17  41 
 LZ4  SZ  AML      0 6  7.68        32.4 0.24                          3.17  41 
                                                                                
