 2008 1110 0355 14.4 L  21.322 -99.252 10.0  RAL  1 0.2 0.6LRAL                1
 GAP=360        0.69      20.4    42.2  0.0 -0.8617E+03 -0.2915E+06  0.6169E+06E
 ACTION:UPD 12-06-08 11:37 OP:RALL STATUS:               ID:20081110035514     I
 2008-11-10-0355-02S.PLUR1_003                                                 6
 STAT SP IPHASW D HRMM SECON CODA AMPLIT PERI AZIMU VELO AIN AR TRES W  DIS CAZ7
 LZ4  SN IP        355 16.69                             169    0.4210 2.06 297 
 LZ4  SZ E         355 16.70                  117.4 12.9      0        2.06 297 
 LZ4  SE IS        355 17.20                             169   -0.4210 2.06 297 
 LZ4  SZ  AML      355 17.50        19.9 0.68                          2.06 297 
                                                                                
