 2008 1110 1406 13.6 L  21.338 -99.290 10.0  RAL  1 0.1 1.5LRAL                1
 GAP=360        0.43     855.8   344.2  0.0  0.2946E+06  0.8113E+01 -0.1049E+02E
 ACTION:UPD 12-06-08 11:37 OP:RALL STATUS:               ID:20081110140613     I
 2008-11-10-1406-00S.PLUR1_003                                                 6
 STAT SP IPHASW D HRMM SECON CODA AMPLIT PERI AZIMU VELO AIN AR TRES W  DIS CAZ7
 LZ4  SZ E        14 6 15.56                  289.0  7.9      0        2.28 109 
 LZ4  SN IP       14 6 15.64                             168    0.2110 2.28 109 
 LZ4  SE IS       14 6 16.59                             168   -0.2110 2.28 109 
 LZ4  SZ  AML     14 6 16.74       191.0 0.16                          2.28 109 
                                                                                
