 2008 1110 1721  5.0 L  21.011 -99.051 10.0  RAL  4 1.1 1.7LRAL                1
 GAP=332       18.46      77.0    86.5631.6 -0.5862E+04 -0.2307E+05  0.1855E+05E
 ACTION:UPD 12-06-08 11:37 OP:RALL STATUS:               ID:20081110172105     I
 2008-11-10-1720-55S.PLUR1_012                                                 6
 STAT SP IPHASW D HRMM SECON CODA AMPLIT PERI AZIMU VELO AIN AR TRES W  DIS CAZ7
 LO8  SN IP       1721 10.15                             100    0.8110 23.5 315 
 LO8  SZ E        1721 10.16                   49.2  9.1    -84        23.5 315 
 LO8  SE IS       1721 12.52                             100    0.0310 23.5 315 
 LO8  SZ  AML     1721 14.04        41.3 0.64                          23.5 315 
 LD5  SZ E        1721  9.97                  204.0 21.3     79        34.0 305 
 LD5  SN IP       1721 10.03                              95   -0.8510 34.0 305 
 LD5  SE IS       1721 12.23                              95   -2.9310 34.0 305 
 LD5  SZ  AML     1721 15.17        43.9 0.52                          34.0 305 
 LZ4  SN IP       1721 12.63                              94    0.5210 42.1 327 
 LZ4  SZ E        1721 12.70                  174.0 12.1     27        42.1 327 
 LZ4  SE IS       1721 18.17                              94    0.8910 42.1 327 
 LZ4  SZ  AML     1721 18.60       387.0 0.52                          42.1 327 
 LA4  SZ E        1721 15.65                  160.1  9.7      7        58.8 333 
 LA4  SN IP       1721 15.88                              93    1.1910 58.8 333 
 LA4  SE IS       1721 22.10                              93    0.3510 58.8 333 
 LA4  SZ  AML     1721 25.15        60.3 0.48                          58.8 333 
                                                                                
