 2008 1110 1202 32.8 L  21.482 -99.320 10.0  RAL  1 0.0 0.2LRAL                1
 GAP=360        0.65     999.9   165.3  0.0 -0.2935E+06  0.8113E+01 -0.1049E+02E
 ACTION:UPD 12-06-08 11:37 OP:RALL STATUS:               ID:20081110120232     I
 2008-11-10-1202-21S.PLUR1_003                                                 6
 STAT SP IPHASW D HRMM SECON CODA AMPLIT PERI AZIMU VELO AIN AR TRES W  DIS CAZ7
 LA4  SZ E        12 2 34.68                  265.4 12.8      3        1.15  83 
 LA4  SN IP       12 2 34.74                             174    0.0510 1.15  83 
 LA4  SE IS       12 2 35.99                             174   -0.0510 1.15  83 
 LA4  SZ  AML     12 2 36.24         9.8 0.28                          1.15  83 
                                                                                
