 2008 1110 1943 14.5 L  21.759 -99.292 10.0  RAL  1 0.0 1.0LRAL                1
 GAP=360        0.30       3.8     0.9  0.0  0.8620E+00 -0.2307E+05  0.1855E+05E
 ACTION:UPD 12-06-08 11:37 OP:RALL STATUS:               ID:20081110194314     I
 2008-11-10-1943-08S.PLUR1_003                                                 6
 STAT SP IPHASW D HRMM SECON CODA AMPLIT PERI AZIMU VELO AIN AR TRES W  DIS CAZ7
 LA4  SZ E        1943 19.74                    3.3  7.9      0        30.5 183 
 LA4  SN IP       1943 19.83                             104    0.0110 30.5 183 
 LA4  SE IS       1943 23.70                             104   -0.0110 30.5 183 
 LA4  SZ  AML     1943 26.16        18.8 0.36                          30.5 183 
                                                                                
