 2008 1110 1434 23.8 L  21.244 -99.285  7.9  RAL  2 0.1 0.9LRAL                1
 GAP=200        0.47       1.0     0.5  6.0  0.3906E+00 -0.5369E+00 -0.1196E+01E
 ACTION:UPD 12-06-08 11:37 OP:RALL STATUS:               ID:20081110143423     I
 2008-11-10-1434-11S.PLUR1_006                                                 6
 STAT SP IPHASW D HRMM SECON CODA AMPLIT PERI AZIMU VELO AIN AR TRES W  DIS CAZ7
 LD5  SZ E        1434 25.93                   30.3  8.6      1        7.37 210 
 LD5  SN IP       1434 25.94                             137    0.1410 7.37 210 
 LD5  SE IS       1434 27.33                             137    0.1110 7.37 210 
 LD5  SZ  AML     1434 27.77        12.8 0.10                          7.37 210 
 LZ4  SZ E        1434 26.00                  190.6 10.7      1        9.70  10 
 LZ4  SN IP       1434 26.01                             128   -0.0610 9.70  10 
 LZ4  SE IS       1434 27.50                             128   -0.1910 9.70  10 
 LZ4  SZ  AML     1434 28.20       102.4 0.68                          9.70  10 
                                                                                
