 2008 1110 1030 59.5 L  21.731 -99.394  0.0  RAL  2 0.2 1.5LRAL                1
 GAP=358        4.22      32.7    14.4 33.4 -0.3332E+03  0.8113E+01 -0.1049E+02E
 ACTION:UPD 12-06-08 11:37 OP:RALL STATUS:               ID:20081110103059     I
 2008-11-10-1030-51S.PLUR1_006                                                 6
 STAT SP IPHASW D HRMM SECON CODA AMPLIT PERI AZIMU VELO AIN AR TRES W  DIS CAZ7
 LA4  SN IP       1031  4.36                              92   -0.1810 28.8 162 
 LA4  SZ E        1031  4.52                  353.1  7.9     11        28.8 162 
 LA4  SE IS       1031  8.20                              92   -0.0210 28.8 162 
 LA4  SZ  AML     1031  8.48        66.3 0.32                          28.8 162 
 LZ4  SZ E        1031  7.88                  326.4  8.6    -16        46.1 164 
 LZ4  SN IP       1031  7.91                              63    0.3610 46.1 164 
 LZ4  SE IS       1031 13.27                              63   -0.1610 46.1 164 
 LZ4  SZ  AML     1031 14.42        34.2 0.36                          46.1 164 
                                                                                
