 2008 1110 1125 29.1 L  21.723 -99.458 10.0  RAL  1 0.0 1.0LRAL                1
 GAP=360        0.30       3.3     2.2  0.0 -0.6551E+01  0.8113E+01 -0.1049E+02E
 ACTION:UPD 12-06-08 11:37 OP:RALL STATUS:               ID:20081110112529     I
 2008-11-10-1125-24S.PLUR1_003                                                 6
 STAT SP IPHASW D HRMM SECON CODA AMPLIT PERI AZIMU VELO AIN AR TRES W  DIS CAZ7
 LA4  SZ E        1125 34.44                  329.9 10.0      0        30.6 150 
 LA4  SN IP       1125 34.45                             104    0.0210 30.6 150 
 LA4  SE IS       1125 38.31                             104   -0.0210 30.6 150 
 LA4  SZ  AML     1125 39.76        17.3 0.80                          30.6 150 
                                                                                
