 2008 1111 0836 40.0 L  21.330 -99.277 10.0  RAL  3 0.4 0.7LRAL                1
 GAP=153        6.10      13.9     7.0 38.1  0.8927E+01  0.1336E+02 -0.9477E+01E
 ACTION:UPD 12-06-08 11:37 OP:RALL STATUS:               ID:20081111083640     I
 2008-11-11-0836-26S.PLUR1_009                                                 6
 STAT SP IPHASW D HRMM SECON CODA AMPLIT PERI AZIMU VELO AIN AR TRES W  DIS CAZ7
 LZ4  SN IP        836 41.56                             176   -0.2710 0.75  82 
 LZ4  SZ E         836 41.57                  256.3 29.8     -5        0.75  82 
 LZ4  SE IS        836 42.42                             176   -0.7510 0.75  82 
 LZ4  SZ  AML      836 44.34       172.8 0.24                          0.75  82 
 LD5  SN IP        836 43.24                             119   -0.0410 16.5 196 
 LD5  SZ E         836 43.30                    9.1  9.5     -6        16.5 196 
 LD5  SE IS        836 45.47                             119   -0.2110 16.5 196 
 LD5  SZ  AML      836 47.00         3.5 0.24                          16.5 196 
 LA4  SN IP        836 43.84                             118    0.4310 17.3 349 
 LA4  SZ E         836 43.91                  135.3  9.7    -33        17.3 349 
 LA4  SE IS        836 46.73                             118    0.8410 17.3 349 
 LA4  SZ  AML      836 47.69        14.8 0.28                          17.3 349 
                                                                                
