 2008 1111 0854 34.7 L  21.658 -99.358 10.0  RAL  1 0.0 0.8LRAL                1
 GAP=360        0.30       3.9     1.2  0.0 -0.4263E+01  0.1336E+02 -0.9477E+01E
 ACTION:UPD 12-06-08 11:37 OP:RALL STATUS:               ID:20081111085434     I
 2008-11-11-0854-27S.PLUR1_003                                                 6
 STAT SP IPHASW D HRMM SECON CODA AMPLIT PERI AZIMU VELO AIN AR TRES W  DIS CAZ7
 LA4  SZ E         854 38.31                  345.4  7.5      0        20.0 165 
 LA4  SN IP        854 38.54                             114    0.0210 20.0 165 
 LA4  SE IS        854 41.25                             114   -0.0210 20.0 165 
 LA4  SZ  AML      854 42.17        18.6 0.32                          20.0 165 
                                                                                
