 2008 1111 1045 24.3 R                       RAL  1                            1
 ACTION:UPD 12-06-08 11:37 OP:RALL STATUS:               ID:20081111104524     I
 2008-11-11-1045-24S.PLUR1_006                                                 6
 STAT SP IPHASW D HRMM SECON CODA AMPLIT PERI AZIMU VELO AIN AR TRES W  DIS CAZ7
 LA4  SN IP       1045 39.22                                                    
 LA4  SZ E        1045 39.26                  182.0  9.2                        
 LA4  SZ  AML     1045 48.89       127.3 0.52                                   
                                                                                
