 2008 1112 0227 39.2 L  21.485 -99.309 10.0  RAL  1 0.0-0.2LRAL                1
 GAP=360        0.51     627.3   999.9  0.0 -0.7906E+07  0.1336E+02 -0.9477E+01E
 ACTION:UPD 12-06-08 11:37 OP:RALL STATUS:               ID:20081112022739     I
 2008-11-12-0227-29S.PLUR1_003                                                 6
 STAT SP IPHASW D HRMM SECON CODA AMPLIT PERI AZIMU VELO AIN AR TRES W  DIS CAZ7
 LA4  SZ E         227 40.92                    3.4 11.9     -1        0.15 185 
 LA4  SN IP        227 41.08                             179    0.0510 0.15 185 
 LA4  SE IS        227 42.32                             179   -0.0510 0.15 185 
 LA4  SZ  AML      227 42.70         3.9 0.20                          0.15 185 
                                                                                
