 2008 1112 0808 27.7 L  21.837 -99.362 10.0  RAL  1 0.0 1.5LRAL                1
 GAP=360        0.30       3.7     1.2  0.0 -0.1943E+01  0.1336E+02 -0.9477E+01E
 ACTION:UPD 12-06-08 11:37 OP:RALL STATUS:               ID:20081112080827     I
 2008-11-12-0808-22S.PLUR1_003                                                 6
 STAT SP IPHASW D HRMM SECON CODA AMPLIT PERI AZIMU VELO AIN AR TRES W  DIS CAZ7
 LA4  SZ E         8 8 34.35                  352.0  8.0      0        39.5 172 
 LA4  SN IP        8 8 34.37                             100    0.0110 39.5 172 
 LA4  SE IS        8 8 39.24                             100   -0.0110 39.5 172 
 LA4  SZ  AML      8 8 41.86        51.4 0.64                          39.5 172 
                                                                                
