 2008 1112 0742 35.2 L  21.272 -99.330 10.0  RAL  1 0.0 0.5LRAL                1
 GAP=360        0.30       3.9     0.8  0.0  0.1456E+01  0.1336E+02 -0.9477E+01E
 ACTION:UPD 12-06-08 11:37 OP:RALL STATUS:               ID:20081112074235     I
 2008-11-12-0742-28S.PLUR1_003                                                 6
 STAT SP IPHASW D HRMM SECON CODA AMPLIT PERI AZIMU VELO AIN AR TRES W  DIS CAZ7
 LA4  SZ E         742 39.50                  185.2 12.1      0        23.6   5 
 LA4  SN IP        742 39.52                             109    0.0110 23.6   5 
 LA4  SE IS        742 42.63                             109   -0.0110 23.6   5 
 LA4  SZ  AML      742 44.52         8.1 0.24                          23.6   5 
                                                                                
