 2008 1112 1506  9.2 L  21.878 -99.642 10.0  RAL  1 0.0 1.6LRAL                1
 GAP=360        0.30       3.3     2.7  0.0 -0.5043E+01  0.1336E+02 -0.9477E+01E
 ACTION:UPD 12-06-08 11:37 OP:RALL STATUS:               ID:20081112150609     I
 2008-11-12-1506-06S.PLUR1_003                                                 6
 STAT SP IPHASW D HRMM SECON CODA AMPLIT PERI AZIMU VELO AIN AR TRES W  DIS CAZ7
 LZ4  SN IP       15 6 20.92                              95    0.0110 71.8 147 
 LZ4  SZ E        15 6 20.95                  327.6  8.6      0        71.8 147 
 LZ4  SZ  AML     15 6 29.14        33.9 0.40                          71.8 147 
 LZ4  SE IS       15 6 29.42                              95   -0.0110 71.8 147 
                                                                                
