 2008 1112 1638  5.5 L  21.251 -99.252 10.0  RAL  1 0.0 0.3LRAL                1
 GAP=360        0.30       5.4     1.2  0.0 -0.6401E+01  0.1336E+02 -0.9477E+01E
 ACTION:UPD 12-06-08 11:37 OP:RALL STATUS:               ID:20081112163805     I
 2008-11-12-1637-54S.PLUR1_003                                                 6
 STAT SP IPHASW D HRMM SECON CODA AMPLIT PERI AZIMU VELO AIN AR TRES W  DIS CAZ7
 LZ4  SN IP       1638  7.92                             138    0.0110 9.06 348 
 LZ4  SZ E        1638  8.03                  168.3 32.3      0        9.06 348 
 LZ4  SE IS       1638  9.63                             138   -0.0110 9.06 348 
 LZ4  SZ  AML     1638 12.22         9.1 0.20                          9.06 348 
                                                                                
