 2008 1112 1859 57.2 L  21.610 -99.388 10.0  RAL  1 0.0 0.4LRAL                1
 GAP=360        0.30       3.7     2.3  0.0 -0.8404E+01  0.1336E+02 -0.9477E+01E
 ACTION:UPD 12-06-08 11:37 OP:RALL STATUS:               ID:20081112185957     I
 2008-11-12-1859-48S.PLUR1_003                                                 6
 STAT SP IPHASW D HRMM SECON CODA AMPLIT PERI AZIMU VELO AIN AR TRES W  DIS CAZ7
 LA4  SZ E        19 0  0.51                  329.6 10.0      0        16.2 150 
 LA4  SN IP       19 0  0.51                             120    0.0110 16.2 150 
 LA4  SE IS       19 0  2.87                             120   -0.0110 16.2 150 
 LA4  SZ  AML     19 0  5.01         7.9 0.24                          16.2 150 
                                                                                
