 2008 1113 0503  6.3 L  21.215 -99.281 10.0  RAL  1 0.0-0.2LRAL                1
 GAP=360        0.32       5.4     7.3  0.0  0.3920E+02  0.1336E+02 -0.9477E+01E
 ACTION:UPD 12-06-08 11:37 OP:RALL STATUS:               ID:20081113050306     I
 2008-11-13-0502-55S.PLUR1_003                                                 6
 STAT SP IPHASW D HRMM SECON CODA AMPLIT PERI AZIMU VELO AIN AR TRES W  DIS CAZ7
 LD5  SZ E         5 3  8.38                   51.8 10.2      0        5.19 232 
 LD5  SN IP        5 3  8.42                             153    0.0710 5.19 232 
 LD5  SE IS        5 3  9.75                             153   -0.0710 5.19 232 
 LD5  SZ  AML      5 3 10.01         2.9 0.10                          5.19 232 
                                                                                
