 2008 1113 0347  8.9 L  21.590 -99.299 10.0  RAL  1 0.0 0.6LRAL                1
 GAP=360        0.30       4.8     0.6  0.0  0.2215E+01  0.1336E+02 -0.9477E+01E
 ACTION:UPD 12-06-08 11:37 OP:RALL STATUS:               ID:20081113034708     I
 2008-11-13-0346-59S.PLUR1_003                                                 6
 STAT SP IPHASW D HRMM SECON CODA AMPLIT PERI AZIMU VELO AIN AR TRES W  DIS CAZ7
 LA4  SZ E         347 11.27                    5.2  9.0      0        11.8 185 
 LA4  SN IP        347 11.63                             129    0.0010 11.8 185 
 LA4  SE IS        347 13.59                             129    0.0010 11.8 185 
 LA4  SZ  AML      347 15.15        14.3 0.36                          11.8 185 
                                                                                
