 2008 1113 0656  0.4 L  21.262 -99.298 10.0  RAL  1 0.0-0.3LRAL                1
 GAP=360        0.30       5.4     1.6  0.0  0.8791E+01  0.1336E+02 -0.9477E+01E
 ACTION:UPD 12-06-08 11:37 OP:RALL STATUS:               ID:20081113065600     I
 2008-11-13-0655-49S.PLUR1_003                                                 6
 STAT SP IPHASW D HRMM SECON CODA AMPLIT PERI AZIMU VELO AIN AR TRES W  DIS CAZ7
 LD5  SZ E         656  2.62                   15.6 10.8      0        8.71 196 
 LD5  SN IP        656  2.76                             139    0.0210 8.71 196 
 LD5  SE IS        656  4.43                             139   -0.0210 8.71 196 
 LD5  SZ  AML      656  5.32         2.1 0.26                          8.71 196 
                                                                                
