 2008 1113 0824 16.7 L  21.502 -99.634 20.5  RAL  2 0.1 1.0LRAL                1
 GAP=337        1.04       2.5     8.1 19.2 -0.1037E+02  0.4473E+02 -0.3581E+01E
 ACTION:UPD 12-06-08 11:37 OP:RALL STATUS:               ID:20081113082416     I
 2008-11-13-0824-10S.PLUR1_006                                                 6
 STAT SP IPHASW D HRMM SECON CODA AMPLIT PERI AZIMU VELO AIN AR TRES W  DIS CAZ7
 LA4  SZ E         824 22.91                  270.1 12.8     -2        33.7  93 
 LA4  SN IP        824 23.14                             122   -0.0110 33.7  93 
 LA4  SE IS        824 27.77                             122   -0.0710 33.7  93 
 LA4  SZ  AML      824 31.93         9.0 0.44                          33.7  93 
 LZ4  SN IP        824 24.11                             106   -0.2110 42.3 117 
 LZ4  SZ E         824 24.14                  299.7  7.7      3        42.3 117 
 LZ4  SE IS        824 30.14                             106    0.2910 42.3 117 
 LZ4  SZ  AML      824 31.86        21.2 0.48                          42.3 117 
                                                                                
