 2008 1113 0757 12.4 L  21.276 -99.268 10.0  RAL  2 0.2 0.3LRAL                1
 GAP=211        1.65       3.4     0.7 16.3  0.3075E+00  0.3900E+00  0.1186E+02E
 ACTION:UPD 12-06-08 11:37 OP:RALL STATUS:               ID:20081113075712     I
 2008-11-13-0757-00S.PLUR1_006                                                 6
 STAT SP IPHASW D HRMM SECON CODA AMPLIT PERI AZIMU VELO AIN AR TRES W  DIS CAZ7
 LZ4  SZ E         757 14.95                  175.7  9.2     -1        6.04 358 
 LZ4  SN IP        757 14.96                             156    0.4310 6.04 358 
 LZ4  SE IS        757 16.45                             156    0.4010 6.04 358 
 LZ4  SZ  AML      757 17.33        36.8 0.72                          6.04 358 
 LD5  SN IP        757 14.86                             133   -0.2010 11.3 209 
 LD5  SZ E         757 14.87                   22.6  9.2     -5        11.3 209 
 LD5  SE IS        757 16.34                             133   -0.6310 11.3 209 
 LD5  SZ  AML      757 17.11         2.5 0.16                          11.3 209 
                                                                                
