 2008 1114 0034 52.7 L  21.349 -99.343  0.0  RAL  3 0.3 0.7LRAL                1
 GAP=201        1.68       1.2     1.8 73.3 -0.6162E+00  0.2839E+02 -0.4292E+01E
 ACTION:UPD 12-06-08 11:37 OP:RALL STATUS:               ID:20081114003452     I
 2008-11-14-0034-39S.PLUR1_009                                                 6
 STAT SP IPHASW D HRMM SECON CODA AMPLIT PERI AZIMU VELO AIN AR TRES W  DIS CAZ7
 LZ4  SZ E         034 53.57                  288.0  8.0      3        7.85 105 
 LZ4  SN IP        034 53.65                              98   -0.4010 7.85 105 
 LZ4  SE IS        034 54.62                              98   -0.4410 7.85 105 
 LZ4  SZ  AML      034 54.77       249.8 0.16                          7.85 105 
 LA4  SN IP        034 55.61                              94    0.2710 15.2  13 
 LA4  SZ E         034 55.81                  194.5  8.2      1        15.2  13 
 LA4  SE IS        034 58.83                              94    1.5410 15.2  13 
 LA4  SZ  AML      035  1.99        13.1 0.56                          15.2  13 
 LD5  SZ E         034 55.23                  351.7 15.9      0        18.2 173 
 LD5  SN IP        034 55.47                              93   -0.3810 18.2 173 
 LD5  SE IS        034 57.58                              93   -0.6010 18.2 173 
 LD5  SZ  AML      035  0.25         3.3 0.56                          18.2 173 
                                                                                
