 2008 1114 0245  6.4 L  21.301 -99.298 10.0  RAL  1 0.0 0.5LRAL                1
 GAP=360        0.35       8.1     7.9  0.0  0.6467E+02  0.2839E+02 -0.4292E+01E
 ACTION:UPD 12-06-08 11:37 OP:RALL STATUS:               ID:20081114024506     I
 2008-11-14-0244-55S.PLUR1_003                                                 6
 STAT SP IPHASW D HRMM SECON CODA AMPLIT PERI AZIMU VELO AIN AR TRES W  DIS CAZ7
 LZ4  SZ E         245  8.48                  222.3 25.2      0        4.41  42 
 LZ4  SN IP        245  8.51                             157    0.1210 4.41  42 
 LZ4  SE IS        245  9.70                             157   -0.1210 4.41  42 
 LZ4  SZ  AML      245 10.13        16.7 0.80                          4.41  42 
                                                                                
