 2008 1114 0016 46.8 L  21.341 -99.318  1.5  RAL  3 0.9 0.5LRAL                1
 GAP=182       16.24       8.3    17.4391.8 -0.5819E+02  0.1739E+04 -0.3734E+03E
 ACTION:UPD 12-06-08 11:37 OP:RALL STATUS:               ID:20081114001646     I
 2008-11-14-0016-33S.PLUR1_009                                                 6
 STAT SP IPHASW D HRMM SECON CODA AMPLIT PERI AZIMU VELO AIN AR TRES W  DIS CAZ7
 LZ4  SZ E         016 47.50                  286.0 11.5      3        5.11 102 
 LZ4  SN IP        016 47.52                             102   -0.2910 5.11 102 
 LZ4  SE IS        016 48.45                             102   -0.0910 5.11 102 
 LZ4  SZ  AML      016 48.64       149.5 0.16                          5.11 102 
 LA4  SZ E         016 49.52                  122.4 10.2    -60        15.8   3 
 LA4  SN IP        016 49.78                              94    0.1610 15.8   3 
 LA4  SE IS        016 52.70                              94    1.0310 15.8   3 
 LA4  SZ  AML      016 56.10         8.8 0.36                          15.8   3 
 LD5  SZ E         016 48.45                  289.8 30.5     71        17.1 181 
 LD5  SN IP        016 49.29                              94   -0.5410 17.1 181 
 LD5  SE IS        016 51.76                              94   -0.2810 17.1 181 
 LD5  SZ  AML      016 52.17         2.8 0.56                          17.1 181 
                                                                                
