 2008 1114 0916 37.9 L  21.698 -99.359 10.0  RAL  1 0.0 1.0LRAL                1
 GAP=360        0.30       3.8     1.1  0.0 -0.3374E+01 -0.4303E+02 -0.2722E+02E
 ACTION:UPD 12-06-08 11:37 OP:RALL STATUS:               ID:20081114091637     I
 2008-11-14-0916-29S.PLUR1_003                                                 6
 STAT SP IPHASW D HRMM SECON CODA AMPLIT PERI AZIMU VELO AIN AR TRES W  DIS CAZ7
 LA4  SZ E         916 42.32                  347.6 11.3      0        24.3 168 
 LA4  SN IP        916 42.36                             109    0.0210 24.3 168 
 LA4  SE IS        916 45.54                             109   -0.0210 24.3 168 
 LA4  SZ  AML      916 46.95        21.6 0.28                          24.3 168 
                                                                                
