 2008 1114 0505  5.5 L  21.327 -99.248 10.0  RAL  2 0.6 0.5LRAL                1
 GAP=226        6.40      13.2     7.9134.0  0.6578E+01 -0.4303E+02 -0.2722E+02E
 ACTION:UPD 12-06-08 11:37 OP:RALL STATUS:               ID:20081114050505     I
 2008-11-14-0504-54S.PLUR1_006                                                 6
 STAT SP IPHASW D HRMM SECON CODA AMPLIT PERI AZIMU VELO AIN AR TRES W  DIS CAZ7
 LD5  SZ E         5 5  7.83                  356.9 11.4     29        17.2 206 
 LD5  SN IP        5 5  7.84                             115   -1.0010 17.2 206 
 LD5  SE IS        5 5  9.86                             115   -1.4510 17.2 206 
 LD5  SZ  AML      5 5 10.49         5.5 0.18                          17.2 206 
 LA4  SZ E         5 5  9.37                  160.5 12.9      0        18.5 340 
 LA4  SN IP        5 5 10.10                             115    1.0810 18.5 340 
 LA4  SE IS        5 5 13.00                             115    1.3810 18.5 340 
 LA4  SZ  AML      5 5 13.28        13.3 0.28                          18.5 340 
                                                                                
