 2008 1114 1753 49.9 L  21.681 -99.547 10.0  RAL  1 0.0 0.8LRAL                1
 GAP=360        0.30       2.6     3.1  0.0 -0.7367E+01 -0.4303E+02 -0.2722E+02E
 ACTION:UPD 12-06-08 11:37 OP:RALL STATUS:               ID:20081114175349     I
 2008-11-14-1753-45S.PLUR1_003                                                 6
 STAT SP IPHASW D HRMM SECON CODA AMPLIT PERI AZIMU VELO AIN AR TRES W  DIS CAZ7
 LA4  SN IP       1753 55.65                             103    0.0210 32.9 132 
 LA4  SZ E        1753 55.67                  311.7 10.0      0        32.9 132 
 LA4  SE IS       1753 59.76                             103   -0.0210 32.9 132 
 LA4  SZ  AML     1754  0.12        12.1 0.64                          32.9 132 
                                                                                
