 2008 1114 1934 27.9 L  21.816 -99.597 10.0  RAL  1 0.0 0.9LRAL                1
 GAP=360        0.30       3.0     2.7  0.0 -0.6578E+01 -0.4303E+02 -0.2722E+02E
 ACTION:UPD 12-06-08 11:37 OP:RALL STATUS:               ID:20081114193427     I
 2008-11-14-1934-27S.PLUR1_003                                                 6
 STAT SP IPHASW D HRMM SECON CODA AMPLIT PERI AZIMU VELO AIN AR TRES W  DIS CAZ7
 LA4  SZ E        1934 35.83                  321.0  9.3      0        47.4 141 
 LA4  SN IP       1934 35.83                              98    0.0210 47.4 141 
 LA4  SE IS       1934 41.57                              98   -0.0210 47.4 141 
 LA4  SZ  AML     1934 44.57         9.3 0.64                          47.4 141 
                                                                                
