 2008 1114 1017  6.8 L  21.210 -99.275 10.0  RAL  1 0.0-0.5LRAL                1
 GAP=360        0.31       4.0     7.7  0.0  0.3095E+02 -0.4303E+02 -0.2722E+02E
 ACTION:UPD 12-06-08 11:37 OP:RALL STATUS:               ID:20081114101706     I
 2008-11-14-1016-55S.PLUR1_003                                                 6
 STAT SP IPHASW D HRMM SECON CODA AMPLIT PERI AZIMU VELO AIN AR TRES W  DIS CAZ7
 LD5  SZ E        1017  8.87                   61.0 12.8      0        5.31 241 
 LD5  SN IP       1017  8.88                             152    0.0510 5.31 241 
 LD5  SE IS       1017 10.26                             152   -0.0510 5.31 241 
 LD5  SZ  AML     1017 10.66         1.7 0.16                          5.31 241 
                                                                                
