 2008 1114 2139 53.5 L  21.331 -99.277 10.0  RAL  3 0.3 1.0LRAL                1
 GAP=153        4.41       1.9     5.2 26.9  0.5437E+01  0.6290E+01  0.1129E+01E
 ACTION:UPD 12-06-08 11:37 OP:RALL STATUS:               ID:20081114213953     I
 2008-11-14-2139-40S.PLUR1_009                                                 6
 STAT SP IPHASW D HRMM SECON CODA AMPLIT PERI AZIMU VELO AIN AR TRES W  DIS CAZ7
 LZ4  SZ E        2139 55.12                  293.3  8.3     21        0.79  92 
 LZ4  SN EP       2139 55.12                             178   -0.2110 0.79  92 
 LZ4  SE IS       2139 56.03                             178   -0.6410 0.79  92 
 LZ4  SZ  AML     2139 56.18       412.6 0.16                          0.79  92 
 LD5  SN IP       2139 56.91                             118    0.1210 16.6 196 
 LD5  SZ E        2139 56.96                   14.6  9.2      0        16.6 196 
 LD5  SE IS       2139 59.48                             118    0.2810 16.6 196 
 LD5  SZ  AML     2140  0.63         4.2 0.16                          16.6 196 
 LA4  SN IP       2139 57.02                             116    0.1410 17.2 349 
 LA4  SZ E        2139 57.04                  154.9  9.9    -13        17.2 349 
 LA4  SE IS       2139 59.68                             116    0.3210 17.2 349 
 LA4  SZ  AML     2140  0.96        35.3 0.36                          17.2 349 
                                                                                
