 2008 1115 0619 42.0 L  21.315 -99.295  7.1  RAL  3 0.3 0.6LRAL                1
 GAP=165        3.11       2.3     3.4 15.8  0.7666E+01  0.5793E+01  0.3772E+01E
 ACTION:UPD 12-06-08 11:37 OP:RALL STATUS:               ID:20081115061942     I
 2008-11-15-0619-29S.PLUR1_009                                                 6
 STAT SP IPHASW D HRMM SECON CODA AMPLIT PERI AZIMU VELO AIN AR TRES W  DIS CAZ7
 LZ4  SZ E         619 43.43                  238.6 11.1      2        3.14  56 
 LZ4  SN IP        619 43.45                             162   -0.0710 3.14  56 
 LZ4  SE IS        619 44.53                             162   -0.0810 3.14  56 
 LZ4  SZ  AML      619 46.29        99.1 0.40                          3.14  56 
 LD5  SZ E         619 44.03                   10.4  9.6      0        14.5 191 
 LD5  SN IP        619 44.14                             104   -0.7010 14.5 191 
 LD5  SE IS        619 45.95                             104   -0.9410 14.5 191 
 LD5  SZ  AML      619 47.99         4.2 0.50                          14.5 191 
 LA4  SN IP        619 45.86                             100    0.3810 18.7 355 
 LA4  SZ E         619 45.90                  160.4  9.8    -14        18.7 355 
 LA4  SE IS        619 49.41                             100    1.4110 18.7 355 
 LA4  SZ  AML      619 49.83        15.8 0.24                          18.7 355 
                                                                                
