 2008 1115 0706 36.5 L  21.662 -99.311 10.0  RAL  1 0.0 1.0LRAL                1
 GAP=360        0.30       4.1     0.6  0.0 -0.1825E+00  0.5793E+01  0.3772E+01E
 ACTION:UPD 12-06-08 11:37 OP:RALL STATUS:               ID:20081115070636     I
 2008-11-15-0706-28S.PLUR1_003                                                 6
 STAT SP IPHASW D HRMM SECON CODA AMPLIT PERI AZIMU VELO AIN AR TRES W  DIS CAZ7
 LA4  SZ E         7 6 40.24                  359.4  8.1      0        19.7 179 
 LA4  SN IP        7 6 40.26                             114    0.0210 19.7 179 
 LA4  SE IS        7 6 42.96                             114   -0.0210 19.7 179 
 LA4  SZ  AML      7 6 45.12        27.8 0.48                          19.7 179 
                                                                                
