 2008 1115 0446  4.2 L  21.330 -99.277 10.0  RAL  1 0.3 0.6LRAL                1
 GAP=360        3.26     126.6   592.5  0.0  0.7490E+05  0.1580E+04 -0.9792E+04E
 ACTION:UPD 12-06-08 11:37 OP:RALL STATUS:               ID:20081115044604     I
 2008-11-15-0445-52S.PLUR1_003                                                 6
 STAT SP IPHASW D HRMM SECON CODA AMPLIT PERI AZIMU VELO AIN AR TRES W  DIS CAZ7
 LZ4  SZ E         446  6.37                  281.1 22.6     15        0.75  86 
 LZ4  SN IP        446  6.40                             176    0.3210 0.75  86 
 LZ4  SE IS        446  7.10                             176   -0.3210 0.75  86 
 LZ4  SZ  AML      446  7.26        23.6 0.20                          0.75  86 
                                                                                
