 2008 1115 0609 46.6 L  21.340 -99.268 10.0  RAL  1 0.2 1.6LRAL                1
 GAP=360        0.73     999.9   999.9  0.0 -0.1319E+08  0.1580E+04 -0.9792E+04E
 ACTION:UPD 12-06-08 11:37 OP:RALL STATUS:               ID:20081115060946     I
 2008-11-15-0609-34S.PLUR1_003                                                 6
 STAT SP IPHASW D HRMM SECON CODA AMPLIT PERI AZIMU VELO AIN AR TRES W  DIS CAZ7
 LZ4  SN IP        6 9 48.93                             174    0.4510 1.08 187 
 LZ4  SZ E         6 9 48.95                    7.2  9.4      0        1.08 187 
 LZ4  SE IS        6 9 49.37                             174   -0.4510 1.08 187 
 LZ4  SZ  AML      6 9 49.57       221.2 0.28                          1.08 187 
                                                                                
