 2008 1115 0009 27.0 L  21.466 -99.379 10.0  RAL  1 0.0 1.1LRAL                1
 GAP=360        0.30       1.7     6.5  0.0  0.1068E+02  0.6290E+01  0.1129E+01E
 ACTION:UPD 12-06-08 11:37 OP:RALL STATUS:               ID:20081115000927     I
 2008-11-15-0009-15S.PLUR1_003                                                 6
 STAT SP IPHASW D HRMM SECON CODA AMPLIT PERI AZIMU VELO AIN AR TRES W  DIS CAZ7
 LA4  SZ E         0 9 29.02                  254.6 12.8      0        7.54  75 
 LA4  SN IP        0 9 29.26                             143    0.0210 7.54  75 
 LA4  SE IS        0 9 30.84                             143   -0.0210 7.54  75 
 LA4  SZ  AML      0 9 32.00        53.1 0.32                          7.54  75 
                                                                                
