 2008 1115 0407 50.1 L  21.651 -99.335  1.6  RAL  2 0.3 1.9LRAL                1
 GAP=357        5.45      53.1    12.1305.2 -0.4506E+03  0.1580E+04 -0.9792E+04E
 ACTION:UPD 12-06-08 11:37 OP:RALL STATUS:               ID:20081115040750     I
 2008-11-15-0407-38S.PLUR1_006                                                 6
 STAT SP IPHASW D HRMM SECON CODA AMPLIT PERI AZIMU VELO AIN AR TRES W  DIS CAZ7
 LA4  SN IP        4 7 53.34                              98   -0.0210 18.7 172 
 LA4  SZ E         4 7 53.42                    4.6  8.1     13        18.7 172 
 LA4  SE IS        4 7 55.59                              98   -0.1810 18.7 172 
 LA4  SZ  AML      4 7 55.69       409.4 0.28                          18.7 172 
 LZ4  SN IP        4 7 56.32                              94   -0.0610 36.0 169 
 LZ4  SZ E         4 7 56.44                  325.9  7.3    -22        36.0 169 
 LZ4  SE IS        4 8  1.25                              94    0.2610 36.0 169 
 LZ4  SZ  AML      4 8  1.84        77.3 0.28                          36.0 169 
                                                                                
