 2008 1115 0255 15.6 L  21.337 -99.291 10.0  RAL  1 0.1 0.0LRAL                1
 GAP=360        0.41     906.9   318.3  0.0  0.2887E+06  0.6290E+01  0.1129E+01E
 ACTION:UPD 12-06-08 11:37 OP:RALL STATUS:               ID:20081115025515     I
 2008-11-15-0255-03S.PLUR1_003                                                 6
 STAT SP IPHASW D HRMM SECON CODA AMPLIT PERI AZIMU VELO AIN AR TRES W  DIS CAZ7
 LZ4  SZ E         255 17.61                  286.7  7.4      0        2.28 107 
 LZ4  SN IP        255 17.63                             168    0.1910 2.28 107 
 LZ4  SE IS        255 18.62                             168   -0.1910 2.28 107 
 LZ4  SZ  AML      255 18.74         5.9 0.20                          2.28 107 
                                                                                
