 2008 1115 0800 36.7 L  21.339 -99.322 10.0  RAL  1 0.0 0.8LRAL                1
 GAP=360        0.30       1.2     8.2  0.0 -0.1022E+02  0.1002E+02 -0.1653E+01E
 ACTION:UPD 12-06-08 11:37 OP:RALL STATUS:               ID:20081115080036     I
 2008-11-15-0800-23S.PLUR1_003                                                 6
 STAT SP IPHASW D HRMM SECON CODA AMPLIT PERI AZIMU VELO AIN AR TRES W  DIS CAZ7
 LZ4  SZ E         8 0 38.53                  279.2  7.9      0        5.55  99 
 LZ4  SN IP        8 0 38.73                             151    0.0210 5.55  99 
 LZ4  SE IS        8 0 40.18                             151   -0.0210 5.55  99 
 LZ4  SZ  AML      8 0 40.72        33.2 0.16                          5.55  99 
                                                                                
