 2008 1115 0715 24.2 L  21.344 -99.337  3.4  RAL  3 0.3 0.6LRAL                1
 GAP=196        2.06       1.3     2.3 22.4 -0.7970E+00  0.1002E+02 -0.1653E+01E
 ACTION:UPD 12-06-08 11:37 OP:RALL STATUS:               ID:20081115071524     I
 2008-11-15-0715-10S.PLUR1_009                                                 6
 STAT SP IPHASW D HRMM SECON CODA AMPLIT PERI AZIMU VELO AIN AR TRES W  DIS CAZ7
 LZ4  SZ E         715 25.36                  284.4  8.2      3        7.13 102 
 LZ4  SN IP        715 25.36                             122   -0.2610 7.13 102 
 LZ4  SE IS        715 26.47                             122   -0.2210 7.13 102 
 LZ4  SZ  AML      715 26.68       185.6 0.40                          7.13 102 
 LA4  SN IP        715 27.77                             106    0.7610 15.7  11 
 LA4  SZ E         715 27.86                  193.9  9.1      3        15.7  11 
 LA4  SE IS        715 30.64                             106    1.5410 15.7  11 
 LA4  SZ  AML      715 32.01        16.9 0.24                          15.7  11 
 LD5  SN IP        715 26.39                             104   -0.9210 17.5 174 
 LD5  SZ E         715 26.41                  356.4 12.2      2        17.5 174 
 LD5  SE IS        715 28.71                             104   -0.9010 17.5 174 
 LD5  SZ  AML      715 31.03         2.1 0.12                          17.5 174 
                                                                                
