 2008 1115 0025 19.9 L  21.631 -99.324 10.0  RAL  1 0.0 0.4LRAL                1
 GAP=360        0.30       4.2     0.6  0.0 -0.1850E+01  0.6290E+01  0.1129E+01E
 ACTION:UPD 12-06-08 11:37 OP:RALL STATUS:               ID:20081115002519     I
 2008-11-15-0025-11S.PLUR1_003                                                 6
 STAT SP IPHASW D HRMM SECON CODA AMPLIT PERI AZIMU VELO AIN AR TRES W  DIS CAZ7
 LA4  SZ E         025 23.15                  354.5 11.5      0        16.4 174 
 LA4  SN IP        025 23.16                             119    0.0210 16.4 174 
 LA4  SE IS        025 25.51                             119   -0.0210 16.4 174 
 LA4  SZ  AML      025 26.45         7.7 0.20                          16.4 174 
                                                                                
