 2008 1115 1806 28.5 L  21.338 -99.298 10.0  RAL  1 0.0 0.6LRAL                1
 GAP=360        0.31       3.5    14.2  0.0 -0.5033E+02  0.1002E+02 -0.1653E+01E
 ACTION:UPD 12-06-08 11:37 OP:RALL STATUS:               ID:20081115180628     I
 2008-11-15-1806-15S.PLUR1_003                                                 6
 STAT SP IPHASW D HRMM SECON CODA AMPLIT PERI AZIMU VELO AIN AR TRES W  DIS CAZ7
 LZ4  SZ E        18 6 30.45                  285.0  8.0      0        3.06 105 
 LZ4  SN IP       18 6 30.48                             163    0.0710 3.06 105 
 LZ4  SE IS       18 6 31.73                             163   -0.0710 3.06 105 
 LZ4  SZ  AML     18 6 32.08        24.0 0.24                          3.06 105 
                                                                                
