 2008 1115 1946 42.2 L  21.331 -99.270  5.4  RAL  2 0.1 0.7LRAL                1
 GAP=286        2.10       1.1     3.2  9.9 -0.2713E+01  0.4636E+00  0.3130E+00E
 ACTION:UPD 12-06-08 11:37 OP:RALL STATUS:               ID:20081115194642     I
 2008-11-15-1946-28S.PLUR1_006                                                 6
 STAT SP IPHASW D HRMM SECON CODA AMPLIT PERI AZIMU VELO AIN AR TRES W  DIS CAZ7
 LZ4  SZ E        1946 43.04                  303.1 10.5      0        0.10 124 
 LZ4  SN IP       1946 43.11                             179   -0.2210 0.10 124 
 LZ4  SE IS       1946 43.86                             179   -0.2810 0.10 124 
 LZ4  SZ  AML     1946 43.98       226.7 0.20                          0.10 124 
 LD5  SZ E        1946 45.21                   27.7 11.3     10        16.8 198 
 LD5  SN IP       1946 45.50                              94    0.1810 16.8 198 
 LD5  SE IS       1946 47.90                              94    0.3210 16.8 198 
 LD5  SZ  AML     1946 48.33         4.5 0.60                          16.8 198 
                                                                                
