 2008 1115 1249 36.0 L  21.340 -99.330 10.0  RAL  1 0.0 1.0LRAL                1
 GAP=360        0.30       1.1     7.4  0.0 -0.8218E+01  0.1002E+02 -0.1653E+01E
 ACTION:UPD 12-06-08 11:37 OP:RALL STATUS:               ID:20081115124936     I
 2008-11-15-1249-23S.PLUR1_003                                                 6
 STAT SP IPHASW D HRMM SECON CODA AMPLIT PERI AZIMU VELO AIN AR TRES W  DIS CAZ7
 LZ4  SZ E        1249 38.12                  279.2  7.8      0        6.36  99 
 LZ4  SN IP       1249 38.17                             148    0.0210 6.36  99 
 LZ4  SZ  AML     1249 39.46        52.1 0.44                          6.36  99 
 LZ4  SE IS       1249 39.68                             148   -0.0210 6.36  99 
                                                                                
