 2008 1115 2028  4.7 L  21.738 -99.477 10.0  RAL  1 0.0 1.5LRAL                1
 GAP=360        0.30       3.4     2.1  0.0 -0.5121E+01  0.4636E+00  0.3130E+00E
 ACTION:UPD 12-06-08 11:37 OP:RALL STATUS:               ID:20081115202804     I
 2008-11-15-2027-58S.PLUR1_003                                                 6
 STAT SP IPHASW D HRMM SECON CODA AMPLIT PERI AZIMU VELO AIN AR TRES W  DIS CAZ7
 LZ4  SN IP       2028 12.99                              97    0.0110 49.9 155 
 LZ4  SZ E        2028 13.05                  334.6 10.7      0        49.9 155 
 LZ4  SE IS       2028 19.02                              97   -0.0110 49.9 155 
 LZ4  SZ  AML     2028 20.46        36.3 0.64                          49.9 155 
                                                                                
