 2008 1115 2111 44.6 L  21.792 -99.676 10.0  RAL  1 0.0 1.4LRAL                1
 GAP=360        0.30       3.1     2.9  0.0 -0.5747E+01  0.4636E+00  0.3130E+00E
 ACTION:UPD 12-06-08 11:37 OP:RALL STATUS:               ID:20081115211144     I
 2008-11-15-2111-42S.PLUR1_003                                                 6
 STAT SP IPHASW D HRMM SECON CODA AMPLIT PERI AZIMU VELO AIN AR TRES W  DIS CAZ7
 LZ4  SZ E        2111 55.39                  320.6  8.4      0        66.2 140 
 LZ4  SN IP       2111 55.40                              95    0.0110 66.2 140 
 LZ4  SE IS       2112  3.26                              95   -0.0110 66.2 140 
 LZ4  SZ  AML     2112  4.24        20.7 0.32                          66.2 140 
                                                                                
