 2008 1116 0436 25.7 L  21.283 -99.273 10.0  RAL  1 0.0 0.1LRAL                1
 GAP=360        0.30       4.4     2.2  0.0  0.9332E+01  0.4636E+00  0.3130E+00E
 ACTION:UPD 12-06-08 11:37 OP:RALL STATUS:               ID:20081116043625     I
 2008-11-16-0436-15S.PLUR1_003                                                 6
 STAT SP IPHASW D HRMM SECON CODA AMPLIT PERI AZIMU VELO AIN AR TRES W  DIS CAZ7
 LD5  SN IP        436 28.34                             129    0.0110 11.7 205 
 LD5  SZ E         436 28.35                   24.7 10.7      0        11.7 205 
 LD5  SE IS        436 30.26                             129   -0.0110 11.7 205 
 LD5  SZ  AML      436 31.11         4.4 0.30                          11.7 205 
                                                                                
