 2008 1116 2321 32.6 L  21.394 -99.242 10.0  RAL  1 0.0 0.9LRAL                1
 GAP=360        0.30       3.9     2.9  0.0 -0.1142E+02  0.4636E+00  0.3130E+00E
 ACTION:UPD 12-06-08 11:37 OP:RALL STATUS:               ID:20081116232132     I
 2008-11-16-2321-22S.PLUR1_003                                                 6
 STAT SP IPHASW D HRMM SECON CODA AMPLIT PERI AZIMU VELO AIN AR TRES W  DIS CAZ7
 LA4  SN IP       2321 35.34                             129    0.0210 12.0 325 
 LA4  SZ E        2321 35.38                  145.1  7.8      0        12.0 325 
 LA4  SE IS       2321 37.28                             129   -0.0210 12.0 325 
 LA4  SZ  AML     2321 37.41        29.0 0.28                          12.0 325 
                                                                                
