 2008 1117 0859  8.8 L  21.315 -99.303 10.0  RAL  1 0.0 0.5LRAL                1
 GAP=360        0.34       5.5    11.3  0.0  0.6195E+02  0.1664E+05 -0.4708E+05E
 ACTION:UPD 12-06-08 11:37 OP:RALL STATUS:               ID:20081117085908     I
 2008-11-17-0858-56S.PLUR1_003                                                 6
 STAT SP IPHASW D HRMM SECON CODA AMPLIT PERI AZIMU VELO AIN AR TRES W  DIS CAZ7
 LZ4  SZ E         859 10.81                  242.5 12.0      0        3.88  62 
 LZ4  SN IP        859 10.81                             159    0.1110 3.88  62 
 LZ4  SE IS        859 12.01                             159   -0.1110 3.88  62 
 LZ4  SZ  AML      859 12.18        15.2 0.40                          3.88  62 
                                                                                
