 2008 1117 0318  5.5 L  21.716 -99.392  0.1  RAL  2 0.4 1.0LRAL                1
 GAP=358        5.68      57.9    23.4999.9 -0.1130E+04  0.1664E+05 -0.4708E+05E
 ACTION:UPD 12-06-08 11:37 OP:RALL STATUS:               ID:20081117031805     I
 2008-11-17-0317-59S.PLUR1_006                                                 6
 STAT SP IPHASW D HRMM SECON CODA AMPLIT PERI AZIMU VELO AIN AR TRES W  DIS CAZ7
 LA4  SN IP        318 10.03                              93   -0.1810 27.1 162 
 LA4  SZ E         318 10.09                  356.1  8.9     15        27.1 162 
 LA4  SE IS        318 12.97                              93   -0.7010 27.1 162 
 LA4  SZ  AML      318 14.41        21.0 0.56                          27.1 162 
 LZ4  SZ E         318 13.43                  320.3  8.0    -22        44.5 163 
 LZ4  SN IP        318 13.49                              91    0.2510 44.5 163 
 LZ4  SE IS        318 19.55                              91    0.6310 44.5 163 
 LZ4  SZ  AML      318 22.28        12.2 0.28                          44.5 163 
                                                                                
