 2008 1117 1041 34.6 L  21.088 -99.355 10.0  RAL  1 0.0-0.4LRAL                1
 GAP=360        0.30       4.6     1.7  0.0  0.7496E+01  0.1664E+05 -0.4708E+05E
 ACTION:UPD 12-06-08 11:37 OP:RALL STATUS:               ID:20081117104134     I
 2008-11-17-1041-24S.PLUR1_003                                                 6
 STAT SP IPHASW D HRMM SECON CODA AMPLIT PERI AZIMU VELO AIN AR TRES W  DIS CAZ7
 LD5  SZ E        1041 36.89                  198.5 22.4      0        11.5  18 
 LD5  SN IP       1041 37.24                             130    0.0110 11.5  18 
 LD5  SE IS       1041 39.15                             130   -0.0110 11.5  18 
 LD5  SZ  AML     1041 40.04         1.6 0.18                          11.5  18 
                                                                                
