 2008 1117 1006 21.3 L  21.071 -99.371 10.0  RAL  1 0.0-0.1LRAL                1
 GAP=360        0.30       4.1     1.9  0.0  0.7540E+01  0.1664E+05 -0.4708E+05E
 ACTION:UPD 12-06-08 11:37 OP:RALL STATUS:               ID:20081117100621     I
 2008-11-17-1006-11S.PLUR1_003                                                 6
 STAT SP IPHASW D HRMM SECON CODA AMPLIT PERI AZIMU VELO AIN AR TRES W  DIS CAZ7
 LD5  SZ E        10 6 24.03                  202.5 30.1      0        13.8  22 
 LD5  SN IP       10 6 24.21                             124    0.0110 13.8  22 
 LD5  SE IS       10 6 26.33                             124   -0.0110 13.8  22 
 LD5  SZ  AML     10 6 27.24         2.9 0.18                          13.8  22 
                                                                                
