 2008 1117 1345 35.3 L  21.225 -99.285 10.0  RAL  1 0.0 0.2LRAL                1
 GAP=360        0.31       6.1     5.6  0.0  0.3428E+02  0.1664E+05 -0.4708E+05E
 ACTION:UPD 12-06-08 11:37 OP:RALL STATUS:               ID:20081117134535     I
 2008-11-17-1345-22S.PLUR1_003                                                 6
 STAT SP IPHASW D HRMM SECON CODA AMPLIT PERI AZIMU VELO AIN AR TRES W  DIS CAZ7
 LD5  SN IP       1345 37.37                             151    0.0610 5.60 221 
 LD5  SZ E        1345 37.38                   40.6  9.1      0        5.60 221 
 LD5  SE IS       1345 38.74                             151   -0.0610 5.60 221 
 LD5  SZ  AML     1345 38.96         8.3 0.20                          5.60 221 
                                                                                
