 2008 1117 2027 42.4 L  21.249 -99.258  7.6  RAL  2 0.1 0.2LRAL                1
 GAP=230        0.60       0.7     0.5  8.7  0.1168E+00 -0.4922E-01  0.1277E+00E
 ACTION:UPD 12-06-08 11:37 OP:RALL STATUS:               ID:20081117202742     I
 2008-11-17-2027-29S.PLUR1_009                                                 6
 STAT SP IPHASW D HRMM SECON CODA AMPLIT PERI AZIMU VELO AIN AR TRES W  DIS CAZ7
 LZ4  SZ E        2027 44.61                  172.0 10.3      0        9.17 353 
 LZ4  SN IP       2027 44.64                             128    0.1610 9.17 353 
 LZ4  SE IS       2027 46.32                             128    0.2910 9.17 353 
 LD5  SN IP       2027 44.37                             127   -0.1410 9.42 223 
 LD5  SZ E        2027 44.39                   42.3  8.5      0        9.42 223 
 LD5  SE IS       2027 45.77                             127   -0.3110 9.42 223 
 LD5  SZ  AML     2027 47.10         6.9 0.56                          9.42 223 
                                                                                
