 2008 1118 0106 53.4 L  21.618 -99.302 10.0  RAL  1 0.0 2.1LRAL                1
 GAP=360        0.30       4.4     0.5  0.0  0.9773E+00 -0.4922E-01  0.1277E+00E
 ACTION:UPD 12-06-08 11:37 OP:RALL STATUS:               ID:20081118010653     I
 2008-11-18-0106-29S.PLUR1_003                                                 6
 STAT SP IPHASW D HRMM SECON CODA AMPLIT PERI AZIMU VELO AIN AR TRES W  DIS CAZ7
 LA4  SZ E         1 6 56.49                    2.7 10.3      0        14.8 183 
 LA4  SN IP        1 6 56.49                             122    0.0310 14.8 183 
 LA4  SE IS        1 6 58.68                             122   -0.0310 14.8 183 
 LA4  SZ  AML      1 6 58.79       378.2 0.24                          14.8 183 
                                                                                
