 2008 1118 1318 54.4 L  21.280 -99.252 10.0  RAL  1 0.0 2.8LRAL                1
 GAP=360        0.30       3.9     2.8  0.0  0.1086E+02 -0.4922E-01  0.1277E+00E
 ACTION:UPD 12-06-08 11:37 OP:RALL STATUS:               ID:20081118131854     I
 2008-11-18-1318-42S.PLUR1_003                                                 6
 STAT SP IPHASW D HRMM SECON CODA AMPLIT PERI AZIMU VELO AIN AR TRES W  DIS CAZ7
 LD5  SN IP       1318 57.23                             127    0.0210 12.5 214 
 LD5  SZ E        1318 57.33                   34.4  8.8      0        12.5 214 
 LD5  SE IS       1318 59.21                             127   -0.0210 12.5 214 
 LD5  SZ  AML     1319  0.07      2198.1 0.26                          12.5 214 
                                                                                
