 2008 1118 1418  8.8 L  21.242 -99.308 10.0  RAL  1 0.0-0.3LRAL                1
 GAP=360        0.30       7.0     1.5  0.0  0.1040E+02  0.5661E+01  0.4515E+01E
 ACTION:UPD 12-06-08 11:37 OP:RALL STATUS:               ID:20081118141808     I
 2008-11-18-1417-58S.PLUR1_003                                                 6
 STAT SP IPHASW D HRMM SECON CODA AMPLIT PERI AZIMU VELO AIN AR TRES W  DIS CAZ7
 LD5  SZ E        1418 10.41                   11.3 22.1      0        6.23 191 
 LD5  SN IP       1418 10.89                             148    0.0210 6.23 191 
 LD5  SE IS       1418 12.38                             148   -0.0210 6.23 191 
 LD5  SZ  AML     1418 12.84         2.3 1.04                          6.23 191 
                                                                                
