 2008 1118 1634 39.6 L  21.254 -99.310 15.0  RAL  2 0.1 0.4LRAL                1
 GAP=187        1.04       4.8     1.0 11.9  0.3086E+01 -0.5251E+01 -0.3921E+02E
 ACTION:UPD 12-06-08 11:37 OP:RALL STATUS:               ID:20081118163439     I
 2008-11-18-1634-29S.PLUR1_006                                                 6
 STAT SP IPHASW D HRMM SECON CODA AMPLIT PERI AZIMU VELO AIN AR TRES W  DIS CAZ7
 LD5  SN IP       1634 42.66                             154    0.1410 7.53 188 
 LD5  SZ E        1634 42.67                    9.0 10.7      1        7.53 188 
 LD5  SE IS       1634 44.64                             154    0.0210 7.53 188 
 LD5  SZ  AML     1634 45.09         4.4 0.28                          7.53 188 
 LA4  SZ E        1634 44.42                  184.9  9.4      5        25.4   0 
 LA4  SN IP       1634 44.57                             119    0.0410 25.4   0 
 LA4  SE IS       1634 47.89                             119   -0.2010 25.4   0 
 LA4  SZ  AML     1634 50.84        11.9 0.60                          25.4   0 
                                                                                
