 2008 1118 1323 34.3 L  21.324 -99.275 10.0  RAL  2 0.4 0.6LRAL                1
 GAP=200        6.47       3.5     9.4 46.8 -0.2234E+02  0.5661E+01  0.4515E+01E
 ACTION:UPD 12-06-08 11:37 OP:RALL STATUS:               ID:20081118132334     I
 2008-11-18-1323-22S.PLUR1_006                                                 6
 STAT SP IPHASW D HRMM SECON CODA AMPLIT PERI AZIMU VELO AIN AR TRES W  DIS CAZ7
 LZ4  SZ E        1323 36.45                  236.9 15.8     20        0.93  37 
 LZ4  SN IP       1323 36.48                             176    0.3010 0.93  37 
 LZ4  SE IS       1323 37.66                             176    0.1410 0.93  37 
 LZ4  SZ  AML     1323 37.82        82.6 0.36                          0.93  37 
 LD5  SZ E        1323 37.42                   41.6 14.5     24        15.9 197 
 LD5  SN IP       1323 37.52                             120   -0.0310 15.9 197 
 LD5  SE IS       1323 39.49                             120   -0.4010 15.9 197 
 LD5  SZ  AML     1323 39.92         2.9 0.66                          15.9 197 
                                                                                
