 2008 1118 1452 49.5 L  21.280 -99.315 10.0  RAL  1 0.0 0.2LRAL                1
 GAP=360        0.30       5.1     0.4  0.0  0.1541E+01  0.5661E+01  0.4515E+01E
 ACTION:UPD 12-06-08 11:37 OP:RALL STATUS:               ID:20081118145249     I
 2008-11-18-1452-37S.PLUR1_003                                                 6
 STAT SP IPHASW D HRMM SECON CODA AMPLIT PERI AZIMU VELO AIN AR TRES W  DIS CAZ7
 LD5  SZ E        1452 51.93                    3.2 14.7      0        10.4 183 
 LD5  SN IP       1452 52.00                             133    0.0010 10.4 183 
 LD5  SE IS       1452 53.83                             133    0.0010 10.4 183 
 LD5  SZ  AML     1452 54.73         6.1 0.26                          10.4 183 
                                                                                
