 2008 1118 1359 28.4 L  21.314 -99.302 10.0  RAL  1 0.0 0.7LRAL                1
 GAP=360        0.34       5.8    11.4  0.0  0.6644E+02  0.5661E+01  0.4515E+01E
 ACTION:UPD 12-06-08 11:37 OP:RALL STATUS:               ID:20081118135928     I
 2008-11-18-1359-17S.PLUR1_003                                                 6
 STAT SP IPHASW D HRMM SECON CODA AMPLIT PERI AZIMU VELO AIN AR TRES W  DIS CAZ7
 LZ4  SZ E        1359 30.45                  241.2 12.0      0        3.83  61 
 LZ4  SN IP       1359 30.46                             160    0.1110 3.83  61 
 LZ4  SE IS       1359 31.65                             160   -0.1110 3.83  61 
 LZ4  SZ  AML     1359 32.24        28.5 0.52                          3.83  61 
                                                                                
