 2008 1118 1725 44.0 L  21.284 -99.285 10.0  RAL  2 0.2 0.5LRAL                1
 GAP=205        2.64       8.2     3.3 40.3  0.1688E+02 -0.5610E+02 -0.2136E+03E
 ACTION:UPD 12-06-08 11:37 OP:RALL STATUS:               ID:20081118172544     I
 2008-11-18-1725-33S.PLUR1_006                                                 6
 STAT SP IPHASW D HRMM SECON CODA AMPLIT PERI AZIMU VELO AIN AR TRES W  DIS CAZ7
 LD5  SZ E        1725 46.37                    6.6 14.0    -11        11.4 199 
 LD5  SN IP       1725 46.41                             130   -0.2510 11.4 199 
 LD5  SE IS       1725 48.35                             130   -0.2310 11.4 199 
 LD5  SZ  AML     1725 48.80         5.0 0.16                          11.4 199 
 LA4  SZ E        1725 47.99                  169.8  9.1     -3        22.2 354 
 LA4  SN IP       1725 48.14                             111    0.0110 22.2 354 
 LA4  SE IS       1725 51.60                             111    0.4810 22.2 354 
 LA4  SZ  AML     1725 53.09        16.3 0.72                          22.2 354 
                                                                                
