 2008 1118 1601 45.0 L  21.333 -99.273 10.0  RAL  1 0.5 0.7LRAL                1
 GAP=360        6.52     999.9   148.0  0.0  0.5005E+06  0.5661E+01  0.4515E+01E
 ACTION:UPD 12-06-08 11:37 OP:RALL STATUS:               ID:20081118160145     I
 2008-11-18-1601-32S.PLUR1_003                                                 6
 STAT SP IPHASW D HRMM SECON CODA AMPLIT PERI AZIMU VELO AIN AR TRES W  DIS CAZ7
 LZ4  SZ E        16 1 46.91                  272.4  9.5    -30        0.45 123 
 LZ4  SN IP       16 1 46.95                             177    0.1410 0.45 123 
 LZ4  SZ  AML     16 1 47.86        31.3 0.48                          0.45 123 
 LZ4  SE IS       16 1 48.00                             177   -0.1410 0.45 123 
                                                                                
