 2008 1118 2256 40.9 L  21.554 -99.556 10.0  RAL  1 0.0 0.6LRAL                1
 GAP=360        0.30       1.3     4.0  0.0 -0.4337E+01 -0.5610E+02 -0.2136E+03E
 ACTION:UPD 12-06-08 11:37 OP:RALL STATUS:               ID:20081118225640     I
 2008-11-18-2256-35S.PLUR1_003                                                 6
 STAT SP IPHASW D HRMM SECON CODA AMPLIT PERI AZIMU VELO AIN AR TRES W  DIS CAZ7
 LA4  SZ E        2256 44.77                  287.0 11.9      0        26.8 107 
 LA4  SN IP       2256 45.65                             107    0.0210 26.8 107 
 LA4  SE IS       2256 49.10                             107   -0.0210 26.8 107 
 LA4  SZ  AML     2256 49.66         9.0 0.24                          26.8 107 
                                                                                
