 2008 1119 0421  0.1 L  21.482 -99.317 10.0  RAL  1 0.1 1.5LRAL                1
 GAP=360        1.06     999.9   233.0  0.0 -0.4959E+06 -0.5610E+02 -0.2136E+03E
 ACTION:UPD 12-06-08 11:37 OP:RALL STATUS:               ID:20081119042100     I
 2008-11-19-0420-47S.PLUR1_003                                                 6
 STAT SP IPHASW D HRMM SECON CODA AMPLIT PERI AZIMU VELO AIN AR TRES W  DIS CAZ7
 LA4  SZ E         421  2.03                  264.6 11.8      5        0.84  80 
 LA4  SN IP        421  2.05                             175    0.0810 0.84  80 
 LA4  SE IS        421  3.24                             175   -0.0810 0.84  80 
 LA4  SZ  AML      421  3.59       172.3 0.28                          0.84  80 
                                                                                
