 2008 1119 0236 49.2 L  21.306 -99.301 10.0  RAL  1 0.0 0.3LRAL                1
 GAP=360        0.35       7.2     9.4  0.0  0.6747E+02 -0.5610E+02 -0.2136E+03E
 ACTION:UPD 12-06-08 11:37 OP:RALL STATUS:               ID:20081119023649     I
 2008-11-19-0236-37S.PLUR1_003                                                 6
 STAT SP IPHASW D HRMM SECON CODA AMPLIT PERI AZIMU VELO AIN AR TRES W  DIS CAZ7
 LZ4  SN IP        236 51.27                             157    0.1310 4.29  50 
 LZ4  SZ E         236 51.30                  230.5 17.6      0        4.29  50 
 LZ4  SE IS        236 52.45                             157   -0.1310 4.29  50 
 LZ4  SZ  AML      236 52.50         9.3 0.48                          4.29  50 
                                                                                
