 2008 1119 0535  4.8 L  21.602 -99.403 10.0  RAL  1 0.0 1.3LRAL                1
 GAP=360        0.30       3.4     2.8  0.0 -0.9182E+01  0.5591E+03 -0.1553E+03E
 ACTION:UPD 12-06-08 11:37 OP:RALL STATUS:               ID:20081119053504     I
 2008-11-19-0534-54S.PLUR1_003                                                 6
 STAT SP IPHASW D HRMM SECON CODA AMPLIT PERI AZIMU VELO AIN AR TRES W  DIS CAZ7
 LA4  SZ E         535  8.03                  323.3  8.4      0        16.4 143 
 LA4  SN IP        535  8.10                             119    0.0110 16.4 143 
 LA4  SE IS        535 10.47                             119   -0.0110 16.4 143 
 LA4  SZ  AML      535 11.84        61.0 0.52                          16.4 143 
                                                                                
