 2008 1119 0459 26.2 L  21.531 -99.456  0.0  RAL  2 0.2 1.2LRAL                1
 GAP=309        1.63       3.5     7.4152.9 -0.1949E+02  0.5591E+03 -0.1553E+03E
 ACTION:UPD 12-06-08 11:37 OP:RALL STATUS:               ID:20081119045926     I
 2008-11-19-0459-15S.PLUR1_006                                                 6
 STAT SP IPHASW D HRMM SECON CODA AMPLIT PERI AZIMU VELO AIN AR TRES W  DIS CAZ7
 LA4  SZ E         459 29.18                  290.9 10.3      2        16.1 109 
 LA4  SN IP        459 29.21                              94    0.2010 16.1 109 
 LA4  SE IS        459 30.40                              94   -0.6810 16.1 109 
 LA4  SZ  AML      459 30.62       424.0 0.28                          16.1 109 
 LD5  SN IP        459 33.60                              91    0.3010 40.7 160 
 LD5  SZ E         459 33.69                  333.2 11.1     -6        40.7 160 
 LD5  SE IS        459 38.68                              91    0.1810 40.7 160 
 LD5  SZ  AML      459 39.93         2.7 0.38                          40.7 160 
                                                                                
