 2008 1119 0504 10.3 L  21.484 -99.311 10.0  RAL  1 0.0 0.4LRAL                1
 GAP=360        0.47     999.9   213.4  0.0  0.1347E+07  0.5591E+03 -0.1553E+03E
 ACTION:UPD 12-06-08 11:37 OP:RALL STATUS:               ID:20081119050410     I
 2008-11-19-0503-59S.PLUR1_003                                                 6
 STAT SP IPHASW D HRMM SECON CODA AMPLIT PERI AZIMU VELO AIN AR TRES W  DIS CAZ7
 LA4  SZ E         5 4 12.06                  272.6  9.9     -1        0.23  94 
 LA4  SN IP        5 4 12.20                             179    0.0810 0.23  94 
 LA4  SE IS        5 4 13.38                             179   -0.0810 0.23  94 
 LA4  SZ  AML      5 4 13.72        12.8 0.28                          0.23  94 
                                                                                
