 2008 1119 0731  5.8 L  21.318 -99.300 10.0  RAL  1 0.0 0.6LRAL                1
 GAP=360        0.34       5.4    12.9  0.0  0.6958E+02  0.5591E+03 -0.1553E+03E
 ACTION:UPD 12-06-08 11:37 OP:RALL STATUS:               ID:20081119073105     I
 2008-11-19-0730-53S.PLUR1_003                                                 6
 STAT SP IPHASW D HRMM SECON CODA AMPLIT PERI AZIMU VELO AIN AR TRES W  DIS CAZ7
 LZ4  SN IP        731  7.81                             161    0.1110 3.47  66 
 LZ4  SZ E         731  7.86                  245.9 12.2      0        3.47  66 
 LZ4  SE IS        731  8.99                             161   -0.1110 3.47  66 
 LZ4  SZ  AML      731  9.18        22.6 0.32                          3.47  66 
                                                                                
