 2008 1119 2259  0.8 Ly 21.273 -99.269 10.0  RAL  1 0.0-0.1LRAL                1
 GAP=360        0.30       4.4     2.6  0.0  0.1131E+02  0.5591E+03 -0.1553E+03E
 ACTION:UPD 12-06-08 11:37 OP:RALL STATUS:               ID:20081119225900     I
 2008-11-19-2258-50S.PLUR1_003                                                 6
 STAT SP IPHASW D HRMM SECON CODA AMPLIT PERI AZIMU VELO AIN AR TRES W  DIS CAZ7
 LD5  SZ E        2259  3.35                   29.1 10.8      0        10.9 209 
 LD5  SN IP       2259  3.39                             132    0.0210 10.9 209 
 LD5  SE IS       2259  5.22                             132   -0.0210 10.9 209 
 LD5  SZ  AML     2259  5.74         3.2 0.16                          10.9 209 
                                                                                
