 2008 1120 0547 16.6 L  21.710 -99.389 10.0  RAL  1 0.0 1.1LRAL                1
 GAP=360        0.30       3.7     1.5  0.0 -0.4679E+01  0.7192E+01  0.2893E+01E
 ACTION:UPD 12-06-08 11:37 OP:RALL STATUS:               ID:20081120054716     I
 2008-11-20-0547-09S.PLUR1_003                                                 6
 STAT SP IPHASW D HRMM SECON CODA AMPLIT PERI AZIMU VELO AIN AR TRES W  DIS CAZ7
 LA4  SZ E         547 21.36                  341.7  8.7      0        26.4 162 
 LA4  SN IP        547 21.36                             107    0.0210 26.4 162 
 LA4  SE IS        547 24.76                             107   -0.0210 26.4 162 
 LA4  SZ  AML      547 25.45        24.7 0.72                          26.4 162 
                                                                                
