 2008 1120 0433 50.8 L  21.204 -99.306 10.0  RAL  1 0.2 0.9LRAL                1
 GAP=360        0.65      28.6    22.4  0.0  0.6390E+03  0.7192E+01  0.2893E+01E
 ACTION:UPD 12-06-08 11:37 OP:RALL STATUS:               ID:20081120043350     I
 2008-11-20-0433-38S.PLUR1_003                                                 6
 STAT SP IPHASW D HRMM SECON CODA AMPLIT PERI AZIMU VELO AIN AR TRES W  DIS CAZ7
 LD5  SZ E         433 53.01                   36.2 11.3      0        2.44 216 
 LD5  SN IP        433 53.02                             167    0.3910 2.44 216 
 LD5  SE IS        433 53.60                             167   -0.3910 2.44 216 
 LD5  SZ  AML      433 53.73        45.3 0.36                          2.44 216 
                                                                                
