 2008 1120 0009 14.2 L  21.499 -99.339 10.0  RAL  1 0.1 1.2LRAL                1
 GAP=360        0.35       6.7    12.8  0.0 -0.8496E+02  0.5591E+03 -0.1553E+03E
 ACTION:UPD 12-06-08 11:37 OP:RALL STATUS:               ID:20081120000914     I
 2008-11-20-0009-01S.PLUR1_003                                                 6
 STAT SP IPHASW D HRMM SECON CODA AMPLIT PERI AZIMU VELO AIN AR TRES W  DIS CAZ7
 LA4  SZ E         0 9 16.27                  299.2 10.2      0        3.55 119 
 LA4  SN IP        0 9 16.30                             161    0.1310 3.55 119 
 LA4  SE IS        0 9 17.45                             161   -0.1310 3.55 119 
 LA4  SZ  AML      0 9 17.80        89.2 0.24                          3.55 119 
                                                                                
