 2008 1120 0346 41.1 L  21.305 -99.301 10.0  RAL  1 0.0 0.3LRAL                1
 GAP=360        0.35       7.2     9.1  0.0  0.6559E+02  0.7192E+01  0.2893E+01E
 ACTION:UPD 12-06-08 11:37 OP:RALL STATUS:               ID:20081120034641     I
 2008-11-20-0346-29S.PLUR1_003                                                 6
 STAT SP IPHASW D HRMM SECON CODA AMPLIT PERI AZIMU VELO AIN AR TRES W  DIS CAZ7
 LZ4  SZ E         346 42.44                  229.6 31.2      0        4.33  50 
 LZ4  SN IP        346 43.23                             157    0.1210 4.33  50 
 LZ4  SE IS        346 44.42                             157   -0.1210 4.33  50 
 LZ4  SZ  AML      346 46.30        10.2 0.60                          4.33  50 
                                                                                
