 2008 1120 0213 37.4 L  21.623 -99.381 10.0  RAL  1 0.0 0.5LRAL                1
 GAP=360        0.30       3.8     2.0  0.0 -0.7269E+01  0.7192E+01  0.2893E+01E
 ACTION:UPD 12-06-08 11:37 OP:RALL STATUS:               ID:20081120021337     I
 2008-11-20-0213-29S.PLUR1_003                                                 6
 STAT SP IPHASW D HRMM SECON CODA AMPLIT PERI AZIMU VELO AIN AR TRES W  DIS CAZ7
 LA4  SZ E         213 40.81                  334.3  7.9      0        17.2 154 
 LA4  SN IP        213 40.83                             118    0.0010 17.2 154 
 LA4  SE IS        213 43.29                             118    0.0010 17.2 154 
 LA4  SZ  AML      213 43.34         8.4 0.32                          17.2 154 
                                                                                
