 2008 1120 0022 51.7 L  21.312 -99.304  3.9  RAL  3 0.3 0.9LRAL                1
 GAP=172        3.25       1.6     3.6 15.8  0.5222E+01  0.7192E+01  0.2893E+01E
 ACTION:UPD 12-06-08 11:37 OP:RALL STATUS:               ID:20081120002251     I
 2008-11-20-0022-38S.PLUR1_009                                                 6
 STAT SP IPHASW D HRMM SECON CODA AMPLIT PERI AZIMU VELO AIN AR TRES W  DIS CAZ7
 LZ4  SZ E         022 52.67                  249.0 13.5     10        4.16  59 
 LZ4  SN IP        022 52.67                             159   -0.1410 4.16  59 
 LZ4  SE IS        022 53.88                             159    0.2510 4.16  59 
 LZ4  SZ  AML      022 54.03       237.6 0.44                          4.16  59 
 LD5  SN IP        022 53.64                             100   -0.6410 14.0 187 
 LD5  SZ E         022 53.68                   20.4 10.6     13        14.0 187 
 LD5  SE IS        022 55.62                             100   -0.5510 14.0 187 
 LD5  SZ  AML      022 56.42         7.1 0.26                          14.0 187 
 LA4  SN IP        022 55.08                              97   -0.0510 19.0 358 
 LA4  SZ E         022 55.10                  173.5 10.0     -4        19.0 358 
 LA4  SE IS        022 58.77                              97    1.1310 19.0 358 
 LA4  SZ  AML      022 59.99        28.9 0.48                          19.0 358 
                                                                                
