 2008 1120 1658 41.8 L  21.300 -99.303  4.1  RAL  3 0.3 0.9LRAL                1
 GAP=170        4.17       4.3     4.1 29.9  0.1442E+02  0.1765E+02  0.1615E+02E
 ACTION:UPD 12-06-08 11:37 OP:RALL STATUS:               ID:20081120165841     I
 2008-11-20-1658-28S.PLUR1_009                                                 6
 STAT SP IPHASW D HRMM SECON CODA AMPLIT PERI AZIMU VELO AIN AR TRES W  DIS CAZ7
 LZ4  SN IP       1658 42.80                             136   -0.2310 4.85  45 
 LZ4  SZ E        1658 42.81                  236.7 16.6     11        4.85  45 
 LZ4  SE IS       1658 44.00                             136    0.0710 4.85  45 
 LZ4  SZ  AML     1658 44.36       293.5 0.16                          4.85  45 
 LD5  SZ E        1658 43.68                   15.2  9.9      7        12.7 188 
 LD5  SN IP       1658 43.70                             112   -0.4910 12.7 188 
 LD5  SE IS       1658 45.73                             112   -0.2110 12.7 188 
 LD5  SZ  AML     1658 46.50         6.8 0.24                          12.7 188 
 LA4  SZ E        1658 45.47                  158.8 10.0    -18        20.3 358 
 LA4  SN IP       1658 45.55                             104    0.0810 20.3 358 
 LA4  SE IS       1658 48.94                             104    0.7910 20.3 358 
 LA4  SZ  AML     1658 50.05        23.8 0.52                          20.3 358 
                                                                                
