 2008 1120 1622 41.9 L  21.322 -99.274 10.0  RAL  2 0.4 0.6LRAL                1
 GAP=187        7.05      18.1    11.9 57.9  0.1045E+03  0.1540E+03  0.3802E+03E
 ACTION:UPD 12-06-08 11:37 OP:RALL STATUS:               ID:20081120162241     I
 2008-11-20-1622-29S.PLUR1_006                                                 6
 STAT SP IPHASW D HRMM SECON CODA AMPLIT PERI AZIMU VELO AIN AR TRES W  DIS CAZ7
 LZ4  SN IP       1622 44.09                             169    0.3210 1.12  24 
 LZ4  SZ E        1622 44.13                  236.5 13.2     32        1.12  24 
 LZ4  SE IS       1622 45.29                             169    0.1810 1.12  24 
 LZ4  SZ  AML     1622 45.65        93.3 0.40                          1.12  24 
 LD5  SZ E        1622 45.02                   30.1  9.8     12        15.7 198 
 LD5  SN IP       1622 45.02                             122   -0.0810 15.7 198 
 LD5  SE IS       1622 46.99                             122   -0.4310 15.7 198 
 LD5  SZ  AML     1622 47.78         3.5 0.28                          15.7 198 
                                                                                
