 2008 1120 1723 28.7 L  21.573 -99.326 10.0  RAL  1 0.0 1.1LRAL                1
 GAP=360        0.30       5.1     1.0  0.0 -0.4922E+01  0.1765E+02  0.1615E+02E
 ACTION:UPD 12-06-08 11:37 OP:RALL STATUS:               ID:20081120172328     I
 2008-11-20-1723-17S.PLUR1_003                                                 6
 STAT SP IPHASW D HRMM SECON CODA AMPLIT PERI AZIMU VELO AIN AR TRES W  DIS CAZ7
 LA4  SN IP       1723 31.15                             135    0.0010 10.0 170 
 LA4  SZ E        1723 31.18                  350.1  7.4      0        10.0 170 
 LA4  SE IS       1723 32.95                             135    0.0010 10.0 170 
 LA4  SZ  AML     1723 33.05        47.4 0.32                          10.0 170 
                                                                                
