 2008 1120 2152 40.2 L                       RAL  1                            1
 ACTION:UPD 12-06-08 11:37 OP:RALL STATUS:               ID:20081120215240     I
 2008-11-20-2152-40S.PLUR1_003                                                 6
 STAT SP IPHASW D HRMM SECON CODA AMPLIT PERI AZIMU VELO AIN AR TRES W  DIS CAZ7
 LA4  SZ E        2152 53.75                                                    
 LA4  SN IP       2152 53.76                                                    
 LA4  SE IS       2152 55.14                                                    
 LA4  SZ  AML     2152 55.61        30.2 0.24                                   
                                                                                
