 2008 1121 0607 39.3 L  21.729 -99.457 10.0  RAL  1 0.0 1.5LRAL                1
 GAP=360        0.30       3.4     2.2  0.0 -0.6424E+01  0.5968E+01  0.6488E+01E
 ACTION:UPD 12-06-08 11:37 OP:RALL STATUS:               ID:20081121060739     I
 2008-11-21-0607-32S.PLUR1_003                                                 6
 STAT SP IPHASW D HRMM SECON CODA AMPLIT PERI AZIMU VELO AIN AR TRES W  DIS CAZ7
 LA4  SZ E         6 7 44.47                  330.6 15.7      0        31.2 151 
 LA4  SN IP        6 7 44.79                             104    0.0210 31.2 151 
 LA4  SE IS        6 7 48.71                             104   -0.0210 31.2 151 
 LA4  SZ  AML      6 7 51.80        61.3 0.52                          31.2 151 
                                                                                
