 2008 1121 0501 44.7 L  21.311 -99.288  6.6  RAL  3 0.3 0.7LRAL                1
 GAP=160        3.31       3.9     3.4 18.1  0.1289E+02  0.5968E+01  0.6488E+01E
 ACTION:UPD 12-06-08 11:37 OP:RALL STATUS:               ID:20081121050144     I
 2008-11-21-0501-31S.PLUR1_009                                                 6
 STAT SP IPHASW D HRMM SECON CODA AMPLIT PERI AZIMU VELO AIN AR TRES W  DIS CAZ7
 LZ4  SZ E         5 1 45.87                  229.5 20.9      9        2.93  40 
 LZ4  SN IP        5 1 45.87                             157   -0.2110 2.93  40 
 LZ4  SE IS        5 1 47.05                             157   -0.0410 2.93  40 
 LZ4  SZ  AML      5 1 47.43       131.3 0.20                          2.93  40 
 LD5  SZ E         5 1 46.72                   25.3  8.1     12        14.1 194 
 LD5  SN IP        5 1 46.75                             108   -0.6710 14.1 194 
 LD5  SE IS        5 1 48.68                             108   -0.7310 14.1 194 
 LD5  SZ  AML      5 1 49.54         5.0 0.28                          14.1 194 
 LA4  SZ E         5 1 48.53                  164.5  9.4     -8        19.3 353 
 LA4  SN IP        5 1 48.63                             101    0.4410 19.3 353 
 LA4  SE IS        5 1 51.97                             101    1.2110 19.3 353 
 LA4  SZ  AML      5 1 53.12        15.8 0.32                          19.3 353 
                                                                                
