 2008 1121 0545  6.6 L  21.228 -99.317 10.0  RAL  1 0.0 0.2LRAL                1
 GAP=360        0.30       9.0     0.8  0.0  0.6768E+01  0.5968E+01  0.6488E+01E
 ACTION:UPD 12-06-08 11:37 OP:RALL STATUS:               ID:20081121054506     I
 2008-11-21-0544-56S.PLUR1_003                                                 6
 STAT SP IPHASW D HRMM SECON CODA AMPLIT PERI AZIMU VELO AIN AR TRES W  DIS CAZ7
 LD5  SN IP        545  8.62                             156    0.0110 4.64 185 
 LD5  SZ E         545  8.63                    4.5 10.9      0        4.64 185 
 LD5  SE IS        545 10.04                             156   -0.0110 4.64 185 
 LD5  SZ  AML      545 11.30         8.9 0.48                          4.64 185 
                                                                                
