 2008 1121 0702 49.7 L  21.660 -99.333 10.0  RAL  1 0.0 0.6LRAL                1
 GAP=360        0.30       4.0     0.8  0.0 -0.2178E+01  0.5968E+01  0.6488E+01E
 ACTION:UPD 12-06-08 11:37 OP:RALL STATUS:               ID:20081121070249     I
 2008-11-21-0702-41S.PLUR1_003                                                 6
 STAT SP IPHASW D HRMM SECON CODA AMPLIT PERI AZIMU VELO AIN AR TRES W  DIS CAZ7
 LA4  SZ E         7 2 53.27                  352.8  8.2      0        19.7 173 
 LA4  SN IP        7 2 53.41                             114    0.0210 19.7 173 
 LA4  SE IS        7 2 56.10                             114   -0.0210 19.7 173 
 LA4  SZ  AML      7 2 56.68         9.8 0.24                          19.7 173 
                                                                                
