 2008 1121 1523 24.2 L  20.773 -99.358  5.3  RAL  2 0.2 1.1LRAL                1
 GAP=356        3.14      45.7    11.8999.9  0.2106E+03  0.1812E+05  0.1771E+06E
 ACTION:UPD 12-06-08 11:37 OP:RALL STATUS:               ID:20081121152324     I
 2008-11-21-1523-17S.PLUR1_006                                                 6
 STAT SP IPHASW D HRMM SECON CODA AMPLIT PERI AZIMU VELO AIN AR TRES W  DIS CAZ7
 LD5  SZ E        1523 31.76                  193.9 17.1      9        45.9   5 
 LD5  SN IP       1523 31.86                              91    0.0010 45.9   5 
 LD5  SE IS       1523 37.18                              91   -0.2410 45.9   5 
 LD5  SZ  AML     1523 41.37         3.9 0.48                          45.9   5 
 LZ4  SZ E        1523 34.41                  176.2  8.0    -11        62.4   8 
 LZ4  SN IP       1523 34.50                              90    0.0810 62.4   8 
 LZ4  SE IS       1523 42.02                              90    0.1710 62.4   8 
 LZ4  SZ  AML     1523 45.19        53.5 0.24                          62.4   8 
                                                                                
