 2008 1121 1526 34.6 L  21.645 -99.627 10.0  RAL  1 0.0 1.5LRAL                1
 GAP=360        0.30       2.7     3.1  0.0 -0.6551E+01  0.1812E+05  0.1771E+06E
 ACTION:UPD 12-06-08 11:37 OP:RALL STATUS:               ID:20081121152634     I
 2008-11-21-1526-28S.PLUR1_006                                                 6
 STAT SP IPHASW D HRMM SECON CODA AMPLIT PERI AZIMU VELO AIN AR TRES W  DIS CAZ7
 LZ4  SN IP       1526 43.00                              97    0.0110 50.8 133 
 LZ4  SZ E        1526 43.08                  313.3  8.8      0        50.8 133 
 LZ4  SE IS       1526 49.12                              97   -0.0110 50.8 133 
 LZ4  SZ  AML     1526 51.92        41.1 0.24                          50.8 133 
                                                                                
