 2008 1121 1757 25.2 L  21.602 -99.339 10.0  RAL  1 0.0 0.9LRAL                1
 GAP=360        0.30       4.4     1.2  0.0 -0.4898E+01  0.1812E+05  0.1771E+06E
 ACTION:UPD 12-06-08 11:37 OP:RALL STATUS:               ID:20081121175725     I
 2008-11-21-1757-15S.PLUR1_003                                                 6
 STAT SP IPHASW D HRMM SECON CODA AMPLIT PERI AZIMU VELO AIN AR TRES W  DIS CAZ7
 LA4  SZ E        1757 28.11                  346.7  8.7      0        13.5 167 
 LA4  SN IP       1757 28.12                             125    0.0010 13.5 167 
 LA4  SE IS       1757 30.23                             125    0.0010 13.5 167 
 LA4  SZ  AML     1757 30.39        25.6 0.32                          13.5 167 
                                                                                
