 2008 1121 2028 53.7 L  21.184 -99.307 10.0  RAL  1 0.1-0.4LRAL                1
 GAP=360        0.42     999.9   458.1  0.0  0.7187E+06  0.1812E+05  0.1771E+06E
 ACTION:UPD 12-06-08 11:37 OP:RALL STATUS:               ID:20081121202853     I
 2008-11-21-2028-41S.PLUR1_003                                                 6
 STAT SP IPHASW D HRMM SECON CODA AMPLIT PERI AZIMU VELO AIN AR TRES W  DIS CAZ7
 LD5  SZ E        2028 55.63                  104.0 16.5      0        1.37 284 
 LD5  SN IP       2028 55.75                             172    0.2010 1.37 284 
 LD5  SE IS       2028 56.70                             172   -0.2010 1.37 284 
 LD5  SZ  AML     2028 57.30         2.0 0.26                          1.37 284 
                                                                                
