 2008 1122 0753 13.1 L  21.189 -99.320 10.0  RAL  1 1.8 0.2LRAL                1
 GAP=360       23.33     999.9   999.9  0.0  0.2216E+10  0.1812E+05  0.1771E+06E
 ACTION:UPD 12-06-08 11:37 OP:RALL STATUS:               ID:20081122075313     I
 2008-11-22-0753-00S.PLUR1_003                                                 6
 STAT SP IPHASW D HRMM SECON CODA AMPLIT PERI AZIMU VELO AIN AR TRES W  DIS CAZ7
 LD5  SZ E         753 15.31                  106.2 10.6    111        0.27 175 
 LD5  SN IP        753 15.34                             178    0.4110 0.27 175 
 LD5  SE IS        753 15.86                             178   -0.4110 0.27 175 
 LD5  SZ  AML      753 16.15         8.6 0.16                          0.27 175 
                                                                                
