 2008 1122 0826 26.4 L  21.214 -99.289 10.0  RAL  1 0.0 0.0LRAL                1
 GAP=360        0.34       7.2     8.2  0.0  0.5958E+02  0.1812E+05  0.1771E+06E
 ACTION:UPD 12-06-08 11:37 OP:RALL STATUS:               ID:20081122082626     I
 2008-11-22-0826-14S.PLUR1_003                                                 6
 STAT SP IPHASW D HRMM SECON CODA AMPLIT PERI AZIMU VELO AIN AR TRES W  DIS CAZ7
 LD5  SZ E         826 28.36                   46.8 10.7      0        4.47 227 
 LD5  SN IP        826 28.45                             156    0.1110 4.47 227 
 LD5  SE IS        826 29.67                             156   -0.1110 4.47 227 
 LD5  SZ  AML      826 30.12         5.3 0.34                          4.47 227 
                                                                                
