 2008 1122 1608 24.6 L  21.319 -99.267  1.8  RAL  2 0.3 0.1LRAL                1
 GAP=214        3.12       5.9     3.7149.0  0.3977E+01 -0.4957E+02 -0.2111E+03E
 ACTION:UPD 12-06-08 11:37 OP:RALL STATUS:               ID:20081122160824     I
 2008-11-22-1608-14S.PLUR1_006                                                 6
 STAT SP IPHASW D HRMM SECON CODA AMPLIT PERI AZIMU VELO AIN AR TRES W  DIS CAZ7
 LD5  SN IP       16 8 26.65                             100   -0.7110 15.6 201 
 LD5  SZ E        16 8 26.67                   12.4  8.1     -7        15.6 201 
 LD5  SE IS       16 8 28.63                             100   -0.7610 15.6 201 
 LD5  SZ  AML     16 8 31.14         2.5 0.28                          15.6 201 
 LA4  SZ E        16 8 28.15                  156.6  9.9     -9        18.8 347 
 LA4  SN IP       16 8 28.19                              99    0.2810 18.8 347 
 LA4  SE IS       16 8 31.52                              99    1.1910 18.8 347 
 LA4  SZ  AML     16 8 34.50         7.6 0.52                          18.8 347 
                                                                                
