 2008 1122 1105  0.2 L  21.280 -99.274 10.0  RAL  1 0.0 0.0LRAL                1
 GAP=360        0.30       4.4     2.2  0.0  0.9663E+01  0.1812E+05  0.1771E+06E
 ACTION:UPD 12-06-08 11:37 OP:RALL STATUS:               ID:20081122110500     I
 2008-11-22-1104-49S.PLUR1_003                                                 6
 STAT SP IPHASW D HRMM SECON CODA AMPLIT PERI AZIMU VELO AIN AR TRES W  DIS CAZ7
 LD5  SZ E        11 5  2.81                   25.0  7.4      0        11.4 205 
 LD5  SN IP       11 5  2.86                             130    0.0210 11.4 205 
 LD5  SE IS       11 5  4.75                             130   -0.0210 11.4 205 
 LD5  SZ  AML     11 5  5.57         3.8 0.26                          11.4 205 
                                                                                
