 2008 1122 1150 38.1 L  21.291 -99.295 10.0  RAL  1 0.0 0.1LRAL                1
 GAP=360        0.30       4.7     1.2  0.0  0.5128E+01  0.1812E+05  0.1771E+06E
 ACTION:UPD 12-06-08 11:37 OP:RALL STATUS:               ID:20081122115038     I
 2008-11-22-1150-28S.PLUR1_003                                                 6
 STAT SP IPHASW D HRMM SECON CODA AMPLIT PERI AZIMU VELO AIN AR TRES W  DIS CAZ7
 LD5  SZ E        1150 40.77                   12.5  9.5      0        11.9 193 
 LD5  SN IP       1150 40.81                             129    0.0010 11.9 193 
 LD5  SE IS       1150 42.76                             129    0.0010 11.9 193 
 LD5  SZ  AML     1150 43.60         4.3 0.28                          11.9 193 
                                                                                
