 2008 1123 1206 15.3 L  21.178 -99.297 10.0  RAL  1 0.1-0.5LRAL                1
 GAP=360        0.40       7.7    20.6  0.0 -0.1580E+03 -0.4957E+02 -0.2111E+03E
 ACTION:UPD 12-06-08 11:37 OP:RALL STATUS:               ID:20081123120615     I
 2008-11-23-1206-03S.PLUR1_003                                                 6
 STAT SP IPHASW D HRMM SECON CODA AMPLIT PERI AZIMU VELO AIN AR TRES W  DIS CAZ7
 LD5  SZ E        12 6 17.27                  111.8 10.9      0        2.56 292 
 LD5  SN IP       12 6 17.39                             166    0.1810 2.56 292 
 LD5  SE IS       12 6 18.40                             166   -0.1810 2.56 292 
 LD5  SZ  AML     12 6 19.11         1.8 0.10                          2.56 292 
                                                                                
