 2008 1123 1121 53.1 L  21.182 -99.313 10.0  RAL  1 0.4-0.3LRAL                1
 GAP=360        4.74     999.9   456.8  0.0  0.8211E+06 -0.4957E+02 -0.2111E+03E
 ACTION:UPD 12-06-08 11:37 OP:RALL STATUS:               ID:20081123112153     I
 2008-11-23-1121-41S.PLUR1_003                                                 6
 STAT SP IPHASW D HRMM SECON CODA AMPLIT PERI AZIMU VELO AIN AR TRES W  DIS CAZ7
 LD5  SZ E        1121 55.33                  102.3 10.3    -21        0.91 305 
 LD5  SN IP       1121 55.39                             175    0.4110 0.91 305 
 LD5  SE IS       1121 55.90                             175   -0.4110 0.91 305 
 LD5  SZ  AML     1121 56.15         2.9 0.18                          0.91 305 
                                                                                
