 2008 1123 1803 17.3 L  21.305 -99.275 10.0  RAL  1 0.0 0.8LRAL                1
 GAP=360        0.30      13.7     2.9  0.0  0.3923E+02 -0.4957E+02 -0.2111E+03E
 ACTION:UPD 12-06-08 11:37 OP:RALL STATUS:               ID:20081123180317     I
 2008-11-23-1803-05S.PLUR1_003                                                 6
 STAT SP IPHASW D HRMM SECON CODA AMPLIT PERI AZIMU VELO AIN AR TRES W  DIS CAZ7
 LZ4  SN IP       18 3 19.28                             164    0.0510 2.90  11 
 LZ4  SZ E        18 3 19.32                  191.0 21.0      0        2.90  11 
 LZ4  SE IS       18 3 20.57                             164   -0.0510 2.90  11 
 LZ4  SZ  AML     18 3 20.65        35.3 0.16                          2.90  11 
                                                                                
