 2008 1123 1833 15.5 L  21.478 -99.333 10.0  RAL  1 0.0 1.4LRAL                1
 GAP=360        0.33       4.6    17.7  0.0  0.8096E+02 -0.4957E+02 -0.2111E+03E
 ACTION:UPD 12-06-08 11:37 OP:RALL STATUS:               ID:20081123183315     I
 2008-11-23-1833-03S.PLUR1_003                                                 6
 STAT SP IPHASW D HRMM SECON CODA AMPLIT PERI AZIMU VELO AIN AR TRES W  DIS CAZ7
 LA4  SZ E        1833 17.41                  254.5 13.8      0        2.53  74 
 LA4  SN IP       1833 17.47                             166    0.0910 2.53  74 
 LA4  SE IS       1833 18.67                             166   -0.0910 2.53  74 
 LA4  SZ  AML     1833 19.72       125.7 0.52                          2.53  74 
                                                                                
