 2008 1123 2100 44.2 L  21.608 -99.354 10.0  RAL  1 0.0 1.6LRAL                1
 GAP=360        0.30       4.2     1.6  0.0 -0.6328E+01 -0.4957E+02 -0.2111E+03E
 ACTION:UPD 12-06-08 11:37 OP:RALL STATUS:               ID:20081123210044     I
 2008-11-23-2100-32S.PLUR1_003                                                 6
 STAT SP IPHASW D HRMM SECON CODA AMPLIT PERI AZIMU VELO AIN AR TRES W  DIS CAZ7
 LA4  SN IP       21 0 47.24                             123    0.0010 14.5 161 
 LA4  SZ E        21 0 47.32                  341.2  8.9      0        14.5 161 
 LA4  SE IS       21 0 49.44                             123    0.0010 14.5 161 
 LA4  SZ  AML     21 0 49.61       127.5 0.28                          14.5 161 
                                                                                
