 2008 1124 0215 22.0 L  21.600 -99.333 10.0  RAL  1 0.0 0.6LRAL                1
 GAP=360        0.30       4.5     1.0  0.0 -0.4183E+01 -0.4957E+02 -0.2111E+03E
 ACTION:UPD 12-06-08 11:37 OP:RALL STATUS:               ID:20081124021522     I
 2008-11-24-0215-12S.PLUR1_003                                                 6
 STAT SP IPHASW D HRMM SECON CODA AMPLIT PERI AZIMU VELO AIN AR TRES W  DIS CAZ7
 LA4  SZ E         215 24.85                  349.0  9.9      0        13.2 169 
 LA4  SN IP        215 24.85                             126    0.0010 13.2 169 
 LA4  SE IS        215 26.93                             126    0.0010 13.2 169 
 LA4  SZ  AML      215 28.73        15.4 0.24                          13.2 169 
                                                                                
