 2008 1124 0656 38.6 L  21.618 -99.300 10.0  RAL  1 0.0 0.3LRAL                1
 GAP=360        0.30       4.4     0.5  0.0  0.1225E+01 -0.4957E+02 -0.2111E+03E
 ACTION:UPD 12-06-08 11:37 OP:RALL STATUS:               ID:20081124065638     I
 2008-11-24-0656-29S.PLUR1_003                                                 6
 STAT SP IPHASW D HRMM SECON CODA AMPLIT PERI AZIMU VELO AIN AR TRES W  DIS CAZ7
 LA4  SN IP        656 41.73                             122    0.0310 14.9 183 
 LA4  SZ E         656 41.86                    3.4 10.3      0        14.9 183 
 LA4  SE IS        656 43.93                             122   -0.0310 14.9 183 
 LA4  SZ  AML      656 44.09         6.2 0.24                          14.9 183 
                                                                                
