 2008 1124 1710  3.5 L  21.296 -99.288 10.0  RAL  2 0.3 0.9LRAL                1
 GAP=201        4.15       9.5     4.6136.7  0.1114E+02 -0.9631E+02 -0.6377E+03E
 ACTION:UPD 12-06-08 11:37 OP:RALL STATUS:               ID:20081124171003     I
 2008-11-24-1709-50S.PLUR1_006                                                 6
 STAT SP IPHASW D HRMM SECON CODA AMPLIT PERI AZIMU VELO AIN AR TRES W  DIS CAZ7
 LD5  SZ E        1710  5.74                    2.8  9.7    -11        12.6 195 
 LD5  SN IP       1710  5.75                             106   -0.4710 12.6 195 
 LD5  SE IS       1710  7.82                             106   -0.4310 12.6 195 
 LD5  SZ  AML     1710  8.54        12.2 0.22                          12.6 195 
 LA4  SN IP       1710  7.39                             101    0.0410 20.8 354 
 LA4  SZ E        1710  7.41                  159.0  8.8    -14        20.8 354 
 LA4  SE IS       1710 11.06                             101    0.8610 20.8 354 
 LA4  SZ  AML     1710 12.16        41.7 0.48                          20.8 354 
                                                                                
