 2008 1124 1912 10.3 L  21.639 -99.333 10.0  RAL  1 0.0 0.5LRAL                1
 GAP=360        0.30       4.2     0.8  0.0 -0.2683E+01 -0.9631E+02 -0.6377E+03E
 ACTION:UPD 12-06-08 11:37 OP:RALL STATUS:               ID:20081124191210     I
 2008-11-24-1912-01S.PLUR1_003                                                 6
 STAT SP IPHASW D HRMM SECON CODA AMPLIT PERI AZIMU VELO AIN AR TRES W  DIS CAZ7
 LA4  SZ E        1912 13.71                  351.7 11.4      0        17.3 172 
 LA4  SN IP       1912 13.72                             118    0.0210 17.3 172 
 LA4  SE IS       1912 16.16                             118   -0.0210 17.3 172 
 LA4  SZ  AML     1912 16.18         8.5 0.28                          17.3 172 
                                                                                
