 2008 1124 1039 56.7 L  21.181 -99.301 10.0  RAL  1 0.2-0.6LRAL                1
 GAP=360        0.68      13.8    44.3  0.0 -0.6118E+03 -0.4957E+02 -0.2111E+03E
 ACTION:UPD 12-06-08 11:37 OP:RALL STATUS:               ID:20081124103956     I
 2008-11-24-1039-44S.PLUR1_003                                                 6
 STAT SP IPHASW D HRMM SECON CODA AMPLIT PERI AZIMU VELO AIN AR TRES W  DIS CAZ7
 LD5  SZ E        1039 58.97                  109.0 13.5      1        2.06 288 
 LD5  SN IP       1039 58.98                             169    0.4110 2.06 288 
 LD5  SE IS       1039 59.52                             169   -0.4110 2.06 288 
 LD5  SZ  AML     1039 59.63         1.5 0.16                          2.06 288 
                                                                                
