 2008 1124 1849 54.6 L  21.825 -99.420 10.0  RAL  1 0.0 0.9LRAL                1
 GAP=360        0.30       3.6     1.6  0.0 -0.3923E+01 -0.9631E+02 -0.6377E+03E
 ACTION:UPD 12-06-08 11:37 OP:RALL STATUS:               ID:20081124184954     I
 2008-11-24-1849-52S.PLUR1_003                                                 6
 STAT SP IPHASW D HRMM SECON CODA AMPLIT PERI AZIMU VELO AIN AR TRES W  DIS CAZ7
 LA4  SZ E        1850  1.29                  343.1  8.1      0        39.5 163 
 LA4  SN IP       1850  1.34                             100    0.0110 39.5 163 
 LA4  SE IS       1850  6.21                             100   -0.0110 39.5 163 
 LA4  SZ  AML     1850  7.61        10.5 0.40                          39.5 163 
                                                                                
