 2008 1124 1654 29.8 L  21.339 -99.287 10.0  RAL  2 0.7 0.5LRAL                1
 GAP=200       11.06      28.2    12.7156.1  0.5571E+02 -0.7614E+02 -0.4850E+03E
 ACTION:UPD 12-06-08 11:37 OP:RALL STATUS:               ID:20081124165429     I
 2008-11-24-1654-18S.PLUR1_006                                                 6
 STAT SP IPHASW D HRMM SECON CODA AMPLIT PERI AZIMU VELO AIN AR TRES W  DIS CAZ7
 LA4  SZ E        1654 31.78                  193.9 13.1     22        16.2 352 
 LA4  SN IP       1654 31.90                             127   -1.1310 16.2 352 
 LA4  SE IS       1654 35.29                             127   -0.1210 16.2 352 
 LA4  SZ  AML     1654 36.45        29.6 0.40                          16.2 352 
 LD5  SN IP       1654 32.76                             130   -0.4010 17.2 192 
 LD5  SZ E        1654 32.78                   60.0 52.3     48        17.2 192 
 LD5  SE IS       1654 37.27                             130    1.6510 17.2 192 
 LD5  SZ  AML     1654 38.81         2.6 0.26                          17.2 192 
                                                                                
