 2008 1124 2127 42.0 L  21.748 -99.274 10.0  RAL  4 1.4 2.0LRAL                1
 GAP=347       25.36     176.2    55.5951.9  0.2404E+04 -0.9018E+04 -0.8019E+05E
 ACTION:UPD 12-06-08 11:37 OP:RALL STATUS:               ID:20081124212742     I
 2008-11-24-2127-33S.PLUR1_012                                                 6
 STAT SP IPHASW D HRMM SECON CODA AMPLIT PERI AZIMU VELO AIN AR TRES W  DIS CAZ7
 LA4  SN IP       2127 47.41                             100    0.2610 29.5 187 
 LA4  SZ E        2127 47.44                  337.3  8.2     30        29.5 187 
 LA4  SE IS       2127 49.42                             100   -1.5010 29.5 187 
 LA4  SZ  AML     2127 49.65      2039.6 0.32                          29.5 187 
 LZ4  SN IP       2127 50.15                              95    0.4610 46.2 179 
 LZ4  SZ E        2127 50.16                  319.8  7.3    -39        46.2 179 
 LZ4  SE IS       2127 55.25                              95   -0.0710 46.2 179 
 LZ4  SZ  AML     2128  0.44       374.0 0.36                          46.2 179 
 LD5  SZ E        2127 52.40                    3.8 12.5      0        62.3 184 
 LD5  SN IP       2127 52.44                              94    0.2610 62.3 184 
 LD5  SE IS       2127 58.95                              94   -0.6810 62.3 184 
 LD5  SZ  AML     2128  1.21        17.4 0.48                          62.3 184 
 LO8  SN IP       2127 53.41                              93    0.7310 65.4 174 
 LO8  SZ E        2127 53.44                  152.6  6.3    158        65.4 174 
 LO8  SE IS       2128  1.03                              93    0.5310 65.4 174 
 LO8  SZ  AML     2128  5.12        18.0 0.36                          65.4 174 
                                                                                
