 2008 1124 2332 22.1 L  21.582 -99.336 10.0  RAL  1 0.0 1.3LRAL                1
 GAP=360        0.30       4.8     1.3  0.0 -0.6128E+01 -0.9018E+04 -0.8019E+05E
 ACTION:UPD 12-06-08 11:37 OP:RALL STATUS:               ID:20081124233222     I
 2008-11-24-2332-10S.PLUR1_003                                                 6
 STAT SP IPHASW D HRMM SECON CODA AMPLIT PERI AZIMU VELO AIN AR TRES W  DIS CAZ7
 LA4  SZ E        2332 24.73                  345.8 11.0      0        11.2 166 
 LA4  SN IP       2332 24.74                             131    0.0110 11.2 166 
 LA4  SE IS       2332 26.64                             131   -0.0110 11.2 166 
 LA4  SZ  AML     2332 26.78        72.3 0.16                          11.2 166 
                                                                                
