 2008 1125 0212 54.1 L  21.595 -99.347 10.0  RAL  1 0.0 1.0LRAL                1
 GAP=360        0.30       4.4     1.5  0.0 -0.6575E+01 -0.9018E+04 -0.8019E+05E
 ACTION:UPD 12-06-08 11:37 OP:RALL STATUS:               ID:20081125021254     I
 2008-11-25-0212-44S.PLUR1_003                                                 6
 STAT SP IPHASW D HRMM SECON CODA AMPLIT PERI AZIMU VELO AIN AR TRES W  DIS CAZ7
 LA4  SZ E         212 56.90                  342.3 10.0      0        12.9 162 
 LA4  SN IP        212 56.91                             127    0.0110 12.9 162 
 LA4  SE IS        212 58.96                             127   -0.0110 12.9 162 
 LA4  SZ  AML      212 59.18        32.1 0.24                          12.9 162 
                                                                                
