 2008 1125 0227  2.5 L  21.591 -99.342 10.0  RAL  1 0.0 0.4LRAL                1
 GAP=360        0.30       4.5     1.4  0.0 -0.6246E+01 -0.9018E+04 -0.8019E+05E
 ACTION:UPD 12-06-08 11:37 OP:RALL STATUS:               ID:20081125022702     I
 2008-11-25-0226-52S.PLUR1_003                                                 6
 STAT SP IPHASW D HRMM SECON CODA AMPLIT PERI AZIMU VELO AIN AR TRES W  DIS CAZ7
 LA4  SZ E         227  5.24                  344.0  8.3      0        12.4 164 
 LA4  SN IP        227  5.28                             128    0.0110 12.4 164 
 LA4  SE IS        227  7.28                             128   -0.0110 12.4 164 
 LA4  SZ  AML      227  7.37         8.7 0.24                          12.4 164 
                                                                                
