 2008 1125 0342 34.0 L  21.605 -99.356 10.0  RAL  1 0.0 0.6LRAL                1
 GAP=360        0.30       4.2     1.7  0.0 -0.6704E+01 -0.9018E+04 -0.8019E+05E
 ACTION:UPD 12-06-08 11:37 OP:RALL STATUS:               ID:20081125034234     I
 2008-11-25-0342-24S.PLUR1_003                                                 6
 STAT SP IPHASW D HRMM SECON CODA AMPLIT PERI AZIMU VELO AIN AR TRES W  DIS CAZ7
 LA4  SZ E         342 37.03                  340.1  8.9      0        14.3 160 
 LA4  SN IP        342 37.03                             123    0.0110 14.3 160 
 LA4  SE IS        342 39.21                             123   -0.0110 14.3 160 
 LA4  SZ  AML      342 41.04        12.0 0.28                          14.3 160 
                                                                                
