 2008 1125 0406 35.8 L  21.341 -99.212 10.0  RAL  1 0.0 0.9LRAL                1
 GAP=360        0.30       3.5     2.4  0.0 -0.8001E+01 -0.9018E+04 -0.8019E+05E
 ACTION:UPD 12-06-08 11:37 OP:RALL STATUS:               ID:20081125040635     I
 2008-11-25-0406-27S.PLUR1_003                                                 6
 STAT SP IPHASW D HRMM SECON CODA AMPLIT PERI AZIMU VELO AIN AR TRES W  DIS CAZ7
 LA4  SN IP        4 6 39.38                             115    0.0110 18.8 328 
 LA4  SZ E         4 6 39.39                  147.6  9.2      0        18.8 328 
 LA4  SE IS        4 6 42.00                             115   -0.0110 18.8 328 
 LA4  SZ  AML      4 6 42.34        21.8 0.24                          18.8 328 
                                                                                
