 2008 1125 1906 49.8 L  22.152 -99.377 10.0  RAL  1 0.0 1.2LRAL                1
 GAP=360        0.30       3.7     2.1  0.0 -0.1022E+01 -0.9018E+04 -0.8019E+05E
 ACTION:UPD 12-06-08 11:37 OP:RALL STATUS:               ID:20081125190649     I
 2008-11-25-1906-56S.PLUR1_003                                                 6
 STAT SP IPHASW D HRMM SECON CODA AMPLIT PERI AZIMU VELO AIN AR TRES W  DIS CAZ7
 LA4  SN IP       19 7  1.87                              95    0.0110 74.3 175 
 LA4  SZ E        19 7  1.89                  354.6  8.2      0        74.3 175 
 LA4  SE IS       19 7 10.66                              95   -0.0110 74.3 175 
 LA4  SZ  AML     19 7 12.56        13.7 0.48                          74.3 175 
                                                                                
