 2008 1126 0642  6.9 L  21.295 -99.286 10.0  RAL  1 0.0-0.1LRAL                1
 GAP=360        0.30       4.5     1.4  0.0  0.6215E+01 -0.9018E+04 -0.8019E+05E
 ACTION:UPD 12-06-08 11:37 OP:RALL STATUS:               ID:20081126064206     I
 2008-11-26-0641-56S.PLUR1_003                                                 6
 STAT SP IPHASW D HRMM SECON CODA AMPLIT PERI AZIMU VELO AIN AR TRES W  DIS CAZ7
 LD5  SZ E         642  9.63                   16.3  8.8      0        12.6 196 
 LD5  SN IP        642  9.64                             127    0.0110 12.6 196 
 LD5  SE IS        642 11.65                             127   -0.0110 12.6 196 
 LD5  SZ  AML      642 12.31         2.9 0.20                          12.6 196 
                                                                                
