 2008 1126 2134 32.9 L  21.596 -99.359 10.0  RAL  1 0.0 0.8LRAL                1
 GAP=360        0.30       4.2     1.9  0.0 -0.7818E+01 -0.9018E+04 -0.8019E+05E
 ACTION:UPD 12-06-08 11:37 OP:RALL STATUS:               ID:20081126213432     I
 2008-11-26-2134-23S.PLUR1_003                                                 6
 STAT SP IPHASW D HRMM SECON CODA AMPLIT PERI AZIMU VELO AIN AR TRES W  DIS CAZ7
 LA4  SZ E        2134 35.75                  337.4  9.4      0        13.4 157 
 LA4  SN IP       2134 35.76                             125    0.0110 13.4 157 
 LA4  SE IS       2134 37.85                             125   -0.0110 13.4 157 
 LA4  SZ  AML     2134 38.02        23.9 0.24                          13.4 157 
                                                                                
