 2008 1126 2358 44.7 L  21.698 -99.395 10.0  RAL  1 0.0 1.4LRAL                1
 GAP=360        0.30       3.7     1.6  0.0 -0.5225E+01 -0.9018E+04 -0.8019E+05E
 ACTION:UPD 12-06-08 11:37 OP:RALL STATUS:               ID:20081126235844     I
 2008-11-26-2358-35S.PLUR1_003                                                 6
 STAT SP IPHASW D HRMM SECON CODA AMPLIT PERI AZIMU VELO AIN AR TRES W  DIS CAZ7
 LA4  SZ E        2358 49.23                  339.5  7.8      0        25.3 159 
 LA4  SN IP       2358 49.28                             108    0.0210 25.3 159 
 LA4  SE IS       2358 52.56                             108   -0.0210 25.3 159 
 LA4  SZ  AML     2358 53.50        50.3 0.48                          25.3 159 
                                                                                
