 2008 1126 2222 49.5 L  21.689 -99.379 10.0  RAL  1 0.0 1.5LRAL                1
 GAP=360        0.30       3.7     1.4  0.0 -0.4677E+01 -0.9018E+04 -0.8019E+05E
 ACTION:UPD 12-06-08 11:37 OP:RALL STATUS:               ID:20081126222249     I
 2008-11-26-2222-40S.PLUR1_003                                                 6
 STAT SP IPHASW D HRMM SECON CODA AMPLIT PERI AZIMU VELO AIN AR TRES W  DIS CAZ7
 LA4  SN IP       2222 53.82                             109    0.0210 23.9 162 
 LA4  SZ E        2222 53.91                  342.4  7.8      0        23.9 162 
 LA4  SE IS       2222 56.95                             109   -0.0210 23.9 162 
 LA4  SZ  AML     2222 57.37        68.2 0.44                          23.9 162 
                                                                                
