 2008 1126 2306  0.1 L  21.702 -99.337 10.0  RAL  1 0.0 1.7LRAL                1
 GAP=360        0.30       3.9     0.8  0.0 -0.1886E+01 -0.9018E+04 -0.8019E+05E
 ACTION:UPD 12-06-08 11:37 OP:RALL STATUS:               ID:20081126230600     I
 2008-11-26-2305-50S.PLUR1_003                                                 6
 STAT SP IPHASW D HRMM SECON CODA AMPLIT PERI AZIMU VELO AIN AR TRES W  DIS CAZ7
 LA4  SN IP       23 6  4.52                             109    0.0110 24.3 173 
 LA4  SZ E        23 6  4.71                  353.2  7.4      0        24.3 173 
 LA4  SE IS       23 6  7.71                             109   -0.0110 24.3 173 
 LA4  SZ  AML     23 6  8.31       101.3 0.40                          24.3 173 
                                                                                
