 2008 1126 2149 24.7 L  21.699 -99.336 10.0  RAL  1 0.0 1.7LRAL                1
 GAP=360        0.30       3.9     0.8  0.0 -0.1840E+01 -0.9018E+04 -0.8019E+05E
 ACTION:UPD 12-06-08 11:37 OP:RALL STATUS:               ID:20081126214924     I
 2008-11-26-2149-15S.PLUR1_003                                                 6
 STAT SP IPHASW D HRMM SECON CODA AMPLIT PERI AZIMU VELO AIN AR TRES W  DIS CAZ7
 LA4  SN IP       2149 29.10                             109    0.0110 24.0 173 
 LA4  SZ E        2149 29.17                  353.4  7.4      0        24.0 173 
 LA4  SE IS       2149 32.26                             109   -0.0110 24.0 173 
 LA4  SZ  AML     2149 32.74       107.3 0.44                          24.0 173 
                                                                                
