 2008 1127 0807 25.9 L  21.215 -99.311 10.0  RAL  1 0.0 0.0LRAL                1
 GAP=360        0.33      12.8     4.3  0.0  0.5524E+02 -0.9018E+04 -0.8019E+05E
 ACTION:UPD 12-06-08 11:37 OP:RALL STATUS:               ID:20081127080725     I
 2008-11-27-0807-14S.PLUR1_003                                                 6
 STAT SP IPHASW D HRMM SECON CODA AMPLIT PERI AZIMU VELO AIN AR TRES W  DIS CAZ7
 LD5  SZ E         8 7 27.83                   17.5 10.3      0        3.31 198 
 LD5  SN IP        8 7 27.87                             162    0.1010 3.31 198 
 LD5  SE IS        8 7 29.07                             162   -0.1010 3.31 198 
 LD5  SZ  AML      8 7 29.38         5.3 0.24                          3.31 198 
                                                                                
