 2008 1127 0140  7.3 L  21.311 -99.302 10.0  RAL  1 0.0 1.0LRAL                1
 GAP=360        0.35       6.5    10.8  0.0  0.7077E+02 -0.9018E+04 -0.8019E+05E
 ACTION:UPD 12-06-08 11:37 OP:RALL STATUS:               ID:20081127014007     I
 2008-11-27-0139-55S.PLUR1_003                                                 6
 STAT SP IPHASW D HRMM SECON CODA AMPLIT PERI AZIMU VELO AIN AR TRES W  DIS CAZ7
 LZ4  SN IP        140  9.37                             159    0.1310 3.99  57 
 LZ4  SZ E         140  9.38                  237.0 12.3      0        3.99  57 
 LZ4  SE IS        140 10.54                             159   -0.1310 3.99  57 
 LZ4  SZ  AML      140 10.74        58.5 0.40                          3.99  57 
                                                                                
