 2008 1127 1547 39.0 Ly 21.190 -99.312 10.0  RAL  1 0.2 0.0LRAL                1
 GAP=360        1.76     999.9   828.1  0.0 -0.1819E+07 -0.9018E+04 -0.8019E+05E
 ACTION:UPD 12-06-08 11:37 OP:RALL STATUS:               ID:20081127154739     I
 2008-11-27-1547-26S.PLUR1_003                                                 6
 STAT SP IPHASW D HRMM SECON CODA AMPLIT PERI AZIMU VELO AIN AR TRES W  DIS CAZ7
 LD5  SZ E        1547 41.25                   72.1 10.6      8        0.92 245 
 LD5  SN IP       1547 41.36                             175    0.4810 0.92 245 
 LD5  SE IS       1547 41.74                             175   -0.4810 0.92 245 
 LD5  SZ  AML     1547 41.80         6.1 0.14                          0.92 245 
                                                                                
