 2008 1127 1103 29.5 L  21.219 -99.301 10.0  RAL  1 0.0-0.5LRAL                1
 GAP=360        0.35      10.3     6.1  0.0  0.6224E+02 -0.9018E+04 -0.8019E+05E
 ACTION:UPD 12-06-08 11:37 OP:RALL STATUS:               ID:20081127110329     I
 2008-11-27-1103-18S.PLUR1_003                                                 6
 STAT SP IPHASW D HRMM SECON CODA AMPLIT PERI AZIMU VELO AIN AR TRES W  DIS CAZ7
 LD5  SN IP       11 3 31.63                             158    0.1310 4.14 209 
 LD5  SZ E        11 3 31.64                   28.9  9.0      0        4.14 209 
 LD5  SE IS       11 3 32.80                             158   -0.1310 4.14 209 
 LD5  SZ  AML     11 3 33.23         1.8 0.20                          4.14 209 
                                                                                
