 2008 1127 2042 58.2 L  21.650 -99.323 10.0  RAL  1 0.0 0.6LRAL                1
 GAP=360        0.30       4.1     0.6  0.0 -0.1385E+01 -0.9018E+04 -0.8019E+05E
 ACTION:UPD 12-06-08 11:37 OP:RALL STATUS:               ID:20081127204258     I
 2008-11-27-2042-50S.PLUR1_003                                                 6
 STAT SP IPHASW D HRMM SECON CODA AMPLIT PERI AZIMU VELO AIN AR TRES W  DIS CAZ7
 LA4  SN IP       2043  1.74                             116    0.0210 18.4 176 
 LA4  SZ E        2043  1.85                  355.6  8.0      0        18.4 176 
 LA4  SE IS       2043  4.30                             116   -0.0210 18.4 176 
 LA4  SZ  AML     2043  4.40        12.2 0.28                          18.4 176 
                                                                                
