 2008 1128 0647  3.4 L  21.620 -99.374 10.0  RAL  1 0.0 1.0LRAL                1
 GAP=360        0.30       3.9     1.9  0.0 -0.7107E+01 -0.9018E+04 -0.8019E+05E
 ACTION:UPD 12-06-08 11:37 OP:RALL STATUS:               ID:20081128064703     I
 2008-11-28-0646-53S.PLUR1_003                                                 6
 STAT SP IPHASW D HRMM SECON CODA AMPLIT PERI AZIMU VELO AIN AR TRES W  DIS CAZ7
 LA4  SN IP        647  6.66                             119    0.0010 16.5 156 
 LA4  SZ E         647  6.68                  335.9  9.5      0        16.5 156 
 LA4  SE IS        647  9.05                             119    0.0010 16.5 156 
 LA4  SZ  AML      647 10.43        32.9 0.28                          16.5 156 
                                                                                
