 2008 1128 0543 37.0 L  21.644 -99.312 10.0  RAL  1 0.0 0.6LRAL                1
 GAP=360        0.30       4.2     0.5  0.0 -0.3227E+00 -0.9018E+04 -0.8019E+05E
 ACTION:UPD 12-06-08 11:37 OP:RALL STATUS:               ID:20081128054337     I
 2008-11-28-0543-27S.PLUR1_003                                                 6
 STAT SP IPHASW D HRMM SECON CODA AMPLIT PERI AZIMU VELO AIN AR TRES W  DIS CAZ7
 LA4  SZ E         543 40.44                  359.0  9.8      0        17.7 179 
 LA4  SN IP        543 40.44                             117    0.0210 17.7 179 
 LA4  SE IS        543 42.93                             117   -0.0210 17.7 179 
 LA4  SZ  AML      543 43.21        11.2 0.36                          17.7 179 
                                                                                
