 2008 1128 1715 49.3 L  21.326 -99.278 10.0  RAL  2 0.2 1.3LRAL                1
 GAP=226        1.99       1.0     2.9 14.5 -0.1955E+01  0.9985E+00  0.3041E+00E
 ACTION:UPD 12-06-08 11:37 OP:RALL STATUS:               ID:20081128171549     I
 2008-11-28-1715-36S.PLUR1_006                                                 6
 STAT SP IPHASW D HRMM SECON CODA AMPLIT PERI AZIMU VELO AIN AR TRES W  DIS CAZ7
 LZ4  SZ E        1715 51.48                  249.7 12.1      8        1.05  62 
 LZ4  SN IP       1715 51.48                             176    0.3510 1.05  62 
 LZ4  SE IS       1715 52.66                             176    0.1910 1.05  62 
 LZ4  SZ  AML     1715 52.85       545.8 0.20                          1.05  62 
 LD5  SZ E        1715 52.42                   20.5  8.3      5        16.1 196 
 LD5  SN IP       1715 52.43                             120   -0.0810 16.1 196 
 LD5  SE IS       1715 54.41                             120   -0.4610 16.1 196 
 LD5  SZ  AML     1715 54.93        11.6 0.24                          16.1 196 
                                                                                
