 2008 1128 2030 46.9 L  21.484 -99.463 10.0  RAL  1 0.0 1.2LRAL                1
 GAP=360        0.30       0.4     4.6  0.0 -0.5350E-01  0.9985E+00  0.3041E+00E
 ACTION:UPD 12-06-08 11:37 OP:RALL STATUS:               ID:20081128203046     I
 2008-11-28-2030-38S.PLUR1_003                                                 6
 STAT SP IPHASW D HRMM SECON CODA AMPLIT PERI AZIMU VELO AIN AR TRES W  DIS CAZ7
 LA4  SN EP       2030 50.09                             120    0.0210 15.9  90 
 LA4  SZ E        2030 50.45                  270.2 12.3      0        15.9  90 
 LA4  SE IS       2030 52.39                             120   -0.0210 15.9  90 
 LA4  SZ  AML     2030 54.93        47.3 0.36                          15.9  90 
                                                                                
