 2008 1129 0000 22.1 L  21.757 -99.351 10.0  RAL  1 0.0 1.1LRAL                1
 GAP=360        0.30       3.8     1.0  0.0 -0.2092E+01  0.9985E+00  0.3041E+00E
 ACTION:UPD 12-06-08 11:37 OP:RALL STATUS:               ID:20081129000022     I
 2008-11-29-0000-17S.PLUR1_003                                                 6
 STAT SP IPHASW D HRMM SECON CODA AMPLIT PERI AZIMU VELO AIN AR TRES W  DIS CAZ7
 LA4  SZ E         0 0 26.95                  351.9  8.3      0        30.6 172 
 LA4  SN IP        0 0 27.41                             104    0.0110 30.6 172 
 LA4  SE IS        0 0 31.29                             104   -0.0110 30.6 172 
 LA4  SZ  AML      0 0 32.55        21.0 0.44                          30.6 172 
                                                                                
