 2008 1129 0043 10.9 L  21.666 -99.388 10.0  RAL  1 0.0 0.8LRAL                1
 GAP=360        0.30       3.7     1.7  0.0 -0.5767E+01  0.9985E+00  0.3041E+00E
 ACTION:UPD 12-06-08 11:37 OP:RALL STATUS:               ID:20081129004310     I
 2008-11-29-0043-02S.PLUR1_003                                                 6
 STAT SP IPHASW D HRMM SECON CODA AMPLIT PERI AZIMU VELO AIN AR TRES W  DIS CAZ7
 LA4  SN IP        043 14.95                             111    0.0010 21.8 158 
 LA4  SZ E         043 14.97                  338.0  8.8      0        21.8 158 
 LA4  SZ  AML      043 17.66        16.0 0.24                          21.8 158 
 LA4  SE IS        043 17.89                             111    0.0010 21.8 158 
                                                                                
