 2008 1129 0931 45.6 L  21.311 -99.302 10.0  RAL  1 0.1 0.2LRAL                1
 GAP=360        0.36       6.7    11.1  0.0  0.7380E+02  0.4126E+04 -0.1722E+05E
 ACTION:UPD 12-06-08 11:37 OP:RALL STATUS:               ID:20081129093145     I
 2008-11-29-0931-34S.PLUR1_003                                                 6
 STAT SP IPHASW D HRMM SECON CODA AMPLIT PERI AZIMU VELO AIN AR TRES W  DIS CAZ7
 LZ4  SZ E         931 47.65                  237.3 12.3      0        3.99  57 
 LZ4  SN IP        931 47.66                             159    0.1410 3.99  57 
 LZ4  SE IS        931 48.81                             159   -0.1410 3.99  57 
 LZ4  SZ  AML      931 50.83         8.1 0.56                          3.99  57 
                                                                                
