 2008 1129 0208  9.9 L  21.656 -99.350  0.1  RAL  2 0.3 1.3LRAL                1
 GAP=359        4.74      45.4    13.2631.6 -0.4825E+03  0.4126E+04 -0.1722E+05E
 ACTION:UPD 12-06-08 11:37 OP:RALL STATUS:               ID:20081129020809     I
 2008-11-29-0207-59S.PLUR1_006                                                 6
 STAT SP IPHASW D HRMM SECON CODA AMPLIT PERI AZIMU VELO AIN AR TRES W  DIS CAZ7
 LA4  SZ E         2 8 13.29                  358.4  8.5     11        19.5 167 
 LA4  SN IP        2 8 13.29                              93   -0.0210 19.5 167 
 LA4  SE IS        2 8 15.37                              93   -0.4310 19.5 167 
 LA4  SZ  AML      2 8 16.03        88.1 0.36                          19.5 167 
 LZ4  SN IP        2 8 16.35                              92    0.0010 36.9 167 
 LZ4  SZ E         2 8 16.67                  326.8  9.4    -19        36.9 167 
 LZ4  SE IS        2 8 21.51                              92    0.4510 36.9 167 
 LZ4  SZ  AML      2 8 22.61        24.4 0.72                          36.9 167 
                                                                                
