 2008 1129 2308 57.2 L  21.705 -99.392 10.0  RAL  1 0.0 1.0LRAL                1
 GAP=360        0.30       3.7     1.5  0.0 -0.4920E+01  0.4126E+04 -0.1722E+05E
 ACTION:UPD 12-06-08 11:37 OP:RALL STATUS:               ID:20081129230857     I
 2008-11-29-2308-50S.PLUR1_003                                                 6
 STAT SP IPHASW D HRMM SECON CODA AMPLIT PERI AZIMU VELO AIN AR TRES W  DIS CAZ7
 LA4  SN IP       23 9  1.83                             107    0.0210 26.0 161 
 LA4  SZ E        23 9  2.00                  340.7  7.6      0        26.0 161 
 LA4  SE IS       23 9  5.19                             107   -0.0210 26.0 161 
 LA4  SZ  AML     23 9  5.89        20.0 0.24                          26.0 161 
                                                                                
