 2008 1130 1739 14.8 L  21.527 -99.447 10.0  RAL  1 0.0 1.6LRAL                1
 GAP=360        0.30       1.4     4.4  0.0 -0.6066E+01  0.4126E+04 -0.1722E+05E
 ACTION:UPD 12-06-08 11:37 OP:RALL STATUS:               ID:20081130173914     I
 2008-11-30-1739-04S.PLUR1_003                                                 6
 STAT SP IPHASW D HRMM SECON CODA AMPLIT PERI AZIMU VELO AIN AR TRES W  DIS CAZ7
 LA4  SZ E        1739 17.83                  288.5  9.4      0        15.0 108 
 LA4  SN IP       1739 17.88                             122    0.0010 15.0 108 
 LA4  SE IS       1739 20.13                             122    0.0010 15.0 108 
 LA4  SZ  AML     1739 21.51       115.6 0.52                          15.0 108 
                                                                                
