 2009 10 1 0339 57.0 L  21.281 -99.244 10.0  RAL  1 0.3 0.2LRAL                1
 GAP=360        3.71     999.9   999.9  0.0 -0.9224E+08 -0.3726E+05  0.4074E+04E
 ACTION:UPD 12-06-08 11:37 OP:RALL STATUS:               ID:20091001033957     I
 2009-10-01-0339-49S.PLUR1_003                                                 6
 STAT SP IPHASW D HRMM SECON CODA AMPLIT PERI AZIMU VELO AIN AR TRES W  DIS CAZ7
 LG3  SN IP        339 59.36                             174    0.4510 1.09 234 
 LG3  SZ E         339 59.38                   71.7 32.9     17        1.09 234 
 LG3  SE IS        339 59.81                             174   -0.4510 1.09 234 
 LG3  SZ  AML      340  0.43         8.7 0.14                          1.09 234 
                                                                                
