 2009 10 1 0155 13.9 L  21.293 -99.234 10.0  RAL  1 0.1 0.1LRAL                1
 GAP=360        0.59      20.2    21.7  0.0  0.4379E+03 -0.3726E+05  0.4074E+04E
 ACTION:UPD 12-06-08 11:37 OP:RALL STATUS:               ID:20091001015513     I
 2009-10-01-0155-07S.PLUR1_003                                                 6
 STAT SP IPHASW D HRMM SECON CODA AMPLIT PERI AZIMU VELO AIN AR TRES W  DIS CAZ7
 LG3  SN IP        155 16.12                             165    0.3410 2.75 225 
 LG3  SZ E         155 16.16                   45.0 24.8      0        2.75 225 
 LG3  SE IS        155 16.83                             165   -0.3410 2.75 225 
 LG3  SZ  AML      155 16.97         7.7 0.10                          2.75 225 
                                                                                
