 2009 10 1 1533  5.7 L  21.261 -99.245 10.0  RAL  1 0.2-0.1LRAL                1
 GAP=360        0.70      47.5    23.2  0.0 -0.1100E+04 -0.3726E+05  0.4074E+04E
 ACTION:UPD 12-06-08 11:37 OP:RALL STATUS:               ID:20091001153305     I
 2009-10-01-1532-58S.PLUR1_003                                                 6
 STAT SP IPHASW D HRMM SECON CODA AMPLIT PERI AZIMU VELO AIN AR TRES W  DIS CAZ7
 LG3  SZ E        1533  7.95                  154.4 13.2      0        1.78 336 
 LG3  SN IP       1533  7.96                             170    0.4010 1.78 336 
 LG3  SE IS       1533  8.53                             170   -0.4010 1.78 336 
 LG3  SZ  AML     1533  8.86         4.7 0.10                          1.78 336 
                                                                                
