 2009 10 1 1557 52.5 L  21.133 -99.641 10.0  RAL  3 1.7 2.4LRAL                1
 GAP=322       22.96      86.7   191.4999.9  0.1302E+05  0.2313E+06  0.8889E+05E
 ACTION:UPD 12-06-08 11:37 OP:RALL STATUS:               ID:20091001155752     I
 2009-10-01-1557-51S.PLUR1_012                                                 6
 STAT SP IPHASW D HRMM SECON CODA AMPLIT PERI AZIMU VELO AIN AR TRES W  DIS CAZ7
 LG3  SZ E        1558  1.29                  252.3 16.6      4        43.3  69 
 LG3  SN IP       1558  1.32                              99    1.5610 43.3  69 
 LG3  SE IS       1558  3.62                              99   -1.4510 43.3  69 
 LG3  SZ  AML     1558  4.64       715.0 0.66                          43.3  69 
 LT7  SZ E        1557 59.07                  222.0 16.5     -5        43.7  48 
 LT7  SN IP       1557 59.11                              99   -0.6710 43.7  48 
 LT7  SE IS       1557 59.64                              99   -5.4710 43.7  48 
 LT7  SZ  AML     1558  0.05       623.9 0.60                          43.7  48 
 LO8  SN IP       1558  3.41                              99    3.4410 44.5  86 
 LO8  SZ E        1558  3.45                  139.0  6.9    -99        44.5  86 
 LO8  SE IS       1558  8.03                              99    2.5910 44.5  86 
 LO8  SZ  AML     1558  8.33        61.0 0.36                          44.5  86 
                                                                                
