 2009 10 1 1058 15.6 L  21.204 -99.235 10.0  RAL  1 0.0 0.0LRAL                1
 GAP=360        0.30       5.8     1.4  0.0 -0.8241E+01 -0.3726E+05  0.4074E+04E
 ACTION:UPD 12-06-08 11:37 OP:RALL STATUS:               ID:20091001105815     I
 2009-10-01-1058-09S.PLUR1_003                                                 6
 STAT SP IPHASW D HRMM SECON CODA AMPLIT PERI AZIMU VELO AIN AR TRES W  DIS CAZ7
 LG3  SN IP       1058 17.89                             141    0.0110 8.10 347 
 LG3  SZ E        1058 17.92                  167.0 20.0      0        8.10 347 
 LG3  SE IS       1058 19.53                             141   -0.0110 8.10 347 
 LG3  SZ  AML     1058 20.30         4.3 0.20                          8.10 347 
                                                                                
