 2009 10 1 2345 37.0 L  21.382 -99.347 10.0  RAL  1 0.1-0.6LRAL                1
 GAP=360        0.63      17.4    27.9  0.0  0.4857E+03  0.2313E+06  0.8889E+05E
 ACTION:UPD 12-06-08 11:37 OP:RALL STATUS:               ID:20091001234537     I
 2009-10-01-2345-34S.PLUR1_003                                                 6
 STAT SP IPHASW D HRMM SECON CODA AMPLIT PERI AZIMU VELO AIN AR TRES W  DIS CAZ7
 LT7  SN IP       2345 39.20                             165    0.3810 2.61  56 
 LT7  SZ E        2345 39.22                  236.3 12.0      0        2.61  56 
 LT7  SE IS       2345 39.78                             165   -0.3810 2.61  56 
 LT7  SZ  AML     2345 40.14         1.5 0.60                          2.61  56 
                                                                                
