 2009 10 2 0618  0.7 L  21.309 -99.194 10.0  RAL  1 0.8 0.1LRAL                1
 GAP=360       10.30     118.0   206.5  0.0  0.2432E+05  0.2313E+06  0.8889E+05E
 ACTION:UPD 12-06-08 11:37 OP:RALL STATUS:               ID:20091002061800     I
 2009-10-02-0617-54S.PLUR1_003                                                 6
 STAT SP IPHASW D HRMM SECON CODA AMPLIT PERI AZIMU VELO AIN AR TRES W  DIS CAZ7
 LG3  SN IP        618  3.39                             145    0.5310 7.06 239 
 LG3  SZ E         618  3.39                  107.5 26.4     49        7.06 239 
 LG3  SE IS        618  3.93                             145   -0.5310 7.06 239 
 LG3  SZ  AML      618  4.01         5.6 0.12                          7.06 239 
                                                                                
