 2009 10 2 1659 22.7 L  21.298 -99.274 10.0  RAL  1 0.1 0.4LRAL                1
 GAP=360        0.44      13.5    12.8  0.0 -0.1722E+03  0.2313E+06  0.8889E+05E
 ACTION:UPD 12-06-08 11:37 OP:RALL STATUS:               ID:20091002165922     I
 2009-10-02-1659-16S.PLUR1_003                                                 6
 STAT SP IPHASW D HRMM SECON CODA AMPLIT PERI AZIMU VELO AIN AR TRES W  DIS CAZ7
 LG3  SN IP       1659 24.89                             162    0.2210 3.33 139 
 LG3  SZ E        1659 25.06                  318.6 27.2      0        3.33 139 
 LG3  SE IS       1659 25.86                             162   -0.2210 3.33 139 
 LG3  SZ  AML     1659 26.84        12.5 0.74                          3.33 139 
                                                                                
