 2009 10 8 2041 53.8 L  21.433 -99.355 10.0  RAL  1 0.0 0.0LRAL                1
 GAP=360        0.31       7.0     5.4  0.0 -0.3770E+02  0.2313E+06  0.8889E+05E
 ACTION:UPD 12-06-08 11:37 OP:RALL STATUS:               ID:20091008204153     I
 2009-10-08-2041-52S.PLUR1_003                                                 6
 STAT SP IPHASW D HRMM SECON CODA AMPLIT PERI AZIMU VELO AIN AR TRES W  DIS CAZ7
 LT7  SN IP       2041 55.80                             153    0.0710 5.10 144 
 LT7  SZ E        2041 55.84                  324.2  9.6      0        5.10 144 
 LT7  SE IS       2041 57.09                             153   -0.0710 5.10 144 
 LT7  SZ  AML     2041 57.32         4.8 0.18                          5.10 144 
                                                                                
