 2009 10 9 0013 47.1 L  21.390 -99.327 10.0  RAL  1 0.2-0.5LRAL                1
 GAP=360        0.66     148.8    31.3  0.0  0.4664E+04  0.2313E+06  0.8889E+05E
 ACTION:UPD 12-06-08 11:37 OP:RALL STATUS:               ID:20091009001347     I
 2009-10-09-0013-44S.PLUR1_003                                                 6
 STAT SP IPHASW D HRMM SECON CODA AMPLIT PERI AZIMU VELO AIN AR TRES W  DIS CAZ7
 LT7  SZ E         013 49.25                  191.8 14.3      1        0.55  11 
 LT7  SN IP        013 49.26                             177    0.3910 0.55  11 
 LT7  SE IS        013 49.78                             177   -0.3910 0.55  11 
 LT7  SZ  AML      013 50.09         1.8 0.34                          0.55  11 
                                                                                
