 2009 10 9 0656 12.4 L  21.063 -99.679 10.0  RAL  1 0.0 1.1LRAL                1
 GAP=360        0.30       2.1     3.6  0.0  0.5445E+01  0.2313E+06  0.8889E+05E
 ACTION:UPD 12-06-08 11:37 OP:RALL STATUS:               ID:20091009065612     I
 2009-10-09-0656-11S.PLUR1_003                                                 6
 STAT SP IPHASW D HRMM SECON CODA AMPLIT PERI AZIMU VELO AIN AR TRES W  DIS CAZ7
 LG3  SN IP        656 20.78                              97    0.0110 50.2  62 
 LG3  SZ E         656 20.80                  242.1 12.3      0        50.2  62 
 LG3  SE IS        656 26.84                              97   -0.0110 50.2  62 
 LG3  SZ  AML      656 27.87        15.1 0.22                          50.2  62 
                                                                                
