 2009 1012 0521 20.3 L  20.994 -99.481 10.0  RAL  1 0.0 0.9LRAL                1
 GAP=360        0.30       3.1     2.6  0.0  0.6795E+01  0.2313E+06  0.8889E+05E
 ACTION:UPD 12-06-08 11:37 OP:RALL STATUS:               ID:20091012052120     I
 2009-10-12-0521-18S.PLUR1_003                                                 6
 STAT SP IPHASW D HRMM SECON CODA AMPLIT PERI AZIMU VELO AIN AR TRES W  DIS CAZ7
 LG3  SN IP        521 26.95                             100    0.0210 39.1  37 
 LG3  SZ E         521 26.96                  217.3 19.0      0        39.1  37 
 LG3  SE IS        521 31.76                             100   -0.0210 39.1  37 
 LG3  SZ  AML      521 34.39        13.2 0.38                          39.1  37 
                                                                                
