 2009 1013 0754 16.6 L  21.273 -99.253 10.0  RAL  1 0.2 1.1LRAL                1
 GAP=360        0.99      56.2   999.9  0.0  0.1134E+06  0.2313E+06  0.8889E+05E
 ACTION:UPD 12-06-08 11:37 OP:RALL STATUS:               ID:20091013075416     I
 2009-10-13-0754-09S.PLUR1_003                                                 6
 STAT SP IPHASW D HRMM SECON CODA AMPLIT PERI AZIMU VELO AIN AR TRES W  DIS CAZ7
 LG3  SZ E         754 18.97                  191.6 27.2      2        0.35  10 
 LG3  SN IP        754 18.98                             178    0.5810 0.35  10 
 LG3  SE IS        754 19.18                             178   -0.5810 0.35  10 
 LG3  SZ  AML      754 19.33        70.5 0.20                          0.35  10 
                                                                                
