 2009 1015 0829 42.6 L  21.241 -99.273 10.0  RAL  1 0.0 0.1LRAL                1
 GAP=360        0.33       9.2     5.7  0.0  0.5249E+02  0.2313E+06  0.8889E+05E
 ACTION:UPD 12-06-08 11:37 OP:RALL STATUS:               ID:20091015082942     I
 2009-10-15-0829-35S.PLUR1_003                                                 6
 STAT SP IPHASW D HRMM SECON CODA AMPLIT PERI AZIMU VELO AIN AR TRES W  DIS CAZ7
 LG3  SZ E         829 44.65                  209.9 13.7      0        4.37  30 
 LG3  SN IP        829 44.67                             157    0.1010 4.37  30 
 LG3  SE IS        829 45.92                             157   -0.1010 4.37  30 
 LG3  SZ  AML      829 46.76         7.3 0.28                          4.37  30 
                                                                                
