 2009 1017 1550  1.9 L  21.282 -99.238 10.0  RAL  1 0.1 1.3LRAL                1
 GAP=360        0.63      20.7    50.4  0.0  0.1041E+04  0.2313E+06  0.8889E+05E
 ACTION:UPD 12-06-08 11:37 OP:RALL STATUS:               ID:20091017155001     I
 2009-10-17-1549-54S.PLUR1_003                                                 6
 STAT SP IPHASW D HRMM SECON CODA AMPLIT PERI AZIMU VELO AIN AR TRES W  DIS CAZ7
 LG3  SZ E        1550  4.10                   66.2 35.6      0        1.62 246 
 LG3  SN IP       1550  4.13                             171    0.3810 1.62 246 
 LG3  SE IS       1550  4.74                             171   -0.3810 1.62 246 
 LG3  SZ  AML     1550  4.89       109.5 0.10                          1.62 246 
                                                                                
