 2009 1018 1827 32.9 L  21.347 -99.229 10.0  RAL  1 0.0 0.2LRAL                1
 GAP=360        0.30       4.0     0.7  0.0 -0.1370E+01  0.2313E+06  0.8889E+05E
 ACTION:UPD 12-06-08 11:37 OP:RALL STATUS:               ID:20091018182732     I
 2009-10-18-1827-31S.PLUR1_003                                                 6
 STAT SP IPHASW D HRMM SECON CODA AMPLIT PERI AZIMU VELO AIN AR TRES W  DIS CAZ7
 LO8  SN IP       1827 36.88                             113    0.0210 20.8 175 
 LO8  SZ E        1827 36.89                  355.4 13.1      0        20.8 175 
 LO8  SE IS       1827 39.71                             113   -0.0210 20.8 175 
 LO8  SZ  AML     1827 41.36         4.5 0.68                          20.8 175 
                                                                                
