 2009 1019 1001  9.1 L  21.240 -99.292 10.0  RAL  1 0.0 1.8LRAL                1
 GAP=360        0.31       5.6     6.2  0.0  0.3467E+02  0.2313E+06  0.8889E+05E
 ACTION:UPD 12-06-08 11:37 OP:RALL STATUS:               ID:20091019100109     I
 2009-10-19-1001-01S.PLUR1_003                                                 6
 STAT SP IPHASW D HRMM SECON CODA AMPLIT PERI AZIMU VELO AIN AR TRES W  DIS CAZ7
 LG3  SN IP       10 1 11.25                             151    0.0610 5.64  46 
 LG3  SZ E        10 1 11.29                  226.2 13.7      0        5.64  46 
 LG3  SE IS       10 1 12.64                             151   -0.0610 5.64  46 
 LG3  SZ  AML     10 1 12.76       346.3 0.12                          5.64  46 
                                                                                
