 2009 1019 1351 27.1 L  21.279 -99.245 10.0  RAL  1 0.2 1.6LRAL                1
 GAP=360        1.87     999.9   999.9  0.0 -0.2600E+07  0.2313E+06  0.8889E+05E
 ACTION:UPD 12-06-08 11:37 OP:RALL STATUS:               ID:20091019135127     I
 2009-10-19-1351-20S.PLUR1_003                                                 6
 STAT SP IPHASW D HRMM SECON CODA AMPLIT PERI AZIMU VELO AIN AR TRES W  DIS CAZ7
 LG3  SZ E        1351 29.34                   70.6 29.5      8        0.83 242 
 LG3  SN IP       1351 29.35                             175    0.3510 0.83 242 
 LG3  SE IS       1351 30.00                             175   -0.3510 0.83 242 
 LG3  SZ  AML     1351 30.09       205.2 0.10                          0.83 242 
                                                                                
