 2009 1020 2108  8.9 L  21.165 -99.303 10.0  RAL  2 0.4 0.5LRAL                1
 GAP=331        2.74      13.4     5.2 34.4  0.5253E+02  0.3897E+02  0.1019E+03E
 ACTION:UPD 12-06-08 11:37 OP:RALL STATUS:               ID:20091020210808     I
 2009-10-20-2108-05S.PLUR1_006                                                 6
 STAT SP IPHASW D HRMM SECON CODA AMPLIT PERI AZIMU VELO AIN AR TRES W  DIS CAZ7
 LG3  SZ E        21 8 12.86                  194.6 13.2     -8        13.3  23 
 LG3  SN IP       21 8 13.01                             127    1.2610 13.3  23 
 LG3  SE IS       21 8 14.16                             127    0.3110 13.3  23 
 LG3  SZ  AML     21 8 14.30        48.6 0.12                          13.3  23 
 LT7  SZ E        21 8 13.36                  175.6  9.4      1        25.6 355 
 LT7  SN IP       21 8 13.40                             109   -0.0210 25.6 355 
 LT7  SE IS       21 8 15.20                             109   -1.5510 25.6 355 
 LT7  SZ  AML     21 8 15.28         1.9 0.10                          25.6 355 
                                                                                
