 2009 1021 0716 24.2 L  21.264 -99.251 10.0  RAL  1 0.2-0.2LRAL                1
 GAP=360        2.67     132.3   999.9  0.0 -0.1828E+06  0.3897E+02  0.1019E+03E
 ACTION:UPD 12-06-08 11:37 OP:RALL STATUS:               ID:20091021071624     I
 2009-10-21-0716-18S.PLUR1_003                                                 6
 STAT SP IPHASW D HRMM SECON CODA AMPLIT PERI AZIMU VELO AIN AR TRES W  DIS CAZ7
 LG3  SZ E         716 26.19                  186.3  5.3     13        1.28 354 
 LG3  SN IP        716 26.22                             173    0.1110 1.28 354 
 LG3  SE IS        716 27.36                             173   -0.1110 1.28 354 
 LG3  SZ  AML      716 27.64         3.3 0.18                          1.28 354 
                                                                                
