 2009 1022 0746 48.4 L  21.288 -99.251 10.0  RAL  1 0.1 0.3LRAL                1
 GAP=360        0.60     817.2   999.9  0.0 -0.7047E+07  0.3897E+02  0.1019E+03E
 ACTION:UPD 12-06-08 11:37 OP:RALL STATUS:               ID:20091022074648     I
 2009-10-22-0746-41S.PLUR1_003                                                 6
 STAT SP IPHASW D HRMM SECON CODA AMPLIT PERI AZIMU VELO AIN AR TRES W  DIS CAZ7
 LG3  SN IP        746 50.63                             173    0.3610 1.35 186 
 LG3  SZ E         746 50.63                    6.1  4.4      0        1.35 186 
 LG3  SE IS        746 51.28                             173   -0.3610 1.35 186 
 LG3  SZ  AML      746 51.40        10.9 0.10                          1.35 186 
                                                                                
