 2009 1022 1634 29.7 L  22.055 -98.854  7.1  RAL  2 1.8 1.4LRAL                1
 GAP=347       28.53     581.0   417.1999.9  0.2112E+06 -0.9467E+07 -0.1380E+08E
 ACTION:UPD 12-06-08 11:37 OP:RALL STATUS:               ID:20091022163429     I
 2009-10-22-1634-40S.PLUR1_006                                                 6
 STAT SP IPHASW D HRMM SECON CODA AMPLIT PERI AZIMU VELO AIN AR TRES W  DIS CAZ7
 LT7  SN IP       1634 45.10                              92    1.3310 87.8 214 
 LT7  SZ E        1634 45.20                  325.3  8.2     68        87.8 214 
 LT7  SE IS       1634 50.54                              92   -3.5310 87.8 214 
 LT7  SZ  AML     1634 51.62        19.7 0.60                          87.8 214 
 LO8  SN IP       1634 49.28                              91    2.6610  106 201 
 LO8  SZ E        1634 49.43                  140.1  6.3    120         106 201 
 LO8  SE IS       1634 58.52                              91   -0.4710  106 201 
 LO8  SZ  AML     1635  4.81        10.5 0.66                           106 201 
                                                                                
