 2009 1022 1509 11.4 L  21.911 -98.926  7.5  RAL  2 1.9 1.4LRAL                1
 GAP=344       30.33     487.8   363.4999.9  0.1540E+06 -0.4388E+07 -0.6078E+07E
 ACTION:UPD 12-06-08 11:37 OP:RALL STATUS:               ID:20091022150911     I
 2009-10-22-1509-18S.PLUR1_006                                                 6
 STAT SP IPHASW D HRMM SECON CODA AMPLIT PERI AZIMU VELO AIN AR TRES W  DIS CAZ7
 LT7  SZ E        15 9 23.58                  338.7  9.4     57        70.6 216 
 LT7  SN IP       15 9 23.60                              92    0.8110 70.6 216 
 LT7  SE IS       15 9 27.71                              92   -3.4210 70.6 216 
 LT7  SZ  AML     15 9 28.13        52.6 0.26                          70.6 216 
 LO8  SZ E        15 9 28.15                  155.0  6.7    135        88.4 200 
 LO8  SN IP       15 9 28.16                              92    2.5610 88.4 200 
 LO8  SE IS       15 9 36.05                              92    0.0510 88.4 200 
 LO8  SZ  AML     15 9 37.67         7.7 0.60                          88.4 200 
                                                                                
