 2009 1022 1004 11.8 L  21.242 -99.283 10.0  RAL  1 0.0-0.1LRAL                1
 GAP=360        0.32       7.3     6.5  0.0  0.4685E+02  0.3897E+02  0.1019E+03E
 ACTION:UPD 12-06-08 11:37 OP:RALL STATUS:               ID:20091022100411     I
 2009-10-22-1004-05S.PLUR1_003                                                 6
 STAT SP IPHASW D HRMM SECON CODA AMPLIT PERI AZIMU VELO AIN AR TRES W  DIS CAZ7
 LG3  SZ E        10 4 13.83                  219.7 16.1      0        4.89  40 
 LG3  SN IP       10 4 13.88                             155    0.0910 4.89  40 
 LG3  SE IS       10 4 15.18                             155   -0.0910 4.89  40 
 LG3  SZ  AML     10 4 15.33         4.4 0.26                          4.89  40 
                                                                                
