 2009 1023 0803  9.2 L  21.280 -99.242 10.0  RAL  1 0.2 0.5LRAL                1
 GAP=360        1.83     999.9   999.9  0.0 -0.2306E+08 -0.9467E+07 -0.1380E+08E
 ACTION:UPD 12-06-08 11:37 OP:RALL STATUS:               ID:20091023080309     I
 2009-10-23-0803-02S.PLUR1_003                                                 6
 STAT SP IPHASW D HRMM SECON CODA AMPLIT PERI AZIMU VELO AIN AR TRES W  DIS CAZ7
 LG3  SN IP        8 3 11.39                             173    0.3610 1.20 245 
 LG3  SZ E         8 3 11.41                   72.8 30.2      8        1.20 245 
 LG3  SE IS        8 3 12.02                             173   -0.3610 1.20 245 
 LG3  SZ  AML      8 3 12.34        19.5 0.10                          1.20 245 
                                                                                
