 2009 1023 1301 32.5 L  21.226 -99.276 10.0  RAL  1 0.0 0.9LRAL                1
 GAP=360        0.30       6.7     3.2  0.0  0.2125E+02 -0.9467E+07 -0.1380E+08E
 ACTION:UPD 12-06-08 11:37 OP:RALL STATUS:               ID:20091023130132     I
 2009-10-23-1301-27S.PLUR1_003                                                 6
 STAT SP IPHASW D HRMM SECON CODA AMPLIT PERI AZIMU VELO AIN AR TRES W  DIS CAZ7
 LG3  SZ E        13 1 34.61                  204.0 23.2      0        6.08  24 
 LG3  SN IP       13 1 34.61                             149    0.0210 6.08  24 
 LG3  SE IS       13 1 36.10                             149   -0.0210 6.08  24 
 LG3  SZ  AML     13 1 36.69        40.5 0.28                          6.08  24 
                                                                                
