 2009 1025 0645  7.0 L  21.243 -99.285 10.0  RAL  1 0.0 0.2LRAL                1
 GAP=360        0.32       6.8     6.9  0.0  0.4685E+02 -0.9467E+07 -0.1380E+08E
 ACTION:UPD 12-06-08 11:37 OP:RALL STATUS:               ID:20091025064507     I
 2009-10-25-0645-00S.PLUR1_003                                                 6
 STAT SP IPHASW D HRMM SECON CODA AMPLIT PERI AZIMU VELO AIN AR TRES W  DIS CAZ7
 LG3  SZ E         645  9.10                  223.5 21.0      0        4.95  43 
 LG3  SN IP        645  9.10                             154    0.0910 4.95  43 
 LG3  SE IS        645 10.40                             154   -0.0910 4.95  43 
 LG3  SZ  AML      645 10.84         7.7 0.10                          4.95  43 
                                                                                
