 2009 1025 1004 31.0 L  20.908 -99.581 10.0  RAL  1 0.0 1.4LRAL                1
 GAP=360        0.30       3.0     2.8  0.0  0.6330E+01 -0.9467E+07 -0.1380E+08E
 ACTION:UPD 12-06-08 11:37 OP:RALL STATUS:               ID:20091025100431     I
 2009-10-25-1004-30S.PLUR1_003                                                 6
 STAT SP IPHASW D HRMM SECON CODA AMPLIT PERI AZIMU VELO AIN AR TRES W  DIS CAZ7
 LG3  SZ E        10 4 39.79                  220.0 12.7      0        53.1  40 
 LG3  SN IP       10 4 39.83                              97    0.0110 53.1  40 
 LG3  SE IS       10 4 46.22                              97   -0.0110 53.1  40 
 LG3  SZ  AML     10 4 47.50        28.2 0.28                          53.1  40 
                                                                                
