 2009 1025 1931  1.4 L  21.260 -99.251 10.0  RAL  1 0.1 1.3LRAL                1
 GAP=360        0.55     250.2   999.9  0.0  0.6206E+06 -0.9467E+07 -0.1380E+08E
 ACTION:UPD 12-06-08 11:37 OP:RALL STATUS:               ID:20091025193101     I
 2009-10-25-1930-55S.PLUR1_003                                                 6
 STAT SP IPHASW D HRMM SECON CODA AMPLIT PERI AZIMU VELO AIN AR TRES W  DIS CAZ7
 LG3  SZ E        1931  3.59                  174.6 17.7      0        1.75 355 
 LG3  SN IP       1931  3.60                             170    0.3110 1.75 355 
 LG3  SE IS       1931  4.34                             170   -0.3110 1.75 355 
 LG3  SZ  AML     1931  4.40       115.2 0.10                          1.75 355 
                                                                                
