 2009 1026 0423 25.8 L  21.263 -99.286 10.0  RAL  1 0.0 0.3LRAL                1
 GAP=360        0.34       4.7    12.6  0.0  0.5966E+02 -0.9467E+07 -0.1380E+08E
 ACTION:UPD 12-06-08 11:37 OP:RALL STATUS:               ID:20091026042325     I
 2009-10-26-0423-18S.PLUR1_003                                                 6
 STAT SP IPHASW D HRMM SECON CODA AMPLIT PERI AZIMU VELO AIN AR TRES W  DIS CAZ7
 LG3  SN IP        423 27.83                             160    0.1210 3.72  68 
 LG3  SZ E         423 27.85                  248.1 16.8      0        3.72  68 
 LG3  SE IS        423 29.02                             160   -0.1210 3.72  68 
 LG3  SZ  AML      423 29.15        10.9 0.14                          3.72  68 
                                                                                
