 2009 1027 0458 32.7 L  20.988 -99.667 10.0  RAL  1 0.0 1.6LRAL                1
 GAP=360        0.30       2.5     3.3  0.0  0.6141E+01 -0.9467E+07 -0.1380E+08E
 ACTION:UPD 12-06-08 11:37 OP:RALL STATUS:               ID:20091027045832     I
 2009-10-27-0458-32S.PLUR1_003                                                 6
 STAT SP IPHASW D HRMM SECON CODA AMPLIT PERI AZIMU VELO AIN AR TRES W  DIS CAZ7
 LG3  SN IP        458 41.51                              97    0.0110 53.5  53 
 LG3  SZ E         458 41.80                  233.6 11.3      0        53.5  53 
 LG3  SE IS        458 47.94                              97   -0.0110 53.5  53 
 LG3  SZ  AML      458 49.77        44.7 0.34                          53.5  53 
                                                                                
