 2009 1027 0717 15.1 L  21.257 -99.242 10.0  RAL  1 0.1 0.7LRAL                1
 GAP=360        0.55      27.6    15.9  0.0 -0.4394E+03 -0.9467E+07 -0.1380E+08E
 ACTION:UPD 12-06-08 11:37 OP:RALL STATUS:               ID:20091027071715     I
 2009-10-27-0717-07S.PLUR1_003                                                 6
 STAT SP IPHASW D HRMM SECON CODA AMPLIT PERI AZIMU VELO AIN AR TRES W  DIS CAZ7
 LG3  SZ E         717 17.24                  151.7 53.3      0        2.35 332 
 LG3  SN IP        717 17.26                             167    0.3210 2.35 332 
 LG3  SE IS        717 18.01                             167   -0.3210 2.35 332 
 LG3  SZ  AML      717 18.07        26.7 0.12                          2.35 332 
                                                                                
