 2009 1027 0631 37.5 L  21.264 -99.231 10.0  RAL  1 0.2                        1
 GAP=360        0.73      19.3    34.5  0.0 -0.6646E+03 -0.9467E+07 -0.1380E+08E
 ACTION:UPD 12-06-08 11:37 OP:RALL STATUS:               ID:20091027063137     I
 2009-10-27-0631-31S.PLUR1_003                                                 6
 STAT SP IPHASW D HRMM SECON CODA AMPLIT PERI AZIMU VELO AIN AR TRES W  DIS CAZ7
 LG3  SZ E         631 39.82                  120.9 14.9      0        2.60 301 
 LG3  SN IP        631 39.85                             166    0.4510 2.60 301 
 LG3  SE IS        631 40.34                             166   -0.4510 2.60 301 
                                                                                
