 2009 1027 1129 54.4 L  21.243 -99.306 10.0  RAL  1 0.0 1.1LRAL                1
 GAP=360        0.30       3.8     6.2  0.0  0.2360E+02 -0.9467E+07 -0.1380E+08E
 ACTION:UPD 12-06-08 11:37 OP:RALL STATUS:               ID:20091027112954     I
 2009-10-27-1129-47S.PLUR1_003                                                 6
 STAT SP IPHASW D HRMM SECON CODA AMPLIT PERI AZIMU VELO AIN AR TRES W  DIS CAZ7
 LG3  SZ E        1129 56.52                  236.6 15.1      0        6.59  57 
 LG3  SN IP       1129 56.54                             147    0.0310 6.59  57 
 LG3  SE IS       1129 58.04                             147   -0.0310 6.59  57 
 LG3  SZ  AML     1129 58.67        66.3 0.38                          6.59  57 
                                                                                
