 2009 1027 2221  1.2 L  21.282 -99.237 10.0  RAL  1 0.2 0.3LRAL                1
 GAP=360        0.66     999.9   880.3  0.0 -0.1483E+07 -0.9467E+07 -0.1380E+08E
 ACTION:UPD 12-06-08 11:37 OP:RALL STATUS:               ID:20091027222101     I
 2009-10-27-2220-54S.PLUR1_003                                                 6
 STAT SP IPHASW D HRMM SECON CODA AMPLIT PERI AZIMU VELO AIN AR TRES W  DIS CAZ7
 LG3  SN IP       2221  3.48                             171    0.4010 1.73 246 
 LG3  SZ E        2221  3.49                   65.5 31.5      0        1.73 246 
 LG3  SE IS       2221  4.05                             171   -0.4010 1.73 246 
 LG3  SZ  AML     2221  4.18        11.1 0.12                          1.73 246 
                                                                                
