 2009 1029 1211  5.8 L  20.959 -99.500 10.0  RAL  1 0.0 1.2LRAL                1
 GAP=360        0.30       3.1     2.6  0.0  0.6529E+01 -0.9467E+07 -0.1380E+08E
 ACTION:UPD 12-06-08 11:37 OP:RALL STATUS:               ID:20091029121105     I
 2009-10-29-1211-05S.PLUR1_003                                                 6
 STAT SP IPHASW D HRMM SECON CODA AMPLIT PERI AZIMU VELO AIN AR TRES W  DIS CAZ7
 LG3  SN IP       1211 13.13                              99    0.0210 43.5  36 
 LG3  SZ E        1211 13.13                  216.2  6.8      0        43.5  36 
 LG3  SE IS       1211 18.43                              99   -0.0210 43.5  36 
 LG3  SZ  AML     1211 19.49        22.6 0.26                          43.5  36 
                                                                                
