 2009 1029 1719 49.9 L  21.272 -99.263 10.0  RAL  1 0.1 0.6LRAL                1
 GAP=360        0.86     999.9   960.2  0.0 -0.2610E+07 -0.9467E+07 -0.1380E+08E
 ACTION:UPD 12-06-08 11:37 OP:RALL STATUS:               ID:20091029171949     I
 2009-10-29-1719-43S.PLUR1_003                                                 6
 STAT SP IPHASW D HRMM SECON CODA AMPLIT PERI AZIMU VELO AIN AR TRES W  DIS CAZ7
 LG3  SZ E        1719 51.98                  253.3 42.8      3        1.17  70 
 LG3  SN IP       1719 52.01                             174    0.2410 1.17  70 
 LG3  SE IS       1719 52.88                             174   -0.2410 1.17  70 
 LG3  SZ  AML     1719 53.10        22.0 0.20                          1.17  70 
                                                                                
