 2009 1031 1819 35.8 L  21.228 -99.265 15.3  RAL  2 0.3 0.7LRAL                1
 GAP=328        1.49       4.5     1.2 12.8  0.4570E+01 -0.2022E+00 -0.1610E+01E
 ACTION:UPD 12-06-08 11:37 OP:RALL STATUS:               ID:20091031181935     I
 2009-10-31-1819-30S.PLUR1_006                                                 6
 STAT SP IPHASW D HRMM SECON CODA AMPLIT PERI AZIMU VELO AIN AR TRES W  DIS CAZ7
 LG3  SN IP       1819 39.43                             161    0.8610 5.43  13 
 LG3  SZ E        1819 39.46                  192.6 14.9      0        5.43  13 
 LG3  SE IS       1819 40.77                             161    0.1510 5.43  13 
 LG3  SZ  AML     1819 41.83        41.6 0.32                          5.43  13 
 LT7  SN IP       1819 39.88                             127    0.0310 19.6 341 
 LT7  SZ E        1819 39.97                  163.0  6.8      2        19.6 341 
 LT7  SE IS       1819 41.80                             127   -1.0410 19.6 341 
 LT7  SZ  AML     1819 42.17         4.3 0.32                          19.6 341 
                                                                                
