 2009 1031 2214 54.2 L  20.949 -99.542 10.0  RAL  3 1.5 1.1LRAL                1
 GAP=329       20.12     133.9   139.2999.9  0.1626E+05  0.1506E+06  0.1375E+06E
 ACTION:UPD 12-06-08 11:37 OP:RALL STATUS:               ID:20091031221454     I
 2009-10-31-2214-55S.PLUR1_009                                                 6
 STAT SP IPHASW D HRMM SECON CODA AMPLIT PERI AZIMU VELO AIN AR TRES W  DIS CAZ7
 LO8  SN IP       2215  5.16                              98    3.9610 41.4  56 
 LO8  SZ E        2215  5.18                  130.9  5.9    -99        41.4  56 
 LO8  SE IS       2215  8.22                              98    1.9110 41.4  56 
 LO8  SZ  AML     2215  9.65         2.7 0.28                          41.4  56 
 LG3  SZ E        2215  3.05                  215.4 12.4     -3        47.0  40 
 LG3  SN IP       2215  3.17                              97    1.1210 47.0  40 
 LG3  SE IS       2215  4.46                              97   -3.3210 47.0  40 
 LG3  SZ  AML     2215  4.59       122.7 0.14                          47.0  40 
 LT7  SN IP       2215  3.62                              96    0.5010 54.2  24 
 LT7  SZ E        2215  3.63                  169.0  9.2    -34        54.2  24 
 LT7  SE IS       2215  5.47                              96   -4.1710 54.2  24 
 LT7  SZ  AML     2215  5.87         9.4 0.32                          54.2  24 
                                                                                
