 2009 1031 2214 55.0 L                                                         1
 2009-10-31-2214-55S.PLUR1_009                                                 6
 STAT SP IPHASW D HRMM SECON CODA AMPLIT PERI AZIMU VELO AIN AR TRES W  DIS CAZ7
                                                                                
