 2009 11 1 0546 14.1 L  21.277 -99.244 10.0  RAL  1 0.2 0.0LRAL                1
 GAP=360        1.32     219.6   238.6  0.0 -0.5239E+05  0.1506E+06  0.1375E+06E
 ACTION:UPD 12-06-08 11:37 OP:RALL STATUS:               ID:20091101054614     I
 2009-11-01-0546-07S.PLUR1_003                                                 6
 STAT SP IPHASW D HRMM SECON CODA AMPLIT PERI AZIMU VELO AIN AR TRES W  DIS CAZ7
 LG3  SZ E         546 16.35                   88.0 29.2      6        0.90 262 
 LG3  SN IP        546 16.36                             175    0.3710 0.90 262 
 LG3  SE IS        546 16.97                             175   -0.3710 0.90 262 
 LG3  SZ  AML      546 17.30         5.5 0.40                          0.90 262 
                                                                                
