 2009 11 1 0602 44.6 L  21.248 -99.274 10.0  RAL  1 0.1 0.1LRAL                1
 GAP=360        0.38      11.2     9.0  0.0  0.1002E+03  0.1506E+06  0.1375E+06E
 ACTION:UPD 12-06-08 11:37 OP:RALL STATUS:               ID:20091101060244     I
 2009-11-01-0602-37S.PLUR1_003                                                 6
 STAT SP IPHASW D HRMM SECON CODA AMPLIT PERI AZIMU VELO AIN AR TRES W  DIS CAZ7
 LG3  SN IP        6 2 46.76                             160    0.1610 3.76  37 
 LG3  SZ E         6 2 46.79                  216.8 21.0      0        3.76  37 
 LG3  SE IS        6 2 47.86                             160   -0.1610 3.76  37 
 LG3  SZ  AML      6 2 49.14         6.5 0.28                          3.76  37 
                                                                                
