 2009 11 1 1132 10.6 L  20.862 -99.438 10.0  RAL  1 0.0 0.6LRAL                1
 GAP=360        0.30       3.5     2.0  0.0  0.4686E+01  0.1506E+06  0.1375E+06E
 ACTION:UPD 12-06-08 11:37 OP:RALL STATUS:               ID:20091101113210     I
 2009-11-01-1132-15S.PLUR1_003                                                 6
 STAT SP IPHASW D HRMM SECON CODA AMPLIT PERI AZIMU VELO AIN AR TRES W  DIS CAZ7
 LG3  SN IP       1132 18.85                              97    0.0110 49.7  23 
 LG3  SZ E        1132 18.91                  202.8  9.5      0        49.7  23 
 LG3  SE IS       1132 24.86                              97   -0.0110 49.7  23 
 LG3  SZ  AML     1132 25.41         4.4 0.44                          49.7  23 
                                                                                
