 2009 11 6 0841 20.3 L  21.256 -99.258 10.0  RAL  1 0.1-0.1LRAL                1
 GAP=360        0.39      21.8     6.0  0.0  0.1312E+03  0.1506E+06  0.1375E+06E
 ACTION:UPD 12-06-08 11:37 OP:RALL STATUS:               ID:20091106084120     I
 2009-11-06-0841-19S.PLUR1_003                                                 6
 STAT SP IPHASW D HRMM SECON CODA AMPLIT PERI AZIMU VELO AIN AR TRES W  DIS CAZ7
 LG3  SN IP        841 22.35                             168    0.1710 2.29  14 
 LG3  SZ E         841 22.35                  194.4 12.9      0        2.29  14 
 LG3  SE IS        841 23.39                             168   -0.1710 2.29  14 
 LG3  SZ  AML      841 23.68         4.9 0.28                          2.29  14 
                                                                                
