 2009 11 8 0856 26.5 L  21.278 -99.241 10.0  RAL  1 0.2 0.3LRAL                1
 GAP=360        0.98     173.3   167.8  0.0 -0.2907E+05  0.1506E+06  0.1375E+06E
 ACTION:UPD 12-06-08 11:37 OP:RALL STATUS:               ID:20091108085626     I
 2009-11-08-0856-18S.PLUR1_003                                                 6
 STAT SP IPHASW D HRMM SECON CODA AMPLIT PERI AZIMU VELO AIN AR TRES W  DIS CAZ7
 LG3  SZ E         856 28.80                   78.7 33.9      3        1.18 256 
 LG3  SN IP        856 28.84                             174    0.4510 1.18 256 
 LG3  SE IS        856 29.29                             174   -0.4510 1.18 256 
 LG3  SZ  AML      856 29.34        11.4 0.10                          1.18 256 
                                                                                
