 2009 11 8 1241 50.0 L  21.243 -99.276 10.0  RAL  1 0.0 0.1LRAL                1
 GAP=360        0.34       9.0     6.7  0.0  0.6068E+02  0.1506E+06  0.1375E+06E
 ACTION:UPD 12-06-08 11:37 OP:RALL STATUS:               ID:20091108124150     I
 2009-11-08-1241-44S.PLUR1_003                                                 6
 STAT SP IPHASW D HRMM SECON CODA AMPLIT PERI AZIMU VELO AIN AR TRES W  DIS CAZ7
 LG3  SZ E        1241 52.01                  214.7 16.5      0        4.36  35 
 LG3  SN IP       1241 52.13                             157    0.1210 4.36  35 
 LG3  SE IS       1241 53.35                             157   -0.1210 4.36  35 
 LG3  SZ  AML     1241 53.67         6.8 0.30                          4.36  35 
                                                                                
