 2009 11 8 2245 30.2 L  21.361 -99.367 10.0  RAL  1 0.0 0.2LRAL                1
 GAP=360        0.30       3.2     2.5  0.0 -0.7273E+01  0.1506E+06  0.1375E+06E
 ACTION:UPD 12-06-08 11:37 OP:RALL STATUS:               ID:20091108224530     I
 2009-11-08-2245-29S.PLUR1_003                                                 6
 STAT SP IPHASW D HRMM SECON CODA AMPLIT PERI AZIMU VELO AIN AR TRES W  DIS CAZ7
 LO8  SZ E        2245 35.02                  324.4 11.0      0        27.5 144 
 LO8  SN IP       2245 35.05                             106    0.0010 27.5 144 
 LO8  SE IS       2245 38.62                             106    0.0010 27.5 144 
 LO8  SZ  AML     2245 40.22         3.2 0.28                          27.5 144 
                                                                                
