 2009 11 9 1055 58.4 L  21.276 -99.247 10.0  RAL  1 0.3 0.0LRAL                1
 GAP=360        3.13     999.9   999.9  0.0  0.3932E+11  0.1506E+06  0.1375E+06E
 ACTION:UPD 12-06-08 11:37 OP:RALL STATUS:               ID:20091109105558     I
 2009-11-09-1055-52S.PLUR1_003                                                 6
 STAT SP IPHASW D HRMM SECON CODA AMPLIT PERI AZIMU VELO AIN AR TRES W  DIS CAZ7
 LG3  SN IP       1056  0.74                             177    0.4410 0.60 270 
 LG3  SZ E        1056  0.74                   75.6 30.7    -14        0.60 270 
 LG3  SE IS       1056  1.22                             177   -0.4410 0.60 270 
 LG3  SZ  AML     1056  1.54         5.8 0.18                          0.60 270 
                                                                                
