 2009 1112 0740 41.2 L  21.084 -99.709 10.0  RAL  1 0.0 1.4LRAL                1
 GAP=360        0.30       2.0     3.7  0.0  0.4840E+01  0.1506E+06  0.1375E+06E
 ACTION:UPD 12-06-08 11:37 OP:RALL STATUS:               ID:20091112074041     I
 2009-11-12-0740-40S.PLUR1_003                                                 6
 STAT SP IPHASW D HRMM SECON CODA AMPLIT PERI AZIMU VELO AIN AR TRES W  DIS CAZ7
 LG3  SN IP        740 49.83                              97    0.0110 51.9  66 
 LG3  SZ E         740 49.85                  246.0 18.7      0        51.9  66 
 LG3  SE IS        740 56.09                              97   -0.0110 51.9  66 
 LG3  SZ  AML      740 57.06        26.5 0.26                          51.9  66 
                                                                                
