 2009 1112 0635  2.3 L  21.124 -99.209 10.0  RAL  1 0.0 0.6LRAL                1
 GAP=360        0.30       4.0     1.2  0.0 -0.4572E+01  0.1506E+06  0.1375E+06E
 ACTION:UPD 12-06-08 11:37 OP:RALL STATUS:               ID:20091112063502     I
 2009-11-12-0634-56S.PLUR1_003                                                 6
 STAT SP IPHASW D HRMM SECON CODA AMPLIT PERI AZIMU VELO AIN AR TRES W  DIS CAZ7
 LG3  SZ E         635  5.66                  165.1 10.6      0        17.4 345 
 LG3  SN IP        635  5.72                             118    0.0010 17.4 345 
 LG3  SE IS        635  8.21                             118    0.0010 17.4 345 
 LG3  SZ  AML      635  9.28        12.3 0.18                          17.4 345 
                                                                                
