 2009 1112 1905 49.3 L  21.404 -99.343 10.0  RAL  1 0.2-0.2LRAL                1
 GAP=360        0.81      25.2    49.6  0.0 -0.1250E+04  0.1506E+06  0.1375E+06E
 ACTION:UPD 12-06-08 11:37 OP:RALL STATUS:               ID:20091112190549     I
 2009-11-12-1905-47S.PLUR1_003                                                 6
 STAT SP IPHASW D HRMM SECON CODA AMPLIT PERI AZIMU VELO AIN AR TRES W  DIS CAZ7
 LT7  SZ E        19 5 51.59                  298.6 16.0      0        1.96 119 
 LT7  SN IP       19 5 51.62                             169    0.5110 1.96 119 
 LT7  SE IS       19 5 51.92                             169   -0.5110 1.96 119 
 LT7  SZ  AML     19 5 52.08         3.2 0.20                          1.96 119 
                                                                                
