 2009 1115 1949 35.8 L  21.535 -99.274 10.0  RAL  1 0.0 0.7LRAL                1
 GAP=360        0.30       3.7     1.3  0.0 -0.2049E+01  0.1506E+06  0.1375E+06E
 ACTION:UPD 12-06-08 11:37 OP:RALL STATUS:               ID:20091115194935     I
 2009-11-15-1949-38S.PLUR1_003                                                 6
 STAT SP IPHASW D HRMM SECON CODA AMPLIT PERI AZIMU VELO AIN AR TRES W  DIS CAZ7
 LO8  SZ E        1949 42.54                  351.4 10.8      0        42.0 171 
 LO8  SN IP       1949 42.87                              99    0.0110 42.0 171 
 LO8  SE IS       1949 48.04                              99   -0.0110 42.0 171 
 LO8  SZ  AML     1949 48.96         6.7 0.30                          42.0 171 
                                                                                
