 2009 1115 2135 45.5 L  21.520 -99.226 10.0  RAL  1 0.0 0.3LRAL                1
 GAP=360        0.30       3.8     1.1  0.0 -0.4653E+00  0.1506E+06  0.1375E+06E
 ACTION:UPD 12-06-08 11:37 OP:RALL STATUS:               ID:20091115213545     I
 2009-11-15-2135-47S.PLUR1_003                                                 6
 STAT SP IPHASW D HRMM SECON CODA AMPLIT PERI AZIMU VELO AIN AR TRES W  DIS CAZ7
 LO8  SZ E        2135 52.29                  358.1 14.6      0        40.0 178 
 LO8  SN IP       2135 52.30                             100    0.0110 40.0 178 
 LO8  SE IS       2135 57.24                             100   -0.0110 40.0 178 
 LO8  SZ  AML     2135 58.86         2.7 0.52                          40.0 178 
                                                                                
