 2009 1115 2032 36.5 L  20.891 -98.835 10.0  RAL  1 0.0 0.4LRAL                1
 GAP=360        0.30       2.5     3.3  0.0 -0.6359E+01  0.1506E+06  0.1375E+06E
 ACTION:UPD 12-06-08 11:37 OP:RALL STATUS:               ID:20091115203236     I
 2009-11-15-2032-39S.PLUR1_006                                                 6
 STAT SP IPHASW D HRMM SECON CODA AMPLIT PERI AZIMU VELO AIN AR TRES W  DIS CAZ7
 LO8  SZ E        2032 44.69                  127.1  6.5      0        49.3 307 
 LO8  SN IP       2032 44.69                              98    0.0210 49.3 307 
 LO8  SE IS       2032 50.66                              98   -0.0210 49.3 307 
 LO8  SZ  AML     2032 53.40         3.1 0.36                          49.3 307 
                                                                                
