 2009 1119 1845 46.1 L  21.132 -99.550 10.0  RAL  1 0.0 0.4LRAL                1
 GAP=360        0.30       1.0     4.0  0.0  0.1255E+01  0.1506E+06  0.1375E+06E
 ACTION:UPD 12-06-08 11:37 OP:RALL STATUS:               ID:20091119184546     I
 2009-11-19-1845-42S.PLUR1_003                                                 6
 STAT SP IPHASW D HRMM SECON CODA AMPLIT PERI AZIMU VELO AIN AR TRES W  DIS CAZ7
 LO8  SZ E        1845 52.01                  265.1  7.1      0        35.1  85 
 LO8  SN IP       1845 52.20                             102    0.0110 35.1  85 
 LO8  SE IS       1845 56.60                             102   -0.0110 35.1  85 
 LO8  SZ  AML     1845 57.66         4.5 0.28                          35.1  85 
                                                                                
