 2009 1120 1843 37.7 L  21.381 -99.304 10.0  RAL  1 0.1-0.3LRAL                1
 GAP=360        0.57      14.7    22.7  0.0 -0.3338E+03  0.1506E+06  0.1375E+06E
 ACTION:UPD 12-06-08 11:37 OP:RALL STATUS:               ID:20091120184337     I
 2009-11-20-1843-35S.PLUR1_003                                                 6
 STAT SP IPHASW D HRMM SECON CODA AMPLIT PERI AZIMU VELO AIN AR TRES W  DIS CAZ7
 LT7  SN IP       1843 39.91                             164    0.3310 2.85 305 
 LT7  SZ E        1843 39.92                  124.7 13.6      0        2.85 305 
 LT7  SE IS       1843 40.60                             164   -0.3310 2.85 305 
 LT7  SZ  AML     1843 40.84         2.7 0.20                          2.85 305 
                                                                                
