 2009 1127 0702  7.8 L  21.260 -99.228 10.0  RAL  1 0.1-0.4LRAL                1
 GAP=360        0.46      11.4    18.1  0.0 -0.2054E+03  0.1506E+06  0.1375E+06E
 ACTION:UPD 12-06-08 11:37 OP:RALL STATUS:               ID:20091127070207     I
 2009-11-27-0702-01S.PLUR1_003                                                 6
 STAT SP IPHASW D HRMM SECON CODA AMPLIT PERI AZIMU VELO AIN AR TRES W  DIS CAZ7
 LG3  SN IP        7 2 10.00                             163    0.2410 3.08 304 
 LG3  SZ E         7 2 10.01                  123.9 27.7      0        3.08 304 
 LG3  SE IS        7 2 10.92                             163   -0.2410 3.08 304 
 LG3  SZ  AML      7 2 10.97         2.0 0.20                          3.08 304 
                                                                                
