 2009 1127 1809 45.8 L  21.323 -99.314 10.0  RAL  1 0.0 0.3LRAL                1
 GAP=360        0.30       5.7     1.0  0.0 -0.5675E+01  0.3539E+06  0.2859E+06E
 ACTION:UPD 12-06-08 11:37 OP:RALL STATUS:               ID:20091127180945     I
 2009-11-27-1809-44S.PLUR1_003                                                 6
 STAT SP IPHASW D HRMM SECON CODA AMPLIT PERI AZIMU VELO AIN AR TRES W  DIS CAZ7
 LT7  SN IP       18 9 48.06                             140    0.0110 8.14 351 
 LT7  SZ E        18 9 48.07                  170.7  7.2      0        8.14 351 
 LT7  SE IS       18 9 49.67                             140   -0.0110 8.14 351 
 LT7  SZ  AML     18 9 51.22         8.6 0.34                          8.14 351 
                                                                                
