 2009 1127 1532 42.8 L  20.949 -99.601 10.0  RAL  3 1.6 1.0LRAL                1
 GAP=330       21.44     154.6   182.4999.9  0.2503E+05  0.3539E+06  0.2859E+06E
 ACTION:UPD 12-06-08 11:37 OP:RALL STATUS:               ID:20091127153242     I
 2009-11-27-1532-45S.PLUR1_009                                                 6
 STAT SP IPHASW D HRMM SECON CODA AMPLIT PERI AZIMU VELO AIN AR TRES W  DIS CAZ7
 LO8  SZ E        1532 54.92                  126.9  6.5    -99        46.6  60 
 LO8  SN IP       1532 54.93                              96    4.3310 46.6  60 
 LO8  SE IS       1532 58.25                              96    1.9510 46.6  60 
 LO8  SZ  AML     1533  2.18         2.8 0.50                          46.6  60 
 LG3  SZ E        1532 53.02                  215.7 13.9     -8        51.2  45 
 LG3  SN IP       1532 53.13                              95    1.8410 51.2  45 
 LG3  SE IS       1532 54.52                              95   -2.9710 51.2  45 
 LG3  SZ  AML     1532 55.43        57.2 0.20                          51.2  45 
 LT7  SN IP       1532 52.10                              95   -0.0610 57.1  30 
 LT7  SZ E        1532 52.11                  179.3  8.2    -30        57.1  30 
 LT7  SE IS       1532 53.89                              95   -5.1110 57.1  30 
 LT7  SZ  AML     1532 55.19         7.6 0.72                          57.1  30 
                                                                                
