 2009 1129 1622 45.9 L  22.166 -98.407 20.8  RAL  2 1.7 1.8LRAL                1
 GAP=349       25.04     999.9   999.9999.9  0.2339E+07  0.4890E+07  0.4851E+07E
 ACTION:UPD 12-06-08 11:37 OP:RALL STATUS:               ID:20091129162245     I
 2009-11-29-1622-59S.PLUR1_006                                                 6
 STAT SP IPHASW D HRMM SECON CODA AMPLIT PERI AZIMU VELO AIN AR TRES W  DIS CAZ7
 LT7  SZ E        1623  4.06                  332.1  8.5     76         128 228 
 LT7  SN IP       1623  4.12                              57   -1.0410  128 228 
 LT7  SE IS       1623 15.65                              57   -3.5710  128 228 
 LT7  SZ  AML     1623 18.32        29.1 0.38                           128 228 
 LO8  SZ E        1623  8.05                  129.8  7.6     93         139 217 
 LO8  SN IP       1623  8.89                              57    2.2510  139 217 
 LO8  SE IS       1623 24.13                              57    2.3610  139 217 
 LO8  SZ  AML     1623 28.47        26.2 0.38                           139 217 
                                                                                
