 2009 1130 2042 16.8 L  21.393 -99.320 10.0  RAL  1 0.3 0.1LRAL                1
 GAP=360        1.89     273.5   505.9  0.0  0.1383E+06  0.4890E+07  0.4851E+07E
 ACTION:UPD 12-06-08 11:37 OP:RALL STATUS:               ID:20091130204216     I
 2009-11-30-2042-14S.PLUR1_003                                                 6
 STAT SP IPHASW D HRMM SECON CODA AMPLIT PERI AZIMU VELO AIN AR TRES W  DIS CAZ7
 LT7  SZ E        2042 19.13                  103.1 15.5     -7        0.69 291 
 LT7  SN IP       2042 19.16                             176    0.5810 0.69 291 
 LT7  SZ  AML     2042 19.25         7.3 0.36                          0.69 291 
 LT7  SE IS       2042 19.29                             176   -0.5810 0.69 291 
                                                                                
