 2008  9 2 0630 34.4 L  21.312 -99.293 10.0  RAL  1 0.1 0.5LRAL                1
 GAP=360        0.64      17.2    22.1  0.0  0.3794E+03 -0.1389E+07  0.1081E+08E
 ACTION:UPD 12-06-08 11:37 OP:RALL STATUS:               ID:20080902063034     I
 2008-09-02-0630-22S.PLUR1_003                                                 6
 STAT SP IPHASW D HRMM SECON CODA AMPLIT PERI AZIMU VELO AIN AR TRES W  DIS CAZ7
 LZ4  SN IP        630 36.69                             163    0.3910 3.23  50 
 LZ4  SZ E         630 36.71                  230.2 13.4      0        3.23  50 
 LZ4  SE IS        630 37.31                             163   -0.3910 3.23  50 
 LZ4  SZ  AML      630 37.74        19.0 0.44                          3.23  50 
                                                                                
