 2008  9 2 0946 51.5 L  21.330 -99.282 10.0  RAL  1 0.1 0.4LRAL                1
 GAP=360        1.26      97.2   129.1  0.0  0.1254E+05 -0.1389E+07  0.1081E+08E
 ACTION:UPD 12-06-08 11:37 OP:RALL STATUS:               ID:20080902094651     I
 2008-09-02-0946-39S.PLUR1_003                                                 6
 STAT SP IPHASW D HRMM SECON CODA AMPLIT PERI AZIMU VELO AIN AR TRES W  DIS CAZ7
 LZ4  SZ E         946 53.50                  273.9  9.5      6        1.33  88 
 LZ4  SN IP        946 53.50                             173    0.1210 1.33  88 
 LZ4  SE IS        946 54.61                             173   -0.1210 1.33  88 
 LZ4  SZ  AML      946 54.99        14.7 0.72                          1.33  88 
                                                                                
