 2008  9 3 1737 24.1 L  21.897 -99.337 10.0  RAL  1 0.0 0.9LRAL                1
 GAP=360        0.30       3.7     1.3  0.0 -0.8504E+00 -0.1389E+07  0.1081E+08E
 ACTION:UPD 12-06-08 11:37 OP:RALL STATUS:               ID:20080903173724     I
 2008-09-03-1737-24S.PLUR1_003                                                 6
 STAT SP IPHASW D HRMM SECON CODA AMPLIT PERI AZIMU VELO AIN AR TRES W  DIS CAZ7
 LA4  SZ E        1737 31.52                  356.4 11.0      0        45.8 176 
 LA4  SN IP       1737 31.78                              98    0.0110 45.8 176 
 LA4  SE IS       1737 37.36                              98   -0.0110 45.8 176 
 LA4  SZ  AML     1737 43.65        10.5 0.44                          45.8 176 
                                                                                
