 2008  9 4 0124 52.3 R  22.240 -99.400 10.0  RAL  1 0.0 1.2LRAL                1
 GAP=360        0.30       3.7     2.4  0.0 -0.1082E+01 -0.1389E+07  0.1081E+08E
 ACTION:UPD 12-06-08 11:37 OP:RALL STATUS:               ID:20080904012452     I
 2008-09-04-0125-01S.PLUR1_003                                                 6
 STAT SP IPHASW D HRMM SECON CODA AMPLIT PERI AZIMU VELO AIN AR TRES W  DIS CAZ7
 LA4  SZ E         125  5.80                  353.6 11.3      0        84.2 174 
 LA4  SN IP        125  5.93                              94    0.0110 84.2 174 
 LA4  SE IS        125 15.84                              94   -0.0110 84.2 174 
 LA4  SZ  AML      125 17.42        11.6 0.24                          84.2 174 
                                                                                
