 2008  9 4 0958 29.6 L  21.818 -99.421 10.0  RAL  1 0.0 0.9LRAL                1
 GAP=360        0.30       3.6     1.6  0.0 -0.4025E+01 -0.1389E+07  0.1081E+08E
 ACTION:UPD 12-06-08 11:37 OP:RALL STATUS:               ID:20080904095829     I
 2008-09-04-0958-25S.PLUR1_003                                                 6
 STAT SP IPHASW D HRMM SECON CODA AMPLIT PERI AZIMU VELO AIN AR TRES W  DIS CAZ7
 LA4  SZ E         958 36.12                  342.7  8.0      0        38.7 163 
 LA4  SN IP        958 36.14                             100    0.0110 38.7 163 
 LA4  SE IS        958 40.92                             100   -0.0110 38.7 163 
 LA4  SZ  AML      958 41.03        12.4 0.40                          38.7 163 
                                                                                
