 2008  9 4 0644 15.1 L  21.491 -99.374 10.0  RAL  1 0.0 0.8LRAL                1
 GAP=360        0.30       0.8     7.1  0.0 -0.5343E+01 -0.1389E+07  0.1081E+08E
 ACTION:UPD 12-06-08 11:37 OP:RALL STATUS:               ID:20080904064415     I
 2008-09-04-0644-05S.PLUR1_006                                                 6
 STAT SP IPHASW D HRMM SECON CODA AMPLIT PERI AZIMU VELO AIN AR TRES W  DIS CAZ7
 LA4  SZ E         644 17.14                  276.5 11.4      0        6.79  96 
 LA4  SN IP        644 17.26                             146    0.0110 6.79  96 
 LA4  SE IS        644 18.82                             146   -0.0110 6.79  96 
 LA4  SZ  AML      644 20.37        31.2 0.32                          6.79  96 
                                                                                
