 2008  9 4 0200 42.5 R  22.470 -99.512 10.0  RAL  1 0.0                        1
 GAP=360        0.30       4.7     3.7  0.0 -0.2318E+01 -0.1389E+07  0.1081E+08E
 ACTION:UPD 12-06-08 11:37 OP:RALL STATUS:               ID:20080904020042     I
 2008-09-04-0200-50S.PLUR1_003                                                 6
 STAT SP IPHASW D HRMM SECON CODA AMPLIT PERI AZIMU VELO AIN AR TRES W  DIS CAZ7
 LZ4  SN IP        2 1  2.90                              52    0.0110  129 169 
 LZ4  SZ E         2 1  3.18                  348.8 15.5      0         129 169 
 LZ4  SE IS        2 1 17.80                              52   -0.0110  129 169 
                                                                                
