 2008  9 4 2249 45.1 L  21.348 -99.331 20.0  RAL  3 0.3 0.9LRAL                1
 GAP=192        1.80       1.2     1.9 15.4 -0.9503E+00  0.1043E+01 -0.9357E-01E
 ACTION:UPD 12-06-08 11:37 OP:RALL STATUS:               ID:20080904224945     I
 2008-09-04-2249-33S.PLUR1_009                                                 6
 STAT SP IPHASW D HRMM SECON CODA AMPLIT PERI AZIMU VELO AIN AR TRES W  DIS CAZ7
 LZ4  SN EP       2249 48.51                             161   -0.1210 6.65 107 
 LZ4  SZ E        2249 48.57                  288.8  6.7      2        6.65 107 
 LZ4  SE IS       2249 51.13                             161   -0.0810 6.65 107 
 LZ4  SZ  AML     2249 53.35        76.4 0.36                          6.65 107 
 LA4  SN IP       2249 49.67                             142    0.4110 15.2   9 
 LA4  SZ E        2249 49.75                  186.9 16.4     -1        15.2   9 
 LA4  SE IS       2249 53.61                             142    1.3010 15.2   9 
 LA4  SZ  AML     2249 57.86        20.1 0.40                          15.2   9 
 LD5  SZ E        2249 48.70                  353.0 19.4     -2        17.9 176 
 LD5  SN EP       2249 49.25                             136   -0.2710 17.9 176 
 LD5  SE IS       2249 51.52                             136   -1.2410 17.9 176 
 LD5  SZ  AML     2249 54.35         6.4 0.62                          17.9 176 
                                                                                
