 2008  9 5 0200 33.9 L  21.407 -99.351 30.5  RAL  2 0.1 0.9LRAL                1
 GAP=252        0.55       0.6     0.5  6.8  0.3206E-01  0.5413E-01  0.5256E-01E
 ACTION:UPD 12-06-08 11:37 OP:RALL STATUS:               ID:20080905020033     I
 2008-09-05-0200-29S.PLUR1_006                                                 6
 STAT SP IPHASW D HRMM SECON CODA AMPLIT PERI AZIMU VELO AIN AR TRES W  DIS CAZ7
 LA4  SZ E         2 0 38.70                  207.3 12.3      0        9.51  27 
 LA4  SN IP        2 0 38.82                             159   -0.2510 9.51  27 
 LA4  SE IS        2 0 42.60                             159   -0.2110 9.51  27 
 LA4  SZ  AML      2 0 45.99        11.0 0.68                          9.51  27 
 LZ4  SN IP        2 0 39.39                             153    0.2110 12.0 135 
 LZ4  SZ E         2 0 39.50                  314.8  8.3      0        12.0 135 
 LZ4  SE IS        2 0 43.25                             153    0.2510 12.0 135 
 LZ4  SZ  AML      2 0 44.56        17.6 0.52                          12.0 135 
                                                                                
