 2008  9 5 1357 37.2 L  21.788 -99.412 10.0  RAL  1 0.0 0.4LRAL                1
 GAP=360        0.30       3.6     1.5  0.0 -0.4177E+01  0.5413E-01  0.5256E-01E
 ACTION:UPD 12-06-08 11:37 OP:RALL STATUS:               ID:20080905135737     I
 2008-09-05-1357-33S.PLUR1_003                                                 6
 STAT SP IPHASW D HRMM SECON CODA AMPLIT PERI AZIMU VELO AIN AR TRES W  DIS CAZ7
 LA4  SZ E        1357 43.22                  342.4  8.6      0        35.3 162 
 LA4  SN IP       1357 43.25                             102    0.0110 35.3 162 
 LA4  SE IS       1357 47.65                             102   -0.0110 35.3 162 
 LA4  SZ  AML     1357 48.00         4.5 0.76                          35.3 162 
                                                                                
