 2008  9 5 2229 51.8 L  21.792 -99.436  5.2  RAL  2 0.2 1.2LRAL                1
 GAP=358        3.59     455.6   182.2941.1 -0.8285E+05 -0.1708E+06  0.4279E+06E
 ACTION:UPD 12-06-08 11:37 OP:RALL STATUS:               ID:20080905222951     I
 2008-09-05-2229-46S.PLUR1_006                                                 6
 STAT SP IPHASW D HRMM SECON CODA AMPLIT PERI AZIMU VELO AIN AR TRES W  DIS CAZ7
 LA4  SZ E        2229 57.56                  348.4  7.5      9        36.6 159 
 LA4  SN IP       2229 57.59                              63   -0.3410 36.6 159 
 LA4  SE IS       2230  2.00                              63   -0.4410 36.6 159 
 LA4  SZ  AML     2230  3.45        24.0 0.44                          36.6 159 
 LZ4  SN IP       2230  1.16                              63    0.5510 53.9 161 
 LZ4  SZ E        2230  1.45                  327.2  7.8    -13        53.9 161 
 LZ4  SE IS       2230  7.31                              63    0.2310 53.9 161 
 LZ4  SZ  AML     2230  8.84        15.5 0.64                          53.9 161 
                                                                                
