 2008  9 6 0751 33.1 L  21.978 -99.340 10.0  RAL  1 0.0 1.2LRAL                1
 GAP=360        0.30       3.7     1.5  0.0 -0.7364E+00 -0.1708E+06  0.4279E+06E
 ACTION:UPD 12-06-08 11:37 OP:RALL STATUS:               ID:20080906075133     I
 2008-09-06-0751-34S.PLUR1_003                                                 6
 STAT SP IPHASW D HRMM SECON CODA AMPLIT PERI AZIMU VELO AIN AR TRES W  DIS CAZ7
 LA4  SZ E         751 41.91                  356.7 13.1      0        54.8 177 
 LA4  SN IP        751 42.19                              97    0.0110 54.8 177 
 LA4  SE IS        751 48.78                              97   -0.0110 54.8 177 
 LA4  SZ  AML      751 49.90        16.6 0.28                          54.8 177 
                                                                                
