 2008  9 6 0214 13.1 R  22.507 -99.481 10.0  RAL  1 0.0 1.7LRAL                1
 GAP=360        0.30       4.7     3.7  0.0 -0.1877E+01 -0.1708E+06  0.4279E+06E
 ACTION:UPD 12-06-08 11:37 OP:RALL STATUS:               ID:20080906021413     I
 2008-09-06-0214-21S.PLUR1_003                                                 6
 STAT SP IPHASW D HRMM SECON CODA AMPLIT PERI AZIMU VELO AIN AR TRES W  DIS CAZ7
 LZ4  SN IP        214 33.96                              52    0.0110  132 170 
 LZ4  SZ E         214 34.21                  350.5 10.6      0         132 170 
 LZ4  SE IS        214 49.16                              52   -0.0110  132 170 
 LZ4  SZ  AML      214 52.29        21.9 0.32                           132 170 
                                                                                
