 2008  9 8 0302 25.3 R  22.274 -99.723 10.0  RAL  2 0.3 2.0LRAL                1
 GAP=358        4.92     999.9   923.1999.9 -0.1664E+07 -0.3560E+07  0.6962E+07E
 ACTION:UPD 12-06-08 11:37 OP:RALL STATUS:               ID:20080908030225     I
 2008-09-08-0302-29S.PLUR1_006                                                 6
 STAT SP IPHASW D HRMM SECON CODA AMPLIT PERI AZIMU VELO AIN AR TRES W  DIS CAZ7
 LA4  SZ E         3 2 40.37                  349.6  9.9     16        97.4 154 
 LA4  SN IP        3 2 41.31                              63    0.3810 97.4 154 
 LA4  SE IS        3 2 52.27                              63   -0.0810 97.4 154 
 LA4  SZ  AML      3 2 58.11        56.0 0.44                          97.4 154 
 LZ4  SZ E         3 2 43.25                  317.7 10.2    -17         115 156 
 LZ4  SN IP        3 2 43.29                              63   -0.2810  115 156 
 LZ4  SE IS        3 2 56.89                              63   -0.0310  115 156 
 LZ4  SZ  AML      3 3  1.23        43.7 0.32                           115 156 
                                                                                
