 2008  9 8 0735 54.8 R  22.353 -99.473 10.0  RAL  1 0.0 1.7LRAL                1
 GAP=360        0.30       3.7     3.2  0.0 -0.9436E+00 -0.3560E+07  0.6962E+07E
 ACTION:UPD 12-06-08 11:37 OP:RALL STATUS:               ID:20080908073554     I
 2008-09-08-0735-59S.PLUR1_003                                                 6
 STAT SP IPHASW D HRMM SECON CODA AMPLIT PERI AZIMU VELO AIN AR TRES W  DIS CAZ7
 LZ4  SZ E         736 12.97                  349.5  9.1      0         115 169 
 LZ4  SN IP        736 13.20                              93    0.0010  115 169 
 LZ4  SE IS        736 26.62                              93    0.0010  115 169 
 LZ4  SZ  AML      736 30.88        23.6 0.40                           115 169 
                                                                                
