 2008  9 8 1725  0.9 L  21.213 -99.477 10.0  RAL  4 1.2 1.1LRAL                1
 GAP=288       21.37      23.1    55.5276.5  0.9567E+02  0.4248E+04 -0.6130E+03E
 ACTION:UPD 12-06-08 11:37 OP:RALL STATUS:               ID:20080908172500     I
 2008-09-08-1724-50S.PLUR1_012                                                 6
 STAT SP IPHASW D HRMM SECON CODA AMPLIT PERI AZIMU VELO AIN AR TRES W  DIS CAZ7
 LD5  SN IP       1725  4.84                             119    0.6610 16.6 100 
 LD5  SZ E        1725  4.88                  334.9 12.1     55        16.6 100 
 LD5  SE IS     C 1725  5.74                             119   -0.8410 16.6 100 
 LD5  SZ  AML     1725  7.95        16.1 0.36                          16.6 100 
 LZ4  SZ E        1725  5.18                  275.3  8.7     36        25.2  59 
 LZ4  SN IP       1725  5.23                             108   -0.1810 25.2  59 
 LZ4  SE IS       1725  7.86                             108   -0.8510 25.2  59 
 LZ4  SZ  AML     1725  8.16       122.8 0.40                          25.2  59 
 LO8  SZ E        1725  6.57                  166.1 10.9    -99        28.1 102 
 LO8  SN IP       1725  6.61                             106    0.7410 28.1 102 
 LO8  SE IS       1725 10.52                             106    1.0110 28.1 102 
 LO8  SZ  AML     1725 11.32         7.3 0.56                          28.1 102 
 LA4  SZ E        1725  6.86                  169.2  9.8    -40        34.6  30 
 LA4  SN IP       1725  6.90                             102    0.0610 34.6  30 
 LA4  SE IS       1725 10.58                             102   -0.6110 34.6  30 
 LA4  SZ  AML     1725 12.97        31.0 0.28                          34.6  30 
                                                                                
