 2008  9 9 0838  1.9 L  21.461 -99.494 10.0  RAL  1 0.0 1.0LRAL                1
 GAP=360        0.30       2.1     3.6  0.0 -0.6971E+01  0.4248E+04 -0.6130E+03E
 ACTION:UPD 12-06-08 11:37 OP:RALL STATUS:               ID:20080909083801     I
 2008-09-09-0837-55S.PLUR1_003                                                 6
 STAT SP IPHASW D HRMM SECON CODA AMPLIT PERI AZIMU VELO AIN AR TRES W  DIS CAZ7
 LZ4  SZ E         838  6.69                  301.8  8.5      0        27.4 122 
 LZ4  SN IP        838  6.79                             106    0.0310 27.4 122 
 LZ4  SE IS        838 10.28                             106   -0.0310 27.4 122 
 LZ4  SZ  AML      838 11.14        20.7 0.52                          27.4 122 
                                                                                
