 2008  910 0102 21.3 R  22.153 -99.815 10.0  RAL  1 0.0 1.5LRAL                1
 GAP=360        0.30       3.5     3.3  0.0 -0.2925E+01  0.4248E+04 -0.6130E+03E
 ACTION:UPD 12-06-08 11:37 OP:RALL STATUS:               ID:20080910010221     I
 2008-09-10-0102-25S.PLUR1_003                                                 6
 STAT SP IPHASW D HRMM SECON CODA AMPLIT PERI AZIMU VELO AIN AR TRES W  DIS CAZ7
 LZ4  SN EP        1 2 38.41                              93    0.0010  107 148 
 LZ4  SZ E         1 2 39.18                  328.3  9.6      0         107 148 
 LZ4  SE IS        1 2 50.92                              93    0.0010  107 148 
 LZ4  SZ  AML      1 2 53.68        17.9 0.64                           107 148 
                                                                                
