 2008  911 0402 52.6 L  22.388 -99.040 10.0  RAL  2 0.6 2.0LRAL                1
 GAP=356       10.55     417.9   135.2668.4  0.4676E+05 -0.7276E+05 -0.2640E+06E
 ACTION:UPD 12-06-08 11:37 OP:RALL STATUS:               ID:20080911040252     I
 2008-09-11-0402-56S.PLUR1_006                                                 6
 STAT SP IPHASW D HRMM SECON CODA AMPLIT PERI AZIMU VELO AIN AR TRES W  DIS CAZ7
 LA4  SN IP        4 3  8.77                             124   -0.5310  104 196 
 LA4  SZ E         4 3  8.88                   49.3 16.3     34         104 196 
 LA4  SE IS        4 3 21.51                             124    0.0510  104 196 
 LA4  SZ  AML      4 3 25.40        31.8 0.24                           104 196 
 LZ4  SZ E         4 3 11.49                  332.5  9.5     39         119 191 
 LZ4  SN IP        4 3 11.94                             120    0.2410  119 191 
 LZ4  SE IS        4 3 25.86                             120    0.2510  119 191 
 LZ4  SZ  AML      4 3 30.72        87.2 0.48                           119 191 
                                                                                
