 2008  911 0014 38.1 L  21.381 -99.321 33.2  RAL  2 0.2 1.2LRAL                1
 GAP=230        1.14       1.4     1.1 13.6 -0.9797E+00  0.1626E+00 -0.1387E+00E
 ACTION:UPD 12-06-08 11:37 OP:RALL STATUS:               ID:20080911001438     I
 2008-09-11-0014-29S.PLUR1_006                                                 6
 STAT SP IPHASW D HRMM SECON CODA AMPLIT PERI AZIMU VELO AIN AR TRES W  DIS CAZ7
 LZ4  SZ E         014 43.84                  315.6 10.3      0        7.77 136 
 LZ4  SN IP        014 43.91                             164    0.4310 7.77 136 
 LZ4  SE IS        014 47.99                             164    0.6010 7.77 136 
 LZ4  SZ  AML      014 48.95        29.8 0.28                          7.77 136 
 LA4  SN IP        014 43.30                             157   -0.3410 11.4   7 
 LA4  SZ E         014 43.33                  185.9 14.2      0        11.4   7 
 LA4  SE IS        014 46.98                             157   -0.6910 11.4   7 
 LA4  SZ  AML      014 47.60        31.6 0.72                          11.4   7 
                                                                                
