 2008  911 0017 55.5 L  21.659 -99.392 10.0  RAL  1 0.0 0.8LRAL                1
 GAP=360        0.30       3.6     1.8  0.0 -0.6234E+01  0.1626E+00 -0.1387E+00E
 ACTION:UPD 12-06-08 11:37 OP:RALL STATUS:               ID:20080911001755     I
 2008-09-11-0017-47S.PLUR1_003                                                 6
 STAT SP IPHASW D HRMM SECON CODA AMPLIT PERI AZIMU VELO AIN AR TRES W  DIS CAZ7
 LA4  SZ E         017 59.35                  336.0  9.0      0        21.2 156 
 LA4  SN IP        017 59.42                             112    0.0010 21.2 156 
 LA4  SE IS        018  2.30                             112    0.0010 21.2 156 
 LA4  SZ  AML      018  3.92        15.1 0.36                          21.2 156 
                                                                                
