 2008  911 0823 31.0 L  21.344 -99.298 10.0  RAL  1 0.1 0.4LRAL                1
 GAP=360        0.40       7.4    15.7  0.0 -0.1162E+03 -0.7276E+05 -0.2640E+06E
 ACTION:UPD 12-06-08 11:37 OP:RALL STATUS:               ID:20080911082331     I
 2008-09-11-0823-20S.PLUR1_003                                                 6
 STAT SP IPHASW D HRMM SECON CODA AMPLIT PERI AZIMU VELO AIN AR TRES W  DIS CAZ7
 LZ4  SZ E         823 32.81                  296.9 13.1      0        3.29 117 
 LZ4  SN IP        823 33.08                             162    0.1810 3.29 117 
 LZ4  SE IS        823 34.11                             162   -0.1810 3.29 117 
 LZ4  SZ  AML      823 35.02        13.0 0.76                          3.29 117 
                                                                                
