 2008  911 0400 31.2 L  22.186 -99.981 10.0  RAL  1 0.0 1.7LRAL                1
 GAP=360        0.30       3.5     3.6  0.0 -0.2142E+01  0.1626E+00 -0.1387E+00E
 ACTION:UPD 12-06-08 11:37 OP:RALL STATUS:               ID:20080911040031     I
 2008-09-11-0400-37S.PLUR1_003                                                 6
 STAT SP IPHASW D HRMM SECON CODA AMPLIT PERI AZIMU VELO AIN AR TRES W  DIS CAZ7
 LZ4  SZ E         4 0 50.30                  322.3  9.1      0         120 142 
 LZ4  SN IP        4 0 50.31                              93    0.0010  120 142 
 LZ4  SE IS        4 1  4.27                              93    0.0010  120 142 
 LZ4  SZ  AML      4 1  7.42        23.7 0.68                           120 142 
                                                                                
