 2008  911 0434 15.6 L  22.334 -99.786 10.0  RAL  1 0.0 2.1LRAL                1
 GAP=360        0.30       3.6     3.6  0.0 -0.1500E+01 -0.7276E+05 -0.2640E+06E
 ACTION:UPD 12-06-08 11:37 OP:RALL STATUS:               ID:20080911043415     I
 2008-09-11-0434-21S.PLUR1_003                                                 6
 STAT SP IPHASW D HRMM SECON CODA AMPLIT PERI AZIMU VELO AIN AR TRES W  DIS CAZ7
 LZ4  SN IP        434 35.25                              93    0.0010  123 154 
 LZ4  SZ E         434 35.31                  334.4  8.2      0         123 154 
 LZ4  SE IS        434 49.59                              93    0.0010  123 154 
 LZ4  SZ  AML      434 54.17        59.8 0.40                           123 154 
                                                                                
