 2008  912 1815 12.5 L  21.960 -99.630 10.0  RAL  1 0.0 1.1LRAL                1
 GAP=360        0.30       3.3     2.6  0.0 -0.5455E+01 -0.7276E+05 -0.2640E+06E
 ACTION:UPD 12-06-08 11:37 OP:RALL STATUS:               ID:20080912181512     I
 2008-09-12-1815-14S.PLUR1_003                                                 6
 STAT SP IPHASW D HRMM SECON CODA AMPLIT PERI AZIMU VELO AIN AR TRES W  DIS CAZ7
 LA4  SN IP       1815 22.69                              96    0.0110 62.3 148 
 LA4  SZ E        1815 22.92                  327.9 13.5      0        62.3 148 
 LA4  SE IS       1815 30.12                              96   -0.0110 62.3 148 
 LA4  SZ  AML     1815 33.90        12.8 0.64                          62.3 148 
                                                                                
