 2008  913 0459 25.7 L  21.333 -99.275 10.0  RAL  1 0.3 0.4LRAL                1
 GAP=360        3.29     999.9   999.9  0.0  0.3597E+09 -0.7276E+05 -0.2640E+06E
 ACTION:UPD 12-06-08 11:37 OP:RALL STATUS:               ID:20080913045925     I
 2008-09-13-0459-13S.PLUR1_003                                                 6
 STAT SP IPHASW D HRMM SECON CODA AMPLIT PERI AZIMU VELO AIN AR TRES W  DIS CAZ7
 LZ4  SN IP        459 27.62                             177    0.0610 0.62 107 
 LZ4  SZ E         459 27.63                  271.7 11.8    -15        0.62 107 
 LZ4  SE IS        459 28.84                             177   -0.0610 0.62 107 
 LZ4  SZ  AML      459 29.41        13.6 0.64                          0.62 107 
                                                                                
