 2008  913 1542 47.7 R  22.842-100.523 10.0  RAL  1 0.0 2.4LRAL                1
 GAP=360        0.30       5.0     5.6  0.0  0.4014E+01 -0.7276E+05 -0.2640E+06E
 ACTION:UPD 12-06-08 11:37 OP:RALL STATUS:               ID:20080913154247     I
 2008-09-13-1543-05S.PLUR1_003                                                 6
 STAT SP IPHASW D HRMM SECON CODA AMPLIT PERI AZIMU VELO AIN AR TRES W  DIS CAZ7
 LZ4  SZ E        1543 18.06                  322.5 26.2      0         211 142 
 LZ4  SN IP       1543 18.24                              52    0.0110  211 142 
 LZ4  SE IS       1543 40.51                              52   -0.0110  211 142 
 LZ4  SZ  AML     1543 42.19        60.4 0.36                           211 142 
                                                                                
