 2008  914 1549 37.8 L  21.318 -99.291 10.0  RAL  1 0.2 0.3LRAL                1
 GAP=360        0.66      17.5    29.5  0.0  0.5168E+03 -0.7276E+05 -0.2640E+06E
 ACTION:UPD 12-06-08 11:37 OP:RALL STATUS:               ID:20080914154937     I
 2008-09-14-1549-26S.PLUR1_003                                                 6
 STAT SP IPHASW D HRMM SECON CODA AMPLIT PERI AZIMU VELO AIN AR TRES W  DIS CAZ7
 LZ4  SN IP       1549 40.08                             165    0.4010 2.69  57 
 LZ4  SZ E        1549 40.09                  237.5 15.3      0        2.69  57 
 LZ4  SE IS       1549 40.66                             165   -0.4010 2.69  57 
 LZ4  SZ  AML     1549 41.05        10.8 0.28                          2.69  57 
                                                                                
