 2008  915 1212 56.9 L  21.700 -99.420  0.0  RAL  2 0.2 1.4LRAL                1
 GAP=355        3.46      33.1    17.7756.4 -0.5200E+03  0.8414E+04 -0.1674E+05E
 ACTION:UPD 12-06-08 11:37 OP:RALL STATUS:               ID:20080915121256     I
 2008-09-15-1212-48S.PLUR1_006                                                 6
 STAT SP IPHASW D HRMM SECON CODA AMPLIT PERI AZIMU VELO AIN AR TRES W  DIS CAZ7
 LA4  SZ E        1213  1.78                  343.0  8.2      9        26.6 154 
 LA4  SN IP       1213  1.83                              92    0.2710 26.6 154 
 LA4  SE IS       1213  4.49                              92   -0.4610 26.6 154 
 LA4  SZ  AML     1213  6.16        58.0 0.64                          26.6 154 
 LZ4  SN IP       1213  4.76                              91    0.2010 43.8 159 
 LZ4  SZ E        1213  4.84                  324.9  8.5    -13        43.8 159 
 LZ4  SE IS       1213 10.13                              91   -0.0110 43.8 159 
 LZ4  SZ  AML     1213 12.98        32.5 0.48                          43.8 159 
                                                                                
