 2008  915 1008 14.0 L  21.399 -99.321 10.0  RAL  1 0.0 0.5LRAL                1
 GAP=360        0.30       4.4     3.4  0.0 -0.1503E+02 -0.7276E+05 -0.2640E+06E
 ACTION:UPD 12-06-08 11:37 OP:RALL STATUS:               ID:20080915100814     I
 2008-09-15-1008-04S.PLUR1_003                                                 6
 STAT SP IPHASW D HRMM SECON CODA AMPLIT PERI AZIMU VELO AIN AR TRES W  DIS CAZ7
 LZ4  SN IP       10 8 16.36                             137    0.0210 9.23 145 
 LZ4  SZ E        10 8 16.65                  324.6  9.8      0        9.23 145 
 LZ4  SE IS       10 8 18.06                             137   -0.0210 9.23 145 
 LZ4  SZ  AML     10 8 19.70        12.7 0.60                          9.23 145 
                                                                                
