 2008  916 1053  2.0 L  21.341 -99.296 10.0  RAL  1 0.1 0.5LRAL                1
 GAP=360        0.42       7.1    18.5  0.0 -0.1305E+03  0.8414E+04 -0.1674E+05E
 ACTION:UPD 12-06-08 11:37 OP:RALL STATUS:               ID:20080916105302     I
 2008-09-16-1052-50S.PLUR1_003                                                 6
 STAT SP IPHASW D HRMM SECON CODA AMPLIT PERI AZIMU VELO AIN AR TRES W  DIS CAZ7
 LZ4  SN IP       1053  4.05                             164    0.2010 2.98 112 
 LZ4  SZ E        1053  4.14                  292.3 11.4      0        2.98 112 
 LZ4  SE IS       1053  5.04                             164   -0.2010 2.98 112 
 LZ4  SZ  AML     1053  5.19        18.2 0.36                          2.98 112 
                                                                                
