 2008  916 1314 14.4 L  21.341 -99.291 10.0  RAL  1 0.1 0.6LRAL                1
 GAP=360        0.50      12.0    25.1  0.0 -0.3008E+03  0.8414E+04 -0.1674E+05E
 ACTION:UPD 12-06-08 11:37 OP:RALL STATUS:               ID:20080916131414     I
 2008-09-16-1314-02S.PLUR1_003                                                 6
 STAT SP IPHASW D HRMM SECON CODA AMPLIT PERI AZIMU VELO AIN AR TRES W  DIS CAZ7
 LZ4  SZ E        1314 16.53                  297.2  7.6      0        2.54 117 
 LZ4  SN IP       1314 16.59                             166    0.2810 2.54 117 
 LZ4  SE IS       1314 17.41                             166   -0.2810 2.54 117 
 LZ4  SZ  AML     1314 17.52        20.8 0.12                          2.54 117 
                                                                                
