 2008  916 2012 55.6 L  21.417 -99.366 10.0  RAL  1 0.0 0.2LRAL                1
 GAP=360        0.30       4.2     3.6  0.0  0.1526E+02  0.8414E+04 -0.1674E+05E
 ACTION:UPD 12-06-08 11:37 OP:RALL STATUS:               ID:20080916201255     I
 2008-09-16-2012-46S.PLUR1_003                                                 6
 STAT SP IPHASW D HRMM SECON CODA AMPLIT PERI AZIMU VELO AIN AR TRES W  DIS CAZ7
 LA4  SZ E        2012 58.04                  218.6 13.7      0        9.48  39 
 LA4  SN IP       2012 58.09                             136    0.0210 9.48  39 
 LA4  SE IS       2012 59.81                             136   -0.0210 9.48  39 
 LA4  SZ  AML     2013  0.70         6.7 0.36                          9.48  39 
                                                                                
