 2008  917 1550  4.4 L  21.626 -99.322 10.0  RAL  1 0.0 0.6LRAL                1
 GAP=360        0.30       4.3     0.6  0.0 -0.1689E+01  0.8414E+04 -0.1674E+05E
 ACTION:UPD 12-06-08 11:37 OP:RALL STATUS:               ID:20080917155004     I
 2008-09-17-1549-55S.PLUR1_003                                                 6
 STAT SP IPHASW D HRMM SECON CODA AMPLIT PERI AZIMU VELO AIN AR TRES W  DIS CAZ7
 LA4  SZ E        1550  7.51                  355.1  8.2      0        15.8 175 
 LA4  SN IP       1550  7.61                             120    0.0210 15.8 175 
 LA4  SE IS       1550  9.90                             120   -0.0210 15.8 175 
 LA4  SZ  AML     1550 11.36        11.9 0.40                          15.8 175 
                                                                                
