 2008  917 1419 53.1 R  22.453 -99.500 10.0  RAL  1 0.0 2.4LRAL                1
 GAP=360        0.30       3.7     3.5  0.0 -0.6027E+00  0.8414E+04 -0.1674E+05E
 ACTION:UPD 12-06-08 11:37 OP:RALL STATUS:               ID:20080917141953     I
 2008-09-17-1419-59S.PLUR1_003                                                 6
 STAT SP IPHASW D HRMM SECON CODA AMPLIT PERI AZIMU VELO AIN AR TRES W  DIS CAZ7
 LZ4  SZ E        1420 13.00                  349.2  7.6      0         126 169 
 LZ4  SN IP       1420 13.19                              92    0.0010  126 169 
 LZ4  SE IS       1420 27.90                              92    0.0010  126 169 
 LZ4  SZ  AML     1420 31.11       110.6 0.40                           126 169 
                                                                                
