 2008  917 2334  9.5 L  21.407 -99.399 28.5  RAL  2 0.2 0.6LRAL                1
 GAP=286        1.28       1.5     2.0 13.7  0.7230E+00  0.1553E+01  0.5522E+00E
 ACTION:UPD 12-06-08 11:37 OP:RALL STATUS:               ID:20080917233409     I
 2008-09-17-2334-04S.PLUR1_006                                                 6
 STAT SP IPHASW D HRMM SECON CODA AMPLIT PERI AZIMU VELO AIN AR TRES W  DIS CAZ7
 LA4  SZ E        2334 14.10                  226.5 13.4      0        12.6  48 
 LA4  SN IP       2334 14.13                             154   -0.3610 12.6  48 
 LA4  SE IS       2334 17.43                             154   -0.7410 12.6  48 
 LA4  SZ  AML     2334 19.33         7.5 0.36                          12.6  48 
 LZ4  SZ E        2334 14.99                  301.1  6.6      0        15.9 122 
 LZ4  SN IP       2334 15.02                             149    0.3210 15.9 122 
 LZ4  SE IS       2334 19.31                             149    0.7810 15.9 122 
 LZ4  SZ  AML     2334 21.20         9.2 0.44                          15.9 122 
                                                                                
