 2008  918 0230 22.7 L  21.192 -99.291 10.0  RAL  1 0.0-0.6LRAL                1
 GAP=360        0.30       2.7    13.7  0.0  0.3632E+02  0.1553E+01  0.5522E+00E
 ACTION:UPD 12-06-08 11:37 OP:RALL STATUS:               ID:20080918023022     I
 2008-09-18-0230-11S.PLUR1_003                                                 6
 STAT SP IPHASW D HRMM SECON CODA AMPLIT PERI AZIMU VELO AIN AR TRES W  DIS CAZ7
 LD5  SZ E         230 24.52                   78.2 14.6      0        3.11 258 
 LD5  SN IP        230 24.63                             163    0.0410 3.11 258 
 LD5  SE IS        230 25.94                             163   -0.0410 3.11 258 
 LD5  SZ  AML      230 26.00         1.4 0.18                          3.11 258 
                                                                                
