 2008  918 1018 22.6 L  21.337 -99.280 10.0  RAL  1 0.4 0.9LRAL                1
 GAP=360        4.56     999.9   999.9  0.0  0.5804E+07  0.1553E+01  0.5522E+00E
 ACTION:UPD 12-06-08 11:37 OP:RALL STATUS:               ID:20080918101822     I
 2008-09-18-1018-10S.PLUR1_003                                                 6
 STAT SP IPHASW D HRMM SECON CODA AMPLIT PERI AZIMU VELO AIN AR TRES W  DIS CAZ7
 LZ4  SZ E        1018 24.76                  279.6 20.6    -21        1.30 121 
 LZ4  SN IP       1018 24.78                             173    0.3310 1.30 121 
 LZ4  SE IS       1018 25.47                             173   -0.3310 1.30 121 
 LZ4  SZ  AML     1018 25.75        44.6 0.24                          1.30 121 
                                                                                
