 2008  918 2333 29.7 L  21.825 -99.380 10.0  RAL  1 0.0                        1
 GAP=360        0.30       3.7     1.3  0.0 -0.2657E+01  0.1553E+01  0.5522E+00E
 ACTION:UPD 12-06-08 11:37 OP:RALL STATUS:               ID:20080918233329     I
 2008-09-18-2333-26S.PLUR1_003                                                 6
 STAT SP IPHASW D HRMM SECON CODA AMPLIT PERI AZIMU VELO AIN AR TRES W  DIS CAZ7
 LA4  SZ E        2333 35.92                  349.0  7.9      0        38.5 169 
 LA4  SN IP       2333 36.24                             100    0.0110 38.5 169 
 LA4  SE IS       2333 41.00                             100   -0.0110 38.5 169 
                                                                                
