 2008  919 0002 29.1 L  21.174 -99.304 10.0  RAL  1 0.2 0.5LRAL                1
 GAP=360        0.79      29.7    38.8  0.0 -0.1154E+04  0.1553E+01  0.5522E+00E
 ACTION:UPD 12-06-08 11:37 OP:RALL STATUS:               ID:20080919000229     I
 2008-09-19-0002-16S.PLUR1_003                                                 6
 STAT SP IPHASW D HRMM SECON CODA AMPLIT PERI AZIMU VELO AIN AR TRES W  DIS CAZ7
 LD5  SZ E         0 2 31.48                  129.4 27.7      0        2.23 309 
 LD5  SN IP        0 2 31.50                             168    0.5010 2.23 309 
 LD5  SE IS        0 2 31.87                             168   -0.5010 2.23 309 
 LD5  SZ  AML      0 2 32.09        17.9 0.16                          2.23 309 
                                                                                
