 2008  919 0152  1.9 R  22.282 -99.867 10.0  RAL  1 0.0 1.7LRAL                1
 GAP=360        0.30       3.6     3.6  0.0 -0.1763E+01  0.1553E+01  0.5522E+00E
 ACTION:UPD 12-06-08 11:37 OP:RALL STATUS:               ID:20080919015201     I
 2008-09-19-0152-07S.PLUR1_003                                                 6
 STAT SP IPHASW D HRMM SECON CODA AMPLIT PERI AZIMU VELO AIN AR TRES W  DIS CAZ7
 LZ4  SZ E         152 21.37                  329.7 10.3      0         122 149 
 LZ4  SN IP        152 21.37                              93    0.0010  122 149 
 LZ4  SE IS        152 35.58                              93    0.0010  122 149 
 LZ4  SZ  AML      152 37.56        22.7 0.52                           122 149 
                                                                                
