 2008  919 1555 14.4 R  21.619 -99.382 10.0  RAL  1 0.0 0.6LRAL                1
 GAP=360        0.30       3.8     2.1  0.0 -0.7567E+01  0.1553E+01  0.5522E+00E
 ACTION:UPD 12-06-08 11:37 OP:RALL STATUS:               ID:20080919155514     I
 2008-09-19-1555-06S.PLUR1_003                                                 6
 STAT SP IPHASW D HRMM SECON CODA AMPLIT PERI AZIMU VELO AIN AR TRES W  DIS CAZ7
 LA4  SZ E        1555 17.23                  333.3 13.0      0        16.8 153 
 LA4  SN IP       1555 17.70                             119    0.0110 16.8 153 
 LA4  SE IS       1555 20.12                             119   -0.0110 16.8 153 
 LA4  SZ  AML     1555 21.36        11.5 0.36                          16.8 153 
                                                                                
