 2008  919 1832 53.6 L  21.359 -99.299 15.4  RAL  2 0.1 0.5LRAL                1
 GAP=220        0.54       0.8     0.7  5.0 -0.5176E+00  0.4235E+00 -0.4580E+00E
 ACTION:UPD 12-06-08 11:37 OP:RALL STATUS:               ID:20080919183253     I
 2008-09-19-1832-44S.PLUR1_006                                                 6
 STAT SP IPHASW D HRMM SECON CODA AMPLIT PERI AZIMU VELO AIN AR TRES W  DIS CAZ7
 LZ4  SN IP       1832 56.65                             164    0.3010 4.38 136 
 LZ4  SZ E        1832 56.69                  315.8  7.7      0        4.38 136 
 LZ4  SE IS       1832 58.45                             164    0.0810 4.38 136 
 LZ4  SZ  AML     1832 59.92        12.3 0.20                          4.38 136 
 LA4  SN IP       1832 56.96                             138   -0.1210 13.8 356 
 LA4  SZ E        1832 57.03                  175.0 11.1      0        13.8 356 
 LA4  SZ  AML     1832 59.31         7.0 0.72                          13.8 356 
 LA4  SE IS       1832 59.37                             138   -0.2610 13.8 356 
                                                                                
