 2008  920 0952 48.5 L  21.344 -99.274 10.0  RAL  2 0.1 1.3LRAL                1
 GAP=183        2.08       6.7     3.4 17.0 -0.9035E+01  0.1239E+02 -0.4937E+02E
 ACTION:UPD 12-06-08 11:37 OP:RALL STATUS:               ID:20080920095248     I
 2008-09-20-0952-35S.PLUR1_006                                                 6
 STAT SP IPHASW D HRMM SECON CODA AMPLIT PERI AZIMU VELO AIN AR TRES W  DIS CAZ7
 LZ4  SN IP        952 50.45                             172    0.1410 1.49 163 
 LZ4  SZ E         952 50.49                  341.5  6.7     -1        1.49 163 
 LZ4  SE IS        952 51.23                             172   -0.4310 1.49 163 
 LZ4  SZ  AML      952 51.75       301.3 0.32                          1.49 163 
 LA4  SN IP        952 51.89                             120    0.2110 15.9 347 
 LA4  SZ E         952 51.93                  157.1  8.3     -9        15.9 347 
 LA4  SE IS        952 54.10                             120    0.0810 15.9 347 
 LA4  SZ  AML      952 55.59        24.7 0.36                          15.9 347 
                                                                                
