 2008  920 0841 35.2 R  22.508-100.247 10.0  RAL  1 0.0 2.1LRAL                1
 GAP=360        0.30       4.5     4.8  0.0 -0.2126E+01  0.4963E-01  0.5492E-01E
 ACTION:UPD 12-06-08 11:37 OP:RALL STATUS:               ID:20080920084135     I
 2008-09-20-0841-46S.PLUR1_003                                                 6
 STAT SP IPHASW D HRMM SECON CODA AMPLIT PERI AZIMU VELO AIN AR TRES W  DIS CAZ7
 LZ4  SN IP        842  0.04                              52    0.0110  165 142 
 LZ4  SZ E         842  0.29                  322.4 19.4      0         165 142 
 LZ4  SE IS        842 18.17                              52   -0.0110  165 142 
 LZ4  SZ  AML      842 20.18        38.6 0.44                           165 142 
                                                                                
