 2008  920 0122 37.0 L  21.417 -99.352 27.2  RAL  2 0.1 0.8LRAL                1
 GAP=253        0.52       0.6     0.4  5.3  0.7673E-01  0.4963E-01  0.5492E-01E
 ACTION:UPD 12-06-08 11:37 OP:RALL STATUS:               ID:20080920012237     I
 2008-09-20-0122-27S.PLUR1_006                                                 6
 STAT SP IPHASW D HRMM SECON CODA AMPLIT PERI AZIMU VELO AIN AR TRES W  DIS CAZ7
 LA4  SZ E         122 41.46                  210.9 15.1      0        8.61  31 
 LA4  SN IP        122 41.49                             161   -0.1410 8.61  31 
 LA4  SE IS        122 44.78                             161   -0.2410 8.61  31 
 LA4  SZ  AML      122 46.12        12.9 0.56                          8.61  31 
 LZ4  SZ E         122 41.99                  317.5  6.8      0        12.9 138 
 LZ4  SN IP        122 41.99                             153    0.1410 12.9 138 
 LZ4  SE IS        122 45.64                             153    0.2310 12.9 138 
 LZ4  SZ  AML      122 46.49        12.9 0.20                          12.9 138 
                                                                                
