 2008  921 0347 17.0 L  21.348 -99.245 10.0  RAL  1 0.1 0.5LRAL                1
 GAP=360        0.49      12.3    17.6  0.0  0.2162E+03  0.1239E+02 -0.4937E+02E
 ACTION:UPD 12-06-08 11:37 OP:RALL STATUS:               ID:20080921034717     I
 2008-09-21-0347-05S.PLUR1_003                                                 6
 STAT SP IPHASW D HRMM SECON CODA AMPLIT PERI AZIMU VELO AIN AR TRES W  DIS CAZ7
 LZ4  SZ E         347 18.95                   53.1  5.2      0        3.19 233 
 LZ4  SN IP        347 19.17                             163    0.2610 3.19 233 
 LZ4  SE IS        347 20.04                             163   -0.2610 3.19 233 
 LZ4  SZ  AML      347 20.43        16.3 0.44                          3.19 233 
                                                                                
