 2008  921 0040 43.7 R  21.989 -99.811 10.0  RAL  1 0.0 1.8LRAL                1
 GAP=360        0.30       3.3     3.2  0.0 -0.4217E+01  0.1239E+02 -0.4937E+02E
 ACTION:UPD 12-06-08 11:37 OP:RALL STATUS:               ID:20080921004043     I
 2008-09-21-0040-44S.PLUR1_003                                                 6
 STAT SP IPHASW D HRMM SECON CODA AMPLIT PERI AZIMU VELO AIN AR TRES W  DIS CAZ7
 LZ4  SZ E         040 58.43                  322.5  8.8      0        91.9 142 
 LZ4  SN IP        040 58.46                              94    0.0110 91.9 142 
 LZ4  SE IS        041  9.23                              94   -0.0110 91.9 142 
 LZ4  SZ  AML      041 13.99        41.0 0.48                          91.9 142 
                                                                                
