 2008  921 1644 48.4 L  21.714 -99.404 10.0  RAL  1 0.0 0.6LRAL                1
 GAP=360        0.30       3.6     1.7  0.0 -0.5202E+01  0.1239E+02 -0.4937E+02E
 ACTION:UPD 12-06-08 11:37 OP:RALL STATUS:               ID:20080921164448     I
 2008-09-21-1644-43S.PLUR1_003                                                 6
 STAT SP IPHASW D HRMM SECON CODA AMPLIT PERI AZIMU VELO AIN AR TRES W  DIS CAZ7
 LA4  SN IP       1644 53.22                             106    0.0210 27.3 159 
 LA4  SZ E        1644 53.24                  339.0 11.9      0        27.3 159 
 LA4  SE IS       1644 56.72                             106   -0.0210 27.3 159 
 LA4  SZ  AML     1644 58.12         8.4 0.24                          27.3 159 
                                                                                
