 2008  921 2053  4.4 L  21.680 -99.391  0.0  RAL  2 0.1 1.4LRAL                1
 GAP=357        2.26      21.5     9.6405.5 -0.1822E+03  0.2292E+04 -0.5579E+04E
 ACTION:UPD 12-06-08 11:37 OP:RALL STATUS:               ID:20080921205304     I
 2008-09-21-2052-54S.PLUR1_006                                                 6
 STAT SP IPHASW D HRMM SECON CODA AMPLIT PERI AZIMU VELO AIN AR TRES W  DIS CAZ7
 LA4  SN IP       2053  8.56                              93    0.0810 23.3 159 
 LA4  SZ E        2053  8.60                  344.1  8.0      5        23.3 159 
 LA4  SE IS       2053 11.15                              93   -0.3110 23.3 159 
 LA4  SZ  AML     2053 11.81       107.0 0.28                          23.3 159 
 LZ4  SN IP       2053 11.66                              91    0.1610 40.6 162 
 LZ4  SZ E        2053 11.91                  332.6  9.4     -8        40.6 162 
 LZ4  SE IS       2053 16.76                              91    0.0710 40.6 162 
 LZ4  SZ  AML     2053 17.78        25.0 0.80                          40.6 162 
                                                                                
