 2008  921 2039 29.7 L  21.344 -99.296 10.0  RAL  1 0.1 0.4LRAL                1
 GAP=360        0.47       9.6    19.2  0.0 -0.1835E+03  0.1239E+02 -0.4937E+02E
 ACTION:UPD 12-06-08 11:37 OP:RALL STATUS:               ID:20080921203929     I
 2008-09-21-2039-18S.PLUR1_003                                                 6
 STAT SP IPHASW D HRMM SECON CODA AMPLIT PERI AZIMU VELO AIN AR TRES W  DIS CAZ7
 LZ4  SZ E        2039 31.45                  298.2 43.1      0        3.08 118 
 LZ4  SN IP       2039 31.89                             163    0.2410 3.08 118 
 LZ4  SE IS       2039 32.79                             163   -0.2410 3.08 118 
 LZ4  SZ  AML     2039 32.91        14.1 0.16                          3.08 118 
                                                                                
