 2008  923 0453 16.9 L  21.315 -99.269 10.0  RAL  1 0.1 0.3LRAL                1
 GAP=360        1.04     999.9   999.9  0.0  0.2393E+08  0.2292E+04 -0.5579E+04E
 ACTION:UPD 12-06-08 11:37 OP:RALL STATUS:               ID:20080923045316     I
 2008-09-23-0453-05S.PLUR1_003                                                 6
 STAT SP IPHASW D HRMM SECON CODA AMPLIT PERI AZIMU VELO AIN AR TRES W  DIS CAZ7
 LZ4  SN IP        453 18.79                             170    0.0810 1.78 357 
 LZ4  SZ E         453 18.80                  181.7  9.1      5        1.78 357 
 LZ4  SE IS        453 19.99                             170   -0.0810 1.78 357 
 LZ4  SZ  AML      453 20.70        11.2 0.80                          1.78 357 
                                                                                
