 2008  923 0815 41.1 R  22.537 -99.750 10.0  RAL  1 0.0 2.0LRAL                1
 GAP=360        0.30       4.6     4.1  0.0 -0.3071E+01  0.2292E+04 -0.5579E+04E
 ACTION:UPD 12-06-08 11:37 OP:RALL STATUS:               ID:20080923081541     I
 2008-09-23-0815-50S.PLUR1_003                                                 6
 STAT SP IPHASW D HRMM SECON CODA AMPLIT PERI AZIMU VELO AIN AR TRES W  DIS CAZ7
 LZ4  SZ E         816  2.98                  339.7 12.2      0         142 160 
 LZ4  SN IP        816  3.20                              52    0.0110  142 160 
 LZ4  SE IS        816 19.33                              52   -0.0110  142 160 
 LZ4  SZ  AML      816 26.15        40.9 0.48                           142 160 
                                                                                
