 2008  923 1751 44.7 L  21.685 -99.296 10.0  RAL  1 0.0 0.7LRAL                1
 GAP=360        0.30       4.0     0.7  0.0  0.9809E+00  0.2292E+04 -0.5579E+04E
 ACTION:UPD 12-06-08 11:37 OP:RALL STATUS:               ID:20080923175144     I
 2008-09-23-1751-38S.PLUR1_003                                                 6
 STAT SP IPHASW D HRMM SECON CODA AMPLIT PERI AZIMU VELO AIN AR TRES W  DIS CAZ7
 LA4  SN IP       1751 48.85                             111    0.0110 22.3 183 
 LA4  SZ E        1751 48.87                    3.4  7.3      0        22.3 183 
 LA4  SE IS       1751 51.82                             111   -0.0110 22.3 183 
 LA4  SZ  AML     1751 53.75        11.3 0.28                          22.3 183 
                                                                                
