 2008  923 1924 44.6 R  22.198 -99.254  0.3  RAL  3 0.4 2.1LRAL                1
 GAP=357        5.29     999.9    63.0999.9  0.5808E+05  0.1125E+06  0.2008E+07E
 ACTION:UPD 12-06-08 11:37 OP:RALL STATUS:               ID:20080923192444     I
 2008-09-23-1924-43S.PLUR1_012                                                 6
 STAT SP IPHASW D HRMM SECON CODA AMPLIT PERI AZIMU VELO AIN AR TRES W  DIS CAZ7
 LA4  SZ E        1924 57.49                   15.1 11.4     11        79.2 184 
 LA4  SN IP       1924 57.54                              63   -0.2610 79.2 184 
 LA4  SE IS       1925  7.77                              63    0.3510 79.2 184 
 LA4  SZ  AML     1925 10.48       152.4 0.52                          79.2 184 
 LZ4  SN IP       1925  0.16                              63   -0.2310 96.0 181 
 LZ4  SZ E        1925  0.17                  336.4  8.2     25        96.0 181 
 LZ4  SE IS       1925 10.76                              63   -1.1410 96.0 181 
 LZ4  SZ  AML     1925 15.80       210.6 0.28                          96.0 181 
 LD5  SN IP       1925  3.36                              63    0.4610  112 183 
 LD5  SZ E        1925  3.46                   15.7  9.2     12         112 183 
 LD5  SE IS       1925 17.07                              63    0.8310  112 183 
 LD5  SZ  AML     1925 21.91        10.4 0.40                           112 183 
                                                                                
