 2008  923 2027 18.8 R  22.371 -99.491 10.0  RAL  1 0.0 1.5LRAL                1
 GAP=360        0.30       3.7     3.3  0.0 -0.9296E+00  0.1125E+06  0.2008E+07E
 ACTION:UPD 12-06-08 11:37 OP:RALL STATUS:               ID:20080923202718     I
 2008-09-23-2027-25S.PLUR1_003                                                 6
 STAT SP IPHASW D HRMM SECON CODA AMPLIT PERI AZIMU VELO AIN AR TRES W  DIS CAZ7
 LZ4  SZ E        2027 37.57                  348.8 12.9      0         117 169 
 LZ4  SN IP       2027 37.57                              93    0.0010  117 169 
 LZ4  SE IS       2027 51.25                              93    0.0010  117 169 
 LZ4  SN  AML     2027 54.21        15.0 0.28                           117 169 
                                                                                
