 2008  923 2346  3.6 R  22.481 -99.475 11.7  RAL  2 0.1 3.1LRAL                1
 SPEC LZ4 S  N MO 13.2 ST0.543 OM  1.2 f0 4.43 R0.5179 AL 4.72 WI  6.1 MW  2.8 3
 SPEC LZ4 S  N T234621 K 0.000 GD  129 VP 6.20 DE 3.00 Q0440.0 QA 0.70 VS 3.60 3
 SPEC LA4 S  N MO 13.1 ST0.215 OM  1.1 f0 3.69 R0.6224 AL 3.67 WI  7.5 MW  2.7 3
 SPEC LA4 S  N T234618 K 0.000 GD  112 VP 6.20 DE 3.00 Q0440.0 QA 0.70 VS 3.60 3
 GAP=359        1.60      14.7    12.8 10.7 -0.1390E+02  0.4160E+01 -0.3545E+02E
 ACTION:UPD 12-06-08 11:37 OP:RALL STATUS:               ID:20080923234603     I
 2008-09-23-2346-07S.PLUR1_006                                                 6
 STAT SP IPHASW D HRMM SECON CODA AMPLIT PERI AZIMU VELO AIN AR TRES W  DIS CAZ7
 LZ4  SE IS       2346 38.67                              52   -0.0710  129 170 
 LA4  SE IS       2346 34.57                              94    0.0810  112 171 
 LZ4  SZ E        2346 23.99                  344.8  8.7     -5         129 170 
 LZ4  SZ  AML     2346 42.68       685.1 0.48                           129 170 
 LZ4  SN IP       2346 24.02                              52    0.1210  129 170 
 LA4  SZ E        2346 20.89                  356.2  7.6      5         112 171 
 LA4  SZ  AML     2346 37.86       504.9 0.68                           112 171 
 LA4  SN IP       2346 21.32                              94   -0.1310  112 171 
                                                                                
