 2008  924 0206 17.9 R  22.365 -99.692 10.0  RAL  2 0.4 2.1LRAL                1
 GAP=359        6.76     177.7    90.7999.9 -0.1287E+05  0.2711E+06 -0.6183E+06E
 ACTION:UPD 12-06-08 11:37 OP:RALL STATUS:               ID:20080924020617     I
 2008-09-24-0206-23S.PLUR1_006                                                 6
 STAT SP IPHASW D HRMM SECON CODA AMPLIT PERI AZIMU VELO AIN AR TRES W  DIS CAZ7
 LA4  SZ E         2 6 34.47                  359.5 12.6     21         105 158 
 LA4  SN IP        2 6 35.27                              93    0.5310  105 158 
 LA4  SE IS        2 6 47.31                              93    0.2710  105 158 
 LA4  SZ  AML      2 6 52.36        64.2 0.64                           105 158 
 LZ4  SN IP        2 6 36.96                              93   -0.4510  123 159 
 LZ4  SZ E         2 6 37.01                  314.4  9.5    -24         123 159 
 LZ4  SE IS        2 6 51.31                              93   -0.3510  123 159 
 LZ4  SZ  AML      2 6 58.81        75.2 0.72                           123 159 
                                                                                
