 2008  924 0146  9.2 R  22.435 -99.535  0.0  RAL  3 0.3 2.7LRAL                1
 GAP=356        5.64     999.9   293.9999.9 -0.3790E+06 -0.7485E+06  0.3339E+07E
 ACTION:UPD 12-06-08 11:37 OP:RALL STATUS:               ID:20080924014609     I
 2008-09-24-0146-12S.PLUR1_009                                                 6
 STAT SP IPHASW D HRMM SECON CODA AMPLIT PERI AZIMU VELO AIN AR TRES W  DIS CAZ7
 LA4  SN IP        146 26.66                              63   -0.2110  108 167 
 LA4  SZ E         146 26.95                  339.7 19.6     -7         108 167 
 LA4  SE IS        146 40.18                              63    0.4310  108 167 
 LA4  SZ  AML      146 43.45       460.2 0.68                           108 167 
 LZ4  SN IP        146 29.27                              63   -0.2910  125 167 
 LZ4  SZ E         146 29.53                  332.0  8.3    -14         125 167 
 LZ4  SE IS        146 44.30                              63   -0.1210  125 167 
 LZ4  SZ  AML      146 48.00       584.8 0.52                           125 167 
 LD5  SZ E         146 32.06                   18.3 12.2     27         140 171 
 LD5  SN IP        146 32.22                              63    0.3710  140 171 
 LD5  SE IS        146 48.18                              63   -0.1910  140 171 
 LD5  SZ  AML      146 52.62        61.2 0.48                           140 171 
                                                                                
