 2008  924 0047 19.1 R  22.360 -99.445 10.0  RAL  1 0.0 1.8LRAL                1
 GAP=360        0.30       3.7     3.2  0.0 -0.8072E+00  0.4160E+01 -0.3545E+02E
 ACTION:UPD 12-06-08 11:37 OP:RALL STATUS:               ID:20080924004719     I
 2008-09-24-0047-24S.PLUR1_003                                                 6
 STAT SP IPHASW D HRMM SECON CODA AMPLIT PERI AZIMU VELO AIN AR TRES W  DIS CAZ7
 LZ4  SZ E         047 37.37                  351.0 15.8      0         115 171 
 LZ4  SN IP        047 37.53                              93    0.0010  115 171 
 LZ4  SE IS        047 50.98                              93    0.0010  115 171 
 LZ4  SZ  AML      047 57.04        32.8 0.20                           115 171 
                                                                                
