 2008  924 1748 32.9 R  21.335 -99.256 10.0  RAL  1 0.1 0.5LRAL                1
 GAP=360        0.45     999.9   438.5  0.0 -0.4965E+06  0.5990E+02 -0.4624E+03E
 ACTION:UPD 12-06-08 11:37 OP:RALL STATUS:               ID:20080924174832     I
 2008-09-24-1748-21S.PLUR1_003                                                 6
 STAT SP IPHASW D HRMM SECON CODA AMPLIT PERI AZIMU VELO AIN AR TRES W  DIS CAZ7
 LZ4  SZ E        1748 34.39                   71.8 18.5      0        1.51 252 
 LZ4  SN IP       1748 35.02                             172    0.2310 1.51 252 
 LZ4  SZ  AML     1748 35.88        16.8 0.24                          1.51 252 
 LZ4  SE IS       1748 35.91                             172   -0.2310 1.51 252 
                                                                                
