 2008  924 1717 46.8 L  21.401 -99.267  0.0  RAL  2 0.5 0.8LRAL                1
 GAP=207        4.22       6.8     2.6268.0 -0.5830E+01  0.5990E+02 -0.4624E+03E
 ACTION:UPD 12-06-08 11:37 OP:RALL STATUS:               ID:20080924171746     I
 2008-09-24-1717-32S.PLUR1_006                                                 6
 STAT SP IPHASW D HRMM SECON CODA AMPLIT PERI AZIMU VELO AIN AR TRES W  DIS CAZ7
 LZ4  SZ E        1717 47.11                  351.5  6.8     10        7.77 182 
 LZ4  SN IP       1717 47.11                              98   -1.0410 7.77 182 
 LZ4  SE IS       1717 47.64                              98   -1.5210 7.77 182 
 LZ4  SZ  AML     1717 48.28       141.6 0.28                          7.77 182 
 LA4  SZ E        1717 49.38                  142.7 11.0    -11        10.1 335 
 LA4  SN IP       1717 49.38                              96    0.8110 10.1 335 
 LA4  SE IS       1717 51.61                              96    1.7510 10.1 335 
 LA4  SZ  AML     1717 53.33        12.9 0.48                          10.1 335 
                                                                                
