 2008  924 2010 39.4 L  21.485 -99.314 10.0  RAL  1 0.2 0.1LRAL                1
 GAP=360        1.76     999.9   999.9  0.0  0.3899E+07  0.5990E+02 -0.4624E+03E
 ACTION:UPD 12-06-08 11:37 OP:RALL STATUS:               ID:20080924201039     I
 2008-09-24-2010-28S.PLUR1_003                                                 6
 STAT SP IPHASW D HRMM SECON CODA AMPLIT PERI AZIMU VELO AIN AR TRES W  DIS CAZ7
 LA4  SZ E        2010 41.18                  282.3 12.2     -7        0.52 110 
 LA4  SN IP       2010 41.74                             177    0.4710 0.52 110 
 LA4  SE IS       2010 42.14                             177   -0.4710 0.52 110 
 LA4  SZ  AML     2010 42.71         7.0 0.44                          0.52 110 
                                                                                
