 2008  925 0045 52.0 L  22.106 -99.525 10.0  RAL  1 0.0 1.6LRAL                1
 GAP=360        0.30       3.6     2.7  0.0 -0.2542E+01  0.5990E+02 -0.4624E+03E
 ACTION:UPD 12-06-08 11:37 OP:RALL STATUS:               ID:20080925004552     I
 2008-09-25-0045-54S.PLUR1_003                                                 6
 STAT SP IPHASW D HRMM SECON CODA AMPLIT PERI AZIMU VELO AIN AR TRES W  DIS CAZ7
 LZ4  SN IP        046  6.47                              94    0.0110 89.8 163 
 LZ4  SZ E         046  7.30                  342.9  8.5      0        89.8 163 
 LZ4  SE IS        046 17.00                              94   -0.0110 89.8 163 
 LZ4  SZ  AML      046 22.36        26.8 0.64                          89.8 163 
                                                                                
