 2008  925 0226 52.1 L  21.673 -99.314 10.0  RAL  1 0.0 0.9LRAL                1
 GAP=360        0.30       4.0     0.6  0.0 -0.3848E+00  0.5990E+02 -0.4624E+03E
 ACTION:UPD 12-06-08 11:37 OP:RALL STATUS:               ID:20080925022652     I
 2008-09-25-0226-44S.PLUR1_006                                                 6
 STAT SP IPHASW D HRMM SECON CODA AMPLIT PERI AZIMU VELO AIN AR TRES W  DIS CAZ7
 LA4  SN IP        226 56.07                             112    0.0110 21.0 179 
 LA4  SZ E         226 56.09                  358.7  8.6      0        21.0 179 
 LA4  SE IS        226 58.90                             112   -0.0110 21.0 179 
 LA4  SZ  AML      226 59.52        18.6 0.56                          21.0 179 
                                                                                
