 2008  925 0312 21.5 L  21.354 -99.289 10.0  RAL  1 0.1 0.6LRAL                1
 GAP=360        0.47      15.2    12.6  0.0 -0.1914E+03  0.5990E+02 -0.4624E+03E
 ACTION:UPD 12-06-08 11:37 OP:RALL STATUS:               ID:20080925031221     I
 2008-09-25-0312-10S.PLUR1_003                                                 6
 STAT SP IPHASW D HRMM SECON CODA AMPLIT PERI AZIMU VELO AIN AR TRES W  DIS CAZ7
 LZ4  SN IP        312 23.68                             162    0.2510 3.30 142 
 LZ4  SZ E         312 23.78                  322.2 20.8      0        3.30 142 
 LZ4  SE IS        312 24.58                             162   -0.2510 3.30 142 
 LZ4  SZ  AML      312 24.69        23.7 0.36                          3.30 142 
                                                                                
