 2008  925 0937 59.2 L  21.656 -99.404 10.0  RAL  1 0.0 0.6LRAL                1
 GAP=360        0.30       3.5     2.0  0.0 -0.6794E+01  0.5990E+02 -0.4624E+03E
 ACTION:UPD 12-06-08 11:37 OP:RALL STATUS:               ID:20080925093759     I
 2008-09-25-0937-52S.PLUR1_006                                                 6
 STAT SP IPHASW D HRMM SECON CODA AMPLIT PERI AZIMU VELO AIN AR TRES W  DIS CAZ7
 LA4  SZ E         938  3.07                  332.8  7.6      0        21.4 153 
 LA4  SN IP        938  3.15                             112    0.0010 21.4 153 
 LA4  SE IS        938  6.05                             112    0.0010 21.4 153 
 LA4  SZ  AML      938  7.13        11.0 0.48                          21.4 153 
                                                                                
