 2008  925 0946 58.6 L  21.311 -99.300 10.0  RAL  1 0.1 0.7LRAL                1
 GAP=360        0.36       7.1    11.3  0.0  0.8030E+02  0.5990E+02 -0.4624E+03E
 ACTION:UPD 12-06-08 11:37 OP:RALL STATUS:               ID:20080925094658     I
 2008-09-25-0946-46S.PLUR1_003                                                 6
 STAT SP IPHASW D HRMM SECON CODA AMPLIT PERI AZIMU VELO AIN AR TRES W  DIS CAZ7
 LZ4  SZ E         947  0.63                  236.0 18.9      0        3.87  56 
 LZ4  SN IP        947  0.66                             159    0.1410 3.87  56 
 LZ4  SE IS        947  1.80                             159   -0.1410 3.87  56 
 LZ4  SZ  AML      947  2.25        27.0 0.52                          3.87  56 
                                                                                
