 2008  925 0758 34.0 L  21.348 -99.293 10.0  RAL  1 0.1 0.5LRAL                1
 GAP=360        0.50      13.0    18.3  0.0 -0.2366E+03  0.5990E+02 -0.4624E+03E
 ACTION:UPD 12-06-08 11:37 OP:RALL STATUS:               ID:20080925075834     I
 2008-09-25-0758-22S.PLUR1_003                                                 6
 STAT SP IPHASW D HRMM SECON CODA AMPLIT PERI AZIMU VELO AIN AR TRES W  DIS CAZ7
 LZ4  SZ E         758 36.08                  307.3  9.6      0        3.11 127 
 LZ4  SN IP        758 36.13                             163    0.2710 3.11 127 
 LZ4  SE IS        758 36.98                             163   -0.2710 3.11 127 
 LZ4  SZ  AML      758 37.54        18.0 0.40                          3.11 127 
                                                                                
