 2008  925 1744 55.1 L  21.248 -99.280 10.0  RAL  1 0.0 0.3LRAL                1
 GAP=360        0.30       5.4     0.7  0.0  0.3717E+01  0.5990E+02 -0.4624E+03E
 ACTION:UPD 12-06-08 11:37 OP:RALL STATUS:               ID:20080925174455     I
 2008-09-25-1744-45S.PLUR1_003                                                 6
 STAT SP IPHASW D HRMM SECON CODA AMPLIT PERI AZIMU VELO AIN AR TRES W  DIS CAZ7
 LZ4  SZ E        1744 57.43                  186.8 15.1      0        9.19   7 
 LZ4  SN IP       1744 57.46                             137    0.0010 9.19   7 
 LZ4  SE IS       1744 59.19                             137    0.0010 9.19   7 
 LZ4  SZ  AML     1744 59.62         8.1 0.48                          9.19   7 
                                                                                
