 2008  925 1739 57.4 L  21.332 -99.283 10.0  RAL  1 0.1 0.3LRAL                1
 GAP=360        0.53     907.3   115.3  0.0  0.1046E+06  0.5990E+02 -0.4624E+03E
 ACTION:UPD 12-06-08 11:37 OP:RALL STATUS:               ID:20080925173957     I
 2008-09-25-1739-46S.PLUR1_003                                                 6
 STAT SP IPHASW D HRMM SECON CODA AMPLIT PERI AZIMU VELO AIN AR TRES W  DIS CAZ7
 LZ4  SZ E        1739 59.44                  274.6 12.0      1        1.44  94 
 LZ4  SN IP       1739 59.49                             172    0.2710 1.44  94 
 LZ4  SE IS       1740  0.29                             172   -0.2710 1.44  94 
 LZ4  SZ  AML     1740  0.45        12.4 0.24                          1.44  94 
                                                                                
