 2008  925 1935 11.5 L  21.632 -99.347 10.0  RAL  1 0.0 0.5LRAL                1
 GAP=360        0.30       4.1     1.1  0.0 -0.4202E+01  0.5990E+02 -0.4624E+03E
 ACTION:UPD 12-06-08 11:37 OP:RALL STATUS:               ID:20080925193511     I
 2008-09-25-1935-03S.PLUR1_003                                                 6
 STAT SP IPHASW D HRMM SECON CODA AMPLIT PERI AZIMU VELO AIN AR TRES W  DIS CAZ7
 LA4  SZ E        1935 14.75                  346.7 10.3      0        16.9 167 
 LA4  SN IP       1935 14.80                             118    0.0010 16.9 167 
 LA4  SZ  AML     1935 17.24         9.9 0.20                          16.9 167 
 LA4  SE IS       1935 17.24                             118    0.0010 16.9 167 
                                                                                
