 2008  925 1900 51.9 L  21.335 -99.282 10.0  RAL  1 0.1-0.2LRAL                1
 GAP=360        0.55     999.9   523.5  0.0  0.5782E+06  0.5990E+02 -0.4624E+03E
 ACTION:UPD 12-06-08 11:37 OP:RALL STATUS:               ID:20080925190051     I
 2008-09-25-1900-40S.PLUR1_003                                                 6
 STAT SP IPHASW D HRMM SECON CODA AMPLIT PERI AZIMU VELO AIN AR TRES W  DIS CAZ7
 LZ4  SZ E        19 0 53.93                  292.0 12.7      1        1.39 111 
 LZ4  SN IP       19 0 54.02                             172    0.3010 1.39 111 
 LZ4  SE IS       19 0 54.77                             172   -0.3010 1.39 111 
 LZ4  SZ  AML     19 0 55.83         3.5 0.44                          1.39 111 
                                                                                
