 2008  925 1619  8.3 R  22.238 -99.819 10.0  RAL  1 0.0 1.8LRAL                1
 GAP=360        0.30       3.5     3.4  0.0 -0.2225E+01  0.5990E+02 -0.4624E+03E
 ACTION:UPD 12-06-08 11:37 OP:RALL STATUS:               ID:20080925161908     I
 2008-09-25-1619-12S.PLUR1_003                                                 6
 STAT SP IPHASW D HRMM SECON CODA AMPLIT PERI AZIMU VELO AIN AR TRES W  DIS CAZ7
 LZ4  SZ E        1619 26.68                  330.6  8.8      0         115 150 
 LZ4  SN IP       1619 26.70                              93    0.0010  115 150 
 LZ4  SE IS       1619 40.15                              93    0.0010  115 150 
 LZ4  SZ  AML     1619 45.42        29.5 0.32                           115 150 
                                                                                
