 2008  925 2204 48.5 L  22.246 -99.332 10.0  RAL  1 0.0 1.5LRAL                1
 GAP=360        0.30       3.7     2.4  0.0 -0.2716E+00  0.5990E+02 -0.4624E+03E
 ACTION:UPD 12-06-08 11:37 OP:RALL STATUS:               ID:20080925220448     I
 2008-09-25-2204-53S.PLUR1_003                                                 6
 STAT SP IPHASW D HRMM SECON CODA AMPLIT PERI AZIMU VELO AIN AR TRES W  DIS CAZ7
 LA4  SN IP       22 5  2.12                              94    0.0110 84.5 178 
 LA4  SZ E        22 5  2.30                  358.4  9.1      0        84.5 178 
 LA4  SZ  AML     22 5 11.47        19.7 0.52                          84.5 178 
 LA4  SE IS       22 5 12.06                              94   -0.0110 84.5 178 
                                                                                
