 2008  926 0405 29.1 L  21.366 -99.311 10.3  RAL  3 0.2 0.8LRAL                1
 GAP=178        3.27       3.2     3.1 24.3 -0.7671E+01  0.1942E+01  0.1917E+00E
 ACTION:UPD 12-06-08 11:37 OP:RALL STATUS:               ID:20080926040529     I
 2008-09-26-0405-17S.PLUR1_009                                                 6
 STAT SP IPHASW D HRMM SECON CODA AMPLIT PERI AZIMU VELO AIN AR TRES W  DIS CAZ7
 LZ4  SZ E         4 5 31.03                  311.2  6.6     -1        5.81 133 
 LZ4  SN IP        4 5 31.03                             151   -0.1510 5.81 133 
 LZ4  SE IS        4 5 32.84                             151    0.1210 5.81 133 
 LZ4  SZ  AML      4 5 33.46        72.7 0.16                          5.81 133 
 LA4  SZ E         4 5 31.33                  169.3  9.9    -10        13.0   1 
 LA4  SN IP        4 5 31.35                             128   -0.5810 13.0   1 
 LA4  SE IS        4 5 33.73                             128   -0.2910 13.0   1 
 LA4  SZ  AML      4 5 35.05        79.2 0.60                          13.0   1 
 LD5  SN IP        4 5 32.96                             115    0.1110 19.9 183 
 LD5  SZ E         4 5 32.96                  348.9 10.7     14        19.9 183 
 LD5  SE IS        4 5 36.39                             115    0.7810 19.9 183 
 LD5  SZ  AML      4 5 37.62         2.5 0.18                          19.9 183 
                                                                                
