 2008  926 0351 42.6 L  21.358 -99.305 16.4  RAL  2 0.2 1.1LRAL                1
 GAP=230        1.15       1.2     1.5 10.7 -0.1697E+01  0.1476E+01 -0.1237E+01E
 ACTION:UPD 12-06-08 11:37 OP:RALL STATUS:               ID:20080926035142     I
 2008-09-26-0351-31S.PLUR1_006                                                 6
 STAT SP IPHASW D HRMM SECON CODA AMPLIT PERI AZIMU VELO AIN AR TRES W  DIS CAZ7
 LZ4  SN IP        351 46.02                             165    0.5110 4.77 129 
 LZ4  SZ E         351 46.03                  307.8  6.6      0        4.77 129 
 LZ4  SE IS        351 47.97                             165    0.3210 4.77 129 
 LZ4  SZ  AML      351 49.10        48.3 0.20                          4.77 129 
 LA4  SN IP        351 46.19                             139   -0.0210 13.9 358 
 LA4  SZ E         351 46.25                  176.5 11.1     -1        13.9 358 
 LA4  SE IS        351 48.06                             139   -0.8010 13.9 358 
 LA4  SZ  AML      351 50.42        31.8 0.36                          13.9 358 
                                                                                
