 2008  926 0845  7.2 L  21.265 -99.280 10.0  RAL  1 0.0 0.5LRAL                1
 GAP=360        0.30       6.2     1.0  0.0  0.5945E+01  0.1942E+01  0.1917E+00E
 ACTION:UPD 12-06-08 11:37 OP:RALL STATUS:               ID:20080926084507     I
 2008-09-26-0844-56S.PLUR1_003                                                 6
 STAT SP IPHASW D HRMM SECON CODA AMPLIT PERI AZIMU VELO AIN AR TRES W  DIS CAZ7
 LZ4  SZ E         845  9.36                  188.3 10.3      0        7.42   8 
 LZ4  SN IP     D  845  9.44                             144    0.0110 7.42   8 
 LZ4  SE IS        845 11.03                             144   -0.0110 7.42   8 
 LZ4  SZ  AML      845 11.60        14.5 0.28                          7.42   8 
                                                                                
