 2008  926 0312 15.6 L  21.597 -99.337 10.0  RAL  1 0.0 0.4LRAL                1
 GAP=360        0.30       4.5     1.2  0.0 -0.4919E+01  0.5990E+02 -0.4624E+03E
 ACTION:UPD 12-06-08 11:37 OP:RALL STATUS:               ID:20080926031215     I
 2008-09-26-0312-06S.PLUR1_003                                                 6
 STAT SP IPHASW D HRMM SECON CODA AMPLIT PERI AZIMU VELO AIN AR TRES W  DIS CAZ7
 LA4  SN IP        312 18.42                             127    0.0010 12.9 167 
 LA4  SZ E         312 18.50                  347.2  7.5      0        12.9 167 
 LA4  SE IS        312 20.47                             127    0.0010 12.9 167 
 LA4  SZ  AML      312 21.61         8.0 0.80                          12.9 167 
                                                                                
