 2008  926 0408 52.3 L  21.581 -99.414 10.0  RAL  1 0.0 0.4LRAL                1
 GAP=360        0.30       3.1     3.3  0.0 -0.1002E+02  0.1942E+01  0.1917E+00E
 ACTION:UPD 12-06-08 11:37 OP:RALL STATUS:               ID:20080926040852     I
 2008-09-26-0408-42S.PLUR1_003                                                 6
 STAT SP IPHASW D HRMM SECON CODA AMPLIT PERI AZIMU VELO AIN AR TRES W  DIS CAZ7
 LA4  SZ E         4 8 54.97                  315.0 15.7      0        15.3 135 
 LA4  SN IP        4 8 55.42                             121    0.0110 15.3 135 
 LA4  SE IS        4 8 57.68                             121   -0.0110 15.3 135 
 LA4  SZ  AML      4 8 58.34         8.1 0.28                          15.3 135 
                                                                                
