 2008  926 0807  2.7 L  21.352 -99.313 10.0  RAL  1 0.0 0.7LRAL                1
 GAP=360        0.31       4.0     8.1  0.0 -0.3261E+02  0.1942E+01  0.1917E+00E
 ACTION:UPD 12-06-08 11:37 OP:RALL STATUS:               ID:20080926080702     I
 2008-09-26-0806-50S.PLUR1_003                                                 6
 STAT SP IPHASW D HRMM SECON CODA AMPLIT PERI AZIMU VELO AIN AR TRES W  DIS CAZ7
 LZ4  SZ E         8 7  4.73                  297.9  7.9      0        5.11 118 
 LZ4  SN IP        8 7  4.80                             153    0.0610 5.11 118 
 LZ4  SZ  AML      8 7  5.78        28.4 0.16                          5.11 118 
 LZ4  SE IS     D  8 7  6.16                             153   -0.0610 5.11 118 
                                                                                
