 2008  926 0802 54.5 L  21.649 -99.445 10.0  RAL  1 0.0 1.0LRAL                1
 GAP=360        0.30       3.4     2.1  0.0 -0.5746E+01  0.1942E+01  0.1917E+00E
 ACTION:UPD 12-06-08 11:37 OP:RALL STATUS:               ID:20080926080254     I
 2008-09-26-0802-48S.PLUR1_003                                                 6
 STAT SP IPHASW D HRMM SECON CODA AMPLIT PERI AZIMU VELO AIN AR TRES W  DIS CAZ7
 LZ4  SN IP        8 3  1.20                             100    0.0110 39.7 153 
 LZ4  SZ E         8 3  1.26                  332.7  9.0      0        39.7 153 
 LZ4  SE IS        8 3  6.07                             100   -0.0110 39.7 153 
 LZ4  SZ  AML      8 3 11.02        15.3 0.36                          39.7 153 
                                                                                
