 2008  926 0022 37.5 L  21.773 -99.294 10.0  RAL  1 0.0 1.0LRAL                1
 GAP=360        0.30       3.8     0.9  0.0  0.6968E+00  0.5990E+02 -0.4624E+03E
 ACTION:UPD 12-06-08 11:37 OP:RALL STATUS:               ID:20080926002237     I
 2008-09-26-0022-33S.PLUR1_003                                                 6
 STAT SP IPHASW D HRMM SECON CODA AMPLIT PERI AZIMU VELO AIN AR TRES W  DIS CAZ7
 LA4  SZ E         022 43.02                    2.7 12.0      0        32.1 183 
 LA4  SN IP        022 43.10                             103    0.0110 32.1 183 
 LA4  SE IS        022 47.15                             103   -0.0110 32.1 183 
 LA4  SZ  AML      022 47.74        17.5 0.44                          32.1 183 
                                                                                
