 2008  926 0945 54.4 L  21.337 -99.272 10.0  RAL  1 0.6-0.2LRAL                1
 GAP=360        6.50     999.9   999.9  0.0  0.1045E+08  0.1942E+01  0.1917E+00E
 ACTION:UPD 12-06-08 11:37 OP:RALL STATUS:               ID:20080926094554     I
 2008-09-26-0945-42S.PLUR1_003                                                 6
 STAT SP IPHASW D HRMM SECON CODA AMPLIT PERI AZIMU VELO AIN AR TRES W  DIS CAZ7
 LZ4  SZ E         945 56.19                    9.2 35.9     31        0.69 159 
 LZ4  SN IP     C  945 56.88                             176    0.6410 0.69 159 
 LZ4  SE IS     D  945 56.94                             176   -0.6410 0.69 159 
 LZ4  SZ  AML      945 57.89         3.4 0.56                          0.69 159 
                                                                                
