 2008  926 0418 45.0 L  21.619 -99.306 10.0  RAL  1 0.0 0.6LRAL                1
 GAP=360        0.30       4.4     0.4  0.0  0.4301E+00  0.1942E+01  0.1917E+00E
 ACTION:UPD 12-06-08 11:37 OP:RALL STATUS:               ID:20080926041845     I
 2008-09-26-0418-35S.PLUR1_003                                                 6
 STAT SP IPHASW D HRMM SECON CODA AMPLIT PERI AZIMU VELO AIN AR TRES W  DIS CAZ7
 LA4  SN IP        418 48.14                             122    0.0210 15.0 181 
 LA4  SZ E         418 48.40                    1.2  9.0      0        15.0 181 
 LA4  SE IS        418 50.35                             122   -0.0210 15.0 181 
 LA4  SZ  AML      418 51.11        12.2 0.24                          15.0 181 
                                                                                
