 2008  926 0240 53.9 L  21.762 -99.328 10.0  RAL  1 0.0 0.8LRAL                1
 GAP=360        0.30       3.8     0.9  0.0 -0.9629E+00  0.5990E+02 -0.4624E+03E
 ACTION:UPD 12-06-08 11:37 OP:RALL STATUS:               ID:20080926024053     I
 2008-09-26-0240-49S.PLUR1_003                                                 6
 STAT SP IPHASW D HRMM SECON CODA AMPLIT PERI AZIMU VELO AIN AR TRES W  DIS CAZ7
 LA4  SN IP        240 59.25                             104    0.0110 30.8 176 
 LA4  SZ E         240 59.45                  356.3 14.6      0        30.8 176 
 LA4  SE IS        241  3.16                             104   -0.0110 30.8 176 
 LA4  SZ  AML      241  5.56        12.6 0.68                          30.8 176 
                                                                                
