 2008  926 1514  8.2 L  21.694 -99.177 10.0  RAL  1 0.0 0.5LRAL                1
 GAP=360        0.30       3.4     2.2  0.0  0.6866E+01  0.1942E+01  0.1917E+00E
 ACTION:UPD 12-06-08 11:37 OP:RALL STATUS:               ID:20080926151408     I
 2008-09-26-1514-02S.PLUR1_003                                                 6
 STAT SP IPHASW D HRMM SECON CODA AMPLIT PERI AZIMU VELO AIN AR TRES W  DIS CAZ7
 LA4  SN IP       1514 13.02                             106    0.0310 27.0 211 
 LA4  SZ E        1514 13.12                   30.5 14.8      0        27.0 211 
 LA4  SE IS       1514 16.47                             106   -0.0310 27.0 211 
 LA4  SZ  AML     1514 17.81         6.0 0.52                          27.0 211 
                                                                                
