 2008  926 1109 27.1 L  21.341 -99.291 10.0  RAL  1 0.1 0.0LRAL                1
 GAP=360        0.52      12.4    25.8  0.0 -0.3209E+03  0.1942E+01  0.1917E+00E
 ACTION:UPD 12-06-08 11:37 OP:RALL STATUS:               ID:20080926110927     I
 2008-09-26-1109-15S.PLUR1_003                                                 6
 STAT SP IPHASW D HRMM SECON CODA AMPLIT PERI AZIMU VELO AIN AR TRES W  DIS CAZ7
 LZ4  SZ E        11 9 29.20                  297.3  7.5      0        2.55 117 
 LZ4  SN IP       11 9 29.31                             166    0.2910 2.55 117 
 LZ4  SE IS       11 9 30.10                             166   -0.2910 2.55 117 
 LZ4  SZ  AML     11 9 30.63         4.9 0.40                          2.55 117 
                                                                                
