 2008  926 1321 12.6 L  21.461 -99.522 10.0  RAL  1 0.0 0.8LRAL                1
 GAP=360        0.30       2.0     3.6  0.0 -0.6398E+01  0.1942E+01  0.1917E+00E
 ACTION:UPD 12-06-08 11:37 OP:RALL STATUS:               ID:20080926132112     I
 2008-09-26-1321-07S.PLUR1_003                                                 6
 STAT SP IPHASW D HRMM SECON CODA AMPLIT PERI AZIMU VELO AIN AR TRES W  DIS CAZ7
 LZ4  SN IP       1321 17.87                             104    0.0210 29.9 119 
 LZ4  SZ E        1321 17.90                  298.9 12.5      0        29.9 119 
 LZ4  SE IS       1321 21.64                             104   -0.0210 29.9 119 
 LZ4  SZ  AML     1321 25.23        10.8 0.44                          29.9 119 
                                                                                
