 2008  926 1734 27.2 L  21.522 -99.301 10.0  RAL  1 0.0 0.4LRAL                1
 GAP=360        0.30       9.4     2.0  0.0  0.1860E+02  0.1942E+01  0.1917E+00E
 ACTION:UPD 12-06-08 11:37 OP:RALL STATUS:               ID:20080926173427     I
 2008-09-26-1734-16S.PLUR1_003                                                 6
 STAT SP IPHASW D HRMM SECON CODA AMPLIT PERI AZIMU VELO AIN AR TRES W  DIS CAZ7
 LA4  SZ E        1734 29.07                   11.1 10.4      0        4.36 191 
 LA4  SN IP     D 1734 29.19                             157    0.0210 4.36 191 
 LA4  SE IS       1734 30.59                             157   -0.0210 4.36 191 
 LA4  SZ  AML     1734 30.76        13.4 0.24                          4.36 191 
                                                                                
