 2008  926 1931 26.0 L  21.600 -99.357 10.0  RAL  1 0.0 0.7LRAL                1
 GAP=360        0.30       4.2     1.8  0.0 -0.7175E+01  0.1942E+01  0.1917E+00E
 ACTION:UPD 12-06-08 11:37 OP:RALL STATUS:               ID:20080926193126     I
 2008-09-26-1931-16S.PLUR1_003                                                 6
 STAT SP IPHASW D HRMM SECON CODA AMPLIT PERI AZIMU VELO AIN AR TRES W  DIS CAZ7
 LA4  SN IP       1931 28.94                             125    0.0110 13.8 159 
 LA4  SZ E        1931 28.95                  339.1  8.4      0        13.8 159 
 LA4  SE IS       1931 31.07                             125   -0.0110 13.8 159 
 LA4  SZ  AML     1931 31.84        17.0 0.24                          13.8 159 
                                                                                
