 2008  926 1912 44.0 L  21.318 -99.248 10.0  RAL  1 0.2 0.8LRAL                1
 GAP=360        0.81      21.7    37.2  0.0 -0.8077E+03  0.1942E+01  0.1917E+00E
 ACTION:UPD 12-06-08 11:37 OP:RALL STATUS:               ID:20080926191244     I
 2008-09-26-1912-32S.PLUR1_003                                                 6
 STAT SP IPHASW D HRMM SECON CODA AMPLIT PERI AZIMU VELO AIN AR TRES W  DIS CAZ7
 LZ4  SN IP       1912 46.35                             166    0.5110 2.61 302 
 LZ4  SZ E        1912 46.35                  122.0 29.0      0        2.61 302 
 LZ4  SE IS       1912 46.71                             166   -0.5110 2.61 302 
 LZ4  SZ  AML     1912 47.35        33.4 0.52                          2.61 302 
                                                                                
