 2008  926 1459 31.5 L  21.612 -99.335 10.0  RAL  1 0.0 0.6LRAL                1
 GAP=360        0.30       4.3     1.0  0.0 -0.3862E+01  0.1942E+01  0.1917E+00E
 ACTION:UPD 12-06-08 11:37 OP:RALL STATUS:               ID:20080926145931     I
 2008-09-26-1459-21S.PLUR1_003                                                 6
 STAT SP IPHASW D HRMM SECON CODA AMPLIT PERI AZIMU VELO AIN AR TRES W  DIS CAZ7
 LA4  SZ E        1459 34.15                  349.1  8.5      0        14.4 169 
 LA4  SN IP       1459 34.47                             123    0.0010 14.4 169 
 LA4  SE IS     D 1459 36.67                             123    0.0010 14.4 169 
 LA4  SZ  AML     1459 37.20        12.1 0.24                          14.4 169 
                                                                                
