 2008  926 1038  7.7 L  21.330 -99.277 10.0  RAL  1 0.1 0.2LRAL                1
 GAP=360        0.42     999.9   249.3  0.0 -0.1445E+07  0.1942E+01  0.1917E+00E
 ACTION:UPD 12-06-08 11:37 OP:RALL STATUS:               ID:20080926103807     I
 2008-09-26-1037-56S.PLUR1_003                                                 6
 STAT SP IPHASW D HRMM SECON CODA AMPLIT PERI AZIMU VELO AIN AR TRES W  DIS CAZ7
 LZ4  SZ E        1038  9.50                  267.8 10.3      1        0.78  87 
 LZ4  SN IP     D 1038  9.66                             176    0.1710 0.78  87 
 LZ4  SE IS       1038 10.66                             176   -0.1710 0.78  87 
 LZ4  SZ  AML     1038 11.24        10.0 0.48                          0.78  87 
                                                                                
