 2008  926 1528 46.3 L  21.503 -99.323 10.0  RAL  1 0.1 0.1LRAL                1
 GAP=360        0.63      26.3    19.5  0.0 -0.5111E+03  0.1942E+01  0.1917E+00E
 ACTION:UPD 12-06-08 11:37 OP:RALL STATUS:               ID:20080926152846     I
 2008-09-26-1528-34S.PLUR1_003                                                 6
 STAT SP IPHASW D HRMM SECON CODA AMPLIT PERI AZIMU VELO AIN AR TRES W  DIS CAZ7
 LA4  SZ E        1528 48.52                  325.4 14.5      0        2.62 145 
 LA4  SN IP     D 1528 48.52                             166    0.3710 2.62 145 
 LA4  SE IS       1528 49.16                             166   -0.3710 2.62 145 
 LA4  SZ  AML     1528 49.35         6.8 0.20                          2.62 145 
                                                                                
