 2008  926 1424 55.0 L  21.343 -99.293 10.0  RAL  1 0.1 0.5LRAL                1
 GAP=360        0.50      11.7    22.8  0.0 -0.2673E+03  0.1942E+01  0.1917E+00E
 ACTION:UPD 12-06-08 11:37 OP:RALL STATUS:               ID:20080926142455     I
 2008-09-26-1424-43S.PLUR1_003                                                 6
 STAT SP IPHASW D HRMM SECON CODA AMPLIT PERI AZIMU VELO AIN AR TRES W  DIS CAZ7
 LZ4  SZ E        1424 57.12                  299.0  7.5      0        2.75 119 
 LZ4  SN IP       1424 57.17                             165    0.2710 2.75 119 
 LZ4  SE IS     D 1424 58.00                             165   -0.2710 2.75 119 
 LZ4  SZ  AML     1424 58.13        15.5 0.12                          2.75 119 
                                                                                
