 2008  926 1452 17.8 L  21.457 -99.036 10.0  RAL  1 0.0 0.8LRAL                1
 GAP=360        0.30       0.8     4.1  0.0 -0.1608E+01  0.1942E+01  0.1917E+00E
 ACTION:UPD 12-06-08 11:37 OP:RALL STATUS:               ID:20080926145217     I
 2008-09-26-1452-13S.PLUR1_003                                                 6
 STAT SP IPHASW D HRMM SECON CODA AMPLIT PERI AZIMU VELO AIN AR TRES W  DIS CAZ7
 LA4  SN IP       1452 22.79                             105    0.0110 28.4 276 
 LA4  SZ E        1452 22.91                   96.0 46.5      0        28.4 276 
 LA4  SE IS       1452 26.43                             105   -0.0110 28.4 276 
 LA4  SZ  AML     1452 28.88        11.9 0.60                          28.4 276 
                                                                                
