 2008  926 1034 56.5 L  21.631 -99.460 10.0  RAL  1 0.0 1.2LRAL                1
 GAP=360        0.30       3.3     2.3  0.0 -0.6232E+01  0.1942E+01  0.1917E+00E
 ACTION:UPD 12-06-08 11:37 OP:RALL STATUS:               ID:20080926103456     I
 2008-09-26-1034-49S.PLUR1_003                                                 6
 STAT SP IPHASW D HRMM SECON CODA AMPLIT PERI AZIMU VELO AIN AR TRES W  DIS CAZ7
 LZ4  SN IP       1035  3.06                             100    0.0210 38.6 149 
 LZ4  SZ E        1035  3.09                  329.3  7.0      0        38.6 149 
 LZ4  SE IS       1035  7.81                             100   -0.0210 38.6 149 
 LZ4  SZ  AML     1035 10.49        25.9 0.40                          38.6 149 
                                                                                
