 2008  926 1655 55.7 L  21.511 -99.302 10.0  RAL  1 0.0 0.4LRAL                1
 GAP=360        0.30      12.9     3.2  0.0  0.4120E+02  0.1942E+01  0.1917E+00E
 ACTION:UPD 12-06-08 11:37 OP:RALL STATUS:               ID:20080926165555     I
 2008-09-26-1655-45S.PLUR1_003                                                 6
 STAT SP IPHASW D HRMM SECON CODA AMPLIT PERI AZIMU VELO AIN AR TRES W  DIS CAZ7
 LA4  SN IP       1655 57.71                             163    0.0510 3.10 193 
 LA4  SZ E        1655 57.77                   12.9 15.0      0        3.10 193 
 LA4  SE IS       1655 59.01                             163   -0.0510 3.10 193 
 LA4  SZ  AML     1656  0.77        15.0 0.28                          3.10 193 
                                                                                
