 2008  926 1830 18.9 L  21.442 -99.475 10.0  RAL  1 0.0 1.1LRAL                1
 GAP=360        0.30       2.0     3.6  0.0 -0.6851E+01  0.1942E+01  0.1917E+00E
 ACTION:UPD 12-06-08 11:37 OP:RALL STATUS:               ID:20080926183018     I
 2008-09-26-1830-09S.PLUR1_003                                                 6
 STAT SP IPHASW D HRMM SECON CODA AMPLIT PERI AZIMU VELO AIN AR TRES W  DIS CAZ7
 LZ4  SZ E        1830 22.71                  300.1  7.6      0        24.6 120 
 LZ4  SN IP       1830 23.35                             108    0.0010 24.6 120 
 LZ4  SE IS       1830 26.59                             108    0.0010 24.6 120 
 LZ4  SZ  AML     1830 28.61        26.6 0.48                          24.6 120 
                                                                                
