 2008  926 1041  7.4 L  21.234 -99.274 10.0  RAL  1 0.0 0.3LRAL                1
 GAP=360        0.30       5.0     0.4  0.0  0.1208E+01  0.1942E+01  0.1917E+00E
 ACTION:UPD 12-06-08 11:37 OP:RALL STATUS:               ID:20080926104107     I
 2008-09-26-1040-57S.PLUR1_003                                                 6
 STAT SP IPHASW D HRMM SECON CODA AMPLIT PERI AZIMU VELO AIN AR TRES W  DIS CAZ7
 LZ4  SZ E        1041  9.89                  182.6  8.9      0        10.7   3 
 LZ4  SN IP     D 1041  9.95                             132    0.0010 10.7   3 
 LZ4  SE IS     D 1041 11.81                             132    0.0010 10.7   3 
 LZ4  SZ  AML     1041 13.74         8.1 0.76                          10.7   3 
                                                                                
