 2008  926 1127 56.9 L  21.209 -99.243 10.0  RAL  1 0.0 0.5LRAL                1
 GAP=360        0.30       4.4     1.0  0.0 -0.4168E+01  0.1942E+01  0.1917E+00E
 ACTION:UPD 12-06-08 11:37 OP:RALL STATUS:               ID:20080926112756     I
 2008-09-26-1127-46S.PLUR1_003                                                 6
 STAT SP IPHASW D HRMM SECON CODA AMPLIT PERI AZIMU VELO AIN AR TRES W  DIS CAZ7
 LZ4  SZ E        1127 59.78                  168.5 16.3      0        13.8 349 
 LZ4  SN IP     D 1127 59.86                             124    0.0010 13.8 349 
 LZ4  SE IS     D 1128  1.99                             124    0.0010 13.8 349 
 LZ4  SZ  AML     1128  3.66        10.6 0.72                          13.8 349 
                                                                                
