 2008  926 1708 15.7 L  21.628 -99.313 10.0  RAL  1 0.0 1.1LRAL                1
 GAP=360        0.30       4.3     0.5  0.0 -0.5158E+00  0.1942E+01  0.1917E+00E
 ACTION:UPD 12-06-08 11:37 OP:RALL STATUS:               ID:20080926170815     I
 2008-09-26-1708-07S.PLUR1_003                                                 6
 STAT SP IPHASW D HRMM SECON CODA AMPLIT PERI AZIMU VELO AIN AR TRES W  DIS CAZ7
 LA4  SN IP       17 8 18.92                             120    0.0210 16.0 178 
 LA4  SZ E        17 8 18.97                  358.5  8.0      0        16.0 178 
 LA4  SE IS     D 17 8 21.23                             120   -0.0210 16.0 178 
 LA4  SZ  AML     17 8 21.46        39.2 0.32                          16.0 178 
                                                                                
