 2008  926 1351 17.3 L  21.436 -99.350 10.0  RAL  1 0.0 0.2LRAL                1
 GAP=360        0.30       3.6     2.8  0.0 -0.9860E+01  0.1942E+01  0.1917E+00E
 ACTION:UPD 12-06-08 11:37 OP:RALL STATUS:               ID:20080926135117     I
 2008-09-26-1351-07S.PLUR1_003                                                 6
 STAT SP IPHASW D HRMM SECON CODA AMPLIT PERI AZIMU VELO AIN AR TRES W  DIS CAZ7
 LZ4  SN IP       1351 20.26                             123    0.0110 14.3 144 
 LZ4  SZ E        1351 20.72                  324.5 11.3      0        14.3 144 
 LZ4  SZ  AML     1351 22.40         5.8 0.20                          14.3 144 
 LZ4  SE IS     D 1351 22.42                             123   -0.0110 14.3 144 
                                                                                
