 2008  926 2004 20.3 L  21.344 -99.294 10.0  RAL  1 0.1 0.4LRAL                1
 GAP=360        0.50      11.7    21.4  0.0 -0.2502E+03  0.1942E+01  0.1917E+00E
 ACTION:UPD 12-06-08 11:37 OP:RALL STATUS:               ID:20080926200420     I
 2008-09-26-2004-09S.PLUR1_003                                                 6
 STAT SP IPHASW D HRMM SECON CODA AMPLIT PERI AZIMU VELO AIN AR TRES W  DIS CAZ7
 LZ4  SZ E        20 4 22.43                  300.3 10.3      0        2.91 120 
 LZ4  SN IP       20 4 22.43                             164    0.2810 2.91 120 
 LZ4  SE IS       20 4 23.26                             164   -0.2810 2.91 120 
 LZ4  SZ  AML     20 4 23.40        14.6 0.20                          2.91 120 
                                                                                
