 2008  926 2207 10.9 L  21.549 -99.399 10.0  RAL  1 0.0 0.9LRAL                1
 GAP=360        0.30       3.0     4.1  0.0 -0.1206E+02  0.9862E+02 -0.4124E+03E
 ACTION:UPD 12-06-08 11:37 OP:RALL STATUS:               ID:20080926220710     I
 2008-09-26-2207-00S.PLUR1_006                                                 6
 STAT SP IPHASW D HRMM SECON CODA AMPLIT PERI AZIMU VELO AIN AR TRES W  DIS CAZ7
 LA4  SZ E        22 7 13.45                  307.6 23.5      0        11.8 128 
 LA4  SN IP       22 7 13.59                             130    0.0310 11.8 128 
 LA4  SN E        22 7 13.60                                           11.8 128 
 LA4  SE IS       22 7 15.50                             130   -0.0310 11.8 128 
 LA4  SZ  AML     22 7 15.99        31.9 0.24                          11.8 128 
                                                                                
