 2008  926 2201 50.0 L  21.601 -99.337  0.0  RAL  2 0.1 0.8LRAL                1
 GAP=359        1.01       8.8     2.4 77.7 -0.1840E+02  0.9862E+02 -0.4124E+03E
 ACTION:UPD 12-06-08 11:37 OP:RALL STATUS:               ID:20080926220150     I
 2008-09-26-2201-38S.PLUR1_006                                                 6
 STAT SP IPHASW D HRMM SECON CODA AMPLIT PERI AZIMU VELO AIN AR TRES W  DIS CAZ7
 LA4  SN IP       22 1 52.17                              95   -0.1510 13.3 168 
 LA4  SZ E        22 1 52.19                  349.5  9.1      2        13.3 168 
 LA4  SE IS       22 1 53.85                              95   -0.1710 13.3 168 
 LA4  SZ  AML     22 1 54.11        41.8 0.24                          13.3 168 
 LZ4  SN IP       22 1 55.31                              92   -0.0510 30.7 167 
 LZ4  SZ IP       22 1 55.54                              92    0.1810 30.7 167 
 LZ4  SZ E        22 1 55.54                  342.6 18.1     -3        30.7 167 
 LZ4  SE IS       22 1 59.48                              92    0.2010 30.7 167 
 LZ4  SZ  AML     22 2  1.04         8.2 0.24                          30.7 167 
                                                                                
