 2008  926 2330 54.2 L  21.487 -99.326 10.0  RAL  1 0.2 0.3LRAL                1
 GAP=360        0.77       9.9    58.8  0.0 -0.5831E+03  0.9862E+02 -0.4124E+03E
 ACTION:UPD 12-06-08 11:37 OP:RALL STATUS:               ID:20080926233054     I
 2008-09-26-2330-42S.PLUR1_003                                                 6
 STAT SP IPHASW D HRMM SECON CODA AMPLIT PERI AZIMU VELO AIN AR TRES W  DIS CAZ7
 LA4  SZ E        2330 56.39                  278.2 12.5     -1        1.83 100 
 LA4  SN IP       2330 56.46                             170    0.3810 1.83 100 
 LA4  SE IS       2330 57.06                             170   -0.3810 1.83 100 
 LA4  SZ  AML     2330 57.60        11.8 0.36                          1.83 100 
                                                                                
