 2008  926 2209  2.8 L  21.340 -99.290 10.0  RAL  1 0.1 0.3LRAL                1
 GAP=360        0.50      11.7    26.9  0.0 -0.3152E+03  0.9862E+02 -0.4124E+03E
 ACTION:UPD 12-06-08 11:37 OP:RALL STATUS:               ID:20080926220902     I
 2008-09-26-2208-51S.PLUR1_003                                                 6
 STAT SP IPHASW D HRMM SECON CODA AMPLIT PERI AZIMU VELO AIN AR TRES W  DIS CAZ7
 LZ4  SZ E        22 9  4.86                  295.1  9.7      0        2.36 115 
 LZ4  SN IP       22 9  4.91                             167    0.2710 2.36 115 
 LZ4  SZ  AML     22 9  5.70        10.2 0.28                          2.36 115 
 LZ4  SE IS       22 9  5.74                             167   -0.2710 2.36 115 
                                                                                
