 2008  926 2136  4.8 L  21.400 -99.320 10.0  RAL  1 0.0 0.5LRAL                1
 GAP=360        0.30       4.5     3.3  0.0 -0.1464E+02  0.1942E+01  0.1917E+00E
 ACTION:UPD 12-06-08 11:37 OP:RALL STATUS:               ID:20080926213604     I
 2008-09-26-2135-54S.PLUR1_003                                                 6
 STAT SP IPHASW D HRMM SECON CODA AMPLIT PERI AZIMU VELO AIN AR TRES W  DIS CAZ7
 LZ4  SZ E        2136  7.11                  325.7  7.6      0        9.31 146 
 LZ4  SN IP       2136  7.23                             137    0.0210 9.31 146 
 LZ4  SE IS       2136  8.94                             137   -0.0210 9.31 146 
 LZ4  SZ  AML     2136 11.44        13.0 0.44                          9.31 146 
                                                                                
