 2008  927 0316 44.7 L  21.600 -99.335 10.0  RAL  1 0.0 0.5LRAL                1
 GAP=360        0.30       4.5     1.1  0.0 -0.4503E+01  0.5761E+01 -0.8250E+01E
 ACTION:UPD 12-06-08 11:37 OP:RALL STATUS:               ID:20080927031644     I
 2008-09-27-0316-35S.PLUR1_003                                                 6
 STAT SP IPHASW D HRMM SECON CODA AMPLIT PERI AZIMU VELO AIN AR TRES W  DIS CAZ7
 LA4  SN IP        316 47.51                             126    0.0010 13.2 168 
 LA4  SZ E         316 47.53                  348.1  8.1      0        13.2 168 
 LA4  SE IS        316 49.59                             126    0.0010 13.2 168 
 LA4  SZ  AML      316 50.40        10.8 0.28                          13.2 168 
                                                                                
