 2008  927 0610 25.1 L  21.356 -99.299 15.6  RAL  2 0.1 0.8LRAL                1
 GAP=224        0.54       0.7     0.7  4.9 -0.4544E+00  0.3867E+00 -0.3585E+00E
 ACTION:UPD 12-06-08 11:37 OP:RALL STATUS:               ID:20080927061025     I
 2008-09-27-0610-14S.PLUR1_006                                                 6
 STAT SP IPHASW D HRMM SECON CODA AMPLIT PERI AZIMU VELO AIN AR TRES W  DIS CAZ7
 LZ4  SN IP        610 28.25                             165    0.3210 4.14 132 
 LZ4  SZ E         610 28.31                  312.0  6.1      0        4.14 132 
 LZ4  SE IS        610 30.03                             165    0.0610 4.14 132 
 LZ4  SZ  AML      610 31.31        29.3 0.32                          4.14 132 
 LA4  SN IP        610 28.57                             138   -0.1410 14.2 356 
 LA4  SZ E         610 28.59                  175.3 10.3      0        14.2 356 
 LA4  SE IS        610 31.06                             138   -0.2410 14.2 356 
 LA4  SZ  AML      610 31.41        11.6 0.44                          14.2 356 
                                                                                
