 2008  927 0447 15.2 L  21.339 -99.291 10.0  RAL  1 0.1 0.5LRAL                1
 GAP=360        0.48      10.0    25.6  0.0 -0.2568E+03  0.3349E+00 -0.3492E+00E
 ACTION:UPD 12-06-08 11:37 OP:RALL STATUS:               ID:20080927044715     I
 2008-09-27-0447-03S.PLUR1_003                                                 6
 STAT SP IPHASW D HRMM SECON CODA AMPLIT PERI AZIMU VELO AIN AR TRES W  DIS CAZ7
 LZ4  SZ E         447 17.29                  292.5  8.7      0        2.43 113 
 LZ4  SN IP        447 17.36                             167    0.2510 2.43 113 
 LZ4  SE IS        447 18.23                             167   -0.2510 2.43 113 
 LZ4  SZ  AML      447 18.32        16.8 0.12                          2.43 113 
                                                                                
