 2008  927 0101 22.0 Ly 21.596 -99.298 10.0  RAL  1 0.0 0.6LRAL                1
 GAP=360        0.30       4.7     0.6  0.0  0.2150E+01  0.5761E+01 -0.8250E+01E
 ACTION:UPD 12-06-08 11:37 OP:RALL STATUS:               ID:20080927010122     I
 2008-09-27-0101-12S.PLUR1_003                                                 6
 STAT SP IPHASW D HRMM SECON CODA AMPLIT PERI AZIMU VELO AIN AR TRES W  DIS CAZ7
 LA4  SN IP        1 1 24.80                             128    0.0010 12.5 185 
 LA4  SZ E         1 1 24.84                    5.3  8.0      0        12.5 185 
 LA4  SE IS        1 1 26.82                             128    0.0010 12.5 185 
 LA4  SZ  AML      1 1 27.05        15.0 0.28                          12.5 185 
                                                                                
