 2008  927 0224 53.7 L  21.345 -99.296 10.0  RAL  1 0.1 0.6LRAL                1
 GAP=360        0.47       9.7    18.9  0.0 -0.1837E+03  0.5761E+01 -0.8250E+01E
 ACTION:UPD 12-06-08 11:37 OP:RALL STATUS:               ID:20080927022453     I
 2008-09-27-0224-41S.PLUR1_003                                                 6
 STAT SP IPHASW D HRMM SECON CODA AMPLIT PERI AZIMU VELO AIN AR TRES W  DIS CAZ7
 LZ4  SZ E         224 55.85                  298.8  7.7      0        3.16 119 
 LZ4  SN IP        224 55.86                             163    0.2510 3.16 119 
 LZ4  SE IS        224 56.75                             163   -0.2510 3.16 119 
 LZ4  SZ  AML      224 56.90        21.3 0.36                          3.16 119 
                                                                                
