 2008  927 0549 57.9 L  21.403 -99.132 10.0  RAL  1 0.0                        1
 GAP=360        0.30       2.1     4.0  0.0  0.8096E+01  0.3349E+00 -0.3492E+00E
 ACTION:UPD 12-06-08 11:37 OP:RALL STATUS:               ID:20080927054957     I
 2008-09-27-0549-49S.PLUR1_003                                                 6
 STAT SP IPHASW D HRMM SECON CODA AMPLIT PERI AZIMU VELO AIN AR TRES W  DIS CAZ7
 LZ4  SZ E         550  1.05                   60.8 13.6      0        16.4 241 
 LZ4  SN IP        550  1.17                             119    0.0110 16.4 241 
 LZ4  SE IS        550  3.54                             119   -0.0110 16.4 241 
                                                                                
