 2008  927 0050 55.4 L  21.639 -99.327 10.0  RAL  1 0.0 0.6LRAL                1
 GAP=360        0.30       4.2     0.7  0.0 -0.2048E+01  0.9862E+02 -0.4124E+03E
 ACTION:UPD 12-06-08 11:37 OP:RALL STATUS:               ID:20080927005055     I
 2008-09-27-0050-46S.PLUR1_003                                                 6
 STAT SP IPHASW D HRMM SECON CODA AMPLIT PERI AZIMU VELO AIN AR TRES W  DIS CAZ7
 LA4  SZ E         050 58.63                  353.7  8.3      0        17.3 174 
 LA4  SN IP        050 58.78                             118    0.0210 17.3 174 
 LA4  SE IS        051  1.22                             118   -0.0210 17.3 174 
 LA4  SZ  AML      051  1.52        13.1 0.28                          17.3 174 
                                                                                
