 2008  927 0524 33.0 L  21.607 -99.325 10.0  RAL  1 0.0 0.6LRAL                1
 GAP=360        0.30       4.5     0.7  0.0 -0.2530E+01  0.3349E+00 -0.3492E+00E
 ACTION:UPD 12-06-08 11:37 OP:RALL STATUS:               ID:20080927052433     I
 2008-09-27-0524-24S.PLUR1_003                                                 6
 STAT SP IPHASW D HRMM SECON CODA AMPLIT PERI AZIMU VELO AIN AR TRES W  DIS CAZ7
 LA4  SZ E         524 35.94                  353.2 11.6      0        13.8 173 
 LA4  SN IP        524 35.98                             125    0.0010 13.8 173 
 LA4  SE IS        524 38.12                             125    0.0010 13.8 173 
 LA4  SZ  AML      524 38.44        13.9 0.24                          13.8 173 
                                                                                
