 2008  927 0433 22.2 L  21.535 -99.343 10.0  RAL  1 0.0 0.8LRAL                1
 GAP=360        0.30       5.8     3.9  0.0 -0.2247E+02  0.5761E+01 -0.8250E+01E
 ACTION:UPD 12-06-08 11:37 OP:RALL STATUS:               ID:20080927043322     I
 2008-09-27-0433-11S.PLUR1_006                                                 6
 STAT SP IPHASW D HRMM SECON CODA AMPLIT PERI AZIMU VELO AIN AR TRES W  DIS CAZ7
 LA4  SZ E         433 24.20                  328.2 12.3      0        6.65 148 
 LA4  SN IP        433 24.34                             147    0.0310 6.65 148 
 LA4  SE IS        433 25.85                             147   -0.0310 6.65 148 
 LA4  SZ  AML      433 27.69        28.6 0.40                          6.65 148 
                                                                                
