 2008  927 0037 47.2 L  21.586 -99.332 10.0  RAL  1 0.0 0.8LRAL                1
 GAP=360        0.30       4.7     1.1  0.0 -0.5108E+01  0.9862E+02 -0.4124E+03E
 ACTION:UPD 12-06-08 11:37 OP:RALL STATUS:               ID:20080927003747     I
 2008-09-27-0037-37S.PLUR1_003                                                 6
 STAT SP IPHASW D HRMM SECON CODA AMPLIT PERI AZIMU VELO AIN AR TRES W  DIS CAZ7
 LA4  SZ E         037 49.80                  348.0  7.9      0        11.5 168 
 LA4  SN IP        037 49.82                             130    0.0010 11.5 168 
 LA4  SE IS        037 51.75                             130    0.0010 11.5 168 
 LA4  SZ  AML      037 52.33        21.7 0.56                          11.5 168 
                                                                                
