 2008  927 0508 54.6 L  21.500 -99.330 10.0  RAL  1 0.1 0.3LRAL                1
 GAP=360        0.64      19.3    25.2  0.0 -0.4859E+03  0.3349E+00 -0.3492E+00E
 ACTION:UPD 12-06-08 11:37 OP:RALL STATUS:               ID:20080927050854     I
 2008-09-27-0508-43S.PLUR1_003                                                 6
 STAT SP IPHASW D HRMM SECON CODA AMPLIT PERI AZIMU VELO AIN AR TRES W  DIS CAZ7
 LA4  SZ E         5 8 56.88                  309.5 11.1      0        2.81 129 
 LA4  SN IP        5 8 56.93                             165    0.3810 2.81 129 
 LA4  SE IS     D  5 8 57.56                             165   -0.3810 2.81 129 
 LA4  SZ  AML      5 8 58.27         9.7 0.32                          2.81 129 
                                                                                
