 2008  927 0250 40.4 L  21.669 -99.350 10.0  RAL  1 0.0 0.5LRAL                1
 GAP=360        0.30       3.9     1.0  0.0 -0.3385E+01  0.5761E+01 -0.8250E+01E
 ACTION:UPD 12-06-08 11:37 OP:RALL STATUS:               ID:20080927025040     I
 2008-09-27-0250-32S.PLUR1_003                                                 6
 STAT SP IPHASW D HRMM SECON CODA AMPLIT PERI AZIMU VELO AIN AR TRES W  DIS CAZ7
 LA4  SZ E         250 44.20                  348.3  7.3      0        21.0 168 
 LA4  SN IP        250 44.36                             112    0.0210 21.0 168 
 LA4  SE IS        250 47.18                             112   -0.0210 21.0 168 
 LA4  SZ  AML      250 47.89         7.3 0.28                          21.0 168 
                                                                                
