 2008  927 0022 40.7 L  21.488 -99.322 10.0  RAL  1 0.3 0.6LRAL                1
 GAP=360        3.14      95.6   281.9  0.0 -0.2695E+05  0.9862E+02 -0.4124E+03E
 ACTION:UPD 12-06-08 11:37 OP:RALL STATUS:               ID:20080927002240     I
 2008-09-27-0022-28S.PLUR1_006                                                 6
 STAT SP IPHASW D HRMM SECON CODA AMPLIT PERI AZIMU VELO AIN AR TRES W  DIS CAZ7
 LA4  SZ E         022 42.95                  275.4 13.5    -14        1.47 110 
 LA4  SN IP        022 43.01                             172    0.4210 1.47 110 
 LA4  SE IS        022 43.53                             172   -0.4210 1.47 110 
 LA4  SZ  AML      022 44.29        21.9 0.56                          1.47 110 
                                                                                
