 2008  927 0247 40.5 L  21.559 -99.320 10.0  RAL  1 0.0 0.6LRAL                1
 GAP=360        0.30       5.7     0.8  0.0 -0.4522E+01  0.5761E+01 -0.8250E+01E
 ACTION:UPD 12-06-08 11:37 OP:RALL STATUS:               ID:20080927024740     I
 2008-09-27-0247-30S.PLUR1_003                                                 6
 STAT SP IPHASW D HRMM SECON CODA AMPLIT PERI AZIMU VELO AIN AR TRES W  DIS CAZ7
 LA4  SN IP        247 42.83                             140    0.0110 8.46 173 
 LA4  SZ E         247 42.84                  352.6  8.5      0        8.46 173 
 LA4  SE IS        247 44.51                             140   -0.0110 8.46 173 
 LA4  SZ  AML      247 45.43        19.0 0.52                          8.46 173 
                                                                                
