 2008  927 0848  0.3 L  21.485 -99.316 10.0  RAL  1 0.3 0.2LRAL                1
 GAP=360        3.57     999.9   999.9  0.0  0.3097E+09  0.3867E+00 -0.3585E+00E
 ACTION:UPD 12-06-08 11:37 OP:RALL STATUS:               ID:20080927084800     I
 2008-09-27-0847-49S.PLUR1_003                                                 6
 STAT SP IPHASW D HRMM SECON CODA AMPLIT PERI AZIMU VELO AIN AR TRES W  DIS CAZ7
 LA4  SN IP        848  2.45                             176    0.3310 0.77 105 
 LA4  SZ E         848  2.63                  268.2 15.7    -16        0.77 105 
 LA4  SE IS        848  3.13                             176   -0.3310 0.77 105 
 LA4  SZ  AML      848  3.32         8.5 0.36                          0.77 105 
                                                                                
