 2008  927 0100 27.3 L  21.352 -99.285 17.5  RAL  2 0.3 0.4LRAL                1
 GAP=204        1.61       3.9     2.8 14.7 -0.1051E+02  0.5761E+01 -0.8250E+01E
 ACTION:UPD 12-06-08 11:37 OP:RALL STATUS:               ID:20080927010027     I
 2008-09-27-0100-18S.PLUR1_006                                                 6
 STAT SP IPHASW D HRMM SECON CODA AMPLIT PERI AZIMU VELO AIN AR TRES W  DIS CAZ7
 LZ4  SZ E         1 0 30.74                  325.2 26.3      0        2.80 146 
 LZ4  SN IP        1 0 31.05                             171    0.7010 2.80 146 
 LZ4  SE IS        1 0 33.04                             171    0.4810 2.80 146 
 LA4  SZ E         1 0 31.08                  166.7 10.2     -2        14.8 350 
 LA4  SN IP        1 0 31.08                             140   -0.0910 14.8 350 
 LA4  SE IS        1 0 32.88                             140   -1.0910 14.8 350 
 LA4  SZ  AML      1 0 35.69         6.4 0.48                          14.8 350 
                                                                                
