 2008  927 0652  2.2 L  21.521 -99.312 10.0  RAL  1 0.0 0.3LRAL                1
 GAP=360        0.30      10.0     0.9  0.0 -0.8652E+01  0.3867E+00 -0.3585E+00E
 ACTION:UPD 12-06-08 11:37 OP:RALL STATUS:               ID:20080927065202     I
 2008-09-27-0651-35S.PLUR1_003                                                 6
 STAT SP IPHASW D HRMM SECON CODA AMPLIT PERI AZIMU VELO AIN AR TRES W  DIS CAZ7
 LA4  SZ E         652  4.23                  355.4  9.5      0        4.10 175 
 LA4  SN IP        652  4.23                             158    0.0210 4.10 175 
 LA4  SE IS        652  5.63                             158   -0.0210 4.10 175 
 LA4  SZ  AML      652  5.85        11.3 0.28                          4.10 175 
                                                                                
