 2008  927 0438 13.1 L  21.369 -99.317 13.9  RAL  2 0.1 0.7LRAL                1
 GAP=233        0.59       0.6     0.6  5.9 -0.3127E+00  0.3349E+00 -0.3492E+00E
 ACTION:UPD 12-06-08 11:37 OP:RALL STATUS:               ID:20080927043813     I
 2008-09-27-0438-02S.PLUR1_006                                                 6
 STAT SP IPHASW D HRMM SECON CODA AMPLIT PERI AZIMU VELO AIN AR TRES W  DIS CAZ7
 LZ4  SZ E         438 16.01                  310.3  6.4      0        6.47 131 
 LZ4  SN IP        438 16.03                             155    0.3110 6.47 131 
 LZ4  SE IS        438 17.79                             155    0.1410 6.47 131 
 LZ4  SZ  AML      438 20.14        19.9 0.24                          6.47 131 
 LA4  SZ E         438 16.14                  183.1 10.4      0        12.7   4 
 LA4  SN IP        438 16.14                             137   -0.1310 12.7   4 
 LA4  SE IS        438 18.30                             137   -0.3210 12.7   4 
 LA4  SZ  AML      438 18.72        14.2 0.24                          12.7   4 
                                                                                
