 2008  927 0254 49.4 L  21.664 -99.376 10.0  RAL  1 0.0 1.1LRAL                1
 GAP=360        0.30       3.8     1.5  0.0 -0.5283E+01  0.5761E+01 -0.8250E+01E
 ACTION:UPD 12-06-08 11:37 OP:RALL STATUS:               ID:20080927025449     I
 2008-09-27-0254-39S.PLUR1_003                                                 6
 STAT SP IPHASW D HRMM SECON CODA AMPLIT PERI AZIMU VELO AIN AR TRES W  DIS CAZ7
 LA4  SZ E         254 53.36                  340.9  7.8      0        21.2 161 
 LA4  SN IP        254 53.40                             112    0.0310 21.2 161 
 LA4  SE IS        254 56.23                             112   -0.0310 21.2 161 
 LA4  SZ  AML      254 57.19        28.8 0.32                          21.2 161 
                                                                                
