 2008  927 1034 20.4 L  21.339 -99.289 10.0  RAL  1 0.1 0.5LRAL                1
 GAP=360        0.50      12.7    29.8  0.0 -0.3782E+03  0.3867E+00 -0.3585E+00E
 ACTION:UPD 12-06-08 11:37 OP:RALL STATUS:               ID:20080927103420     I
 2008-09-27-1034-08S.PLUR1_003                                                 6
 STAT SP IPHASW D HRMM SECON CODA AMPLIT PERI AZIMU VELO AIN AR TRES W  DIS CAZ7
 LZ4  SZ E        1034 22.51                  294.5  7.1      0        2.17 114 
 LZ4  SN IP       1034 22.52                             168    0.2810 2.17 114 
 LZ4  SE IS       1034 23.33                             168   -0.2810 2.17 114 
 LZ4  SZ  AML     1034 23.70        16.0 0.20                          2.17 114 
                                                                                
