 2008  927 1948 34.4 L  21.606 -99.354 10.0  RAL  1 0.0 0.7LRAL                1
 GAP=360        0.30       4.2     1.6  0.0 -0.6481E+01  0.1078E+07 -0.3338E+06E
 ACTION:UPD 12-06-08 11:37 OP:RALL STATUS:               ID:20080927194834     I
 2008-09-27-1948-25S.PLUR1_003                                                 6
 STAT SP IPHASW D HRMM SECON CODA AMPLIT PERI AZIMU VELO AIN AR TRES W  DIS CAZ7
 LA4  SN IP       1948 37.39                             123    0.0010 14.3 161 
 LA4  SZ E        1948 37.43                  340.9  7.9      0        14.3 161 
 LA4  SE IS       1948 39.57                             123    0.0010 14.3 161 
 LA4  SZ  AML     1948 40.25        16.5 0.28                          14.3 161 
                                                                                
