 2008  927 1913 28.4 L  21.480 -99.319 10.0  RAL  1 0.2 0.2LRAL                1
 GAP=360        0.78     515.0   306.8  0.0 -0.1580E+06  0.8732E-01 -0.1803E+00E
 ACTION:UPD 12-06-08 11:37 OP:RALL STATUS:               ID:20080927191328     I
 2008-09-27-1913-16S.PLUR1_003                                                 6
 STAT SP IPHASW D HRMM SECON CODA AMPLIT PERI AZIMU VELO AIN AR TRES W  DIS CAZ7
 LA4  SZ E        1913 30.56                  252.4 12.9      2        1.07  70 
 LA4  SN IP       1913 30.63                             174    0.3910 1.07  70 
 LA4  SE IS       1913 31.20                             174   -0.3910 1.07  70 
 LA4  SZ  AML     1913 31.90         9.8 0.68                          1.07  70 
                                                                                
