 2008  927 1914 36.1 L  21.338 -99.287  3.3  RAL  2 0.1 0.9LRAL                1
 GAP=238        1.51       0.6     2.3  8.2  0.7526E+00  0.1664E+01 -0.2830E-01E
 ACTION:UPD 12-06-08 11:37 OP:RALL STATUS:               ID:20080927191436     I
 2008-09-27-1914-22S.PLUR1_006                                                 6
 STAT SP IPHASW D HRMM SECON CODA AMPLIT PERI AZIMU VELO AIN AR TRES W  DIS CAZ7
 LZ4  SZ E        1914 36.70                  293.0  8.3      0        1.97 114 
 LZ4  SN IP       1914 36.73                             160   -0.2110 1.97 114 
 LZ4  SE IS       1914 37.50                             160   -0.0410 1.97 114 
 LZ4  SZ  AML     1914 37.60       158.7 0.16                          1.97 114 
 LA4  SN IP       1914 38.82                             105   -0.2410 16.3 352 
 LA4  SZ E        1914 38.95                  165.3  9.5     -6        16.3 352 
 LA4  SE IS       1914 41.69                             105    0.4810 16.3 352 
 LA4  SZ  AML     1914 41.94        16.2 0.28                          16.3 352 
                                                                                
