 2008  927 1737 41.4 L  21.321 -99.293 10.0  RAL  1 0.1 0.6LRAL                1
 GAP=360        0.45     726.4   368.0  0.0 -0.2673E+06  0.6810E+01 -0.1344E+02E
 ACTION:UPD 12-06-08 11:37 OP:RALL STATUS:               ID:20080927173741     I
 2008-09-27-1737-29S.PLUR1_003                                                 6
 STAT SP IPHASW D HRMM SECON CODA AMPLIT PERI AZIMU VELO AIN AR TRES W  DIS CAZ7
 LZ4  SZ E        1737 43.37                  246.4 17.7      0        2.63  66 
 LZ4  SN IP       1737 43.51                             166    0.2310 2.63  66 
 LZ4  SE IS       1737 44.42                             166   -0.2310 2.63  66 
 LZ4  SZ  AML     1737 44.50        20.1 0.48                          2.63  66 
                                                                                
