 2008  927 1702  0.2 L  21.604 -99.353 10.0  RAL  1 0.0 0.4LRAL                1
 GAP=360        0.30       4.2     1.6  0.0 -0.6436E+01  0.6810E+01 -0.1344E+02E
 ACTION:UPD 12-06-08 11:37 OP:RALL STATUS:               ID:20080927170200     I
 2008-09-27-1701-51S.PLUR1_003                                                 6
 STAT SP IPHASW D HRMM SECON CODA AMPLIT PERI AZIMU VELO AIN AR TRES W  DIS CAZ7
 LA4  SN IP       17 2  3.19                             124    0.0010 14.1 161 
 LA4  SZ E        17 2  3.42                  341.3  9.0      0        14.1 161 
 LA4  SE IS       17 2  5.35                             124    0.0010 14.1 161 
 LA4  SZ  AML     17 2  6.21         9.0 0.28                          14.1 161 
                                                                                
