 2008  927 1421 23.0 L  21.561 -99.294 10.0  RAL  1 0.0 0.2LRAL                1
 GAP=360        0.30       5.6     1.1  0.0  0.6209E+01  0.3867E+00 -0.3585E+00E
 ACTION:UPD 12-06-08 11:37 OP:RALL STATUS:               ID:20080927142123     I
 2008-09-27-1421-12S.PLUR1_003                                                 6
 STAT SP IPHASW D HRMM SECON CODA AMPLIT PERI AZIMU VELO AIN AR TRES W  DIS CAZ7
 LA4  SN IP       1421 25.34                             139    0.0110 8.68 191 
 LA4  SZ E        1421 25.66                   10.6  8.5      0        8.68 191 
 LA4  SE IS       1421 27.03                             139   -0.0110 8.68 191 
 LA4  SZ  AML     1421 27.67         7.4 0.40                          8.68 191 
                                                                                
