 2008  927 1745 36.8 L  21.342 -99.292 10.0  RAL  1 0.1 0.4LRAL                1
 GAP=360        0.52      12.3    25.0  0.0 -0.3079E+03  0.6810E+01 -0.1344E+02E
 ACTION:UPD 12-06-08 11:37 OP:RALL STATUS:               ID:20080927174536     I
 2008-09-27-1745-25S.PLUR1_003                                                 6
 STAT SP IPHASW D HRMM SECON CODA AMPLIT PERI AZIMU VELO AIN AR TRES W  DIS CAZ7
 LZ4  SZ E        1745 38.88                  297.9  6.7      0        2.64 118 
 LZ4  SN IP       1745 38.93                             166    0.2910 2.64 118 
 LZ4  SE IS       1745 39.72                             166   -0.2910 2.64 118 
 LZ4  SZ  AML     1745 40.72        12.6 0.40                          2.64 118 
                                                                                
