 2008  927 1027 28.6 L  21.623 -99.412 10.0  RAL  1 0.0 1.2LRAL                1
 GAP=360        0.30       3.4     2.5  0.0 -0.8279E+01  0.3867E+00 -0.3585E+00E
 ACTION:UPD 12-06-08 11:37 OP:RALL STATUS:               ID:20080927102728     I
 2008-09-27-1027-18S.PLUR1_006                                                 6
 STAT SP IPHASW D HRMM SECON CODA AMPLIT PERI AZIMU VELO AIN AR TRES W  DIS CAZ7
 LA4  SZ E        1027 32.09                  325.5  9.3      0        18.8 145 
 LA4  SN IP       1027 32.19                             115    0.0110 18.8 145 
 LA4  SE IS       1027 34.81                             115   -0.0110 18.8 145 
 LA4  SZ  AML     1027 37.00        48.4 0.40                          18.8 145 
                                                                                
