 2008  927 1526 27.0 L  21.394 -99.304 10.0  RAL  2 0.2 0.4LRAL                1
 GAP=204        2.46       4.6     2.6 25.2 -0.9710E+01  0.6810E+01 -0.1344E+02E
 ACTION:UPD 12-06-08 11:37 OP:RALL STATUS:               ID:20080927152627     I
 2008-09-27-1526-16S.PLUR1_006                                                 6
 STAT SP IPHASW D HRMM SECON CODA AMPLIT PERI AZIMU VELO AIN AR TRES W  DIS CAZ7
 LZ4  SN IP       1526 29.34                             153    0.0710 7.81 153 
 LZ4  SZ E        1526 29.36                  324.1  9.1     -8        7.81 153 
 LZ4  SE IS       1526 31.45                             153    0.5510 7.81 153 
 LZ4  SZ  AML     1526 32.53        19.5 0.68                          7.81 153 
 LA4  SZ E        1526 29.16                  169.6 12.6     -6        9.99 357 
 LA4  SN IP       1526 29.18                             140   -0.3310 9.99 357 
 LA4  SE IS       1526 31.02                             140   -0.2910 9.99 357 
 LA4  SZ  AML     1526 33.61         5.7 0.28                          9.99 357 
                                                                                
