 2008  927 1146 29.3 L  21.335 -99.284 10.0  RAL  1 0.1 0.6LRAL                1
 GAP=360        0.46      12.2    39.6  0.0 -0.4845E+03  0.3867E+00 -0.3585E+00E
 ACTION:UPD 12-06-08 11:37 OP:RALL STATUS:               ID:20080927114629     I
 2008-09-27-1146-17S.PLUR1_003                                                 6
 STAT SP IPHASW D HRMM SECON CODA AMPLIT PERI AZIMU VELO AIN AR TRES W  DIS CAZ7
 LZ4  SZ E        1146 31.41                  288.5 11.7      0        1.53 108 
 LZ4  SN IP       1146 31.43                             172    0.2310 1.53 108 
 LZ4  SE IS       1146 32.31                             172   -0.2310 1.53 108 
 LZ4  SZ  AML     1146 32.35        21.5 0.12                          1.53 108 
                                                                                
