 2008  927 1919 46.1 L  21.234 -98.786  5.1  RAL  2 1.7 1.2LRAL                1
 GAP=345       27.87     250.5   757.4999.9 -0.1742E+06  0.1078E+07 -0.3338E+06E
 ACTION:UPD 12-06-08 11:37 OP:RALL STATUS:               ID:20080927191946     I
 2008-09-27-1919-44S.PLUR1_006                                                 6
 STAT SP IPHASW D HRMM SECON CODA AMPLIT PERI AZIMU VELO AIN AR TRES W  DIS CAZ7
 LZ4  SZ E        1919 57.40                  178.1 19.6     76        51.3 282 
 LZ4  SN IP       1919 57.40                              63    3.1610 51.3 282 
 LZ4  SE IS       1920  0.19                              63    0.0210 51.3 282 
 LZ4  SZ  AML     1920  0.22        25.5 0.20                          51.3 282 
 LA4  SZ E        1919 54.48                    5.3 32.6    -99        60.9 297 
 LA4  SN IP       1919 54.48                              63   -1.2610 60.9 297 
 LA4  SE IS     D 1920  0.83                              63   -1.9210 60.9 297 
 LA4  SZ  AML     1920  2.52        11.5 0.60                          60.9 297 
                                                                                
