 2008  927 1921  8.8 L  21.394 -99.323 10.0  RAL  1 0.0 0.7LRAL                1
 GAP=360        0.30       4.4     3.7  0.0 -0.1613E+02  0.1078E+07 -0.3338E+06E
 ACTION:UPD 12-06-08 11:37 OP:RALL STATUS:               ID:20080927192108     I
 2008-09-27-1920-58S.PLUR1_003                                                 6
 STAT SP IPHASW D HRMM SECON CODA AMPLIT PERI AZIMU VELO AIN AR TRES W  DIS CAZ7
 LZ4  SN IP       1921 11.19                             138    0.0210 8.95 142 
 LZ4  SZ E        1921 11.20                  321.7 12.3      0        8.95 142 
 LZ4  SE IS       1921 12.86                             138   -0.0210 8.95 142 
 LZ4  SZ  AML     1921 12.91        19.6 0.16                          8.95 142 
                                                                                
