 2008  927 1802 36.8 L  21.386 -99.307 12.5  RAL  2 0.0 1.4LRAL                1
 GAP=212        0.31       0.5     0.3  3.3 -0.1223E+00  0.8732E-01 -0.1803E+00E
 ACTION:UPD 12-06-08 11:37 OP:RALL STATUS:               ID:20080927180236     I
 2008-09-27-1802-25S.PLUR1_006                                                 6
 STAT SP IPHASW D HRMM SECON CODA AMPLIT PERI AZIMU VELO AIN AR TRES W  DIS CAZ7
 LZ4  SN IP       18 2 39.27                             150   -0.0110 7.23 147 
 LZ4  SZ E        18 2 39.30                  327.1  7.5      0        7.23 147 
 LZ4  SZ  AML     18 2 41.06       217.4 0.16                          7.23 147 
 LZ4  SE IS       18 2 41.18                             150    0.0610 7.23 147 
 LA4  SN IP       18 2 39.65                             139    0.0310 10.8 359 
 LA4  SZ E        18 2 39.72                  178.9 11.3      0        10.8 359 
 LA4  SE IS       18 2 41.62                             139   -0.0810 10.8 359 
 LA4  SZ  AML     18 2 43.19        34.9 0.20                          10.8 359 
                                                                                
