 2008  927 1623  0.8 L  21.363 -99.294 10.0  RAL  1 0.0 0.4LRAL                1
 GAP=360        0.30       4.5     0.7  0.0 -0.2533E+01  0.6810E+01 -0.1344E+02E
 ACTION:UPD 12-06-08 11:37 OP:RALL STATUS:               ID:20080927162300     I
 2008-09-27-1622-51S.PLUR1_006                                                 6
 STAT SP IPHASW D HRMM SECON CODA AMPLIT PERI AZIMU VELO AIN AR TRES W  DIS CAZ7
 LA4  SZ E        1623  3.62                  173.3 10.3      0        13.5 353 
 LA4  SN IP       1623  3.65                             125    0.0010 13.5 353 
 LA4  SZ  AML     1623  5.65         8.2 0.28                          13.5 353 
 LA4  SE IS     D 1623  5.76                             125    0.0010 13.5 353 
                                                                                
