 2008  927 2337 49.6 L  21.354 -99.295 12.1  RAL  2 0.2 0.5LRAL                1
 GAP=220        0.98       1.4     1.4  8.6 -0.1805E+01  0.2377E+01 -0.2366E+01E
 ACTION:UPD 12-06-08 11:37 OP:RALL STATUS:               ID:20080927233749     I
 2008-09-27-2337-38S.PLUR1_006                                                 6
 STAT SP IPHASW D HRMM SECON CODA AMPLIT PERI AZIMU VELO AIN AR TRES W  DIS CAZ7
 LZ4  SN IP       2337 52.05                             164    0.2410 3.65 134 
 LZ4  SZ E        2337 52.51                  314.0  8.3      0        3.65 134 
 LZ4  SE IS       2337 53.70                             164    0.2610 3.65 134 
 LZ4  SZ  AML     2337 54.16        25.9 0.44                          3.65 134 
 LA4  SZ E        2337 52.32                  172.8 10.5      0        14.4 354 
 LA4  SN IP       2337 53.04                             129    0.2510 14.4 354 
 LA4  SE IS       2337 54.37                             129   -0.7610 14.4 354 
 LA4  SZ  AML     2337 55.64         6.6 0.52                          14.4 354 
                                                                                
