 2008  927 2318 57.0 L  21.365 -99.292 15.2  RAL  2 0.3 0.8LRAL                1
 GAP=203        2.98       7.2     5.0 27.2 -0.3528E+02  0.1879E+02 -0.2755E+02E
 ACTION:UPD 12-06-08 11:37 OP:RALL STATUS:               ID:20080927231857     I
 2008-09-27-2318-46S.PLUR1_006                                                 6
 STAT SP IPHASW D HRMM SECON CODA AMPLIT PERI AZIMU VELO AIN AR TRES W  DIS CAZ7
 LZ4  SZ E        2319  0.16                  324.6  6.9     -3        4.44 149 
 LZ4  SN IP       2319  0.16                             171    0.4210 4.44 149 
 LZ4  SE IS       2319  2.24                             171    0.5110 4.44 149 
 LZ4  SZ  AML     2319  3.82        30.8 0.48                          4.44 149 
 LA4  SZ E        2319  0.23                  159.3  9.5    -12        13.2 352 
 LA4  SN IP       2319  0.26                             140   -0.1610 13.2 352 
 LA4  SE IS       2319  2.14                             140   -0.7710 13.2 352 
 LA4  SZ  AML     2319  4.10        11.8 0.64                          13.2 352 
                                                                                
