 2008  927 2111 17.1 L  21.484 -99.313 10.0  RAL  1 0.3 0.6LRAL                1
 GAP=360        1.23      75.2   474.2  0.0  0.3556E+05  0.2191E+00  0.8064E+00E
 ACTION:UPD 12-06-08 11:37 OP:RALL STATUS:               ID:20080927211117     I
 2008-09-27-2111-04S.PLUR1_003                                                 6
 STAT SP IPHASW D HRMM SECON CODA AMPLIT PERI AZIMU VELO AIN AR TRES W  DIS CAZ7
 LA4  SZ E        2111 19.24                  285.1 24.6      3        0.38 102 
 LA4  SN IP       2111 19.63                             178    0.6510 0.38 102 
 LA4  SE IS       2111 19.68                             178   -0.6510 0.38 102 
 LA4  SZ  AML     2111 19.86        20.4 0.20                          0.38 102 
                                                                                
