 2008  927 2026 19.6 L  21.393 -99.299 15.3  RAL  2 0.2 1.0LRAL                1
 GAP=198        3.59       7.1     6.0 32.6 -0.4169E+02  0.2247E+02 -0.2689E+02E
 ACTION:UPD 12-06-08 11:37 OP:RALL STATUS:               ID:20080927202619     I
 2008-09-27-2026-08S.PLUR1_006                                                 6
 STAT SP IPHASW D HRMM SECON CODA AMPLIT PERI AZIMU VELO AIN AR TRES W  DIS CAZ7
 LZ4  SN IP       2026 22.67                             172    0.1010 7.57 156 
 LZ4  SZ E        2026 22.69                  320.9  7.1    -14        7.57 156 
 LZ4  SE IS     D 2026 24.75                             172    0.0510 7.57 156 
 LZ4  SZ  AML     2026 26.31        56.9 0.56                          7.57 156 
 LA4  SZ E        2026 22.77                  165.7 10.1     -7        10.0 354 
 LA4  SN IP       2026 22.83                             140    0.0610 10.0 354 
 LA4  SE IS       2026 24.84                             140   -0.2110 10.0 354 
 LA4  SZ  AML     2026 26.61        21.9 0.68                          10.0 354 
                                                                                
