 2008  927 2250 29.9 L  21.487 -99.319 10.0  RAL  1 0.3 0.3LRAL                1
 GAP=360        3.46     999.9   999.9  0.0  0.9828E+08  0.2047E+01 -0.1778E+01E
 ACTION:UPD 12-06-08 11:37 OP:RALL STATUS:               ID:20080927225029     I
 2008-09-27-2250-18S.PLUR1_003                                                 6
 STAT SP IPHASW D HRMM SECON CODA AMPLIT PERI AZIMU VELO AIN AR TRES W  DIS CAZ7
 LA4  SN IP       2250 31.86                             174    0.1410 1.12 112 
 LA4  SZ E        2250 31.91                  275.5 15.7    -15        1.12 112 
 LA4  SE IS       2250 32.94                             174   -0.1410 1.12 112 
 LA4  SZ  AML     2250 34.01        10.3 0.28                          1.12 112 
                                                                                
