 2008  927 2146 46.7 L  21.667 -99.443 10.0  RAL  1 0.0 0.8LRAL                1
 GAP=360        0.30       3.2     2.4  0.0 -0.7403E+01  0.2047E+01 -0.1778E+01E
 ACTION:UPD 12-06-08 11:37 OP:RALL STATUS:               ID:20080927214646     I
 2008-09-27-2146-39S.PLUR1_003                                                 6
 STAT SP IPHASW D HRMM SECON CODA AMPLIT PERI AZIMU VELO AIN AR TRES W  DIS CAZ7
 LA4  SN IP       2146 51.12                             108    0.0010 24.6 146 
 LA4  SZ E        2146 51.26                  325.6  8.6      0        24.6 146 
 LA4  SE IS       2146 54.36                             108    0.0010 24.6 146 
 LA4  SZ  AML     2146 56.37        13.0 0.32                          24.6 146 
                                                                                
