 2008  927 2013 48.1 L  21.605 -99.298  0.0  RAL  2 0.1 1.4LRAL                1
 GAP=349        0.72       5.8     0.9 58.4  0.2227E+01 -0.1258E+02 -0.1639E+03E
 ACTION:UPD 12-06-08 11:37 OP:RALL STATUS:               ID:20080927201348     I
 2008-09-27-2013-36S.PLUR1_006                                                 6
 STAT SP IPHASW D HRMM SECON CODA AMPLIT PERI AZIMU VELO AIN AR TRES W  DIS CAZ7
 LA4  SZ E        2013 50.43                    6.1  8.8      1        13.4 185 
 LA4  SN IP       2013 50.45                              95   -0.0210 13.4 185 
 LA4  SE IS       2013 51.89                              95   -0.3010 13.4 185 
 LA4  SZ  AML     2013 52.07        96.2 0.12                          13.4 185 
 LZ4  SN IP       2013 53.43                              92   -0.0110 30.4 175 
 LZ4  SZ E        2013 53.58                  352.4  8.7     -1        30.4 175 
 LZ4  SE IS       2013 57.65                              92    0.3210 30.4 175 
 LZ4  SZ  AML     2013 57.91        57.0 0.16                          30.4 175 
                                                                                
