 2008  927 2140 16.7 L  21.350 -99.292 15.6  RAL  2 0.1 0.6LRAL                1
 GAP=220        1.11       1.6     1.8  9.8 -0.2800E+01  0.2047E+01 -0.1778E+01E
 ACTION:UPD 12-06-08 11:37 OP:RALL STATUS:               ID:20080927214016     I
 2008-09-27-2140-06S.PLUR1_006                                                 6
 STAT SP IPHASW D HRMM SECON CODA AMPLIT PERI AZIMU VELO AIN AR TRES W  DIS CAZ7
 LZ4  SN IP       2140 19.69                             172    0.2210 3.12 133 
 LZ4  SZ E        2140 20.14                  311.9  6.9      0        3.12 133 
 LZ4  SE IS       2140 21.74                             172    0.2710 3.12 133 
 LZ4  SZ  AML     2140 21.83        18.6 0.16                          3.12 133 
 LA4  SN IP       2140 20.40                             137    0.0510 14.9 353 
 LA4  SZ E        2140 20.52                  169.0 15.0     -3        14.9 353 
 LA4  SE IS       2140 22.47                             137   -0.5410 14.9 353 
 LA4  SZ  AML     2140 24.22         6.8 0.64                          14.9 353 
                                                                                
