 2008  927 2051 42.6 L  21.407 -99.342 10.0  RAL  2 0.2 0.7LRAL                1
 GAP=244        0.98       1.1     0.8 11.3  0.6528E-01  0.2191E+00  0.8064E+00E
 ACTION:UPD 12-06-08 11:37 OP:RALL STATUS:               ID:20080927205142     I
 2008-09-27-2051-30S.PLUR1_006                                                 6
 STAT SP IPHASW D HRMM SECON CODA AMPLIT PERI AZIMU VELO AIN AR TRES W  DIS CAZ7
 LA4  SZ E        2051 45.32                  203.8 11.0      2        9.18  22 
 LA4  SN IP       2051 45.35                             142    0.3110 9.18  22 
 LA4  SE IS       2051 47.26                             142    0.4810 9.18  22 
 LA4  SZ  AML     2051 47.60         8.8 0.28                          9.18  22 
 LZ4  SN IP       2051 45.00                             135   -0.2610 11.3 138 
 LZ4  SZ E        2051 45.01                  319.1  6.5      1        11.3 138 
 LZ4  SE IS       2051 46.64                             135   -0.5310 11.3 138 
 LZ4  SZ  AML     2051 46.72        43.5 0.16                          11.3 138 
                                                                                
