 2008  927 2347 13.0 L  21.258 -99.260 10.0  RAL  2 0.1 0.3LRAL                1
 GAP=225        0.46       0.6     0.3  5.4  0.5238E-01  0.2920E-01  0.2885E+00E
 ACTION:UPD 12-06-08 11:37 OP:RALL STATUS:               ID:20080927234713     I
 2008-09-27-2347-02S.PLUR1_006                                                 6
 STAT SP IPHASW D HRMM SECON CODA AMPLIT PERI AZIMU VELO AIN AR TRES W  DIS CAZ7
 LZ4  SN IP       2347 15.49                             141    0.2010 8.11 353 
 LZ4  SZ E        2347 15.50                  172.8 15.2      0        8.11 353 
 LZ4  SE IS       2347 17.02                             141    0.0710 8.11 353 
 LZ4  SZ  AML     2347 17.24        28.4 0.24                          8.11 353 
 LD5  SZ E        2347 15.29                   37.2 12.4      0        10.1 218 
 LD5  SN IP       2347 15.39                             133   -0.1110 10.1 218 
 LD5  SE IS       2347 17.15                             133   -0.1610 10.1 218 
 LD5  SZ  AML     2347 17.33         2.1 0.20                          10.1 218 
                                                                                
