 2008  927 2032 15.2 L  21.618 -99.379 10.0  RAL  1 0.0 0.5LRAL                1
 GAP=360        0.30       3.8     2.0  0.0 -0.7482E+01  0.2247E+02 -0.2689E+02E
 ACTION:UPD 12-06-08 11:37 OP:RALL STATUS:               ID:20080927203215     I
 2008-09-27-2032-07S.PLUR1_003                                                 6
 STAT SP IPHASW D HRMM SECON CODA AMPLIT PERI AZIMU VELO AIN AR TRES W  DIS CAZ7
 LA4  SN IP       2032 18.48                             119    0.0110 16.6 154 
 LA4  SZ E        2032 18.85                  334.0 10.0      0        16.6 154 
 LA4  SE IS       2032 20.88                             119   -0.0110 16.6 154 
 LA4  SZ  AML     2032 21.59         8.6 0.32                          16.6 154 
                                                                                
