 2008  928 0053 44.7 L  21.597 -99.306 10.0  RAL  1 0.0 1.1LRAL                1
 GAP=360        0.30       4.7     0.4  0.0  0.4863E+00  0.5559E-01  0.3051E-01E
 ACTION:UPD 12-06-08 11:37 OP:RALL STATUS:               ID:20080928005344     I
 2008-09-28-0053-34S.PLUR1_003                                                 6
 STAT SP IPHASW D HRMM SECON CODA AMPLIT PERI AZIMU VELO AIN AR TRES W  DIS CAZ7
 LA4  SN IP        053 47.47                             127    0.0010 12.6 181 
 LA4  SZ E         053 47.60                    1.2  9.4      0        12.6 181 
 LA4  SE IS        053 49.50                             127    0.0010 12.6 181 
 LA4  SZ  AML      053 49.69        45.8 0.28                          12.6 181 
                                                                                
