 2008  928 0642 35.6 L  21.346 -99.291 10.0  RAL  1 0.1 0.4LRAL                1
 GAP=360        0.50      14.0    20.6  0.0 -0.2878E+03 -0.2399E+01  0.1686E+02E
 ACTION:UPD 12-06-08 11:37 OP:RALL STATUS:               ID:20080928064235     I
 2008-09-28-0642-24S.PLUR1_003                                                 6
 STAT SP IPHASW D HRMM SECON CODA AMPLIT PERI AZIMU VELO AIN AR TRES W  DIS CAZ7
 LZ4  SN IP        642 37.76                             165    0.2710 2.78 126 
 LZ4  SZ E         642 37.77                  306.0 10.7      0        2.78 126 
 LZ4  SE IS        642 38.60                             165   -0.2710 2.78 126 
 LZ4  SZ  AML      642 38.74        15.0 0.32                          2.78 126 
                                                                                
