 2008  928 0618  0.5 L  21.600 -99.335 10.0  RAL  1 0.0 0.3LRAL                1
 GAP=360        0.30       4.5     1.1  0.0 -0.4503E+01 -0.2399E+01  0.1686E+02E
 ACTION:UPD 12-06-08 11:37 OP:RALL STATUS:               ID:20080928061800     I
 2008-09-28-0617-51S.PLUR1_003                                                 6
 STAT SP IPHASW D HRMM SECON CODA AMPLIT PERI AZIMU VELO AIN AR TRES W  DIS CAZ7
 LA4  SZ E         618  3.29                  348.1  8.9      0        13.2 168 
 LA4  SN IP        618  3.33                             126    0.0010 13.2 168 
 LA4  SE IS        618  5.41                             126    0.0010 13.2 168 
 LA4  SZ  AML      618  5.83         7.2 0.32                          13.2 168 
                                                                                
