 2008  928 0039 49.7 L  21.390 -99.296 10.0  RAL  1 0.0 0.0LRAL                1
 GAP=360        0.30       5.0     0.8  0.0 -0.3535E+01  0.2920E-01  0.2885E+00E
 ACTION:UPD 12-06-08 11:37 OP:RALL STATUS:               ID:20080928003949     I
 2008-09-28-0039-39S.PLUR1_003                                                 6
 STAT SP IPHASW D HRMM SECON CODA AMPLIT PERI AZIMU VELO AIN AR TRES W  DIS CAZ7
 LA4  SZ E         039 52.11                  172.6 10.6      0        10.4 353 
 LA4  SN IP        039 52.24                             133    0.0010 10.4 353 
 LA4  SE IS        039 54.08                             133    0.0010 10.4 353 
 LA4  SZ  AML      039 55.47         3.9 0.24                          10.4 353 
                                                                                
