 2008  928 0041 34.9 L  21.400 -99.355 25.8  RAL  2 0.1 1.1LRAL                1
 GAP=256        0.52       0.6     0.5  5.4  0.5949E-02  0.5559E-01  0.3051E-01E
 ACTION:UPD 12-06-08 11:37 OP:RALL STATUS:               ID:20080928004134     I
 2008-09-28-0041-25S.PLUR1_006                                                 6
 STAT SP IPHASW D HRMM SECON CODA AMPLIT PERI AZIMU VELO AIN AR TRES W  DIS CAZ7
 LA4  SZ E         041 39.31                  206.8 12.8      0        10.4  27 
 LA4  SN IP        041 39.34                             157   -0.1410 10.4  27 
 LA4  SE IS        041 42.54                             157   -0.2610 10.4  27 
 LA4  SZ  AML      041 43.97        27.9 0.60                          10.4  27 
 LZ4  SZ E         041 39.65                  310.7  7.1      0        11.7 131 
 LZ4  SN IP        041 39.67        26.6 0.64            155    0.1310 11.7 131 
 LZ4  SE IS        041 43.18                             155    0.2710 11.7 131 
 LZ4  SZ  AML      041 45.19        29.4 0.32                          11.7 131 
                                                                                
