 2008  928 0522 30.0 L  21.350 -99.290 15.9  RAL  2 0.1 0.6LRAL                1
 GAP=219        0.77       1.1     1.2  6.9 -0.1264E+01  0.1014E+01 -0.9377E+00E
 ACTION:UPD 12-06-08 11:37 OP:RALL STATUS:               ID:20080928052230     I
 2008-09-28-0522-21S.PLUR1_006                                                 6
 STAT SP IPHASW D HRMM SECON CODA AMPLIT PERI AZIMU VELO AIN AR TRES W  DIS CAZ7
 LZ4  SN IP        522 33.24                             169    0.4210 3.03 134 
 LZ4  SZ E         522 33.35                  313.8  9.0      0        3.03 134 
 LZ4  SE IS        522 35.01                             169    0.1510 3.03 134 
 LZ4  SZ  AML      522 36.71        14.3 0.52                          3.03 134 
 LA4  SZ E         522 33.61                  171.6  9.9      0        14.9 353 
 LA4  SN IP        522 33.63                             137   -0.0810 14.9 353 
 LA4  SE IS        522 35.89                             137   -0.4910 14.9 353 
 LA4  SZ  AML      522 37.31        12.8 0.48                          14.9 353 
                                                                                
