 2008  928 0527 57.4 L  21.412 -99.301 10.0  RAL  2 0.1 0.3LRAL                1
 GAP=194        1.61       4.7     1.1 16.9 -0.3019E+01 -0.2399E+01  0.1686E+02E
 ACTION:UPD 12-06-08 11:37 OP:RALL STATUS:               ID:20080928052757     I
 2008-09-28-0527-46S.PLUR1_006                                                 6
 STAT SP IPHASW D HRMM SECON CODA AMPLIT PERI AZIMU VELO AIN AR TRES W  DIS CAZ7
 LA4  SN IP        527 59.75                             152    0.1310 7.94 354 
 LA4  SZ E         527 59.83                  180.0 14.8      6        7.94 354 
 LA4  SE IS        528  1.42                             152    0.1510 7.94 354 
 LA4  SZ  AML      528  2.41         4.4 0.24                          7.94 354 
 LZ4  SZ E         527 59.48                  344.8 19.0      5        9.59 160 
 LZ4  SN IP        527 59.60                             137   -0.1810 9.59 160 
 LZ4  SE IS        528  1.44                             137   -0.1010 9.59 160 
 LZ4  SZ  AML      528  1.60        15.3 0.44                          9.59 160 
                                                                                
