 2008  928 0916 58.0 L  21.588 -99.304 10.0  RAL  1 0.0 0.8LRAL                1
 GAP=360        0.30       4.8     0.4  0.0  0.1090E+01 -0.2399E+01  0.1686E+02E
 ACTION:UPD 12-06-08 11:37 OP:RALL STATUS:               ID:20080928091658     I
 2008-09-28-0916-48S.PLUR1_006                                                 6
 STAT SP IPHASW D HRMM SECON CODA AMPLIT PERI AZIMU VELO AIN AR TRES W  DIS CAZ7
 LA4  SN IP        917  0.67                             130    0.0010 11.6 183 
 LA4  SZ E         917  0.68                    2.5  8.8      0        11.6 183 
 LA4  SE IS        917  2.61                             130    0.0010 11.6 183 
 LA4  SZ  AML      917  3.43        24.6 0.28                          11.6 183 
                                                                                
