 2008  928 0802 23.8 L  21.349 -99.241 10.0  RAL  1 0.0 0.4LRAL                1
 GAP=360        0.30       3.8     2.0  0.0 -0.7319E+01 -0.2399E+01  0.1686E+02E
 ACTION:UPD 12-06-08 11:37 OP:RALL STATUS:               ID:20080928080223     I
 2008-09-28-0802-14S.PLUR1_006                                                 6
 STAT SP IPHASW D HRMM SECON CODA AMPLIT PERI AZIMU VELO AIN AR TRES W  DIS CAZ7
 LA4  SZ E         8 2 27.08                  154.8 10.6      0        16.5 335 
 LA4  SN IP        8 2 27.08                             119    0.0110 16.5 335 
 LA4  SE IS        8 2 29.47                             119   -0.0110 16.5 335 
 LA4  SZ  AML      8 2 31.68         8.1 0.60                          16.5 335 
                                                                                
