 2008  928 0751  5.8 L  21.479 -99.327 10.0  RAL  1 0.1 0.5LRAL                1
 GAP=360        0.37       6.7    26.5  0.0  0.1776E+03 -0.2399E+01  0.1686E+02E
 ACTION:UPD 12-06-08 11:37 OP:RALL STATUS:               ID:20080928075105     I
 2008-09-28-0750-54S.PLUR1_003                                                 6
 STAT SP IPHASW D HRMM SECON CODA AMPLIT PERI AZIMU VELO AIN AR TRES W  DIS CAZ7
 LA4  SZ E         751  7.82                  254.9 10.7      0        1.92  75 
 LA4  SN IP        751  7.84                             170    0.1510 1.92  75 
 LA4  SE IS        751  8.90                             170   -0.1510 1.92  75 
 LA4  SZ  AML      751  9.42        19.0 0.48                          1.92  75 
                                                                                
