 2008 12 1 0513 51.1 L  21.582 -99.484 10.0  RAL  2 0.1 1.3LRAL                1
 GAP=343        0.59       5.9     4.4 18.8 -0.2355E+02  0.5826E+02 -0.7955E+02E
 ACTION:UPD 12-06-08 11:37 OP:RALL STATUS:               ID:20081201051351     I
 2008-12-01-0513-42S.PLUR1_006                                                 6
 STAT SP IPHASW D HRMM SECON CODA AMPLIT PERI AZIMU VELO AIN AR TRES W  DIS CAZ7
 LZ4  SN IP        513 56.85                             114   -0.3410 35.6 141 
 LZ4  SZ E         513 56.88                  320.5  7.9      0        35.6 141 
 LZ4  SE IS        514  1.81                             114    0.1710 35.6 141 
 LZ4  SZ  AML      514  5.05       115.7 0.44                          35.6 141 
 LD5  SN IP        513 59.12                             108    0.2010 47.0 159 
 LD5  SZ E         513 59.16                  339.8 10.9      1        47.0 159 
 LD5  SE IS        514  4.61                             108   -0.0310 47.0 159 
 LD5  SZ  AML      514  7.85         7.4 0.30                          47.0 159 
                                                                                
