 2008 12 1 0439 11.0 L  21.308 -99.307 10.0  RAL  1 0.0 0.8LRAL                1
 GAP=360        0.35       5.8     9.6  0.0  0.5592E+02  0.4126E+04 -0.1722E+05E
 ACTION:UP  12-06-08 11:37 OP:RALL STATUS:               ID:20081201043911     I
 2008-12-01-0438-58S.PLUR1_003                                                 6
 STAT SP IPHASW D HRMM SECON CODA AMPLIT PERI AZIMU VELO AIN AR TRES W  DIS CAZ7
 LZ4  SN IP        439 13.13                             156    0.1310 4.63  57 
 LZ4  SZ E         439 13.14                  236.9 20.5      0        4.63  57 
 LZ4  SE IS        439 14.32                             156   -0.1310 4.63  57 
 LZ4  SZ  AML      439 14.78        34.6 0.40                          4.63  57 
                                                                                
