 2008 12 1 0737 13.9 L  21.300 -99.329 10.0  RAL  1 0.0 0.0LRAL                1
 GAP=360        0.30       4.6     0.5  0.0 -0.1604E+01  0.5826E+02 -0.7955E+02E
 ACTION:UPD 12-06-08 11:37 OP:RALL STATUS:               ID:20081201073713     I
 2008-12-01-0737-03S.PLUR1_003                                                 6
 STAT SP IPHASW D HRMM SECON CODA AMPLIT PERI AZIMU VELO AIN AR TRES W  DIS CAZ7
 LD5  SZ E         737 16.60                  356.0  8.4      0        12.6 176 
 LD5  SN IP        737 16.62                             127    0.0010 12.6 176 
 LD5  SE IS        737 18.64                             127    0.0010 12.6 176 
 LD5  SZ  AML      737 20.66         3.6 0.18                          12.6 176 
                                                                                
