 2008 12 1 1912 40.5 L  21.715 -99.648 10.0  RAL  1 0.0 0.8LRAL                1
 GAP=360        0.30       2.4     3.3  0.0 -0.6556E+01  0.5826E+02 -0.7955E+02E
 ACTION:UPD 12-06-08 11:37 OP:RALL STATUS:               ID:20081201191240     I
 2008-12-01-1912-39S.PLUR1_003                                                 6
 STAT SP IPHASW D HRMM SECON CODA AMPLIT PERI AZIMU VELO AIN AR TRES W  DIS CAZ7
 LA4  SZ E        1912 47.80                  306.2 12.9      0        43.5 126 
 LA4  SN IP       1912 47.84                              99    0.0210 43.5 126 
 LA4  SE IS       1912 53.14                              99   -0.0210 43.5 126 
 LA4  SZ  AML     1912 54.22         7.7 0.24                          43.5 126 
                                                                                
