 2008 12 1 2330 43.6 L  21.644 -99.384 10.0  RAL  1 0.0 0.5LRAL                1
 GAP=360        0.30       3.7     1.8  0.0 -0.6403E+01  0.5826E+02 -0.7955E+02E
 ACTION:UPD 12-06-08 11:37 OP:RALL STATUS:               ID:20081201233043     I
 2008-12-01-2330-35S.PLUR1_003                                                 6
 STAT SP IPHASW D HRMM SECON CODA AMPLIT PERI AZIMU VELO AIN AR TRES W  DIS CAZ7
 LA4  SZ E        2330 47.26                  336.4  8.0      0        19.4 156 
 LA4  SN IP       2330 47.32                             114    0.0010 19.4 156 
 LA4  SE IS       2330 50.01                             114    0.0010 19.4 156 
 LA4  SZ  AML     2330 50.60         8.6 0.28                          19.4 156 
                                                                                
