 2008 12 2 0546  7.5 L  21.679 -99.376  1.1  RAL  3 0.2 1.7LRAL                1
 GAP=348        2.66      16.3     6.7 17.4 -0.7687E+02  0.1668E+02 -0.3225E+02E
 ACTION:UPD 12-06-08 11:37 OP:RALL STATUS:               ID:20081202054607     I
 2008-12-02-0545-57S.PLUR1_009                                                 6
 STAT SP IPHASW D HRMM SECON CODA AMPLIT PERI AZIMU VELO AIN AR TRES W  DIS CAZ7
 LA4  SN IP        546 11.82                              96    0.3210 22.7 162 
 LA4  SZ E         546 11.85                  350.7  9.3      9        22.7 162 
 LA4  SE IS        546 14.01                              96   -0.4010 22.7 162 
 LA4  SZ  AML      546 14.16       674.1 0.24                          22.7 162 
 LZ4  SZ E         546 14.62                  332.6  6.9    -10        40.1 164 
 LZ4  SN IP        546 14.74                              93    0.2110 40.1 164 
 LZ4  SE IS        546 19.81                              93    0.1610 40.1 164 
 LZ4  SZ  AML      546 22.41        98.7 0.60                          40.1 164 
 LD5  SZ E         546 16.76                  349.3 11.1     -4        54.8 174 
 LD5  SN IP        546 16.78                              63   -0.0410 54.8 174 
 LD5  SE IS        546 23.38                              63   -0.2310 54.8 174 
 LD5  SZ  AML      546 25.26         6.6 0.40                          54.8 174 
                                                                                
