 2008 12 2 0649 10.8 L  21.662 -99.423 10.0  RAL  1 0.0 1.0LRAL                1
 GAP=360        0.30       3.4     2.2  0.0 -0.7136E+01  0.1668E+02 -0.3225E+02E
 ACTION:UPD 12-06-08 11:37 OP:RALL STATUS:               ID:20081202064910     I
 2008-12-02-0649-03S.PLUR1_003                                                 6
 STAT SP IPHASW D HRMM SECON CODA AMPLIT PERI AZIMU VELO AIN AR TRES W  DIS CAZ7
 LA4  SZ E         649 14.85                  329.3 11.3      0        23.0 149 
 LA4  SN IP        649 14.98                             110    0.0010 23.0 149 
 LA4  SE IS        649 18.05                             110    0.0010 23.0 149 
 LA4  SZ  AML      649 19.80        21.6 0.36                          23.0 149 
                                                                                
