 2008 12 2 0609 10.8 L  21.589 -99.357 10.0  RAL  1 0.0 0.1LRAL                1
 GAP=360        0.30       4.3     2.0  0.0 -0.8306E+01  0.1668E+02 -0.3225E+02E
 ACTION:UPD 12-06-08 11:37 OP:RALL STATUS:               ID:20081202060910     I
 2008-12-02-0609-01S.PLUR1_003                                                 6
 STAT SP IPHASW D HRMM SECON CODA AMPLIT PERI AZIMU VELO AIN AR TRES W  DIS CAZ7
 LA4  SN IP        6 9 13.62                             127    0.0110 12.7 157 
 LA4  SZ E         6 9 13.69                  337.0  8.5      0        12.7 157 
 LA4  SE IS        6 9 15.64                             127   -0.0110 12.7 157 
 LA4  SZ  AML      6 9 15.88         4.1 0.24                          12.7 157 
                                                                                
