 2008 12 2 0102 57.1 L  21.647 -99.369 10.0  RAL  1 0.0 0.2LRAL                1
 GAP=360        0.30       3.9     1.5  0.0 -0.5415E+01  0.5826E+02 -0.7955E+02E
 ACTION:UPD 12-06-08 11:37 OP:RALL STATUS:               ID:20081202010257     I
 2008-12-02-0102-49S.PLUR1_003                                                 6
 STAT SP IPHASW D HRMM SECON CODA AMPLIT PERI AZIMU VELO AIN AR TRES W  DIS CAZ7
 LA4  SN IP        1 3  0.80                             115    0.0010 19.1 161 
 LA4  SZ E         1 3  0.81                  341.0  7.7      0        19.1 161 
 LA4  SE IS        1 3  3.46                             115    0.0010 19.1 161 
 LA4  SZ  AML      1 3  3.61         4.5 0.28                          19.1 161 
                                                                                
