 2008 12 2 0614 13.4 L  21.592 -99.331 10.0  RAL  1 0.0 0.5LRAL                1
 GAP=360        0.30       4.6     1.0  0.0 -0.4315E+01  0.1668E+02 -0.3225E+02E
 ACTION:UPD 12-06-08 11:37 OP:RALL STATUS:               ID:20081202061413     I
 2008-12-02-0614-04S.PLUR1_003                                                 6
 STAT SP IPHASW D HRMM SECON CODA AMPLIT PERI AZIMU VELO AIN AR TRES W  DIS CAZ7
 LA4  SZ E         614 16.14                  349.4  8.6      0        12.2 169 
 LA4  SN IP        614 16.14                             128    0.0010 12.2 169 
 LA4  SE IS        614 18.13                             128    0.0010 12.2 169 
 LA4  SZ  AML      614 18.26        13.0 0.20                          12.2 169 
                                                                                
