 2008 12 3 0559 34.3 L  21.239 -99.370 10.0  RAL  1 0.0-0.3LRAL                1
 GAP=360        0.30       4.6     4.3  0.0 -0.1951E+02  0.1668E+02 -0.3225E+02E
 ACTION:UPD 12-06-08 11:37 OP:RALL STATUS:               ID:20081203055934     I
 2008-12-03-0559-23S.PLUR1_003                                                 6
 STAT SP IPHASW D HRMM SECON CODA AMPLIT PERI AZIMU VELO AIN AR TRES W  DIS CAZ7
 LD5  SZ E         559 36.57                  318.8 10.2      0        7.79 139 
 LD5  SN IP        559 36.60                             142    0.0210 7.79 139 
 LD5  SE IS        559 38.19                             142   -0.0210 7.79 139 
 LD5  SZ  AML      559 38.42         2.5 0.12                          7.79 139 
                                                                                
