 2008 12 3 0329 25.2 L  21.311 -99.268 10.0  RAL  1 0.0 1.0LRAL                1
 GAP=360        0.30       4.1     1.8  0.0  0.6898E+01  0.1668E+02 -0.3225E+02E
 ACTION:UPD 12-06-08 11:37 OP:RALL STATUS:               ID:20081203032925     I
 2008-12-03-0329-13S.PLUR1_003                                                 6
 STAT SP IPHASW D HRMM SECON CODA AMPLIT PERI AZIMU VELO AIN AR TRES W  DIS CAZ7
 LD5  SZ E         329 28.31                   21.4  9.5      0        14.8 201 
 LD5  SN IP        329 28.31                             122    0.0110 14.8 201 
 LD5  SE IS        329 30.53                             122   -0.0110 14.8 201 
 LD5  SZ  AML      329 31.06        32.0 0.44                          14.8 201 
                                                                                
