 2008 12 3 0622 12.9 L  21.597 -99.399 10.0  RAL  1 0.0 0.4LRAL                1
 GAP=360        0.30       3.5     2.8  0.0 -0.9421E+01  0.1668E+02 -0.3225E+02E
 ACTION:UPD 12-06-08 11:37 OP:RALL STATUS:               ID:20081203062212     I
 2008-12-03-0622-04S.PLUR1_003                                                 6
 STAT SP IPHASW D HRMM SECON CODA AMPLIT PERI AZIMU VELO AIN AR TRES W  DIS CAZ7
 LA4  SZ E         622 15.84                  323.5  7.5      0        15.7 143 
 LA4  SN IP        622 16.11                             121    0.0110 15.7 143 
 LA4  SE IS        622 18.41                             121   -0.0110 15.7 143 
 LA4  SZ  AML      622 18.58         7.8 0.28                          15.7 143 
                                                                                
