 2008 12 3 0711  9.7 L  21.609 -99.376 10.0  RAL  1 0.0 0.3LRAL                1
 GAP=360        0.30       3.9     2.1  0.0 -0.7938E+01  0.1668E+02 -0.3225E+02E
 ACTION:UPD 12-06-08 11:37 OP:RALL STATUS:               ID:20081203071109     I
 2008-12-03-0711-01S.PLUR1_003                                                 6
 STAT SP IPHASW D HRMM SECON CODA AMPLIT PERI AZIMU VELO AIN AR TRES W  DIS CAZ7
 LA4  SZ E         711 12.76                  333.4  7.6      0        15.5 153 
 LA4  SN IP        711 12.84                             121    0.0110 15.5 153 
 LA4  SE IS        711 15.13                             121   -0.0110 15.5 153 
 LA4  SZ  AML      711 15.32         6.0 0.28                          15.5 153 
                                                                                
