 2008 12 3 0058  7.9 L  21.308 -99.365 10.0  RAL  1 0.0 0.8LRAL                1
 GAP=360        0.30       4.2     1.6  0.0 -0.6417E+01  0.1668E+02 -0.3225E+02E
 ACTION:UPD 12-06-08 11:37 OP:RALL STATUS:               ID:20081203005807     I
 2008-12-03-0057-56S.PLUR1_003                                                 6
 STAT SP IPHASW D HRMM SECON CODA AMPLIT PERI AZIMU VELO AIN AR TRES W  DIS CAZ7
 LD5  SN IP        058 10.87                             123    0.0010 14.3 161 
 LD5  SZ E         058 10.91                  341.0 13.8      0        14.3 161 
 LD5  SE IS        058 13.04                             123    0.0010 14.3 161 
 LD5  SZ  AML      058 14.63        22.6 0.22                          14.3 161 
                                                                                
