 2008 12 3 0129 59.4 L  21.771 -99.413 10.0  RAL  1 0.0                        1
 GAP=360        0.30       3.6     1.6  0.0 -0.4458E+01  0.1668E+02 -0.3225E+02E
 ACTION:UPD 12-06-08 11:37 OP:RALL STATUS:               ID:20081203012959     I
 2008-12-03-0129-55S.PLUR1_003                                                 6
 STAT SP IPHASW D HRMM SECON CODA AMPLIT PERI AZIMU VELO AIN AR TRES W  DIS CAZ7
 LA4  SN IP        130  5.20                             102    0.0110 33.6 161 
 LA4  SZ E         130  5.23                  341.3  7.9      0        33.6 161 
 LA4  SE IS        130  9.40                             102   -0.0110 33.6 161 
                                                                                
