 2008 12 4 0157 39.3 L  21.339 -99.289  6.4  RAL  3 0.3 1.3LRAL                1
 GAP=161        4.20       2.1     4.6 21.5 -0.8529E+01  0.1135E+02 -0.4652E+01E
 ACTION:UPD 12-06-08 11:37 OP:RALL STATUS:               ID:20081204015739     I
 2008-12-04-0157-26S.PLUR1_009                                                 6
 STAT SP IPHASW D HRMM SECON CODA AMPLIT PERI AZIMU VELO AIN AR TRES W  DIS CAZ7
 LZ4  SZ E         157 40.47                  293.3  8.6      0        2.16 114 
 LZ4  SN IP        157 40.57                             162   -0.0310 2.16 114 
 LZ4  SE IS        157 41.50                             162   -0.0610 2.16 114 
 LZ4  SZ  AML      157 42.70       536.9 0.16                          2.16 114 
 LA4  SZ E         157 42.46                  155.9  9.0    -16        16.2 352 
 LA4  SN IP        157 42.47                             103    0.1610 16.2 352 
 LA4  SE IS        157 45.37                             103    0.8410 16.2 352 
 LA4  SZ  AML      157 47.99        78.1 0.32                          16.2 352 
 LD5  SZ E         157 41.96                  354.2  9.0     17        17.2 191 
 LD5  SN IP        157 41.98                             102   -0.4710 17.2 191 
 LD5  SE IS        157 44.33                             102   -0.4410 17.2 191 
 LD5  SZ  AML      157 45.55        12.7 0.18                          17.2 191 
                                                                                
