 2008 12 4 0856  2.5 L  21.220 -99.300 10.0  RAL  1 0.0-0.1LRAL                1
 GAP=360        0.35       9.8     5.9  0.0  0.5762E+02  0.1135E+02 -0.4652E+01E
 ACTION:UPD 12-06-08 11:37 OP:RALL STATUS:               ID:20081204085602     I
 2008-12-04-0855-50S.PLUR1_003                                                 6
 STAT SP IPHASW D HRMM SECON CODA AMPLIT PERI AZIMU VELO AIN AR TRES W  DIS CAZ7
 LD5  SZ E         856  4.46                   29.0  8.7      0        4.25 209 
 LD5  SN IP        856  4.55                             157    0.1210 4.25 209 
 LD5  SE IS        856  5.74                             157   -0.1210 4.25 209 
 LD5  SZ  AML      856  6.16         3.7 0.30                          4.25 209 
                                                                                
