 2008 12 4 1615 50.0 L  21.186 -99.332 10.0  RAL  1 0.1 0.5LRAL                1
 GAP=360        1.31     299.7   139.9  0.0  0.4190E+05  0.1135E+02 -0.4652E+01E
 ACTION:UPD 12-06-08 11:37 OP:RALL STATUS:               ID:20081204161550     I
 2008-12-04-1615-37S.PLUR1_003                                                 6
 STAT SP IPHASW D HRMM SECON CODA AMPLIT PERI AZIMU VELO AIN AR TRES W  DIS CAZ7
 LD5  SZ E        1615 51.97                  263.3  9.6     -5        1.27  89 
 LD5  SN IP       1615 52.01                             173    0.2110 1.27  89 
 LD5  SE IS       1615 52.94                             173   -0.2110 1.27  89 
 LD5  SZ  AML     1615 52.99        17.5 0.16                          1.27  89 
                                                                                
