 2008 12 5 1725 25.3 L  21.965 -99.558 10.0  RAL  1 0.0 1.5LRAL                1
 GAP=360        0.30       3.4     2.3  0.0 -0.4852E+01  0.1135E+02 -0.4652E+01E
 ACTION:UPD 12-06-08 11:37 OP:RALL STATUS:               ID:20081205172525     I
 2008-12-05-1725-24S.PLUR1_003                                                 6
 STAT SP IPHASW D HRMM SECON CODA AMPLIT PERI AZIMU VELO AIN AR TRES W  DIS CAZ7
 LA4  SZ E        1725 35.00                  334.3 15.4      0        59.2 154 
 LA4  SN IP       1725 35.01                              96    0.0110 59.2 154 
 LA4  SE IS       1725 42.09                              96   -0.0110 59.2 154 
 LA4  SZ  AML     1725 43.12        32.1 0.28                          59.2 154 
                                                                                
