 2008 12 5 1539 19.0 L  21.180 -99.299 10.0  RAL  1 0.1-0.2LRAL                1
 GAP=360        0.39       6.5    22.8  0.0 -0.1490E+03  0.1135E+02 -0.4652E+01E
 ACTION:UPD 12-06-08 11:37 OP:RALL STATUS:               ID:20081205153919     I
 2008-12-05-1539-07S.PLUR1_003                                                 6
 STAT SP IPHASW D HRMM SECON CODA AMPLIT PERI AZIMU VELO AIN AR TRES W  DIS CAZ7
 LD5  SZ E        1539 20.91                  107.1 10.6      0        2.28 287 
 LD5  SN IP       1539 21.04                             168    0.1710 2.28 287 
 LD5  SE IS       1539 22.07                             168   -0.1710 2.28 287 
 LD5  SZ  AML     1539 22.13         3.2 0.14                          2.28 287 
                                                                                
