 2008 12 5 2241  8.6 L  21.285 -99.434 10.0  RAL  1 0.0 0.9LRAL                1
 GAP=360        0.30       3.4     2.2  0.0  0.6834E+01  0.1135E+02 -0.4652E+01E
 ACTION:UPD 12-06-08 11:37 OP:RALL STATUS:               ID:20081205224108     I
 2008-12-05-2241-03S.PLUR1_003                                                 6
 STAT SP IPHASW D HRMM SECON CODA AMPLIT PERI AZIMU VELO AIN AR TRES W  DIS CAZ7
 LA4  SZ E        2241 13.17                  210.5 11.6      0        25.5  30 
 LA4  SN IP       2241 13.19                             108    0.0010 25.5  30 
 LA4  SE IS       2241 16.53                             108    0.0010 25.5  30 
 LA4  SZ  AML     2241 18.61        16.3 0.48                          25.5  30 
                                                                                
