 2008 12 6 0207 29.3 L  21.537 -99.391 10.0  RAL  1 0.0 0.9LRAL                1
 GAP=360        0.30       2.9     4.5  0.0 -0.1319E+02  0.1135E+02 -0.4652E+01E
 ACTION:UPD 12-06-08 11:37 OP:RALL STATUS:               ID:20081206020729     I
 2008-12-06-0207-18S.PLUR1_003                                                 6
 STAT SP IPHASW D HRMM SECON CODA AMPLIT PERI AZIMU VELO AIN AR TRES W  DIS CAZ7
 LA4  SZ E         2 7 31.83                  304.7  9.7      0        10.3 125 
 LA4  SN IP        2 7 31.84                             134    0.0110 10.3 125 
 LA4  SE IS        2 7 33.65                             134   -0.0110 10.3 125 
 LA4  SZ  AML      2 7 35.29        32.0 0.72                          10.3 125 
                                                                                
