 2008 12 6 0811 17.8 L  21.187 -99.313 10.0  RAL  1 0.3 0.7LRAL                1
 GAP=360        3.50      98.2   652.3  0.0 -0.6389E+05  0.1135E+02 -0.4652E+01E
 ACTION:UPD 12-06-08 11:37 OP:RALL STATUS:               ID:20081206081117     I
 2008-12-06-0811-05S.PLUR1_003                                                 6
 STAT SP IPHASW D HRMM SECON CODA AMPLIT PERI AZIMU VELO AIN AR TRES W  DIS CAZ7
 LD5  SZ E         811 20.05                  104.8 10.2     16        0.75 268 
 LD5  SN IP        811 20.06                             176    0.4010 0.75 268 
 LD5  SE IS        811 20.59                             176   -0.4010 0.75 268 
 LD5  SZ  AML      811 20.67        28.5 0.16                          0.75 268 
                                                                                
