 2008 12 6 1743 20.9 L  21.237 -99.351 10.0  RAL  4 1.2 1.2LRAL                1
 GAP=219       21.09      19.4    16.5133.8 -0.2079E+03  0.3262E+03 -0.5114E+03E
 ACTION:UPD 12-06-08 11:37 OP:RALL STATUS:               ID:20081206174320     I
 2008-12-06-1742-48S.PLUR1_012                                                 6
 STAT SP IPHASW D HRMM SECON CODA AMPLIT PERI AZIMU VELO AIN AR TRES W  DIS CAZ7
 LD5  SZ E        1743 23.76                  356.2  9.7     26        6.44 150 
 LD5  SN IP       1743 23.84                             154    0.8410 6.44 150 
 LD5  SE IS       1743 25.77                             154    1.2310 6.44 150 
 LD5  SZ  AML     1743 28.07        26.0 0.56                          6.44 150 
 LZ4  SZ E        1743 22.77                  234.7 12.9     16        13.4  39 
 LZ4  SN IP       1743 22.78                             127   -0.9710 13.4  39 
 LZ4  SE IS       1743 23.87                             127   -1.9810 13.4  39 
 LZ4  SZ  AML     1743 24.48       539.4 0.24                          13.4  39 
 LO8  SZ E        1743 24.62                  167.7  8.3    -99        16.7 121 
 LO8  SN IP       1743 24.86                             123    0.6410 16.7 121 
 LO8  SE IS       1743 27.79                             123    1.1310 16.7 121 
 LO8  SZ  AML     1743 29.01         7.5 0.40                          16.7 121 
 LA4  SZ E        1743 25.31                  175.9 12.5    -12        27.6   9 
 LA4  SN IP       1743 25.48                             108   -0.3010 27.6   9 
 LA4  SE IS       1743 28.76                             108   -0.5910 27.6   9 
 LA4  SZ  AML     1743 31.64        82.7 0.64                          27.6   9 
                                                                                
