 2008 12 6 1621 20.4 L  21.338 -99.287 10.0  RAL  1 0.1 0.4LRAL                1
 GAP=360        0.60      16.8    38.9  0.0 -0.6530E+03  0.1135E+02 -0.4652E+01E
 ACTION:UPD 12-06-08 11:37 OP:RALL STATUS:               ID:20081206162120     I
 2008-12-06-1621-09S.PLUR1_003                                                 6
 STAT SP IPHASW D HRMM SECON CODA AMPLIT PERI AZIMU VELO AIN AR TRES W  DIS CAZ7
 LZ4  SZ E        1621 22.17                  294.9 16.2      0        1.98 115 
 LZ4  SN IP       1621 22.63                             169    0.3510 1.98 115 
 LZ4  SE IS       1621 23.28                             169   -0.3510 1.98 115 
 LZ4  SZ  AML     1621 23.59        14.4 0.88                          1.98 115 
                                                                                
