 2008 12 6 1306 52.5 L  21.187 -99.311 10.0  RAL  1 0.3 0.0LRAL                1
 GAP=360        3.40     999.9   999.9  0.0 -0.4835E+09  0.1135E+02 -0.4652E+01E
 ACTION:UPD 12-06-08 11:37 OP:RALL STATUS:               ID:20081206130652     I
 2008-12-06-1306-40S.PLUR1_003                                                 6
 STAT SP IPHASW D HRMM SECON CODA AMPLIT PERI AZIMU VELO AIN AR TRES W  DIS CAZ7
 LD5  SN IP       13 6 54.72                             175    0.3610 0.95 264 
 LD5  SZ E        13 6 54.83                  100.2 10.1     16        0.95 264 
 LD5  SE IS       13 6 55.35                             175   -0.3610 0.95 264 
 LD5  SZ  AML     13 6 55.54         5.1 0.14                          0.95 264 
                                                                                
