 2008 12 6 2330 21.7 L  21.257 -99.312 13.9  RAL  2 0.1 0.4LRAL                1
 GAP=185        1.03       4.8     0.9 12.3  0.2412E+01 -0.4467E+01 -0.4239E+02E
 ACTION:UPD 12-06-08 11:37 OP:RALL STATUS:               ID:20081206233021     I
 2008-12-06-2330-11S.PLUR1_006                                                 6
 STAT SP IPHASW D HRMM SECON CODA AMPLIT PERI AZIMU VELO AIN AR TRES W  DIS CAZ7
 LD5  SZ E        2330 24.52                    7.4 10.4      1        7.80 186 
 LD5  SN IP       2330 24.53                             151    0.0510 7.80 186 
 LD5  SE IS       2330 26.51                             151    0.0310 7.80 186 
 LD5  SZ  AML     2330 27.13         4.0 0.24                          7.80 186 
 LA4  SN IP       2330 26.57                             117    0.0810 25.1   1 
 LA4  SZ E        2330 26.74                  185.3  7.5      5        25.1   1 
 LA4  SE IS       2330 29.80                             117   -0.1610 25.1   1 
 LA4  SZ  AML     2330 32.08        10.1 0.28                          25.1   1 
                                                                                
