 2008 12 7 1058 51.3 L  21.504 -99.467 10.0  RAL  1 0.0 1.2LRAL                1
 GAP=360        0.30       2.7     3.0  0.0 -0.7597E+01 -0.4467E+01 -0.4239E+02E
 ACTION:UPD 12-06-08 11:37 OP:RALL STATUS:               ID:20081207105851     I
 2008-12-07-1058-42S.PLUR1_003                                                 6
 STAT SP IPHASW D HRMM SECON CODA AMPLIT PERI AZIMU VELO AIN AR TRES W  DIS CAZ7
 LZ4  SZ E        1058 56.21                  313.3  8.3      0        28.0 133 
 LZ4  SN IP       1058 56.27                             105    0.0010 28.0 133 
 LZ4  SE IS       1058 59.88                             105    0.0010 28.0 133 
 LZ4  SZ  AML     1059  1.76        33.1 0.28                          28.0 133 
                                                                                
