 2008 12 7 2257 31.3 L  21.285 -99.285 10.0  RAL  1 0.0 0.1LRAL                1
 GAP=360        0.30       4.6     1.7  0.0  0.7549E+01 -0.4467E+01 -0.4239E+02E
 ACTION:UPD 12-06-08 11:37 OP:RALL STATUS:               ID:20081207225731     I
 2008-12-07-2257-21S.PLUR1_003                                                 6
 STAT SP IPHASW D HRMM SECON CODA AMPLIT PERI AZIMU VELO AIN AR TRES W  DIS CAZ7
 LD5  SN IP       2257 33.96                             130    0.0110 11.5 199 
 LD5  SZ E        2257 33.97                   18.6  9.8      0        11.5 199 
 LD5  SE IS       2257 35.87                             130   -0.0110 11.5 199 
 LD5  SZ  AML     2257 36.76         4.5 0.26                          11.5 199 
                                                                                
