 2008 12 9 1349 47.0 L  21.289 -99.285 10.0  RAL  1 0.0 0.7LRAL                1
 GAP=360        0.30       4.5     1.6  0.0  0.6959E+01 -0.4467E+01 -0.4239E+02E
 ACTION:UPD 12-06-08 11:37 OP:RALL STATUS:               ID:20081209134947     I
 2008-12-09-1349-36S.PLUR1_003                                                 6
 STAT SP IPHASW D HRMM SECON CODA AMPLIT PERI AZIMU VELO AIN AR TRES W  DIS CAZ7
 LD5  SZ E        1349 49.39                   17.6 12.6      0        11.9 198 
 LD5  SN IP       1349 49.72                             129    0.0110 11.9 198 
 LD5  SE IS       1349 51.67                             129   -0.0110 11.9 198 
 LD5  SZ  AML     1349 52.30        17.2 0.44                          11.9 198 
                                                                                
