 2008 1210 0840  1.4 L  21.598 -99.338 10.0  RAL  1 0.0 0.4LRAL                1
 GAP=360        0.30       4.5     1.2  0.0 -0.5027E+01 -0.4467E+01 -0.4239E+02E
 ACTION:UPD 12-06-08 11:37 OP:RALL STATUS:               ID:20081210084001     I
 2008-12-10-0839-52S.PLUR1_003                                                 6
 STAT SP IPHASW D HRMM SECON CODA AMPLIT PERI AZIMU VELO AIN AR TRES W  DIS CAZ7
 LA4  SZ E         840  4.17                  346.8  8.5      0        13.0 167 
 LA4  SN IP        840  4.23                             127    0.0010 13.0 167 
 LA4  SE IS        840  6.29                             127    0.0010 13.0 167 
 LA4  SZ  AML      840  7.79         8.0 0.36                          13.0 167 
                                                                                
