 2008 1210 1303 50.9 L  21.342 -99.297 10.0  RAL  1 0.1 0.4LRAL                1
 GAP=360        0.42       7.1    17.6  0.0 -0.1248E+03 -0.4467E+01 -0.4239E+02E
 ACTION:UPD 12-06-08 11:37 OP:RALL STATUS:               ID:20081210130350     I
 2008-12-10-1303-39S.PLUR1_003                                                 6
 STAT SP IPHASW D HRMM SECON CODA AMPLIT PERI AZIMU VELO AIN AR TRES W  DIS CAZ7
 LZ4  SN IP       13 3 52.98                             163    0.2010 3.13 113 
 LZ4  SZ E        13 3 53.03                  293.3  7.7      0        3.13 113 
 LZ4  SE IS       13 3 53.97                             163   -0.2010 3.13 113 
 LZ4  SZ  AML     13 3 54.06        14.2 0.12                          3.13 113 
                                                                                
