 2008 1210 1635 31.7 L  21.604 -99.324 10.0  RAL  1 0.0 0.1LRAL                1
 GAP=360        0.30       4.5     0.7  0.0 -0.2559E+01 -0.4467E+01 -0.4239E+02E
 ACTION:UPD 12-06-08 11:37 OP:RALL STATUS:               ID:20081210163531     I
 2008-12-10-1635-22S.PLUR1_003                                                 6
 STAT SP IPHASW D HRMM SECON CODA AMPLIT PERI AZIMU VELO AIN AR TRES W  DIS CAZ7
 LA4  SZ E        1635 34.43                  353.3 12.2      0        13.4 173 
 LA4  SN IP       1635 34.54                             126    0.0010 13.4 173 
 LA4  SE IS       1635 36.64                             126    0.0010 13.4 173 
 LA4  SZ  AML     1635 36.81         4.0 0.24                          13.4 173 
                                                                                
