 2008 1210 1833 15.7 L  21.188 -99.318 10.0  RAL  1 0.8 0.0LRAL                1
 GAP=360       10.41     999.9   999.9  0.0 -0.8222E+10 -0.4467E+01 -0.4239E+02E
 ACTION:UPD 12-06-08 11:37 OP:RALL STATUS:               ID:20081210183315     I
 2008-12-10-1833-03S.PLUR1_003                                                 6
 STAT SP IPHASW D HRMM SECON CODA AMPLIT PERI AZIMU VELO AIN AR TRES W  DIS CAZ7
 LD5  SN IP       1833 17.90                             178    0.3910 0.32 228 
 LD5  SZ E        1833 17.91                   97.7 12.4     50        0.32 228 
 LD5  SE IS       1833 18.45                             178   -0.3910 0.32 228 
 LD5  SZ  AML     1833 18.53         5.1 0.14                          0.32 228 
                                                                                
