 2008 1211 0744  1.1 L  21.500 -99.340 10.0  RAL  1 0.0 0.4LRAL                1
 GAP=360        0.34       6.1    11.9  0.0 -0.7199E+02 -0.4467E+01 -0.4239E+02E
 ACTION:UPD 12-06-08 11:37 OP:RALL STATUS:               ID:20081211074401     I
 2008-12-11-0743-50S.PLUR1_003                                                 6
 STAT SP IPHASW D HRMM SECON CODA AMPLIT PERI AZIMU VELO AIN AR TRES W  DIS CAZ7
 LA4  SN IP        744  3.18                             160    0.1110 3.71 119 
 LA4  SZ E         744  3.19                  298.8  8.5      0        3.71 119 
 LA4  SE IS        744  4.37                             160   -0.1110 3.71 119 
 LA4  SZ  AML      744  5.89        14.7 0.36                          3.71 119 
                                                                                
