 2008 1211 0432 50.9 L  21.221 -99.302 10.0  RAL  1 0.0-0.2LRAL                1
 GAP=360        0.32       9.3     4.9  0.0  0.4512E+02 -0.4467E+01 -0.4239E+02E
 ACTION:UPD 12-06-08 11:37 OP:RALL STATUS:               ID:20081211043250     I
 2008-12-11-0432-39S.PLUR1_003                                                 6
 STAT SP IPHASW D HRMM SECON CODA AMPLIT PERI AZIMU VELO AIN AR TRES W  DIS CAZ7
 LD5  SN IP        432 52.94                             158    0.0810 4.24 206 
 LD5  SZ E         432 52.95                   26.0  8.9      0        4.24 206 
 LD5  SE IS        432 54.22                             158   -0.0810 4.24 206 
 LD5  SZ  AML      432 54.83         3.5 0.24                          4.24 206 
                                                                                
