 2008 1211 1554 39.4 L  21.176 -99.300 10.0  RAL  1 0.2-0.1LRAL                1
 GAP=360        0.69      18.2    35.7  0.0 -0.6494E+03 -0.4467E+01 -0.4239E+02E
 ACTION:UPD 12-06-08 11:37 OP:RALL STATUS:               ID:20081211155439     I
 2008-12-11-1554-27S.PLUR1_003                                                 6
 STAT SP IPHASW D HRMM SECON CODA AMPLIT PERI AZIMU VELO AIN AR TRES W  DIS CAZ7
 LD5  SZ E        1554 41.71                  118.6 11.5      0        2.39 299 
 LD5  SN IP       1554 41.72                             167    0.4210 2.39 299 
 LD5  SE IS       1554 42.25                             167   -0.4210 2.39 299 
 LD5  SZ  AML     1554 42.41         4.3 0.24                          2.39 299 
                                                                                
