 2008 1211 1713 14.0 L  21.331 -99.278 10.0  RAL  1 0.1 0.3LRAL                1
 GAP=360        0.38     999.9   915.3  0.0 -0.2043E+08 -0.4467E+01 -0.4239E+02E
 ACTION:UPD 12-06-08 11:37 OP:RALL STATUS:               ID:20081211171314     I
 2008-12-11-1713-02S.PLUR1_003                                                 6
 STAT SP IPHASW D HRMM SECON CODA AMPLIT PERI AZIMU VELO AIN AR TRES W  DIS CAZ7
 LZ4  SN IP       1713 15.94                             175    0.1410 0.84  88 
 LZ4  SZ E        1713 15.94                  267.5 11.4      0        0.84  88 
 LZ4  SE IS       1713 16.99                             175   -0.1410 0.84  88 
 LZ4  SZ  AML     1713 18.76        11.0 0.32                          0.84  88 
                                                                                
