 2008 1212 1537 15.6 L  21.639 -99.440 10.0  RAL  1 0.0 2.3LRAL                1
 GAP=360        0.30       3.4     2.1  0.0 -0.5806E+01 -0.4467E+01 -0.4239E+02E
 ACTION:UPD 12-06-08 11:37 OP:RALL STATUS:               ID:20081212153715     I
 2008-12-12-1537-07S.PLUR1_003                                                 6
 STAT SP IPHASW D HRMM SECON CODA AMPLIT PERI AZIMU VELO AIN AR TRES W  DIS CAZ7
 LZ4  SN IP       1537 22.13                             100    0.0210 38.4 153 
 LZ4  SZ E        1537 22.24                  332.6  7.6      0        38.4 153 
 LZ4  SE IS       1537 26.86                             100   -0.0210 38.4 153 
 LZ4  SZ  AML     1537 27.22       324.0 0.32                          38.4 153 
                                                                                
