 2008 1213 0301 31.0 L  21.322 -99.242 10.0  RAL  1 0.1 0.8LRAL                1
 GAP=360        0.36       5.4    16.1  0.0 -0.8709E+02 -0.4467E+01 -0.4239E+02E
 ACTION:UPD 12-06-08 11:37 OP:RALL STATUS:               ID:20081213030131     I
 2008-12-13-0301-18S.PLUR1_003                                                 6
 STAT SP IPHASW D HRMM SECON CODA AMPLIT PERI AZIMU VELO AIN AR TRES W  DIS CAZ7
 LZ4  SZ E         3 1 33.04                  109.9 48.6      0        3.02 290 
 LZ4  SN IP        3 1 33.07                             164    0.1410 3.02 290 
 LZ4  SE IS        3 1 34.18                             164   -0.1410 3.02 290 
 LZ4  SZ  AML      3 1 34.81        34.3 0.28                          3.02 290 
                                                                                
