 2008 1213 1604 48.7 L  21.299 -99.292 10.0  RAL  1 0.0 1.8LRAL                1
 GAP=360        0.34       9.2     6.8  0.0  0.6265E+02 -0.4467E+01 -0.4239E+02E
 ACTION:UPD 12-06-08 11:37 OP:RALL STATUS:               ID:20081213160448     I
 2008-12-13-1604-36S.PLUR1_003                                                 6
 STAT SP IPHASW D HRMM SECON CODA AMPLIT PERI AZIMU VELO AIN AR TRES W  DIS CAZ7
 LZ4  SZ E        16 4 50.82                  214.4 26.8      0        4.22  34 
 LZ4  SN IP       16 4 50.82                             158    0.1210 4.22  34 
 LZ4  SE IS       16 4 52.02                             158   -0.1210 4.22  34 
 LZ4  SZ  AML     16 4 52.22       360.5 0.38                          4.22  34 
                                                                                
