 2008  9 2  338 14.8 L                                                         1
 ACTION:REG 11-07-20 14:19 OP:RALL STATUS:               ID:20080902033814     I
 2008-09-02-0338-14S.PLUR1_003                                                 6
 STAT SP IPHASW D HRMM SECON CODA AMPLIT PERI AZIMU VELO AIN AR TRES W  DIS CAZ7
                                                                                
