 2008  9 2 2340 48.0 L                                                         1
 ACTION:REG 11-07-20 12:28 OP:RALL STATUS:               ID:20080902234048     I
 2008-09-02-2340-48S.PLUR1_003                                                 6
 STAT SP IPHASW D HRMM SECON CODA AMPLIT PERI AZIMU VELO AIN AR TRES W  DIS CAZ7
                                                                                
