 2008  9 3 1737 24.6 L                                                         1
 ACTION:REG 11-07-20 12:28 OP:RALL STATUS:               ID:20080903173724     I
 2008-09-03-1737-24S.PLUR1_003                                                 6
 STAT SP IPHASW D HRMM SECON CODA AMPLIT PERI AZIMU VELO AIN AR TRES W  DIS CAZ7
                                                                                
