 2008  9 4  125  1.3 L                                                         1
 ACTION:REG 11-07-20 12:28 OP:RALL STATUS:               ID:20080904012501     I
 2008-09-04-0125-01S.PLUR1_003                                                 6
 STAT SP IPHASW D HRMM SECON CODA AMPLIT PERI AZIMU VELO AIN AR TRES W  DIS CAZ7
                                                                                
