 2008  9 4  958 25.8 L                                                         1
 ACTION:REG 11-07-20 12:29 OP:RALL STATUS:               ID:20080904095825     I
 2008-09-04-0958-25S.PLUR1_003                                                 6
 STAT SP IPHASW D HRMM SECON CODA AMPLIT PERI AZIMU VELO AIN AR TRES W  DIS CAZ7
                                                                                
