 2008  9 5 13 3 17.5 L                                                         1
 ACTION:REG 11-07-20 12:29 OP:RALL STATUS:               ID:20080905130317     I
 2008-09-05-1303-17S.PLUR1_003                                                 6
 STAT SP IPHASW D HRMM SECON CODA AMPLIT PERI AZIMU VELO AIN AR TRES W  DIS CAZ7
                                                                                
