 2008  9 5 1357 33.7 L                                                         1
 ACTION:REG 11-07-20 12:29 OP:RALL STATUS:               ID:20080905135733     I
 2008-09-05-1357-33S.PLUR1_003                                                 6
 STAT SP IPHASW D HRMM SECON CODA AMPLIT PERI AZIMU VELO AIN AR TRES W  DIS CAZ7
                                                                                
