 2008  9 6  751 35.0 L                                                         1
 ACTION:REG 11-07-20 12:29 OP:RALL STATUS:               ID:20080906075134     I
 2008-09-06-0751-34S.PLUR1_003                                                 6
 STAT SP IPHASW D HRMM SECON CODA AMPLIT PERI AZIMU VELO AIN AR TRES W  DIS CAZ7
                                                                                
