 2008  9 6  214 21.3 R                                                         1
 ACTION:REG 11-07-20 12:29 OP:RALL STATUS:               ID:20080906021421     I
 2008-09-06-0214-21S.PLUR1_003                                                 6
 STAT SP IPHASW D HRMM SECON CODA AMPLIT PERI AZIMU VELO AIN AR TRES W  DIS CAZ7
                                                                                
