 2008  9 6 1911 49.7 L                                                         1
 ACTION:REG 11-07-20 12:29 OP:RALL STATUS:               ID:20080906191149     I
 2008-09-06-1911-49S.PLUR1_003                                                 6
 STAT SP IPHASW D HRMM SECON CODA AMPLIT PERI AZIMU VELO AIN AR TRES W  DIS CAZ7
                                                                                
