 2008  9 8  735 59.6 R                                                         1
 ACTION:REG 11-07-20 12:29 OP:RALL STATUS:               ID:20080908073559     I
 2008-09-08-0735-59S.PLUR1_003                                                 6
 STAT SP IPHASW D HRMM SECON CODA AMPLIT PERI AZIMU VELO AIN AR TRES W  DIS CAZ7
                                                                                
