 2008  9 9  837 56.0 L                                                         1
 ACTION:REG 11-07-20 12:30 OP:RALL STATUS:               ID:20080909083755     I
 2008-09-09-0837-55S.PLUR1_003                                                 6
 STAT SP IPHASW D HRMM SECON CODA AMPLIT PERI AZIMU VELO AIN AR TRES W  DIS CAZ7
                                                                                
