 2008  910  1 2 25.7 R                                                         1
 ACTION:REG 11-07-20 12:30 OP:RALL STATUS:               ID:20080910010225     I
 2008-09-10-0102-25S.PLUR1_003                                                 6
 STAT SP IPHASW D HRMM SECON CODA AMPLIT PERI AZIMU VELO AIN AR TRES W  DIS CAZ7
                                                                                
