 2008  911  434 21.6 R                                                         1
 ACTION:REG 11-07-20 12:30 OP:RALL STATUS:               ID:20080911043421     I
 2008-09-11-0434-21S.PLUR1_003                                                 6
 STAT SP IPHASW D HRMM SECON CODA AMPLIT PERI AZIMU VELO AIN AR TRES W  DIS CAZ7
                                                                                
