 2008  911  017 47.6 L                                                         1
 ACTION:REG 11-07-20 12:30 OP:RALL STATUS:               ID:20080911001747     I
 2008-09-11-0017-47S.PLUR1_003                                                 6
 STAT SP IPHASW D HRMM SECON CODA AMPLIT PERI AZIMU VELO AIN AR TRES W  DIS CAZ7
                                                                                
