 2008  912 1815 14.6 L                                                         1
 ACTION:REG 11-07-20 12:31 OP:RALL STATUS:               ID:20080912181514     I
 2008-09-12-1815-14S.PLUR1_003                                                 6
 STAT SP IPHASW D HRMM SECON CODA AMPLIT PERI AZIMU VELO AIN AR TRES W  DIS CAZ7
                                                                                
