 2008  913  459 13.7 L                                                         1
 ACTION:REG 11-07-20 12:31 OP:RALL STATUS:               ID:20080913045913     I
 2008-09-13-0459-13S.PLUR1_003                                                 6
 STAT SP IPHASW D HRMM SECON CODA AMPLIT PERI AZIMU VELO AIN AR TRES W  DIS CAZ7
                                                                                
