 2008  913 1543  5.2 R                                                         1
 ACTION:REG 11-07-20 12:31 OP:RALL STATUS:               ID:20080913154305     I
 2008-09-13-1543-05S.PLUR1_003                                                 6
 STAT SP IPHASW D HRMM SECON CODA AMPLIT PERI AZIMU VELO AIN AR TRES W  DIS CAZ7
                                                                                
