 2008  914 1549 26.6 L                                                         1
 ACTION:REG 11-07-20 12:31 OP:RALL STATUS:               ID:20080914154926     I
 2008-09-14-1549-26S.PLUR1_003                                                 6
 STAT SP IPHASW D HRMM SECON CODA AMPLIT PERI AZIMU VELO AIN AR TRES W  DIS CAZ7
                                                                                
