 2008  915 10 8  4.0 L                                                         1
 ACTION:REG 11-07-20 12:31 OP:RALL STATUS:               ID:20080915100804     I
 2008-09-15-1008-04S.PLUR1_003                                                 6
 STAT SP IPHASW D HRMM SECON CODA AMPLIT PERI AZIMU VELO AIN AR TRES W  DIS CAZ7
                                                                                
