 2008  916 1052 50.1 L                                                         1
 ACTION:REG 11-07-20 12:31 OP:RALL STATUS:               ID:20080916105250     I
 2008-09-16-1052-50S.PLUR1_003                                                 6
 STAT SP IPHASW D HRMM SECON CODA AMPLIT PERI AZIMU VELO AIN AR TRES W  DIS CAZ7
                                                                                
