 2008  916 1959 28.8 L                                                         1
 ACTION:REG 11-07-20 12:31 OP:RALL STATUS:               ID:20080916195928     I
 2008-09-16-1959-28S.PLUR1_003                                                 6
 STAT SP IPHASW D HRMM SECON CODA AMPLIT PERI AZIMU VELO AIN AR TRES W  DIS CAZ7
                                                                                
