 2008  916 2012 46.5 L                                                         1
 ACTION:REG 11-07-20 12:31 OP:RALL STATUS:               ID:20080916201246     I
 2008-09-16-2012-46S.PLUR1_003                                                 6
 STAT SP IPHASW D HRMM SECON CODA AMPLIT PERI AZIMU VELO AIN AR TRES W  DIS CAZ7
                                                                                
