 2008  917 1419 59.6 R                                                         1
 ACTION:REG 11-07-20 12:31 OP:RALL STATUS:               ID:20080917141959     I
 2008-09-17-1419-59S.PLUR1_003                                                 6
 STAT SP IPHASW D HRMM SECON CODA AMPLIT PERI AZIMU VELO AIN AR TRES W  DIS CAZ7
                                                                                
