 2008  917 1220 52.0 L                                                         1
 ACTION:REG 11-07-20 12:31 OP:RALL STATUS:               ID:20080917122052     I
 2008-09-17-1220-52S.PLUR1_003                                                 6
 STAT SP IPHASW D HRMM SECON CODA AMPLIT PERI AZIMU VELO AIN AR TRES W  DIS CAZ7
                                                                                
