 2008  917 1549 55.3 L                                                         1
 ACTION:REG 11-07-20 12:31 OP:RALL STATUS:               ID:20080917154955     I
 2008-09-17-1549-55S.PLUR1_003                                                 6
 STAT SP IPHASW D HRMM SECON CODA AMPLIT PERI AZIMU VELO AIN AR TRES W  DIS CAZ7
                                                                                
