 2008  917 1017 32.7 L                                                         1
 ACTION:REG 11-07-20 12:31 OP:RALL STATUS:               ID:20080917101732     I
 2008-09-17-1017-32S.PLUR1_003                                                 6
 STAT SP IPHASW D HRMM SECON CODA AMPLIT PERI AZIMU VELO AIN AR TRES W  DIS CAZ7
                                                                                
