 2008  917 1324 53.5 L                                                         1
 ACTION:REG 11-07-20 12:31 OP:RALL STATUS:               ID:20080917132453     I
 2008-09-17-1324-53S.PLUR1_003                                                 6
 STAT SP IPHASW D HRMM SECON CODA AMPLIT PERI AZIMU VELO AIN AR TRES W  DIS CAZ7
                                                                                
