 2008  918  824 12.0 L                                                         1
 ACTION:REG 11-07-20 12:32 OP:RALL STATUS:               ID:20080918082412     I
 2008-09-18-0824-12S.PLUR1_003                                                 6
 STAT SP IPHASW D HRMM SECON CODA AMPLIT PERI AZIMU VELO AIN AR TRES W  DIS CAZ7
                                                                                
