 2008  918 1018 10.1 L                                                         1
 ACTION:REG 11-07-20 12:32 OP:RALL STATUS:               ID:20080918101810     I
 2008-09-18-1018-10S.PLUR1_003                                                 6
 STAT SP IPHASW D HRMM SECON CODA AMPLIT PERI AZIMU VELO AIN AR TRES W  DIS CAZ7
                                                                                
