 2008  918 2333 26.1 L                                                         1
 ACTION:REG 11-07-20 12:32 OP:RALL STATUS:               ID:20080918233326     I
 2008-09-18-2333-26S.PLUR1_003                                                 6
 STAT SP IPHASW D HRMM SECON CODA AMPLIT PERI AZIMU VELO AIN AR TRES W  DIS CAZ7
                                                                                
