 2008  919  152  7.6 R                                                         1
 ACTION:REG 11-07-20 12:32 OP:RALL STATUS:               ID:20080919015207     I
 2008-09-19-0152-07S.PLUR1_003                                                 6
 STAT SP IPHASW D HRMM SECON CODA AMPLIT PERI AZIMU VELO AIN AR TRES W  DIS CAZ7
                                                                                
