 2008  919  0 2 16.6 L                                                         1
 ACTION:REG 11-07-20 12:32 OP:RALL STATUS:               ID:20080919000216     I
 2008-09-19-0002-16S.PLUR1_003                                                 6
 STAT SP IPHASW D HRMM SECON CODA AMPLIT PERI AZIMU VELO AIN AR TRES W  DIS CAZ7
                                                                                
