 2008  919 1555  6.7 L                                                         1
 ACTION:REG 11-07-20 12:32 OP:RALL STATUS:               ID:20080919155506     I
 2008-09-19-1555-06S.PLUR1_003                                                 6
 STAT SP IPHASW D HRMM SECON CODA AMPLIT PERI AZIMU VELO AIN AR TRES W  DIS CAZ7
                                                                                
