 2008  920  841 46.0 R                                                         1
 ACTION:REG 11-07-20 12:32 OP:RALL STATUS:               ID:20080920084146     I
 2008-09-20-0841-46S.PLUR1_003                                                 6
 STAT SP IPHASW D HRMM SECON CODA AMPLIT PERI AZIMU VELO AIN AR TRES W  DIS CAZ7
                                                                                
