 2008  920 1021 49.9 L                                                         1
 ACTION:REG 11-07-20 12:32 OP:RALL STATUS:               ID:20080920102149     I
 2008-09-20-1021-49S.PLUR1_003                                                 6
 STAT SP IPHASW D HRMM SECON CODA AMPLIT PERI AZIMU VELO AIN AR TRES W  DIS CAZ7
                                                                                
