 2008  921  040 44.9 R                                                         1
 ACTION:REG 11-07-20 12:33 OP:RALL STATUS:               ID:20080921004044     I
 2008-09-21-0040-44S.PLUR1_003                                                 6
 STAT SP IPHASW D HRMM SECON CODA AMPLIT PERI AZIMU VELO AIN AR TRES W  DIS CAZ7
                                                                                
