 2008  921  347  5.1 L                                                         1
 ACTION:REG 11-07-20 12:33 OP:RALL STATUS:               ID:20080921034705     I
 2008-09-21-0347-05S.PLUR1_003                                                 6
 STAT SP IPHASW D HRMM SECON CODA AMPLIT PERI AZIMU VELO AIN AR TRES W  DIS CAZ7
                                                                                
