 2008  921 1644 43.7 L                                                         1
 ACTION:REG 11-07-20 12:33 OP:RALL STATUS:               ID:20080921164443     I
 2008-09-21-1644-43S.PLUR1_003                                                 6
 STAT SP IPHASW D HRMM SECON CODA AMPLIT PERI AZIMU VELO AIN AR TRES W  DIS CAZ7
                                                                                
