 2008  921 2039 18.5 L                                                         1
 ACTION:REG 11-07-20 12:33 OP:RALL STATUS:               ID:20080921203918     I
 2008-09-21-2039-18S.PLUR1_003                                                 6
 STAT SP IPHASW D HRMM SECON CODA AMPLIT PERI AZIMU VELO AIN AR TRES W  DIS CAZ7
                                                                                
