 2008  923  514 43.8 L                                                         1
 ACTION:REG 11-07-20 12:33 OP:RALL STATUS:               ID:20080923051443     I
 2008-09-23-0514-43S.PLUR1_003                                                 6
 STAT SP IPHASW D HRMM SECON CODA AMPLIT PERI AZIMU VELO AIN AR TRES W  DIS CAZ7
                                                                                
