 2008  923  847  1.0 L                                                         1
 ACTION:REG 11-07-20 13:45 OP:RALL STATUS:               ID:20080923084700     I
 2008-09-23-0847-00S.PLUR1_003                                                 6
 STAT SP IPHASW D HRMM SECON CODA AMPLIT PERI AZIMU VELO AIN AR TRES W  DIS CAZ7
                                                                                
