 2008  923  715 59.2 L                                                         1
 ACTION:REG 11-07-20 13:42 OP:RALL STATUS:               ID:20080923071559     I
 2008-09-23-0715-59S.PLUR1_003                                                 6
 STAT SP IPHASW D HRMM SECON CODA AMPLIT PERI AZIMU VELO AIN AR TRES W  DIS CAZ7
                                                                                
