 2008  923  815 50.7 L                                                         1
 ACTION:REG 11-07-20 13:45 OP:RALL STATUS:               ID:20080923081550     I
 2008-09-23-0815-50S.PLUR1_003                                                 6
 STAT SP IPHASW D HRMM SECON CODA AMPLIT PERI AZIMU VELO AIN AR TRES W  DIS CAZ7
                                                                                
