 2008  923 13 9 39.8 L                                                         1
 ACTION:REG 11-07-20 13:45 OP:RALL STATUS:               ID:20080923130939     I
 2008-09-23-1309-39S.PLUR1_003                                                 6
 STAT SP IPHASW D HRMM SECON CODA AMPLIT PERI AZIMU VELO AIN AR TRES W  DIS CAZ7
                                                                                
