 2008  923 1751 38.5 L                                                         1
 ACTION:REG 11-07-20 13:45 OP:RALL STATUS:               ID:20080923175138     I
 2008-09-23-1751-38S.PLUR1_003                                                 6
 STAT SP IPHASW D HRMM SECON CODA AMPLIT PERI AZIMU VELO AIN AR TRES W  DIS CAZ7
                                                                                
