 2008  923 2027 25.0 R                                                         1
 ACTION:REG 11-07-20 13:50 OP:RALL STATUS:               ID:20080923202725     I
 2008-09-23-2027-25S.PLUR1_003                                                 6
 STAT SP IPHASW D HRMM SECON CODA AMPLIT PERI AZIMU VELO AIN AR TRES W  DIS CAZ7
                                                                                
