 2008  924  047 24.3 R                                                         1
 ACTION:REG 11-07-20 13:50 OP:RALL STATUS:               ID:20080924004724     I
 2008-09-24-0047-24S.PLUR1_003                                                 6
 STAT SP IPHASW D HRMM SECON CODA AMPLIT PERI AZIMU VELO AIN AR TRES W  DIS CAZ7
                                                                                
