 2008  924  039 13.2 L                                                         1
 ACTION:REG 11-07-20 13:50 OP:RALL STATUS:               ID:20080924003913     I
 2008-09-24-0039-13S.PLUR1_003                                                 6
 STAT SP IPHASW D HRMM SECON CODA AMPLIT PERI AZIMU VELO AIN AR TRES W  DIS CAZ7
                                                                                
