 2008  924  514 32.2 L                                                         1
 ACTION:REG 11-07-20 13:51 OP:RALL STATUS:               ID:20080924051432     I
 2008-09-24-0514-32S.PLUR1_003                                                 6
 STAT SP IPHASW D HRMM SECON CODA AMPLIT PERI AZIMU VELO AIN AR TRES W  DIS CAZ7
                                                                                
