 2008  924 1748 21.4 R                                                         1
 ACTION:REG 11-07-20 13:51 OP:RALL STATUS:               ID:20080924174821     I
 2008-09-24-1748-21S.PLUR1_003                                                 6
 STAT SP IPHASW D HRMM SECON CODA AMPLIT PERI AZIMU VELO AIN AR TRES W  DIS CAZ7
                                                                                
