 2008  925  946 46.5 L                                                         1
 ACTION:REG 11-07-20 13:55 OP:RALL STATUS:               ID:20080925094646     I
 2008-09-25-0946-46S.PLUR1_003                                                 6
 STAT SP IPHASW D HRMM SECON CODA AMPLIT PERI AZIMU VELO AIN AR TRES W  DIS CAZ7
                                                                                
