 2008  925  312 10.4 L                                                         1
 ACTION:REG 11-07-20 13:54 OP:RALL STATUS:               ID:20080925031210     I
 2008-09-25-0312-10S.PLUR1_003                                                 6
 STAT SP IPHASW D HRMM SECON CODA AMPLIT PERI AZIMU VELO AIN AR TRES W  DIS CAZ7
                                                                                
