 2008  925  045 54.8 L                                                         1
 ACTION:REG 11-07-20 13:51 OP:RALL STATUS:               ID:20080925004554     I
 2008-09-25-0045-54S.PLUR1_003                                                 6
 STAT SP IPHASW D HRMM SECON CODA AMPLIT PERI AZIMU VELO AIN AR TRES W  DIS CAZ7
                                                                                
