 2008  925 1619 12.9 R                                                         1
 ACTION:REG 11-07-20 13:55 OP:RALL STATUS:               ID:20080925161912     I
 2008-09-25-1619-12S.PLUR1_003                                                 6
 STAT SP IPHASW D HRMM SECON CODA AMPLIT PERI AZIMU VELO AIN AR TRES W  DIS CAZ7
                                                                                
