 2008  925 1957 16.1 L                                                         1
 ACTION:REG 11-07-20 13:55 OP:RALL STATUS:               ID:20080925195716     I
 2008-09-25-1957-16S.PLUR1_003                                                 6
 STAT SP IPHASW D HRMM SECON CODA AMPLIT PERI AZIMU VELO AIN AR TRES W  DIS CAZ7
                                                                                
