 2008  925 22 4 54.0 L                                                         1
 ACTION:REG 11-07-20 13:56 OP:RALL STATUS:               ID:20080925220453     I
 2008-09-25-2204-53S.PLUR1_003                                                 6
 STAT SP IPHASW D HRMM SECON CODA AMPLIT PERI AZIMU VELO AIN AR TRES W  DIS CAZ7
                                                                                
