 2008  925 2122 48.2 L                                                         1
 ACTION:REG 11-07-20 13:56 OP:RALL STATUS:               ID:20080925212248     I
 2008-09-25-2122-48S.PLUR1_003                                                 6
 STAT SP IPHASW D HRMM SECON CODA AMPLIT PERI AZIMU VELO AIN AR TRES W  DIS CAZ7
                                                                                
