 2008  926  8 2 49.0 L                                                         1
 ACTION:REG 11-07-20 13:59 OP:RALL STATUS:               ID:20080926080248     I
 2008-09-26-0802-48S.PLUR1_003                                                 6
 STAT SP IPHASW D HRMM SECON CODA AMPLIT PERI AZIMU VELO AIN AR TRES W  DIS CAZ7
                                                                                
