 2008  926  312  6.5 L                                                         1
 ACTION:REG 11-07-20 13:57 OP:RALL STATUS:               ID:20080926031206     I
 2008-09-26-0312-06S.PLUR1_003                                                 6
 STAT SP IPHASW D HRMM SECON CODA AMPLIT PERI AZIMU VELO AIN AR TRES W  DIS CAZ7
                                                                                
