 2008  926  558 18.5 L                                                         1
 ACTION:REG 11-07-20 13:59 OP:RALL STATUS:               ID:20080926055818     I
 2008-09-26-0558-18S.PLUR1_003                                                 6
 STAT SP IPHASW D HRMM SECON CODA AMPLIT PERI AZIMU VELO AIN AR TRES W  DIS CAZ7
                                                                                
