 2008  926  956 13.4 L                                                         1
 ACTION:REG 11-07-20 14:00 OP:RALL STATUS:               ID:20080926095613     I
 2008-09-26-0956-13S.PLUR1_003                                                 6
 STAT SP IPHASW D HRMM SECON CODA AMPLIT PERI AZIMU VELO AIN AR TRES W  DIS CAZ7
                                                                                
