 2008  926  240 49.5 L                                                         1
 ACTION:REG 11-07-20 13:57 OP:RALL STATUS:               ID:20080926024049     I
 2008-09-26-0240-49S.PLUR1_003                                                 6
 STAT SP IPHASW D HRMM SECON CODA AMPLIT PERI AZIMU VELO AIN AR TRES W  DIS CAZ7
                                                                                
