 2008  926  8 6 50.2 L                                                         1
 ACTION:REG 11-07-20 14:00 OP:RALL STATUS:               ID:20080926080650     I
 2008-09-26-0806-50S.PLUR1_003                                                 6
 STAT SP IPHASW D HRMM SECON CODA AMPLIT PERI AZIMU VELO AIN AR TRES W  DIS CAZ7
                                                                                
