 2008  926  043 37.2 L                                                         1
 ACTION:REG 11-07-20 13:56 OP:RALL STATUS:               ID:20080926004337     I
 2008-09-26-0043-37S.PLUR1_003                                                 6
 STAT SP IPHASW D HRMM SECON CODA AMPLIT PERI AZIMU VELO AIN AR TRES W  DIS CAZ7
                                                                                
