 2008  926  113  8.5 L                                                         1
 ACTION:REG 11-07-20 13:57 OP:RALL STATUS:               ID:20080926011308     I
 2008-09-26-0113-08S.PLUR1_003                                                 6
 STAT SP IPHASW D HRMM SECON CODA AMPLIT PERI AZIMU VELO AIN AR TRES W  DIS CAZ7
                                                                                
