 2008  926 1030 54.1 L                                                         1
 ACTION:REG 11-07-20 14:00 OP:RALL STATUS:               ID:20080926103054     I
 2008-09-26-1030-54S.PLUR1_003                                                 6
 STAT SP IPHASW D HRMM SECON CODA AMPLIT PERI AZIMU VELO AIN AR TRES W  DIS CAZ7
                                                                                
