 2008  910  1 2 25.7 L                       RAL                               1
 2008-09-10-0102-25S.PLUR1_003                                                 6
 STAT SP IPHASW D HRMM SECON CODA AMPLIT PERI AZIMU VELO AIN AR TRES W  DIS CAZ7
                                                                                
