 2008  4 8 0117  2.6 L  21.286 -98.856  5.0  RAL  2 1.2 1.0LRAL                1
 GAP=341        9.88      28.8   165.7999.9  0.4734E+03 -0.1003E+07 -0.1256E+05E
 ACTION:UPD 12-06-08 11:37 OP:RALL STATUS:               ID:20080408011702     I
 2008-04-08-0117-01S.PLUR1_009                                                 6
 STAT SP IPHASW D HRMM SECON CODA AMPLIT PERI AZIMU VELO AIN AR TRES W  DIS CAZ7
 LD1  SN IP        117 12.33                              91    2.8610 43.2 276 
 LD1  SZ E         117 12.66                   65.1 69.8    -30        43.2 276 
 LD1  SE IS        117 16.51                              91    2.0310 43.2 276 
 LD1  SZ  AML      117 17.21        28.5 0.30                          43.2 276 
 LD5  SZ E         117 10.00                   99.9  9.2     23        49.4 257 
 LD5  SN IP        117 10.16                              91   -0.2610 49.4 257 
 LD5  SE IS        117 11.50                              91   -4.6310 49.4 257 
 LD5  SZ  AML      117 12.74         6.5 0.16                          49.4 257 
                                                                                
