 2008  4 9 2040 17.6 L  21.506 -98.990  7.5  RAL  3 1.5 2.2LRAL                1
 GAP=335       24.29     140.5   161.9999.9  0.1995E+05 -0.2424E+06 -0.2000E+06E
 ACTION:UPD 12-06-08 11:37 OP:RALL STATUS:               ID:20080409204017     I
 2008-04-09-2040-05S.PLUR1_009                                                 6
 STAT SP IPHASW D HRMM SECON CODA AMPLIT PERI AZIMU VELO AIN AR TRES W  DIS CAZ7
 LD1  SZ E        2040 24.53                    8.9 19.8    -46        35.0 236 
 LD1  SN IP       2040 24.54                              96    1.0110 35.0 236 
 LD1  SE IS     D 2040 24.87                              96   -2.9910 35.0 236 
 LD1  SZ  AML     2040 25.47      9120.7 0.54                          35.0 236 
 LO8  SN IP       2040 27.66                              94    2.6010 44.7 211 
 LO8  SZ E        2040 27.72                  156.1  7.3    125        44.7 211 
 LO8  SE IS       2040 30.77                              94    0.2510 44.7 211 
 LO8  SZ  AML     2040 34.03        26.1 0.62                          44.7 211 
 LD5  SN IP       2040 26.93                              94    1.2110 49.2 224 
 LD5  SZ E        2040 26.95                    8.4 13.4    -35        49.2 224 
 LD5  SE IS       2040 29.59                              94   -2.0710 49.2 224 
 LD5  SZ  AML     2040 31.86        37.5 0.66                          49.2 224 
                                                                                
