 2008  412 1903 37.3 L  21.305 -98.965  9.0  RAL  4 1.1 1.1LRAL                1
 GAP=299       18.31      29.2    68.9 93.0  0.3119E+03 -0.5206E+03 -0.4193E+03E
 ACTION:UPD 12-06-08 11:37 OP:RALL STATUS:               ID:20080412190337     I
 2008-04-12-1903-33S.PLUR1_012                                                 6
 STAT SP IPHASW D HRMM SECON CODA AMPLIT PERI AZIMU VELO AIN AR TRES W  DIS CAZ7
 LO8  SN IP       19 3 44.86                              97    2.3010 30.4 238 
 LO8  SZ E        19 3 44.88                  151.9 14.1     94        30.4 238 
 LO8  SE IS       19 3 47.42                              97    0.9910 30.4 238 
 LO8  SZ  AML     19 3 47.70        12.0 0.18                          30.4 238 
 LD1  SZ E        19 3 42.89                   74.8 17.8    -19        31.8 275 
 LD1  SN IP       19 3 42.90                              95    0.1510 31.8 275 
 LD1  SE IS       19 3 43.84                              95   -2.9110 31.8 275 
 LD1  SZ  AML     19 3 44.48       417.7 0.18                          31.8 275 
 LD5  SZ E        19 3 44.33                   37.1 12.9    -32        39.2 250 
 LD5  SN IP       19 3 44.43                              63    0.5610 39.2 250 
 LD5  SE IS       19 3 46.47                              63   -2.2310 39.2 250 
 LD5  SZ  AML     19 3 47.27         3.2 0.30                          39.2 250 
 LD4  SN IP       19 3 45.47                              63    1.3410 40.8 299 
 LD4  SZ E        19 3 45.57                  178.0  7.8     59        40.8 299 
 LD4  SE IS       19 3 48.95                              63   -0.2010 40.8 299 
 LD4  SZ  AML     19 3 50.35        13.1 0.20                          40.8 299 
                                                                                
