 2008  412 1603 51.7 L  21.239 -99.042  7.8  RAL  4 1.0 0.7LRAL                1
 GAP=289       10.81      14.6    36.9233.3  0.1957E+03 -0.3033E+04 -0.1034E+04E
 ACTION:UPD 12-06-08 11:37 OP:RALL STATUS:               ID:20080412160351     I
 2008-04-12-1603-45S.PLUR1_012                                                 6
 STAT SP IPHASW D HRMM SECON CODA AMPLIT PERI AZIMU VELO AIN AR TRES W  DIS CAZ7
 LO8  SZ E        16 3 55.49                   75.4  7.2     12        19.8 244 
 LO8  SN IP       16 3 55.52                             107    0.1410 19.8 244 
 LO8  SE IS       16 3 56.60                             107   -1.4510 19.8 244 
 LO8  SZ  AML     16 3 57.53        14.0 0.15                          19.8 244 
 LD1  SN IP       16 3 58.03                             101    1.7910 25.8 293 
 LD1  SZ E        16 3 58.05                   54.3 32.3    -57        25.8 293 
 LD1  SE IS       16 4  0.87                             101    1.3310 25.8 293 
 LD1  SZ  AML     16 4  1.56        24.0 0.42                          25.8 293 
 LD5  SZ E        16 3 55.51                   96.5  9.9     18        29.5 259 
 LD5  SN IP       16 3 55.52                              99   -1.2910 29.5 259 
 LD5  SE IS       16 3 56.63                              99   -3.9010 29.5 259 
 LD5  SZ  AML     16 3 56.88         8.8 0.34                          29.5 259 
 LD4  SZ IP       16 3 59.32                              96    1.0710 38.8 314 
 LD4  SN IP       16 4  0.45                              63           38.8 314 
 LD4  SE IS       16 4  5.32                              96    2.3010 38.8 314 
 LD4  SZ  AML     16 4  8.14         4.6 0.34                          38.8 314 
                                                                                
