 2008  417 2255  6.1 L  21.894 -99.272 10.0  RAL  2 0.5 1.7LRAL                1
 GAP=355        9.05     130.1    32.6862.5  0.1143E+04 -0.6783E+04 -0.8850E+05E
 ACTION:UPD 12-06-08 11:37 OP:RALL STATUS:               ID:20080417225506     I
 2008-04-17-2255-03S.PLUR1_006                                                 6
 STAT SP IPHASW D HRMM SECON CODA AMPLIT PERI AZIMU VELO AIN AR TRES W  DIS CAZ7
 LD4  SN IP       2255 13.55                              98   -0.1410 45.6 185 
 LD4  SZ E        2255 13.57                   30.7 13.8     26        45.6 185 
 LD4  SE IS       2255 19.34                              98    0.0810 45.6 185 
 LD1  SN IP       2255 15.97                              96   -0.3210 62.6 180 
 LD1  SZ E        2255 16.05                  324.0 12.4    -35        62.6 180 
 LD1  SE IS       2255 24.15                              96    0.3910 62.6 180 
 LD1  SZ  AML     2255 28.03        52.9 0.54                          62.6 180 
                                                                                
