 2008  419 1110 43.4 L  21.185 -99.283  0.0  RAL  2 0.2 0.4LRAL                1
 GAP=267        1.31       0.4     1.9 26.5 -0.9283E-01 -0.1711E+02 -0.2786E+00E
 ACTION:UPD 12-06-08 11:37 OP:RALL STATUS:               ID:20080419111043     I
 2008-04-19-1110-33S.PLUR1_006                                                 6
 STAT SP IPHASW D HRMM SECON CODA AMPLIT PERI AZIMU VELO AIN AR TRES W  DIS CAZ7
 LD5  SZ E        1110 43.61                   91.3  9.8      0        3.84 272 
 LD5  SN IP       1110 43.61                             105   -0.5210 3.84 272 
 LD5  SE IS       1110 44.67                             105    0.0310 3.84 272 
 LD5  SZ  AML     1110 44.93        11.6 0.30                          3.84 272 
 LD1  SN IP       1110 45.72                              94   -0.5110 16.0   5 
 LD1  SZ E        1110 45.79                  184.2 11.3      0        16.0   5 
 LD1  SE IS       1110 49.28                              94    1.0010 16.0   5 
 LD1  SZ  AML     1110 50.51        30.3 0.32                          16.0   5 
                                                                                
