 2008  420 2031 38.3 L  22.535 -99.645  1.7  RAL  2 0.2 2.3LRAL                1
 GAP=360        3.18     999.9   999.9999.9 -0.1402E+08 -0.2825E+08  0.8845E+08E
 ACTION:UPD 12-06-08 11:37 OP:RALL STATUS:               ID:20080420203138     I
 2008-04-20-2031-48S.PLUR1_006                                                 6
 STAT SP IPHASW D HRMM SECON CODA AMPLIT PERI AZIMU VELO AIN AR TRES W  DIS CAZ7
 LD4  SN IP       2031 57.81                              63   -0.0710  121 163 
 LD4  SZ E        2031 57.86                  353.4  9.3     10         121 163 
 LD4  SE IS       2032 11.72                              63   -0.4910  121 163 
 LD4  SZ  AML     2032 17.19        66.1 0.24                           121 163 
 LD1  SZ E        2032  0.63                  332.5  6.9    -10         139 164 
 LD1  SN IP       2032  0.68                              63    0.0810  139 164 
 LD1  SE IS       2032 17.38                              63    0.4810  139 164 
 LD1  SZ  AML     2032 18.01       113.7 0.34                           139 164 
                                                                                
