 2008  421 0803 26.0 L  21.725 -99.394 10.0  RAL  1 0.0 2.1LRAL                1
 GAP=360        0.30       3.6     1.7  0.0 -0.3635E+01 -0.2825E+08  0.8845E+08E
 ACTION:UPD 12-06-08 11:37 OP:RALL STATUS:               ID:20080421080326     I
 2008-04-21-0803-24S.PLUR1_006                                                 6
 STAT SP IPHASW D HRMM SECON CODA AMPLIT PERI AZIMU VELO AIN AR TRES W  DIS CAZ7
 LD1  SN IP        8 3 33.64                              98    0.0110 45.6 164 
 LD1  SZ E         8 3 33.70                  343.8  7.0      0        45.6 164 
 LD1  SE IS        8 3 39.19                              98   -0.0110 45.6 164 
 LD1  SZ  AML      8 3 41.73       151.8 0.48                          45.6 164 
                                                                                
