 2008  424 1933 37.1 L  21.145 -98.772  2.6  RAL  2 0.2 1.3LRAL                1
 GAP=348        1.33      20.4    43.1 89.1 -0.8496E+03  0.3705E+04 -0.1722E+04E
 ACTION:UPD 12-06-08 11:37 OP:RALL STATUS:               ID:20080424193337     I
 2008-04-24-1933-30S.PLUR1_009                                                 6
 STAT SP IPHASW D HRMM SECON CODA AMPLIT PERI AZIMU VELO AIN AR TRES W  DIS CAZ7
 LD1  SN IP       1933 46.09                              63   -0.2810 55.6 292 
 LD1  SZ E        1933 46.09                  108.8 36.5     -2        55.6 292 
 LD1  SE IS       1933 52.39                              63   -0.7710 55.6 292 
 LD1  SZ  AML     1933 52.88        23.4 0.24                          55.6 292 
 LD4  SN IP       1933 48.51                              63    0.3410 67.1 304 
 LD4  SZ E        1933 48.51                  124.8  9.2      1        67.1 304 
 LD4  SE IS       1933 56.99                              63    0.7110 67.1 304 
 LD4  SZ  AML     1933 59.54        15.2 0.60                          67.1 304 
                                                                                
