 2008  424 2030 24.4 L  21.150 -99.207 18.0  RAL  3 0.7 0.8LRAL                1
 GAP=307       10.34       5.9    12.7 75.6  0.4497E+02 -0.2244E+02 -0.1371E+02E
 ACTION:UPD 12-06-08 11:37 OP:RALL STATUS:               ID:20080424203024     I
 2008-04-24-2030-18S.PLUR1_009                                                 6
 STAT SP IPHASW D HRMM SECON CODA AMPLIT PERI AZIMU VELO AIN AR TRES W  DIS CAZ7
 LO8  SZ E        2030 29.06                  157.2  8.2      6        1.24 331 
 LO8  SN IP       2030 29.11                             179    1.5510 1.24 331 
 LO8  SE IS       2030 30.70                             179    0.8510 1.24 331 
 LO8  SZ  AML     2030 31.54         6.8 0.22                          1.24 331 
 LD5  SZ E        2030 28.38                   52.8 10.0    -55        12.4 289 
 LD5  SN IP       2030 28.39                             147    0.3010 12.4 289 
 LD5  SE IS       2030 29.64                             147   -1.1210 12.4 289 
 LD5  SZ  AML     2030 29.88        15.7 0.16                          12.4 289 
 LD1  SZ E        2030 28.84                  175.7 15.2     14        20.9 342 
 LD1  SN IP       2030 28.89                             132   -0.0910 20.9 342 
 LD1  SE IS       2030 30.82                             132   -1.4810 20.9 342 
 LD1  SZ  AML     2030 30.87        54.3 0.10                          20.9 342 
                                                                                
