 2008  425 1929  8.4 L  21.424 -99.392 26.8  RAL  2 0.1 1.2LRAL                1
 GAP=283        0.58       0.6     0.9  6.1  0.2021E+00  0.2838E+00  0.1334E+00E
 ACTION:UPD 12-06-08 11:37 OP:RALL STATUS:               ID:20080425192908     I
 2008-04-25-1929-03S.PLUR1_009                                                 6
 STAT SP IPHASW D HRMM SECON CODA AMPLIT PERI AZIMU VELO AIN AR TRES W  DIS CAZ7
 LD4  SZ E        1929 13.20                  232.7 18.4      0        10.9  52 
 LD4  SN IP       1929 13.25                             157    0.1610 10.9  52 
 LD4  SE IS       1929 16.80                             157    0.2810 10.9  52 
 LD4  SZ  AML     1929 17.20        22.1 0.46                          10.9  52 
 LD1  SZ E        1929 13.35                  309.9 12.0      0        16.4 130 
 LD1  SN IP       1929 13.37                             147   -0.0810 16.4 130 
 LD1  SE IS       1929 16.78                             147   -0.3710 16.4 130 
 LD1  SZ  AML     1929 18.81        47.2 0.24                          16.4 130 
                                                                                
