 2008  428 0621 10.9 L  21.506 -99.330 10.0  RAL  1 0.1 0.8LRAL                1
 GAP=360        0.41      12.8    12.0  0.0 -0.1527E+03  0.2838E+00  0.1334E+00E
 ACTION:UPD 12-06-08 11:37 OP:RALL STATUS:               ID:20080428062110     I
 2008-04-28-0621-03S.PLUR1_006                                                 6
 STAT SP IPHASW D HRMM SECON CODA AMPLIT PERI AZIMU VELO AIN AR TRES W  DIS CAZ7
 LD4  SZ E         621 13.00                  318.9  9.8      0        3.29 139 
 LD4  SN IP        621 13.01                             162    0.1910 3.29 139 
 LD4  SE IS        621 14.03                             162   -0.1910 3.29 139 
 LD4  SZ  AML      621 14.47        30.7 0.24                          3.29 139 
                                                                                
