 2008  428 0549 40.7 L  21.185 -99.334 10.0  RAL  1 0.1-0.5LRAL                1
 GAP=360        1.23     999.9    29.1  0.0 -0.3368E+05  0.2838E+00  0.1334E+00E
 ACTION:UPD 12-06-08 11:37 OP:RALL STATUS:               ID:20080428054940     I
 2008-04-28-0549-33S.PLUR1_006                                                 6
 STAT SP IPHASW D HRMM SECON CODA AMPLIT PERI AZIMU VELO AIN AR TRES W  DIS CAZ7
 LD5  SZ E         549 42.63                  268.7  9.2      6        1.41  83 
 LD5  SN IP        549 42.67                             172    0.1510 1.41  83 
 LD5  SE IS        549 43.71                             172   -0.1510 1.41  83 
 LD5  SZ  AML      549 44.30         1.6 0.34                          1.41  83 
                                                                                
