 2008  428 2039 36.6 L  21.635 -99.414  2.8  RAL  2 0.1 1.1LRAL                1
 GAP=351        1.84      12.4     8.4 11.9 -0.9365E+02  0.1005E+02 -0.1165E+02E
 ACTION:UPD 12-06-08 11:37 OP:RALL STATUS:               ID:20080428203936     I
 2008-04-28-2039-31S.PLUR1_006                                                 6
 STAT SP IPHASW D HRMM SECON CODA AMPLIT PERI AZIMU VELO AIN AR TRES W  DIS CAZ7
 LD4  SZ E        2039 40.54                  330.8  8.5      4        20.0 147 
 LD4  SN IP       2039 40.56                             100    0.4210 20.0 147 
 LD4  SE IS       2039 42.32                             100   -0.4210 20.0 147 
 LD4  SZ  AML     2039 44.89        47.6 0.60                          20.0 147 
 LD1  SN IP       2039 43.01                              63    0.0310 37.0 156 
 LD1  SZ E        2039 43.07                  328.8  8.1     -6        37.0 156 
 LD1  SE IS       2039 47.62                              63   -0.0410 37.0 156 
 LD1  SZ  AML     2039 49.57        16.2 0.24                          37.0 156 
                                                                                
