 2008  3 1 2322 16.6 L  21.458 -99.456 26.8  RAL  2 1.1 0.3LRAL                1
 GAP=268       14.26      31.1    25.8122.8  0.6885E+03 -0.1110E+04 -0.1594E+04E
 ACTION:UPD 12-06-08 11:37 OP:RALL STATUS:               ID:20080301232216     I
 2008-03-01-2322-14S.PLUR1_006                                                 6
 STAT SP IPHASW D HRMM SECON CODA AMPLIT PERI AZIMU VELO AIN AR TRES W  DIS CAZ7
 LD3  SN IP       2322 23.44                             108    2.4410 0.25  63 
 LD3  SZ E        2322 23.62                  234.6 22.5     -7        0.25  63 
 LD3  SE IS       2322 24.49                             108    0.2810 0.25  63 
 LD3  SZ  AML     2322 24.61         7.1 0.22                          0.25  63 
 LD5  SN IP       2322 23.89                             144    0.4910 33.2 155 
 LD5  SZ E        2322 24.14                   41.2 11.4     66        33.2 155 
 LD5  SE IS       2322 25.16                             144   -3.2010 33.2 155 
 LD5  SZ  AML     2322 26.22         1.5 0.18                          33.2 155 
                                                                                
