 2008  3 2 0913 56.0 L  21.184 -99.316 10.8  RAL  2 0.7-0.1LRAL                1
 GAP=331        4.95       6.0    14.2 30.0  0.8067E+02  0.5214E+01 -0.8004E+00E
 ACTION:UPD 12-06-08 11:37 OP:RALL STATUS:               ID:20080302091356     I
 2008-03-02-0913-51S.PLUR1_006                                                 6
 STAT SP IPHASW D HRMM SECON CODA AMPLIT PERI AZIMU VELO AIN AR TRES W  DIS CAZ7
 LD5  SZ E         913 59.80                  110.7 11.2    -14        0.52 306 
 LD5  SN IP        913 59.81                             179    1.9010 0.52 306 
 LD5  SE IS        914  0.91                             179    1.5810 0.52 306 
 LD5  SZ  AML      914  1.45         1.7 0.12                          0.52 306 
 LD3  SN IP     D  914  1.03                             109   -0.7710 33.7 335 
 LD3  SZ E         914  1.07                  157.9 10.0      3        33.7 335 
 LD3  SE IS        914  3.35                             109   -2.7110 33.7 335 
 LD3  SZ  AML      914  3.60         2.9 0.20                          33.7 335 
                                                                                
