 2008  3 2 0503 15.5 L  21.029 -99.652  5.1  RAL  2 0.8 0.6LRAL                1
 GAP=320       10.86      62.9    75.0246.3  0.3841E+04 -0.1163E+05 -0.9713E+04E
 ACTION:UPD 12-06-08 11:37 OP:RALL STATUS:               ID:20080302050315     I
 2008-03-02-0503-16S.PLUR1_006                                                 6
 STAT SP IPHASW D HRMM SECON CODA AMPLIT PERI AZIMU VELO AIN AR TRES W  DIS CAZ7
 LD5  SZ E         5 3 23.01                  202.7 15.8    -39        38.6  63 
 LD5  SN IP        5 3 23.07                              63    1.4110 38.6  63 
 LD5  SE IS        5 3 25.44                              63   -0.7110 38.6  63 
 LD5  SZ  AML      5 3 26.41         5.6 0.48                          38.6  63 
 LD3  SZ E         5 3 24.53                  235.3  9.3     32        51.9  23 
 LD3  SN IP        5 3 24.77                              63    1.0410 51.9  23 
 LD3  SE IS        5 3 27.99                              63   -1.7410 51.9  23 
 LD3  SZ  AML      5 3 28.78         5.2 0.22                          51.9  23 
                                                                                
