 2008  3 9 0219 40.9 L  21.019 -99.247  0.1  RAL  2 0.4 0.1LRAL                1
 GAP=349        4.28      45.7    26.5999.9 -0.1177E+04 -0.2664E+05  0.4686E+05E
 ACTION:UPD 12-06-08 11:37 OP:RALL STATUS:               ID:20080309021940     I
 2008-03-09-0219-35S.PLUR1_006                                                 6
 STAT SP IPHASW D HRMM SECON CODA AMPLIT PERI AZIMU VELO AIN AR TRES W  DIS CAZ7
 LD2  SZ E         219 44.51                  161.6  8.8     15        19.5 327 
 LD2  SE IS        219 45.36                              94   -1.46 0 19.5 327 
 LD2  SN IP        219 45.37                              94    1.0410 19.5 327 
 LD2  SZ  AML      219 46.45         4.5 0.40                          19.5 327 
 LD5  SZ E         219 44.71                  148.8 16.7     -8        20.0 338 
 LD5  SN IP        219 44.71                              93    0.2910 20.0 338 
 LD5  SE IS        219 45.66                              93   -1.3310 20.0 338 
 LD5  SZ  AML      219 46.83         3.3 0.58                          20.0 338 
                                                                                
