 2008  311 2026 35.5 L  21.313 -99.348 10.0  RAL  2 0.8 0.4LRAL                1
 GAP=203       13.73      36.3    18.9252.7 -0.3918E+03  0.1601E+04 -0.4553E+04E
 ACTION:UPD 12-06-08 11:37 OP:RALL STATUS:               ID:20080311202635     I
 2008-03-11-2026-30S.PLUR1_006                                                 6
 STAT SP IPHASW D HRMM SECON CODA AMPLIT PERI AZIMU VELO AIN AR TRES W  DIS CAZ7
 LD5  SZ E        2026 39.52                   27.0  7.6     39        14.3 168 
 LD5  SN IP       2026 39.52                             123    0.9910 14.3 168 
 LD5  SE IS       2026 40.52                             123   -0.1910 14.3 168 
 LD5  SZ  AML     2026 41.59         8.5 0.56                          14.3 168 
 LD3  SZ E        2026 39.65                  200.2 12.4     54        19.5 326 
 LD3  SN IP       2026 39.65                             112    0.4010 19.5 326 
 LD3  SE IS       2026 40.77                             112   -1.2010 19.5 326 
 LD3  SZ  AML     2026 41.32         6.6 0.07                          19.5 326 
                                                                                
