 2008  312 1446 13.9 L  21.753 -98.923  5.5  RAL  3 1.2 1.9LRAL                1
 GAP=334       19.90     169.7   204.6999.9  0.2965E+05 -0.5007E+07 -0.3927E+07E
 ACTION:UPD 12-06-08 11:37 OP:RALL STATUS:               ID:20080312144613     I
 2008-03-12-1446-16S.PLUR1_009                                                 6
 STAT SP IPHASW D HRMM SECON CODA AMPLIT PERI AZIMU VELO AIN AR TRES W  DIS CAZ7
 LD3  SN IP       1446 25.27                              91    0.9710 63.9 239 
 LD3  SZ E        1446 25.31                    0.9 13.5    -57        63.9 239 
 LD3  SE IS       1446 31.99                              91    0.0910 63.9 239 
 LD3  SZ  AML     1446 34.51        61.6 0.46                          63.9 239 
 LD5  SZ E        1446 26.26                  354.4  8.5     39        75.0 213 
 LD5  SN IP       1446 26.40                              90    0.3810 75.0 213 
 LD5  SE IS       1446 34.28                              90   -0.6010 75.0 213 
 LD5  SZ  AML     1446 35.45        63.0 0.50                          75.0 213 
 LD2  SZ E        1446 27.15                  123.9 25.5     90        78.7 214 
 LD2  SN IP       1446 28.25                              90    1.6510 78.7 214 
 LD2  SE IS       1446 33.38                              90   -2.5010 78.7 214 
 LD2  SZ  AML     1446 38.48        88.5 0.48                          78.7 214 
                                                                                
