 2008  312 1450 22.7 L  21.861 -99.196 10.0  RAL  2 0.9 1.2LRAL                1
 GAP=339       11.88     130.2    85.1999.9  0.8709E+04 -0.6889E+05 -0.1082E+06E
 ACTION:UPD 12-06-08 11:37 OP:RALL STATUS:               ID:20080312145022     I
 2008-03-12-1450-24S.PLUR1_009                                                 6
 STAT SP IPHASW D HRMM SECON CODA AMPLIT PERI AZIMU VELO AIN AR TRES W  DIS CAZ7
 LD3  SZ E        1450 32.76                  335.3 12.6     56        51.8 211 
 LD3  SN IP       1450 33.02                              97    1.7210 51.8 211 
 LD3  SE IS       1450 38.88                              97    1.3110 51.8 211 
 LD3  SZ  AML     1450 41.77        16.2 0.50                          51.8 211 
 LD5  SN IP       1450 34.25                              94   -0.7310 75.8 190 
 LD5  SZ E      D 1450 34.85                    4.5  8.1     -4        75.8 190 
 LD5  SE IS       1450 41.65                              94   -2.3010 75.8 190 
 LD5  SZ  AML     1450 43.36        11.8 0.48                          75.8 190 
                                                                                
