 2008  312 1222  8.0 L  21.799 -99.854100.0  RAL  3 0.6 2.3LRAL                1
 GAP=349        8.56     104.3   109.9136.1 -0.1042E+05  0.9671E+04 -0.9150E+04E
 ACTION:UPD 12-06-08 11:37 OP:RALL STATUS:               ID:20080312122208     I
 2008-03-12-1222-14S.PLUR1_009                                                 6
 STAT SP IPHASW D HRMM SECON CODA AMPLIT PERI AZIMU VELO AIN AR TRES W  DIS CAZ7
 LD3  SN IP       1222 23.34                             148    0.1810 55.9 132 
 LD3  SZ E        1222 23.55                  319.3 13.9      7        55.9 132 
 LD3  SE IS       1222 34.36                             148    0.1210 55.9 132 
 LD3  SZ  AML     1222 36.76        68.1 0.46                          55.9 132 
 LD2  SZ E        1222 25.31                  285.8 10.8    -37        87.4 143 
 LD2  SN IP       1222 26.59                             135    1.1110 87.4 143 
 LD2  SE IS     D 1222 39.11                             135    0.8610 87.4 143 
 LD2  SZ  AML     1222 40.87        86.7 0.64                          87.4 143 
 LD5  SZ E        1222 24.69                  349.9 10.1     29        87.5 141 
 LD5  SN IP       1222 25.01                             135   -0.4610 87.5 141 
 LD5  SE IS       1222 36.43                             135   -1.8010 87.5 141 
 LD5  SZ  AML     1222 38.34        88.1 0.44                          87.5 141 
                                                                                
