 2008  315 1823 23.0 L  20.982 -99.688  5.1  RAL  2 1.4 1.0LRAL                1
 GAP=325       17.97     128.3   150.3455.1  0.1655E+05 -0.4874E+05 -0.4163E+05E
 ACTION:UPD 12-06-08 11:37 OP:RALL STATUS:               ID:20080315182323     I
 2008-03-15-1823-23S.PLUR1_006                                                 6
 STAT SP IPHASW D HRMM SECON CODA AMPLIT PERI AZIMU VELO AIN AR TRES W  DIS CAZ7
 LD2  SN IP       1823 32.37                              63    2.9510 40.6  60 
 LD2  SZ E        1823 32.41                  183.9  9.7    -55        40.6  60 
 LD2  SE IS       1823 34.16                              63    0.0310 40.6  60 
 LD2  SZ  AML     1823 36.02        12.6 0.32                          40.6  60 
 LD3  SZ E        1823 32.97                  268.0 15.0     63        58.2  25 
 LD3  SN IP       1823 33.03                              63    0.8710 58.2  25 
 LD3  SE IS       1823 35.02                              63   -3.8510 58.2  25 
 LD3  SZ  AML     1823 35.76        12.0 0.20                          58.2  25 
                                                                                
