 2008  320 1455 13.2 L  21.269 -99.395  3.4  RAL  3 0.7 0.4LRAL                1
 GAP=241       12.12      12.1    14.2887.0 -0.1926E+02  0.2054E+04 -0.2655E+04E
 ACTION:UPD 12-06-08 11:37 OP:RALL STATUS:               ID:20080320145513     I
 2008-03-20-1455-05S.PLUR1_009                                                 6
 STAT SP IPHASW D HRMM SECON CODA AMPLIT PERI AZIMU VELO AIN AR TRES W  DIS CAZ7
 LD5  SZ E        1455 14.85                  307.2 14.3    -11        12.0 139 
 LD5  SN IP       1455 14.90                              95   -0.5110 12.0 139 
 LD5  SE IS       1455 16.66                              95   -0.3810 12.0 139 
 LD5  SZ  AML     1455 16.91         3.1 0.22                          12.0 139 
 LD1  SN IP       1455 15.66                              94   -0.1710 14.6  63 
 LD1  SZ E        1455 15.69                  279.6  7.6     37        14.6  63 
 LD1  SE IS       1455 18.07                              94    0.3010 14.6  63 
 LD1  SZ  AML     1455 18.78        29.2 0.44                          14.6  63 
 LD4  SZ E        1455 17.50                  142.6  8.5    -57        25.4  21 
 LD4  SN IP       1455 17.69                              93    0.0110 25.4  21 
 LD4  SE IS       1455 21.74                              93    0.7610 25.4  21 
 LD4  SZ  AML     1455 22.56         7.3 0.34                          25.4  21 
                                                                                
