 2008  322 1415 37.5 L  21.223 -99.300 10.0  RAL  1 0.0 0.6LRAL                1
 GAP=360        0.31       8.6     4.8  0.0  0.4101E+02  0.2054E+04 -0.2655E+04E
 ACTION:UPD 12-06-08 11:37 OP:RALL STATUS:               ID:20080322141537     I
 2008-03-22-1415-30S.PLUR1_009                                                 6
 STAT SP IPHASW D HRMM SECON CODA AMPLIT PERI AZIMU VELO AIN AR TRES W  DIS CAZ7
 LD5  SN IP       1415 39.53                             156    0.0710 4.53 207 
 LD5  SZ E        1415 39.80                   27.2  8.7      0        4.53 207 
 LD5  SE IS       1415 40.83                             156   -0.0710 4.53 207 
 LD5  SZ  AML     1415 41.89        22.2 0.56                          4.53 207 
                                                                                
