 2009  8 2 1818 16.0 L  21.340 -99.258  0.0  RAL  2 0.2 0.8LRAL                1
 GAP=329        1.44       3.4     3.4157.8 -0.1060E+02 -0.1906E+03  0.1909E+03E
 ACTION:UPD 12-06-08 11:37 OP:RALL STATUS:               ID:20090802181816     I
 2009-08-02-1818-12S.PLUR1_006                                                 6
 STAT SP IPHASW D HRMM SECON CODA AMPLIT PERI AZIMU VELO AIN AR TRES W  DIS CAZ7
 LT7  SZ E        1818 17.80                  132.9  5.1      2        9.30 311 
 LT7  SN IP       1818 17.80                              95    0.1210 9.30 311 
 LT7  SE IS       1818 18.03                              95   -0.8410 9.30 311 
 LT7  SZ  AML     1818 18.15        81.6 0.12                          9.30 311 
 LA4  SN IP       1818 19.50                              94    0.5310 16.7 342 
 LA4  SZ E        1818 19.52                  157.5  6.2     -3        16.7 342 
 LA4  SE IS       1818 21.30                              94    0.1910 16.7 342 
 LA4  SZ  AML     1818 23.03        10.8 0.60                          16.7 342 
                                                                                
