 2009  8 3 0133 33.3 L  21.220 -98.829 10.0  RAL  1 0.0 2.0LRAL                1
 GAP=360        0.30       1.3     4.0  0.0 -0.1883E+01 -0.1906E+03  0.1909E+03E
 ACTION:UPD 12-06-08 11:37 OP:RALL STATUS:               ID:20090803013333     I
 2009-08-03-0133-31S.PLUR1_003                                                 6
 STAT SP IPHASW D HRMM SECON CODA AMPLIT PERI AZIMU VELO AIN AR TRES W  DIS CAZ7
 LG3  SZ E         133 40.75                   97.9 12.3      0        44.4 278 
 LG3  SN IP        133 40.77                              99    0.0110 44.4 278 
 LG3  SE IS        133 46.19                              99   -0.0110 44.4 278 
 LG3  SZ  AML      133 46.97       123.2 0.42                          44.4 278 
                                                                                
