 2009  8 3 0212 33.8 L  21.144 -98.846 10.0  RAL  1 0.0 0.9LRAL                1
 GAP=360        0.30       1.6     3.8  0.0 -0.4205E+01 -0.1906E+03  0.1909E+03E
 ACTION:UPD 12-06-08 11:37 OP:RALL STATUS:               ID:20090803021233     I
 2009-08-03-0212-32S.PLUR1_003                                                 6
 STAT SP IPHASW D HRMM SECON CODA AMPLIT PERI AZIMU VELO AIN AR TRES W  DIS CAZ7
 LG3  SN IP        212 41.34                              99    0.0110 44.7 289 
 LG3  SZ E         212 41.34                  109.0 10.8      0        44.7 289 
 LG3  SE IS        212 46.79                              99   -0.0110 44.7 289 
 LG3  SZ  AML      212 47.53        10.3 0.70                          44.7 289 
                                                                                
