 2009  8 4 0328  5.1 L  21.219 -99.583 10.0  RAL  1 0.0 1.8LRAL                1
 GAP=360        0.30       1.1     4.0  0.0  0.2569E+01 -0.1906E+03  0.1909E+03E
 ACTION:UPD 12-06-08 11:37 OP:RALL STATUS:               ID:20090804032805     I
 2009-08-04-0328-01S.PLUR1_003                                                 6
 STAT SP IPHASW D HRMM SECON CODA AMPLIT PERI AZIMU VELO AIN AR TRES W  DIS CAZ7
 LG3  SZ E         328 10.85                  259.7 12.2      0        34.8  80 
 LG3  SN IP        328 11.05                             102    0.0110 34.8  80 
 LG3  SE IS        328 15.40                             102   -0.0110 34.8  80 
 LG3  SZ  AML      328 16.45        95.5 0.32                          34.8  80 
                                                                                
