 2009  8 4 0345 45.0 L  21.179 -98.841 10.0  RAL  1 0.0 1.6LRAL                1
 GAP=360        0.30       1.4     3.9  0.0 -0.3227E+01 -0.1906E+03  0.1909E+03E
 ACTION:UPD 12-06-08 11:37 OP:RALL STATUS:               ID:20090804034545     I
 2009-08-04-0345-42S.PLUR1_003                                                 6
 STAT SP IPHASW D HRMM SECON CODA AMPLIT PERI AZIMU VELO AIN AR TRES W  DIS CAZ7
 LG3  SE IS        345 57.75                              99   -0.0110 44.0 284 
 LG3  SN IP        345 52.19                              99           44.0 284 
 LG3  SZ E         345 52.31                  104.0 14.0      0        44.0 284 
 LG3  SZ  AML      345 58.59        55.5 0.38                          44.0 284 
                                                                                
