 2009  8 5 0307 30.2 L  21.250 -99.240 10.0  RAL  1 0.1 0.0LRAL                1
 GAP=360        0.39      15.5     7.2  0.0 -0.1115E+03 -0.1906E+03  0.1909E+03E
 ACTION:UPD 12-06-08 11:37 OP:RALL STATUS:               ID:20090805030730     I
 2009-08-05-0307-24S.PLUR1_003                                                 6
 STAT SP IPHASW D HRMM SECON CODA AMPLIT PERI AZIMU VELO AIN AR TRES W  DIS CAZ7
 LG3  SN IP        3 7 32.26                             163    0.1710 3.13 336 
 LG3  SZ E         3 7 32.27                  156.5  9.2      0        3.13 336 
 LG3  SE IS        3 7 33.32                             163   -0.1710 3.13 336 
 LG3  SZ  AML      3 7 33.47         5.4 0.32                          3.13 336 
                                                                                
