 2009  8 6 0632 42.4 R  20.674-100.371 10.0  RAL  1 0.0 1.5LRAL                1
 GAP=360        0.30       3.8     4.7  0.0  0.4728E+01 -0.1906E+03  0.1909E+03E
 ACTION:UPD 12-06-08 11:37 OP:RALL STATUS:               ID:20090806063242     I
 2009-08-06-0632-55S.PLUR1_003                                                 6
 STAT SP IPHASW D HRMM SECON CODA AMPLIT PERI AZIMU VELO AIN AR TRES W  DIS CAZ7
 LG3  SN IP        633  3.48                              52    0.0110  134  60 
 LG3  SZ E         633  3.56                  240.4 22.4      0         134  60 
 LG3  SE IS        633 18.87                              52   -0.0110  134  60 
 LG3  SZ  AML      633 22.19        14.0 0.26                           134  60 
                                                                                
