 2009  8 6 0512 16.8 R  20.659-100.437 10.0  RAL  1 0.0 2.0LRAL                1
 GAP=360        0.30       3.9     4.8  0.0  0.4087E+01 -0.1906E+03  0.1909E+03E
 ACTION:UPD 12-06-08 11:37 OP:RALL STATUS:               ID:20090806051216     I
 2009-08-06-0512-31S.PLUR1_003                                                 6
 STAT SP IPHASW D HRMM SECON CODA AMPLIT PERI AZIMU VELO AIN AR TRES W  DIS CAZ7
 LG3  SN IP        512 38.77                              52    0.0110  141  61 
 LG3  SZ E         512 38.86                  241.2 23.7      0         141  61 
 LG3  SE IS        512 54.76                              52   -0.0110  141  61 
 LG3  SZ  AML      512 59.16        35.2 0.46                           141  61 
                                                                                
