 2009  8 6 1753  7.1 L  21.380 -99.319 10.0  RAL  1 0.1-0.3LRAL                1
 GAP=360        0.50      31.6    14.5  0.0 -0.4593E+03 -0.1906E+03  0.1909E+03E
 ACTION:UPD 12-06-08 11:37 OP:RALL STATUS:               ID:20090806175307     I
 2009-08-06-1753-05S.PLUR1_003                                                 6
 STAT SP IPHASW D HRMM SECON CODA AMPLIT PERI AZIMU VELO AIN AR TRES W  DIS CAZ7
 LT7  SZ E        1753  9.17                  156.8 18.9      0        1.86 337 
 LT7  SN IP       1753  9.21                             170    0.2710 1.86 337 
 LT7  SE IS       1753  9.98                             170   -0.2710 1.86 337 
 LT7  SZ  AML     1753 10.17         3.1 0.20                          1.86 337 
                                                                                
