 2009  8 6 2120 46.2 L  21.069 -99.124 10.0  RAL  1 0.0-0.2LRAL                1
 GAP=360        0.30       3.4     3.3  0.0 -0.1105E+02 -0.1906E+03  0.1909E+03E
 ACTION:UPD 12-06-08 11:37 OP:RALL STATUS:               ID:20090806212046     I
 2009-08-06-2120-41S.PLUR1_003                                                 6
 STAT SP IPHASW D HRMM SECON CODA AMPLIT PERI AZIMU VELO AIN AR TRES W  DIS CAZ7
 LO8  SZ E        2120 49.18                  137.2  7.1      0        13.6 317 
 LO8  SN IP       2120 49.20                             126    0.0210 13.6 317 
 LO8  SE IS       2120 51.31                             126   -0.0210 13.6 317 
 LO8  SZ  AML     2120 52.04         2.0 0.10                          13.6 317 
                                                                                
