 2009  8 9 0406 19.6 L  20.635-100.064 10.0  RAL  1 0.0 1.8LRAL                1
 GAP=360        0.30       3.2     3.6  0.0  0.2942E+01 -0.1906E+03  0.1909E+03E
 ACTION:UPD 12-06-08 11:37 OP:RALL STATUS:               ID:20090809040619     I
 2009-08-09-0406-29S.PLUR1_003                                                 6
 STAT SP IPHASW D HRMM SECON CODA AMPLIT PERI AZIMU VELO AIN AR TRES W  DIS CAZ7
 LG3  SN IP        4 6 37.26                              93    0.0010  110  50 
 LG3  SZ E         4 6 37.60                  230.1 13.8      0         110  50 
 LG3  SE IS        4 6 50.13                              93    0.0010  110  50 
 LG3  SZ  AML      4 6 56.21        32.1 0.40                           110  50 
                                                                                
