 2009  8 9 2307 13.5 L  21.400 -99.332  0.0  RAL  2 0.1-0.3LRAL                1
 GAP=240        0.63       0.2     0.5  4.3 -0.7576E-01  0.3205E+00 -0.1659E+00E
 ACTION:UPD 12-06-08 11:37 OP:RALL STATUS:               ID:20090809230713     I
 2009-08-09-2307-09S.PLUR1_006                                                 6
 STAT SP IPHASW D HRMM SECON CODA AMPLIT PERI AZIMU VELO AIN AR TRES W  DIS CAZ7
 LT7  SZ E        23 7 13.52                  314.1 14.8      0        0.80 135 
 LT7  SN IP       23 7 13.52                             133   -0.1810 0.80 135 
 LT7  SE IS       23 7 13.93                             133    0.0910 0.80 135 
 LT7  SZ  AML     23 7 14.37         4.6 0.40                          0.80 135 
 LA4  SZ E        23 7 14.86                  194.2  8.0      0        9.52  14 
 LA4  SN IP       23 7 14.88                              97   -0.3010 9.52  14 
 LA4  SE IS       23 7 16.80                              97    0.3910 9.52  14 
 LA4  SZ  AML     23 7 18.15        14.3 0.54                          9.52  14 
                                                                                
