 2009  811 1527 47.4 L  21.675 -99.274 10.0  RAL  1 0.0 1.4LRAL                1
 GAP=360        0.30       3.9     0.9  0.0  0.2770E+01  0.3205E+00 -0.1659E+00E
 ACTION:UPD 12-06-08 11:37 OP:RALL STATUS:               ID:20090811152747     I
 2009-08-11-1527-41S.PLUR1_003                                                 6
 STAT SP IPHASW D HRMM SECON CODA AMPLIT PERI AZIMU VELO AIN AR TRES W  DIS CAZ7
 LA4  SE IS       1527 54.32                             112   -0.0210 21.5 190 
 LA4  SN IP       1527 51.44                             112    0.0210 21.5 190 
 LA4  SZ  AML     1527 55.75        57.8 0.38                          21.5 190 
                                                                                
