 2009  812 0244 46.1 L  21.121 -98.884 10.0  RAL  1 0.0 0.8LRAL                1
 GAP=360        0.30       1.8     3.7  0.0 -0.5175E+01  0.3205E+00 -0.1659E+00E
 ACTION:UPD 12-06-08 11:37 OP:RALL STATUS:               ID:20090812024446     I
 2009-08-12-0244-48S.PLUR1_003                                                 6
 STAT SP IPHASW D HRMM SECON CODA AMPLIT PERI AZIMU VELO AIN AR TRES W  DIS CAZ7
 LG3  SZ E         244 53.19                  114.1 12.2      0        41.9 294 
 LG3  SN IP        244 53.21                              99    0.0110 41.9 294 
 LG3  SE IS        244 58.34                              99   -0.0110 41.9 294 
 LG3  SZ  AML      244 59.22         8.6 0.30                          41.9 294 
                                                                                
