 2009  812 2145 54.7 L  21.468 -99.300 10.0  RAL  1 0.0 0.7LRAL                1
 GAP=360        0.30       3.7     1.4  0.0 -0.3576E+01  0.3205E+00 -0.1659E+00E
 ACTION:UPD 12-06-08 11:37 OP:RALL STATUS:               ID:20090812214554     I
 2009-08-12-2145-55S.PLUR1_003                                                 6
 STAT SP IPHASW D HRMM SECON CODA AMPLIT PERI AZIMU VELO AIN AR TRES W  DIS CAZ7
 LO8  SZ E        2146  0.75                  345.2  7.3      0        35.4 165 
 LO8  SN IP       2146  0.78                             102    0.0110 35.4 165 
 LO8  SE IS       2146  5.20                             102   -0.0110 35.4 165 
 LO8  SZ  AML     2146  5.35         7.8 0.24                          35.4 165 
                                                                                
