 2009  814 1857  0.2 L  21.282 -99.282 10.0  RAL  1 0.0 1.2LRAL                1
 GAP=360        0.32       3.1    14.1  0.0 -0.4430E+02  0.3205E+00 -0.1659E+00E
 ACTION:UPD 12-06-08 11:37 OP:RALL STATUS:               ID:20090814185700     I
 2009-08-14-1856-54S.PLUR1_003                                                 6
 STAT SP IPHASW D HRMM SECON CODA AMPLIT PERI AZIMU VELO AIN AR TRES W  DIS CAZ7
 LG3  SN IP       1857  2.23                             163    0.0810 3.19 103 
 LG3  SZ E        1857  2.38                  283.5 16.7      0        3.19 103 
 LG3  SE IS       1857  3.48                             163   -0.0810 3.19 103 
 LG3  SZ  AML     1857  3.61        77.9 0.10                          3.19 103 
                                                                                
