 2009  815 1322 59.4 R  21.717-101.597 10.0  RAL  1 0.0 3.1LRAL                1
 GAP=360        0.30       6.2     5.2  0.0  0.4235E+01  0.3205E+00 -0.1659E+00E
 ACTION:UPD 12-06-08 11:37 OP:RALL STATUS:               ID:20090815132259     I
 2009-08-15-1323-30S.PLUR1_003                                                 6
 STAT SP IPHASW D HRMM SECON CODA AMPLIT PERI AZIMU VELO AIN AR TRES W  DIS CAZ7
 LD5  SZ E        1323 33.74                  284.4 20.7      0         243 104 
 LD5  SN IP       1323 33.76                              52    0.0110  243 104 
 LD5  SE IS       1323 58.85                              52   -0.0110  243 104 
 LD5  SZ  AML     1324  3.32       219.1 0.68                           243 104 
                                                                                
