 2009  816 0756 36.6 L  21.485 -99.320 10.0  RAL  1 0.2 1.1LRAL                1
 GAP=360        2.13     371.8   336.2  0.0  0.1250E+06  0.3205E+00 -0.1659E+00E
 ACTION:UPD 12-06-08 11:37 OP:RALL STATUS:               ID:20090816075636     I
 2009-08-16-0756-34S.PLUR1_003                                                 6
 STAT SP IPHASW D HRMM SECON CODA AMPLIT PERI AZIMU VELO AIN AR TRES W  DIS CAZ7
 LA4  SZ E         756 38.81                  269.1 22.8     -9        1.10  99 
 LA4  SN IP        756 38.86                             174    0.3910 1.10  99 
 LA4  SE IS        756 39.43                             174   -0.3910 1.10  99 
 LA4  SZ  AML      756 39.53        77.2 0.26                          1.10  99 
                                                                                
