 2009  817 0701 13.2 L  21.186 -99.308 10.0  RAL  1 0.2-0.2LRAL                1
 GAP=360        1.67     532.0   198.8  0.0  0.1057E+06  0.3205E+00 -0.1659E+00E
 ACTION:UPD 12-06-08 11:37 OP:RALL STATUS:               ID:20090817070113     I
 2009-08-17-0701-11S.PLUR1_003                                                 6
 STAT SP IPHASW D HRMM SECON CODA AMPLIT PERI AZIMU VELO AIN AR TRES W  DIS CAZ7
 LD5  SZ E         7 1 15.32                   84.1  8.2     -6        1.27 272 
 LD5  SN IP        7 1 15.37                             173    0.3410 1.27 272 
 LD5  SE IS        7 1 16.03                             173   -0.3410 1.27 272 
 LD5  SZ  AML      7 1 16.59         3.5 0.16                          1.27 272 
                                                                                
