 2009  818 0342 36.4 L  21.243 -99.264 10.0  RAL  1 0.0 0.2LRAL                1
 GAP=360        0.31      10.6     3.8  0.0  0.4002E+02  0.3205E+00 -0.1659E+00E
 ACTION:UPD 12-06-08 11:37 OP:RALL STATUS:               ID:20090818034236     I
 2009-08-18-0342-29S.PLUR1_003                                                 6
 STAT SP IPHASW D HRMM SECON CODA AMPLIT PERI AZIMU VELO AIN AR TRES W  DIS CAZ7
 LG3  SN IP        342 38.39                             160    0.0610 3.86  19 
 LG3  SZ E         342 38.41                  198.5 21.1      0        3.86  19 
 LG3  SE IS        342 39.69                             160   -0.0610 3.86  19 
 LG3  SZ  AML      342 39.79         7.7 0.22                          3.86  19 
                                                                                
