 2009  819 0121 34.2 L  21.271 -99.239 10.0  RAL  1 0.2-0.3LRAL                1
 GAP=360        2.69     925.0   683.4  0.0  0.6321E+06  0.3205E+00 -0.1659E+00E
 ACTION:UPD 12-06-08 11:37 OP:RALL STATUS:               ID:20090819012134     I
 2009-08-19-0121-27S.PLUR1_003                                                 6
 STAT SP IPHASW D HRMM SECON CODA AMPLIT PERI AZIMU VELO AIN AR TRES W  DIS CAZ7
 LG3  SZ E         121 36.33                   99.5 54.1    -12        1.46 292 
 LG3  SN IP        121 36.39                             172    0.2810 1.46 292 
 LG3  SE IS        121 37.19                             172   -0.2810 1.46 292 
 LG3  SZ  AML      121 38.80         3.0 0.30                          1.46 292 
                                                                                
