 2009  819 1913 59.7 L  21.399 -99.354 19.4  RAL  2 0.1 0.4LRAL                1
 GAP=288        0.82       0.2     0.8  7.5 -0.7254E-01  0.9921E-01 -0.9950E-02E
 ACTION:UPD 12-06-08 11:37 OP:RALL STATUS:               ID:20090819191359     I
 2009-08-19-1913-58S.PLUR1_006                                                 6
 STAT SP IPHASW D HRMM SECON CODA AMPLIT PERI AZIMU VELO AIN AR TRES W  DIS CAZ7
 LT7  SZ E        1914  2.87                  278.8  9.9      0        2.95  99 
 LT7  SN IP       1914  2.91                             171   -0.0510 2.95  99 
 LT7  SE IS       1914  4.89                             171   -0.4510 2.95  99 
 LT7  SZ  AML     1914  6.62         2.3 0.20                          2.95  99 
 LA4  SZ E        1914  3.27                  206.8 16.4      0        10.4  27 
 LA4  SN IP       1914  3.31                             152   -0.0910 10.4  27 
 LA4  SE IS       1914  6.69                             152    0.5910 10.4  27 
 LA4  SZ  AML     1914  7.59        24.4 0.28                          10.4  27 
                                                                                
