 2009  820 0041 29.2 R  21.525 -97.916 10.0  RAL  1 0.0 2.0LRAL                1
 GAP=360        0.30       3.7     5.0  0.0  0.1793E+01  0.9921E-01 -0.9950E-02E
 ACTION:UPD 12-06-08 11:37 OP:RALL STATUS:               ID:20090820004129     I
 2009-08-20-0041-42S.PLUR1_003                                                 6
 STAT SP IPHASW D HRMM SECON CODA AMPLIT PERI AZIMU VELO AIN AR TRES W  DIS CAZ7
 LG3  SZ E         041 50.66                   78.5 15.0      0         141 259 
 LG3  SN IP        041 51.23                              52    0.0110  141 259 
 LG3  SE IS        042  7.27                              52   -0.0110  141 259 
 LG3  SZ  AML      042 11.62        38.4 0.36                           141 259 
                                                                                
