 2009  820 1613 22.0 L  21.267 -99.251 10.0  RAL  1 0.1 1.1LRAL                1
 GAP=360        0.63     999.9   999.9  0.0  0.1379E+08  0.9921E-01 -0.9950E-02E
 ACTION:UPD 12-06-08 11:37 OP:RALL STATUS:               ID:20090820161322     I
 2009-08-20-1613-15S.PLUR1_003                                                 6
 STAT SP IPHASW D HRMM SECON CODA AMPLIT PERI AZIMU VELO AIN AR TRES W  DIS CAZ7
 LG3  SN IP       1613 24.25                             175    0.3610 0.91 353 
 LG3  SZ E        1613 24.29                  172.0 17.5      0        0.91 353 
 LG3  SE IS       1613 24.88                             175   -0.3610 0.91 353 
 LG3  SZ  AML     1613 25.07        72.4 0.22                          0.91 353 
                                                                                
