 2009  822 0723 14.7 L  21.133 -99.111 10.0  RAL  1 0.0 2.3LRAL                1
 GAP=360        0.30       2.9     2.9  0.0 -0.8275E+01  0.9921E-01 -0.9950E-02E
 ACTION:UPD 12-06-08 11:37 OP:RALL STATUS:               ID:20090822072314     I
 2009-08-22-0723-09S.PLUR1_003                                                 6
 STAT SP IPHASW D HRMM SECON CODA AMPLIT PERI AZIMU VELO AIN AR TRES W  DIS CAZ7
 LG3  SZ E         723 18.70                  137.1 12.4      0        21.6 317 
 LG3  SN IP        723 18.72                             112    0.0010 21.6 317 
 LG3  SE IS        723 21.64                             112    0.0010 21.6 317 
 LG3  SZ  AML      723 25.17       488.7 0.34                          21.6 317 
                                                                                
