 2009  822 1222 59.6 L  21.184 -99.327 10.0  RAL  1 0.3 1.4LRAL                1
 GAP=360        4.05     999.9   999.9  0.0 -0.3798E+09  0.9921E-01 -0.9950E-02E
 ACTION:UPD 12-06-08 11:37 OP:RALL STATUS:               ID:20090822122259     I
 2009-08-22-1222-56S.PLUR1_003                                                 6
 STAT SP IPHASW D HRMM SECON CODA AMPLIT PERI AZIMU VELO AIN AR TRES W  DIS CAZ7
 LD5  SN IP       1223  1.52                             176    0.0510 0.72  71 
 LD5  SZ E        1223  1.54                  270.0 10.9     19        0.72  71 
 LD5  SE IS       1223  2.75                             176   -0.0510 0.72  71 
 LD5  SZ  AML     1223  3.88       137.7 0.28                          0.72  71 
                                                                                
