 2009  823 2028 13.2 L  21.253 -99.241 10.0  RAL  1 0.1 0.6LRAL                1
 GAP=360        0.42      18.4     9.2  0.0 -0.1703E+03  0.9921E-01 -0.9950E-02E
 ACTION:UPD 12-06-08 11:37 OP:RALL STATUS:               ID:20090823202813     I
 2009-08-23-2028-07S.PLUR1_003                                                 6
 STAT SP IPHASW D HRMM SECON CODA AMPLIT PERI AZIMU VELO AIN AR TRES W  DIS CAZ7
 LG3  SZ E        2028 15.30                  154.9 10.8      0        2.77 335 
 LG3  SN IP       2028 15.35                             165    0.2010 2.77 335 
 LG3  SE IS       2028 16.34                             165   -0.2010 2.77 335 
 LG3  SZ  AML     2028 16.50        22.1 0.24                          2.77 335 
                                                                                
