 2009  825 1402 13.5 L  21.154 -99.205 10.0  RAL  2 0.5 0.4LRAL                1
 GAP=340        8.94      15.8    23.4 73.3 -0.3677E+03  0.3204E+03 -0.2149E+03E
 ACTION:UPD 12-06-08 11:37 OP:RALL STATUS:               ID:20090825140213     I
 2009-08-25-1402-07S.PLUR1_006                                                 6
 STAT SP IPHASW D HRMM SECON CODA AMPLIT PERI AZIMU VELO AIN AR TRES W  DIS CAZ7
 LO8  SZ E        14 2 15.42                  129.2  5.9      3        0.99 306 
 LO8  SN IP       14 2 15.45                             175    0.0410 0.99 306 
 LO8  SE IS       14 2 17.08                             175    0.2910 0.99 306 
 LO8  SZ  AML     14 2 17.22        12.1 0.24                          0.99 306 
 LD5  SZ E        14 2 16.58                   63.1  7.4    -42        12.4 287 
 LD5  SN IP       14 2 16.61                             128    0.3410 12.4 287 
 LD5  SE IS       14 2 17.60                             128   -0.6810 12.4 287 
 LD5  SZ  AML     14 2 17.77        10.9 0.24                          12.4 287 
                                                                                
