 2009  826 0449 43.6 L  21.449 -99.250 10.0  RAL  1 0.0 0.2LRAL                1
 GAP=360        0.30       4.1     0.5  0.0  0.2795E+00  0.3204E+03 -0.2149E+03E
 ACTION:UPD 12-06-08 11:37 OP:RALL STATUS:               ID:20090826044943     I
 2009-08-26-0449-40S.PLUR1_003                                                 6
 STAT SP IPHASW D HRMM SECON CODA AMPLIT PERI AZIMU VELO AIN AR TRES W  DIS CAZ7
 LG3  SZ E         449 47.07                    0.9  5.6      0        19.2 181 
 LG3  SN IP        449 47.23                             115    0.0210 19.2 181 
 LG3  SE IS        449 49.87                             115   -0.0210 19.2 181 
 LG3  SZ  AML      449 52.22         4.8 0.44                          19.2 181 
                                                                                
