 2009  827 0202 25.9 L  20.745 -98.669 10.0  RAL  1 0.0 1.3LRAL                1
 GAP=360        0.30       3.0     3.3  0.0 -0.4794E+01  0.3204E+03 -0.2149E+03E
 ACTION:UPD 12-06-08 11:37 OP:RALL STATUS:               ID:20090827020225     I
 2009-08-27-0202-31S.PLUR1_003                                                 6
 STAT SP IPHASW D HRMM SECON CODA AMPLIT PERI AZIMU VELO AIN AR TRES W  DIS CAZ7
 LG3  SZ E         2 2 39.36                  134.0 11.0      0        84.5 314 
 LG3  SN IP        2 2 39.60                              94    0.0110 84.5 314 
 LG3  SE IS        2 2 49.54                              94   -0.0110 84.5 314 
 LG3  SZ  AML      2 2 50.58        15.1 0.12                          84.5 314 
                                                                                
