 2009  827 2046 17.8 L  21.234 -99.322 10.0  RAL  1 0.0 0.7LRAL                1
 GAP=360        0.30       3.1     5.2  0.0  0.1591E+02  0.3204E+03 -0.2149E+03E
 ACTION:UPD 12-06-08 11:37 OP:RALL STATUS:               ID:20090827204617     I
 2009-08-27-2046-11S.PLUR1_003                                                 6
 STAT SP IPHASW D HRMM SECON CODA AMPLIT PERI AZIMU VELO AIN AR TRES W  DIS CAZ7
 LG3  SZ E        2046 20.12                  237.5 15.5      0        8.61  57 
 LG3  SN IP       2046 20.12                             140    0.0210 8.61  57 
 LG3  SE IS       2046 21.78                             140   -0.0210 8.61  57 
 LG3  SZ  AML     2046 22.54        23.2 0.10                          8.61  57 
                                                                                
