 2009  828 0258 43.0 L  21.190 -99.099 10.0  RAL  1 0.0 0.5LRAL                1
 GAP=360        0.30       2.1     3.8  0.0 -0.7842E+01  0.3204E+03 -0.2149E+03E
 ACTION:UPD 12-06-08 11:37 OP:RALL STATUS:               ID:20090828025843     I
 2009-08-28-0258-37S.PLUR1_003                                                 6
 STAT SP IPHASW D HRMM SECON CODA AMPLIT PERI AZIMU VELO AIN AR TRES W  DIS CAZ7
 LG3  SN IP        258 46.63                             116    0.0110 18.5 301 
 LG3  SZ E         258 46.69                  120.8 40.4      0        18.5 301 
 LG3  SE IS        258 49.23                             116   -0.0110 18.5 301 
 LG3  SZ  AML      258 51.75         9.2 0.20                          18.5 301 
                                                                                
