 2009  828 0238 18.6 L  21.176 -99.343 10.0  RAL  1 0.1-0.4LRAL                1
 GAP=360        0.49      11.3    23.3  0.0  0.2628E+03  0.3204E+03 -0.2149E+03E
 ACTION:UPD 12-06-08 11:37 OP:RALL STATUS:               ID:20090828023818     I
 2009-08-28-0238-17S.PLUR1_003                                                 6
 STAT SP IPHASW D HRMM SECON CODA AMPLIT PERI AZIMU VELO AIN AR TRES W  DIS CAZ7
 LD5  SZ E         238 20.68                  242.6 33.5      0        2.64  63 
 LD5  SN IP        238 20.73                             166    0.2610 2.64  63 
 LD5  SE IS        238 21.58                             166   -0.2610 2.64  63 
 LD5  SZ  AML      238 22.09         2.0 0.24                          2.64  63 
                                                                                
