 2009  828 1426 32.3 L  21.252 -99.232 10.0  RAL  1 0.1 1.1LRAL                1
 GAP=360        0.41      12.5    11.0  0.0 -0.1373E+03  0.3204E+03 -0.2149E+03E
 ACTION:UPD 12-06-08 11:37 OP:RALL STATUS:               ID:20090828142632     I
 2009-08-28-1426-25S.PLUR1_003                                                 6
 STAT SP IPHASW D HRMM SECON CODA AMPLIT PERI AZIMU VELO AIN AR TRES W  DIS CAZ7
 LG3  SZ E        1426 34.39                  140.6 16.7      0        3.42 321 
 LG3  SN IP       1426 34.43                             162    0.1910 3.42 321 
 LG3  SE IS       1426 35.47                             162   -0.1910 3.42 321 
 LG3  SZ  AML     1426 35.61        61.6 0.26                          3.42 321 
                                                                                
