 2009  828 1531 48.2 L  21.229 -99.310 10.0  RAL  1 0.0 1.6LRAL                1
 GAP=360        0.30       4.0     4.9  0.0  0.1946E+02  0.3204E+03 -0.2149E+03E
 ACTION:UPD 12-06-08 11:37 OP:RALL STATUS:               ID:20090828153148     I
 2009-08-28-1531-41S.PLUR1_003                                                 6
 STAT SP IPHASW D HRMM SECON CODA AMPLIT PERI AZIMU VELO AIN AR TRES W  DIS CAZ7
 LG3  SZ E        1531 50.49                  229.0 15.9      0        7.93  49 
 LG3  SN IP       1531 50.54                             142    0.0310 7.93  49 
 LG3  SE IS       1531 52.14                             142   -0.0310 7.93  49 
 LG3  SZ  AML     1531 52.43       167.8 0.18                          7.93  49 
                                                                                
