 2009  828 2031 30.7 L  21.286 -99.399 10.0  RAL  3 1.7 0.5LRAL                1
 GAP=249       30.13      36.6    33.1337.0 -0.3230E+03  0.1205E+03  0.2149E+03E
 ACTION:UPD 12-06-08 11:37 OP:RALL STATUS:               ID:20090828203130     I
 2009-08-28-2031-27S.PLUR1_009                                                 6
 STAT SP IPHASW D HRMM SECON CODA AMPLIT PERI AZIMU VELO AIN AR TRES W  DIS CAZ7
 LD5  SZ E        2031 35.75                    3.4 10.6     40        13.8 143 
 LD5  SN IP       2031 35.88                             128    2.2510 13.8 143 
 LD5  SE IS       2031 38.24                             128    2.4810 13.8 143 
 LD5  SZ  AML     2031 40.79         6.3 0.44                          13.8 143 
 LT7  SZ E        2031 32.13                  164.2  6.7    -47        14.2  32 
 LT7  SN IP       2031 32.15                             122   -1.5010 14.2  32 
 LT7  SE IS       2031 33.52                             122   -2.2810 14.2  32 
 LT7  SZ  AML     2031 33.53        24.3 0.18                          14.2  32 
 LO8  SZ E        2031 34.48                  145.0  6.1    -99        23.9 126 
 LO8  SN IP       2031 34.51                             111   -0.5610 23.9 126 
 LO8  SE IS       2031 37.87                             111   -0.3910 23.9 126 
 LO8  SZ  AML     2031 38.97         4.2 0.32                          23.9 126 
                                                                                
