 2009  829 0113 43.8 L  21.283 -99.236 10.0  RAL  1 0.3 0.5LRAL                1
 GAP=360        3.20      93.5   223.2  0.0  0.2088E+05  0.1205E+03  0.2149E+03E
 ACTION:UPD 12-06-08 11:37 OP:RALL STATUS:               ID:20090829011343     I
 2009-08-29-0113-37S.PLUR1_003                                                 6
 STAT SP IPHASW D HRMM SECON CODA AMPLIT PERI AZIMU VELO AIN AR TRES W  DIS CAZ7
 LG3  SN IP        113 45.98                             170    0.2510 1.85 246 
 LG3  SZ E         113 45.99                   80.9 18.5     15        1.85 246 
 LG3  SE IS        113 46.84                             170   -0.2510 1.85 246 
 LG3  SZ  AML      113 47.15        16.5 0.60                          1.85 246 
                                                                                
