 2009  830 0100 32.9 L  21.102 -99.717 10.0  RAL  1 0.0 0.9LRAL                1
 GAP=360        0.30       1.9     3.7  0.0  0.4480E+01  0.1205E+03  0.2149E+03E
 ACTION:UPD 12-06-08 11:37 OP:RALL STATUS:               ID:20090830010032     I
 2009-08-30-0100-38S.PLUR1_003                                                 6
 STAT SP IPHASW D HRMM SECON CODA AMPLIT PERI AZIMU VELO AIN AR TRES W  DIS CAZ7
 LG3  SN IP        1 0 41.50                              97    0.0110 51.9  68 
 LG3  SZ E         1 0 41.53                  248.3 16.1      0        51.9  68 
 LG3  SE IS        1 0 47.76                              97   -0.0110 51.9  68 
 LG3  SZ  AML      1 0 49.98        10.1 0.48                          51.9  68 
                                                                                
