 2009  830 0051 21.3 L  21.199 -99.106 10.0  RAL  1 0.0 0.3LRAL                1
 GAP=360        0.30       2.1     3.9  0.0 -0.7848E+01  0.1205E+03  0.2149E+03E
 ACTION:UPD 12-06-08 11:37 OP:RALL STATUS:               ID:20090830005121     I
 2009-08-30-0051-17S.PLUR1_003                                                 6
 STAT SP IPHASW D HRMM SECON CODA AMPLIT PERI AZIMU VELO AIN AR TRES W  DIS CAZ7
 LG3  SN IP        051 24.73                             118    0.0110 17.4 299 
 LG3  SZ E         051 24.81                  119.1 20.6      0        17.4 299 
 LG3  SE IS        051 27.21                             118   -0.0110 17.4 299 
 LG3  SZ  AML      051 28.58         6.1 0.26                          17.4 299 
                                                                                
