 2010  719 0806 23.9 L  21.658 -99.330 10.0  RAL  1 0.0                        1
 GAP=360        0.30       3.7     1.4  0.0 -0.2515E+01  0.0000E+00  0.0000E+00E
 2010-07-19-0806-22S.PLUR1_003                                                 6
 STAT SP IPHASW D HRMM SECON CODA AMPLIT PERI AZIMU VELO AIN AR TRES W  DIS CAZ7
 LG3  SZ E         8 6 31.11                  349.3 10.0      0        43.0 169 
 LG3  SN IP     D  8 6 31.14                              99    0.0110 43.0 169 
 LG3  SE IS        8 6 36.41                              99   -0.0110 43.0 169 
                                                                                
