 2010  4 1 0251 22.9 L  21.324 -99.271 10.0  RAL  1 0.2 0.3LRAL                1
 GAP=360        2.63     618.8   862.6  0.0 -0.5336E+06  0.6571E+04  0.1721E+04E
 ACTION:UPD 12-06-08 11:37 OP:RALL STATUS:               ID:20100401025122     I
 2010-04-01-0251-15S.PLUR1_003                                                 6
 STAT SP IPHASW D HRMM SECON CODA AMPLIT PERI AZIMU VELO AIN AR TRES W  DIS CAZ7
 LZ4  SZ E         251 24.79                  178.9 13.7    -11        0.76  11 
 LZ4  SN IP        251 24.80                             176    0.0810 0.76  11 
 LZ4  SE IS        251 25.98                             176   -0.0810 0.76  11 
 LZ4  SZ  AML      251 27.22        12.5 0.42                          0.76  11 
                                                                                
