 2010  4 1 0906 33.4 L  21.645 -99.373 10.0  RAL  1 0.0 0.8LRAL                1
 GAP=360        0.30       3.8     1.6  0.0 -0.5723E+01  0.6571E+04  0.1721E+04E
 ACTION:UPD 12-06-08 11:37 OP:RALL STATUS:               ID:20100401090633     I
 2010-04-01-0906-30S.PLUR1_003                                                 6
 STAT SP IPHASW D HRMM SECON CODA AMPLIT PERI AZIMU VELO AIN AR TRES W  DIS CAZ7
 LA4  SN IP        9 6 37.05                             115    0.0010 19.1 160 
 LA4  SZ E         9 6 37.06                  339.7  6.0      0        19.1 160 
 LA4  SE IS        9 6 39.71                             115    0.0010 19.1 160 
 LA4  SZ  AML      9 6 42.06        17.9 0.48                          19.1 160 
                                                                                
