 2010  4 1 1423 12.0 L  21.299 -99.257 10.0  RAL  1 0.0 0.3LRAL                1
 GAP=360        0.33      11.2     4.3  0.0 -0.4875E+02  0.6571E+04  0.1721E+04E
 ACTION:UPD 12-06-08 11:37 OP:RALL STATUS:               ID:20100401142312     I
 2010-04-01-1423-06S.PLUR1_003                                                 6
 STAT SP IPHASW D HRMM SECON CODA AMPLIT PERI AZIMU VELO AIN AR TRES W  DIS CAZ7
 LZ4  SN IP       1423 14.03                             160    0.1010 3.79 340 
 LZ4  SZ E        1423 14.05                  160.2 12.8      0        3.79 340 
 LZ4  SE IS       1423 15.24                             160   -0.1010 3.79 340 
 LZ4  SZ  AML     1423 16.54        11.0 0.48                          3.79 340 
                                                                                
