 2010  4 1 1234 17.8 L  21.328 -99.259 10.0  RAL  1 0.2 1.0LRAL                1
 GAP=360        2.52     999.9   999.9  0.0  0.6613E+08  0.6571E+04  0.1721E+04E
 ACTION:UPD 12-06-08 11:37 OP:RALL STATUS:               ID:20100401123417     I
 2010-04-01-1234-09S.PLUR1_003                                                 6
 STAT SP IPHASW D HRMM SECON CODA AMPLIT PERI AZIMU VELO AIN AR TRES W  DIS CAZ7
 LZ4  SN IP       1234 19.70                             174    0.0610 1.13 287 
 LZ4  SZ E        1234 19.71                   95.0 20.2    -11        1.13 287 
 LZ4  SE IS       1234 20.93                             174   -0.0610 1.13 287 
 LZ4  SZ  AML     1234 21.55        51.3 0.22                          1.13 287 
                                                                                
