 2010  4 1 2124 44.7 L  21.262 -99.273 10.0  RAL  1 0.2 1.8LRAL                1
 GAP=360        0.70      20.6    30.7  0.0  0.6323E+03  0.6571E+04  0.1721E+04E
 ACTION:UPD 12-06-08 11:37 OP:RALL STATUS:               ID:20100401212444     I
 2010-04-01-2124-37S.PLUR1_003                                                 6
 STAT SP IPHASW D HRMM SECON CODA AMPLIT PERI AZIMU VELO AIN AR TRES W  DIS CAZ7
 LG3  SN IP       2124 47.01                             166    0.4310 2.67  54 
 LG3  SZ E        2124 47.01                  234.3 32.3      0        2.67  54 
 LG3  SE IS       2124 47.54                             166   -0.4310 2.67  54 
 LG3  SZ  AML     2124 47.61       308.9 0.10                          2.67  54 
                                                                                
