 2010  4 1 2313 48.5 L  21.264 -99.257 10.0  RAL  1 0.2 0.8LRAL                1
 GAP=360        1.11     692.8   999.9  0.0 -0.1349E+07  0.6571E+04  0.1721E+04E
 ACTION:UPD 12-06-08 11:37 OP:RALL STATUS:               ID:20100401231348     I
 2010-04-01-2313-41S.PLUR1_003                                                 6
 STAT SP IPHASW D HRMM SECON CODA AMPLIT PERI AZIMU VELO AIN AR TRES W  DIS CAZ7
 LG3  SZ E        2313 50.72                  202.0 26.0      4        1.40  18 
 LG3  SN IP       2313 50.74                             172    0.4210 1.40  18 
 LG3  SE IS       2313 51.27                             172   -0.4210 1.40  18 
 LG3  SZ  AML     2313 51.35        38.5 0.10                          1.40  18 
                                                                                
