 2010  4 2 0701 45.9 L  21.486 -99.315 10.0  RAL  2 0.7 0.8LRAL                1
 GAP=309       12.13       7.1    26.6 75.0  0.1489E+03 -0.6444E+02  0.2812E+01E
 ACTION:UPD 12-06-08 11:37 OP:RALL STATUS:               ID:20100402070145     I
 2010-04-02-0701-37S.PLUR1_006                                                 6
 STAT SP IPHASW D HRMM SECON CODA AMPLIT PERI AZIMU VELO AIN AR TRES W  DIS CAZ7
 LA4  SZ E         7 1 47.52                  280.1 17.6    -12        0.72 113 
 LA4  SN IP        7 1 47.55                             175   -0.1610 0.72 113 
 LA4  SE IS        7 1 49.50                             175    0.4410 0.72 113 
 LA4  SZ  AML      7 1 49.80        33.6 0.14                          0.72 113 
 LG3  SN IP        7 1 49.72                             110   -0.5310 24.2 164 
 LG3  SZ E         7 1 49.73                   42.2 13.8     58        24.2 164 
 LG3  SE IS        7 1 53.71                             110    0.2510 24.2 164 
 LG3  SZ  AML      7 1 55.57        15.7 0.22                          24.2 164 
                                                                                
