 2010  4 2 0720  9.3 L  21.679 -99.433 10.0  RAL  1 0.0 0.8LRAL                1
 GAP=360        0.30       3.5     1.9  0.0 -0.5091E+01 -0.6444E+02  0.2812E+01E
 ACTION:UPD 12-06-08 11:37 OP:RALL STATUS:               ID:20100402072009     I
 2010-04-02-0720-12S.PLUR1_003                                                 6
 STAT SP IPHASW D HRMM SECON CODA AMPLIT PERI AZIMU VELO AIN AR TRES W  DIS CAZ7
 LZ4  SZ E         720 16.36                  336.4 14.5      0        42.1 156 
 LZ4  SN IP        720 16.36                              99    0.0110 42.1 156 
 LZ4  SE IS        720 21.51                              99   -0.0110 42.1 156 
 LZ4  SZ  AML      720 22.05         8.7 0.36                          42.1 156 
                                                                                
