 2010  4 2 1045 19.4 L  21.265 -99.376 10.0  RAL  1 0.0 0.4LRAL                1
 GAP=360        0.30       0.5     4.9  0.0  0.2068E+01 -0.6444E+02  0.2812E+01E
 ACTION:UPD 12-06-08 11:37 OP:RALL STATUS:               ID:20100402104519     I
 2010-04-02-1045-15S.PLUR1_006                                                 6
 STAT SP IPHASW D HRMM SECON CODA AMPLIT PERI AZIMU VELO AIN AR TRES W  DIS CAZ7
 LG3  SN IP       1045 22.18                             127    0.0010 12.9  85 
 LG3  SZ E        1045 22.20                  264.8 13.5      0        12.9  85 
 LG3  SE IS       1045 24.24                             127    0.0010 12.9  85 
 LG3  SZ  AML     1045 26.60         9.2 0.50                          12.9  85 
                                                                                
