 2010  4 2 2210 26.3 L  21.532 -99.388 10.0  RAL  1 0.0 1.3LRAL                1
 GAP=360        0.30       3.4     2.1  0.0 -0.6623E+01 -0.6444E+02  0.2812E+01E
 ACTION:UPD 12-06-08 11:37 OP:RALL STATUS:               ID:20100402221026     I
 2010-04-02-2210-21S.PLUR1_003                                                 6
 STAT SP IPHASW D HRMM SECON CODA AMPLIT PERI AZIMU VELO AIN AR TRES W  DIS CAZ7
 LZ4  SZ E        2210 30.86                  331.2  9.1      0        25.4 151 
 LZ4  SN IP       2210 30.89                             108    0.0010 25.4 151 
 LZ4  SE IS       2210 34.21                             108    0.0010 25.4 151 
 LZ4  SZ  AML     2210 34.75        39.1 0.38                          25.4 151 
                                                                                
