 2010  4 3 2150 38.3 L  21.304 -99.300 10.0  RAL  1 0.0 0.2LRAL                1
 GAP=360        0.34       7.5     8.7  0.0  0.6504E+02 -0.6444E+02  0.2812E+01E
 ACTION:UPD 12-06-08 11:37 OP:RALL STATUS:               ID:20100403215038     I
 2010-04-03-2150-32S.PLUR1_003                                                 6
 STAT SP IPHASW D HRMM SECON CODA AMPLIT PERI AZIMU VELO AIN AR TRES W  DIS CAZ7
 LZ4  SZ E        2150 40.31                  227.3 24.9      0        4.32  47 
 LZ4  SN IP       2150 40.35                             157    0.1210 4.32  47 
 LZ4  SE IS       2150 41.55                             157   -0.1210 4.32  47 
 LZ4  SZ  AML     2150 42.95         8.7 0.56                          4.32  47 
                                                                                
