 2010  4 3 2254 28.7 L  21.470 -99.259 10.0  RAL  1 0.0 0.8LRAL                1
 GAP=360        0.30       4.3     0.5  0.0  0.1366E+01 -0.6444E+02  0.2812E+01E
 ACTION:UPD 12-06-08 11:37 OP:RALL STATUS:               ID:20100403225428     I
 2010-04-03-2254-23S.PLUR1_003                                                 6
 STAT SP IPHASW D HRMM SECON CODA AMPLIT PERI AZIMU VELO AIN AR TRES W  DIS CAZ7
 LZ4  SN IP       2254 31.89                             121    0.0210 15.4 184 
 LZ4  SZ E        2254 31.93                    3.9 14.2      0        15.4 184 
 LZ4  SE IS       2254 34.13                             121   -0.0210 15.4 184 
 LZ4  SZ  AML     2254 34.52        20.5 0.24                          15.4 184 
                                                                                
