 2010  4 3 2201 11.8 L  21.486 -99.296 10.0  RAL  1 0.1 0.3LRAL                1
 GAP=360        0.63      10.1    61.2  0.0  0.6203E+03 -0.6444E+02  0.2812E+01E
 ACTION:UPD 12-06-08 11:37 OP:RALL STATUS:               ID:20100403220111     I
 2010-04-03-2201-05S.PLUR1_003                                                 6
 STAT SP IPHASW D HRMM SECON CODA AMPLIT PERI AZIMU VELO AIN AR TRES W  DIS CAZ7
 LA4  SN IP       22 1 14.06                             172    0.3510 1.42 260 
 LA4  SZ E        22 1 14.13                   79.1  5.9      0        1.42 260 
 LA4  SE IS       22 1 14.71                             172   -0.3510 1.42 260 
 LA4  SZ  AML     22 1 15.14        10.0 0.26                          1.42 260 
                                                                                
