 2010  4 4 0919  9.2 L  21.528 -99.336 10.0  RAL  1 0.0 1.0LRAL                1
 GAP=360        0.30       6.8     4.2  0.0 -0.2886E+02 -0.6444E+02  0.2812E+01E
 ACTION:UPD 12-06-08 11:37 OP:RALL STATUS:               ID:20100404091909     I
 2010-04-04-0919-01S.PLUR1_003                                                 6
 STAT SP IPHASW D HRMM SECON CODA AMPLIT PERI AZIMU VELO AIN AR TRES W  DIS CAZ7
 LA4  SZ E         919 11.32                  330.0  9.0      0        5.62 150 
 LA4  SN IP        919 11.35                             151    0.0410 5.62 150 
 LA4  SE IS        919 12.77                             151   -0.0410 5.62 150 
 LA4  SZ  AML      919 13.12        47.9 0.18                          5.62 150 
                                                                                
