 2010  4 4 0023 53.8 L  21.610 -99.253 10.0  RAL  1 0.0 0.8LRAL                1
 GAP=360        0.30       3.8     0.9  0.0  0.8052E+00 -0.6444E+02  0.2812E+01E
 ACTION:UPD 12-06-08 11:37 OP:RALL STATUS:               ID:20100404002353     I
 2010-04-04-0023-54S.PLUR1_003                                                 6
 STAT SP IPHASW D HRMM SECON CODA AMPLIT PERI AZIMU VELO AIN AR TRES W  DIS CAZ7
 LZ4  SN IP        023 59.16                             104    0.0110 31.0 183 
 LZ4  SZ E         023 59.47                    3.1 18.5      0        31.0 183 
 LZ4  SE IS        024  3.08                             104   -0.0110 31.0 183 
 LZ4  SZ  AML      024  4.23        12.5 0.50                          31.0 183 
                                                                                
