 2010  4 4 0747 31.9 L  21.532 -99.332 10.0  RAL  1 0.0 1.3LRAL                1
 GAP=360        0.30       6.8     3.2  0.0 -0.2217E+02 -0.6444E+02  0.2812E+01E
 ACTION:UPD 12-06-08 11:37 OP:RALL STATUS:               ID:20100404074731     I
 2010-04-04-0747-24S.PLUR1_003                                                 6
 STAT SP IPHASW D HRMM SECON CODA AMPLIT PERI AZIMU VELO AIN AR TRES W  DIS CAZ7
 LA4  SN IP        747 34.01                             150    0.0310 5.89 156 
 LA4  SZ E         747 34.04                  336.2  7.8      0        5.89 156 
 LA4  SE IS        747 35.48                             150   -0.0310 5.89 156 
 LA4  SZ  AML      747 35.84       101.0 0.18                          5.89 156 
                                                                                
