 2010  4 4 2252 24.0 L  21.589 -99.414 10.0  RAL  1 0.0 0.9LRAL                1
 GAP=360        0.30       3.4     2.1  0.0 -0.6110E+01 -0.6444E+02  0.2812E+01E
 ACTION:UPD 12-06-08 11:37 OP:RALL STATUS:               ID:20100404225224     I
 2010-04-04-2252-24S.PLUR1_003                                                 6
 STAT SP IPHASW D HRMM SECON CODA AMPLIT PERI AZIMU VELO AIN AR TRES W  DIS CAZ7
 LZ4  SZ E        2252 29.48                  332.3 14.0      0        32.3 152 
 LZ4  SN IP       2252 29.57                             103    0.0210 32.3 152 
 LZ4  SE IS       2252 33.61                             103   -0.0210 32.3 152 
 LZ4  SZ  AML     2252 35.67        15.0 0.28                          32.3 152 
                                                                                
