 2010  4 7 0959  9.4 R  20.561 -98.666 10.0  RAL  1 0.0 2.6LRAL                1
 GAP=360        0.30       3.4     3.3  0.0 -0.3168E+01 -0.6444E+02  0.2812E+01E
 ACTION:UPD 12-06-08 11:37 OP:RALL STATUS:               ID:20100407095909     I
 2010-04-07-0959-17S.PLUR1_003                                                 6
 STAT SP IPHASW D HRMM SECON CODA AMPLIT PERI AZIMU VELO AIN AR TRES W  DIS CAZ7
 LZ4  SZ E         959 26.30                  143.5  8.5      0         106 324 
 LZ4  SN IP        959 26.30                              93    0.0010  106 324 
 LZ4  SE IS        959 38.67                              93    0.0010  106 324 
 LZ4  SZ  AML      959 42.13       233.4 0.30                           106 324 
                                                                                
