 2010  4 7 1901 27.5 R  20.796-100.174  6.2  RAL  3 1.7 2.1LRAL                1
 GAP=345       19.26     444.1   855.1999.9  0.3667E+06  0.6033E+08  0.3074E+08E
 ACTION:UPD 12-06-08 11:37 OP:RALL STATUS:               ID:20100407190127     I
 2010-04-07-1901-35S.PLUR1_012                                                 6
 STAT SP IPHASW D HRMM SECON CODA AMPLIT PERI AZIMU VELO AIN AR TRES W  DIS CAZ7
 LO8  SZ E        19 1 42.43                  333.8  8.5     86         108  68 
 LO8  SN IP       19 1 42.51                              91   -2.2710  108  68 
 LO8  SE IS       19 1 52.43                              91   -4.9410  108  68 
 LO8  SZ  AML     19 1 54.48        37.5 0.38                           108  68 
 LG3  SN IP       19 1 44.69                              91   -0.3510  110  61 
 LG3  SZ E        19 1 44.71                  257.4 11.6     16         110  61 
 LG3  SE IS       19 1 56.16                              91   -1.6510  110  61 
 LG3  SZ  AML     19 1 57.51       257.1 0.42                           110  61 
 LT7  SN IP       19 1 47.69                              91    2.5710  110  53 
 LT7  SZ E        19 1 47.78                  180.9 18.3    -51         110  53 
 LT7  SE IS       19 2  4.58                              91    6.6310  110  53 
 LT7  SZ  AML     19 2  5.83        22.0 0.86                           110  53 
                                                                                
