 2010  4 7 1924  1.8 L  21.304 -99.205 10.0  RAL  1 0.0 0.6LRAL                1
 GAP=360        0.30       2.6     6.3  0.0 -0.1602E+02  0.6033E+08  0.3074E+08E
 ACTION:UPD 12-06-08 11:37 OP:RALL STATUS:               ID:20100407192401     I
 2010-04-07-1923-56S.PLUR1_003                                                 6
 STAT SP IPHASW D HRMM SECON CODA AMPLIT PERI AZIMU VELO AIN AR TRES W  DIS CAZ7
 LZ4  SN IP       1924  4.00                             144    0.0210 7.26 294 
 LZ4  SZ E        1924  4.03                  113.7 17.5      0        7.26 294 
 LZ4  SE IS       1924  5.55                             144   -0.0210 7.26 294 
 LZ4  SZ  AML     1924  7.14        17.6 0.56                          7.26 294 
                                                                                
