 2010  4 8 0352 14.1 L  21.473 -99.304 10.0  RAL  1 0.2 0.2LRAL                1
 GAP=360        1.22     110.4    56.0  0.0 -0.6178E+04  0.6033E+08  0.3074E+08E
 ACTION:UPD 12-06-08 11:37 OP:RALL STATUS:               ID:20100408035214     I
 2010-04-08-0352-07S.PLUR1_003                                                 6
 STAT SP IPHASW D HRMM SECON CODA AMPLIT PERI AZIMU VELO AIN AR TRES W  DIS CAZ7
 LA4  SN IP        352 16.47                             173    0.5110 1.31 335 
 LA4  SZ E         352 16.59                  159.1  6.7      4        1.31 335 
 LA4  SE IS        352 16.81                             173   -0.5110 1.31 335 
 LA4  SZ  AML      352 16.88         9.6 0.16                          1.31 335 
                                                                                
