 2010  4 9 1412 53.4 L  21.347 -99.293 10.0  RAL  1 0.1 0.5LRAL                1
 GAP=360        0.47      12.4    17.7  0.0 -0.2194E+03  0.6033E+08  0.3074E+08E
 ACTION:UPD 12-06-08 11:37 OP:RALL STATUS:               ID:20100409141253     I
 2010-04-09-1412-46S.PLUR1_003                                                 6
 STAT SP IPHASW D HRMM SECON CODA AMPLIT PERI AZIMU VELO AIN AR TRES W  DIS CAZ7
 LZ4  SZ E        1412 55.57                  306.8 17.3      0        3.01 127 
 LZ4  SN IP       1412 55.58                             164    0.2410 3.01 127 
 LZ4  SE IS       1412 56.48                             164   -0.2410 3.01 127 
 LZ4  SZ  AML     1412 56.82        18.0 0.34                          3.01 127 
                                                                                
