 2010  4 9 1539 38.1 L  22.152 -99.511 10.0  RAL  1 0.0 1.7LRAL                1
 GAP=360        0.30       3.6     2.7  0.0 -0.2148E+01  0.6033E+08  0.3074E+08E
 ACTION:UPD 12-06-08 11:37 OP:RALL STATUS:               ID:20100409153938     I
 2010-04-09-1539-45S.PLUR1_003                                                 6
 STAT SP IPHASW D HRMM SECON CODA AMPLIT PERI AZIMU VELO AIN AR TRES W  DIS CAZ7
 LZ4  SZ E        1539 53.24                  344.7 19.0      0        94.3 165 
 LZ4  SN IP       1539 53.24                              93    0.0110 94.3 165 
 LZ4  SE IS       1540  4.28                              93   -0.0110 94.3 165 
 LZ4  SZ  AML     1540  7.65        30.3 0.18                          94.3 165 
                                                                                
