 2010  410 1021 21.0 L  20.919 -98.925 10.0  RAL  1 0.0 1.9LRAL                1
 GAP=360        0.30       3.1     2.8  0.0 -0.6030E+01  0.6033E+08  0.3074E+08E
 ACTION:UPD 12-06-08 11:37 OP:RALL STATUS:               ID:20100410102121     I
 2010-04-10-1021-20S.PLUR1_003                                                 6
 STAT SP IPHASW D HRMM SECON CODA AMPLIT PERI AZIMU VELO AIN AR TRES W  DIS CAZ7
 LZ4  SZ E        1021 30.44                  141.9  8.8      0        58.0 322 
 LZ4  SN IP       1021 30.51                              96    0.0110 58.0 322 
 LZ4  SE IS       1021 37.44                              96   -0.0110 58.0 322 
 LZ4  SZ  AML     1021 39.89        90.6 0.24                          58.0 322 
                                                                                
