 2010  411 0859 46.4 L  21.325 -99.292 10.0  RAL  1 0.1 0.3LRAL                1
 GAP=360        0.37     976.9   322.6  0.0 -0.3151E+06  0.6033E+08  0.3074E+08E
 ACTION:UPD 12-06-08 11:37 OP:RALL STATUS:               ID:20100411085946     I
 2010-04-11-0859-39S.PLUR1_003                                                 6
 STAT SP IPHASW D HRMM SECON CODA AMPLIT PERI AZIMU VELO AIN AR TRES W  DIS CAZ7
 LZ4  SZ E         859 48.37                  254.0 28.3      0        2.44  74 
 LZ4  SN IP        859 48.46                             167    0.1410 2.44  74 
 LZ4  SE IS        859 49.54                             167   -0.1410 2.44  74 
 LZ4  SZ  AML      859 50.95        10.5 0.10                          2.44  74 
                                                                                
