 2010  411 0741  4.2 L  21.265 -99.241 10.0  RAL  1 0.0 0.9LRAL                1
 GAP=360        0.30       5.6     2.4  0.0 -0.1338E+02  0.6033E+08  0.3074E+08E
 ACTION:UPD 12-06-08 11:37 OP:RALL STATUS:               ID:20100411074104     I
 2010-04-11-0740-56S.PLUR1_003                                                 6
 STAT SP IPHASW D HRMM SECON CODA AMPLIT PERI AZIMU VELO AIN AR TRES W  DIS CAZ7
 LZ4  SZ E         741  6.39                  158.1 17.7      0        7.86 338 
 LZ4  SN IP        741  6.43                             142    0.0110 7.86 338 
 LZ4  SE IS        741  8.04                             142   -0.0110 7.86 338 
 LZ4  SZ  AML      741  8.27        36.0 0.22                          7.86 338 
                                                                                
