 2010  411 0127 44.7 L  21.509 -99.360 10.0  RAL  1 0.0 2.4LRAL                1
 GAP=360        0.30       3.6     1.9  0.0 -0.6388E+01  0.6033E+08  0.3074E+08E
 ACTION:UPD 12-06-08 11:37 OP:RALL STATUS:               ID:20100411012744     I
 2010-04-11-0127-39S.PLUR1_003                                                 6
 STAT SP IPHASW D HRMM SECON CODA AMPLIT PERI AZIMU VELO AIN AR TRES W  DIS CAZ7
 LZ4  SZ E         127 48.74                  334.7 12.4      0        21.8 155 
 LZ4  SN IP        127 48.78                             111    0.0010 21.8 155 
 LZ4  SE IS        127 51.72                             111    0.0010 21.8 155 
 LZ4  SZ  AML      127 51.92       601.9 0.48                          21.8 155 
                                                                                
