 2010  411 1649 12.2 L  21.280 -99.254 10.0  RAL  1 0.3 0.8LRAL                1
 GAP=360        3.25     999.9   999.9  0.0  0.1169E+07 -0.2457E+05 -0.1008E+05E
 ACTION:UPD 12-06-08 11:37 OP:RALL STATUS:               ID:20100411164912     I
 2010-04-11-1649-05S.PLUR1_003                                                 6
 STAT SP IPHASW D HRMM SECON CODA AMPLIT PERI AZIMU VELO AIN AR TRES W  DIS CAZ7
 LG3  SZ E        1649 14.25                  356.4  5.9     15        0.53 161 
 LG3  SN IP       1649 14.27                             177    0.2010 0.53 161 
 LG3  SE IS       1649 15.23                             177   -0.2010 0.53 161 
 LG3  SZ  AML     1649 15.86        37.1 0.12                          0.53 161 
                                                                                
