 2010  411 1035 20.4 R  21.360 -99.006 10.0  RAL  3 1.4 1.7LRAL                1
 GAP=291       23.90      45.2    86.9708.1  0.1932E+04 -0.2457E+05 -0.1008E+05E
 ACTION:UPD 12-06-08 11:37 OP:RALL STATUS:               ID:20100411103520     I
 2010-04-11-1035-15S.PLUR1_012                                                 6
 STAT SP IPHASW D HRMM SECON CODA AMPLIT PERI AZIMU VELO AIN AR TRES W  DIS CAZ7
 LG3  SZ E        1035 25.42                   22.3 20.3    -47        27.2 250 
 LG3  SN IP       1035 25.55                             106    0.3610 27.2 250 
 LG3  SE IS       1035 28.91                             106    0.1910 27.2 250 
 LG3  SZ  AML     1035 30.72       344.1 0.44                          27.2 250 
 LO8  SN IP       1035 27.00                             104    1.2410 30.9 224 
 LO8  SZ E        1035 27.01                  137.3  6.7     93        30.9 224 
 LO8  SE IS       1035 31.93                             104    2.2310 30.9 224 
 LO8  SZ  AML     1035 33.03        16.9 0.46                          30.9 224 
 LA4  SZ E        1035 24.91                  201.3 13.0     88        34.3 294 
 LA4  SN IP       1035 24.95                             102   -1.3010 34.3 294 
 LA4  SE IS       1035 27.82                             102   -2.7310 34.3 294 
 LA4  SZ  AML     1035 28.59       142.1 0.78                          34.3 294 
                                                                                
