 2010  411 1808  1.7 L  21.322 -99.252 10.0  RAL  1 0.0 0.2LRAL                1
 GAP=360        0.30       8.4     0.1  0.0  0.2566E+00 -0.2457E+05 -0.1008E+05E
 ACTION:UPD 12-06-08 11:37 OP:RALL STATUS:               ID:20100411180801     I
 2010-04-11-1807-55S.PLUR1_003                                                 6
 STAT SP IPHASW D HRMM SECON CODA AMPLIT PERI AZIMU VELO AIN AR TRES W  DIS CAZ7
 LG3  SN IP       18 8  3.70                             154    0.0110 5.09 180 
 LG3  SZ E        18 8  3.75                    0.2  4.5      0        5.09 180 
 LG3  SE IS       18 8  5.17                             154   -0.0110 5.09 180 
 LG3  SZ  AML     18 8  5.32         9.0 0.24                          5.09 180 
                                                                                
