 2010  412 1029 43.3 L  21.265 -99.273 10.0  RAL  1 0.2 0.2LRAL                1
 GAP=360        0.67      17.8    33.8  0.0  0.6017E+03 -0.2457E+05 -0.1008E+05E
 ACTION:UPD 12-06-08 11:37 OP:RALL STATUS:               ID:20100412102943     I
 2010-04-12-1029-36S.PLUR1_003                                                 6
 STAT SP IPHASW D HRMM SECON CODA AMPLIT PERI AZIMU VELO AIN AR TRES W  DIS CAZ7
 LG3  SZ E        1029 45.54                  240.6 31.4      0        2.48  61 
 LG3  SN IP       1029 45.56                             167    0.4110 2.48  61 
 LG3  SE IS       1029 46.13                             167   -0.4110 2.48  61 
 LG3  SZ  AML     1029 46.26         7.8 0.22                          2.48  61 
                                                                                
