 2010  412 2204 22.3 L  21.156 -99.260 10.0  RAL  1 0.0 0.7LRAL                1
 GAP=360        0.30       4.1     0.6  0.0 -0.9129E+00 -0.2457E+05 -0.1008E+05E
 ACTION:UPD 12-06-08 11:37 OP:RALL STATUS:               ID:20100412220422     I
 2010-04-12-2204-19S.PLUR1_003                                                 6
 STAT SP IPHASW D HRMM SECON CODA AMPLIT PERI AZIMU VELO AIN AR TRES W  DIS CAZ7
 LZ4  SZ E        22 4 26.01                  177.0 10.8      0        19.4 357 
 LZ4  SN IP       22 4 26.02                             114    0.0210 19.4 357 
 LZ4  SE IS       22 4 28.68                             114   -0.0210 19.4 357 
 LZ4  SZ  AML     22 4 31.77        13.5 0.74                          19.4 357 
                                                                                
