 2010  413 0725 35.9 L  21.332 -99.274 10.0  RAL  1 0.2 2.2LRAL                1
 GAP=360        1.40     999.9   999.9  0.0  0.6562E+07 -0.2457E+05 -0.1008E+05E
 ACTION:UPD 12-06-08 11:37 OP:RALL STATUS:               ID:20100413072535     I
 2010-04-13-0725-28S.PLUR1_003                                                 6
 STAT SP IPHASW D HRMM SECON CODA AMPLIT PERI AZIMU VELO AIN AR TRES W  DIS CAZ7
 LZ4  SZ E         725 38.23                  283.5 19.1     -4        0.50 109 
 LZ4  SN IP        725 38.25                             177    0.5410 0.50 109 
 LZ4  SE IS        725 38.50                             177   -0.5410 0.50 109 
 LZ4  SZ  AML      725 38.63       989.8 0.34                          0.50 109 
                                                                                
