 2010  413 1636 31.5 L  21.279 -99.250 10.0  RAL  2 0.3 0.4LRAL                1
 GAP=241        2.56      13.5     9.3 23.3 -0.1124E+03  0.1196E+03 -0.1840E+03E
 ACTION:UPD 12-06-08 11:37 OP:RALL STATUS:               ID:20100413163631     I
 2010-04-13-1636-25S.PLUR1_006                                                 6
 STAT SP IPHASW D HRMM SECON CODA AMPLIT PERI AZIMU VELO AIN AR TRES W  DIS CAZ7
 LG3  SN IP       1636 34.07                             178    0.7310 0.49 210 
 LG3  SZ E        1636 34.08                   30.7 15.2      1        0.49 210 
 LG3  SE IS       1636 35.26                             178    0.5710 0.49 210 
 LG3  SZ  AML     1636 35.63        41.6 0.26                          0.49 210 
 LT7  SZ E        1636 34.29                  158.4  7.7     10        15.1 328 
 LT7  SN IP       1636 34.33                             121   -0.2110 15.1 328 
 LT7  SE IS       1636 35.67                             121   -1.1010 15.1 328 
 LT7  SZ  AML     1636 35.73         3.1 0.10                          15.1 328 
                                                                                
