 2010  414 0724 28.2 L  21.336 -99.280 10.0  RAL  1 0.3 1.2LRAL                1
 GAP=360        2.65     999.9   515.0  0.0  0.7502E+06  0.1196E+03 -0.1840E+03E
 ACTION:UPD 12-06-08 11:37 OP:RALL STATUS:               ID:20100414072428     I
 2010-04-14-0724-21S.PLUR1_003                                                 6
 STAT SP IPHASW D HRMM SECON CODA AMPLIT PERI AZIMU VELO AIN AR TRES W  DIS CAZ7
 LZ4  SZ E         724 30.56                  287.0 23.8    -11        1.21 119 
 LZ4  SN IP        724 30.58                             173    0.5510 1.21 119 
 LZ4  SE IS        724 30.82                             173   -0.5510 1.21 119 
 LZ4  SZ  AML      724 30.92        82.5 0.16                          1.21 119 
                                                                                
