 2010  414 0728 42.2 L  21.317 -99.268 10.0  RAL  1 0.3 0.4LRAL                1
 GAP=360        3.20     999.9   999.9  0.0  0.1230E+09  0.1196E+03 -0.1840E+03E
 ACTION:UPD 12-06-08 11:37 OP:RALL STATUS:               ID:20100414072842     I
 2010-04-14-0728-35S.PLUR1_003                                                 6
 STAT SP IPHASW D HRMM SECON CODA AMPLIT PERI AZIMU VELO AIN AR TRES W  DIS CAZ7
 LZ4  SN IP        728 44.42                             172    0.3810 1.52 352 
 LZ4  SZ E         728 44.44                  157.3 14.9    -14        1.52 352 
 LZ4  SE IS        728 45.00                             172   -0.3810 1.52 352 
 LZ4  SZ  AML      728 45.34        15.0 0.34                          1.52 352 
                                                                                
