 2010  414 1843  3.8 L  21.333 -99.249 10.0  RAL  1 0.1 0.2LRAL                1
 GAP=360        0.50     999.9   148.1  0.0 -0.1711E+06  0.1196E+03 -0.1840E+03E
 ACTION:UPD 12-06-08 11:37 OP:RALL STATUS:               ID:20100414184303     I
 2010-04-14-1842-57S.PLUR1_003                                                 6
 STAT SP IPHASW D HRMM SECON CODA AMPLIT PERI AZIMU VELO AIN AR TRES W  DIS CAZ7
 LZ4  SZ E        1843  5.91                   84.7 88.2      0        2.12 265 
 LZ4  SN IP       1843  5.94                             168    0.2710 2.12 265 
 LZ4  SE IS       1843  6.76                             168   -0.2710 2.12 265 
 LZ4  SZ  AML     1843  7.05         8.8 0.22                          2.12 265 
                                                                                
