 2010  414 2004 46.7 R  19.735 -99.376 10.0  RAL  1 0.0 2.9LRAL                1
 GAP=360        0.30       4.7     4.9  0.0  0.8596E-01  0.1196E+03 -0.1840E+03E
 ACTION:UPD 12-06-08 11:37 OP:RALL STATUS:               ID:20100414200446     I
 2010-04-14-2005-03S.PLUR1_003                                                 6
 STAT SP IPHASW D HRMM SECON CODA AMPLIT PERI AZIMU VELO AIN AR TRES W  DIS CAZ7
 LZ4  SN IP       20 5 12.98                              52    0.0110  177   4 
 LZ4  SZ E        20 5 13.29                  183.6 14.5      0         177   4 
 LZ4  SE IS       20 5 32.18                              52   -0.0110  177   4 
 LZ4  SZ  AML     20 5 32.40       259.2 0.36                           177   4 
                                                                                
