 2010  415 1454 15.2 L  21.342 -99.251 10.0  RAL  1 0.6 0.5LRAL                1
 GAP=360        7.52     241.3   392.1  0.0  0.9460E+05  0.1196E+03 -0.1840E+03E
 ACTION:UPD 12-06-08 11:37 OP:RALL STATUS:               ID:20100415145415     I
 2010-04-15-1454-08S.PLUR1_003                                                 6
 STAT SP IPHASW D HRMM SECON CODA AMPLIT PERI AZIMU VELO AIN AR TRES W  DIS CAZ7
 LZ4  SN IP       1454 17.59                             168    0.5610 2.26 237 
 LZ4  SZ E        1454 17.60                   92.2 77.5     36        2.26 237 
 LZ4  SE IS       1454 17.84                             168   -0.5610 2.26 237 
 LZ4  SZ  AML     1454 17.93        16.2 0.36                          2.26 237 
                                                                                
