 2010  415 2159 57.9 R  21.416 -99.459 10.0  RAL  1 0.0 0.6LRAL                1
 GAP=360        0.30       1.8     3.8  0.0 -0.6420E+01  0.1196E+03 -0.1840E+03E
 ACTION:UPD 12-06-08 11:37 OP:RALL STATUS:               ID:20100415215957     I
 2010-04-15-2159-56S.PLUR1_003                                                 6
 STAT SP IPHASW D HRMM SECON CODA AMPLIT PERI AZIMU VELO AIN AR TRES W  DIS CAZ7
 LZ4  SN IP       22 0  1.91                             111    0.0010 21.8 116 
 LZ4  SZ E        22 0  1.95                  295.6 24.1      0        21.8 116 
 LZ4  SE IS       22 0  4.85                             111    0.0010 21.8 116 
 LZ4  SZ  AML     22 0  5.76        10.2 0.28                          21.8 116 
                                                                                
