 2010  416 0835 40.1 L  21.356 -99.290 10.0  RAL  1 0.1 0.7LRAL                1
 GAP=360        0.40      12.2    10.2  0.0 -0.1241E+03  0.1196E+03 -0.1840E+03E
 ACTION:UPD 12-06-08 11:37 OP:RALL STATUS:               ID:20100416083540     I
 2010-04-16-0835-33S.PLUR1_003                                                 6
 STAT SP IPHASW D HRMM SECON CODA AMPLIT PERI AZIMU VELO AIN AR TRES W  DIS CAZ7
 LZ4  SN IP        835 42.24                             161    0.1810 3.50 142 
 LZ4  SZ E         835 42.27                  322.0 12.4      0        3.50 142 
 LZ4  SE IS        835 43.28                             161   -0.1810 3.50 142 
 LZ4  SZ  AML      835 43.54        25.6 0.16                          3.50 142 
                                                                                
