 2010  416 1040 39.1 L  21.276 -99.259 10.0  RAL  1 0.2 0.2LRAL                1
 GAP=360        0.78     999.9   392.8  0.0  0.6536E+07  0.1196E+03 -0.1840E+03E
 ACTION:UPD 12-06-08 11:37 OP:RALL STATUS:               ID:20100416104039     I
 2010-04-16-1040-32S.PLUR1_003                                                 6
 STAT SP IPHASW D HRMM SECON CODA AMPLIT PERI AZIMU VELO AIN AR TRES W  DIS CAZ7
 LG3  SZ E        1040 41.46                  271.3 12.3      0        0.70  92 
 LG3  SN IP       1040 41.47                             176    0.4810 0.70  92 
 LG3  SE IS       1040 41.86                             176   -0.4810 0.70  92 
 LG3  SZ  AML     1040 41.94         8.8 0.10                          0.70  92 
                                                                                
