 2010  417 0046 47.2 L  21.339 -99.290 10.0  RAL  1 0.2 0.7LRAL                1
 GAP=360        0.88      19.9    48.0  0.0 -0.9533E+03  0.1196E+03 -0.1840E+03E
 ACTION:UPD 12-06-08 11:37 OP:RALL STATUS:               ID:20100417004647     I
 2010-04-17-0046-40S.PLUR1_003                                                 6
 STAT SP IPHASW D HRMM SECON CODA AMPLIT PERI AZIMU VELO AIN AR TRES W  DIS CAZ7
 LZ4  SZ E         046 49.59                  293.9 14.8      0        2.37 114 
 LZ4  SN IP        046 49.61                             167    0.5610 2.37 114 
 LZ4  SE IS        046 49.86                             167   -0.5610 2.37 114 
 LZ4  SZ  AML      046 49.94        27.7 0.16                          2.37 114 
                                                                                
