 2010  417 2145 56.9 R  20.527 -98.684 10.0  RAL  1 0.0 3.3LRAL                1
 GAP=360        0.30       3.4     3.3  0.0 -0.2952E+01  0.3617E+01 -0.6718E+01E
 ACTION:UPD 12-06-08 11:37 OP:RALL STATUS:               ID:20100417214556     I
 2010-04-17-2146-04S.PLUR1_003                                                 6
 STAT SP IPHASW D HRMM SECON CODA AMPLIT PERI AZIMU VELO AIN AR TRES W  DIS CAZ7
 LZ4  SZ E        2146 14.13                  145.5  6.7      0         108 326 
 LZ4  SN IP       2146 14.16                              93    0.0010  108 326 
 LZ4  SE IS       2146 26.75                              93    0.0010  108 326 
 LZ4  SZ  AML     2146 32.15      1139.2 0.38                           108 326 
                                                                                
