 2010  418 0427 12.3 R  21.710-100.037 10.0  RAL  1 0.0 2.0LRAL                1
 GAP=360        0.30       2.8     3.7  0.0 -0.3649E+01  0.3617E+01 -0.6718E+01E
 ACTION:UPD 12-06-08 11:37 OP:RALL STATUS:               ID:20100418042712     I
 2010-04-18-0427-17S.PLUR1_006                                                 6
 STAT SP IPHASW D HRMM SECON CODA AMPLIT PERI AZIMU VELO AIN AR TRES W  DIS CAZ7
 LG3  SZ E         427 26.99                  300.7 14.7      0        94.5 120 
 LG3  SN IP        427 27.47                              93    0.0110 94.5 120 
 LG3  SE IS        427 38.54                              93   -0.0110 94.5 120 
 LG3  SZ  AML      427 39.58        61.2 0.20                          94.5 120 
                                                                                
