 2010  419 0055 15.8 L  21.279 -99.251 10.0  RAL  1 0.5 0.4LRAL                1
 GAP=360        5.75     999.9   999.9  0.0 -0.5082E+07  0.3617E+01 -0.6718E+01E
 ACTION:UPD 12-06-08 11:37 OP:RALL STATUS:               ID:20100419005515     I
 2010-04-19-0055-09S.PLUR1_003                                                 6
 STAT SP IPHASW D HRMM SECON CODA AMPLIT PERI AZIMU VELO AIN AR TRES W  DIS CAZ7
 LG3  SZ E         055 18.01                  351.3  5.3     27        0.34 199 
 LG3  SN IP        055 18.02                             178    0.3410 0.34 199 
 LG3  SE IS        055 18.69                             178   -0.3410 0.34 199 
 LG3  SZ  AML      055 18.83        13.5 0.10                          0.34 199 
                                                                                
