 2010  419 1535 18.0 L  21.310 -99.241 10.0  RAL  1 0.1 0.5LRAL                1
 GAP=360        0.42       9.3    13.0  0.0 -0.1210E+03  0.3617E+01 -0.6718E+01E
 ACTION:UPD 12-06-08 11:37 OP:RALL STATUS:               ID:20100419153518     I
 2010-04-19-1535-11S.PLUR1_003                                                 6
 STAT SP IPHASW D HRMM SECON CODA AMPLIT PERI AZIMU VELO AIN AR TRES W  DIS CAZ7
 LZ4  SN IP       1535 20.16                             160    0.2010 3.73 308 
 LZ4  SZ E        1535 20.18                  127.6 20.2      0        3.73 308 
 LZ4  SE IS       1535 21.17                             160   -0.2010 3.73 308 
 LZ4  SZ  AML     1535 21.92        15.1 0.18                          3.73 308 
                                                                                
