 2010  419 2018 14.2 L  21.318 -99.260 10.0  RAL  1 0.2 0.3LRAL                1
 GAP=360        0.86     126.1   338.7  0.0  0.4269E+05  0.3617E+01 -0.6718E+01E
 ACTION:UPD 12-06-08 11:37 OP:RALL STATUS:               ID:20100419201814     I
 2010-04-19-2018-07S.PLUR1_003                                                 6
 STAT SP IPHASW D HRMM SECON CODA AMPLIT PERI AZIMU VELO AIN AR TRES W  DIS CAZ7
 LZ4  SZ E        2018 16.48                  149.3 18.4      2        1.75 327 
 LZ4  SN IP       2018 16.50                             170    0.4710 1.75 327 
 LZ4  SE IS       2018 16.91                             170   -0.4710 1.75 327 
 LZ4  SZ  AML     2018 16.91        10.7 0.16                          1.75 327 
                                                                                
