 2010  420 1955 57.4 L  21.512 -99.320 10.0  RAL  1 0.0 0.9LRAL                1
 GAP=360        0.30       3.9     1.2  0.0 -0.4152E+01  0.3617E+01 -0.6718E+01E
 ACTION:UPD 12-06-08 11:37 OP:RALL STATUS:               ID:20100420195557     I
 2010-04-20-1955-54S.PLUR1_003                                                 6
 STAT SP IPHASW D HRMM SECON CODA AMPLIT PERI AZIMU VELO AIN AR TRES W  DIS CAZ7
 LZ4  SZ E        1956  1.20                  345.5 17.8      0        20.7 165 
 LZ4  SN IP       1956  1.28                             113    0.0210 20.7 165 
 LZ4  SE IS       1956  4.06                             113   -0.0210 20.7 165 
 LZ4  SZ  AML     1956  4.71        18.9 0.56                          20.7 165 
                                                                                
