 2010  420 1345  4.3 L  21.020 -98.773 10.0  RAL  1 0.0 1.2LRAL                1
 GAP=360        0.30       2.5     3.4  0.0 -0.5572E+01  0.3617E+01 -0.6718E+01E
 ACTION:UPD 12-06-08 11:37 OP:RALL STATUS:               ID:20100420134504     I
 2010-04-20-1345-06S.PLUR1_003                                                 6
 STAT SP IPHASW D HRMM SECON CODA AMPLIT PERI AZIMU VELO AIN AR TRES W  DIS CAZ7
 LZ4  SN IP       1345 14.43                              96    0.0110 61.9 304 
 LZ4  SZ E        1345 14.60                  123.6  7.7      0        61.9 304 
 LZ4  SE IS       1345 21.81                              96   -0.0110 61.9 304 
 LZ4  SZ  AML     1345 24.57        15.0 0.44                          61.9 304 
                                                                                
