 2010  421 0934 28.6 L  21.319 -99.268 10.0  RAL  1 0.3 0.7LRAL                1
 GAP=360        2.29     150.2   625.8  0.0 -0.9394E+05  0.3617E+01 -0.6718E+01E
 ACTION:UPD 12-06-08 11:37 OP:RALL STATUS:               ID:20100421093428     I
 2010-04-21-0934-21S.PLUR1_003                                                 6
 STAT SP IPHASW D HRMM SECON CODA AMPLIT PERI AZIMU VELO AIN AR TRES W  DIS CAZ7
 LZ4  SZ E         934 31.01                  162.1 20.3     -9        1.30 352 
 LZ4  SN IP        934 31.03                             173    0.5910 1.30 352 
 LZ4  SE IS        934 31.19                             173   -0.5910 1.30 352 
 LZ4  SZ  AML      934 31.36        30.6 0.16                          1.30 352 
                                                                                
