 2010  423 0838 54.6 L  21.287 -99.409 10.0  RAL  1 0.0 2.2LRAL                1
 GAP=360        0.30       1.4     4.4  0.0  0.6012E+01  0.3617E+01 -0.6718E+01E
 ACTION:UPD 12-06-08 11:37 OP:RALL STATUS:               ID:20100423083854     I
 2010-04-23-0838-47S.PLUR1_003                                                 6
 STAT SP IPHASW D HRMM SECON CODA AMPLIT PERI AZIMU VELO AIN AR TRES W  DIS CAZ7
 LZ4  SZ E         838 57.68                  251.4 17.0      0        15.3  71 
 LZ4  SN IP        838 57.70                             121    0.0010 15.3  71 
 LZ4  SE IS        838 59.97                             121    0.0010 15.3  71 
 LZ4  SZ  AML      839  0.89       476.1 0.32                          15.3  71 
                                                                                
