 2010  423 1807 28.5 L  21.155 -99.015 34.1  RAL  4 1.1 1.7LRAL                1
 GAP=312       15.81      34.1    71.1145.7 -0.1759E+04 -0.1400E+04  0.2827E+03E
 ACTION:UPD 12-06-08 11:37 OP:RALL STATUS:               ID:20100423180728     I
 2010-04-23-1807-26S.PLUR1_012                                                 6
 STAT SP IPHASW D HRMM SECON CODA AMPLIT PERI AZIMU VELO AIN AR TRES W  DIS CAZ7
 LO8  SN IP       18 7 37.81                             145    3.0510 20.6 272 
 LO8  SZ E        18 7 37.88                  130.6  6.9     39        20.6 272 
 LO8  SE IS       18 7 41.25                             145    1.9310 20.6 272 
 LO8  SZ  AML     18 7 41.98        23.8 0.28                          20.6 272 
 LG3  SZ E        18 7 36.45                   45.4 20.3    -72        28.1 299 
 LG3  SN IP       18 7 36.48                             134    1.1210 28.1 299 
 LG3  SE IS       18 7 38.77                             134   -1.5810 28.1 299 
 LG3  SZ  AML     18 7 40.13       219.7 0.24                          28.1 299 
 LT7  SZ E        18 7 36.47                  180.8  8.0     51        41.9 310 
 LT7  SN IP       18 7 36.49                             119   -0.2410 41.9 310 
 LT7  SE IS       18 7 39.21                             119   -3.5110 41.9 310 
 LT7  SZ  AML     18 7 40.14        20.7 0.38                          41.9 310 
 LA4  SN IP       18 7 38.13                             115    0.7010 47.5 320 
 LA4  SE IS       18 7 42.47                             115   -1.4510 47.5 320 
 LA4  SZ E        18 7 38.12                  160.5  8.3     21        47.5 320 
 LA4  SZ  AML     18 7 43.39        86.6 0.26                          47.5 320 
                                                                                
