 2010  423 2058 27.4 L  21.328 -99.277 10.0  RAL  1 0.4 1.0LRAL                1
 GAP=360        4.73     218.2   901.4  0.0 -0.1964E+06 -0.1400E+04  0.2827E+03E
 ACTION:UPD 12-06-08 11:37 OP:RALL STATUS:               ID:20100423205827     I
 2010-04-23-2058-20S.PLUR1_003                                                 6
 STAT SP IPHASW D HRMM SECON CODA AMPLIT PERI AZIMU VELO AIN AR TRES W  DIS CAZ7
 LZ4  SZ E        2058 29.41                  271.9 17.1     22        0.86  69 
 LZ4  SN IP       2058 29.42                             175    0.2010 0.86  69 
 LZ4  SE IS       2058 30.36                             175   -0.2010 0.86  69 
 LZ4  SZ  AML     2058 31.14        52.5 0.46                          0.86  69 
                                                                                
