 2010  425 0916 54.8 L  21.330 -99.281 10.0  RAL  1 0.2 1.3LRAL                1
 GAP=360        0.67     999.9   225.2  0.0 -0.4267E+06 -0.1400E+04  0.2827E+03E
 ACTION:UPD 12-06-08 11:37 OP:RALL STATUS:               ID:20100425091654     I
 2010-04-25-0916-47S.PLUR1_003                                                 6
 STAT SP IPHASW D HRMM SECON CODA AMPLIT PERI AZIMU VELO AIN AR TRES W  DIS CAZ7
 LZ4  SZ E         916 57.00                  265.1 24.5      0        1.21  86 
 LZ4  SN IP        916 57.01                             173    0.3910 1.21  86 
 LZ4  SE IS        916 57.57                             173   -0.3910 1.21  86 
 LZ4  SZ  AML      916 58.24       103.7 0.56                          1.21  86 
                                                                                
