 2010  425 0442 45.8 L  21.186 -99.136 10.0  RAL  1 0.0 0.8LRAL                1
 GAP=360        0.30       2.7     3.6  0.0 -0.9648E+01 -0.1400E+04  0.2827E+03E
 ACTION:UPD 12-06-08 11:37 OP:RALL STATUS:               ID:20100425044245     I
 2010-04-25-0442-40S.PLUR1_003                                                 6
 STAT SP IPHASW D HRMM SECON CODA AMPLIT PERI AZIMU VELO AIN AR TRES W  DIS CAZ7
 LG3  SN IP        442 48.98                             121    0.0110 15.7 309 
 LG3  SZ E         442 49.02                  129.2 17.2      0        15.7 309 
 LG3  SE IS        442 51.28                             121   -0.0110 15.7 309 
 LG3  SZ  AML      442 52.57        17.8 0.20                          15.7 309 
                                                                                
