 2010  425 1911  8.0 L  21.367 -99.411 10.0  RAL  1 0.0 0.9LRAL                1
 GAP=360        0.30       1.2     4.5  0.0 -0.5094E+01 -0.1400E+04  0.2827E+03E
 ACTION:UPD 12-06-08 11:37 OP:RALL STATUS:               ID:20100425191108     I
 2010-04-25-1911-01S.PLUR1_003                                                 6
 STAT SP IPHASW D HRMM SECON CODA AMPLIT PERI AZIMU VELO AIN AR TRES W  DIS CAZ7
 LZ4  SZ E        1911 11.04                  285.4 27.7      0        15.2 105 
 LZ4  SN IP       1911 11.13                             121    0.0010 15.2 105 
 LZ4  SE IS       1911 13.39                             121    0.0010 15.2 105 
 LZ4  SZ  AML     1911 14.64        27.0 0.16                          15.2 105 
                                                                                
