 2010  426 0645 20.6 L  21.289 -99.406 10.0  RAL  1 0.0 1.2LRAL                1
 GAP=360        0.30       1.4     4.4  0.0  0.6014E+01 -0.1400E+04  0.2827E+03E
 ACTION:UPD 12-06-08 11:37 OP:RALL STATUS:               ID:20100426064520     I
 2010-04-26-0645-14S.PLUR1_003                                                 6
 STAT SP IPHASW D HRMM SECON CODA AMPLIT PERI AZIMU VELO AIN AR TRES W  DIS CAZ7
 LZ4  SZ E         645 23.64                  251.8 13.4      0        14.9  72 
 LZ4  SN IP        645 23.70                             122    0.0010 14.9  72 
 LZ4  SE IS        645 25.93                             122    0.0010 14.9  72 
 LZ4  SZ  AML      645 27.68        49.1 0.32                          14.9  72 
                                                                                
