 2010  426 1618 44.8 L  21.155 -99.208 40.3  RAL  2 0.8 0.3LRAL                1
 GAP=339        4.72      37.1    21.6 54.6 -0.6057E+03  0.2634E+03 -0.5385E+03E
 ACTION:UPD 12-06-08 11:37 OP:RALL STATUS:               ID:20100426161844     I
 2010-04-26-1618-45S.PLUR1_006                                                 6
 STAT SP IPHASW D HRMM SECON CODA AMPLIT PERI AZIMU VELO AIN AR TRES W  DIS CAZ7
 LO8  SN IP       1618 53.24                             179    2.3010 0.67 315 
 LO8  SZ E        1618 53.27                  134.1  8.9      0        0.67 315 
 LO8  SE IS       1618 56.64                             179    1.2110 0.67 315 
 LO8  SZ  AML     1618 57.28         2.5 0.34                          0.67 315 
 LT7  SZ E        1618 51.79                  165.9 10.0     11        29.2 335 
 LT7  SN IP       1618 51.80                             137   -0.3710 29.2 335 
 LT7  SE IS       1618 54.43                             137   -3.1410 29.2 335 
 LT7  SZ  AML     1618 55.30         3.0 0.64                          29.2 335 
                                                                                
