 2010  428 0335 24.3 R  21.279 -99.263100.0  RAL  2 0.6 2.5LRAL                1
 GAP=308        3.50       9.2     5.9 41.0 -0.2883E+02  0.2958E+01 -0.6587E+01E
 ACTION:UPD 12-06-08 11:37 OP:RALL STATUS:               ID:20100428033524     I
 2010-04-28-0335-26S.PLUR1_006                                                 6
 STAT SP IPHASW D HRMM SECON CODA AMPLIT PERI AZIMU VELO AIN AR TRES W  DIS CAZ7
 LG3  SZ E         335 38.24                  285.7 12.5      0        1.14 107 
 LG3  SN IP        335 38.37                             179    0.7910 1.14 107 
 LG3  SE IS        335 49.65                             179    2.3610 1.14 107 
 LG3  SZ  AML      335 52.05       333.2 0.22                          1.14 107 
 LO8  SZ E         335 35.83                  341.4  7.0      3        14.1 158 
 LO8  SN IP        335 35.93                             171   -1.8110 14.1 158 
 LO8  SE IS        335 46.23                             171   -1.3410 14.1 158 
 LO8  SZ  AML      335 46.58        80.7 0.18                          14.1 158 
                                                                                
