 2010  428 1152 55.3 L  21.406 -99.300 10.0  RAL  1 0.0 0.6LRAL                1
 GAP=360        0.30       4.1     1.5  0.0 -0.6098E+01  0.2958E+01 -0.6587E+01E
 ACTION:UPD 12-06-08 11:37 OP:RALL STATUS:               ID:20100428115255     I
 2010-04-28-1152-49S.PLUR1_003                                                 6
 STAT SP IPHASW D HRMM SECON CODA AMPLIT PERI AZIMU VELO AIN AR TRES W  DIS CAZ7
 LG3  SN IP       1152 58.42                             122    0.0010 15.2 161 
 LG3  SZ E        1152 58.43                  341.3  6.8      0        15.2 161 
 LG3  SE IS       1153  0.69                             122    0.0010 15.2 161 
 LG3  SZ  AML     1153  1.68        12.8 0.26                          15.2 161 
                                                                                
