 2010  429 0958 55.0 L  21.356 -99.291 10.0  RAL  1 0.1 0.4LRAL                1
 GAP=360        0.45      13.1    11.5  0.0 -0.1513E+03  0.2958E+01 -0.6587E+01E
 ACTION:UPD 12-06-08 11:37 OP:RALL STATUS:               ID:20100429095855     I
 2010-04-29-0958-49S.PLUR1_003                                                 6
 STAT SP IPHASW D HRMM SECON CODA AMPLIT PERI AZIMU VELO AIN AR TRES W  DIS CAZ7
 LZ4  SZ E         958 57.16                  320.7 14.9      0        3.59 141 
 LZ4  SN IP        958 57.17                             161    0.2310 3.59 141 
 LZ4  SE IS        958 58.12                             161   -0.2310 3.59 141 
 LZ4  SZ  AML      958 58.59        14.4 0.14                          3.59 141 
                                                                                
