 2010  429 1934 20.0 L  21.297 -99.369 10.0  RAL  1 0.0 0.4LRAL                1
 GAP=360        0.30       1.7     5.0  0.0  0.8417E+01  0.2958E+01 -0.6587E+01E
 ACTION:UPD 12-06-08 11:37 OP:RALL STATUS:               ID:20100429193420     I
 2010-04-29-1934-15S.PLUR1_003                                                 6
 STAT SP IPHASW D HRMM SECON CODA AMPLIT PERI AZIMU VELO AIN AR TRES W  DIS CAZ7
 LZ4  SZ E        1934 22.60                  250.0 35.1      0        11.0  70 
 LZ4  SN IP       1934 22.62                             132    0.0110 11.0  70 
 LZ4  SE IS       1934 24.48                             132   -0.0110 11.0  70 
 LZ4  SZ  AML     1934 25.39         9.1 0.50                          11.0  70 
                                                                                
