 2010  429 2001 50.4 L  21.554 -99.315 10.0  RAL  1 0.0 0.7LRAL                1
 GAP=360        0.30       3.8     1.0  0.0 -0.2943E+01  0.2958E+01 -0.6587E+01E
 ACTION:UPD 12-06-08 11:37 OP:RALL STATUS:               ID:20100429200150     I
 2010-04-29-2001-48S.PLUR1_003                                                 6
 STAT SP IPHASW D HRMM SECON CODA AMPLIT PERI AZIMU VELO AIN AR TRES W  DIS CAZ7
 LZ4  SN IP       20 1 54.90                             108    0.0110 25.1 169 
 LZ4  SZ E        20 1 54.90                  349.1 10.0      0        25.1 169 
 LZ4  SE IS       20 1 58.17                             108   -0.0110 25.1 169 
 LZ4  SZ  AML     20 2  0.13        10.7 0.20                          25.1 169 
                                                                                
