 2010  430 0706 43.1 L  21.347 -99.296 10.0  RAL  1 0.1 0.6LRAL                1
 GAP=360        0.42       9.0    15.4  0.0 -0.1391E+03  0.2958E+01 -0.6587E+01E
 ACTION:UPD 12-06-08 11:37 OP:RALL STATUS:               ID:20100430070643     I
 2010-04-30-0706-35S.PLUR1_003                                                 6
 STAT SP IPHASW D HRMM SECON CODA AMPLIT PERI AZIMU VELO AIN AR TRES W  DIS CAZ7
 LZ4  SN IP        7 6 45.23                             162    0.2010 3.30 122 
 LZ4  SZ E         7 6 45.24                  302.2 25.4      0        3.30 122 
 LZ4  SE IS        7 6 46.23                             162   -0.2010 3.30 122 
 LZ4  SZ  AML      7 6 46.57        23.2 0.14                          3.30 122 
                                                                                
