 2010  430 0513 42.8 L  21.747 -99.327 10.0  RAL  1 0.0 2.1LRAL                1
 GAP=360        0.30       3.7     1.4  0.0 -0.1724E+01  0.2958E+01 -0.6587E+01E
 ACTION:UPD 12-06-08 11:37 OP:RALL STATUS:               ID:20100430051342     I
 2010-04-30-0513-41S.PLUR1_003                                                 6
 STAT SP IPHASW D HRMM SECON CODA AMPLIT PERI AZIMU VELO AIN AR TRES W  DIS CAZ7
 LZ4  SN IP        513 50.52                              98    0.0110 46.5 173 
 LZ4  SZ E         513 50.61                  352.6 10.5      0        46.5 173 
 LZ4  SE IS        513 56.17                              98   -0.0110 46.5 173 
 LZ4  SZ  AML      513 56.57       164.6 0.26                          46.5 173 
                                                                                
