 2010  430 1259 49.8 L  21.351 -99.297 10.0  RAL  1 0.1 0.9LRAL                1
 GAP=360        0.39       9.1    12.4  0.0 -0.1124E+03  0.2958E+01 -0.6587E+01E
 ACTION:UPD 12-06-08 11:37 OP:RALL STATUS:               ID:20100430125949     I
 2010-04-30-1259-42S.PLUR1_003                                                 6
 STAT SP IPHASW D HRMM SECON CODA AMPLIT PERI AZIMU VELO AIN AR TRES W  DIS CAZ7
 LZ4  SZ E        1259 51.87                  308.1 21.4      0        3.62 128 
 LZ4  SN IP       1259 51.92                             161    0.1710 3.62 128 
 LZ4  SE IS       1259 52.98                             161   -0.1710 3.62 128 
 LZ4  SZ  AML     1259 53.55        44.0 0.36                          3.62 128 
                                                                                
