 2010  430 1644 15.2 L  21.276 -99.252 10.0  RAL  2 1.0 0.2LRAL                1
 GAP=341       16.45      11.8    21.2122.1  0.1990E+03  0.2900E+02 -0.2286E+02E
 ACTION:UPD 12-06-08 11:37 OP:RALL STATUS:               ID:20100430164415     I
 2010-04-30-1644-09S.PLUR1_006                                                 6
 STAT SP IPHASW D HRMM SECON CODA AMPLIT PERI AZIMU VELO AIN AR TRES W  DIS CAZ7
 LG3  SZ E        1644 18.12                   53.1 20.6    -77        0.03 311 
 LG3  SN IP       1644 18.12                             179    1.0510 0.03 311 
 LG3  SE IS       1644 19.70                             179    1.2810 0.03 311 
 LG3  SZ  AML     1644 20.72        11.1 0.24                          0.03 311 
 LT7  SZ E        1644 17.63                  161.4  7.8     11        15.3 330 
 LT7  SN IP       1644 17.70                             122   -0.6110 15.3 330 
 LT7  SE IS       1644 18.85                             122   -1.7110 15.3 330 
 LT7  SZ  AML     1644 18.93         4.4 0.18                          15.3 330 
                                                                                
