 2010  430 1451  6.0 L  21.674 -99.487 10.0  RAL  1 0.0 0.8LRAL                1
 GAP=360        0.30       3.4     2.1  0.0 -0.6059E+01  0.2958E+01 -0.6587E+01E
 ACTION:UPD 12-06-08 11:37 OP:RALL STATUS:               ID:20100430145106     I
 2010-04-30-1451-02S.PLUR1_003                                                 6
 STAT SP IPHASW D HRMM SECON CODA AMPLIT PERI AZIMU VELO AIN AR TRES W  DIS CAZ7
 LT7  SZ E        1451 11.83                  331.7  9.7      0        35.0 152 
 LT7  SN IP       1451 11.97                             101    0.0210 35.0 152 
 LT7  SE IS       1451 16.30                             101   -0.0210 35.0 152 
 LT7  SZ  AML     1451 20.39        10.2 0.60                          35.0 152 
                                                                                
