 2010  428 1152 49.0 L                       RAL                               1
 2010-04-28-1152-49S.PLUR1_003                                                 6
 STAT SP IPHASW D HRMM SECON CODA AMPLIT PERI AZIMU VELO AIN AR TRES W  DIS CAZ7
                                                                                
