 2008  8 1  936 44.2 L                                                         1
 ACTION:REG 09-08-31 18:33 OP:RALL STATUS:               ID:20080801093644     I
 2008-08-01-0936-44S.PLUR__006                                                 6
 STAT SP IPHASW D HRMM SECON CODA AMPLIT PERI AZIMU VELO AIN AR TRES W  DIS CAZ7
                                                                                
