 2008  8 2  711  7.5 L                                                         1
 ACTION:REG 09-08-31 18:33 OP:RALL STATUS:               ID:20080802071107     I
 2008-08-02-0711-07S.PLUR__006                                                 6
 STAT SP IPHASW D HRMM SECON CODA AMPLIT PERI AZIMU VELO AIN AR TRES W  DIS CAZ7
                                                                                
