 2008  8 2  140 19.3 L                                                         1
 ACTION:REG 09-08-31 18:33 OP:RALL STATUS:               ID:20080802014019     I
 2008-08-02-0140-19S.PLUR__006                                                 6
 STAT SP IPHASW D HRMM SECON CODA AMPLIT PERI AZIMU VELO AIN AR TRES W  DIS CAZ7
                                                                                
