 2008  8 2  834 47.2 L                                                         1
 2008-08-02-0834-47S.PLUR__006                                                 6
 STAT SP IPHASW D HRMM SECON CODA AMPLIT PERI AZIMU VELO AIN AR TRES W  DIS CAZ7
                                                                                
