 2010 11 1 0404 51.4 L  21.737 -99.345 10.0  RAL  1 0.0 1.8LRAL                1
 GAP=360        0.30       3.8     1.0  0.0 -0.2007E+01  0.5903E+01 -0.6551E+01E
 ACTION:UPD 12-06-08 11:37 OP:RALL STATUS:               ID:20101101040451     I
 2010-11-01-0404-47S.PLUR1_003                                                 6
 STAT SP IPHASW D HRMM SECON CODA AMPLIT PERI AZIMU VELO AIN AR TRES W  DIS CAZ7
 LA4  SZ E         4 4 56.34                  352.4  8.3      0        28.3 172 
 LA4  SN IP        4 4 56.46                             105    0.0110 28.3 172 
 LA4  SE IS        4 5  0.09                             105   -0.0110 28.3 172 
 LA4  SZ  AML      4 5  1.79       137.8 0.32                          28.3 172 
                                                                                
