 2010 11 1 1033 35.7 L  21.339 -99.246 10.0  RAL  1 0.0 1.1LRAL                1
 GAP=360        0.30       3.9     1.7  0.0 -0.6446E+01  0.5903E+01 -0.6551E+01E
 ACTION:UPD 12-06-08 11:37 OP:RALL STATUS:               ID:20101101103335     I
 2010-11-01-1033-29S.PLUR1_003                                                 6
 STAT SP IPHASW D HRMM SECON CODA AMPLIT PERI AZIMU VELO AIN AR TRES W  DIS CAZ7
 LA4  SZ E        1033 39.12                  157.8  6.6      0        17.3 338 
 LA4  SN IP       1033 39.15                             118    0.0010 17.3 338 
 LA4  SE IS       1033 41.63                             118    0.0010 17.3 338 
 LA4  SZ  AML     1033 44.03        41.0 0.30                          17.3 338 
                                                                                
