 2010 11 1 1243 13.8 L  21.764 -99.404 10.0  RAL  1 0.0 2.9LRAL                1
 GAP=360        0.30       3.6     1.5  0.0 -0.4241E+01  0.5903E+01 -0.6551E+01E
 ACTION:UPD 12-06-08 11:37 OP:RALL STATUS:               ID:20101101124313     I
 2010-11-01-1243-09S.PLUR1_003                                                 6
 STAT SP IPHASW D HRMM SECON CODA AMPLIT PERI AZIMU VELO AIN AR TRES W  DIS CAZ7
 LA4  SN IP       1243 19.46                             103    0.0110 32.6 162 
 LA4  SZ E        1243 19.49                  342.5  8.1      0        32.6 162 
 LA4  SE IS       1243 23.55                             103   -0.0110 32.6 162 
 LA4  SZ  AML     1243 25.07      1486.3 0.30                          32.6 162 
                                                                                
