 2010 11 1 2237  4.7 L  21.546 -99.348 10.0  RAL  1 0.0 0.5LRAL                1
 GAP=360        0.30       5.2     3.3  0.0 -0.1677E+02  0.5903E+01 -0.6551E+01E
 ACTION:UPD 12-06-08 11:37 OP:RALL STATUS:               ID:20101101223704     I
 2010-11-01-2236-58S.PLUR1_003                                                 6
 STAT SP IPHASW D HRMM SECON CODA AMPLIT PERI AZIMU VELO AIN AR TRES W  DIS CAZ7
 LA4  SN IP       2237  6.97                             141    0.0310 8.04 149 
 LA4  SZ E        2237  7.00                  329.5  8.4      0        8.04 149 
 LA4  SE IS       2237  8.58                             141   -0.0310 8.04 149 
 LA4  SZ  AML     2237  9.33        15.0 0.24                          8.04 149 
                                                                                
