 2010 11 2 1557  9.4 L  21.326 -99.233 10.0  RAL  1 0.0 0.6LRAL                1
 GAP=360        0.30       3.7     1.9  0.0 -0.6548E+01  0.5903E+01 -0.6551E+01E
 ACTION:UPD 12-06-08 11:37 OP:RALL STATUS:               ID:20101102155709     I
 2010-11-02-1557-06S.PLUR1_003                                                 6
 STAT SP IPHASW D HRMM SECON CODA AMPLIT PERI AZIMU VELO AIN AR TRES W  DIS CAZ7
 LA4  SZ E        1557 13.00                  155.8 10.7      0        19.1 336 
 LA4  SN IP       1557 13.01                             115    0.0010 19.1 336 
 LA4  SE IS       1557 15.67                             115    0.0010 19.1 336 
 LA4  SZ  AML     1557 15.98        10.5 0.34                          19.1 336 
                                                                                
