 2010 11 4 0657 16.0 L  21.737 -99.324 10.0  RAL  1 0.0 1.5LRAL                1
 GAP=360        0.30       3.8     0.8  0.0 -0.8285E+00  0.5903E+01 -0.6551E+01E
 ACTION:UPD 12-06-08 11:37 OP:RALL STATUS:               ID:20101104065716     I
 2010-11-04-0657-12S.PLUR1_003                                                 6
 STAT SP IPHASW D HRMM SECON CODA AMPLIT PERI AZIMU VELO AIN AR TRES W  DIS CAZ7
 LA4  SN IP        657 20.98                             106    0.0110 28.0 177 
 LA4  SZ E         657 21.04                  356.9  8.9      0        28.0 177 
 LA4  SE IS        657 24.58                             106   -0.0110 28.0 177 
 LA4  SZ  AML      657 25.33        58.5 0.38                          28.0 177 
                                                                                
