 2010 11 4 0840  9.5 L  21.213 -99.266 10.0  RAL  1 0.0 1.8LRAL                1
 GAP=360        0.30       3.8     1.0  0.0 -0.2182E+01  0.5903E+01 -0.6551E+01E
 ACTION:UPD 12-06-08 11:37 OP:RALL STATUS:               ID:20101104084009     I
 2010-11-04-0840-05S.PLUR1_003                                                 6
 STAT SP IPHASW D HRMM SECON CODA AMPLIT PERI AZIMU VELO AIN AR TRES W  DIS CAZ7
 LA4  SN IP        840 14.83                             104    0.0110 30.3 351 
 LA4  SN EP        840 14.83                                           30.3 351 
 LA4  SZ E         840 14.91                  171.5  7.6      0        30.3 351 
 LA4  SE IS        840 18.68                             104   -0.0110 30.3 351 
 LA4  SZ  AML      840 19.83       118.5 0.34                          30.3 351 
                                                                                
