 2010 11 5 0835 41.1 L  21.316 -99.273 10.0  RAL  1 0.0 1.4LRAL                1
 GAP=360        0.30       4.0     1.0  0.0 -0.3491E+01  0.5903E+01 -0.6551E+01E
 ACTION:UPD 12-06-08 11:37 OP:RALL STATUS:               ID:20101105083541     I
 2010-11-05-0835-35S.PLUR1_003                                                 6
 STAT SP IPHASW D HRMM SECON CODA AMPLIT PERI AZIMU VELO AIN AR TRES W  DIS CAZ7
 LA4  SN IP        835 44.78                             115    0.0210 18.9 348 
 LA4  SZ E         835 44.80                  168.5  7.0      0        18.9 348 
 LA4  SE IS        835 47.38                             115   -0.0210 18.9 348 
 LA4  SZ  AML      835 47.65        77.7 0.24                          18.9 348 
                                                                                
