 2010 11 5 1518  3.6 L  21.604 -99.336 10.0  RAL  1 0.0 0.5LRAL                1
 GAP=360        0.30       4.4     1.1  0.0 -0.4320E+01  0.5903E+01 -0.6551E+01E
 ACTION:UPD 12-06-08 11:37 OP:RALL STATUS:               ID:20101105151803     I
 2010-11-05-1517-59S.PLUR1_003                                                 6
 STAT SP IPHASW D HRMM SECON CODA AMPLIT PERI AZIMU VELO AIN AR TRES W  DIS CAZ7
 LA4  SN IP       1518  6.56                             125    0.0010 13.6 168 
 LA4  SZ E        1518  6.58                  348.3  8.4      0        13.6 168 
 LA4  SE IS       1518  8.68                             125    0.0010 13.6 168 
 LA4  SZ  AML     1518  8.82        10.5 0.10                          13.6 168 
                                                                                
