 2010 11 5 1603 57.6 L  21.598 -99.322 10.0  RAL  1 0.0 1.4LRAL                1
 GAP=360        0.30       4.6     0.6  0.0 -0.2351E+01  0.5903E+01 -0.6551E+01E
 ACTION:UPD 12-06-08 11:37 OP:RALL STATUS:               ID:20101105160357     I
 2010-11-05-1603-51S.PLUR1_003                                                 6
 STAT SP IPHASW D HRMM SECON CODA AMPLIT PERI AZIMU VELO AIN AR TRES W  DIS CAZ7
 LA4  SN IP       16 4  0.38                             127    0.0010 12.7 174 
 LA4  SZ E        16 4  0.43                  354.1  7.1      0        12.7 174 
 LA4  SE IS       16 4  2.42                             127    0.0010 12.7 174 
 LA4  SZ  AML     16 4  2.67        81.2 0.26                          12.7 174 
                                                                                
