 2010 11 6 1253  8.9 L  21.502 -99.327 10.0  RAL  1 0.2 0.7LRAL                1
 GAP=360        0.76      27.3    27.0  0.0 -0.7364E+03  0.5903E+01 -0.6551E+01E
 ACTION:UPD 12-06-08 11:37 OP:RALL STATUS:               ID:20101106125308     I
 2010-11-06-1253-01S.PLUR1_003                                                 6
 STAT SP IPHASW D HRMM SECON CODA AMPLIT PERI AZIMU VELO AIN AR TRES W  DIS CAZ7
 LA4  SN IP       1253 11.24                             165    0.4710 2.75 137 
 LA4  SZ E        1253 11.27                  317.4 11.6      0        2.75 137 
 LA4  SE IS       1253 11.68                             165   -0.4710 2.75 137 
 LA4  SZ  AML     1253 11.97        27.5 0.16                          2.75 137 
                                                                                
