 2010 11 8 2212 59.7 L  21.533 -99.318 10.0  RAL  1 0.0 0.7LRAL                1
 GAP=360        0.30       7.7     1.4  0.0 -0.1076E+02  0.5903E+01 -0.6551E+01E
 ACTION:UPD 12-06-08 11:37 OP:RALL STATUS:               ID:20101108221259     I
 2010-11-08-2212-53S.PLUR1_003                                                 6
 STAT SP IPHASW D HRMM SECON CODA AMPLIT PERI AZIMU VELO AIN AR TRES W  DIS CAZ7
 LA4  SZ E        2213  1.78                  350.4  8.4      0        5.56 170 
 LA4  SN IP       2213  1.80                             152    0.0210 5.56 170 
 LA4  SE IS       2213  3.26                             152   -0.0210 5.56 170 
 LA4  SZ  AML     2213  3.36        23.2 0.26                          5.56 170 
                                                                                
