 2010 1110 1821 22.9 L  21.734 -99.391 10.0  RAL  1 0.0                        1
 GAP=360        0.30       3.7     1.4  0.0 -0.4263E+01  0.5903E+01 -0.6551E+01E
 ACTION:UPD 12-06-08 11:37 OP:RALL STATUS:               ID:20101110182122     I
 2010-11-10-1821-18S.PLUR1_003                                                 6
 STAT SP IPHASW D HRMM SECON CODA AMPLIT PERI AZIMU VELO AIN AR TRES W  DIS CAZ7
 LA4  SN IP       1821 27.96                             105    0.0110 29.0 163 
 LA4  SZ E        1821 27.97                  343.0  7.7      0        29.0 163 
 LA4  SE IS       1821 31.65                             105   -0.0110 29.0 163 
                                                                                
