 2010 1111 0809 34.0 L  21.230 -99.286 10.0  RAL  1 0.0 1.1LRAL                1
 GAP=360        0.30       3.8     0.9  0.0 -0.1296E+01  0.5903E+01 -0.6551E+01E
 ACTION:UPD 12-06-08 11:37 OP:RALL STATUS:               ID:20101111080934     I
 2010-11-11-0809-30S.PLUR1_003                                                 6
 STAT SP IPHASW D HRMM SECON CODA AMPLIT PERI AZIMU VELO AIN AR TRES W  DIS CAZ7
 LA4  SZ E         8 9 39.00                  175.1  9.0      0        28.2 355 
 LA4  SN IP        8 9 39.01                             105    0.0110 28.2 355 
 LA4  SE IS        8 9 42.63                             105   -0.0110 28.2 355 
 LA4  SZ  AML      8 9 45.01        27.3 0.18                          28.2 355 
                                                                                
