 2010 1111 0346 14.7 L  21.594 -99.351 10.0  RAL  1 0.0 0.3LRAL                1
 GAP=360        0.30       4.3     1.7  0.0 -0.7222E+01  0.5903E+01 -0.6551E+01E
 ACTION:UPD 12-06-08 11:37 OP:RALL STATUS:               ID:20101111034614     I
 2010-11-11-0346-09S.PLUR1_003                                                 6
 STAT SP IPHASW D HRMM SECON CODA AMPLIT PERI AZIMU VELO AIN AR TRES W  DIS CAZ7
 LA4  SZ E         346 17.57                  340.2  6.9      0        13.0 160 
 LA4  SN IP        346 17.57                             127    0.0110 13.0 160 
 LA4  SE IS        346 19.62                             127   -0.0110 13.0 160 
 LA4  SZ  AML      346 19.76         7.8 0.34                          13.0 160 
                                                                                
