 2010 1112 2334 18.9 L  21.646 -99.277 10.0  RAL  1 0.0 0.8LRAL                1
 GAP=360        0.30       4.1     0.9  0.0  0.3215E+01  0.5903E+01 -0.6551E+01E
 ACTION:UPD 12-06-08 11:37 OP:RALL STATUS:               ID:20101112233418     I
 2010-11-12-2334-15S.PLUR1_003                                                 6
 STAT SP IPHASW D HRMM SECON CODA AMPLIT PERI AZIMU VELO AIN AR TRES W  DIS CAZ7
 LA4  SN IP       2334 22.42                             116    0.0210 18.2 190 
 LA4  SZ E        2334 22.45                   10.3  9.6      0        18.2 190 
 LA4  SE IS       2334 24.95                             116   -0.0210 18.2 190 
 LA4  SZ  AML     2334 25.15        18.1 0.26                          18.2 190 
                                                                                
