 2010 1113 1647 45.4 L  21.298 -99.316 10.0  RAL  1 0.0 1.0LRAL                1
 GAP=360        0.30       4.0     0.6  0.0  0.6249E+00  0.5903E+01 -0.6551E+01E
 ACTION:UPD 12-06-08 11:37 OP:RALL STATUS:               ID:20101113164745     I
 2010-11-13-1647-40S.PLUR1_003                                                 6
 STAT SP IPHASW D HRMM SECON CODA AMPLIT PERI AZIMU VELO AIN AR TRES W  DIS CAZ7
 LA4  SZ E        1647 49.22                  182.1 11.6      0        20.6   2 
 LA4  SN IP       1647 49.24                             113    0.0110 20.6   2 
 LA4  SE IS       1647 52.03                             113   -0.0110 20.6   2 
 LA4  SZ  AML     1647 52.38        25.5 0.28                          20.6   2 
                                                                                
