 2010 1113 1209 16.3 L  21.551 -99.297 10.0  RAL  1 0.0 0.4LRAL                1
 GAP=360        0.30       6.1     1.1  0.0  0.6577E+01  0.5903E+01 -0.6551E+01E
 ACTION:UPD 12-06-08 11:37 OP:RALL STATUS:               ID:20101113120916     I
 2010-11-13-1209-10S.PLUR1_003                                                 6
 STAT SP IPHASW D HRMM SECON CODA AMPLIT PERI AZIMU VELO AIN AR TRES W  DIS CAZ7
 LA4  SZ E        12 9 18.52                    9.4  8.0      0        7.60 189 
 LA4  SN IP       12 9 18.54                             143    0.0110 7.60 189 
 LA4  SE IS       12 9 20.15                             143   -0.0110 7.60 189 
 LA4  SZ  AML     12 9 20.36        12.0 0.16                          7.60 189 
                                                                                
