 2010 1113 1454 47.5 L  21.601 -99.368 10.0  RAL  1 0.0 1.7LRAL                1
 GAP=360        0.30       4.0     2.1  0.0 -0.8075E+01  0.5903E+01 -0.6551E+01E
 ACTION:UPD 12-06-08 11:37 OP:RALL STATUS:               ID:20101113145447     I
 2010-11-13-1454-40S.PLUR1_003                                                 6
 STAT SP IPHASW D HRMM SECON CODA AMPLIT PERI AZIMU VELO AIN AR TRES W  DIS CAZ7
 LA4  SZ E        1454 50.52                  334.7  7.4      0        14.4 155 
 LA4  SN IP       1454 50.52                             123    0.0110 14.4 155 
 LA4  SE IS       1454 52.70                             123   -0.0110 14.4 155 
 LA4  SZ  AML     1454 52.78       171.3 0.12                          14.4 155 
                                                                                
