 2010 1114 0440  8.9 L  21.271 -99.377 10.0  RAL  1 0.0 1.2LRAL                1
 GAP=360        0.30       3.8     1.4  0.0  0.4377E+01  0.5903E+01 -0.6551E+01E
 ACTION:UPD 12-06-08 11:37 OP:RALL STATUS:               ID:20101114044008     I
 2010-11-14-0440-04S.PLUR1_003                                                 6
 STAT SP IPHASW D HRMM SECON CODA AMPLIT PERI AZIMU VELO AIN AR TRES W  DIS CAZ7
 LA4  SZ E         440 13.34                  196.6 13.1      0        24.5  17 
 LA4  SN IP        440 13.39                             108    0.0210 24.5  17 
 LA4  SE IS        440 16.59                             108   -0.0210 24.5  17 
 LA4  SZ  AML      440 17.33        32.1 0.26                          24.5  17 
                                                                                
