 2010 1115 0317 22.4 L  21.340 -99.223 10.0  RAL  1 0.0 0.6LRAL                1
 GAP=360        0.30       3.6     2.2  0.0 -0.7673E+01  0.5903E+01 -0.6551E+01E
 ACTION:UPD 12-06-08 11:37 OP:RALL STATUS:               ID:20101115031722     I
 2010-11-15-0317-19S.PLUR1_003                                                 6
 STAT SP IPHASW D HRMM SECON CODA AMPLIT PERI AZIMU VELO AIN AR TRES W  DIS CAZ7
 LA4  SN IP        317 25.91                             116    0.0010 18.2 331 
 LA4  SZ E         317 26.01                  150.7  7.6      0        18.2 331 
 LA4  SE IS        317 28.47                             116    0.0010 18.2 331 
 LA4  SZ  AML      317 29.06        10.5 0.20                          18.2 331 
                                                                                
