 2010 1115 1939 28.6 L  21.515 -99.351 10.0  RAL  1 0.0 0.5LRAL                1
 GAP=360        0.31       5.0     6.8  0.0 -0.3424E+02  0.5903E+01 -0.6551E+01E
 ACTION:UPD 12-06-08 11:37 OP:RALL STATUS:               ID:20101115193928     I
 2010-11-15-1939-21S.PLUR1_003                                                 6
 STAT SP IPHASW D HRMM SECON CODA AMPLIT PERI AZIMU VELO AIN AR TRES W  DIS CAZ7
 LA4  SZ E        1939 30.56                  308.3 13.1      0        5.60 128 
 LA4  SN IP       1939 30.76                             151    0.0610 5.60 128 
 LA4  SE IS       1939 32.14                             151   -0.0610 5.60 128 
 LA4  SZ  AML     1939 32.39        15.2 0.46                          5.60 128 
                                                                                
