 2010 1116 1115 30.4 L  21.480 -99.310 10.0  RAL  1 0.2 0.3LRAL                1
 GAP=360        1.12     999.9   999.9  0.0 -0.7462E+07  0.5903E+01 -0.6551E+01E
 ACTION:UPD 12-06-08 11:37 OP:RALL STATUS:               ID:20101116111530     I
 2010-11-16-1115-23S.PLUR1_003                                                 6
 STAT SP IPHASW D HRMM SECON CODA AMPLIT PERI AZIMU VELO AIN AR TRES W  DIS CAZ7
 LA4  SZ E        1115 32.65                  199.8 11.1      4        0.44  15 
 LA4  SN IP       1115 32.67                             178    0.4010 0.44  15 
 LA4  SE IS       1115 33.21                             178   -0.4010 0.44  15 
 LA4  SZ  AML     1115 33.25        10.7 0.10                          0.44  15 
                                                                                
