 2010 1116 1344 54.0 L  21.477 -99.459 10.0  RAL  1 0.0 0.9LRAL                1
 GAP=360        0.30       0.5     4.7  0.0  0.9600E+00  0.5903E+01 -0.6551E+01E
 ACTION:UPD 12-06-08 11:37 OP:RALL STATUS:               ID:20101116134454     I
 2010-11-16-1344-47S.PLUR1_003                                                 6
 STAT SP IPHASW D HRMM SECON CODA AMPLIT PERI AZIMU VELO AIN AR TRES W  DIS CAZ7
 LA4  SZ E        1344 57.16                  267.3 18.2      0        15.5  87 
 LA4  SN IP       1344 57.19                             121    0.0210 15.5  87 
 LA4  SE IS       1344 59.45                             121   -0.0210 15.5  87 
 LA4  SZ  AML     1345  0.09        23.8 0.18                          15.5  87 
                                                                                
