 2010 1118 0757 29.1 L  21.603 -99.382 10.0  RAL  1 0.0 0.9LRAL                1
 GAP=360        0.30       3.8     2.3  0.0 -0.8656E+01  0.5903E+01 -0.6551E+01E
 ACTION:UPD 12-06-08 11:37 OP:RALL STATUS:               ID:20101118075729     I
 2010-11-18-0757-22S.PLUR1_003                                                 6
 STAT SP IPHASW D HRMM SECON CODA AMPLIT PERI AZIMU VELO AIN AR TRES W  DIS CAZ7
 LA4  SZ E         757 32.18                  330.2 10.5      0        15.2 150 
 LA4  SN IP        757 32.26                             122    0.0110 15.2 150 
 LA4  SE IS        757 34.52                             122   -0.0110 15.2 150 
 LA4  SZ  AML      757 34.82        28.1 0.34                          15.2 150 
                                                                                
