 2010 1118 1745 55.8 L  21.522 -99.340 10.0  RAL  1 0.0 0.3LRAL                1
 GAP=360        0.31       6.7     5.5  0.0 -0.3713E+02  0.5903E+01 -0.6551E+01E
 ACTION:UPD 12-06-08 11:37 OP:RALL STATUS:               ID:20101118174555     I
 2010-11-18-1745-49S.PLUR1_003                                                 6
 STAT SP IPHASW D HRMM SECON CODA AMPLIT PERI AZIMU VELO AIN AR TRES W  DIS CAZ7
 LA4  SZ E        1745 57.94                  322.6 10.3      0        5.32 143 
 LA4  SN IP       1745 57.94                             153    0.0710 5.32 143 
 LA4  SZ  AML     1745 59.06        10.4 0.54                          5.32 143 
 LA4  SE IS       1745 59.30                             153   -0.0710 5.32 143 
                                                                                
