 2010 1118 2055  9.6 L  20.801 -99.138 10.0  RAL  1 0.0 2.0LRAL                1
 GAP=360        0.30       3.6     2.3  0.0 -0.2303E+01  0.5903E+01 -0.6551E+01E
 ACTION:UPD 12-06-08 11:37 OP:RALL STATUS:               ID:20101118205509     I
 2010-11-18-2055-12S.PLUR1_003                                                 6
 STAT SP IPHASW D HRMM SECON CODA AMPLIT PERI AZIMU VELO AIN AR TRES W  DIS CAZ7
 LA4  SZ E        2055 22.11                  166.8 23.2      0        77.7 347 
 LA4  SN IP       2055 22.19                              94    0.0110 77.7 347 
 LA4  SE IS       2055 31.36                              94   -0.0110 77.7 347 
 LA4  SZ  AML     2055 33.15        79.3 0.32                          77.7 347 
                                                                                
