 2010 1120 1645  1.1 L  21.274 -99.179 10.0  RAL  1 0.0 1.0LRAL                1
 GAP=360        0.30       3.4     2.2  0.0 -0.6793E+01  0.5903E+01 -0.6551E+01E
 ACTION:UPD 12-06-08 11:37 OP:RALL STATUS:               ID:20101120164501     I
 2010-11-20-1644-56S.PLUR1_003                                                 6
 STAT SP IPHASW D HRMM SECON CODA AMPLIT PERI AZIMU VELO AIN AR TRES W  DIS CAZ7
 LA4  SZ E        1645  5.88                  149.9  7.3      0        26.9 330 
 LA4  SN IP       1645  5.94                             106    0.0310 26.9 330 
 LA4  SE IS       1645  9.38                             106   -0.0310 26.9 330 
 LA4  SZ  AML     1645  9.43        18.7 0.86                          26.9 330 
                                                                                
