 2010 1121 0026 20.8 L  21.604 -99.351 10.0  RAL  1 0.0 1.8LRAL                1
 GAP=360        0.30       4.2     1.5  0.0 -0.6266E+01  0.5903E+01 -0.6551E+01E
 ACTION:UPD 12-06-08 11:37 OP:RALL STATUS:               ID:20101121002620     I
 2010-11-21-0026-14S.PLUR1_003                                                 6
 STAT SP IPHASW D HRMM SECON CODA AMPLIT PERI AZIMU VELO AIN AR TRES W  DIS CAZ7
 LA4  SZ E         026 23.75                  342.0  8.6      0        14.0 162 
 LA4  SN IP        026 23.78                             124    0.0010 14.0 162 
 LA4  SE IS        026 25.93                             124    0.0010 14.0 162 
 LA4  SZ  AML      026 26.00       225.1 0.32                          14.0 162 
                                                                                
