 2010 1122 0544  1.9 L  21.632 -99.371 10.0  RAL  1 0.0 1.5LRAL                1
 GAP=360        0.30       3.9     1.7  0.0 -0.6224E+01  0.5903E+01 -0.6551E+01E
 ACTION:UPD 12-06-08 11:37 OP:RALL STATUS:               ID:20101122054401     I
 2010-11-22-0543-56S.PLUR1_003                                                 6
 STAT SP IPHASW D HRMM SECON CODA AMPLIT PERI AZIMU VELO AIN AR TRES W  DIS CAZ7
 LA4  SZ E         544  5.27                  338.6  7.8      0        17.6 159 
 LA4  SN IP        544  5.30                             117    0.0010 17.6 159 
 LA4  SE IS        544  7.81                             117    0.0010 17.6 159 
 LA4  SZ  AML      544  8.19        92.9 0.28                          17.6 159 
                                                                                
