 2010 1125 0249 49.7 L  21.592 -99.351 10.0  RAL  1 0.0 1.0LRAL                1
 GAP=360        0.30       4.4     1.7  0.0 -0.7356E+01  0.5903E+01 -0.6551E+01E
 ACTION:UPD 12-06-08 11:37 OP:RALL STATUS:               ID:20101125024949     I
 2010-11-25-0249-43S.PLUR1_003                                                 6
 STAT SP IPHASW D HRMM SECON CODA AMPLIT PERI AZIMU VELO AIN AR TRES W  DIS CAZ7
 LA4  SZ E         249 52.47                  340.1  7.0      0        12.7 160 
 LA4  SN IP        249 52.49                             127    0.0110 12.7 160 
 LA4  SE IS        249 54.52                             127   -0.0110 12.7 160 
 LA4  SZ  AML      249 54.62        36.2 0.12                          12.7 160 
                                                                                
