 2010 1127 1922 14.1 L  21.673 -99.419 10.0  RAL  1 0.0 2.9LRAL                1
 GAP=360        0.30       3.4     2.1  0.0 -0.6745E+01  0.5903E+01 -0.6551E+01E
 ACTION:UPD 12-06-08 11:37 OP:RALL STATUS:               ID:20101127192214     I
 2010-11-27-1922-09S.PLUR1_003                                                 6
 STAT SP IPHASW D HRMM SECON CODA AMPLIT PERI AZIMU VELO AIN AR TRES W  DIS CAZ7
 LA4  SZ E        1922 18.48                  331.4 10.2      0        23.8 151 
 LA4  SN IP       1922 18.48                             109    0.0010 23.8 151 
 LA4  SE IS       1922 21.64                             109    0.0010 23.8 151 
 LA4  SZ  AML     1922 23.04      1870.1 0.28                          23.8 151 
                                                                                
