 2009  1 1 0116 16.8 L  21.391 -99.535 10.0  RAL  1 0.0 0.3LRAL                1
 GAP=360        0.30       1.7     3.8  0.0  0.5831E+01 -0.4467E+01 -0.4239E+02E
 ACTION:UPD 12-06-08 11:37 OP:RALL STATUS:               ID:20090101011616     I
 2009-01-01-0116-10S.PLUR1_003                                                 6
 STAT SP IPHASW D HRMM SECON CODA AMPLIT PERI AZIMU VELO AIN AR TRES W  DIS CAZ7
 LA4  SN IP        116 21.44                             107    0.0210 25.6  66 
 LA4  SE IS        116 24.75                             107   -0.0210 25.6  66 
 LA4  SZ E         116 21.38                  246.4 35.0      0        25.6  66 
 LA4  SZ  AML      116 25.34         4.0 0.22                          25.6  66 
                                                                                
