 2009  1 1 1830  8.8 L  21.290 -99.283 10.0  RAL  1 0.0 0.4LRAL                1
 GAP=360        0.30       8.5     2.8  0.0  0.2349E+02 -0.4467E+01 -0.4239E+02E
 ACTION:UPD 12-06-08 11:37 OP:RALL STATUS:               ID:20090101183008     I
 2009-01-01-1830-02S.PLUR1_003                                                 6
 STAT SP IPHASW D HRMM SECON CODA AMPLIT PERI AZIMU VELO AIN AR TRES W  DIS CAZ7
 LZ4  SN IP       1830 10.86                             155    0.0310 4.72  17 
 LZ4  SZ E        1830 10.87                  196.8 13.4      0        4.72  17 
 LZ4  SE IS       1830 12.26                             155   -0.0310 4.72  17 
 LZ4  SZ  AML     1830 14.74        12.6 0.44                          4.72  17 
                                                                                
