 2009  1 1 1235 57.5 L  21.351 -99.282 10.0  RAL  1 0.1 0.7LRAL                1
 GAP=360        0.62     542.3   999.9  0.0  0.5790E+06 -0.4467E+01 -0.4239E+02E
 ACTION:UPD 12-06-08 11:37 OP:RALL STATUS:               ID:20090101123557     I
 2009-01-01-1235-50S.PLUR1_003                                                 6
 STAT SP IPHASW D HRMM SECON CODA AMPLIT PERI AZIMU VELO AIN AR TRES W  DIS CAZ7
 LZ4  SZ E        1235 59.69                  329.8 23.0      0        2.58 150 
 LZ4  SN IP       1235 59.72                             166    0.3710 2.58 150 
 LZ4  SE IS       1236  0.35                             166   -0.3710 2.58 150 
 LZ4  SZ  AML     1236  0.46        29.5 0.18                          2.58 150 
                                                                                
