 2009  1 1 1012 22.8 L  21.255 -99.238 10.0  RAL  1 0.0 1.1LRAL                1
 GAP=360        0.30       5.2     2.2  0.0 -0.1124E+02 -0.4467E+01 -0.4239E+02E
 ACTION:UPD 12-06-08 11:37 OP:RALL STATUS:               ID:20090101101222     I
 2009-01-01-1012-16S.PLUR1_003                                                 6
 STAT SP IPHASW D HRMM SECON CODA AMPLIT PERI AZIMU VELO AIN AR TRES W  DIS CAZ7
 LZ4  SN IP       1012 25.16                             138    0.0210 8.96 339 
 LZ4  SZ E        1012 25.18                  158.6  8.7      0        8.96 339 
 LZ4  SE IS       1012 26.83                             138   -0.0210 8.96 339 
 LZ4  SZ  AML     1012 27.99        56.8 0.30                          8.96 339 
                                                                                
