 2009  1 1 2347 34.6 L  21.649 -99.311 10.0  RAL  1 0.0 0.4LRAL                1
 GAP=360        0.30       4.1     0.5  0.0 -0.1583E+00 -0.4467E+01 -0.4239E+02E
 ACTION:UPD 12-06-08 11:37 OP:RALL STATUS:               ID:20090101234734     I
 2009-01-01-2347-26S.PLUR1_003                                                 6
 STAT SP IPHASW D HRMM SECON CODA AMPLIT PERI AZIMU VELO AIN AR TRES W  DIS CAZ7
 LA4  SZ E        2347 38.17                  359.5  7.6      0        18.3 179 
 LA4  SN IP       2347 38.19                             116    0.0210 18.3 179 
 LA4  SE IS       2347 40.74                             116   -0.0210 18.3 179 
 LA4  SZ  AML     2347 42.29         7.4 0.46                          18.3 179 
                                                                                
