 2009  1 1 2317 57.5 L  21.370 -99.293 10.0  RAL  1 0.0-0.1LRAL                1
 GAP=360        0.30       4.6     0.8  0.0 -0.3044E+01 -0.4467E+01 -0.4239E+02E
 ACTION:UPD 12-06-08 11:37 OP:RALL STATUS:               ID:20090101231757     I
 2009-01-01-2317-47S.PLUR1_003                                                 6
 STAT SP IPHASW D HRMM SECON CODA AMPLIT PERI AZIMU VELO AIN AR TRES W  DIS CAZ7
 LA4  SN IP       2318  0.32                             127    0.0010 12.7 352 
 LA4  SZ E        2318  0.34                  172.3  8.0      0        12.7 352 
 LA4  SE IS       2318  2.36                             127    0.0010 12.7 352 
 LA4  SZ  AML     2318  2.47         2.7 0.10                          12.7 352 
                                                                                
