 2009  1 1 2019 22.4 L  21.442 -99.313 10.0  RAL  1 0.0 0.3LRAL                1
 GAP=360        0.30       3.6     1.5  0.0 -0.4398E+01 -0.4467E+01 -0.4239E+02E
 ACTION:UPD 12-06-08 11:37 OP:RALL STATUS:               ID:20090101201922     I
 2009-01-01-2019-22S.PLUR1_003                                                 6
 STAT SP IPHASW D HRMM SECON CODA AMPLIT PERI AZIMU VELO AIN AR TRES W  DIS CAZ7
 LO8  SN IP       2019 28.16                             103    0.0110 32.9 162 
 LO8  SZ E        2019 28.55                  341.7  7.8      0        32.9 162 
 LO8  SE IS       2019 32.30                             103   -0.0110 32.9 162 
 LO8  SZ  AML     2019 32.45         3.9 0.40                          32.9 162 
                                                                                
