 2009  1 2 0700  6.0 L  21.217 -99.400 10.0  RAL  1 0.0 1.3LRAL                1
 GAP=360        0.30       2.8     3.3  0.0  0.9040E+01  0.1878E+03 -0.4058E+03E
 ACTION:UPD 12-06-08 11:37 OP:RALL STATUS:               ID:20090102070006     I
 2009-01-02-0700-00S.PLUR1_003                                                 6
 STAT SP IPHASW D HRMM SECON CODA AMPLIT PERI AZIMU VELO AIN AR TRES W  DIS CAZ7
 LZ4  SZ E         7 0  9.52                  227.3 13.7      0        18.5  47 
 LZ4  SN IP        7 0  9.53                             116   -0.0210 18.5  47 
 LZ4  SE IS        7 0 12.17                             116    0.0210 18.5  47 
 LZ4  SZ  AML      7 0 12.67        52.7 0.48                          18.5  47 
                                                                                
