 2009  1 2 0303 43.0 L  21.356 -99.256 10.0  RAL  1 0.1 0.5LRAL                1
 GAP=360        0.41      16.0     8.5  0.0  0.1359E+03  0.1878E+03 -0.4058E+03E
 ACTION:UPD 12-06-08 11:37 OP:RALL STATUS:               ID:20090102030343     I
 2009-01-02-0303-36S.PLUR1_003                                                 6
 STAT SP IPHASW D HRMM SECON CODA AMPLIT PERI AZIMU VELO AIN AR TRES W  DIS CAZ7
 LZ4  SZ E         3 3 45.11                   26.3 29.0      0        3.05 206 
 LZ4  SN IP        3 3 45.12                             164    0.1910 3.05 206 
 LZ4  SE IS        3 3 46.13                             164   -0.1910 3.05 206 
 LZ4  SZ  AML      3 3 46.20        16.2 0.18                          3.05 206 
                                                                                
