 2009  1 2 0226 39.3 L  21.366 -99.287  0.0  RAL  2 0.2 0.5LRAL                1
 GAP=195        2.07       6.2     3.0 81.6 -0.1741E+02  0.1878E+03 -0.4058E+03E
 ACTION:UPD 12-06-08 11:37 OP:RALL STATUS:               ID:20090102022639     I
 2009-01-02-0226-29S.PLUR1_006                                                 6
 STAT SP IPHASW D HRMM SECON CODA AMPLIT PERI AZIMU VELO AIN AR TRES W  DIS CAZ7
 LZ4  SZ E         226 39.45                  338.1 18.8      3        4.25 155 
 LZ4  SN IP        226 39.45                             104   -0.5910 4.25 155 
 LZ4  SE IS        226 40.46                             104   -0.1410 4.25 155 
 LZ4  SZ  AML      226 40.47       118.0 0.18                          4.25 155 
 LA4  SZ E         226 41.55                  178.3  8.3      8        13.3 350 
 LA4  SN IP        226 41.60                              95    0.0010 13.3 350 
 LA4  SE IS        226 44.04                              95    0.7410 13.3 350 
 LA4  SZ  AML      226 44.94         5.2 0.18                          13.3 350 
                                                                                
