 2009  1 2 0953 46.5 L  21.346 -99.294 10.0  RAL  1 0.1 0.2LRAL                1
 GAP=360        0.45      10.8    17.4  0.0 -0.1877E+03  0.1878E+03 -0.4058E+03E
 ACTION:UPD 12-06-08 11:37 OP:RALL STATUS:               ID:20090102095346     I
 2009-01-02-0953-40S.PLUR1_003                                                 6
 STAT SP IPHASW D HRMM SECON CODA AMPLIT PERI AZIMU VELO AIN AR TRES W  DIS CAZ7
 LZ4  SZ E         953 48.55                  303.5 16.6      0        3.09 123 
 LZ4  SN IP        953 48.58                             163    0.2310 3.09 123 
 LZ4  SE IS        953 49.51                             163   -0.2310 3.09 123 
 LZ4  SZ  AML      953 50.40         9.3 0.52                          3.09 123 
                                                                                
