 2009  1 2 1823 29.2 L  21.662 -99.247 10.0  RAL  1 0.0 0.4LRAL                1
 GAP=360        0.30       3.8     1.5  0.0  0.5082E+01  0.1878E+03 -0.4058E+03E
 ACTION:UPD 12-06-08 11:37 OP:RALL STATUS:               ID:20090102182329     I
 2009-01-02-1823-21S.PLUR1_003                                                 6
 STAT SP IPHASW D HRMM SECON CODA AMPLIT PERI AZIMU VELO AIN AR TRES W  DIS CAZ7
 LA4  SZ E        1823 33.10                   18.1 12.2      0        20.8 198 
 LA4  SN IP       1823 33.13                             113    0.0210 20.8 198 
 LA4  SE IS       1823 35.92                             113   -0.0210 20.8 198 
 LA4  SZ  AML     1823 38.05         6.7 0.36                          20.8 198 
                                                                                
