 2009  1 2 1319 59.6 L  21.288 -99.253 10.0  RAL  1 0.0 0.8LRAL                1
 GAP=360        0.30       8.0     3.2  0.0 -0.2536E+02  0.1878E+03 -0.4058E+03E
 ACTION:UPD 12-06-08 11:37 OP:RALL STATUS:               ID:20090102131959     I
 2009-01-02-1319-52S.PLUR1_003                                                 6
 STAT SP IPHASW D HRMM SECON CODA AMPLIT PERI AZIMU VELO AIN AR TRES W  DIS CAZ7
 LZ4  SZ E        1320  1.61                  159.6  8.9      0        5.01 340 
 LZ4  SN IP       1320  1.62                             154    0.0310 5.01 340 
 LZ4  SE IS       1320  3.02                             154   -0.0310 5.01 340 
 LZ4  SZ  AML     1320  3.55        32.3 0.16                          5.01 340 
                                                                                
