 2009  1 3 0305 30.0 L  21.350 -99.281 10.0  RAL  1 0.2 0.3LRAL                1
 GAP=360        0.69      32.4    19.4  0.0 -0.6291E+03  0.1878E+03 -0.4058E+03E
 ACTION:UPD 12-06-08 11:37 OP:RALL STATUS:               ID:20090103030530     I
 2009-01-03-0305-23S.PLUR1_003                                                 6
 STAT SP IPHASW D HRMM SECON CODA AMPLIT PERI AZIMU VELO AIN AR TRES W  DIS CAZ7
 LZ4  SZ E         3 5 32.28                  330.8  6.3      0        2.45 151 
 LZ4  SN IP        3 5 32.31                             167    0.4210 2.45 151 
 LZ4  SE IS        3 5 32.84                             167   -0.4210 2.45 151 
 LZ4  SZ  AML      3 5 33.07        12.1 0.28                          2.45 151 
                                                                                
