 2009  1 3 0416  2.3 L  21.798 -99.689  5.1  RAL  2 0.2 1.1LRAL                1
 GAP=352        2.34      83.1    90.7231.0 -0.7459E+04 -0.2059E+05  0.1886E+05E
 ACTION:UPD 12-06-08 11:37 OP:RALL STATUS:               ID:20090103041602     I
 2009-01-03-0415-57S.PLUR1_006                                                 6
 STAT SP IPHASW D HRMM SECON CODA AMPLIT PERI AZIMU VELO AIN AR TRES W  DIS CAZ7
 LA4  SZ E         416 10.86                  318.5 10.3      7        52.5 131 
 LA4  SN IP        416 10.98                              63    0.4010 52.5 131 
 LA4  SE IS        416 16.82                              63    0.1710 52.5 131 
 LA4  SZ  AML      416 19.42         9.3 0.36                          52.5 131 
 LZ4  SN IP        416 12.74                              63   -0.1710 67.6 140 
 LZ4  SZ E         416 12.78                  311.6  7.7     -7        67.6 140 
 LZ4  SE IS        416 20.26                              63   -0.4110 67.6 140 
 LZ4  SZ  AML      416 21.15        14.1 0.24                          67.6 140 
                                                                                
