 2009  1 3 0639 59.4 L  21.345 -99.237 10.0  RAL  1 0.1 0.1LRAL                1
 GAP=360        0.36       5.4    12.9  0.0  0.6954E+02 -0.2059E+05  0.1886E+05E
 ACTION:UPD 12-06-08 11:37 OP:RALL STATUS:               ID:20090103063959     I
 2009-01-03-0639-53S.PLUR1_003                                                 6
 STAT SP IPHASW D HRMM SECON CODA AMPLIT PERI AZIMU VELO AIN AR TRES W  DIS CAZ7
 LZ4  SZ E         640  1.46                   65.7 99.9      0        3.69 246 
 LZ4  SN IP        640  1.48                             160    0.1310 3.69 246 
 LZ4  SZ  AML      640  2.12         6.9 0.58                          3.69 246 
 LZ4  SE IS        640  2.62                             160   -0.1310 3.69 246 
                                                                                
