 2009  1 3 0300 32.8 L  21.347 -99.177 10.0  RAL  1 0.0 0.5LRAL                1
 GAP=360        0.30       1.0     5.5  0.0  0.5335E+01  0.1878E+03 -0.4058E+03E
 ACTION:UPD 12-06-08 11:37 OP:RALL STATUS:               ID:20090103030032     I
 2009-01-03-0300-27S.PLUR1_003                                                 6
 STAT SP IPHASW D HRMM SECON CODA AMPLIT PERI AZIMU VELO AIN AR TRES W  DIS CAZ7
 LZ4  SZ E         3 0 35.12                   79.4  9.4      0        9.76 259 
 LZ4  SN IP        3 0 35.28                             135    0.0110 9.76 259 
 LZ4  SE IS        3 0 37.05                             135   -0.0110 9.76 259 
 LZ4  SZ  AML      3 0 37.53        11.9 0.68                          9.76 259 
                                                                                
