 2009  1 3 0710 37.5 L  21.313 -99.236 10.0  RAL  1 0.0 0.9LRAL                1
 GAP=360        0.34       6.0    10.9  0.0 -0.6479E+02 -0.2059E+05  0.1886E+05E
 ACTION:UPD 12-06-08 11:37 OP:RALL STATUS:               ID:20090103071037     I
 2009-01-03-0710-30S.PLUR1_003                                                 6
 STAT SP IPHASW D HRMM SECON CODA AMPLIT PERI AZIMU VELO AIN AR TRES W  DIS CAZ7
 LZ4  SN IP        710 39.57                             159    0.1210 3.99 301 
 LZ4  SZ E         710 39.60                  120.5 31.9      0        3.99 301 
 LZ4  SE IS        710 40.76                             159   -0.1210 3.99 301 
 LZ4  SZ  AML      710 41.16        44.8 0.30                          3.99 301 
                                                                                
