 2009  1 3 1050 32.3 L  21.350 -99.291 10.0  RAL  1 0.1 0.1LRAL                1
 GAP=360        0.54      16.6    18.4  0.0 -0.3059E+03 -0.2059E+05  0.1886E+05E
 ACTION:UPD 12-06-08 11:37 OP:RALL STATUS:               ID:20090103105032     I
 2009-01-03-1050-25S.PLUR1_003                                                 6
 STAT SP IPHASW D HRMM SECON CODA AMPLIT PERI AZIMU VELO AIN AR TRES W  DIS CAZ7
 LZ4  SZ E        1050 34.44                  314.0 30.5      0        3.05 134 
 LZ4  SN IP       1050 34.46                             163    0.3110 3.05 134 
 LZ4  SE IS       1050 35.23                             163   -0.3110 3.05 134 
 LZ4  SZ  AML     1050 35.30         6.1 0.16                          3.05 134 
                                                                                
