 2009  1 3 1116 39.9 L  21.320 -99.297 10.0  RAL  1 0.1 0.1LRAL                1
 GAP=360        0.39       6.9    16.6  0.0  0.1141E+03 -0.2059E+05  0.1886E+05E
 ACTION:UPD 12-06-08 11:37 OP:RALL STATUS:               ID:20090103111639     I
 2009-01-03-1116-33S.PLUR1_003                                                 6
 STAT SP IPHASW D HRMM SECON CODA AMPLIT PERI AZIMU VELO AIN AR TRES W  DIS CAZ7
 LZ4  SZ E        1116 41.99                  246.2 13.7      0        3.10  66 
 LZ4  SN IP       1116 41.99                             163    0.1710 3.10  66 
 LZ4  SE IS       1116 43.03                             163   -0.1710 3.10  66 
 LZ4  SZ  AML     1116 43.31         6.3 0.18                          3.10  66 
                                                                                
