 2009  1 3 1245 29.5 L  21.196 -99.346  0.2  RAL  2 0.2 1.5LRAL                1
 GAP=340        1.66       6.4     6.0160.3  0.3617E+02  0.4479E+03  0.4734E+03E
 ACTION:UPD 12-06-08 11:37 OP:RALL STATUS:               ID:20090103124529     I
 2009-01-03-1245-22S.PLUR1_006                                                 6
 STAT SP IPHASW D HRMM SECON CODA AMPLIT PERI AZIMU VELO AIN AR TRES W  DIS CAZ7
 LG3  SZ E        1245 32.55                  224.7 21.5     -2        13.0  48 
 LG3  SN IP       1245 32.57                              95    0.7410 13.0  48 
 LG3  SE IS       1245 33.74                              95    0.2310 13.0  48 
 LG3  SZ  AML     1245 33.87        65.5 0.20                          13.0  48 
 LZ4  SZ E        1245 32.50                  211.9 73.0      4        16.8  28 
 LZ4  SN IP       1245 32.51                              94    0.0210 16.8  28 
 LZ4  SE IS       1245 33.66                              94   -0.9910 16.8  28 
 LZ4  SZ  AML     1245 34.08       192.1 0.30                          16.8  28 
                                                                                
