 2009  1 3 2034 40.3 L  21.562 -99.444 10.0  RAL  1 0.0 1.0LRAL                1
 GAP=360        0.30       2.3     3.9  0.0 -0.8572E+01  0.4479E+03  0.4734E+03E
 ACTION:UPD 12-06-08 11:37 OP:RALL STATUS:               ID:20090103203440     I
 2009-01-03-2034-29S.PLUR1_003                                                 6
 STAT SP IPHASW D HRMM SECON CODA AMPLIT PERI AZIMU VELO AIN AR TRES W  DIS CAZ7
 LA4  SZ E        2034 43.59                  302.0 11.8      0        16.4 122 
 LA4  SN IP       2034 43.61                             119    0.0110 16.4 122 
 LA4  SE IS       2034 45.99                             119   -0.0110 16.4 122 
 LA4  SZ  AML     2034 47.28        29.2 0.28                          16.4 122 
                                                                                
