 2009  1 3 2236 49.4 L  21.554 -99.427 10.0  RAL  1 0.0 0.4LRAL                1
 GAP=360        0.30       2.4     4.0  0.0 -0.9436E+01  0.4479E+03  0.4734E+03E
 ACTION:UPD 12-06-08 11:37 OP:RALL STATUS:               ID:20090103223649     I
 2009-01-03-2236-40S.PLUR1_003                                                 6
 STAT SP IPHASW D HRMM SECON CODA AMPLIT PERI AZIMU VELO AIN AR TRES W  DIS CAZ7
 LA4  SZ E        2236 52.45                  302.5 16.4      0        14.4 122 
 LA4  SN IP       2236 52.48                             123    0.0110 14.4 122 
 LA4  SE IS       2236 54.66                             123   -0.0110 14.4 122 
 LA4  SZ  AML     2236 56.27         8.1 0.72                          14.4 122 
                                                                                
