 2009  1 4 0532 50.3 L  21.590 -99.325 10.0  RAL  1 0.0 0.2LRAL                1
 GAP=360        0.30       4.7     0.8  0.0 -0.3296E+01  0.4479E+03  0.4734E+03E
 ACTION:UPD 12-06-08 11:37 OP:RALL STATUS:               ID:20090104053250     I
 2009-01-04-0532-41S.PLUR1_003                                                 6
 STAT SP IPHASW D HRMM SECON CODA AMPLIT PERI AZIMU VELO AIN AR TRES W  DIS CAZ7
 LA4  SZ E         532 52.94                  352.2 10.5      0        11.8 172 
 LA4  SN IP        532 53.01                             129    0.0010 11.8 172 
 LA4  SE IS        532 54.97                             129    0.0010 11.8 172 
 LA4  SZ  AML      532 55.22         6.3 0.26                          11.8 172 
                                                                                
