 2009  1 4 1915 45.5 L  21.651 -99.334 10.0  RAL  1 0.0 0.5LRAL                1
 GAP=360        0.30       4.1     0.8  0.0 -0.2452E+01  0.2117E+02 -0.1821E+01E
 ACTION:UPD 12-06-08 11:37 OP:RALL STATUS:               ID:20090104191545     I
 2009-01-04-1915-35S.PLUR1_003                                                 6
 STAT SP IPHASW D HRMM SECON CODA AMPLIT PERI AZIMU VELO AIN AR TRES W  DIS CAZ7
 LA4  SZ E        1915 49.04                  352.1  7.6      0        18.7 172 
 LA4  SN IP       1915 49.06                             116    0.0210 18.7 172 
 LA4  SZ  AML     1915 51.41         8.3 0.44                          18.7 172 
 LA4  SE IS       1915 51.64                             116   -0.0210 18.7 172 
                                                                                
