 2009  1 4 1228 52.3 L  21.264 -99.278  7.4  RAL  2 0.0 0.8LRAL                1
 GAP=304        0.33       0.2     0.2  3.1  0.2830E-01  0.1778E-01  0.7219E-02E
 ACTION:UPD 12-06-08 11:37 OP:RALL STATUS:               ID:20090104122852     I
 2009-01-04-1228-45S.PLUR1_006                                                 6
 STAT SP IPHASW D HRMM SECON CODA AMPLIT PERI AZIMU VELO AIN AR TRES W  DIS CAZ7
 LG3  SZ E        1228 53.95                  242.9 45.3      0        2.95  63 
 LG3  SN IP       1228 53.98                             159    0.1110 2.95  63 
 LG3  SE IS       1228 55.00                             159    0.0210 2.95  63 
 LG3  SZ  AML     1228 55.38        33.1 0.32                          2.95  63 
 LZ4  SZ E        1228 54.21                  186.6 12.9      0        7.50   7 
 LZ4  SN IP       1228 54.21                             134   -0.0410 7.50   7 
 LZ4  SE IS       1228 55.55                             134   -0.0910 7.50   7 
 LZ4  SZ  AML     1228 56.37        38.6 0.26                          7.50   7 
                                                                                
