 2009  1 4 1744 39.8 L  21.151 -99.203 10.0  RAL  2 0.7 0.6LRAL                1
 GAP=333        7.62       4.2    14.1 55.9  0.4320E+02  0.2117E+02 -0.1821E+01E
 ACTION:UPD 12-06-08 11:37 OP:RALL STATUS:               ID:20090104174439     I
 2009-01-04-1744-32S.PLUR1_006                                                 6
 STAT SP IPHASW D HRMM SECON CODA AMPLIT PERI AZIMU VELO AIN AR TRES W  DIS CAZ7
 LO8  SZ E        1744 42.38                  125.1  6.6     -8        1.43 314 
 LO8  SN IP       1744 42.50                             176    0.8210 1.43 314 
 LO8  SE IS       1744 44.93                             176    1.8710 1.43 314 
 LO8  SZ  AML     1744 47.19         4.6 0.44                          1.43 314 
 LZ4  SZ E        1744 42.34                  194.4 11.7     33        21.1 341 
 LZ4  SN IP       1744 42.39                             121   -1.3110 21.1 341 
 LZ4  SE IS       1744 45.18                             121   -1.3810 21.1 341 
 LZ4  SZ  AML     1744 47.73        61.4 0.14                          21.1 341 
                                                                                
