 2009  1 4 1018  4.8 L  21.244 -99.214  4.3  RAL  2 0.0 0.6LRAL                1
 GAP=342        0.34       0.8     0.9  3.5 -0.6993E+00 -0.4612E+00  0.4096E+00E
 ACTION:UPD 12-06-08 11:37 OP:RALL STATUS:               ID:20090104101804     I
 2009-01-04-1017-56S.PLUR1_006                                                 6
 STAT SP IPHASW D HRMM SECON CODA AMPLIT PERI AZIMU VELO AIN AR TRES W  DIS CAZ7
 LG3  SN IP       1018  6.23                             134    0.1210 5.27 311 
 LG3  SZ E        1018  6.24                  131.4 14.2      0        5.27 311 
 LG3  SE IS       1018  7.06                             134   -0.0310 5.27 311 
 LG3  SZ  AML     1018  7.23        28.2 0.24                          5.27 311 
 LZ4  SZ E        1018  6.95                  148.6 21.0      0        11.2 329 
 LZ4  SN IP       1018  6.95                             114    0.0010 11.2 329 
 LZ4  SE IS       1018  8.44                             114   -0.0910 11.2 329 
 LZ4  SZ  AML     1018  8.63        19.9 0.20                          11.2 329 
                                                                                
