 2009  1 4 2318 57.5 L  21.722 -99.336 10.0  RAL  1 0.0 0.6LRAL                1
 GAP=360        0.30       3.8     0.9  0.0 -0.1622E+01  0.2117E+02 -0.1821E+01E
 ACTION:UPD 12-06-08 11:37 OP:RALL STATUS:               ID:20090104231857     I
 2009-01-04-2318-50S.PLUR1_003                                                 6
 STAT SP IPHASW D HRMM SECON CODA AMPLIT PERI AZIMU VELO AIN AR TRES W  DIS CAZ7
 LA4  SZ E        2319  2.19                  354.0  9.4      0        26.5 174 
 LA4  SN IP       2319  2.23                             107    0.0110 26.5 174 
 LA4  SE IS       2319  5.66                             107   -0.0110 26.5 174 
 LA4  SZ  AML     2319  5.95         8.1 0.14                          26.5 174 
                                                                                
