 2009  1 5 0510 54.4 L  21.286 -99.257 10.0  RAL  2 1.0 1.1LRAL                1
 GAP=188       17.89      11.6     9.9163.4 -0.1314E+02  0.6071E+01 -0.9488E+01E
 ACTION:UPD 12-06-08 11:37 OP:RALL STATUS:               ID:20090105051054     I
 2009-01-05-0510-46S.PLUR1_006                                                 6
 STAT SP IPHASW D HRMM SECON CODA AMPLIT PERI AZIMU VELO AIN AR TRES W  DIS CAZ7
 LG3  SZ E         510 56.23                   60.9 39.6     84        1.20 157 
 LG3  SN IP        510 56.26                             176   -0.0410 1.20 157 
 LG3  SE IS        510 56.81                             176   -0.8510 1.20 157 
 LG3  SZ  AML      510 56.91       121.9 0.10                          1.20 157 
 LZ4  SN IP        510 56.94                             150    0.4810 5.17 345 
 LZ4  SZ E         510 56.95                  190.5  9.5     25        5.17 345 
 LZ4  SE IS        510 58.36                             150    0.4210 5.17 345 
 LZ4  SZ  AML      510 58.64        35.9 0.24                          5.17 345 
                                                                                
