 2009  1 5 0156  1.1 L  21.276 -99.252 11.5  RAL  2 0.5 1.4LRAL                1
 GAP=258        5.37       3.7     3.2 48.9 -0.2092E+01 -0.7548E-01  0.1569E+00E
 ACTION:UPD 12-06-08 11:37 OP:RALL STATUS:               ID:20090105015601     I
 2009-01-05-0155-53S.PLUR1_006                                                 6
 STAT SP IPHASW D HRMM SECON CODA AMPLIT PERI AZIMU VELO AIN AR TRES W  DIS CAZ7
 LG3  SZ E         156  2.11                   55.6 10.1     -4        0.08 241 
 LG3  SN IP        156  2.11                             180   -1.0510 0.08 241 
 LG3  SE IS        156  4.60                             180   -0.0810 0.08 241 
 LG3  SZ  AML      156  4.72       220.0 0.12                          0.08 241 
 LZ4  SN IP        156  3.04                             152   -0.3510 6.34 343 
 LZ4  SZ E         156  3.10                  187.2 11.6     24        6.34 343 
 LZ4  SE IS        156  6.56                             152    1.4910 6.34 343 
 LZ4  SZ  AML      156 10.06        50.9 0.24                          6.34 343 
                                                                                
