 2009  1 5 0215 30.6 L  21.707 -99.425  3.7  RAL  2 0.2 1.4LRAL                1
 GAP=355        1.41      71.3    35.1153.3 -0.2493E+04 -0.5300E+04  0.1080E+05E
 ACTION:UPD 12-06-08 11:37 OP:RALL STATUS:               ID:20090105021530     I
 2009-01-05-0215-21S.PLUR1_006                                                 6
 STAT SP IPHASW D HRMM SECON CODA AMPLIT PERI AZIMU VELO AIN AR TRES W  DIS CAZ7
 LA4  SN IP        215 35.11                              63   -0.3710 27.5 154 
 LA4  SZ E         215 35.16                  331.4 10.3     -2        27.5 154 
 LA4  SE IS        215 38.43                              63   -0.6010 27.5 154 
 LA4  SZ  AML      215 40.37        57.9 0.32                          27.5 154 
 LZ4  SN IP        215 38.43                              63    0.2910 44.7 159 
 LZ4  SZ E         215 38.54                  342.4  8.6      3        44.7 159 
 LZ4  SZ  AML      215 44.18        32.6 0.16                          44.7 159 
 LZ4  SE IS        215 44.30                              63    0.6710 44.7 159 
                                                                                
