 2009  1 5 0251 27.7 L  21.662 -99.311 10.0  RAL  1 0.0 0.8LRAL                1
 GAP=360        0.30       3.7     1.1  0.0 -0.1634E+01 -0.5300E+04  0.1080E+05E
 ACTION:UPD 12-06-08 11:37 OP:RALL STATUS:               ID:20090105025127     I
 2009-01-05-0251-29S.PLUR1_003                                                 6
 STAT SP IPHASW D HRMM SECON CODA AMPLIT PERI AZIMU VELO AIN AR TRES W  DIS CAZ7
 LZ4  SZ E         251 33.81                  353.4 12.4      0        36.9 173 
 LZ4  SN IP        251 33.98                             101    0.0110 36.9 173 
 LZ4  SE IS        251 38.56                             101   -0.0110 36.9 173 
 LZ4  SZ  AML      251 40.40        10.6 0.44                          36.9 173 
                                                                                
