 2009  1 5 0008 47.6 L  21.599 -99.327 10.0  RAL  1 0.0-0.2LRAL                1
 GAP=360        0.30       4.6     0.8  0.0 -0.3161E+01  0.2117E+02 -0.1821E+01E
 ACTION:UPD 12-06-08 11:37 OP:RALL STATUS:               ID:20090105000847     I
 2009-01-05-0008-38S.PLUR1_003                                                 6
 STAT SP IPHASW D HRMM SECON CODA AMPLIT PERI AZIMU VELO AIN AR TRES W  DIS CAZ7
 LA4  SZ E         0 8 50.39                  351.9  7.5      0        12.9 172 
 LA4  SN IP        0 8 50.41                             127    0.0010 12.9 172 
 LA4  SE IS        0 8 52.47                             127    0.0010 12.9 172 
 LA4  SZ  AML      0 8 52.75         2.5 0.30                          12.9 172 
                                                                                
