 2009  1 5 0837 10.6 L  21.539 -99.395 10.0  RAL  1 0.0 1.0LRAL                1
 GAP=360        0.30       3.4     2.2  0.0 -0.6739E+01  0.6071E+01 -0.9488E+01E
 ACTION:UPD 12-06-08 11:37 OP:RALL STATUS:               ID:20090105083710     I
 2009-01-05-0837-06S.PLUR1_003                                                 6
 STAT SP IPHASW D HRMM SECON CODA AMPLIT PERI AZIMU VELO AIN AR TRES W  DIS CAZ7
 LZ4  SZ E         837 15.37                  330.6 10.2      0        26.5 151 
 LZ4  SN IP        837 15.38                             107    0.0310 26.5 151 
 LZ4  SE IS        837 18.77                             107   -0.0310 26.5 151 
 LZ4  SZ  AML      837 19.35        19.9 0.54                          26.5 151 
                                                                                
