 2009  1 5 0732 52.9 L  21.335 -99.258 10.0  RAL  1 0.2 0.5LRAL                1
 GAP=360        1.28     312.2   256.3  0.0 -0.8000E+05  0.6071E+01 -0.9488E+01E
 ACTION:UPD 12-06-08 11:37 OP:RALL STATUS:               ID:20090105073252     I
 2009-01-05-0732-46S.PLUR1_003                                                 6
 STAT SP IPHASW D HRMM SECON CODA AMPLIT PERI AZIMU VELO AIN AR TRES W  DIS CAZ7
 LZ4  SZ E         732 55.00                   76.8 16.4      5        1.30 252 
 LZ4  SN IP        732 55.10                             173    0.4010 1.30 252 
 LZ4  SE IS        732 55.65                             173   -0.4010 1.30 252 
 LZ4  SZ  AML      732 55.81        18.8 0.50                          1.30 252 
                                                                                
