 2009  1 5 1925 17.3 L  21.558 -99.340 10.0  RAL  1 0.0 0.4LRAL                1
 GAP=360        0.30       5.2     2.2  0.0 -0.1156E+02  0.6071E+01 -0.9488E+01E
 ACTION:UPD 12-06-08 11:37 OP:RALL STATUS:               ID:20090105192517     I
 2009-01-05-1925-05S.PLUR1_003                                                 6
 STAT SP IPHASW D HRMM SECON CODA AMPLIT PERI AZIMU VELO AIN AR TRES W  DIS CAZ7
 LA4  SN IP       1925 19.72                             138    0.0310 8.87 158 
 LA4  SZ E        1925 19.76                  338.5 15.9      0        8.87 158 
 LA4  SE IS       1925 21.39                             138   -0.0310 8.87 158 
 LA4  SZ  AML     1925 22.32        10.9 0.24                          8.87 158 
                                                                                
