 2009  1 5 1456  9.2 L  21.266 -99.232 10.0  RAL  1 0.2 1.1LRAL                1
 GAP=360        0.70      17.6    37.7  0.0 -0.6640E+03  0.6071E+01 -0.9488E+01E
 ACTION:UPD 12-06-08 11:37 OP:RALL STATUS:               ID:20090105145609     I
 2009-01-05-1456-02S.PLUR1_003                                                 6
 STAT SP IPHASW D HRMM SECON CODA AMPLIT PERI AZIMU VELO AIN AR TRES W  DIS CAZ7
 LG3  SZ E        1456 11.53                  116.6 22.7      0        2.38 297 
 LG3  SN IP       1456 11.54                             167    0.4310 2.38 297 
 LG3  SE IS       1456 12.06                             167   -0.4310 2.38 297 
 LG3  SZ  AML     1456 12.18        62.7 0.24                          2.38 297 
                                                                                
