 2009  1 5 1224 21.2 L  21.529 -99.569 10.0  RAL  1 0.0 1.9LRAL                1
 GAP=360        0.30       2.3     3.4  0.0 -0.6703E+01  0.6071E+01 -0.9488E+01E
 ACTION:UPD 12-06-08 11:37 OP:RALL STATUS:               ID:20090105122421     I
 2009-01-05-1224-18S.PLUR1_003                                                 6
 STAT SP IPHASW D HRMM SECON CODA AMPLIT PERI AZIMU VELO AIN AR TRES W  DIS CAZ7
 LZ4  SN IP       1224 27.70                             100    0.0210 38.0 125 
 LZ4  SZ E        1224 27.78                  305.2  7.1      0        38.0 125 
 LZ4  SE IS       1224 32.38                             100   -0.0210 38.0 125 
 LZ4  SZ  AML     1224 33.36       112.7 0.20                          38.0 125 
                                                                                
