 2009  1 5 1719 27.4 L  21.258 -99.225 10.0  RAL  1 0.1 0.6LRAL                1
 GAP=360        0.49      11.2    17.3  0.0 -0.1938E+03  0.6071E+01 -0.9488E+01E
 ACTION:UPD 12-06-08 11:37 OP:RALL STATUS:               ID:20090105171927     I
 2009-01-05-1719-21S.PLUR1_003                                                 6
 STAT SP IPHASW D HRMM SECON CODA AMPLIT PERI AZIMU VELO AIN AR TRES W  DIS CAZ7
 LG3  SN IP       1719 29.57                             162    0.2710 3.43 305 
 LG3  SZ E        1719 29.90                  124.7 20.0      0        3.43 305 
 LG3  SE ES       1719 30.45                             162   -0.2710 3.43 305 
 LG3  SZ  AML     1719 30.56        21.5 0.24                          3.43 305 
                                                                                
