 2009  1 5 1347 28.0 L  21.351 -99.289 10.0  RAL  1 0.1 1.1LRAL                1
 GAP=360        0.52      17.5    16.5  0.0 -0.2880E+03  0.6071E+01 -0.9488E+01E
 ACTION:UPD 12-06-08 11:37 OP:RALL STATUS:               ID:20090105134728     I
 2009-01-05-1347-21S.PLUR1_003                                                 6
 STAT SP IPHASW D HRMM SECON CODA AMPLIT PERI AZIMU VELO AIN AR TRES W  DIS CAZ7
 LZ4  SN IP       1347 30.20                             164    0.2910 3.02 139 
 LZ4  SZ E        1347 30.22                  318.7 17.5      0        3.02 139 
 LZ4  SE IS       1347 31.00                             164   -0.2910 3.02 139 
 LZ4  SZ  AML     1347 31.12        64.6 0.18                          3.02 139 
                                                                                
