 2009  1 6 1331  5.5 L  21.357 -99.283 10.0  RAL  1 0.1 1.4LRAL                1
 GAP=360        0.44      16.5     8.9  0.0 -0.1474E+03  0.6071E+01 -0.9488E+01E
 ACTION:UPD 12-06-08 11:37 OP:RALL STATUS:               ID:20090106133105     I
 2009-01-06-1330-57S.PLUR1_003                                                 6
 STAT SP IPHASW D HRMM SECON CODA AMPLIT PERI AZIMU VELO AIN AR TRES W  DIS CAZ7
 LZ4  SZ E        1331  7.62                  333.2 20.1      0        3.21 153 
 LZ4  SN IP       1331  7.62                             163    0.2210 3.21 153 
 LZ4  SE IS       1331  8.57                             163   -0.2210 3.21 153 
 LZ4  SZ  AML     1331  8.67       149.7 0.16                          3.21 153 
                                                                                
