 2009  1 6 1435 16.3 L  21.342 -99.298 10.0  RAL  1 0.1 0.3LRAL                1
 GAP=360        0.35       5.9    14.6  0.0 -0.8642E+02  0.6071E+01 -0.9488E+01E
 ACTION:UPD 12-06-08 11:37 OP:RALL STATUS:               ID:20090106143516     I
 2009-01-06-1435-09S.PLUR1_003                                                 6
 STAT SP IPHASW D HRMM SECON CODA AMPLIT PERI AZIMU VELO AIN AR TRES W  DIS CAZ7
 LZ4  SN IP       1435 18.30                             163    0.1310 3.20 113 
 LZ4  SZ E        1435 18.34                  293.5  7.9      0        3.20 113 
 LZ4  SE IS       1435 19.43                             163   -0.1310 3.20 113 
 LZ4  SZ  AML     1435 20.02        11.7 0.26                          3.20 113 
                                                                                
