 2009  1 6 1307  9.7 L  21.353 -99.291 10.0  RAL  1 0.1 1.2LRAL                1
 GAP=360        0.44      13.3    13.1  0.0 -0.1745E+03  0.6071E+01 -0.9488E+01E
 ACTION:UPD 12-06-08 11:37 OP:RALL STATUS:               ID:20090106130709     I
 2009-01-06-1307-02S.PLUR1_003                                                 6
 STAT SP IPHASW D HRMM SECON CODA AMPLIT PERI AZIMU VELO AIN AR TRES W  DIS CAZ7
 LZ4  SZ E        13 7 11.84                  317.5 16.4      0        3.30 137 
 LZ4  SN IP       13 7 11.87                             162    0.2210 3.30 137 
 LZ4  SE IS       13 7 12.82                             162   -0.2210 3.30 137 
 LZ4  SZ  AML     13 7 12.89        82.7 0.18                          3.30 137 
                                                                                
