 2009  1 6 2136 52.5 L  21.331 -99.248 10.0  RAL  1 0.0 0.7LRAL                1
 GAP=360        0.30     999.9   273.8  0.0 -0.5648E+07  0.6071E+01 -0.9488E+01E
 ACTION:UPD 12-06-08 11:37 OP:RALL STATUS:               ID:20090106213652     I
 2009-01-06-2136-46S.PLUR1_003                                                 6
 STAT SP IPHASW D HRMM SECON CODA AMPLIT PERI AZIMU VELO AIN AR TRES W  DIS CAZ7
 LZ4  SN IP       2136 54.42                             168    0.0210 2.27 269 
 LZ4  SZ E        2136 54.47                   89.3 38.5      0        2.27 269 
 LZ4  SE IS       2136 55.74                             168   -0.0210 2.27 269 
 LZ4  SZ  AML     2136 56.14        28.7 0.14                          2.27 269 
                                                                                
