 2009  1 6 2126 47.9 L  21.276 -99.421 10.0  RAL  1 0.0 0.5LRAL                1
 GAP=360        0.30       3.5     2.0  0.0  0.6394E+01  0.6071E+01 -0.9488E+01E
 ACTION:UPD 12-06-08 11:37 OP:RALL STATUS:               ID:20090106212647     I
 2009-01-06-2126-41S.PLUR1_003                                                 6
 STAT SP IPHASW D HRMM SECON CODA AMPLIT PERI AZIMU VELO AIN AR TRES W  DIS CAZ7
 LA4  SN IP       2126 52.53                             107    0.0310 25.8  27 
 LA4  SZ E        2126 52.57                  206.9  9.0      0        25.8  27 
 LA4  SE IS       2126 55.85                             107   -0.0310 25.8  27 
 LA4  SZ  AML     2126 59.10         7.5 0.26                          25.8  27 
                                                                                
