 2009  1 7 0926 27.1 L  21.273 -99.231 10.0  RAL  1 0.0 0.8LRAL                1
 GAP=360        0.30       5.2     3.5  0.0 -0.1835E+02  0.6071E+01 -0.9488E+01E
 ACTION:UPD 12-06-08 11:37 OP:RALL STATUS:               ID:20090107092627     I
 2009-01-07-0926-21S.PLUR1_003                                                 6
 STAT SP IPHASW D HRMM SECON CODA AMPLIT PERI AZIMU VELO AIN AR TRES W  DIS CAZ7
 LZ4  SZ E         926 29.28                  148.0 22.8      0        7.57 328 
 LZ4  SN IP        926 29.29                             143    0.0210 7.57 328 
 LZ4  SE IS        926 30.87                             143   -0.0210 7.57 328 
 LZ4  SZ  AML      926 30.93        27.2 0.10                          7.57 328 
                                                                                
