 2009  1 7 0509 21.0 L  21.252 -99.216 10.0  RAL  1 0.0 0.7LRAL                1
 GAP=360        0.30       4.3     2.9  0.0 -0.1254E+02  0.6071E+01 -0.9488E+01E
 ACTION:UPD 12-06-08 11:37 OP:RALL STATUS:               ID:20090107050921     I
 2009-01-07-0509-13S.PLUR1_003                                                 6
 STAT SP IPHASW D HRMM SECON CODA AMPLIT PERI AZIMU VELO AIN AR TRES W  DIS CAZ7
 LZ4  SZ E         5 9 23.51                  147.6 18.6      0        10.4 328 
 LZ4  SN IP        5 9 23.52                             133    0.0110 10.4 328 
 LZ4  SE IS        5 9 25.33                             133   -0.0110 10.4 328 
 LZ4  SZ  AML      5 9 26.42        22.0 0.36                          10.4 328 
                                                                                
