 2009  1 7 0328 50.0 L  21.262 -99.404 10.0  RAL  1 0.0 0.4LRAL                1
 GAP=360        0.30       3.6     1.7  0.0  0.5409E+01  0.6071E+01 -0.9488E+01E
 ACTION:UPD 12-06-08 11:37 OP:RALL STATUS:               ID:20090107032850     I
 2009-01-07-0328-44S.PLUR1_003                                                 6
 STAT SP IPHASW D HRMM SECON CODA AMPLIT PERI AZIMU VELO AIN AR TRES W  DIS CAZ7
 LA4  SZ E         328 54.73                  201.9 12.5      0        26.5  22 
 LA4  SN IP        328 54.79                             107    0.0210 26.5  22 
 LA4  SE IS        328 58.20                             107   -0.0210 26.5  22 
 LA4  SZ  AML      328 59.19         5.8 0.40                          26.5  22 
                                                                                
