 2009  1 7 1015 50.8 L  21.345 -99.298 10.0  RAL  1 0.1 0.4LRAL                1
 GAP=360        0.40       7.7    15.5  0.0 -0.1194E+03  0.6071E+01 -0.9488E+01E
 ACTION:UPD 12-06-08 11:37 OP:RALL STATUS:               ID:20090107101550     I
 2009-01-07-1015-44S.PLUR1_003                                                 6
 STAT SP IPHASW D HRMM SECON CODA AMPLIT PERI AZIMU VELO AIN AR TRES W  DIS CAZ7
 LZ4  SZ E        1015 52.75                  298.2 13.6      0        3.30 118 
 LZ4  SN IP       1015 52.85                             162    0.1810 3.30 118 
 LZ4  SE IS       1015 53.88                             162   -0.1810 3.30 118 
 LZ4  SZ  AML     1015 54.11        14.5 0.18                          3.30 118 
                                                                                
