 2009  1 7 1617  4.2 L  21.640 -99.337 10.0  RAL  1 0.0 1.5LRAL                1
 GAP=360        0.30       4.1     0.9  0.0 -0.3007E+01  0.6071E+01 -0.9488E+01E
 ACTION:UPD 12-06-08 11:37 OP:RALL STATUS:               ID:20090107161704     I
 2009-01-07-1616-53S.PLUR1_003                                                 6
 STAT SP IPHASW D HRMM SECON CODA AMPLIT PERI AZIMU VELO AIN AR TRES W  DIS CAZ7
 LA4  SZ E        1617  7.63                  350.6  9.4      0        17.5 171 
 LA4  SN IP       1617  7.66                             117    0.0210 17.5 171 
 LA4  SE IS       1617 10.12                             117   -0.0210 17.5 171 
 LA4  SZ  AML     1617 10.18        92.6 0.26                          17.5 171 
                                                                                
