 2009  1 7 1558 41.4 L  21.299 -99.253 10.0  RAL  1 0.1 0.8LRAL                1
 GAP=360        0.36      11.3     5.7  0.0 -0.6452E+02  0.6071E+01 -0.9488E+01E
 ACTION:UPD 12-06-08 11:37 OP:RALL STATUS:               ID:20090107155841     I
 2009-01-07-1558-34S.PLUR1_003                                                 6
 STAT SP IPHASW D HRMM SECON CODA AMPLIT PERI AZIMU VELO AIN AR TRES W  DIS CAZ7
 LZ4  SZ E        1558 43.41                  154.8  9.0      0        3.90 335 
 LZ4  SN IP       1558 43.44                             159    0.1310 3.90 335 
 LZ4  SE IS       1558 44.59                             159   -0.1310 3.90 335 
 LZ4  SZ  AML     1558 45.11        32.9 0.28                          3.90 335 
                                                                                
