 2009  1 7 1803 35.2 L  21.277 -99.239 10.0  RAL  1 0.0 0.6LRAL                1
 GAP=360        0.30       5.9     3.3  0.0 -0.1975E+02  0.6071E+01 -0.9488E+01E
 ACTION:UPD 12-06-08 11:37 OP:RALL STATUS:               ID:20090107180335     I
 2009-01-07-1803-29S.PLUR1_003                                                 6
 STAT SP IPHASW D HRMM SECON CODA AMPLIT PERI AZIMU VELO AIN AR TRES W  DIS CAZ7
 LZ4  SZ E        18 3 37.28                  152.3 23.8      0        6.76 332 
 LZ4  SN IP       18 3 37.39                             146    0.0210 6.76 332 
 LZ4  SE IS       18 3 38.91                             146   -0.0210 6.76 332 
 LZ4  SZ  AML     18 3 39.29        20.3 0.22                          6.76 332 
                                                                                
