 2009  1 7 2319 45.0 L  21.670 -99.483 10.0  RAL  1 0.0 1.7LRAL                1
 GAP=360        0.30       2.9     2.8  0.0 -0.7612E+01  0.6071E+01 -0.9488E+01E
 ACTION:UPD 12-06-08 11:37 OP:RALL STATUS:               ID:20090107231945     I
 2009-01-07-2319-35S.PLUR1_003                                                 6
 STAT SP IPHASW D HRMM SECON CODA AMPLIT PERI AZIMU VELO AIN AR TRES W  DIS CAZ7
 LA4  SZ E        2319 49.90                  318.9 11.2      0        27.4 139 
 LA4  SN IP       2319 49.90                             106    0.0010 27.4 139 
 LA4  SE IS       2319 53.44                             106    0.0010 27.4 139 
 LA4  SZ  AML     2319 56.59       101.9 0.48                          27.4 139 
                                                                                
