 2009  1 8 0222 18.8 L  21.601 -99.331 10.0  RAL  1 0.0 0.4LRAL                1
 GAP=360        0.30       4.5     0.9  0.0 -0.3857E+01  0.6071E+01 -0.9488E+01E
 ACTION:UPD 12-06-08 11:37 OP:RALL STATUS:               ID:20090108022218     I
 2009-01-08-0222-09S.PLUR1_003                                                 6
 STAT SP IPHASW D HRMM SECON CODA AMPLIT PERI AZIMU VELO AIN AR TRES W  DIS CAZ7
 LA4  SN IP        222 21.66                             126    0.0010 13.2 170 
 LA4  SZ E         222 21.67                  349.9  7.6      0        13.2 170 
 LA4  SE IS        222 23.74                             126    0.0010 13.2 170 
 LA4  SZ  AML      222 23.97         8.0 0.30                          13.2 170 
                                                                                
