 2009  1 8 0706 22.9 L  21.275 -99.239 10.0  RAL  1 0.1 0.2LRAL                1
 GAP=360        0.57     999.9   137.8  0.0  0.1432E+06  0.8719E+00 -0.1066E+01E
 ACTION:UPD 12-06-08 11:37 OP:RALL STATUS:               ID:20090108070622     I
 2009-01-08-0706-15S.PLUR1_003                                                 6
 STAT SP IPHASW D HRMM SECON CODA AMPLIT PERI AZIMU VELO AIN AR TRES W  DIS CAZ7
 LG3  SZ E         7 6 25.11                   95.0 35.0      1        1.44 274 
 LG3  SN IP        7 6 25.12                             172    0.3110 1.44 274 
 LG3  SE IS        7 6 25.87                             172   -0.3110 1.44 274 
 LG3  SZ  AML      7 6 25.93         7.9 0.10                          1.44 274 
                                                                                
