 2009  1 8 0332 49.7 L  21.266 -99.205 10.0  RAL  1 0.0 0.8LRAL                1
 GAP=360        0.30       3.8     3.9  0.0 -0.1476E+02  0.8719E+00 -0.1066E+01E
 ACTION:UPD 12-06-08 11:37 OP:RALL STATUS:               ID:20090108033249     I
 2009-01-08-0332-43S.PLUR1_003                                                 6
 STAT SP IPHASW D HRMM SECON CODA AMPLIT PERI AZIMU VELO AIN AR TRES W  DIS CAZ7
 LZ4  SZ E         332 52.14                  136.8 22.5      0        9.82 317 
 LZ4  SN IP        332 52.16                             135    0.0210 9.82 317 
 LZ4  SE IS        332 53.91                             135   -0.0210 9.82 317 
 LZ4  SZ  AML      332 54.40        25.3 0.16                          9.82 317 
                                                                                
