 2009  1 8 0315 56.1 L  21.367 -99.299 28.0  RAL  2 0.2 0.6LRAL                1
 GAP=212        1.75       3.5     2.9 17.1 -0.9802E+01  0.8719E+00 -0.1066E+01E
 ACTION:UPD 12-06-08 11:37 OP:RALL STATUS:               ID:20090108031556     I
 2009-01-08-0315-50S.PLUR1_006                                                 6
 STAT SP IPHASW D HRMM SECON CODA AMPLIT PERI AZIMU VELO AIN AR TRES W  DIS CAZ7
 LZ4  SZ E         316  1.12                  321.2 11.3     -1        5.01 143 
 LZ4  SN IP        316  1.14                             173    0.3910 5.01 143 
 LZ4  SE IS        316  4.74                             173    0.6310 5.01 143 
 LZ4  SZ  AML      316  4.80        10.3 0.32                          5.01 143 
 LA4  SZ E         316  0.75                  168.9 13.3     -5        12.9 355 
 LA4  SN IP        316  0.81                             153   -0.3110 12.9 355 
 LA4  SE IS        316  4.06                             153   -0.7110 12.9 355 
 LA4  SZ  AML      316  5.44         5.2 0.52                          12.9 355 
                                                                                
