 2009  1 8 1430 16.8 L  21.256 -99.228 10.0  RAL  1 0.1 0.2LRAL                1
 GAP=360        0.57      15.1    18.8  0.0 -0.2826E+03  0.8719E+00 -0.1066E+01E
 ACTION:UPD 12-06-08 11:37 OP:RALL STATUS:               ID:20090108143016     I
 2009-01-08-1430-10S.PLUR1_003                                                 6
 STAT SP IPHASW D HRMM SECON CODA AMPLIT PERI AZIMU VELO AIN AR TRES W  DIS CAZ7
 LG3  SZ E        1430 18.99                  130.7 34.8      0        3.33 311 
 LG3  SN IP       1430 19.02                             162    0.3310 3.33 311 
 LG3  SE IS       1430 19.78                             162   -0.3310 3.33 311 
 LG3  SZ  AML     1430 20.55         9.1 0.40                          3.33 311 
                                                                                
