 2009  1 8 1808 54.4 L  21.254 -99.254 10.0  RAL  1 0.2 1.0LRAL                1
 GAP=360        0.93      17.5   701.9  0.0  0.1227E+05  0.8719E+00 -0.1066E+01E
 ACTION:UPD 12-06-08 11:37 OP:RALL STATUS:               ID:20090108180854     I
 2009-01-08-1808-47S.PLUR1_003                                                 6
 STAT SP IPHASW D HRMM SECON CODA AMPLIT PERI AZIMU VELO AIN AR TRES W  DIS CAZ7
 LG3  SZ E        18 8 56.88                  182.8 11.1      0        2.42   3 
 LG3  SN IP       18 8 56.91                             167    0.6010 2.42   3 
 LG3  SE IS       18 8 57.10                             167   -0.6010 2.42   3 
 LG3  SZ  AML     18 8 57.33        59.1 0.10                          2.42   3 
                                                                                
