 2009  1 8 2328 29.6 L  21.342 -99.267 10.0  RAL  1 0.1 0.9LRAL                1
 GAP=360        0.43     999.9   999.9  0.0 -0.2168E+08  0.8719E+00 -0.1066E+01E
 ACTION:UPD 12-06-08 11:37 OP:RALL STATUS:               ID:20090108232829     I
 2009-01-08-2328-22S.PLUR1_003                                                 6
 STAT SP IPHASW D HRMM SECON CODA AMPLIT PERI AZIMU VELO AIN AR TRES W  DIS CAZ7
 LZ4  SZ E        2328 31.64                   13.9 26.0      0        1.22 194 
 LZ4  SN IP       2328 31.65                             173    0.2010 1.22 194 
 LZ4  SE IS       2328 32.59                             173   -0.2010 1.22 194 
 LZ4  SZ  AML     2328 32.67        45.0 0.10                          1.22 194 
                                                                                
