 2009  1 8 2213 50.2 L  21.340 -99.242 10.0  RAL  1 0.0 0.4LRAL                1
 GAP=360        0.35       5.0    15.7  0.0  0.7792E+02  0.8719E+00 -0.1066E+01E
 ACTION:UPD 12-06-08 11:37 OP:RALL STATUS:               ID:20090108221350     I
 2009-01-08-2213-44S.PLUR1_003                                                 6
 STAT SP IPHASW D HRMM SECON CODA AMPLIT PERI AZIMU VELO AIN AR TRES W  DIS CAZ7
 LZ4  SZ E        2213 52.18                   71.2 83.0      0        3.05 251 
 LZ4  SN IP       2213 52.26                             163    0.1310 3.05 251 
 LZ4  SE IS       2213 53.39                             163   -0.1310 3.05 251 
 LZ4  SZ  AML     2213 54.47        12.5 0.50                          3.05 251 
                                                                                
