 2009  1 9 0217  3.2 L  21.656 -99.423 10.0  RAL  1 0.0 0.5LRAL                1
 GAP=360        0.30       3.4     2.3  0.0 -0.7333E+01 -0.2668E+05  0.4760E+05E
 ACTION:UPD 12-06-08 11:37 OP:RALL STATUS:               ID:20090109021703     I
 2009-01-09-0216-55S.PLUR1_003                                                 6
 STAT SP IPHASW D HRMM SECON CODA AMPLIT PERI AZIMU VELO AIN AR TRES W  DIS CAZ7
 LA4  SZ E         217  7.23                  328.3 11.6      0        22.4 148 
 LA4  SN IP        217  7.33                             111    0.0010 22.4 148 
 LA4  SE IS        217 10.34                             111    0.0010 22.4 148 
 LA4  SZ  AML      217 13.70         8.0 0.42                          22.4 148 
                                                                                
