 2009  1 9 0944  0.6 R  22.042 -99.530 10.0  RAL  1 0.0 1.3LRAL                1
 GAP=360        0.30       3.5     2.2  0.0 -0.3817E+01 -0.2668E+05  0.4760E+05E
 ACTION:UPD 12-06-08 11:37 OP:RALL STATUS:               ID:20090109094400     I
 2009-01-09-0944-02S.PLUR1_009                                                 6
 STAT SP IPHASW D HRMM SECON CODA AMPLIT PERI AZIMU VELO AIN AR TRES W  DIS CAZ7
 LA4  SZ E         944 11.31                  339.8  8.5      0        65.9 160 
 LA4  SN IP        944 11.37                              95    0.0110 65.9 160 
 LA4  SE IS        944 19.21                              95   -0.0110 65.9 160 
 LA4  SZ  AML      944 23.18        18.0 0.38                          65.9 160 
                                                                                
