 2009  1 9 0134  9.7 L  21.712 -99.445  4.0  RAL  2 0.3 2.4LRAL                1
 GAP=354        3.47     147.9    83.2327.3 -0.1223E+05 -0.2668E+05  0.4760E+05E
 ACTION:UPD 12-06-08 11:37 OP:RALL STATUS:               ID:20090109013409     I
 2009-01-09-0134-00S.PLUR1_006                                                 6
 STAT SP IPHASW D HRMM SECON CODA AMPLIT PERI AZIMU VELO AIN AR TRES W  DIS CAZ7
 LA4  SZ E         134 14.48                  339.3  8.6      8        28.9 151 
 LA4  SN IP        134 14.52                              63   -0.2010 28.9 151 
 LA4  SE IS        134 17.88                              63   -0.5410 28.9 151 
 LA4  SZ  AML      134 19.65       660.2 0.32                          28.9 151 
 LZ4  SN IP        134 18.10                              63    0.7510 45.9 157 
 LZ4  SZ E         134 18.11                  322.8  7.5    -13        45.9 157 
 LZ4  SE IS        134 22.96                              63   -0.0110 45.9 157 
 LZ4  SZ  AML      134 23.57       288.3 0.18                          45.9 157 
                                                                                
