 2009  1 9 0148 10.4 L  21.679 -99.434 10.0  RAL  1 0.0 0.5LRAL                1
 GAP=360        0.30       3.3     2.2  0.0 -0.6949E+01 -0.2668E+05  0.4760E+05E
 ACTION:UPD 12-06-08 11:37 OP:RALL STATUS:               ID:20090109014810     I
 2009-01-09-0148-03S.PLUR1_003                                                 6
 STAT SP IPHASW D HRMM SECON CODA AMPLIT PERI AZIMU VELO AIN AR TRES W  DIS CAZ7
 LA4  SZ E         148 14.82                  329.1 11.6      0        25.1 149 
 LA4  SN IP        148 14.88                             108    0.0010 25.1 149 
 LA4  SE IS        148 18.18                             108    0.0010 25.1 149 
 LA4  SZ  AML      148 18.75         7.0 0.50                          25.1 149 
                                                                                
