 2009  1 9 1215  0.7 L  21.253 -99.230 10.0  RAL  1 0.1 0.3LRAL                1
 GAP=360        0.43      12.4    12.6  0.0 -0.1569E+03 -0.2668E+05  0.4760E+05E
 ACTION:UPD 12-06-08 11:37 OP:RALL STATUS:               ID:20090109121500     I
 2009-01-09-1214-54S.PLUR1_003                                                 6
 STAT SP IPHASW D HRMM SECON CODA AMPLIT PERI AZIMU VELO AIN AR TRES W  DIS CAZ7
 LG3  SN IP       1215  2.85                             162    0.2110 3.38 317 
 LG3  SZ E        1215  2.86                  136.6 10.3      0        3.38 317 
 LG3  SE IS       1215  3.85                             162   -0.2110 3.38 317 
 LG3  SZ  AML     1215  4.13        11.6 0.22                          3.38 317 
                                                                                
