 2009  1 9 1644 37.8 L  21.661 -99.500  2.5  RAL  2 0.2 1.1LRAL                1
 GAP=346        1.32      29.4    17.4 67.7 -0.4902E+03 -0.1082E+04  0.1871E+04E
 ACTION:UPD 12-06-08 11:37 OP:RALL STATUS:               ID:20090109164437     I
 2009-01-09-1644-35S.PLUR1_006                                                 6
 STAT SP IPHASW D HRMM SECON CODA AMPLIT PERI AZIMU VELO AIN AR TRES W  DIS CAZ7
 LZ4  SZ E        1644 44.75                  325.1  8.5     -1        43.6 147 
 LZ4  SN IP       1644 44.77                              63   -0.5010 43.6 147 
 LZ4  SE IS       1644 50.01                              63   -0.7010 43.6 147 
 LZ4  SZ  AML     1644 51.11        64.7 0.26                          43.6 147 
 LD5  SZ E        1644 47.67                  340.7 20.5      0        55.7 160 
 LD5  SN IP       1644 47.68                              63    0.5410 55.7 160 
 LD5  SE IS       1644 54.62                              63    0.6610 55.7 160 
 LD5  SZ  AML     1644 56.10         3.6 0.30                          55.7 160 
                                                                                
