 2009  1 9 1118 20.8 L  21.708 -99.429 10.0  RAL  1 0.0 1.6LRAL                1
 GAP=360        0.30       3.5     1.9  0.0 -0.4670E+01 -0.2668E+05  0.4760E+05E
 ACTION:UPD 12-06-08 11:37 OP:RALL STATUS:               ID:20090109111820     I
 2009-01-09-1118-18S.PLUR1_003                                                 6
 STAT SP IPHASW D HRMM SECON CODA AMPLIT PERI AZIMU VELO AIN AR TRES W  DIS CAZ7
 LZ4  SZ E        1118 28.19                  338.4  8.2      0        44.9 158 
 LZ4  SN IP       1118 28.30                              98    0.0110 44.9 158 
 LZ4  SE IS       1118 33.76                              98   -0.0110 44.9 158 
 LZ4  SZ  AML     1118 34.53        52.5 0.16                          44.9 158 
                                                                                
