 2009  1 9 2243 19.8 L  21.591 -99.296 10.0  RAL  1 0.0 0.6LRAL                1
 GAP=360        0.30       4.7     0.7  0.0  0.2820E+01 -0.1082E+04  0.1871E+04E
 ACTION:UPD 12-06-08 11:37 OP:RALL STATUS:               ID:20090109224319     I
 2009-01-09-2243-09S.PLUR1_003                                                 6
 STAT SP IPHASW D HRMM SECON CODA AMPLIT PERI AZIMU VELO AIN AR TRES W  DIS CAZ7
 LA4  SZ E        2243 22.39                    6.7  8.7      0        11.9 187 
 LA4  SN IP       2243 22.53                             129    0.0010 11.9 187 
 LA4  SE IS       2243 24.50                             129    0.0010 11.9 187 
 LA4  SZ  AML     2243 24.90        13.7 0.22                          11.9 187 
                                                                                
