 2009  1 9 2231 39.9 L  21.349 -99.292 10.0  RAL  1 0.2 1.2LRAL                1
 GAP=360        0.65      18.6    23.1  0.0 -0.4300E+03 -0.1082E+04  0.1871E+04E
 ACTION:UPD 12-06-08 11:37 OP:RALL STATUS:               ID:20090109223139     I
 2009-01-09-2231-32S.PLUR1_003                                                 6
 STAT SP IPHASW D HRMM SECON CODA AMPLIT PERI AZIMU VELO AIN AR TRES W  DIS CAZ7
 LZ4  SZ E        2231 42.20                  310.9  7.6      0        3.07 131 
 LZ4  SN IP       2231 42.20                             163    0.3910 3.07 131 
 LZ4  SE IS       2231 42.80                             163   -0.3910 3.07 131 
 LZ4  SZ  AML     2231 43.07        86.3 0.18                          3.07 131 
                                                                                
