 2009  1 9 2103 47.7 L  21.679 -99.460 10.0  RAL  1 0.0 0.5LRAL                1
 GAP=360        0.30       3.1     2.5  0.0 -0.7350E+01 -0.1082E+04  0.1871E+04E
 ACTION:UPD 12-06-08 11:37 OP:RALL STATUS:               ID:20090109210347     I
 2009-01-09-2103-42S.PLUR1_003                                                 6
 STAT SP IPHASW D HRMM SECON CODA AMPLIT PERI AZIMU VELO AIN AR TRES W  DIS CAZ7
 LA4  SZ E        21 3 51.07                  324.1 13.0      0        26.7 144 
 LA4  SN IP       21 3 52.47                             107    0.0010 26.7 144 
 LA4  SE IS       21 3 55.94                             107    0.0010 26.7 144 
 LA4  SZ  AML     21 3 56.71         6.6 0.22                          26.7 144 
                                                                                
