 2009  110 0136 19.1 L  21.310 -99.291 10.0  RAL  1 0.1 0.5LRAL                1
 GAP=360        0.60      18.1    19.0  0.0  0.3435E+03 -0.1082E+04  0.1871E+04E
 ACTION:UPD 12-06-08 11:37 OP:RALL STATUS:               ID:20090110013619     I
 2009-01-10-0136-12S.PLUR1_003                                                 6
 STAT SP IPHASW D HRMM SECON CODA AMPLIT PERI AZIMU VELO AIN AR TRES W  DIS CAZ7
 LZ4  SZ E         136 21.33                  224.3 99.9      0        3.21  44 
 LZ4  SN IP        136 21.34                             163    0.3610 3.21  44 
 LZ4  SE IS        136 22.02                             163   -0.3610 3.21  44 
 LZ4  SZ  AML      136 22.34        15.6 0.16                          3.21  44 
                                                                                
