 2009  110 0357 42.0 L  21.270 -99.239 10.0  RAL  1 0.2 0.0LRAL                1
 GAP=360        0.67     999.9   874.1  0.0  0.1454E+07  0.9034E+01 -0.4956E+02E
 ACTION:UPD 12-06-08 11:37 OP:RALL STATUS:               ID:20090110035742     I
 2009-01-10-0357-35S.PLUR1_003                                                 6
 STAT SP IPHASW D HRMM SECON CODA AMPLIT PERI AZIMU VELO AIN AR TRES W  DIS CAZ7
 LG3  SZ E         357 44.16                  114.4 21.8      0        1.53 294 
 LG3  SN IP        357 44.25                             172    0.4110 1.53 294 
 LG3  SE IS        357 44.80                             172   -0.4110 1.53 294 
 LG3  SZ  AML      357 45.08         5.2 0.24                          1.53 294 
                                                                                
