 2009  110 0710 35.9 L  21.303 -99.292 10.0  RAL  1 0.1 0.4LRAL                1
 GAP=360        0.38      10.9     8.8  0.0  0.9610E+02  0.9034E+01 -0.4956E+02E
 ACTION:UPD 12-06-08 11:37 OP:RALL STATUS:               ID:20090110071035     I
 2009-01-10-0710-29S.PLUR1_003                                                 6
 STAT SP IPHASW D HRMM SECON CODA AMPLIT PERI AZIMU VELO AIN AR TRES W  DIS CAZ7
 LZ4  SZ E         710 37.95                  217.1 37.4      0        3.81  37 
 LZ4  SN IP        710 37.98                             160    0.1610 3.81  37 
 LZ4  SE IS        710 39.07                             160   -0.1610 3.81  37 
 LZ4  SZ  AML      710 39.99        14.6 0.86                          3.81  37 
                                                                                
