 2009  110 0149  4.6 L  21.257 -99.336 10.0  RAL  4 0.7 1.7LRAL                1
 GAP=198       11.11       7.7     6.8 70.1  0.1057E+02  0.9034E+01 -0.4956E+02E
 ACTION:UPD 12-06-08 11:37 OP:RALL STATUS:               ID:20090110014904     I
 2009-01-10-0148-53S.PLUR1_012                                                 6
 STAT SP IPHASW D HRMM SECON CODA AMPLIT PERI AZIMU VELO AIN AR TRES W  DIS CAZ7
 LD5  SZ E         149  7.94                    1.7  9.4     14        7.98 168 
 LD5  SN IP        149  7.95                             151    1.1210 7.98 168 
 LD5  SE IS        149 10.15                             151    1.6710 7.98 168 
 LD5  SZ  AML      149 11.51        16.4 0.18                          7.98 168 
 LG3  SZ E         149  7.07                  218.8 17.1    -37        8.90  77 
 LG3  SN IP        149  7.08                             147    0.1410 8.90  77 
 LG3  SE IS        149  8.41                             147   -0.2610 8.90  77 
 LG3  SZ  AML      149  9.41       407.0 0.26                          8.90  77 
 LZ4  SN IP        149  6.63                             141   -0.4910 10.7  40 
 LZ4  SZ E         149  6.65                  273.6 14.4     53        10.7  40 
 LZ4  SE IS        149  7.61                             141   -1.3710 10.7  40 
 LZ4  SZ  AML      149  7.70      2652.3 0.22                          10.7  40 
 LA4  SZ E         149  8.82                  160.8  6.6    -25        25.2   6 
 LA4  SN IP        149  8.83                             116   -0.2910 25.2   6 
 LA4  SE IS        149 11.92                             116   -0.5110 25.2   6 
 LA4  SZ  AML      149 14.92        74.5 0.36                          25.2   6 
                                                                                
