 2009  110 0842 40.7 L  21.267 -99.253 11.3  RAL  2 0.3 0.3LRAL                1
 GAP=232        1.46       1.9     0.9 15.9 -0.1535E+00 -0.1926E+00  0.3458E+01E
 ACTION:UPD 12-06-08 11:37 OP:RALL STATUS:               ID:20090110084240     I
 2009-01-10-0842-30S.PLUR1_006                                                 6
 STAT SP IPHASW D HRMM SECON CODA AMPLIT PERI AZIMU VELO AIN AR TRES W  DIS CAZ7
 LZ4  SZ E         842 43.74                  164.6  9.5      0        7.27 346 
 LZ4  SN IP        842 43.75                             146    0.6810 7.27 346 
 LZ4  SE IS        842 45.28                             146    0.4910 7.27 346 
 LZ4  SZ  AML      842 45.67        26.2 0.32                          7.27 346 
 LD5  SZ E         842 43.31                   36.4 10.0     -1        11.3 218 
 LD5  SN IP        842 43.33                             133   -0.1510 11.3 218 
 LD5  SE IS        842 44.47                             133   -1.0210 11.3 218 
 LD5  SZ  AML      842 45.77         1.9 0.18                          11.3 218 
                                                                                
