 2009  110 0909 44.6 L  21.592 -99.353 10.0  RAL  1 0.0 0.2LRAL                1
 GAP=360        0.30       4.3     1.8  0.0 -0.7541E+01 -0.1926E+00  0.3458E+01E
 ACTION:UPD 12-06-08 11:37 OP:RALL STATUS:               ID:20090110090944     I
 2009-01-10-0909-35S.PLUR1_003                                                 6
 STAT SP IPHASW D HRMM SECON CODA AMPLIT PERI AZIMU VELO AIN AR TRES W  DIS CAZ7
 LA4  SZ E         9 9 47.29                  339.3 15.1      0        12.9 159 
 LA4  SN IP        9 9 47.40                             127    0.0110 12.9 159 
 LA4  SE IS        9 9 49.44                             127   -0.0110 12.9 159 
 LA4  SZ  AML      9 9 49.62         6.0 0.36                          12.9 159 
                                                                                
