 2009  110 0749 52.1 L  21.620 -99.336 10.0  RAL  1 0.0 0.0LRAL                1
 GAP=360        0.30       4.3     0.9  0.0 -0.3502E+01  0.9034E+01 -0.4956E+02E
 ACTION:UPD 12-06-08 11:37 OP:RALL STATUS:               ID:20090110074952     I
 2009-01-10-0749-43S.PLUR1_003                                                 6
 STAT SP IPHASW D HRMM SECON CODA AMPLIT PERI AZIMU VELO AIN AR TRES W  DIS CAZ7
 LA4  SZ E         749 55.17                  349.7  8.2      0        15.4 170 
 LA4  SN IP        749 55.22                             121    0.0010 15.4 170 
 LA4  SE IS        749 57.51                             121    0.0010 15.4 170 
 LA4  SZ  AML      749 59.37         3.4 0.28                          15.4 170 
                                                                                
