 2009  110 1918 45.9 L  21.349 -99.298 10.0  RAL  1 0.1 0.7LRAL                1
 GAP=360        0.42       8.8    14.2  0.0 -0.1250E+03 -0.2934E+05 -0.1339E+05E
 ACTION:UPD 12-06-08 11:37 OP:RALL STATUS:               ID:20090110191845     I
 2009-01-10-1918-39S.PLUR1_003                                                 6
 STAT SP IPHASW D HRMM SECON CODA AMPLIT PERI AZIMU VELO AIN AR TRES W  DIS CAZ7
 LZ4  SZ E        1918 47.90                  303.7 18.5      0        3.54 124 
 LZ4  SN IP       1918 48.05                             161    0.2010 3.54 124 
 LZ4  SE IS       1918 49.06                             161   -0.2010 3.54 124 
 LZ4  SZ  AML     1918 49.31        25.2 0.40                          3.54 124 
                                                                                
