 2009  110 1059 43.5 L  21.210 -99.460  4.6  RAL  2 0.8 0.8LRAL                1
 GAP=345       11.81      57.5   121.7314.6  0.6606E+04 -0.2934E+05 -0.1339E+05E
 ACTION:UPD 12-06-08 11:37 OP:RALL STATUS:               ID:20090110105943     I
 2009-01-10-1059-39S.PLUR1_006                                                 6
 STAT SP IPHASW D HRMM SECON CODA AMPLIT PERI AZIMU VELO AIN AR TRES W  DIS CAZ7
 LG3  SZ E        1059 48.71                  215.6 19.4    -35        22.7  71 
 LG3  SN IP       1059 48.77                              63    1.2210 22.7  71 
 LG3  SE IS       1059 50.11                              63   -0.3910 22.7  71 
 LG3  SZ  AML     1059 50.78         9.1 0.20                          22.7  71 
 LZ4  SZ E        1059 48.33                  280.2 35.0     44        23.8  56 
 LZ4  SN IP       1059 48.34                              63    0.6310 23.8  56 
 LZ4  SE IS       1059 49.33                              63   -1.4610 23.8  56 
 LZ4  SZ  AML     1059 49.94        25.8 0.18                          23.8  56 
                                                                                
