 2009  110 2155 58.0 L  21.528 -99.490 10.0  RAL  1 0.0 1.1LRAL                1
 GAP=360        0.30       2.7     3.0  0.0 -0.7479E+01 -0.2934E+05 -0.1339E+05E
 ACTION:UPD 12-06-08 11:37 OP:RALL STATUS:               ID:20090110215558     I
 2009-01-10-2155-58S.PLUR1_003                                                 6
 STAT SP IPHASW D HRMM SECON CODA AMPLIT PERI AZIMU VELO AIN AR TRES W  DIS CAZ7
 LZ4  SN IP       2156  3.49                             103    0.0210 31.6 134 
 LZ4  SZ E        2156  3.49                  313.7 18.9      0        31.6 134 
 LZ4  SE IS       2156  7.45                             103   -0.0210 31.6 134 
 LZ4  SZ  AML     2156  7.57        25.1 0.10                          31.6 134 
                                                                                
