 2009  110 2311 30.6 L  21.385 -99.435 32.3  RAL  3 0.3 1.0LRAL                1
 GAP=259        5.82       6.9     9.9 65.9  0.1487E+01  0.5600E+02  0.1977E+02E
 ACTION:UPD 12-06-08 11:37 OP:RALL STATUS:               ID:20090110231130     I
 2009-01-10-2311-22S.PLUR1_009                                                 6
 STAT SP IPHASW D HRMM SECON CODA AMPLIT PERI AZIMU VELO AIN AR TRES W  DIS CAZ7
 LA4  SZ E        2311 36.38                  217.5 15.6    -12        17.0  50 
 LA4  SN IP       2311 36.42                             146    0.0810 17.0  50 
 LA4  SE IS       2311 40.64                             146    0.1010 17.0  50 
 LA4  SZ  AML     2311 42.74        18.0 0.24                          17.0  50 
 LZ4  SN IP       2311 36.51                             144    0.1010 18.2 109 
 LZ4  SZ E        2311 36.52                  309.6  9.8     20        18.2 109 
 LZ4  SE IS       2311 40.77                             144    0.1010 18.2 109 
 LZ4  SZ  AML     2311 42.76        50.0 0.18                          18.2 109 
 LD5  SZ E        2311 36.82                  308.0 16.0    -23        25.0 152 
 LD5  SN IP       2311 36.93                             132   -0.0410 25.0 152 
 LD5  SE IS       2311 41.31                             132   -0.3310 25.0 152 
 LD5  SZ  AML     2311 43.32         4.2 0.36                          25.0 152 
                                                                                
