 2009  111 0046 47.2 L  21.423 -99.407 10.0  RAL  1 0.0 0.2LRAL                1
 GAP=360        0.30       2.6     4.3  0.0  0.1109E+02  0.5600E+02  0.1977E+02E
 ACTION:UPD 12-06-08 11:37 OP:RALL STATUS:               ID:20090111004647     I
 2009-01-11-0046-38S.PLUR1_003                                                 6
 STAT SP IPHASW D HRMM SECON CODA AMPLIT PERI AZIMU VELO AIN AR TRES W  DIS CAZ7
 LA4  SN IP        046 49.95                             129    0.0210 12.1  57 
 LA4  SZ E         046 49.96                  236.7 11.2      0        12.1  57 
 LA4  SE IS        046 51.90                             129   -0.0210 12.1  57 
 LA4  SZ  AML      046 53.75         5.8 0.58                          12.1  57 
                                                                                
