 2009  111 0323 11.4 L  21.321 -99.276 10.0  RAL  1 0.4 0.9LRAL                1
 GAP=360        4.31     999.9   999.9  0.0 -0.1762E+08  0.5600E+02  0.1977E+02E
 ACTION:UPD 12-06-08 11:37 OP:RALL STATUS:               ID:20090111032311     I
 2009-01-11-0323-04S.PLUR1_003                                                 6
 STAT SP IPHASW D HRMM SECON CODA AMPLIT PERI AZIMU VELO AIN AR TRES W  DIS CAZ7
 LZ4  SZ E         323 13.62                  190.5 17.1    -19        1.22  31 
 LZ4  SN IP        323 13.63                             173    0.3910 1.22  31 
 LZ4  SE IS        323 14.20                             173   -0.3910 1.22  31 
 LZ4  SZ  AML      323 14.92        43.0 0.24                          1.22  31 
                                                                                
