 2009  111 0355 47.6 L  21.275 -99.245  3.2  RAL  2 0.2 0.0LRAL                1
 GAP=295        2.94      12.3     5.6 22.1 -0.6483E+02  0.4930E+02 -0.1156E+03E
 ACTION:UPD 12-06-08 11:37 OP:RALL STATUS:               ID:20090111035547     I
 2009-01-11-0355-38S.PLUR1_006                                                 6
 STAT SP IPHASW D HRMM SECON CODA AMPLIT PERI AZIMU VELO AIN AR TRES W  DIS CAZ7
 LG3  SN IP        355 48.11                             169   -0.2510 0.81 272 
 LG3  SZ E         355 48.20                   80.9 34.2    -10        0.81 272 
 LG3  SE IS        355 48.85                             169   -0.0810 0.81 272 
 LG3  SZ  AML      355 49.04        10.0 0.16                          0.81 272 
 LZ4  SZ E         355 48.90                  166.0 48.4      9        6.66 337 
 LZ4  SN IP        355 49.02                             123    0.0510 6.66 337 
 LZ4  SE IS        355 50.26                             123    0.2810 6.66 337 
 LZ4  SZ  AML      355 50.33        13.0 0.40                          6.66 337 
                                                                                
