 2009  111 0345 30.8 L  21.317 -99.264 10.0  RAL  1 0.1 0.3LRAL                1
 GAP=360        0.51      39.2    15.5  0.0 -0.6076E+03  0.5600E+02  0.1977E+02E
 ACTION:UPD 12-06-08 11:37 OP:RALL STATUS:               ID:20090111034530     I
 2009-01-11-0345-24S.PLUR1_003                                                 6
 STAT SP IPHASW D HRMM SECON CODA AMPLIT PERI AZIMU VELO AIN AR TRES W  DIS CAZ7
 LZ4  SZ E         345 32.85                  160.6 62.2      1        1.60 340 
 LZ4  SN IP        345 32.91                             171    0.2610 1.60 340 
 LZ4  SE IS        345 33.74                             171   -0.2610 1.60 340 
 LZ4  SZ  AML      345 34.83        12.4 0.62                          1.60 340 
                                                                                
