 2009  111 0946  8.4 L  21.323 -99.252 12.1  RAL  2 0.2 0.5LRAL                1
 GAP=243        1.30       0.4     0.7 11.8 -0.2055E+00 -0.2909E-01  0.1006E-01E
 ACTION:UPD 12-06-08 11:37 OP:RALL STATUS:               ID:20090111094608     I
 2009-01-11-0946-01S.PLUR1_006                                                 6
 STAT SP IPHASW D HRMM SECON CODA AMPLIT PERI AZIMU VELO AIN AR TRES W  DIS CAZ7
 LZ4  SN IP        946 10.87                             172    0.2910 1.98 297 
 LZ4  SZ E         946 10.95                  115.9 17.3      0        1.98 297 
 LZ4  SZ  AML      946 12.81        15.7 0.30                          1.98 297 
 LZ4  SE IS        946 12.86                             172    0.6910 1.98 297 
 LG3  SN EP        946 10.57                             157   -0.1710 5.21 180 
 LG3  SZ E         946 10.58                  357.5 43.6      3        5.21 180 
 LG3  SE IS        946 11.64                             157   -0.8110 5.21 180 
 LG3  SZ  AML      946 12.33        13.1 0.10                          5.21 180 
                                                                                
