 2009  111 1007 16.4 L  21.329 -99.411 10.0  RAL  1 0.0 0.4LRAL                1
 GAP=360        0.30       0.4     4.7  0.0  0.2326E+00 -0.2909E-01  0.1006E-01E
 ACTION:UPD 12-06-08 11:37 OP:RALL STATUS:               ID:20090111100716     I
 2009-01-11-1007-13S.PLUR1_003                                                 6
 STAT SP IPHASW D HRMM SECON CODA AMPLIT PERI AZIMU VELO AIN AR TRES W  DIS CAZ7
 LZ4  SZ E        10 7 19.42                  269.4 19.2      0        14.7  89 
 LZ4  SN IP       10 7 19.49                             122    0.0310 14.7  89 
 LZ4  SE IS       10 7 21.66                             122   -0.0310 14.7  89 
 LZ4  SZ  AML     10 7 22.37         8.7 0.60                          14.7  89 
                                                                                
