 2009  111 2058  1.7 L  21.264 -99.269 10.0  RAL  1 0.2 0.6LRAL                1
 GAP=360        0.86      33.4    45.5  0.0  0.1519E+04 -0.2909E-01  0.1006E-01E
 ACTION:UPD 12-06-08 11:37 OP:RALL STATUS:               ID:20090111205801     I
 2009-01-11-2057-54S.PLUR1_003                                                 6
 STAT SP IPHASW D HRMM SECON CODA AMPLIT PERI AZIMU VELO AIN AR TRES W  DIS CAZ7
 LG3  SN IP       2058  4.16                             169    0.5510 2.12  52 
 LG3  SZ E        2058  4.17                  231.8 15.6      0        2.12  52 
 LG3  SE IS       2058  4.44                             169   -0.5510 2.12  52 
 LG3  SZ  AML     2058  4.59        21.9 0.26                          2.12  52 
                                                                                
