 2009  111 2354 14.2 L  21.503 -99.322 10.0  RAL  1 0.1 0.2LRAL                1
 GAP=360        0.61      27.7    18.4  0.0 -0.5099E+03 -0.2909E-01  0.1006E-01E
 ACTION:UPD 12-06-08 11:37 OP:RALL STATUS:               ID:20090111235414     I
 2009-01-11-2354-02S.PLUR1_003                                                 6
 STAT SP IPHASW D HRMM SECON CODA AMPLIT PERI AZIMU VELO AIN AR TRES W  DIS CAZ7
 LA4  SN IP       2354 16.43                             166    0.3610 2.50 148 
 LA4  SZ E        2354 16.44                  328.3  7.9      0        2.50 148 
 LA4  SE IS       2354 17.09                             166   -0.3610 2.50 148 
 LA4  SZ  AML     2354 17.25         7.8 0.26                          2.50 148 
                                                                                
