 2009  112 0224 20.8 L  21.251 -99.196 17.0  RAL  2 0.7 0.7LRAL                1
 GAP=306        3.96       3.0     6.5 38.2 -0.1285E+02 -0.1317E+02  0.5441E+01E
 ACTION:UPD 12-06-08 11:37 OP:RALL STATUS:               ID:20090112022420     I
 2009-01-12-0224-09S.PLUR1_006                                                 6
 STAT SP IPHASW D HRMM SECON CODA AMPLIT PERI AZIMU VELO AIN AR TRES W  DIS CAZ7
 LG3  SZ E         224 25.93                  114.0 13.8      0        6.46 296 
 LG3  SN IP        224 25.96                             160    2.0510 6.46 296 
 LG3  SE IS        224 27.58                             160    1.4010 6.46 296 
 LG3  SZ  AML      224 29.29        23.1 0.84                          6.46 296 
 LD5  SN IP        224 23.98                             139   -0.5710 14.7 241 
 LD5  SZ E         224 23.99                   61.8  9.1      1        14.7 241 
 LD5  SE IS        224 24.40                             139   -2.8910 14.7 241 
 LD5  SZ  AML      224 24.80         9.9 0.18                          14.7 241 
                                                                                
