 2009  112  228 27.1 L                       RAL  1                            1
 ACTION:UPD 12-06-08 11:37 OP:RALL STATUS:               ID:20090112022827     I
 2009-01-12-0228-27S.PLUR1_003                                                 6
 STAT SP IPHASW D HRMM SECON CODA AMPLIT PERI AZIMU VELO AIN AR TRES W  DIS CAZ7
 LZ4  SZ E         228 34.51                                                    
 LZ4  SN IP        228 34.53                                                    
 LZ4  SE IS        228 36.59                                                    
                                                                                
