 2009  112 0310  9.2 L  21.110 -99.226 10.0  RAL  1 0.0-0.3LRAL                1
 GAP=360        0.30       3.0     3.7  0.0 -0.1118E+02 -0.1317E+02  0.5441E+01E
 ACTION:UPD 12-06-08 11:37 OP:RALL STATUS:               ID:20090112031009     I
 2009-01-12-0309-59S.PLUR1_003                                                 6
 STAT SP IPHASW D HRMM SECON CODA AMPLIT PERI AZIMU VELO AIN AR TRES W  DIS CAZ7
 LD5  SN IP        310 12.02                             126    0.0210 13.0 311 
 LD5  SZ E         310 12.79                  130.9  7.0      0        13.0 311 
 LD5  SE IS        310 14.04                             126   -0.0210 13.0 311 
 LD5  SZ  AML      310 14.09         1.9 0.12                          13.0 311 
                                                                                
