 2009  112 0328  1.8 L  21.608 -99.389 27.2  RAL  2 0.1 0.9LRAL                1
 GAP=359        1.45      40.0    17.3 56.5 -0.6787E+03  0.8876E+03 -0.2081E+04E
 ACTION:UPD 12-06-08 11:37 OP:RALL STATUS:               ID:20090112032801     I
 2009-01-12-0328-04S.PLUR1_006                                                 6
 STAT SP IPHASW D HRMM SECON CODA AMPLIT PERI AZIMU VELO AIN AR TRES W  DIS CAZ7
 LZ4  SN IP        328  8.60                             130   -0.0310 33.1 158 
 LZ4  SZ E         328  8.71                  333.6  7.2     -3        33.1 158 
 LZ4  SE IS        328 13.53                             130   -0.0710 33.1 158 
 LZ4  SZ  AML      328 16.96        19.6 0.90                          33.1 158 
 LG3  SN IP        328  9.42                             124    0.0010 39.4 159 
 LG3  SZ E         328  9.45                  344.3  7.4      5        39.4 159 
 LG3  SE IS        328 15.05                             124    0.0910 39.4 159 
 LG3  SZ  AML      328 17.12         7.1 0.32                          39.4 159 
                                                                                
