 2009  112 0401 31.2 L  21.265 -99.197 19.2  RAL  2 0.7 0.0LRAL                1
 GAP=314        3.98       2.4     9.0 38.3 -0.9345E+01 -0.2211E+02  0.3558E+01E
 ACTION:UPD 12-06-08 11:37 OP:RALL STATUS:               ID:20090112040131     I
 2009-01-12-0401-20S.PLUR1_006                                                 6
 STAT SP IPHASW D HRMM SECON CODA AMPLIT PERI AZIMU VELO AIN AR TRES W  DIS CAZ7
 LG3  SZ E         4 1 36.17                  100.4 12.5      0        5.88 282 
 LG3  SN IP        4 1 36.19                             160    1.5810 5.88 282 
 LG3  SE IS        4 1 38.64                             160    1.5410 5.88 282 
 LD5  SN IP        4 1 35.21                             139   -0.0810 15.4 236 
 LD5  SZ E         4 1 35.23                   60.5  9.4      5        15.4 236 
 LD5  SE IS        4 1 35.24                             139   -3.0410 15.4 236 
 LD5  SZ  AML      4 1 35.71         2.4 0.38                          15.4 236 
                                                                                
