 2009  112 0705 21.0 L  21.195 -99.167  6.0  RAL  2 0.3 0.5LRAL                1
 GAP=350        2.63      17.5    17.0188.7 -0.2914E+03 -0.2115E+04  0.2166E+04E
 ACTION:UPD 12-06-08 11:37 OP:RALL STATUS:               ID:20090112070521     I
 2009-01-12-0705-16S.PLUR1_006                                                 6
 STAT SP IPHASW D HRMM SECON CODA AMPLIT PERI AZIMU VELO AIN AR TRES W  DIS CAZ7
 LG3  SZ E         7 5 24.33                  141.0 21.2      6        12.5 315 
 LG3  SN IP        7 5 24.35                              98    0.8610 12.5 315 
 LG3  SE IS        7 5 25.39                              98    0.0910 12.5 315 
 LG3  SZ  AML      7 5 25.56         7.8 0.22                          12.5 315 
 LZ4  SN IP        7 5 24.50                              95    0.1310 18.4 325 
 LZ4  SZ E         7 5 24.54                  135.7 22.1     -8        18.4 325 
 LZ4  SE IS        7 5 25.73                              95   -1.0810 18.4 325 
 LZ4  SZ  AML      7 5 25.83        18.9 0.16                          18.4 325 
                                                                                
