 2009  112 0341  2.4 L  21.358 -99.294 10.0  RAL  1 0.1 0.4LRAL                1
 GAP=360        0.37       9.7     9.1  0.0 -0.8819E+02  0.8876E+03 -0.2081E+04E
 ACTION:UPD 12-06-08 11:37 OP:RALL STATUS:               ID:20090112034102     I
 2009-01-12-0340-56S.PLUR1_003                                                 6
 STAT SP IPHASW D HRMM SECON CODA AMPLIT PERI AZIMU VELO AIN AR TRES W  DIS CAZ7
 LZ4  SZ E         341  4.47                  319.1 24.7      0        3.92 139 
 LZ4  SN IP        341  4.51                             159    0.1510 3.92 139 
 LZ4  SE IS        341  5.63                             159   -0.1510 3.92 139 
 LZ4  SZ  AML      341  7.00        14.1 0.44                          3.92 139 
                                                                                
