 2009  112 1411 13.4 L  21.335 -99.244 10.0  RAL  1 0.0 0.6LRAL                1
 GAP=360        0.31       2.8    16.2  0.0  0.4573E+02 -0.2115E+04  0.2166E+04E
 ACTION:UPD 12-06-08 11:37 OP:RALL STATUS:               ID:20090112141113     I
 2009-01-12-1411-07S.PLUR1_003                                                 6
 STAT SP IPHASW D HRMM SECON CODA AMPLIT PERI AZIMU VELO AIN AR TRES W  DIS CAZ7
 LZ4  SZ E        1411 14.91                   79.4 24.8      0        2.64 259 
 LZ4  SN IP       1411 15.34                             166    0.0510 2.64 259 
 LZ4  SE IS       1411 16.61                             166   -0.0510 2.64 259 
 LZ4  SZ  AML     1411 16.74        23.1 0.38                          2.64 259 
                                                                                
