 2009  112 1956  5.4 L  21.332 -99.283 10.0  RAL  1 0.1 0.6LRAL                1
 GAP=360        1.24     294.4   150.6  0.0  0.4432E+05 -0.2115E+04  0.2166E+04E
 ACTION:UPD 12-06-08 11:37 OP:RALL STATUS:               ID:20090112195605     I
 2009-01-12-1955-58S.PLUR1_003                                                 6
 STAT SP IPHASW D HRMM SECON CODA AMPLIT PERI AZIMU VELO AIN AR TRES W  DIS CAZ7
 LZ4  SZ E        1956  7.42                  268.9 26.0     -4        1.38  94 
 LZ4  SN IP       1956  7.47                             172    0.2510 1.38  94 
 LZ4  SE IS       1956  8.32                             172   -0.2510 1.38  94 
 LZ4  SZ  AML     1956  8.94        21.1 0.40                          1.38  94 
                                                                                
