 2009  112 2200 18.1 L  21.486 -99.317 10.0  RAL  1 0.2-0.3LRAL                1
 GAP=360        0.71     999.9   999.9  0.0  0.2484E+07 -0.2115E+04  0.2166E+04E
 ACTION:UPD 12-06-08 11:37 OP:RALL STATUS:               ID:20090112220018     I
 2009-01-12-2200-06S.PLUR1_003                                                 6
 STAT SP IPHASW D HRMM SECON CODA AMPLIT PERI AZIMU VELO AIN AR TRES W  DIS CAZ7
 LA4  SZ E        22 0 20.33                  291.2 13.2      1        0.83 111 
 LA4  SN IP       22 0 20.38                             175    0.4310 0.83 111 
 LA4  SE IS       22 0 20.88                             175   -0.4310 0.83 111 
 LA4  SZ  AML     22 0 20.95         3.1 0.36                          0.83 111 
                                                                                
