 2009  112 2017 50.9 L  21.640 -99.335 10.0  RAL  1 0.0 0.6LRAL                1
 GAP=360        0.30       4.1     0.8  0.0 -0.2822E+01 -0.2115E+04  0.2166E+04E
 ACTION:UPD 12-06-08 11:37 OP:RALL STATUS:               ID:20090112201750     I
 2009-01-12-2017-42S.PLUR1_003                                                 6
 STAT SP IPHASW D HRMM SECON CODA AMPLIT PERI AZIMU VELO AIN AR TRES W  DIS CAZ7
 LA4  SZ E        2017 54.36                  351.2 11.1      0        17.5 171 
 LA4  SN IP       2017 54.36                             117    0.0210 17.5 171 
 LA4  SE IS       2017 56.82                             117   -0.0210 17.5 171 
 LA4  SZ  AML     2017 57.34        12.0 0.20                          17.5 171 
                                                                                
