 2009  112 2111 48.0 L  21.295 -99.300 10.0  RAL  1 0.0 0.9LRAL                1
 GAP=360        0.32       7.0     6.1  0.0  0.4234E+02 -0.2115E+04  0.2166E+04E
 ACTION:UPD 12-06-08 11:37 OP:RALL STATUS:               ID:20090112211148     I
 2009-01-12-2111-41S.PLUR1_003                                                 6
 STAT SP IPHASW D HRMM SECON CODA AMPLIT PERI AZIMU VELO AIN AR TRES W  DIS CAZ7
 LZ4  SN IP       2111 50.08                             154    0.0810 5.04  39 
 LZ4  SZ E        2111 50.12                  219.0 17.9      0        5.04  39 
 LZ4  SE IS       2111 51.39                             154   -0.0810 5.04  39 
 LZ4  SZ  AML     2111 51.59        38.0 0.14                          5.04  39 
                                                                                
