 2009  112 2101 36.2 L  21.374 -99.561 10.0  RAL  1 0.0 0.6LRAL                1
 GAP=360        0.30       1.8     3.8  0.0  0.5848E+01 -0.2115E+04  0.2166E+04E
 ACTION:UPD 12-06-08 11:37 OP:RALL STATUS:               ID:20090112210136     I
 2009-01-12-2101-30S.PLUR1_003                                                 6
 STAT SP IPHASW D HRMM SECON CODA AMPLIT PERI AZIMU VELO AIN AR TRES W  DIS CAZ7
 LA4  SZ E        21 1 41.13                  245.1 12.5      0        28.8  65 
 LA4  SN IP       21 1 41.25                             105    0.0210 28.8  65 
 LA4  SE IS       21 1 44.91                             105   -0.0210 28.8  65 
 LA4  SZ  AML     21 1 46.77         7.7 0.54                          28.8  65 
                                                                                
