 2009  112 2151 19.1 L  21.616 -99.344 10.0  RAL  1 0.0 0.8LRAL                1
 GAP=360        0.30       4.2     1.2  0.0 -0.4703E+01 -0.2115E+04  0.2166E+04E
 ACTION:UPD 12-06-08 11:37 OP:RALL STATUS:               ID:20090112215119     I
 2009-01-12-2151-08S.PLUR1_003                                                 6
 STAT SP IPHASW D HRMM SECON CODA AMPLIT PERI AZIMU VELO AIN AR TRES W  DIS CAZ7
 LA4  SZ E        2151 22.21                  346.1  7.3      0        15.1 166 
 LA4  SN IP       2151 22.22                             122    0.0010 15.1 166 
 LA4  SE IS       2151 24.48                             122    0.0010 15.1 166 
 LA4  SZ  AML     2151 24.83        20.0 0.32                          15.1 166 
                                                                                
