 2009  113 0231 24.5 L  21.340 -99.270 10.0  RAL  1 0.1 0.4LRAL                1
 GAP=360        0.41     690.7   999.9  0.0  0.7361E+07 -0.2115E+04  0.2166E+04E
 ACTION:UPD 12-06-08 11:37 OP:RALL STATUS:               ID:20090113023124     I
 2009-01-13-0231-18S.PLUR1_003                                                 6
 STAT SP IPHASW D HRMM SECON CODA AMPLIT PERI AZIMU VELO AIN AR TRES W  DIS CAZ7
 LZ4  SN IP        231 26.48                             174    0.1610 1.07 176 
 LZ4  SZ E         231 26.49                  355.0 16.7      0        1.07 176 
 LZ4  SE IS        231 27.50                             174   -0.1610 1.07 176 
 LZ4  SZ  AML      231 28.39        13.5 0.60                          1.07 176 
                                                                                
