 2009  113 0016 45.2 L  21.731 -99.408 10.0  RAL  1 0.0 0.7LRAL                1
 GAP=360        0.30       3.6     1.6  0.0 -0.4994E+01 -0.2115E+04  0.2166E+04E
 ACTION:UPD 12-06-08 11:37 OP:RALL STATUS:               ID:20090113001645     I
 2009-01-13-0016-40S.PLUR1_003                                                 6
 STAT SP IPHASW D HRMM SECON CODA AMPLIT PERI AZIMU VELO AIN AR TRES W  DIS CAZ7
 LA4  SZ E         016 50.19                  339.5 20.9      0        29.3 159 
 LA4  SN IP        016 50.38                             105    0.0210 29.3 159 
 LA4  SE IS        016 54.10                             105   -0.0210 29.3 159 
 LA4  SZ  AML      016 54.71         9.9 0.40                          29.3 159 
                                                                                
