 2009  113 1146 56.5 L  21.247 -99.232 10.0  RAL  1 0.1 0.4LRAL                1
 GAP=360        0.39      11.6     8.3  0.0 -0.9703E+02 -0.2115E+04  0.2166E+04E
 ACTION:UPD 12-06-08 11:37 OP:RALL STATUS:               ID:20090113114656     I
 2009-01-13-1146-50S.PLUR1_003                                                 6
 STAT SP IPHASW D HRMM SECON CODA AMPLIT PERI AZIMU VELO AIN AR TRES W  DIS CAZ7
 LG3  SZ E        1146 58.59                  146.2 24.1      0        3.89 326 
 LG3  SN IP       1146 58.66                             159    0.1810 3.89 326 
 LG3  SE IS       1146 59.74                             159   -0.1810 3.89 326 
 LG3  SZ  AML     1146 59.86        12.3 0.34                          3.89 326 
                                                                                
