 2009  113 1940 42.1 L  21.312 -99.240 10.0  RAL  1 0.1 0.3LRAL                1
 GAP=360        0.38       8.1    12.4  0.0 -0.1011E+03 -0.2115E+04  0.2166E+04E
 ACTION:UPD 12-06-08 11:37 OP:RALL STATUS:               ID:20090113194042     I
 2009-01-13-1940-35S.PLUR1_003                                                 6
 STAT SP IPHASW D HRMM SECON CODA AMPLIT PERI AZIMU VELO AIN AR TRES W  DIS CAZ7
 LZ4  SN IP       1940 44.15                             160    0.1610 3.68 305 
 LZ4  SZ E        1940 44.15                  125.0 20.8      0        3.68 305 
 LZ4  SZ  AML     1940 45.03        11.9 0.52                          3.68 305 
 LZ4  SE IS       1940 45.23                             160   -0.1610 3.68 305 
                                                                                
