 2009  113 1932 55.1 L  21.489 -99.324 10.0  RAL  1 0.2 0.4LRAL                1
 GAP=360        0.85      25.0    68.7  0.0 -0.1715E+04 -0.2115E+04  0.2166E+04E
 ACTION:UPD 12-06-08 11:37 OP:RALL STATUS:               ID:20090113193255     I
 2009-01-13-1932-42S.PLUR1_003                                                 6
 STAT SP IPHASW D HRMM SECON CODA AMPLIT PERI AZIMU VELO AIN AR TRES W  DIS CAZ7
 LA4  SZ E        1932 57.51                  291.3  8.1      0        1.63 111 
 LA4  SN IP       1932 57.51                             171    0.5410 1.63 111 
 LA4  SE IS       1932 57.79                             171   -0.5410 1.63 111 
 LA4  SZ  AML     1932 58.21        14.1 0.24                          1.63 111 
                                                                                
