 2009  113 1332 21.5 L  21.402 -99.202 10.0  RAL  1 0.0 0.7LRAL                1
 GAP=360        0.30       3.8     3.6  0.0  0.1355E+02 -0.2115E+04  0.2166E+04E
 ACTION:UPD 12-06-08 11:37 OP:RALL STATUS:               ID:20090113133221     I
 2009-01-13-1332-16S.PLUR1_003                                                 6
 STAT SP IPHASW D HRMM SECON CODA AMPLIT PERI AZIMU VELO AIN AR TRES W  DIS CAZ7
 LZ4  SN IP       1332 24.00                             133    0.0110 10.6 222 
 LZ4  SZ E        1332 24.02                   41.8 23.8      0        10.6 222 
 LZ4  SE IS       1332 25.82                             133   -0.0110 10.6 222 
 LZ4  SZ  AML     1332 26.02        20.9 0.20                          10.6 222 
                                                                                
