 2009  113 1749 22.4 L  21.270 -99.239 10.0  RAL  1 0.2 0.5LRAL                1
 GAP=360        2.34     999.9   999.9  0.0  0.2244E+08 -0.2115E+04  0.2166E+04E
 ACTION:UPD 12-06-08 11:37 OP:RALL STATUS:               ID:20090113174922     I
 2009-01-13-1749-15S.PLUR1_003                                                 6
 STAT SP IPHASW D HRMM SECON CODA AMPLIT PERI AZIMU VELO AIN AR TRES W  DIS CAZ7
 LG3  SN IP       1749 24.64                             172    0.3510 1.55 296 
 LG3  SZ E        1749 24.75                  104.8 20.7    -10        1.55 296 
 LG3  SE IS       1749 25.31                             172   -0.3510 1.55 296 
 LG3  SZ  AML     1749 25.42        18.8 0.18                          1.55 296 
                                                                                
