 2009  113 2122 39.0 L  21.191 -99.304 10.0  RAL  1 0.1-0.4LRAL                1
 GAP=360        0.43       9.1    32.5  0.0  0.2957E+03 -0.2115E+04  0.2166E+04E
 ACTION:UPD 12-06-08 11:37 OP:RALL STATUS:               ID:20090113212239     I
 2009-01-13-2122-27S.PLUR1_003                                                 6
 STAT SP IPHASW D HRMM SECON CODA AMPLIT PERI AZIMU VELO AIN AR TRES W  DIS CAZ7
 LD5  SN IP       2122 41.10                             170    0.2110 1.76 253 
 LD5  SZ E        2122 41.17                   73.2 14.5      0        1.76 253 
 LD5  SE IS       2122 42.04                             170   -0.2110 1.76 253 
 LD5  SZ  AML     2122 42.88         2.2 0.26                          1.76 253 
                                                                                
