 2009  113 2139 34.9 L  21.495 -99.327 10.0  RAL  1 0.2 0.3LRAL                1
 GAP=360        0.75      24.7    38.7  0.0 -0.9569E+03 -0.2115E+04  0.2166E+04E
 ACTION:UPD 12-06-08 11:37 OP:RALL STATUS:               ID:20090113213934     I
 2009-01-13-2139-23S.PLUR1_003                                                 6
 STAT SP IPHASW D HRMM SECON CODA AMPLIT PERI AZIMU VELO AIN AR TRES W  DIS CAZ7
 LA4  SZ E        2139 37.20                  304.4 16.7      0        2.29 124 
 LA4  SN IP       2139 37.25                             168    0.4710 2.29 124 
 LA4  SE IS       2139 37.69                             168   -0.4710 2.29 124 
 LA4  SZ  AML     2139 37.82        10.9 0.14                          2.29 124 
                                                                                
