 2009  113 2249 34.6 L  21.318 -99.242 10.0  RAL  1 0.1 0.3LRAL                1
 GAP=360        0.40       7.7    16.0  0.0 -0.1229E+03 -0.2115E+04  0.2166E+04E
 ACTION:UPD 12-06-08 11:37 OP:RALL STATUS:               ID:20090113224934     I
 2009-01-13-2249-27S.PLUR1_003                                                 6
 STAT SP IPHASW D HRMM SECON CODA AMPLIT PERI AZIMU VELO AIN AR TRES W  DIS CAZ7
 LZ4  SN IP       2249 36.68                             163    0.1810 3.20 297 
 LZ4  SZ E        2249 36.71                  117.3 20.4      0        3.20 297 
 LZ4  SE IS       2249 37.71                             163   -0.1810 3.20 297 
 LZ4  SZ  AML     2249 38.25        11.9 0.30                          3.20 297 
                                                                                
