 2009  114  435 24.2 L                       RAL  1                            1
 ACTION:UPD 12-06-08 11:37 OP:RALL STATUS:               ID:20090114043524     I
 2009-01-14-0435-24S.PLUR1_003                                                 6
 STAT SP IPHASW D HRMM SECON CODA AMPLIT PERI AZIMU VELO AIN AR TRES W  DIS CAZ7
 LA4  SZ E         435 34.65                  326.6  8.1                        
 LA4  SZ  AML      435 40.30         7.1 0.44                                   
                                                                                
