 2009  114 1949 58.8 L  21.498 -99.310 10.0  RAL  1 0.2 0.6LRAL                1
 GAP=360        2.42     999.9   999.9  0.0  0.8930E+08 -0.7075E+07  0.3334E+08E
 ACTION:UPD 12-06-08 11:37 OP:RALL STATUS:               ID:20090114194958     I
 2009-01-14-1949-47S.PLUR1_003                                                 6
 STAT SP IPHASW D HRMM SECON CODA AMPLIT PERI AZIMU VELO AIN AR TRES W  DIS CAZ7
 LA4  SN IP       1950  0.86                             171    0.1710 1.57 174 
 LA4  SZ E        1950  0.87                    5.8 15.2     11        1.57 174 
 LA4  SE IS       1950  1.87                             171   -0.1710 1.57 174 
 LA4  SZ  AML     1950  1.99        23.3 0.24                          1.57 174 
                                                                                
