 2009  114 1432 11.5 L  21.339 -99.292 10.0  RAL  1 0.1 0.8LRAL                1
 GAP=360        0.39       7.5    20.6  0.0 -0.1541E+03 -0.2115E+04  0.2166E+04E
 ACTION:UPD 12-06-08 11:37 OP:RALL STATUS:               ID:20090114143211     I
 2009-01-14-1432-04S.PLUR1_003                                                 6
 STAT SP IPHASW D HRMM SECON CODA AMPLIT PERI AZIMU VELO AIN AR TRES W  DIS CAZ7
 LZ4  SZ E        1432 13.51                  291.3  7.4      0        2.53 111 
 LZ4  SN IP       1432 13.56                             166    0.1810 2.53 111 
 LZ4  SE IS       1432 14.58                             166   -0.1810 2.53 111 
 LZ4  SZ  AML     1432 15.37        36.4 0.10                          2.53 111 
                                                                                
