 2009  114 2326 28.8 L  21.205 -99.399 10.0  RAL  3 0.8 0.9LRAL                1
 GAP=314       13.70      38.6    45.0366.2  0.1495E+04  0.6013E+04  0.4177E+04E
 ACTION:UPD 12-06-08 11:37 OP:RALL STATUS:               ID:20090114232628     I
 2009-01-14-2326-24S.PLUR1_009                                                 6
 STAT SP IPHASW D HRMM SECON CODA AMPLIT PERI AZIMU VELO AIN AR TRES W  DIS CAZ7
 LG3  SZ E        2326 33.18                  199.2 22.9    -43        17.1  63 
 LG3  SN IP       2326 33.51                             103    1.3110 17.1  63 
 LG3  SE IS       2326 34.67                             103    0.0110 17.1  63 
 LG3  SZ  AML     2326 35.28        24.9 0.32                          17.1  63 
 LZ4  SN IP       2326 32.79                             100    0.2910 19.4  44 
 LZ4  SZ E        2326 32.80                  279.1 15.2     55        19.4  44 
 LZ4  SE IS       2326 33.92                             100   -1.2610 19.4  44 
 LZ4  SZ  AML     2326 34.22        90.1 0.16                          19.4  44 
 LA4  SN IP       2326 34.77                              94    0.3710 32.2  17 
 LA4  SZ E        2326 34.85                  161.9  9.2    -34        32.2  17 
 LA4  SE IS       2326 37.76                              94   -0.7210 32.2  17 
 LA4  SZ  AML     2326 38.81         3.8 0.10                          32.2  17 
                                                                                
