 2009  115 0641 30.2 L  21.504 -99.323 10.0  RAL  1 0.1 0.5LRAL                1
 GAP=360        0.51      21.5    14.9  0.0 -0.3210E+03  0.2191E+06  0.3099E+05E
 ACTION:UPD 12-06-08 11:37 OP:RALL STATUS:               ID:20090115064130     I
 2009-01-15-0641-18S.PLUR1_003                                                 6
 STAT SP IPHASW D HRMM SECON CODA AMPLIT PERI AZIMU VELO AIN AR TRES W  DIS CAZ7
 LA4  SZ E         641 32.40                  327.2 13.6      0        2.64 147 
 LA4  SN IP        641 32.42                             166    0.2810 2.64 147 
 LA4  SE IS        641 33.25                             166   -0.2810 2.64 147 
 LA4  SZ  AML      641 33.42        16.5 0.26                          2.64 147 
                                                                                
