 2009  115 0845  7.5 L  21.213 -99.489  8.9  RAL  2 0.9 0.2LRAL                1
 GAP=346       13.29      69.1   170.8832.0  0.1113E+05  0.1158E+06  0.4488E+05E
 ACTION:UPD 12-06-08 11:37 OP:RALL STATUS:               ID:20090115084507     I
 2009-01-15-0845-04S.PLUR1_006                                                 6
 STAT SP IPHASW D HRMM SECON CODA AMPLIT PERI AZIMU VELO AIN AR TRES W  DIS CAZ7
 LG3  SZ E         845 13.41                  210.8 11.9    -42        25.5  74 
 LG3  SN IP        845 13.43                             104    1.3610 25.5  74 
 LG3  SE IS        845 14.77                             104   -0.6210 25.5  74 
 LG3  SZ  AML      845 14.91         3.2 0.48                          25.5  74 
 LZ4  SZ E         845 12.95                  287.3 99.9     47        26.3  60 
 LZ4  SN IP        845 13.01                             104    0.8310 26.3  60 
 LZ4  SE IS        845 13.99                             104   -1.5710 26.3  60 
                                                                                
