 2009  115 0615  0.3 L  21.507 -99.334 10.0  RAL  1 0.1 0.2LRAL                1
 GAP=360        0.38       9.9    10.6  0.0 -0.1047E+03  0.2191E+06  0.3099E+05E
 ACTION:UPD 12-06-08 11:37 OP:RALL STATUS:               ID:20090115061500     I
 2009-01-15-0614-48S.PLUR1_003                                                 6
 STAT SP IPHASW D HRMM SECON CODA AMPLIT PERI AZIMU VELO AIN AR TRES W  DIS CAZ7
 LA4  SZ E         615  2.42                  314.9  9.6      0        3.72 135 
 LA4  SN IP        615  2.45                             160    0.1610 3.72 135 
 LA4  SE IS        615  3.55                             160   -0.1610 3.72 135 
 LA4  SZ  AML      615  3.69         9.0 0.22                          3.72 135 
                                                                                
