 2009  115 0530 58.1 L  21.274 -99.485  5.7  RAL  2 0.7 0.3LRAL                1
 GAP=345       10.01      21.7   115.4999.9  0.1838E+04  0.2191E+06  0.3099E+05E
 ACTION:UPD 12-06-08 11:37 OP:RALL STATUS:               ID:20090115053058     I
 2009-01-15-0530-54S.PLUR1_006                                                 6
 STAT SP IPHASW D HRMM SECON CODA AMPLIT PERI AZIMU VELO AIN AR TRES W  DIS CAZ7
 LZ4  SZ E         531  2.79                  299.3 11.1     45        23.2  74 
 LZ4  SN IP        531  2.79                              93    0.6110 23.2  74 
 LZ4  SE IS        531  3.67                              93   -1.5010 23.2  74 
 LZ4  SZ  AML      531  3.92        12.6 0.40                          23.2  74 
 LG3  SZ E         531  3.47                  253.1 29.2    -15        24.1  89 
 LG3  SN IP        531  3.49                              93    1.1610 24.1  89 
 LG3  SE IS        531  5.16                              93   -0.2710 24.1  89 
 LG3  SZ  AML      531  5.34         2.3 0.30                          24.1  89 
                                                                                
