 2009  115 0444 44.0 L  21.482 -99.308 29.2  RAL  2 0.1 0.6LRAL                1
 GAP=216        1.78       1.3     2.9 17.3  0.8103E+00 -0.9586E-01  0.8299E-01E
 ACTION:UPD 12-06-08 11:37 OP:RALL STATUS:               ID:20090115044444     I
 2009-01-15-0444-37S.PLUR1_006                                                 6
 STAT SP IPHASW D HRMM SECON CODA AMPLIT PERI AZIMU VELO AIN AR TRES W  DIS CAZ7
 LA4  SZ E         444 48.54                  128.8 99.9     -1        0.20 311 
 LA4  SN IP        444 48.71                             180    0.0110 0.20 311 
 LA4  SE IS        444 52.00                             180   -0.1610 0.20 311 
 LA4  SZ  AML      444 52.49         3.2 0.14                          0.20 311 
 LZ4  SZ E         444 49.31                  338.5 10.0     -7        17.2 167 
 LZ4  SN IP        444 49.33                             148   -0.0710 17.2 167 
 LZ4  SE IS        444 53.57                             148    0.2110 17.2 167 
 LZ4  SZ  AML      444 54.63        15.2 0.74                          17.2 167 
                                                                                
