 2009  115 0743 18.0 L  21.269 -99.254 10.0  RAL  1 0.2 0.1LRAL                1
 GAP=360        0.73      89.0   244.5  0.0  0.2172E+05  0.2191E+06  0.3099E+05E
 ACTION:UPD 12-06-08 11:37 OP:RALL STATUS:               ID:20090115074318     I
 2009-01-15-0743-10S.PLUR1_003                                                 6
 STAT SP IPHASW D HRMM SECON CODA AMPLIT PERI AZIMU VELO AIN AR TRES W  DIS CAZ7
 LG3  SZ E         743 20.29                  192.4 38.2      1        0.73  11 
 LG3  SN IP        743 20.31                             176    0.4110 0.73  11 
 LG3  SE IS        743 20.84                             176   -0.4110 0.73  11 
 LG3  SZ  AML      743 20.97         6.8 0.10                          0.73  11 
                                                                                
