 2009  115 0254 15.9 L  21.329 -99.266 10.0  RAL  1 0.6 0.3LRAL                1
 GAP=360        8.08     999.9   999.9  0.0  0.1271E+08  0.6013E+04  0.4177E+04E
 ACTION:UPD 12-06-08 11:37 OP:RALL STATUS:               ID:20090115025415     I
 2009-01-15-0254-09S.PLUR1_003                                                 6
 STAT SP IPHASW D HRMM SECON CODA AMPLIT PERI AZIMU VELO AIN AR TRES W  DIS CAZ7
 LZ4  SZ E         254 17.89                   81.8 35.4    -37        0.37 300 
 LZ4  SN IP        254 18.18                             178    0.4510 0.37 300 
 LZ4  SE IS        254 18.62                             178   -0.4510 0.37 300 
 LZ4  SZ  AML      254 19.44        10.1 0.62                          0.37 300 
                                                                                
