 2009  115 0857  1.4 L  21.645 -99.515 10.0  RAL  1 0.0 1.0LRAL                1
 GAP=360        0.30       3.1     2.6  0.0 -0.6574E+01  0.1158E+06  0.4488E+05E
 ACTION:UPD 12-06-08 11:37 OP:RALL STATUS:               ID:20090115085701     I
 2009-01-15-0857-04S.PLUR1_003                                                 6
 STAT SP IPHASW D HRMM SECON CODA AMPLIT PERI AZIMU VELO AIN AR TRES W  DIS CAZ7
 LZ4  SZ E         857  8.66                  323.9 18.3      0        43.1 144 
 LZ4  SN IP        857  8.67                              99    0.0210 43.1 144 
 LZ4  SE IS        857 13.92                              99   -0.0210 43.1 144 
 LZ4  SZ  AML      857 14.71        13.8 0.46                          43.1 144 
                                                                                
