 2009  115 0019 47.1 L  21.272 -99.266 10.0  RAL  1 0.1 0.6LRAL                1
 GAP=360        0.53     999.9   774.7  0.0 -0.1815E+07  0.6013E+04  0.4177E+04E
 ACTION:UPD 12-06-08 11:37 OP:RALL STATUS:               ID:20090115001947     I
 2009-01-15-0019-40S.PLUR1_003                                                 6
 STAT SP IPHASW D HRMM SECON CODA AMPLIT PERI AZIMU VELO AIN AR TRES W  DIS CAZ7
 LG3  SN IP        019 49.23                             172    0.3010 1.49  74 
 LG3  SZ E         019 49.29                  254.0 48.7      0        1.49  74 
 LG3  SZ  AML      019 49.89        21.9 0.56                          1.49  74 
 LG3  SE IS        019 50.00                             172   -0.3010 1.49  74 
                                                                                
