 2009  115 1935 39.9 L  21.348 -99.250 10.0  RAL  1 0.1 0.5LRAL                1
 GAP=360        0.63      20.8    23.1  0.0  0.4809E+03  0.1158E+06  0.4488E+05E
 ACTION:UPD 12-06-08 11:37 OP:RALL STATUS:               ID:20090115193539     I
 2009-01-15-1935-32S.PLUR1_003                                                 6
 STAT SP IPHASW D HRMM SECON CODA AMPLIT PERI AZIMU VELO AIN AR TRES W  DIS CAZ7
 LZ4  SZ E        1935 42.16                   46.0 39.6      0        2.79 226 
 LZ4  SN IP       1935 42.17                             165    0.3710 2.79 226 
 LZ4  SE IS       1935 42.80                             165   -0.3710 2.79 226 
 LZ4  SZ  AML     1935 42.92        16.5 0.16                          2.79 226 
                                                                                
