 2009  115 1615 28.2 L  21.322 -99.296 10.0  RAL  1 0.1 0.2LRAL                1
 GAP=360        0.41       6.5    18.9  0.0  0.1222E+03  0.1158E+06  0.4488E+05E
 ACTION:UPD 12-06-08 11:37 OP:RALL STATUS:               ID:20090115161528     I
 2009-01-15-1615-21S.PLUR1_003                                                 6
 STAT SP IPHASW D HRMM SECON CODA AMPLIT PERI AZIMU VELO AIN AR TRES W  DIS CAZ7
 LZ4  SZ E        1615 30.22                  249.9 27.2      0        2.91  70 
 LZ4  SN IP       1615 30.24                             164    0.1910 2.91  70 
 LZ4  SE IS       1615 31.24                             164   -0.1910 2.91  70 
 LZ4  SZ  AML     1615 31.56         8.6 0.16                          2.91  70 
                                                                                
