 2009  115 2322 52.2 L  21.335 -99.295 10.0  RAL  1 0.1 1.3LRAL                1
 GAP=360        0.66       5.1    34.2  0.0 -0.1733E+03  0.1158E+06  0.4488E+05E
 ACTION:UPD 12-06-08 11:37 OP:RALL STATUS:               ID:20090115232252     I
 2009-01-15-2322-44S.PLUR1_003                                                 6
 STAT SP IPHASW D HRMM SECON CODA AMPLIT PERI AZIMU VELO AIN AR TRES W  DIS CAZ7
 LZ4  SZ E        2322 54.44                  277.4 14.3     -1        2.70  99 
 LZ4  SN IP       2322 54.45                             165    0.3210 2.70  99 
 LZ4  SZ  AML     2322 55.06       109.7 0.42                          2.70  99 
 LZ4  SE IS       2322 55.19                             165   -0.3210 2.70  99 
                                                                                
