 2009  115 2305 35.8 L  21.462 -99.384 10.0  RAL  1 0.0 0.7LRAL                1
 GAP=360        0.30       3.2     2.8  0.0 -0.8653E+01  0.1158E+06  0.4488E+05E
 ACTION:UPD 12-06-08 11:37 OP:RALL STATUS:               ID:20090115230535     I
 2009-01-15-2305-32S.PLUR1_003                                                 6
 STAT SP IPHASW D HRMM SECON CODA AMPLIT PERI AZIMU VELO AIN AR TRES W  DIS CAZ7
 LZ4  SZ E        23 5 39.35                  320.9  8.9      0        18.7 141 
 LZ4  SN IP       23 5 39.39                             115    0.0110 18.7 141 
 LZ4  SE IS       23 5 42.00                             115   -0.0110 18.7 141 
 LZ4  SZ  AML     23 5 43.17        14.5 0.14                          18.7 141 
                                                                                
