 2009  116 0424 38.1 L  21.276 -99.249 10.0  RAL  2 0.7 0.2LRAL                1
 GAP=292       11.53       6.9     7.2104.8 -0.1571E+01  0.6093E+00 -0.3491E+01E
 ACTION:UPD 12-06-08 11:37 OP:RALL STATUS:               ID:20090116042438     I
 2009-01-16-0424-30S.PLUR1_006                                                 6
 STAT SP IPHASW D HRMM SECON CODA AMPLIT PERI AZIMU VELO AIN AR TRES W  DIS CAZ7
 LG3  SZ E         424 39.93                   78.4 26.6    -13        0.33 273 
 LG3  SN IP        424 39.95                             179   -0.0310 0.33 273 
 LG3  SE IS        424 40.56                             179   -0.7710 0.33 273 
 LG3  SZ  AML      424 40.88         7.3 0.22                          0.33 273 
 LZ4  SN IP        424 40.64                             147    0.3910 6.47 341 
 LZ4  SZ E         424 40.70                  215.5 28.9     54        6.47 341 
 LZ4  SE IS        424 42.20                             147    0.4010 6.47 341 
 LZ4  SZ  AML      424 42.81        10.9 0.92                          6.47 341 
                                                                                
