 2009  116 0324  7.5 L  21.328 -99.292 10.0  RAL  1 0.1 0.4LRAL                1
 GAP=360        0.39     999.9   352.5  0.0 -0.9607E+06  0.1158E+06  0.4488E+05E
 ACTION:UPD 12-06-08 11:37 OP:RALL STATUS:               ID:20090116032407     I
 2009-01-16-0324-00S.PLUR1_003                                                 6
 STAT SP IPHASW D HRMM SECON CODA AMPLIT PERI AZIMU VELO AIN AR TRES W  DIS CAZ7
 LZ4  SN IP        324  9.51                             167    0.1610 2.33  84 
 LZ4  SZ E         324  9.52                  264.1 51.0      1        2.33  84 
 LZ4  SZ  AML      324 10.44        13.4 0.44                          2.33  84 
 LZ4  SE IS        324 10.56                             167   -0.1610 2.33  84 
                                                                                
