 2009  116 0753 26.2 L  21.282 -99.255 10.0  RAL  2 0.5 0.0LRAL                1
 GAP=187        8.82      41.2    16.5 80.8 -0.6471E+03  0.5121E+02 -0.1350E+03E
 ACTION:UPD 12-06-08 11:37 OP:RALL STATUS:               ID:20090116075326     I
 2009-01-16-0753-19S.PLUR1_006                                                 6
 STAT SP IPHASW D HRMM SECON CODA AMPLIT PERI AZIMU VELO AIN AR TRES W  DIS CAZ7
 LG3  SN IP        753 28.25                             174    0.1910 0.79 158 
 LG3  SZ E         753 28.26                  298.1 37.3    -39        0.79 158 
 LG3  SE IS        753 29.46                             174    0.0410 0.79 158 
 LG3  SZ  AML      753 29.63         2.4 0.20                          0.79 158 
 LZ4  SZ E         753 28.24                  148.1 40.2    -16        5.57 345 
 LZ4  SN IP        753 28.33                             151    0.0810 5.57 345 
 LZ4  SE IS        753 29.44                             151   -0.3110 5.57 345 
 LZ4  SZ  AML      753 29.81         9.3 0.24                          5.57 345 
                                                                                
