 2009  116 0718 48.3 L  21.257 -99.248 10.0  RAL  1 0.1 0.1LRAL                1
 GAP=360        0.39     471.4   999.9  0.0  0.1027E+07  0.6093E+00 -0.3491E+01E
 ACTION:UPD 12-06-08 11:37 OP:RALL STATUS:               ID:20090116071848     I
 2009-01-16-0718-41S.PLUR1_003                                                 6
 STAT SP IPHASW D HRMM SECON CODA AMPLIT PERI AZIMU VELO AIN AR TRES W  DIS CAZ7
 LG3  SZ E         718 50.26                  166.3 17.4      0        2.18 346 
 LG3  SN IP        718 50.32                             168    0.1710 2.18 346 
 LG3  SE IS        718 51.36                             168   -0.1710 2.18 346 
 LG3  SZ  AML      718 51.61         7.2 0.46                          2.18 346 
                                                                                
