 2009  116 0904  7.3 L  21.398 -99.725 10.0  RAL  2 1.0 1.2LRAL                1
 GAP=354       17.10     195.1   984.5999.9 -0.1847E+06 -0.1779E+07  0.3403E+06E
 ACTION:UPD 12-06-08 11:37 OP:RALL STATUS:               ID:20090116090407     I
 2009-01-16-0904-07S.PLUR1_006                                                 6
 STAT SP IPHASW D HRMM SECON CODA AMPLIT PERI AZIMU VELO AIN AR TRES W  DIS CAZ7
 LZ4  SZ E         9 4 15.65                  331.5  7.4     52        47.8  99 
 LZ4  SN IP        9 4 15.73                              63    0.4110 47.8  99 
 LZ4  SE IS        9 4 19.97                              63   -1.1710 47.8  99 
 LZ4  SZ  AML      9 4 21.89        27.4 0.22                          47.8  99 
 LG3  SZ E         9 4 16.62                  220.9 11.7    -64        50.9 105 
 LG3  SN IP        9 4 17.00                              63    1.2110 50.9 105 
 LG3  SE IS        9 4 21.51                              63   -0.4510 50.9 105 
 LG3  SZ  AML      9 4 24.97        16.3 0.42                          50.9 105 
                                                                                
