 2009  116 1954 11.8 L  21.417 -99.261 10.0  RAL  1 0.0-0.2LRAL                1
 GAP=360        0.30       4.7     3.3  0.0 -0.1553E+02  0.1742E+07  0.2209E+06E
 ACTION:UPD 12-06-08 11:37 OP:RALL STATUS:               ID:20090116195411     I
 2009-01-16-1954-01S.PLUR1_003                                                 6
 STAT SP IPHASW D HRMM SECON CODA AMPLIT PERI AZIMU VELO AIN AR TRES W  DIS CAZ7
 LA4  SZ E        1954 14.10                  146.2 11.2      0        8.89 326 
 LA4  SN IP       1954 14.14                             138    0.0210 8.89 326 
 LA4  SE IS       1954 15.82                             138   -0.0210 8.89 326 
 LA4  SZ  AML     1954 16.52         2.5 0.18                          8.89 326 
                                                                                
