 2009  116 1104 27.5 L  21.209 -99.200 10.0  RAL  1 0.0 0.0LRAL                1
 GAP=360        0.30       4.4     3.5  0.0 -0.1539E+02 -0.1779E+07  0.3403E+06E
 ACTION:UPD 12-06-08 11:37 OP:RALL STATUS:               ID:20090116110427     I
 2009-01-16-1104-22S.PLUR1_003                                                 6
 STAT SP IPHASW D HRMM SECON CODA AMPLIT PERI AZIMU VELO AIN AR TRES W  DIS CAZ7
 LG3  SN IP       11 4 29.97                             137    0.0210 9.23 324 
 LG3  SZ E        11 4 30.45                  143.5 13.7      0        9.23 324 
 LG3  SE IS       11 4 31.68                             137   -0.0210 9.23 324 
 LG3  SZ  AML     11 4 31.88         4.3 0.22                          9.23 324 
                                                                                
