 2009  116 1821 56.9 L  21.792 -99.367 10.0  RAL  1 0.0 0.2LRAL                1
 GAP=360        0.30       3.7     1.2  0.0 -0.2464E+01  0.1742E+07  0.2209E+06E
 ACTION:UPD 12-06-08 11:37 OP:RALL STATUS:               ID:20090116182156     I
 2009-01-16-1821-53S.PLUR1_003                                                 6
 STAT SP IPHASW D HRMM SECON CODA AMPLIT PERI AZIMU VELO AIN AR TRES W  DIS CAZ7
 LA4  SZ E        1822  2.74                  350.1 10.8      0        34.7 170 
 LA4  SN IP       1822  2.83                             102    0.0110 34.7 170 
 LA4  SE IS       1822  7.16                             102   -0.0110 34.7 170 
 LA4  SZ  AML     1822  8.73         2.9 0.32                          34.7 170 
                                                                                
