 2009  116 1254 12.3 L  21.254 -99.556  4.9  RAL  2 0.8 0.9LRAL                1
 GAP=348       11.54      39.8   250.7999.9  0.7922E+04  0.1742E+07  0.2209E+06E
 ACTION:UPD 12-06-08 11:37 OP:RALL STATUS:               ID:20090116125412     I
 2009-01-16-1254-09S.PLUR1_006                                                 6
 STAT SP IPHASW D HRMM SECON CODA AMPLIT PERI AZIMU VELO AIN AR TRES W  DIS CAZ7
 LZ4  SZ E        1254 18.48                  306.9 13.5     53        30.9  74 
 LZ4  SN IP       1254 18.48                              92    0.9310 30.9  74 
 LZ4  SE IS       1254 19.49                              92   -1.9310 30.9  74 
 LZ4  SZ  AML     1254 19.50        36.5 0.16                          30.9  74 
 LG3  SZ E        1254 19.18                  251.1 21.5    -14        31.6  86 
 LG3  SN IP       1254 19.27                              92    1.6110 31.6  86 
 LG3  SZ  AML     1254 20.99         7.6 0.28                          31.6  86 
 LG3  SE IS       1254 21.00                              92   -0.6110 31.6  86 
                                                                                
