 2009  116 1715 36.4 L  21.328 -99.252 10.0  RAL  1 0.0 0.2LRAL                1
 GAP=360        0.33       4.0    24.6  0.0 -0.9859E+02  0.1742E+07  0.2209E+06E
 ACTION:UPD 12-06-08 11:37 OP:RALL STATUS:               ID:20090116171536     I
 2009-01-16-1715-30S.PLUR1_003                                                 6
 STAT SP IPHASW D HRMM SECON CODA AMPLIT PERI AZIMU VELO AIN AR TRES W  DIS CAZ7
 LZ4  SZ E        1715 38.12                   99.9 10.1      0        1.83 280 
 LZ4  SN IP       1715 38.34                             170    0.0910 1.83 280 
 LZ4  SE IS       1715 39.51                             170   -0.0910 1.83 280 
 LZ4  SZ  AML     1715 41.15         8.8 0.64                          1.83 280 
                                                                                
