 2009  117 0150 32.6 L  21.323 -99.271 10.0  RAL  1 0.1 0.1LRAL                1
 GAP=360        0.69     124.6   999.9  0.0 -0.2286E+06  0.1742E+07  0.2209E+06E
 ACTION:UPD 12-06-08 11:37 OP:RALL STATUS:               ID:20090117015032     I
 2009-01-17-0150-26S.PLUR1_003                                                 6
 STAT SP IPHASW D HRMM SECON CODA AMPLIT PERI AZIMU VELO AIN AR TRES W  DIS CAZ7
 LZ4  SZ E         150 34.55                  184.5 34.4     -2        0.91   7 
 LZ4  SN IP        150 34.55                             175    0.0810 0.91   7 
 LZ4  SE IS        150 35.73                             175   -0.0810 0.91   7 
 LZ4  SZ  AML      150 36.24         7.2 0.14                          0.91   7 
                                                                                
