 2009  117 1101 21.7 L  21.275 -98.781 10.0  RAL  1 0.0 0.9LRAL                1
 GAP=360        0.30       1.3     4.0  0.0 -0.3665E-01  0.1742E+07  0.2209E+06E
 ACTION:UPD 12-06-08 11:37 OP:RALL STATUS:               ID:20090117110121     I
 2009-01-17-1101-23S.PLUR1_003                                                 6
 STAT SP IPHASW D HRMM SECON CODA AMPLIT PERI AZIMU VELO AIN AR TRES W  DIS CAZ7
 LG3  SZ E        11 1 29.82                   90.0 12.2      0        48.9 270 
 LG3  SN IP       11 1 29.89                              98    0.0110 48.9 270 
 LG3  SE IS       11 1 35.82                              98   -0.0110 48.9 270 
 LG3  SZ  AML     11 1 36.32        10.7 0.10                          48.9 270 
                                                                                
