 2009  117 1336  7.0 L  20.232 -99.185 10.0  RAL  1 0.0 1.2LRAL                1
 GAP=360        0.30       3.7     3.0  0.0 -0.8490E+00  0.1742E+07  0.2209E+06E
 ACTION:UPD 12-06-08 11:37 OP:RALL STATUS:               ID:20090117133607     I
 2009-01-17-1336-14S.PLUR1_003                                                 6
 STAT SP IPHASW D HRMM SECON CODA AMPLIT PERI AZIMU VELO AIN AR TRES W  DIS CAZ7
 LD5  SZ E        1336 23.37                  172.4 17.4      0         107 352 
 LD5  SN IP       1336 24.09                              93    0.0010  107 352 
 LD5  SE IS       1336 36.54                              93    0.0010  107 352 
 LD5  SZ  AML     1336 37.69         8.4 0.20                           107 352 
                                                                                
