 2009  117 2251 43.7 L  22.007 -99.510 10.0  RAL  1 0.0 0.9LRAL                1
 GAP=360        0.30       3.5     2.1  0.0 -0.3871E+01  0.1742E+07  0.2209E+06E
 ACTION:UPD 12-06-08 11:37 OP:RALL STATUS:               ID:20090117225143     I
 2009-01-17-2251-41S.PLUR1_003                                                 6
 STAT SP IPHASW D HRMM SECON CODA AMPLIT PERI AZIMU VELO AIN AR TRES W  DIS CAZ7
 LA4  SZ E        2251 53.69                  340.3 13.4      0        61.6 160 
 LA4  SN IP       2251 53.82                              96    0.0110 61.6 160 
 LA4  SE IS       2252  1.17                              96   -0.0110 61.6 160 
 LA4  SZ  AML     2252  2.30         8.1 0.62                          61.6 160 
                                                                                
