 2009  118 0322  0.2 L  21.304 -99.245 10.0  RAL  1 0.1 0.5LRAL                1
 GAP=360        0.38      10.3     9.4  0.0 -0.9726E+02  0.1742E+07  0.2209E+06E
 ACTION:UPD 12-06-08 11:37 OP:RALL STATUS:               ID:20090118032200     I
 2009-01-18-0321-53S.PLUR1_003                                                 6
 STAT SP IPHASW D HRMM SECON CODA AMPLIT PERI AZIMU VELO AIN AR TRES W  DIS CAZ7
 LZ4  SZ E         322  2.34                  139.5 35.4      0        3.85 320 
 LZ4  SN IP        322  2.35                             159    0.1610 3.85 320 
 LZ4  SE IS        322  3.44                             159   -0.1610 3.85 320 
 LZ4  SZ  AML      322  3.55        15.9 0.14                          3.85 320 
                                                                                
