 2009  118 0106 55.8 L  21.568 -99.349 10.0  RAL  1 0.0 0.2LRAL                1
 GAP=360        0.30       4.8     2.3  0.0 -0.1067E+02  0.1742E+07  0.2209E+06E
 ACTION:UPD 12-06-08 11:37 OP:RALL STATUS:               ID:20090118010655     I
 2009-01-18-0106-46S.PLUR1_003                                                 6
 STAT SP IPHASW D HRMM SECON CODA AMPLIT PERI AZIMU VELO AIN AR TRES W  DIS CAZ7
 LA4  SZ E         1 6 58.25                  336.2 10.5      0        10.1 156 
 LA4  SN IP        1 6 58.28                             134    0.0210 10.1 156 
 LA4  SE IS        1 7  0.06                             134   -0.0210 10.1 156 
 LA4  SZ  AML      1 7  0.30         7.1 0.28                          10.1 156 
                                                                                
