 2009  118 0257 58.0 L  21.323 -99.299 10.0  RAL  1 0.0 1.1LRAL                1
 GAP=360        0.33       3.9    14.7  0.0  0.5781E+02  0.1742E+07  0.2209E+06E
 ACTION:UPD 12-06-08 11:37 OP:RALL STATUS:               ID:20090118025758     I
 2009-01-18-0257-51S.PLUR1_003                                                 6
 STAT SP IPHASW D HRMM SECON CODA AMPLIT PERI AZIMU VELO AIN AR TRES W  DIS CAZ7
 LZ4  SZ E         257 59.98                  253.9  8.9      0        3.16  74 
 LZ4  SN IP        258  0.00                             163    0.1010 3.16  74 
 LZ4  SE IS        258  1.18                             163   -0.1010 3.16  74 
 LZ4  SZ  AML      258  1.61        66.2 0.28                          3.16  74 
                                                                                
