 2009  118 0235 33.4 L  21.276 -99.266 10.0  RAL  1 0.3 0.8LRAL                1
 GAP=360        2.30     329.2   239.7  0.0  0.7888E+05  0.1742E+07  0.2209E+06E
 ACTION:UPD 12-06-08 11:37 OP:RALL STATUS:               ID:20090118023533     I
 2009-01-18-0235-26S.PLUR1_003                                                 6
 STAT SP IPHASW D HRMM SECON CODA AMPLIT PERI AZIMU VELO AIN AR TRES W  DIS CAZ7
 LG3  SZ E         235 35.86                  261.6 11.7     -9        1.41  92 
 LG3  SN IP        235 35.87                             172    0.5610 1.41  92 
 LG3  SE IS        235 36.11                             172   -0.5610 1.41  92 
 LG3  SZ  AML      235 36.77        32.8 0.10                          1.41  92 
                                                                                
