 2009  118 0536 50.3 R  21.335 -99.777  6.6  RAL  2 1.2 1.0LRAL                1
 GAP=354       21.18      94.3   999.9999.9 -0.7324E+05  0.3193E+08 -0.1739E+07E
 ACTION:UPD 12-06-08 11:37 OP:RALL STATUS:               ID:20090118053650     I
 2009-01-18-0536-51S.PLUR1_006                                                 6
 STAT SP IPHASW D HRMM SECON CODA AMPLIT PERI AZIMU VELO AIN AR TRES W  DIS CAZ7
 LZ4  SN IP        536 59.59                              92    0.6210 52.6  90 
 LZ4  SZ E         536 59.68                  341.8 10.2     71        52.6  90 
 LZ4  SE IS        537  3.72                              92   -1.5710 52.6  90 
 LZ4  SZ  AML      537  4.37        17.1 0.26                          52.6  90 
 LG3  SZ E         537  0.53                  202.3 46.0    -74        54.8  97 
 LG3  SN IP        537  0.61                              92    1.2910 54.8  97 
 LG3  SE IS        537  5.55                              92   -0.3410 54.8  97 
 LG3  SZ  AML      537  7.16         7.2 0.22                          54.8  97 
                                                                                
