 2009  118 1416 39.9 L  21.358 -99.290 10.0  RAL  1 0.1 0.6LRAL                1
 GAP=360        0.42      12.6     9.9  0.0 -0.1254E+03  0.3193E+08 -0.1739E+07E
 ACTION:UPD 12-06-08 11:37 OP:RALL STATUS:               ID:20090118141639     I
 2009-01-18-1416-33S.PLUR1_003                                                 6
 STAT SP IPHASW D HRMM SECON CODA AMPLIT PERI AZIMU VELO AIN AR TRES W  DIS CAZ7
 LZ4  SN IP       1416 42.01                             160    0.2010 3.67 144 
 LZ4  SZ E        1416 42.02                  323.8 17.9      0        3.67 144 
 LZ4  SE IS       1416 43.01                             160   -0.2010 3.67 144 
 LZ4  SZ  AML     1416 43.55        19.4 0.10                          3.67 144 
                                                                                
