 2009  118 2205 54.3 L  21.162 -99.252 10.0  RAL  2 0.6 0.8LRAL                1
 GAP=355        8.79     104.5     9.7178.8 -0.1974E+03 -0.2077E+03  0.1203E+05E
 ACTION:UPD 12-06-08 11:37 OP:RALL STATUS:               ID:20090118220554     I
 2009-01-18-2205-49S.PLUR1_006                                                 6
 STAT SP IPHASW D HRMM SECON CODA AMPLIT PERI AZIMU VELO AIN AR TRES W  DIS CAZ7
 LG3  SZ E        22 5 58.10                  179.3 19.3      0        12.6 360 
 LG3  SN IP       22 5 58.14                             123    1.0310 12.6 360 
 LG3  SE IS       22 5 59.23                             123    0.0910 12.6 360 
 LG3  SZ  AML     22 5 59.38        12.7 0.46                          12.6 360 
 LZ4  SN IP       22 5 58.10                             112    0.1810 18.8 354 
 LZ4  SZ E        22 5 58.11                  216.5 24.4     42        18.8 354 
 LZ4  SE IS       22 5 59.24                             112   -1.3110 18.8 354 
 LZ4  SZ  AML     22 5 59.67        30.7 0.20                          18.8 354 
                                                                                
