 2009  119 0710 39.4 L  21.259 -99.251 10.0  RAL  1 0.0 0.4LRAL                1
 GAP=360        0.30       5.7     1.5  0.0 -0.8262E+01 -0.2077E+03  0.1203E+05E
 ACTION:UPD 12-06-08 11:37 OP:RALL STATUS:               ID:20090119071039     I
 2009-01-19-0710-33S.PLUR1_003                                                 6
 STAT SP IPHASW D HRMM SECON CODA AMPLIT PERI AZIMU VELO AIN AR TRES W  DIS CAZ7
 LZ4  SZ E         710 41.64                  166.7  9.8      0        8.14 347 
 LZ4  SN IP        710 41.64                             141    0.0110 8.14 347 
 LZ4  SE IS        710 43.27                             141   -0.0110 8.14 347 
 LZ4  SZ  AML      710 44.31        11.5 0.22                          8.14 347 
                                                                                
