 2009  119 0534 15.7 L  21.334 -99.267 10.0  RAL  1 0.4 1.8LRAL                1
 GAP=360        4.74     150.4   999.9  0.0  0.3712E+06 -0.2077E+03  0.1203E+05E
 ACTION:UPD 12-06-08 11:37 OP:RALL STATUS:               ID:20090119053415     I
 2009-01-19-0534-09S.PLUR1_003                                                 6
 STAT SP IPHASW D HRMM SECON CODA AMPLIT PERI AZIMU VELO AIN AR TRES W  DIS CAZ7
 LZ4  SZ E         534 18.15                   61.0  9.5     22        0.39 219 
 LZ4  SN IP        534 18.15                             178    0.6510 0.39 219 
 LZ4  SE IS        534 18.19                             178   -0.6510 0.39 219 
 LZ4  SZ  AML      534 18.34       344.4 0.06                          0.39 219 
                                                                                
