 2009  119 0744  1.3 L  21.267 -99.250 10.0  RAL  1 0.2 0.7LRAL                1
 GAP=360        1.69       2.2   797.6  0.0 -0.1024E+04 -0.2077E+03  0.1203E+05E
 ACTION:UPD 12-06-08 11:37 OP:RALL STATUS:               ID:20090119074401     I
 2009-01-19-0743-54S.PLUR1_003                                                 6
 STAT SP IPHASW D HRMM SECON CODA AMPLIT PERI AZIMU VELO AIN AR TRES W  DIS CAZ7
 LG3  SZ E         744  3.45                  169.9 10.6      8        0.97 342 
 LG3  SN IP        744  3.47                             175    0.2610 0.97 342 
 LG3  SE IS        744  4.30                             175   -0.2610 0.97 342 
 LG3  SZ  AML      744  4.40        28.9 0.30                          0.97 342 
                                                                                
