 2009  119 0426 19.0 L  21.745 -99.674 10.0  RAL  1 0.0 1.2LRAL                1
 GAP=360        0.30       3.0     3.0  0.0 -0.6028E+01 -0.2077E+03  0.1203E+05E
 ACTION:UPD 12-06-08 11:37 OP:RALL STATUS:               ID:20090119042619     I
 2009-01-19-0426-22S.PLUR1_003                                                 6
 STAT SP IPHASW D HRMM SECON CODA AMPLIT PERI AZIMU VELO AIN AR TRES W  DIS CAZ7
 LZ4  SN IP        426 29.23                              96    0.0110 62.1 138 
 LZ4  SZ E         426 30.44                  317.7  9.8      0        62.1 138 
 LZ4  SE IS        426 36.63                              96   -0.0110 62.1 138 
 LZ4  SZ  AML      426 41.56        15.7 0.52                          62.1 138 
                                                                                
