 2009  119 0108 19.9 L  21.652 -99.380 10.0  RAL  1 0.0 0.3LRAL                1
 GAP=360        0.30       3.8     1.7  0.0 -0.5839E+01 -0.2077E+03  0.1203E+05E
 ACTION:UPD 12-06-08 11:37 OP:RALL STATUS:               ID:20090119010819     I
 2009-01-19-0108-12S.PLUR1_003                                                 6
 STAT SP IPHASW D HRMM SECON CODA AMPLIT PERI AZIMU VELO AIN AR TRES W  DIS CAZ7
 LA4  SZ E         1 8 23.63                  338.6 11.4      0        20.1 159 
 LA4  SN IP        1 8 23.72                             114    0.0010 20.1 159 
 LA4  SE IS        1 8 26.48                             114    0.0010 20.1 159 
 LA4  SZ  AML      1 8 28.02         5.1 0.40                          20.1 159 
                                                                                
