 2009  119 2139 26.9 L  21.270 -99.258  8.9  RAL  2 0.2 0.6LRAL                1
 GAP=309        4.10       2.1     2.8 36.5  0.2902E+00  0.3396E+00 -0.6480E+00E
 ACTION:UPD 12-06-08 11:37 OP:RALL STATUS:               ID:20090119213926     I
 2009-01-19-2139-20S.PLUR1_006                                                 6
 STAT SP IPHASW D HRMM SECON CODA AMPLIT PERI AZIMU VELO AIN AR TRES W  DIS CAZ7
 LG3  SZ E        2139 28.87                  230.3 32.3      9        0.87  41 
 LG3  SN IP       2139 28.93                             172    0.3010 0.87  41 
 LG3  SE IS       2139 29.79                             172   -0.0810 0.87  41 
 LG3  SZ  AML     2139 29.89        17.7 0.10                          0.87  41 
 LZ4  SN IP       2139 29.01                             138    0.0510 6.86 350 
 LZ4  SZ E        2139 29.06                  152.2 15.7    -17        6.86 350 
 LZ4  SE IS       2139 30.16                             138   -0.2710 6.86 350 
 LZ4  SZ  AML     2139 30.21        32.9 0.22                          6.86 350 
                                                                                
