 2009  120 0044 52.4 L  21.347 -99.241 10.0  RAL  1 0.1 0.6LRAL                1
 GAP=360        0.38       7.8    13.4  0.0  0.1049E+03  0.3396E+00 -0.6480E+00E
 ACTION:UPD 12-06-08 11:37 OP:RALL STATUS:               ID:20090120004452     I
 2009-01-20-0044-46S.PLUR1_003                                                 6
 STAT SP IPHASW D HRMM SECON CODA AMPLIT PERI AZIMU VELO AIN AR TRES W  DIS CAZ7
 LZ4  SN IP        044 54.47                             161    0.1610 3.48 238 
 LZ4  SZ E         044 54.48                   58.1 51.8      0        3.48 238 
 LZ4  SE IS        044 55.55                             161   -0.1610 3.48 238 
 LZ4  SZ  AML      044 56.79        22.2 0.24                          3.48 238 
                                                                                
