 2009  120 0910 29.1 L  21.560 -99.397 10.0  RAL  1 0.0 1.1LRAL                1
 GAP=360        0.30       3.4     2.0  0.0 -0.6304E+01 -0.5795E+05  0.4248E+05E
 ACTION:UPD 12-06-08 11:37 OP:RALL STATUS:               ID:20090120091029     I
 2009-01-20-0910-26S.PLUR1_003                                                 6
 STAT SP IPHASW D HRMM SECON CODA AMPLIT PERI AZIMU VELO AIN AR TRES W  DIS CAZ7
 LZ4  SN IP        910 34.15                             105    0.0210 28.6 152 
 LZ4  SZ E         910 34.18                  332.4 19.4      0        28.6 152 
 LZ4  SE IS        910 37.78                             105   -0.0210 28.6 152 
 LZ4  SZ  AML      910 40.67        23.8 0.52                          28.6 152 
                                                                                
