 2009  120 0811 18.4 L  21.260 -99.244 10.0  RAL  1 0.1 0.3LRAL                1
 GAP=360        0.61     999.9   999.9  0.0  0.4416E+07  0.3396E+00 -0.6480E+00E
 ACTION:UPD 12-06-08 11:37 OP:RALL STATUS:               ID:20090120081118     I
 2009-01-20-0811-11S.PLUR1_003                                                 6
 STAT SP IPHASW D HRMM SECON CODA AMPLIT PERI AZIMU VELO AIN AR TRES W  DIS CAZ7
 LG3  SZ E         811 20.61                  154.0 11.9      0        1.96 335 
 LG3  SN IP        811 20.64                             169    0.3510 1.96 335 
 LG3  SE IS        811 21.31                             169   -0.3510 1.96 335 
 LG3  SZ  AML      811 21.44        10.7 0.10                          1.96 335 
                                                                                
