 2009  120 0813 41.7 L  21.199 -99.134  0.0  RAL  2 0.6 0.5LRAL                1
 GAP=349       10.13      53.4    71.7999.9 -0.3705E+04 -0.5795E+05  0.4248E+05E
 ACTION:UPD 12-06-08 11:37 OP:RALL STATUS:               ID:20090120081341     I
 2009-01-20-0813-35S.PLUR1_006                                                 6
 STAT SP IPHASW D HRMM SECON CODA AMPLIT PERI AZIMU VELO AIN AR TRES W  DIS CAZ7
 LG3  SZ E         813 44.93                  153.8 16.5     29        14.9 305 
 LG3  SN IP        813 44.98                              94    0.6410 14.9 305 
 LG3  SE IS        813 45.88                              94   -0.3710 14.9 305 
 LG3  SZ  AML      813 46.00        13.8 0.28                          14.9 305 
 LZ4  SN IP        813 45.61                              93    0.3510 20.3 316 
 LZ4  SZ E         813 45.62                   96.3 16.2    -39        20.3 316 
 LZ4  SE IS        813 47.23                              93   -0.6210 20.3 316 
 LZ4  SZ  AML      813 48.30         9.4 0.18                          20.3 316 
                                                                                
