 2009  120 1527 22.9 L  21.339 -99.273 10.0  RAL  1 0.2 0.9LRAL                1
 GAP=360        0.72     801.8   999.9  0.0  0.1946E+07 -0.5795E+05  0.4248E+05E
 ACTION:UPD 12-06-08 11:37 OP:RALL STATUS:               ID:20090120152722     I
 2009-01-20-1527-15S.PLUR1_003                                                 6
 STAT SP IPHASW D HRMM SECON CODA AMPLIT PERI AZIMU VELO AIN AR TRES W  DIS CAZ7
 LZ4  SZ E        1527 25.13                  339.6  8.8      1        0.95 158 
 LZ4  SN IP       1527 25.13                             175    0.3910 0.95 158 
 LZ4  SE IS       1527 25.69                             175   -0.3910 0.95 158 
 LZ4  SZ  AML     1527 25.97        42.2 0.16                          0.95 158 
                                                                                
