 2009  120 1432 10.7 L  21.351 -99.283 10.0  RAL  1 0.1 1.2LRAL                1
 GAP=360        0.60      25.6    17.0  0.0 -0.4360E+03 -0.5795E+05  0.4248E+05E
 ACTION:UPD 12-06-08 11:37 OP:RALL STATUS:               ID:20090120143210     I
 2009-01-20-1432-03S.PLUR1_003                                                 6
 STAT SP IPHASW D HRMM SECON CODA AMPLIT PERI AZIMU VELO AIN AR TRES W  DIS CAZ7
 LZ4  SZ E        1432 12.97                  328.3 20.4      0        2.64 148 
 LZ4  SN IP       1432 12.98                             166    0.3510 2.64 148 
 LZ4  SE IS       1432 13.65                             166   -0.3510 2.64 148 
 LZ4  SZ  AML     1432 13.68        85.6 0.18                          2.64 148 
                                                                                
