 2009  120 2111 36.1 L  21.472 -99.310 10.0  RAL  1 0.2 0.8LRAL                1
 GAP=360        2.45     247.6    17.4  0.0  0.4312E+04 -0.5795E+05  0.4248E+05E
 ACTION:UPD 12-06-08 11:37 OP:RALL STATUS:               ID:20090120211136     I
 2009-01-20-2111-24S.PLUR1_003                                                 6
 STAT SP IPHASW D HRMM SECON CODA AMPLIT PERI AZIMU VELO AIN AR TRES W  DIS CAZ7
 LA4  SZ E        2111 38.34                  172.5 10.1    -10        1.29   4 
 LA4  SN IP       2111 38.36                             173    0.4110 1.29   4 
 LA4  SZ  AML     2111 38.87        32.7 0.24                          1.29   4 
 LA4  SE IS       2111 38.89                             173   -0.4110 1.29   4 
                                                                                
