 2009  121 0601  3.5 L  21.236 -99.254 10.0  RAL  2 0.1 0.2LRAL                1
 GAP=349        1.05       4.9     0.4 10.0  0.4357E+00  0.8304E-01  0.3986E+01E
 ACTION:UPD 12-06-08 11:37 OP:RALL STATUS:               ID:20090121060103     I
 2009-01-21-0600-57S.PLUR1_006                                                 6
 STAT SP IPHASW D HRMM SECON CODA AMPLIT PERI AZIMU VELO AIN AR TRES W  DIS CAZ7
 LG3  SZ E         6 1  5.95                  181.2 34.7      0        4.43   2 
 LG3  SN IP        6 1  6.00                             157    0.4810 4.43   2 
 LG3  SE IS        6 1  6.87                             157   -0.1110 4.43   2 
 LG3  SZ  AML      6 1  7.42         6.7 0.12                          4.43   2 
 LZ4  SN IP        6 1  6.19                             133    0.1210 10.6 351 
 LZ4  SZ E         6 1  6.29                  174.7 22.3      3        10.6 351 
 LZ4  SE IS        6 1  7.44                             133   -0.4910 10.6 351 
 LZ4  SZ  AML      6 1  7.92         8.9 0.16                          10.6 351 
                                                                                
