 2009  121 0844 46.9 L  21.214 -99.147 12.7  RAL  2 0.0 0.3LRAL                1
 GAP=346        0.29       1.3     1.9  4.2 -0.2402E+01 -0.3667E+01  0.2512E+01E
 ACTION:UPD 12-06-08 11:37 OP:RALL STATUS:               ID:20090121084446     I
 2009-01-21-0844-42S.PLUR1_006                                                 6
 STAT SP IPHASW D HRMM SECON CODA AMPLIT PERI AZIMU VELO AIN AR TRES W  DIS CAZ7
 LG3  SZ E         844 49.92                  122.1 10.7      0        12.9 302 
 LG3  SN IP        844 49.97                             134    0.0110 12.9 302 
 LG3  SE IS        844 52.24                             134    0.0210 12.9 302 
 LG3  SZ  AML      844 52.45         4.8 0.26                          12.9 302 
 LZ4  SZ E         844 50.58                  135.5 38.2      0        18.1 316 
 LZ4  SN IP        844 50.58                             124    0.0010 18.1 316 
 LZ4  SE IS        844 53.25                             124   -0.0410 18.1 316 
 LZ4  SZ  AML      844 54.56         8.2 0.30                          18.1 316 
                                                                                
