 2009  121 0606 27.1 L  21.311 -99.253 10.0  RAL  1 0.1 0.2LRAL                1
 GAP=360        0.54      20.7    16.4  0.0 -0.3398E+03  0.8304E-01  0.3986E+01E
 ACTION:UPD 12-06-08 11:37 OP:RALL STATUS:               ID:20090121060627     I
 2009-01-21-0606-20S.PLUR1_003                                                 6
 STAT SP IPHASW D HRMM SECON CODA AMPLIT PERI AZIMU VELO AIN AR TRES W  DIS CAZ7
 LZ4  SN IP        6 6 29.25                             165    0.3010 2.79 323 
 LZ4  SZ E         6 6 29.27                  143.4 34.8      0        2.79 323 
 LZ4  SE IS        6 6 30.02                             165   -0.3010 2.79 323 
 LZ4  SZ  AML      6 6 30.87         9.2 0.48                          2.79 323 
                                                                                
