 2009  121 0612 13.2 L  21.475 -99.308 10.0  RAL  1 0.1-0.1LRAL                1
 GAP=360        0.66      78.6   999.9  0.0  0.2150E+06  0.8304E-01  0.3986E+01E
 ACTION:UPD 12-06-08 11:37 OP:RALL STATUS:               ID:20090121061213     I
 2009-01-21-0612-01S.PLUR1_003                                                 6
 STAT SP IPHASW D HRMM SECON CODA AMPLIT PERI AZIMU VELO AIN AR TRES W  DIS CAZ7
 LA4  SZ E         612 15.43                  176.9  9.7      1        0.92 356 
 LA4  SN IP        612 15.43                             175    0.3910 0.92 356 
 LA4  SE IS        612 16.01                             175   -0.3910 0.92 356 
 LA4  SZ  AML      612 16.06         4.8 0.24                          0.92 356 
                                                                                
