 2009  121 0753 17.2 L  21.275 -99.244 10.0  RAL  1 0.2-0.1LRAL                1
 GAP=360        2.62     999.9   999.9  0.0  0.2677E+09  0.8304E-01  0.3986E+01E
 ACTION:UPD 12-06-08 11:37 OP:RALL STATUS:               ID:20090121075317     I
 2009-01-21-0753-10S.PLUR1_003                                                 6
 STAT SP IPHASW D HRMM SECON CODA AMPLIT PERI AZIMU VELO AIN AR TRES W  DIS CAZ7
 LG3  SN IP        753 19.37                             175    0.3010 0.85 278 
 LG3  SZ E         753 19.37                  110.0 11.1     12        0.85 278 
 LG3  SE IS        753 20.13                             175   -0.3010 0.85 278 
 LG3  SZ  AML      753 20.85         4.6 0.64                          0.85 278 
                                                                                
