 2009  121 0758 28.0 L  21.716 -99.501 10.0  RAL  2 0.8 0.8LRAL                1
 GAP=358        3.46     226.3   138.3999.9 -0.3103E+05  0.2419E+06 -0.3975E+06E
 ACTION:UPD 12-06-08 11:37 OP:RALL STATUS:               ID:20090121075828     I
 2009-01-21-0758-32S.PLUR1_006                                                 6
 STAT SP IPHASW D HRMM SECON CODA AMPLIT PERI AZIMU VELO AIN AR TRES W  DIS CAZ7
 LZ4  SZ E         758 38.17                                           48.9 151 
 LZ4  SZ IP        758 38.17                              98    2.0510 48.9 151 
 LZ4  SN E         758 38.29                  330.8 11.9      0        48.9 151 
 LZ4  SE IS        758 42.06                              98    0.0110 48.9 151 
 LZ4  SN  AML      758 42.08         6.8 0.16                          48.9 151 
 LG3  SZ IP     C  758 35.03                              97   -2.0610 55.1 152 
                                                                                
