 2009  121 0626 42.4 R  20.367 -98.611 10.0  RAL  1 0.0 1.9LRAL                1
 GAP=360        0.30       3.5     3.5  0.0 -0.1942E+01  0.8304E-01  0.3986E+01E
 ACTION:UPD 12-06-08 11:37 OP:RALL STATUS:               ID:20090121062642     I
 2009-01-21-0626-53S.PLUR1_003                                                 6
 STAT SP IPHASW D HRMM SECON CODA AMPLIT PERI AZIMU VELO AIN AR TRES W  DIS CAZ7
 LG3  SZ E         627  1.54                  146.3  9.8      0         121 327 
 LG3  SN IP        627  1.70                              93    0.0010  121 327 
 LG3  SE IS        627 15.76                              93    0.0010  121 327 
 LG3  SZ  AML      627 21.06        39.6 0.28                           121 327 
                                                                                
