 2009  121 0007  1.4 L  21.612 -99.366 10.0  RAL  1 0.0 0.1LRAL                1
 GAP=360        0.30       4.0     1.8  0.0 -0.7073E+01 -0.5795E+05  0.4248E+05E
 ACTION:UPD 12-06-08 11:37 OP:RALL STATUS:               ID:20090121000701     I
 2009-01-21-0006-53S.PLUR1_003                                                 6
 STAT SP IPHASW D HRMM SECON CODA AMPLIT PERI AZIMU VELO AIN AR TRES W  DIS CAZ7
 LA4  SZ E         0 7  4.43                  337.4 10.1      0        15.4 157 
 LA4  SN IP        0 7  4.59                             121    0.0110 15.4 157 
 LA4  SE IS        0 7  6.87                             121   -0.0110 15.4 157 
 LA4  SZ  AML      0 7  8.22         4.3 0.70                          15.4 157 
                                                                                
