 2009  121 1015 56.1 R  22.256-100.297 19.2  RAL  2 1.0 2.1LRAL                1
 GAP=359       17.28     999.9   999.9999.9 -0.1304E+09 -0.2360E+09  0.2136E+09E
 ACTION:UPD 12-06-08 11:37 OP:RALL STATUS:               ID:20090121101556     I
 2009-01-21-1016-09S.PLUR1_006                                                 6
 STAT SP IPHASW D HRMM SECON CODA AMPLIT PERI AZIMU VELO AIN AR TRES W  DIS CAZ7
 LZ4  SZ E        1016 18.14                   12.8 11.6     59         148 134 
 LZ4  SN IP       1016 18.24                              52    0.2910  148 134 
 LZ4  SE IS       1016 33.67                              52   -0.2310  148 134 
 LZ4  SZ  AML     1016 40.93        43.7 0.54                           148 134 
 LG3  SZ E        1016 18.41                  254.4 14.3    -60         153 135 
 LG3  SN IP       1016 18.42                              52   -0.2210  153 135 
 LG3  SE IS       1016 35.27                              52    0.1710  153 135 
 LG3  SZ  AML     1016 39.84        46.1 0.78                           153 135 
                                                                                
