 2009  121 2215 50.6 L  21.261 -99.354 10.0  RAL  1 0.0 0.5LRAL                1
 GAP=360        0.30       3.8     1.0  0.0  0.2885E+01 -0.2360E+09  0.2136E+09E
 ACTION:UPD 12-06-08 11:37 OP:RALL STATUS:               ID:20090121221550     I
 2009-01-21-2215-41S.PLUR1_003                                                 6
 STAT SP IPHASW D HRMM SECON CODA AMPLIT PERI AZIMU VELO AIN AR TRES W  DIS CAZ7
 LA4  SZ E        2215 55.05                  190.7 13.5      0        25.1  11 
 LA4  SN IP       2215 55.18                             108    0.0110 25.1  11 
 LA4  SE IS       2215 58.45                             108   -0.0110 25.1  11 
 LA4  SZ  AML     2215 59.91         6.9 0.44                          25.1  11 
                                                                                
