 2009  122 0126 57.0 L  21.555 -99.369 10.0  RAL  1 0.0 0.9LRAL                1
 GAP=360        0.30       4.1     3.5  0.0 -0.1414E+02 -0.2360E+09  0.2136E+09E
 ACTION:UPD 12-06-08 11:37 OP:RALL STATUS:               ID:20090122012657     I
 2009-01-22-0126-46S.PLUR1_003                                                 6
 STAT SP IPHASW D HRMM SECON CODA AMPLIT PERI AZIMU VELO AIN AR TRES W  DIS CAZ7
 LA4  SZ E         126 59.47                  322.0 10.1      0        10.0 142 
 LA4  SN IP        126 59.48                             135    0.0210 10.0 142 
 LA4  SE IS        127  1.26                             135   -0.0210 10.0 142 
 LA4  SZ  AML      127  3.19        32.9 0.30                          10.0 142 
                                                                                
