 2009  122 0825 29.1 L  21.517 -99.320 10.0  RAL  1 0.0 0.7LRAL                1
 GAP=360        0.30       3.9     1.2  0.0 -0.4000E+01 -0.2360E+09  0.2136E+09E
 ACTION:UPD 12-06-08 11:37 OP:RALL STATUS:               ID:20090122082529     I
 2009-01-22-0825-26S.PLUR1_003                                                 6
 STAT SP IPHASW D HRMM SECON CODA AMPLIT PERI AZIMU VELO AIN AR TRES W  DIS CAZ7
 LZ4  SZ E         825 33.07                  345.9 18.1      0        21.2 166 
 LZ4  SN IP        825 33.10                             112    0.0210 21.2 166 
 LZ4  SE IS        825 35.94                             112   -0.0210 21.2 166 
 LZ4  SZ  AML      825 37.55        13.0 0.58                          21.2 166 
                                                                                
