 2009  122 0113 29.2 L  21.333 -99.251 10.0  RAL  1 0.0 0.6LRAL                1
 GAP=360        0.33       3.2    24.0  0.0  0.7585E+02 -0.2360E+09  0.2136E+09E
 ACTION:UPD 12-06-08 11:37 OP:RALL STATUS:               ID:20090122011329     I
 2009-01-22-0113-23S.PLUR1_003                                                 6
 STAT SP IPHASW D HRMM SECON CODA AMPLIT PERI AZIMU VELO AIN AR TRES W  DIS CAZ7
 LZ4  SN IP        113 31.17                             170    0.0910 1.89 262 
 LZ4  SZ E         113 31.19                   82.0 63.3      0        1.89 262 
 LZ4  SE IS        113 32.34                             170   -0.0910 1.89 262 
 LZ4  SZ  AML      113 32.81        21.3 0.64                          1.89 262 
                                                                                
