 2009  122 0822 19.4 L  21.481 -99.391 10.0  RAL  1 0.0 0.7LRAL                1
 GAP=360        0.30       3.2     2.6  0.0 -0.8112E+01 -0.2360E+09  0.2136E+09E
 ACTION:UPD 12-06-08 11:37 OP:RALL STATUS:               ID:20090122082219     I
 2009-01-22-0822-17S.PLUR1_003                                                 6
 STAT SP IPHASW D HRMM SECON CODA AMPLIT PERI AZIMU VELO AIN AR TRES W  DIS CAZ7
 LZ4  SN IP        822 23.31                             112    0.0010 20.8 143 
 LZ4  SZ E         822 23.33                  322.8 16.4      0        20.8 143 
 LZ4  SE IS        822 26.14                             112    0.0010 20.8 143 
 LZ4  SZ  AML      822 26.33        11.9 0.50                          20.8 143 
                                                                                
