 2009  122 1014  0.5 L  21.366 -99.241 10.0  RAL  1 0.0 0.5LRAL                1
 GAP=360        0.33       7.5     6.3  0.0  0.4719E+02 -0.2360E+09  0.2136E+09E
 ACTION:UPD 12-06-08 11:37 OP:RALL STATUS:               ID:20090122101400     I
 2009-01-22-1013-53S.PLUR1_003                                                 6
 STAT SP IPHASW D HRMM SECON CODA AMPLIT PERI AZIMU VELO AIN AR TRES W  DIS CAZ7
 LZ4  SZ E        1014  2.50                   37.7 32.5      0        4.85 218 
 LZ4  SN IP       1014  2.58                             155    0.0910 4.85 218 
 LZ4  SE IS       1014  3.85                             155   -0.0910 4.85 218 
 LZ4  SZ  AML     1014  4.06        16.3 0.24                          4.85 218 
                                                                                
