 2009  122 1112 49.4 L  21.340 -99.289 10.0  RAL  1 0.1 0.4LRAL                1
 GAP=360        0.63      16.2    34.5  0.0 -0.5589E+03 -0.2360E+09  0.2136E+09E
 ACTION:UPD 12-06-08 11:37 OP:RALL STATUS:               ID:20090122111249     I
 2009-01-22-1112-43S.PLUR1_003                                                 6
 STAT SP IPHASW D HRMM SECON CODA AMPLIT PERI AZIMU VELO AIN AR TRES W  DIS CAZ7
 LZ4  SN IP       1112 51.67                             167    0.3710 2.29 117 
 LZ4  SZ E        1112 51.75                  296.7 25.3      0        2.29 117 
 LZ4  SE IS       1112 52.29                             167   -0.3710 2.29 117 
 LZ4  SZ  AML     1112 52.78        15.5 0.18                          2.29 117 
                                                                                
