 2009  122 2357 44.2 L  21.633 -99.358 10.0  RAL  1 0.0 0.3LRAL                1
 GAP=360        0.30       4.0     1.4  0.0 -0.5176E+01 -0.2360E+09  0.2136E+09E
 ACTION:UPD 12-06-08 11:37 OP:RALL STATUS:               ID:20090122235744     I
 2009-01-22-2357-36S.PLUR1_003                                                 6
 STAT SP IPHASW D HRMM SECON CODA AMPLIT PERI AZIMU VELO AIN AR TRES W  DIS CAZ7
 LA4  SZ E        2357 47.55                  343.0 11.8      0        17.3 163 
 LA4  SN IP       2357 47.62                             118    0.0010 17.3 163 
 LA4  SE IS       2357 50.10                             118    0.0010 17.3 163 
 LA4  SZ  AML     2357 50.34         5.6 0.28                          17.3 163 
                                                                                
