 2009  123 0804  3.9 L  21.185 -99.435  0.0  RAL  2 0.7 0.5LRAL                1
 GAP=345       10.61      58.2    88.9999.9  0.4921E+04  0.1578E+06  0.1006E+06E
 ACTION:UPD 12-06-08 11:37 OP:RALL STATUS:               ID:20090123080403     I
 2009-01-23-0804-00S.PLUR1_006                                                 6
 STAT SP IPHASW D HRMM SECON CODA AMPLIT PERI AZIMU VELO AIN AR TRES W  DIS CAZ7
 LG3  SZ E         8 4  8.77                  202.8 18.1    -38        21.4  62 
 LG3  SN IP        8 4  8.82                              93    1.1710 21.4  62 
 LG3  SE IS        8 4 10.18                              93   -0.2110 21.4  62 
 LG3  SZ  AML      8 4 12.22         2.8 0.30                          21.4  62 
 LZ4  SZ E         8 4  8.48                  259.4 13.6     33        23.6  47 
 LZ4  SN IP        8 4  8.50                              92    0.4810 23.6  47 
 LZ4  SE IS        8 4  9.59                              92   -1.4410 23.6  47 
 LZ4  SZ  AML      8 4  9.71        21.2 0.16                          23.6  47 
                                                                                
