 2009  123 0321 41.6 L  21.409 -99.320 27.2  RAL  2 0.1 0.5LRAL                1
 GAP=219        0.50       0.8     0.3  5.0 -0.9826E-01  0.7542E-02  0.2347E-01E
 ACTION:UPD 12-06-08 11:37 OP:RALL STATUS:               ID:20090123032141     I
 2009-01-23-0321-35S.PLUR1_006                                                 6
 STAT SP IPHASW D HRMM SECON CODA AMPLIT PERI AZIMU VELO AIN AR TRES W  DIS CAZ7
 LA4  SZ E         321 46.09                  187.1  8.9      0        8.34   8 
 LA4  SN IP        321 46.22                             161   -0.0310 8.34   8 
 LA4  SE IS        321 49.36                             161   -0.2810 8.34   8 
 LA4  SZ  AML      321 50.85         3.8 0.44                          8.34   8 
 LZ4  SZ E         321 46.40                  328.3 13.1      0        10.1 149 
 LZ4  SN IP        321 46.43                             158    0.1110 10.1 149 
 LZ4  SE IS        321 49.96                             158    0.2010 10.1 149 
 LZ4  SZ  AML      321 51.42         9.7 0.56                          10.1 149 
                                                                                
