 2009  123 1111  9.9 L  21.215 -99.366 10.0  RAL  1 0.0 0.6LRAL                1
 GAP=360        0.30       3.4     2.8  0.0  0.9367E+01  0.1578E+06  0.1006E+06E
 ACTION:UPD 12-06-08 11:37 OP:RALL STATUS:               ID:20090123111109     I
 2009-01-23-1111-05S.PLUR1_003                                                 6
 STAT SP IPHASW D HRMM SECON CODA AMPLIT PERI AZIMU VELO AIN AR TRES W  DIS CAZ7
 LZ4  SN IP       1111 13.14                             119   -0.0210 16.2  38 
 LZ4  SZ E        1111 13.19                  217.9 19.8      0        16.2  38 
 LZ4  SE IS       1111 15.54                             119    0.0210 16.2  38 
 LZ4  SZ  AML     1111 16.21        12.3 0.66                          16.2  38 
                                                                                
