 2009  123 1451 41.2 L  21.335 -99.483 10.0  RAL  2 1.4 1.2LRAL                1
 GAP=346       24.57      54.2   339.0999.9 -0.1275E+05  0.4346E+06 -0.4833E+05E
 ACTION:UPD 12-06-08 11:37 OP:RALL STATUS:               ID:20090123145141     I
 2009-01-23-1451-37S.PLUR1_006                                                 6
 STAT SP IPHASW D HRMM SECON CODA AMPLIT PERI AZIMU VELO AIN AR TRES W  DIS CAZ7
 LZ4  SZ E        1451 46.16                  352.6 77.7     81        22.2  91 
 LZ4  SN IP       1451 46.24                             104    0.9910 22.2  91 
 LZ4  SE IS       1451 47.33                             104   -0.9110 22.2  91 
 LZ4  SZ  AML     1451 47.46       105.3 0.16                          22.2  91 
 LG3  SN IP       1451 46.57                             102    0.9210 24.8 105 
 LG3  SZ E        1451 46.58                  197.2 15.8    -87        24.8 105 
 LG3  SE IS       1451 47.93                             102   -1.0010 24.8 105 
 LG3  SZ  AML     1451 49.04        11.0 0.20                          24.8 105 
                                                                                
