 2009  123 1735 33.7 L  21.515 -99.317 10.0  RAL  1 0.0 2.2LRAL                1
 GAP=360        0.30      11.2     2.9  0.0 -0.3211E+02  0.4346E+06 -0.4833E+05E
 ACTION:UPD 12-06-08 11:37 OP:RALL STATUS:               ID:20090123173533     I
 2009-01-23-1735-21S.PLUR1_003                                                 6
 STAT SP IPHASW D HRMM SECON CODA AMPLIT PERI AZIMU VELO AIN AR TRES W  DIS CAZ7
 LA4  SN IP       1735 35.68                             161    0.0410 3.57 167 
 LA4  SZ E        1735 35.75                  346.6  8.2      0        3.57 167 
 LA4  SE IS       1735 37.02                             161   -0.0410 3.57 167 
 LA4  SZ  AML     1735 37.09       888.3 0.24                          3.57 167 
                                                                                
