 2009  123 2219 48.2 L  21.478 -99.320 10.0  RAL  1 0.4 0.2LRAL                1
 GAP=360        4.25     999.9   187.4  0.0 -0.2369E+06  0.4346E+06 -0.4833E+05E
 ACTION:UPD 12-06-08 11:37 OP:RALL STATUS:               ID:20090123221948     I
 2009-01-23-2219-36S.PLUR1_003                                                 6
 STAT SP IPHASW D HRMM SECON CODA AMPLIT PERI AZIMU VELO AIN AR TRES W  DIS CAZ7
 LA4  SZ E        2219 50.40                  262.4 18.4     20        1.28  62 
 LA4  SN IP       2219 50.45                             173    0.4310 1.28  62 
 LA4  SE IS       2219 50.94                             173   -0.4310 1.28  62 
 LA4  SZ  AML     2219 51.08         8.4 0.32                          1.28  62 
                                                                                
