 2009  124 0824 24.1 L  21.516 -99.320 10.0  RAL  1 0.0 0.0LRAL                1
 GAP=360        0.31      10.5     3.6  0.0 -0.3781E+02  0.4346E+06 -0.4833E+05E
 ACTION:UPD 12-06-08 11:37 OP:RALL STATUS:               ID:20090124082424     I
 2009-01-24-0824-12S.PLUR1_003                                                 6
 STAT SP IPHASW D HRMM SECON CODA AMPLIT PERI AZIMU VELO AIN AR TRES W  DIS CAZ7
 LA4  SZ E         824 26.02                  342.3  8.6      0        3.81 162 
 LA4  SN IP        824 26.12                             160    0.0510 3.81 162 
 LA4  SE IS        824 27.44                             160   -0.0510 3.81 162 
 LA4  SZ  AML      824 27.74         5.3 0.22                          3.81 162 
                                                                                
