 2009  124 0015 46.7 L  21.324 -99.270 10.0  RAL  1 0.3 0.7LRAL                1
 GAP=360        3.11     659.4   938.0  0.0 -0.6183E+06  0.4346E+06 -0.4833E+05E
 ACTION:UPD 12-06-08 11:37 OP:RALL STATUS:               ID:20090124001546     I
 2009-01-24-0015-40S.PLUR1_003                                                 6
 STAT SP IPHASW D HRMM SECON CODA AMPLIT PERI AZIMU VELO AIN AR TRES W  DIS CAZ7
 LZ4  SZ E         015 48.80                  171.9 24.3    -14        0.72   7 
 LZ4  SN IP        015 48.80                             176    0.2710 0.72   7 
 LZ4  SE IS        015 49.60                             176   -0.2710 0.72   7 
 LZ4  SZ  AML      015 49.84        30.1 0.20                          0.72   7 
                                                                                
