 2009  124 0841  4.0 L  21.188 -99.356  7.0  RAL  2 0.3 0.4LRAL                1
 GAP=342        3.49      15.7    14.7 94.3  0.2178E+03  0.6135E+03  0.6425E+03E
 ACTION:UPD 12-06-08 11:37 OP:RALL STATUS:               ID:20090124084104     I
 2009-01-24-0840-58S.PLUR1_006                                                 6
 STAT SP IPHASW D HRMM SECON CODA AMPLIT PERI AZIMU VELO AIN AR TRES W  DIS CAZ7
 LG3  SZ E         841  7.64                  218.3 25.1     -9        14.5  48 
 LG3  SN IP        841  7.64                             111    0.8010 14.5  48 
 LG3  SE IS        841  8.82                             111   -0.0710 14.5  48 
 LG3  SZ  AML      841  8.96         5.0 0.22                          14.5  48 
 LZ4  SN IP        841  7.64                             104    0.2710 18.2  30 
 LZ4  SZ E         841  7.66                  222.1 40.5     13        18.2  30 
 LZ4  SE IS        841  8.83                             104   -1.0010 18.2  30 
 LZ4  SZ  AML      841  9.45        15.9 0.18                          18.2  30 
                                                                                
