 2009  124 1121 39.8 L  21.299 -99.088  0.0  RAL  2 0.4 0.6LRAL                1
 GAP=341        2.81       3.2    19.3415.3  0.1517E+01 -0.4812E+04 -0.5350E+02E
 ACTION:UPD 12-06-08 11:37 OP:RALL STATUS:               ID:20090124112139     I
 2009-01-24-1121-34S.PLUR1_006                                                 6
 STAT SP IPHASW D HRMM SECON CODA AMPLIT PERI AZIMU VELO AIN AR TRES W  DIS CAZ7
 LG3  SZ E        1121 43.15                   82.8 12.2      1        17.3 261 
 LG3  SN IP       1121 43.16                              94    0.3210 17.3 261 
 LG3  SE IS       1121 43.68                              94   -1.3710 17.3 261 
 LG3  SZ  AML     1121 43.75        13.5 0.28                          17.3 261 
 LZ4  SN IP       1121 44.14                              93    0.9710 19.2 281 
 LZ4  SZ E        1121 44.19                   90.0 23.9    -10        19.2 281 
 LZ4  SE IS       1121 45.70                              93    0.0810 19.2 281 
 LZ4  SZ  AML     1121 46.49        10.0 0.18                          19.2 281 
                                                                                
