 2009  125 0813 42.8 L  21.114 -99.007  6.5  RAL  2 0.5 0.8LRAL                1
 GAP=354        8.37      94.7   131.1999.9 -0.1209E+05 -0.2374E+06  0.1699E+06E
 ACTION:UPD 12-06-08 11:37 OP:RALL STATUS:               ID:20090125081342     I
 2009-01-25-0813-41S.PLUR1_006                                                 6
 STAT SP IPHASW D HRMM SECON CODA AMPLIT PERI AZIMU VELO AIN AR TRES W  DIS CAZ7
 LG3  SZ E         813 48.82                  149.4 11.5     24        31.1 305 
 LG3  SN IP        813 48.95                              94    0.8510 31.1 305 
 LG3  SE IS        813 51.28                              94   -0.7210 31.1 305 
 LG3  SZ  AML      813 54.80         9.6 0.48                          31.1 305 
 LZ4  SZ E         813 49.37                   99.2 38.3    -31        36.3 311 
 LZ4  SN IP        813 49.45                              93    0.5610 36.3 311 
 LZ4  SE IS        813 52.67                              93   -0.7010 36.3 311 
 LZ4  SZ  AML      813 53.28        13.7 0.28                          36.3 311 
                                                                                
