 2009  125 0523 36.2 L  21.637 -99.390 10.0  RAL  1 0.0 0.6LRAL                1
 GAP=360        0.30       3.7     2.0  0.0 -0.7016E+01  0.2051E+06  0.1572E+06E
 ACTION:UPD 12-06-08 11:37 OP:RALL STATUS:               ID:20090125052336     I
 2009-01-25-0523-28S.PLUR1_003                                                 6
 STAT SP IPHASW D HRMM SECON CODA AMPLIT PERI AZIMU VELO AIN AR TRES W  DIS CAZ7
 LA4  SZ E         523 39.78                  333.7  8.8      0        18.9 154 
 LA4  SN IP        523 39.78                             115    0.0010 18.9 154 
 LA4  SE IS        523 42.42                             115    0.0010 18.9 154 
 LA4  SZ  AML      523 44.86        12.0 0.28                          18.9 154 
                                                                                
