 2009  125 0727 37.8 L  21.548 -99.565 10.0  RAL  1 0.0 0.7LRAL                1
 GAP=360        0.30       1.2     4.0  0.0 -0.3844E+01  0.2051E+06  0.1572E+06E
 ACTION:UPD 12-06-08 11:37 OP:RALL STATUS:               ID:20090125072737     I
 2009-01-25-0727-32S.PLUR1_003                                                 6
 STAT SP IPHASW D HRMM SECON CODA AMPLIT PERI AZIMU VELO AIN AR TRES W  DIS CAZ7
 LA4  SZ E         727 42.67                  285.0 14.5      0        27.4 105 
 LA4  SN IP        727 42.69                             106    0.0110 27.4 105 
 LA4  SE IS        727 46.21                             106   -0.0110 27.4 105 
 LA4  SZ  AML      727 50.86        11.3 0.56                          27.4 105 
                                                                                
