 2009  125 0946 49.1 L  21.272 -99.254 10.0  RAL  1 0.3 0.3LRAL                1
 GAP=360        3.97     999.9   999.9  0.0 -0.2005E+07 -0.2374E+06  0.1699E+06E
 ACTION:UPD 12-06-08 11:37 OP:RALL STATUS:               ID:20090125094649     I
 2009-01-25-0946-41S.PLUR1_003                                                 6
 STAT SP IPHASW D HRMM SECON CODA AMPLIT PERI AZIMU VELO AIN AR TRES W  DIS CAZ7
 LG3  SZ E         946 51.21                  176.8 26.8    -18        0.39  16 
 LG3  SN IP        946 51.23                             178    0.2610 0.39  16 
 LG3  SE IS        946 52.07                             178   -0.2610 0.39  16 
 LG3  SZ  AML      946 52.18        11.0 0.26                          0.39  16 
                                                                                
