 2009  125 0439 25.3 L  21.159 -99.439  6.2  RAL  2 0.9 1.3LRAL                1
 GAP=346       14.22     104.2   134.1999.9  0.1346E+05  0.2051E+06  0.1572E+06E
 ACTION:UPD 12-06-08 11:37 OP:RALL STATUS:               ID:20090125043925     I
 2009-01-25-0439-20S.PLUR1_006                                                 6
 STAT SP IPHASW D HRMM SECON CODA AMPLIT PERI AZIMU VELO AIN AR TRES W  DIS CAZ7
 LG3  SZ E         439 30.77                  188.2 17.8    -47        23.3  56 
 LG3  SN IP        439 30.83                              96    1.3910 23.3  56 
 LG3  SE IS        439 32.11                              96   -0.3310 23.3  56 
 LG3  SZ  AML      439 34.31        13.0 0.22                          23.3  56 
 LZ4  SZ E         439 30.38                  271.8 13.9     49        25.9  43 
 LZ4  SN IP        439 30.46                              95    0.6210 25.9  43 
 LZ4  SE IS        439 31.45                              95   -1.6810 25.9  43 
 LZ4  SZ  AML      439 31.64       148.1 0.16                          25.9  43 
                                                                                
