 2009  125 1124 47.8 L  21.333 -99.278 10.0  RAL  1 0.3 0.5LRAL                1
 GAP=360        3.56     585.2   762.5  0.0  0.4461E+06 -0.2374E+06  0.1699E+06E
 ACTION:UPD 12-06-08 11:37 OP:RALL STATUS:               ID:20090125112447     I
 2009-01-25-1124-41S.PLUR1_003                                                 6
 STAT SP IPHASW D HRMM SECON CODA AMPLIT PERI AZIMU VELO AIN AR TRES W  DIS CAZ7
 LZ4  SZ E        1124 49.61                  268.0 41.8    -16        0.86 105 
 LZ4  SN IP       1124 49.66                             175    0.0610 0.86 105 
 LZ4  SE IS       1124 50.88                             175   -0.0610 0.86 105 
 LZ4  SZ  AML     1124 52.54        16.9 0.64                          0.86 105 
                                                                                
