 2009  125 1023 22.1 L  21.243 -99.331 10.0  RAL  1 0.0 0.2LRAL                1
 GAP=360        0.30       3.8     0.8  0.0  0.1316E+01 -0.2374E+06  0.1699E+06E
 ACTION:UPD 12-06-08 11:37 OP:RALL STATUS:               ID:20090125102322     I
 2009-01-25-1023-16S.PLUR1_003                                                 6
 STAT SP IPHASW D HRMM SECON CODA AMPLIT PERI AZIMU VELO AIN AR TRES W  DIS CAZ7
 LA4  SZ E        1023 26.80                  184.9 13.3      0        26.8   5 
 LA4  SN IP       1023 26.85                             107    0.0110 26.8   5 
 LA4  SE IS       1023 30.31                             107   -0.0110 26.8   5 
 LA4  SZ  AML     1023 31.48         3.3 0.74                          26.8   5 
                                                                                
