 2009  125 2330 21.6 L  21.292 -99.216 10.0  RAL  1 0.0 0.6LRAL                1
 GAP=360        0.30       4.0     5.5  0.0 -0.2233E+02 -0.2374E+06  0.1699E+06E
 ACTION:UPD 12-06-08 11:37 OP:RALL STATUS:               ID:20090125233021     I
 2009-01-25-2330-15S.PLUR1_003                                                 6
 STAT SP IPHASW D HRMM SECON CODA AMPLIT PERI AZIMU VELO AIN AR TRES W  DIS CAZ7
 LZ4  SZ E        2330 23.78                  127.9 20.0      0        7.01 308 
 LZ4  SN IP       2330 23.78                             145    0.0310 7.01 308 
 LZ4  SE IS       2330 25.30                             145   -0.0310 7.01 308 
 LZ4  SZ  AML     2330 26.73        20.2 0.18                          7.01 308 
                                                                                
