 2009  126 0153 58.9 L  21.776 -99.644 10.0  RAL  1 0.0 0.5LRAL                1
 GAP=360        0.30       2.7     3.1  0.0 -0.6704E+01 -0.2374E+06  0.1699E+06E
 ACTION:UPD 12-06-08 11:37 OP:RALL STATUS:               ID:20090126015358     I
 2009-01-26-0153-58S.PLUR1_003                                                 6
 STAT SP IPHASW D HRMM SECON CODA AMPLIT PERI AZIMU VELO AIN AR TRES W  DIS CAZ7
 LA4  SZ E         154  6.62                  313.1 16.6      0        47.4 133 
 LA4  SN IP        154  6.84                              98    0.0210 47.4 133 
 LA4  SE IS        154 12.58                              98   -0.0210 47.4 133 
 LA4  SZ  AML      154 14.87         3.7 0.52                          47.4 133 
                                                                                
