 2009  126 0141  4.0 L  21.295 -99.261 10.0  RAL  1 0.0 0.5LRAL                1
 GAP=360        0.30       9.9     2.4  0.0 -0.2372E+02 -0.2374E+06  0.1699E+06E
 ACTION:UPD 12-06-08 11:37 OP:RALL STATUS:               ID:20090126014104     I
 2009-01-26-0140-57S.PLUR1_003                                                 6
 STAT SP IPHASW D HRMM SECON CODA AMPLIT PERI AZIMU VELO AIN AR TRES W  DIS CAZ7
 LZ4  SN IP        141  6.04                             158    0.0410 4.10 347 
 LZ4  SZ E         141  6.06                  167.3 14.5      0        4.10 347 
 LZ4  SE IS        141  7.38                             158   -0.0410 4.10 347 
 LZ4  SZ  AML      141  7.67        18.1 0.12                          4.10 347 
                                                                                
