 2009  126 0515 32.8 L  21.590 -99.376 10.0  RAL  1 0.0 0.5LRAL                1
 GAP=360        0.30       3.9     2.5  0.0 -0.9503E+01 -0.2374E+06  0.1699E+06E
 ACTION:UPD 12-06-08 11:37 OP:RALL STATUS:               ID:20090126051532     I
 2009-01-26-0515-24S.PLUR1_003                                                 6
 STAT SP IPHASW D HRMM SECON CODA AMPLIT PERI AZIMU VELO AIN AR TRES W  DIS CAZ7
 LA4  SZ E         515 35.73                  329.4  8.3      0        13.7 149 
 LA4  SN IP        515 35.74                             125    0.0110 13.7 149 
 LA4  SE IS        515 37.85                             125   -0.0110 13.7 149 
 LA4  SZ  AML      515 38.29        11.1 0.36                          13.7 149 
                                                                                
