 2009  126 0354 16.5 L  21.315 -99.268 10.0  RAL  1 0.0 0.5LRAL                1
 GAP=360        0.30     269.0   999.9  0.0  0.9583E+06 -0.2374E+06  0.1699E+06E
 ACTION:UPD 12-06-08 11:37 OP:RALL STATUS:               ID:20090126035416     I
 2009-01-26-0354-10S.PLUR1_003                                                 6
 STAT SP IPHASW D HRMM SECON CODA AMPLIT PERI AZIMU VELO AIN AR TRES W  DIS CAZ7
 LZ4  SZ E         354 18.32                  175.0 24.1      0        1.76 355 
 LZ4  SN IP        354 18.35                             170    0.0410 1.76 355 
 LZ4  SE IS        354 19.63                             170   -0.0410 1.76 355 
 LZ4  SZ  AML      354 20.72        18.0 0.62                          1.76 355 
                                                                                
