 2009  126 1527 20.2 L  21.345 -99.270 10.0  RAL  1 0.2 0.3LRAL                1
 GAP=360        1.42     151.8   999.9  0.0  0.2087E+06  0.1077E+06  0.5359E+05E
 ACTION:UPD 12-06-08 11:37 OP:RALL STATUS:               ID:20090126152720     I
 2009-01-26-1527-14S.PLUR1_003                                                 6
 STAT SP IPHASW D HRMM SECON CODA AMPLIT PERI AZIMU VELO AIN AR TRES W  DIS CAZ7
 LZ4  SZ E        1527 22.37                  352.5 15.9     -5        1.56 179 
 LZ4  SN IP       1527 22.42                             171    0.3910 1.56 179 
 LZ4  SN E        1527 22.42                                           1.56 179 
 LZ4  SE IS       1527 22.98                             171   -0.3910 1.56 179 
 LZ4  SZ  AML     1527 23.34        11.7 0.16                          1.56 179 
                                                                                
