 2009  126 1358 41.7 L  21.352 -99.248 10.0  RAL  1 0.1 1.1LRAL                1
 GAP=360        0.53      16.2    16.3  0.0  0.2644E+03  0.1077E+06  0.5359E+05E
 ACTION:UPD 12-06-08 11:37 OP:RALL STATUS:               ID:20090126135841     I
 2009-01-26-1358-35S.PLUR1_003                                                 6
 STAT SP IPHASW D HRMM SECON CODA AMPLIT PERI AZIMU VELO AIN AR TRES W  DIS CAZ7
 LZ4  SN IP       1358 43.93                             163    0.3010 3.19 223 
 LZ4  SZ E        1358 43.94                   43.2 19.7      0        3.19 223 
 LZ4  SE IS       1358 44.73                             163   -0.3010 3.19 223 
 LZ4  SZ  AML     1358 45.21        71.3 0.28                          3.19 223 
                                                                                
