 2009  126 1234 23.9 L  21.207 -99.443  0.0  RAL  2 0.6 2.4LRAL                1
 GAP=344        8.89      39.3    75.5999.9  0.2778E+04  0.1077E+06  0.5359E+05E
 ACTION:UPD 12-06-08 11:37 OP:RALL STATUS:               ID:20090126123423     I
 2009-01-26-1234-18S.PLUR1_006                                                 6
 STAT SP IPHASW D HRMM SECON CODA AMPLIT PERI AZIMU VELO AIN AR TRES W  DIS CAZ7
 LG3  SZ E        1234 28.60                  217.9 17.5    -30        21.2  69 
 LG3  SN IP       1234 28.61                              93    1.0110 21.2  69 
 LG3  SE IS       1234 29.97                              93   -0.3410 21.2  69 
 LG3  SZ  AML     1234 30.91       373.8 0.38                          21.2  69 
 LZ4  SZ E        1234 28.35                  262.0 15.2     29        22.7  53 
 LZ4  SN IP       1234 28.38                              93    0.5310 22.7  53 
 LZ4  SE IS       1234 29.53                              93   -1.2110 22.7  53 
 LZ4  SZ  AML     1234 29.71      1169.6 0.34                          22.7  53 
                                                                                
