 2009  126 2350 52.7 L  21.324 -99.288 10.0  RAL  1 0.1 0.9LRAL                1
 GAP=360        0.56      13.4    36.3  0.0  0.4869E+03  0.1077E+06  0.5359E+05E
 ACTION:UPD 12-06-08 11:37 OP:RALL STATUS:               ID:20090126235052     I
 2009-01-26-2350-46S.PLUR1_003                                                 6
 STAT SP IPHASW D HRMM SECON CODA AMPLIT PERI AZIMU VELO AIN AR TRES W  DIS CAZ7
 LZ4  SZ E        2350 54.60                  249.9 17.8      1        2.02  68 
 LZ4  SN IP       2350 54.82                             169    0.2410 2.02  68 
 LZ4  SE IS       2350 55.69                             169   -0.2410 2.02  68 
 LZ4  SZ  AML     2350 55.84        39.5 0.16                          2.02  68 
                                                                                
