 2009  126 2204 33.2 L  21.334 -99.227 10.0  RAL  1 0.0 0.5LRAL                1
 GAP=360        0.30       0.7    10.0  0.0  0.7078E+01  0.1077E+06  0.5359E+05E
 ACTION:UPD 12-06-08 11:37 OP:RALL STATUS:               ID:20090126220433     I
 2009-01-26-2204-27S.PLUR1_003                                                 6
 STAT SP IPHASW D HRMM SECON CODA AMPLIT PERI AZIMU VELO AIN AR TRES W  DIS CAZ7
 LZ4  SN IP       22 4 35.18                             157    0.0110 4.44 266 
 LZ4  SZ E        22 4 35.20                   85.6 21.6      0        4.44 266 
 LZ4  SE IS       22 4 36.59                             157   -0.0110 4.44 266 
 LZ4  SZ  AML     22 4 37.66        16.1 0.70                          4.44 266 
                                                                                
