 2009  127 0617 29.6 L  21.280 -99.110 10.0  RAL  1 0.0 0.5LRAL                1
 GAP=360        0.30       0.4     4.7  0.0  0.6024E+00 -0.6883E+08  0.2370E+09E
 ACTION:UPD 12-06-08 11:37 OP:RALL STATUS:               ID:20090127061729     I
 2009-01-27-0617-23S.PLUR1_003                                                 6
 STAT SP IPHASW D HRMM SECON CODA AMPLIT PERI AZIMU VELO AIN AR TRES W  DIS CAZ7
 LG3  SN IP        617 32.69                             122    0.0310 14.8 268 
 LG3  SZ E         617 32.74                   88.3 13.9      0        14.8 268 
 LG3  SE IS        617 34.88                             122   -0.0310 14.8 268 
 LG3  SZ  AML      617 35.22         9.9 0.32                          14.8 268 
                                                                                
