 2009  127 0955  2.1 L  21.208 -99.542  5.1  RAL  2 0.8 0.8LRAL                1
 GAP=348       12.34      82.5   235.5495.8  0.1849E+05 -0.1056E+06 -0.3565E+05E
 ACTION:UPD 12-06-08 11:37 OP:RALL STATUS:               ID:20090127095502     I
 2009-01-27-0954-58S.PLUR1_006                                                 6
 STAT SP IPHASW D HRMM SECON CODA AMPLIT PERI AZIMU VELO AIN AR TRES W  DIS CAZ7
 LG3  SZ E         955  8.08                  232.7 19.9    -22        31.0  76 
 LG3  SN IP        955  8.10                              63    1.0510 31.0  76 
 LG3  SE IS        955  9.70                              63   -0.9710 31.0  76 
 LG3  SZ  AML      955 10.84         7.1 0.46                          31.0  76 
 LZ4  SZ E         955  7.97                  299.2 62.4     55        31.4  64 
 LZ4  SN IP        955  7.97                              63    0.8710 31.4  64 
 LZ4  SE IS        955  9.82                              63   -0.9510 31.4  64 
 LZ4  SZ  AML      955 10.38        22.3 0.26                          31.4  64 
                                                                                
