 2009  127 0637 57.0 R  22.349-100.267 23.9  RAL  3 1.2 2.0LRAL                1
 GAP=356       21.59     999.9   999.9999.9 -0.1190E+08 -0.2505E+08  0.2428E+08E
 ACTION:UPD 12-06-08 11:37 OP:RALL STATUS:               ID:20090127063757     I
 2009-01-27-0638-04S.PLUR1_009                                                 6
 STAT SP IPHASW D HRMM SECON CODA AMPLIT PERI AZIMU VELO AIN AR TRES W  DIS CAZ7
 LA4  SZ E         638 15.90                  339.9 12.9     26         138 134 
 LA4  SN IP        638 16.79                              57   -0.4510  138 134 
 LA4  SE IS        638 30.59                              57   -1.4510  138 134 
 LA4  SZ  AML      638 38.07        33.1 0.48                           138 134 
 LZ4  SZ E         638 18.33                   25.0 28.0     67         153 137 
 LZ4  SN IP        638 19.24                              57    0.1810  153 137 
 LZ4  SE IS        638 35.95                              57    0.7610  153 137 
 LZ4  SZ  AML      638 39.99        40.3 0.40                           153 137 
 LG3  SZ E         638 19.70                  217.3 13.4    -99         159 138 
 LG3  SN IP        638 20.08                              57    0.3110  159 138 
 LG3  SE IS        638 37.08                              57    0.6610  159 138 
 LG3  SZ  AML      638 39.98        27.6 0.40                           159 138 
                                                                                
