 2009  127 0026 17.5 L  22.112 -99.491  4.5  RAL  2 0.4 1.7LRAL                1
 GAP=360        5.77     999.9   999.9999.9 -0.3438E+08 -0.6883E+08  0.2370E+09E
 ACTION:UPD 12-06-08 11:37 OP:RALL STATUS:               ID:20090127002617     I
 2009-01-27-0026-15S.PLUR1_006                                                 6
 STAT SP IPHASW D HRMM SECON CODA AMPLIT PERI AZIMU VELO AIN AR TRES W  DIS CAZ7
 LA4  SZ E         026 28.99                    2.3  8.6     17        72.0 165 
 LA4  SN IP        026 29.00                              63   -0.1610 72.0 165 
 LA4  SE IS        026 36.99                              63   -0.7310 72.0 165 
 LA4  SZ  AML      026 38.98        32.0 0.22                          72.0 165 
 LZ4  SN IP        026 32.03                              63    0.1710 89.4 165 
 LZ4  SZ E         026 32.36                  323.6  8.2    -21        89.4 165 
 LZ4  SE IS        026 43.10                              63    0.7210 89.4 165 
 LZ4  SZ  AML      026 45.33        36.7 0.22                          89.4 165 
                                                                                
