 2009  127 2013 16.7 L  21.409 -99.300 10.0  RAL  2 0.1 0.1LRAL                1
 GAP=193        0.85       2.5     0.7  9.3 -0.1265E+01 -0.5414E+00  0.2631E+01E
 ACTION:UPD 12-06-08 11:37 OP:RALL STATUS:               ID:20090127201316     I
 2009-01-27-2013-06S.PLUR1_006                                                 6
 STAT SP IPHASW D HRMM SECON CODA AMPLIT PERI AZIMU VELO AIN AR TRES W  DIS CAZ7
 LA4  SN IP       2013 19.12                             147    0.1110 8.29 354 
 LA4  SZ E        2013 19.14                  176.1  8.1      3        8.29 354 
 LA4  SE IS       2013 20.92                             147    0.2310 8.29 354 
 LA4  SZ  AML     2013 21.35         3.4 0.68                          8.29 354 
 LZ4  SN IP       2013 18.90                             140   -0.2010 9.24 160 
 LZ4  SZ E        2013 19.12                  342.4 12.8      2        9.24 160 
 LZ4  SE IS       2013 20.70                             140   -0.1410 9.24 160 
 LZ4  SZ  AML     2013 22.48         8.3 0.16                          9.24 160 
                                                                                
