 2009  128 0310 44.4 L  21.703 -99.347 10.0  RAL  1 0.0 1.5LRAL                1
 GAP=360        0.30       3.9     1.0  0.0 -0.2524E+01 -0.5414E+00  0.2631E+01E
 ACTION:UPD 12-06-08 11:37 OP:RALL STATUS:               ID:20090128031044     I
 2009-01-28-0310-34S.PLUR1_003                                                 6
 STAT SP IPHASW D HRMM SECON CODA AMPLIT PERI AZIMU VELO AIN AR TRES W  DIS CAZ7
 LA4  SZ E         310 48.87                  350.8  7.3      0        24.6 171 
 LA4  SN IP        310 48.90                             108    0.0110 24.6 171 
 LA4  SE IS        310 52.12                             108   -0.0110 24.6 171 
 LA4  SZ  AML      310 55.24        78.0 0.38                          24.6 171 
                                                                                
