 2009  128 0554 23.6 L  21.628 -99.367 10.0  RAL  1 0.0 0.4LRAL                1
 GAP=360        0.30       3.9     1.7  0.0 -0.6176E+01 -0.5414E+00  0.2631E+01E
 ACTION:UPD 12-06-08 11:37 OP:RALL STATUS:               ID:20090128055423     I
 2009-01-28-0554-15S.PLUR1_003                                                 6
 STAT SP IPHASW D HRMM SECON CODA AMPLIT PERI AZIMU VELO AIN AR TRES W  DIS CAZ7
 LA4  SN IP        554 26.95                             118    0.0010 17.0 159 
 LA4  SZ E         554 26.98                  339.3  9.4      0        17.0 159 
 LA4  SE IS        554 29.40                             118    0.0010 17.0 159 
 LA4  SZ  AML      554 29.93         8.2 0.52                          17.0 159 
                                                                                
