 2009  128 1410 40.8 R  22.090 -99.636 10.0  RAL  1 0.0 1.4LRAL                1
 GAP=360        0.30       3.4     2.6  0.0 -0.4339E+01 -0.3910E+08  0.1328E+09E
 ACTION:UPD 12-06-08 11:37 OP:RALL STATUS:               ID:20090128141040     I
 2009-01-28-1410-41S.PLUR1_003                                                 6
 STAT SP IPHASW D HRMM SECON CODA AMPLIT PERI AZIMU VELO AIN AR TRES W  DIS CAZ7
 LA4  SZ E        1410 52.82                  333.3 15.4      0        75.1 153 
 LA4  SN IP       1410 52.96                              95    0.0110 75.1 153 
 LA4  SE IS       1411  1.84                              95   -0.0110 75.1 153 
 LA4  SZ  AML     1411  4.04        21.1 0.52                          75.1 153 
                                                                                
