 2009  128 1838 41.8 L  21.744 -99.289 10.0  RAL  1 0.0 0.8LRAL                1
 GAP=360        0.30       3.8     0.9  0.0  0.1085E+01 -0.3910E+08  0.1328E+09E
 ACTION:UPD 12-06-08 11:37 OP:RALL STATUS:               ID:20090128183841     I
 2009-01-28-1838-36S.PLUR1_003                                                 6
 STAT SP IPHASW D HRMM SECON CODA AMPLIT PERI AZIMU VELO AIN AR TRES W  DIS CAZ7
 LA4  SN IP       1838 46.94                             105    0.0110 28.9 184 
 LA4  SZ E        1838 47.22                    4.1  9.5      0        28.9 184 
 LA4  SE IS       1838 50.64                             105   -0.0110 28.9 184 
 LA4  SZ  AML     1838 50.92        13.1 0.30                          28.9 184 
                                                                                
