 2009  128 1227 56.2 R  22.145 -99.503  4.1  RAL  2 0.3 1.8LRAL                1
 GAP=360        4.35     999.9   999.9999.9 -0.1951E+08 -0.3910E+08  0.1328E+09E
 ACTION:UPD 12-06-08 11:37 OP:RALL STATUS:               ID:20090128122756     I
 2009-01-28-1227-56S.PLUR1_006                                                 6
 STAT SP IPHASW D HRMM SECON CODA AMPLIT PERI AZIMU VELO AIN AR TRES W  DIS CAZ7
 LA4  SZ E        1228  7.97                  357.6  9.2     13        75.9 165 
 LA4  SN IP       1228  7.99                              63   -0.5510 75.9 165 
 LA4  SE IS       1228 16.96                              63   -0.5910 75.9 165 
 LA4  SZ  AML     1228 18.76        43.1 0.40                          75.9 165 
 LZ4  SN IP       1228 11.80                              63    0.5610 93.3 165 
 LZ4  SZ E        1228 11.85                  329.1  9.6    -15        93.3 165 
 LZ4  SE IS       1228 22.80                              63    0.5810 93.3 165 
 LZ4  SZ  AML     1228 25.62        48.4 0.32                          93.3 165 
                                                                                
