 2009  128 2154 59.6 L  21.275 -99.218 10.0  RAL  1 0.0 0.7LRAL                1
 GAP=360        0.30       4.5     4.1  0.0 -0.1832E+02 -0.3910E+08  0.1328E+09E
 ACTION:UPD 12-06-08 11:37 OP:RALL STATUS:               ID:20090128215459     I
 2009-01-28-2154-53S.PLUR1_003                                                 6
 STAT SP IPHASW D HRMM SECON CODA AMPLIT PERI AZIMU VELO AIN AR TRES W  DIS CAZ7
 LZ4  SN IP       2155  1.86                             141    0.0210 8.15 319 
 LZ4  SZ E        2155  1.88                  139.2 23.9      0        8.15 319 
 LZ4  SE IS       2155  3.48                             141   -0.0210 8.15 319 
 LZ4  SZ  AML     2155  3.92        20.4 0.10                          8.15 319 
                                                                                
