 2009  129 0941 48.1 R  22.533 -99.816 10.0  RAL  1 0.0 2.0LRAL                1
 GAP=360        0.30       4.6     4.2  0.0 -0.3221E+01 -0.3910E+08  0.1328E+09E
 ACTION:UPD 12-06-08 11:37 OP:RALL STATUS:               ID:20090129094148     I
 2009-01-29-0942-02S.PLUR1_003                                                 6
 STAT SP IPHASW D HRMM SECON CODA AMPLIT PERI AZIMU VELO AIN AR TRES W  DIS CAZ7
 LZ4  SZ E         942 10.15                  337.1 16.5      0         145 157 
 LZ4  SN IP        942 10.44                              52    0.0110  145 157 
 LZ4  SE IS        942 26.76                              52   -0.0110  145 157 
 LZ4  SZ  AML      942 32.91        40.4 0.30                           145 157 
                                                                                
