 2009  129 0406  3.7 L  21.328 -99.230 10.0  RAL  1 0.0 0.5LRAL                1
 GAP=360        0.30       0.7    10.7  0.0 -0.7832E+01 -0.3910E+08  0.1328E+09E
 ACTION:UPD 12-06-08 11:37 OP:RALL STATUS:               ID:20090129040603     I
 2009-01-29-0405-57S.PLUR1_003                                                 6
 STAT SP IPHASW D HRMM SECON CODA AMPLIT PERI AZIMU VELO AIN AR TRES W  DIS CAZ7
 LZ4  SN IP        4 6  5.71                             158    0.0210 4.10 274 
 LZ4  SZ E         4 6  5.79                   94.2 83.8      0        4.10 274 
 LZ4  SE IS        4 6  7.10                             158   -0.0210 4.10 274 
 LZ4  SZ  AML      4 6  7.29        15.3 0.24                          4.10 274 
                                                                                
