 2009  129 0508 21.5 L  21.267 -99.271 10.0  RAL  1 0.2 0.3LRAL                1
 GAP=360        0.91      24.8    54.9  0.0  0.1362E+04 -0.3910E+08  0.1328E+09E
 ACTION:UPD 12-06-08 11:37 OP:RALL STATUS:               ID:20090129050821     I
 2009-01-29-0508-14S.PLUR1_003                                                 6
 STAT SP IPHASW D HRMM SECON CODA AMPLIT PERI AZIMU VELO AIN AR TRES W  DIS CAZ7
 LG3  SZ E         5 8 23.98                  244.2 19.0      0        2.11  64 
 LG3  SN IP        5 8 24.00                             169    0.5810 2.11  64 
 LG3  SE IS        5 8 24.22                             169   -0.5810 2.11  64 
 LG3  SZ  AML      5 8 24.81        10.2 0.12                          2.11  64 
                                                                                
