 2009  129 1831 16.0 L  21.501 -99.326 10.0  RAL  1 0.2 0.1LRAL                1
 GAP=360        0.75      27.5    27.5  0.0 -0.7572E+03 -0.5232E+08  0.1509E+09E
 ACTION:UPD 12-06-08 11:37 OP:RALL STATUS:               ID:20090129183116     I
 2009-01-29-1831-04S.PLUR1_003                                                 6
 STAT SP IPHASW D HRMM SECON CODA AMPLIT PERI AZIMU VELO AIN AR TRES W  DIS CAZ7
 LA4  SZ E        1831 18.28                  317.0 18.4      0        2.65 137 
 LA4  SN IP       1831 18.31                             166    0.4610 2.65 137 
 LA4  SE IS       1831 18.77                             166   -0.4610 2.65 137 
 LA4  SZ  AML     1831 18.86         6.6 0.20                          2.65 137 
                                                                                
