 2009  129 1618  3.7 R  22.544 -99.677  4.8  RAL  2 0.3 2.1LRAL                1
 GAP=359        5.09     999.9   999.9999.9 -0.2577E+08 -0.5232E+08  0.1509E+09E
 ACTION:UPD 12-06-08 11:37 OP:RALL STATUS:               ID:20090129161803     I
 2009-01-29-1618-11S.PLUR1_006                                                 6
 STAT SP IPHASW D HRMM SECON CODA AMPLIT PERI AZIMU VELO AIN AR TRES W  DIS CAZ7
 LA4  SZ E        1618 23.33                  358.4  9.2     16         123 162 
 LA4  SN IP       1618 23.65                              63    0.3210  123 162 
 LA4  SE IS       1618 37.40                              63   -0.2910  123 162 
 LA4  SZ  AML     1618 43.50        42.4 0.26                           123 162 
 LZ4  SN IP       1618 25.70                              63   -0.3210  141 163 
 LZ4  SZ E        1618 26.13                  324.1  8.4    -18         141 163 
 LZ4  SE IS       1618 42.63                              63    0.2910  141 163 
 LZ4  SZ  AML     1618 46.76        71.7 0.86                           141 163 
                                                                                
