 2009  129 1412 26.1 L  21.186 -99.441  0.0  RAL  2 0.7 2.3LRAL                1
 GAP=345       10.95      60.1    95.7999.9  0.5469E+04  0.1847E+06  0.1129E+06E
 ACTION:UPD 12-06-08 11:37 OP:RALL STATUS:               ID:20090129141226     I
 2009-01-29-1412-21S.PLUR1_006                                                 6
 STAT SP IPHASW D HRMM SECON CODA AMPLIT PERI AZIMU VELO AIN AR TRES W  DIS CAZ7
 LG3  SZ E        1412 31.13                  202.9 18.0    -39        22.0  63 
 LG3  SN IP       1412 31.13                              93    1.1310 22.0  63 
 LG3  SE IS       1412 32.50                              93   -0.3010 22.0  63 
 LG3  SZ  AML     1412 33.63       365.0 0.52                          22.0  63 
 LZ4  SZ E        1412 30.89                  262.1 10.0     34        24.0  48 
 LZ4  SN IP       1412 30.91                              92    0.5610 24.0  48 
 LZ4  SE IS       1412 32.01                              92   -1.4010 24.0  48 
 LZ4  SZ  AML     1412 32.25       768.5 0.32                          24.0  48 
                                                                                
