 2009  129 1650 15.3 L  21.291 -99.244 10.0  RAL  1 0.0 0.1LRAL                1
 GAP=360        0.31       7.4     4.8  0.0 -0.3547E+02 -0.5232E+08  0.1509E+09E
 ACTION:UPD 12-06-08 11:37 OP:RALL STATUS:               ID:20090129165015     I
 2009-01-29-1650-09S.PLUR1_003                                                 6
 STAT SP IPHASW D HRMM SECON CODA AMPLIT PERI AZIMU VELO AIN AR TRES W  DIS CAZ7
 LZ4  SN IP       1650 17.42                             153    0.0710 5.16 329 
 LZ4  SZ E        1650 17.58                  148.9 33.6      0        5.16 329 
 LZ4  SE IS       1650 18.76                             153   -0.0710 5.16 329 
 LZ4  SZ  AML     1650 20.61         6.4 0.44                          5.16 329 
                                                                                
