 2009  129 1549  2.0 R  22.461 -99.466  0.1  RAL  2 0.2 2.9LRAL                1
 SPEC LA4 S  N MO 11.8 ST  6.5 OM -0.1 f0 29.4 R0.0780 AL 3.96 WI  6.5 MW  1.8 3
 SPEC LA4 S  N T154916 K 0.000 GD  109 VP 6.20 DE 3.00 Q0440.0 QA 0.70 VS 3.60 3
 GAP=359        3.49     999.9   691.9999.9 -0.2837E+07 -0.5551E+07  0.3295E+08E
 ACTION:UPD 12-06-08 11:37 OP:RALL STATUS:               ID:20090129154902     I
 2009-01-29-1549-05S.PLUR1_006                                                 6
 STAT SP IPHASW D HRMM SECON CODA AMPLIT PERI AZIMU VELO AIN AR TRES W  DIS CAZ7
 LA4  SE IS       1549 32.78                              63   -0.1010  109 171 
 LZ4  SZ E        1549 22.61                  338.0 10.5    -12         127 171 
 LZ4  SN IP       1549 22.69                              63    0.1710  127 171 
 LZ4  SE IS       1549 37.65                              63    0.1210  127 171 
 LZ4  SZ  AML     1549 43.12       541.6 0.30                           127 171 
 LA4  SZ E        1549 19.53                    2.6 11.3     11         109 171 
 LA4  SZ  AML     1549 40.59       222.9 0.36                           109 171 
 LA4  SN IP       1549 19.66                              63   -0.1810  109 171 
                                                                                
