 2009  129 1557 23.6 L  21.640 -99.348 10.0  RAL  1 0.0 0.5LRAL                1
 GAP=360        0.30       4.1     1.1  0.0 -0.4072E+01 -0.5551E+07  0.3295E+08E
 ACTION:UPD 12-06-08 11:37 OP:RALL STATUS:               ID:20090129155723     I
 2009-01-29-1557-15S.PLUR1_003                                                 6
 STAT SP IPHASW D HRMM SECON CODA AMPLIT PERI AZIMU VELO AIN AR TRES W  DIS CAZ7
 LA4  SN IP       1557 27.09                             117    0.0310 17.8 167 
 LA4  SZ E        1557 27.10                  347.0  9.5      0        17.8 167 
 LA4  SE IS       1557 29.57                             117   -0.0310 17.8 167 
 LA4  SZ  AML     1557 29.88         8.2 0.36                          17.8 167 
                                                                                
