 2009  129 2015 49.7 L  21.650 -99.383 10.0  RAL  1 0.0 1.1LRAL                1
 GAP=360        0.30       3.7     1.8  0.0 -0.6130E+01 -0.5232E+08  0.1509E+09E
 ACTION:UPD 12-06-08 11:37 OP:RALL STATUS:               ID:20090129201549     I
 2009-01-29-2015-39S.PLUR1_003                                                 6
 STAT SP IPHASW D HRMM SECON CODA AMPLIT PERI AZIMU VELO AIN AR TRES W  DIS CAZ7
 LA4  SZ E        2015 53.49                  337.3  7.2      0        20.0 157 
 LA4  SN IP       2015 53.51                             114    0.0010 20.0 157 
 LA4  SE IS       2015 56.26                             114    0.0010 20.0 157 
 LA4  SZ  AML     2015 58.99        33.3 0.48                          20.0 157 
                                                                                
