 2009  130 0959 47.9 R  22.057-100.296 10.0  RAL  2 0.3 2.2LRAL                1
 GAP=358        4.87     999.9   999.9999.9 -0.4624E+07 -0.9568E+07  0.6856E+07E
 ACTION:UPD 12-06-08 11:37 OP:RALL STATUS:               ID:20090130095947     I
 2009-01-30-1000-00S.PLUR1_006                                                 6
 STAT SP IPHASW D HRMM SECON CODA AMPLIT PERI AZIMU VELO AIN AR TRES W  DIS CAZ7
 LZ4  SN IP       10 0  8.61                              52   -0.2910  133 127 
 LZ4  SZ E        10 0  8.64                  323.7  9.4     16         133 127 
 LZ4  SE IS       10 0 24.20                              52   -0.0310  133 127 
 LG3  SZ E        10 0  9.63                  291.8 19.4    -16         138 128 
 LG3  SN IP       10 0  9.90                              52    0.3610  138 128 
 LG3  SE IS       10 0 25.30                              52   -0.0410  138 128 
 LG3  SZ  AML     10 0 29.64        62.7 0.34                           138 128 
                                                                                
