 2009  130 0438  0.1 L  21.442 -99.307 26.9  RAL  2 0.0 0.5LRAL                1
 GAP=195        0.42       1.6     0.3  4.2 -0.2838E+00 -0.2715E-01  0.2610E+00E
 ACTION:UPD 12-06-08 11:37 OP:RALL STATUS:               ID:20090130043800     I
 2009-01-30-0437-53S.PLUR1_006                                                 6
 STAT SP IPHASW D HRMM SECON CODA AMPLIT PERI AZIMU VELO AIN AR TRES W  DIS CAZ7
 LA4  SZ E         438  4.46                  176.4 18.3      0        4.57 357 
 LA4  SN IP        438  4.50                             168   -0.0310 4.57 357 
 LA4  SE IS        438  7.71                             168   -0.0710 4.57 357 
 LA4  SZ  AML      438  8.83         5.0 0.60                          4.57 357 
 LZ4  SZ E         438  4.90                  341.5 11.7      0        12.9 163 
 LZ4  SN IP        438  4.98                             154    0.0810 12.9 163 
 LZ4  SE IS        438  8.45                             154    0.0210 12.9 163 
 LZ4  SZ  AML      438 11.29        10.0 0.82                          12.9 163 
                                                                                
