 2009  130 0743 47.8 L  21.322 -99.243 10.0  RAL  1 0.0 0.5LRAL                1
 GAP=360        0.35       5.4    16.1  0.0 -0.8767E+02 -0.2715E-01  0.2610E+00E
 ACTION:UPD 12-06-08 11:37 OP:RALL STATUS:               ID:20090130074347     I
 2009-01-30-0743-42S.PLUR1_003                                                 6
 STAT SP IPHASW D HRMM SECON CODA AMPLIT PERI AZIMU VELO AIN AR TRES W  DIS CAZ7
 LZ4  SZ E         743 49.77                  109.9 37.2      0        2.93 290 
 LZ4  SN IP        743 49.77                             164    0.1310 2.93 290 
 LZ4  SE IS        743 50.90                             164   -0.1310 2.93 290 
 LZ4  SZ  AML      743 51.77        17.6 0.54                          2.93 290 
                                                                                
