 2009  130 0322 14.3 L  21.328 -99.281 10.0  RAL  1 0.1 0.3LRAL                1
 GAP=360        1.24     999.9   216.2  0.0 -0.3155E+06 -0.5232E+08  0.1509E+09E
 ACTION:UPD 12-06-08 11:37 OP:RALL STATUS:               ID:20090130032214     I
 2009-01-30-0322-06S.PLUR1_003                                                 6
 STAT SP IPHASW D HRMM SECON CODA AMPLIT PERI AZIMU VELO AIN AR TRES W  DIS CAZ7
 LZ4  SZ E         322 16.28                  262.6 18.9      6        1.20  77 
 LZ4  SN IP        322 16.28                             173    0.1210 1.20  77 
 LZ4  SE IS        322 17.38                             173   -0.1210 1.20  77 
 LZ4  SZ  AML      322 18.08        11.5 0.18                          1.20  77 
                                                                                
