 2009  130 0818 21.2 R  21.797 -99.303  0.0  RAL  2 0.4 1.4LRAL                1
 GAP=355        5.90      47.4    16.0 47.4 -0.2496E+02 -0.3642E+02 -0.1385E+02E
 ACTION:UPD 12-06-08 11:37 OP:RALL STATUS:               ID:20090130081821     I
 2009-01-30-0818-13S.PLUR1_006                                                 6
 STAT SP IPHASW D HRMM SECON CODA AMPLIT PERI AZIMU VELO AIN AR TRES W  DIS CAZ7
 LA4  SZ E         818 26.73                   16.7  7.7     16        34.7 181 
 LA4  SN IP        818 26.75                              92   -0.5010 34.7 181 
 LA4  SE IS        818 31.44                              92   -0.2410 34.7 181 
 LA4  SZ  AML      818 36.37        69.1 0.56                          34.7 181 
 LZ4  SZ E         818 30.19                  332.3  6.8    -23        51.7 176 
 LZ4  SN IP        818 30.26                              63    0.1610 51.7 176 
 LZ4  SE IS        818 37.20                              63    0.5910 51.7 176 
 LZ4  SZ  AML      818 42.59        19.9 0.34                          51.7 176 
                                                                                
