 2009  130 1202 33.5 L  21.272 -99.241 10.0  RAL  1 0.2 0.3LRAL                1
 GAP=360        2.77     999.9   999.9  0.0  0.6390E+08  0.1183E+06 -0.4858E+05E
 ACTION:UPD 12-06-08 11:37 OP:RALL STATUS:               ID:20090130120233     I
 2009-01-30-1202-26S.PLUR1_003                                                 6
 STAT SP IPHASW D HRMM SECON CODA AMPLIT PERI AZIMU VELO AIN AR TRES W  DIS CAZ7
 LG3  SN IP       12 2 35.57                             173    0.1610 1.22 289 
 LG3  SZ E        12 2 35.88                   95.7 26.1    -12        1.22 289 
 LG3  SE IS       12 2 36.60                             173   -0.1610 1.22 289 
 LG3  SZ  AML     12 2 37.15        11.3 0.34                          1.22 289 
                                                                                
