 2009  130 1131 19.6 L  21.402 -99.483 10.0  RAL  2 1.0 0.8LRAL                1
 GAP=349       15.02      87.7   206.4705.6 -0.1731E+05  0.1183E+06 -0.4858E+05E
 ACTION:UPD 12-06-08 11:37 OP:RALL STATUS:               ID:20090130113119     I
 2009-01-30-1131-15S.PLUR1_006                                                 6
 STAT SP IPHASW D HRMM SECON CODA AMPLIT PERI AZIMU VELO AIN AR TRES W  DIS CAZ7
 LZ4  SZ E        1131 24.80                  329.8  8.8     40        23.5 110 
 LZ4  SN IP       1131 24.82                             109    0.9810 23.5 110 
 LZ4  SE IS       1131 25.32                             109   -1.6410 23.5 110 
 LZ4  SZ  AML     1131 25.38        63.7 0.16                          23.5 110 
 LG3  SZ E        1131 25.82                  240.1 28.6    -59        27.7 120 
 LG3  SN IP       1131 25.96                             106    1.4910 27.7 120 
 LG3  SE IS       1131 27.23                             106   -0.8310 27.7 120 
 LG3  SZ  AML     1131 28.88         2.9 0.54                          27.7 120 
                                                                                
