 2009  130 2325 58.0 L  21.352 -99.426 10.0  RAL  1 0.0 0.8LRAL                1
 GAP=360        0.30       0.7     4.5  0.0 -0.2710E+01  0.1183E+06 -0.4858E+05E
 ACTION:UPD 12-06-08 11:37 OP:RALL STATUS:               ID:20090130232558     I
 2009-01-30-2325-54S.PLUR1_003                                                 6
 STAT SP IPHASW D HRMM SECON CODA AMPLIT PERI AZIMU VELO AIN AR TRES W  DIS CAZ7
 LZ4  SN IP       2326  1.31                             119    0.0210 16.4  98 
 LZ4  SZ E        2326  1.33                  278.2 38.4      0        16.4  98 
 LZ4  SE IS       2326  3.65                             119   -0.0210 16.4  98 
 LZ4  SZ  AML     2326  4.00        18.5 0.54                          16.4  98 
                                                                                
