 2009  130 2241 49.4 L  21.177 -99.338 10.0  RAL  1 0.0 1.1LRAL                1
 GAP=360        0.30       3.8     1.7  0.0  0.6270E+01  0.1183E+06 -0.4858E+05E
 ACTION:UPD 12-06-08 11:37 OP:RALL STATUS:               ID:20090130224149     I
 2009-01-30-2241-43S.PLUR1_003                                                 6
 STAT SP IPHASW D HRMM SECON CODA AMPLIT PERI AZIMU VELO AIN AR TRES W  DIS CAZ7
 LZ4  SZ E        2241 52.91                  202.5 24.0      0        18.5  22 
 LZ4  SN IP       2241 52.94                             116    0.0010 18.5  22 
 LZ4  SE IS       2241 55.53                             116    0.0010 18.5  22 
 LZ4  SZ  AML     2241 56.30        38.1 0.30                          18.5  22 
                                                                                
