 2009  130 2026 24.2 L  21.313 -99.185 10.0  RAL  1 0.0 0.3LRAL                1
 GAP=360        0.30       1.2     5.8  0.0 -0.6924E+01  0.1183E+06 -0.4858E+05E
 ACTION:UPD 12-06-08 11:37 OP:RALL STATUS:               ID:20090130202624     I
 2009-01-30-2026-18S.PLUR1_003                                                 6
 STAT SP IPHASW D HRMM SECON CODA AMPLIT PERI AZIMU VELO AIN AR TRES W  DIS CAZ7
 LZ4  SZ E        2026 26.34                  102.5 12.3      0        8.97 283 
 LZ4  SN IP       2026 26.57                             138    0.0110 8.97 283 
 LZ4  SE IS       2026 28.27                             138   -0.0110 8.97 283 
 LZ4  SZ  AML     2026 28.58         9.1 0.18                          8.97 283 
                                                                                
