 2009  130 2222 31.4 L  21.298 -99.303 10.0  RAL  1 0.0 0.4LRAL                1
 GAP=360        0.32       6.6     6.8  0.0  0.4496E+02  0.1183E+06 -0.4858E+05E
 ACTION:UPD 12-06-08 11:37 OP:RALL STATUS:               ID:20090130222231     I
 2009-01-30-2222-25S.PLUR1_003                                                 6
 STAT SP IPHASW D HRMM SECON CODA AMPLIT PERI AZIMU VELO AIN AR TRES W  DIS CAZ7
 LZ4  SN IP       2222 33.48                             154    0.0910 5.03  44 
 LZ4  SZ E        2222 33.49                  224.2 22.8      0        5.03  44 
 LZ4  SE IS       2222 34.77                             154   -0.0910 5.03  44 
 LZ4  SZ  AML     2222 35.21        12.8 0.22                          5.03  44 
                                                                                
