 2009  131 0309  4.1 L  21.275 -99.235  3.7  RAL  2 0.0 0.0LRAL                1
 GAP=302        0.31       1.7     1.1  2.5 -0.1782E+01  0.1027E+01 -0.1680E+01E
 ACTION:UPD 12-06-08 11:37 OP:RALL STATUS:               ID:20090131030904     I
 2009-01-31-0308-56S.PLUR1_006                                                 6
 STAT SP IPHASW D HRMM SECON CODA AMPLIT PERI AZIMU VELO AIN AR TRES W  DIS CAZ7
 LG3  SZ E         3 9  4.97                                           1.82 272 
 LG3  SN IP        3 9  5.00                             159    0.0210 1.82 272 
 LG3  SE IS        3 9  5.61                             159   -0.0210 1.82 272 
 LG3  SZ  AML      3 9  6.31         7.3 0.10                          1.82 272 
 LZ4  SZ E         3 9  5.59                  149.9 20.7      0        7.14 330 
 LZ4  SN IP        3 9  5.59                             123    0.0210 7.14 330 
 LZ4  SE IS        3 9  6.65                             123   -0.0110 7.14 330 
 LZ4  SZ  AML      3 9  7.04        11.6 0.26                          7.14 330 
                                                                                
