 2009  131 1826 36.6 L  21.502 -99.317 10.0  RAL  1 0.1-0.2LRAL                1
 GAP=360        0.46      26.1    11.0  0.0 -0.2873E+03 -0.1408E+08  0.9738E+07E
 ACTION:UPD 12-06-08 11:37 OP:RALL STATUS:               ID:20090131182636     I
 2009-01-31-1826-25S.PLUR1_003                                                 6
 STAT SP IPHASW D HRMM SECON CODA AMPLIT PERI AZIMU VELO AIN AR TRES W  DIS CAZ7
 LA4  SZ E        1826 38.63                  338.6  8.6      0        2.16 159 
 LA4  SN IP       1826 38.68                             168    0.2410 2.16 159 
 LA4  SE IS       1826 39.58                             168   -0.2410 2.16 159 
 LA4  SZ  AML     1826 39.75         3.5 0.18                          2.16 159 
                                                                                
