 2009  131 1015 47.3 L  21.378-100.476 10.0  RAL  1 0.0 2.5LRAL                1
 GAP=360        0.30       3.3     4.0  0.0 -0.2585E+00  0.1027E+01 -0.1680E+01E
 ACTION:UPD 12-06-08 11:37 OP:RALL STATUS:               ID:20090131101547     I
 2009-01-31-1015-58S.PLUR1_003                                                 6
 STAT SP IPHASW D HRMM SECON CODA AMPLIT PERI AZIMU VELO AIN AR TRES W  DIS CAZ7
 LG3  SZ E        1016  7.21                  275.3 20.7      0         127  95 
 LG3  SN IP       1016  7.66                              92    0.0110  127  95 
 LG3  SE IS       1016 22.47                              92   -0.0110  127  95 
 LG3  SZ  AML     1016 26.61       147.7 0.46                           127  95 
                                                                                
