 2009  131 1302 39.2 R  22.268-100.034 10.0  RAL  1 0.0 2.2LRAL                1
 GAP=360        0.30       4.3     4.2  0.0 -0.5662E+01 -0.1408E+08  0.9738E+07E
 ACTION:UPD 12-06-08 11:37 OP:RALL STATUS:               ID:20090131130239     I
 2009-01-31-1302-50S.PLUR1_003                                                 6
 STAT SP IPHASW D HRMM SECON CODA AMPLIT PERI AZIMU VELO AIN AR TRES W  DIS CAZ7
 LZ4  SN IP       13 2 59.90                              52    0.0110  130 143 
 LZ4  SZ E        13 2 59.91                  322.8  8.3      0         130 143 
 LZ4  SE IS       13 3 14.96                              52   -0.0110  130 143 
 LZ4  SZ  AML     13 3 21.03        72.3 0.32                           130 143 
                                                                                
