 2009  131 1400 39.4 L  21.339 -99.267 10.0  RAL  1 0.2 0.6LRAL                1
 GAP=360        2.79     676.7   999.9  0.0 -0.7021E+06 -0.1408E+08  0.9738E+07E
 ACTION:UPD 12-06-08 11:37 OP:RALL STATUS:               ID:20090131140039     I
 2009-01-31-1400-33S.PLUR1_003                                                 6
 STAT SP IPHASW D HRMM SECON CODA AMPLIT PERI AZIMU VELO AIN AR TRES W  DIS CAZ7
 LZ4  SZ E        14 0 41.57                    1.8 28.1    -12        0.89 195 
 LZ4  SN IP       14 0 41.57                             175    0.3110 0.89 195 
 LZ4  SE IS       14 0 42.30                             175   -0.3110 0.89 195 
 LZ4  SZ  AML     14 0 42.36        23.7 0.10                          0.89 195 
                                                                                
