 2009  131 1325 46.0 R  20.409 -98.671 10.0  RAL  1 0.0 3.2LRAL                1
 GAP=360        0.30       3.5     3.5  0.0 -0.1964E+01 -0.1408E+08  0.9738E+07E
 ACTION:UPD 12-06-08 11:37 OP:RALL STATUS:               ID:20090131132546     I
 2009-01-31-1325-57S.PLUR1_003                                                 6
 STAT SP IPHASW D HRMM SECON CODA AMPLIT PERI AZIMU VELO AIN AR TRES W  DIS CAZ7
 LZ4  SN IP       1326  5.03                              93    0.0010  120 329 
 LZ4  SZ E        1326  5.12                  148.5 20.5      0         120 329 
 LZ4  SZ  AML     1326 18.90       741.6 0.66                           120 329 
 LZ4  SE IS       1326 18.95                              93    0.0010  120 329 
                                                                                
