 2009  131 1125 32.0 L  21.251 -99.238 10.0  RAL  1 0.1-0.4LRAL                1
 GAP=360        0.42      15.8     9.6  0.0 -0.1514E+03 -0.1408E+08  0.9738E+07E
 ACTION:UPD 12-06-08 11:37 OP:RALL STATUS:               ID:20090131112532     I
 2009-01-31-1125-25S.PLUR1_003                                                 6
 STAT SP IPHASW D HRMM SECON CODA AMPLIT PERI AZIMU VELO AIN AR TRES W  DIS CAZ7
 LG3  SN IP       1125 34.09                             163    0.2010 3.13 331 
 LG3  SZ E        1125 34.18                  150.6 11.5      0        3.13 331 
 LG3  SE IS       1125 35.09                             163   -0.2010 3.13 331 
 LG3  SZ  AML     1125 35.35         2.1 0.20                          3.13 331 
                                                                                
