 2009  131 1120 20.7 L  21.337 -99.293 10.0  RAL  1 0.1 0.6LRAL                1
 GAP=360        0.36       5.0    19.7  0.0 -0.9837E+02 -0.1408E+08  0.9738E+07E
 ACTION:UPD 12-06-08 11:37 OP:RALL STATUS:               ID:20090131112020     I
 2009-01-31-1120-13S.PLUR1_003                                                 6
 STAT SP IPHASW D HRMM SECON CODA AMPLIT PERI AZIMU VELO AIN AR TRES W  DIS CAZ7
 LZ4  SZ E        1120 22.63                  285.2 50.4      0        2.48 105 
 LZ4  SN IP       1120 22.67                             166    0.1310 2.48 105 
 LZ4  SE IS       1120 23.77                             166   -0.1310 2.48 105 
 LZ4  SZ  AML     1120 23.89        23.6 0.16                          2.48 105 
                                                                                
