 2009  131 1035  5.6 R  22.023-100.285 10.0  RAL  2 0.4 2.2LRAL                1
 GAP=358        6.30     999.9   999.9999.9 -0.6653E+07 -0.1408E+08  0.9738E+07E
 ACTION:UPD 12-06-08 11:37 OP:RALL STATUS:               ID:20090131103505     I
 2009-01-31-1035-17S.PLUR1_006                                                 6
 STAT SP IPHASW D HRMM SECON CODA AMPLIT PERI AZIMU VELO AIN AR TRES W  DIS CAZ7
 LZ4  SZ E        1035 26.06                  327.6  9.9     21         130 126 
 LZ4  SN IP       1035 26.07                              52   -0.1410  130 126 
 LZ4  SE IS       1035 41.09                              52   -0.1610  130 126 
 LZ4  SZ  AML     1035 44.17        87.1 0.40                           130 126 
 LG3  SZ E        1035 26.85                  285.7 21.5    -21         135 128 
 LG3  SN IP       1035 27.08                              52    0.2410  135 128 
 LG3  SE IS       1035 42.41                              52    0.0610  135 128 
 LG3  SZ  AML     1035 45.82        61.4 0.44                           135 128 
                                                                                
