 2009  131 1448 36.4 L  21.333 -99.275 10.0  RAL  1 0.1 2.1LRAL                1
 GAP=360        0.45       2.8     0.1999.9 -0.2478E+02 -0.1408E+08  0.9738E+07E
 ACTION:UPD 12-06-08 11:37 OP:RALL STATUS:               ID:20090131144836     I
 2009-01-31-1448-28S.PLUR1_003                                                 6
 STAT SP IPHASW D HRMM SECON CODA AMPLIT PERI AZIMU VELO AIN AR TRES W  DIS CAZ7
 LZ4  SZ E        1448 38.49                  287.9 17.3      0        0.59 109 
 LZ4  SN IP       1448 38.50                             177    0.2910 0.59 109 
 LZ4  SE IS       1448 39.25                             177   -0.2910 0.59 109 
 LZ4  SZ  AML     1448 39.35       641.9 0.20                          0.59 109 
                                                                                
