 2009  131 2310 30.6 L  21.679 -99.377 10.0  RAL  1 0.0 0.4LRAL                1
 GAP=360        0.30       3.8     1.5  0.0 -0.4889E+01  0.7910E+00  0.2385E+00E
 ACTION:UPD 12-06-08 11:37 OP:RALL STATUS:               ID:20090131231030     I
 2009-01-31-2310-23S.PLUR1_003                                                 6
 STAT SP IPHASW D HRMM SECON CODA AMPLIT PERI AZIMU VELO AIN AR TRES W  DIS CAZ7
 LA4  SZ E        2310 34.71                  341.9  8.7      0        22.7 162 
 LA4  SN IP       2310 34.78                             110    0.0210 22.7 162 
 LA4  SE IS       2310 37.78                             110   -0.0210 22.7 162 
 LA4  SZ  AML     2310 38.74         6.1 0.30                          22.7 162 
                                                                                
