 2009  131 2234 34.3 L  21.489 -99.409 10.0  RAL  1 0.0 0.8LRAL                1
 GAP=360        0.30       0.4     5.5  0.0 -0.1676E+01  0.7910E+00  0.2385E+00E
 ACTION:UPD 12-06-08 11:37 OP:RALL STATUS:               ID:20090131223434     I
 2009-01-31-2234-22S.PLUR1_003                                                 6
 STAT SP IPHASW D HRMM SECON CODA AMPLIT PERI AZIMU VELO AIN AR TRES W  DIS CAZ7
 LA4  SZ E        2234 36.72                  273.5 17.0      0        10.4  93 
 LA4  SN IP       2234 36.78                             134    0.0010 10.4  93 
 LA4  SE IS       2234 38.62                             134    0.0010 10.4  93 
 LA4  SZ  AML     2234 39.88        24.9 0.28                          10.4  93 
                                                                                
