 2009  131 2310 30.2 L  21.697 -99.375 10.0  RAL  1 0.0 0.5LRAL                1
 GAP=360        0.30       3.8     1.3  0.0 -0.4275E+01  0.7910E+00  0.2385E+00E
 ACTION:UPD 12-06-08 11:37 OP:RALL STATUS:               ID:20090131231031d    I
 2009-01-31-2310-23S.PLUR1_003                                                 6
 STAT SP IPHASW D HRMM SECON CODA AMPLIT PERI AZIMU VELO AIN AR TRES W  DIS CAZ7
 LA4  SN IP       2310 34.64                             108    0.0210 24.6 164 
 LA4  SZ E        2310 34.73                  343.9  9.4      0        24.6 164 
 LA4  SE IS       2310 37.85                             108   -0.0210 24.6 164 
 LA4  SZ  AML     2310 38.75         6.4 0.30                          24.6 164 
                                                                                
