 2009  131 2135 22.2 L  21.603 -99.360 10.0  RAL  1 0.0 0.9LRAL                1
 GAP=360        0.30       4.1     1.8  0.0 -0.7204E+01 -0.1408E+08  0.9738E+07E
 ACTION:UPD 12-06-08 11:37 OP:RALL STATUS:               ID:20090131213522     I
 2009-01-31-2135-11S.PLUR1_003                                                 6
 STAT SP IPHASW D HRMM SECON CODA AMPLIT PERI AZIMU VELO AIN AR TRES W  DIS CAZ7
 LA4  SZ E        2135 25.17                  338.4  8.5      0        14.2 158 
 LA4  SN IP       2135 25.17                             124    0.0110 14.2 158 
 LA4  SE IS       2135 27.34                             124   -0.0110 14.2 158 
 LA4  SZ  AML     2135 27.40        26.7 0.12                          14.2 158 
                                                                                
