 2009  131 2048 31.3 L  21.741 -99.388 10.0  RAL  1 0.0                        1
 GAP=360        0.30       3.7     1.4  0.0 -0.3990E+01 -0.1408E+08  0.9738E+07E
 ACTION:UPD 12-06-08 11:37 OP:RALL STATUS:               ID:20090131204831     I
 2009-01-31-2048-26S.PLUR1_003                                                 6
 STAT SP IPHASW D HRMM SECON CODA AMPLIT PERI AZIMU VELO AIN AR TRES W  DIS CAZ7
 LA4  SZ E        2048 36.48                  344.1  7.9      0        29.7 164 
 LA4  SN IP       2048 36.48                             104    0.0110 29.7 164 
 LA4  SE IS       2048 40.25                             104   -0.0110 29.7 164 
                                                                                
