 2009  131 2155 54.1 L  21.477 -99.345 10.1  RAL  2 0.2 2.0LRAL                1
 GAP=285        1.01       0.4     1.7  7.6  0.4825E+00  0.7910E+00  0.2385E+00E
 ACTION:UPD 12-06-08 11:37 OP:RALL STATUS:               ID:20090131215554     I
 2009-01-31-2155-40S.PLUR1_006                                                 6
 STAT SP IPHASW D HRMM SECON CODA AMPLIT PERI AZIMU VELO AIN AR TRES W  DIS CAZ7
 LA4  SZ E        2155 55.51                  258.9 13.8      0        3.84  79 
 LA4  SN IP       2155 55.56                             160   -0.4610 3.84  79 
 LA4  SE IS       2155 57.43                             160   -0.0210 3.84  79 
 LA4  SZ  AML     2155 59.93       627.5 0.34                          3.84  79 
 LZ4  SZ E        2155 57.25                  334.2  6.8      0        18.0 154 
 LZ4  SN IP       2155 57.26                             117   -0.2910 18.0 154 
 LZ4  SE IS       2156  0.87                             117    0.7710 18.0 154 
 LZ4  SZ  AML     2156  4.26       206.7 0.40                          18.0 154 
                                                                                
