 2009  131 2108  7.6 L  21.680 -99.405 10.0  RAL  1 0.0 0.7LRAL                1
 GAP=360        0.30       3.6     1.9  0.0 -0.6139E+01 -0.1408E+08  0.9738E+07E
 ACTION:UPD 12-06-08 11:37 OP:RALL STATUS:               ID:20090131210807     I
 2009-01-31-2108-00S.PLUR1_003                                                 6
 STAT SP IPHASW D HRMM SECON CODA AMPLIT PERI AZIMU VELO AIN AR TRES W  DIS CAZ7
 LA4  SZ E        21 8 11.92                  335.6  8.5      0        23.9 156 
 LA4  SN IP       21 8 11.94                             109    0.0310 23.9 156 
 LA4  SE IS       21 8 15.06                             109   -0.0310 23.9 156 
 LA4  SZ  AML     21 8 16.00        10.6 0.22                          23.9 156 
                                                                                
