 2009 12 4 1538 52.0 L  21.110 -99.004 10.0  RAL  1 0.0 0.1LRAL                1
 GAP=360        0.30       1.1     4.1  0.0 -0.3944E+01  0.4890E+07  0.4851E+07E
 ACTION:UPD 12-06-08 11:37 OP:RALL STATUS:               ID:20091204153852     I
 2009-12-04-1538-49S.PLUR1_003                                                 6
 STAT SP IPHASW D HRMM SECON CODA AMPLIT PERI AZIMU VELO AIN AR TRES W  DIS CAZ7
 LO8  SZ E        1538 56.15                  104.1  7.0      0        22.4 284 
 LO8  SN IP       1538 56.19                             111    0.0210 22.4 284 
 LO8  SE IS       1538 59.18                             111   -0.0210 22.4 284 
 LO8  SZ  AML     1538 59.97         2.8 0.30                          22.4 284 
                                                                                
