 2009 12 5 2153 12.8 L  21.223 -99.234 10.0  RAL  1 0.0 0.7LRAL                1
 GAP=360        0.30       6.9     2.5  0.0 -0.1705E+02  0.4890E+07  0.4851E+07E
 ACTION:UPD 12-06-08 11:37 OP:RALL STATUS:               ID:20091205215312     I
 2009-12-05-2153-06S.PLUR1_003                                                 6
 STAT SP IPHASW D HRMM SECON CODA AMPLIT PERI AZIMU VELO AIN AR TRES W  DIS CAZ7
 LG3  SN IP       2153 14.95                             149    0.0210 6.10 342 
 LG3  SZ E        2153 15.02                  161.6  8.9      0        6.10 342 
 LG3  SE IS       2153 16.44                             149   -0.0210 6.10 342 
 LG3  SZ  AML     2153 16.60        27.1 0.10                          6.10 342 
                                                                                
