 2009 1213 1755  9.9 L  21.258 -99.272 10.0  RAL  1 0.1 0.7LRAL                1
 GAP=360        0.62      20.9    22.3  0.0  0.4662E+03  0.4890E+07  0.4851E+07E
 ACTION:UPD 12-06-08 11:37 OP:RALL STATUS:               ID:20091213175509     I
 2009-12-13-1755-02S.PLUR1_003                                                 6
 STAT SP IPHASW D HRMM SECON CODA AMPLIT PERI AZIMU VELO AIN AR TRES W  DIS CAZ7
 LG3  SZ E        1755 12.14                  224.8 22.1      0        2.82  45 
 LG3  SN IP       1755 12.17                             165    0.3710 2.82  45 
 LG3  SE IS       1755 12.83                             165   -0.3710 2.82  45 
 LG3  SZ  AML     1755 13.01        26.3 0.10                          2.82  45 
                                                                                
