 2009 1214 1634 14.4 L  21.146 -99.180 10.0  RAL  1 0.0-0.4LRAL                1
 GAP=360        0.33       4.8    11.9  0.0 -0.5638E+02  0.4890E+07  0.4851E+07E
 ACTION:UPD 12-06-08 11:37 OP:RALL STATUS:               ID:20091214163414     I
 2009-12-14-1634-07S.PLUR1_003                                                 6
 STAT SP IPHASW D HRMM SECON CODA AMPLIT PERI AZIMU VELO AIN AR TRES W  DIS CAZ7
 LO8  SZ E        1634 16.35                  113.2  7.1      0        3.78 293 
 LO8  SN IP       1634 16.46                             160    0.0910 3.78 293 
 LO8  SE IS       1634 17.73                             160   -0.0910 3.78 293 
 LO8  SZ  AML     1634 18.16         2.1 0.18                          3.78 293 
                                                                                
