 2009 1216 0612 49.6 L  21.266 -99.289 10.0  RAL  1 0.0-0.4LRAL                1
 GAP=360        0.31       2.8    11.2  0.0  0.3136E+02  0.4890E+07  0.4851E+07E
 ACTION:UPD 12-06-08 11:37 OP:RALL STATUS:               ID:20091216061249     I
 2009-12-16-0612-43S.PLUR1_003                                                 6
 STAT SP IPHASW D HRMM SECON CODA AMPLIT PERI AZIMU VELO AIN AR TRES W  DIS CAZ7
 LG3  SZ E         612 51.52                  254.9 24.6      0        3.95  75 
 LG3  SN IP        612 51.58                             159    0.0610 3.95  75 
 LG3  SE IS        612 52.90                             159   -0.0610 3.95  75 
 LG3  SZ  AML      612 53.56         2.0 0.28                          3.95  75 
                                                                                
