 2008  710 0308 31.3 L  22.073 -99.480 10.0  RAL  2 0.4 1.4LRAL                1
 GAP=360        6.40     118.1    46.1999.9 -0.3810E+04  0.4195E+05 -0.1439E+06E
 ACTION:UPD 12-06-08 11:37 OP:RALL STATUS:               ID:20080710030831     I
 2008-07-10-0308-35S.PLUR1_006                                                 6
 STAT SP IPHASW D HRMM SECON CODA AMPLIT PERI AZIMU VELO AIN AR TRES W  DIS CAZ7
 LA4  SN IP        3 8 42.17                              95   -0.1310 67.6 165 
 LA4  SZ E         3 8 42.22                    4.4  8.8     20        67.6 165 
 LA4  SE IS        3 8 50.91                              95    0.5610 67.6 165 
 LA4  SZ  AML      3 8 51.34        13.6 0.36                          67.6 165 
 LZ4  SN IP        3 8 45.13                              94    0.1510 85.0 165 
 LZ4  SZ E         3 8 45.30                  321.1  8.4    -23        85.0 165 
 LZ4  SE IS        3 8 54.41                              94   -0.5810 85.0 165 
 LZ4  SZ  AML      3 8 57.68        29.7 0.32                          85.0 165 
                                                                                
