 2008  711 1824 38.9 L  21.344 -99.278 10.2  RAL  2 0.2 0.5LRAL                1
 GAP=200        2.52       7.8     3.8 20.7 -0.7669E+01  0.1219E+02 -0.6639E+02E
 ACTION:UPD 12-06-08 11:37 OP:RALL STATUS:               ID:20080711182438     I
 2008-07-11-1824-32S.PLUR1_006                                                 6
 STAT SP IPHASW D HRMM SECON CODA AMPLIT PERI AZIMU VELO AIN AR TRES W  DIS CAZ7
 LZ4  SN IP       1824 41.18                             171    0.3710 1.76 148 
 LZ4  SZ E        1824 41.23                  325.5  6.6     -1        1.76 148 
 LZ4  SE IS       1824 42.52                             171    0.3310 1.76 148 
 LZ4  SZ  AML     1824 42.73        38.2 0.12                          1.76 148 
 LA4  SN IP       1824 41.98                             121   -0.1510 15.7 348 
 LA4  SZ E        1824 42.09                  157.0 14.3    -10        15.7 348 
 LA4  SE IS       1824 43.92                             121   -0.5510 15.7 348 
 LA4  SZ  AML     1824 44.14         4.4 0.20                          15.7 348 
                                                                                
