 2008  712 1950 36.2 L  21.345 -99.283 10.0  RAL  2 0.3 0.7LRAL                1
 GAP=212        3.73       1.6     5.4 28.2  0.3921E+01  0.5575E+01 -0.1455E+01E
 ACTION:UPD 12-06-08 11:37 OP:RALL STATUS:               ID:20080712195036     I
 2008-07-12-1950-30S.PLUR1_006                                                 6
 STAT SP IPHASW D HRMM SECON CODA AMPLIT PERI AZIMU VELO AIN AR TRES W  DIS CAZ7
 LZ4  SZ E        1950 38.52                  316.9 12.5      0        2.13 138 
 LZ4  SN IP       1950 38.61                             168    0.5310 2.13 138 
 LZ4  SZ  AML     1950 40.14        52.6 0.52                          2.13 138 
 LZ4  SE IS       1950 40.30                             168    0.8610 2.13 138 
 LA4  SN IP       1950 38.78                             121   -0.6010 15.6 350 
 LA4  SZ E        1950 38.95                  153.4  9.1    -16        15.6 350 
 LA4  SE IS       1950 40.89                             121   -0.8010 15.6 350 
 LA4  SZ  AML     1950 41.28         9.7 0.28                          15.6 350 
                                                                                
