 2008  714 1929 45.0 L  21.367 -99.293 14.4  RAL  2 0.3 0.8LRAL                1
 GAP=203        3.32       8.0     5.7 30.3 -0.4441E+02  0.2608E+02 -0.3748E+02E
 ACTION:UPD 12-06-08 11:37 OP:RALL STATUS:               ID:20080714192945     I
 2008-07-14-1929-39S.PLUR1_006                                                 6
 STAT SP IPHASW D HRMM SECON CODA AMPLIT PERI AZIMU VELO AIN AR TRES W  DIS CAZ7
 LZ4  SN IP       1929 48.11                             171    0.4910 4.66 149 
 LZ4  SZ E        1929 48.12                  323.9  8.2     -4        4.66 149 
 LZ4  SE IS       1929 50.07                             171    0.5410 4.66 149 
 LZ4  SZ  AML     1929 50.22        33.8 0.16                          4.66 149 
 LA4  SN IP       1929 48.16                             139   -0.1310 13.0 352 
 LA4  SZ E        1929 48.21                  158.3 11.9    -13        13.0 352 
 LA4  SE IS       1929 49.79                             139   -0.9010 13.0 352 
 LA4  SZ  AML     1929 50.93        14.9 0.32                          13.0 352 
                                                                                
