 2008  714 1559 12.6 R  22.473 -99.584 13.1  RAL  2 0.5 1.6LRAL                1
 GAP=360        8.19      74.9    67.1 53.8 -0.5257E+03  0.2676E+03 -0.9182E+03E
 ACTION:UPD 12-06-08 11:37 OP:RALL STATUS:               ID:20080714155912     I
 2008-07-14-1559-25S.PLUR1_006                                                 6
 STAT SP IPHASW D HRMM SECON CODA AMPLIT PERI AZIMU VELO AIN AR TRES W  DIS CAZ7
 LA4  SZ E        1559 30.32                   11.7 11.0     26         113 165 
 LA4  SN IP       1559 30.37                              95   -0.3310  113 165 
 LA4  SE IS       1559 44.10                              95    0.1810  113 165 
 LA4  SZ  AML     1559 50.56        17.8 0.52                           113 165 
 LZ4  SZ E        1559 33.14                  315.4 12.2    -29         131 166 
 LZ4  SN IP       1559 33.29                              52    0.3410  131 166 
 LZ4  SE IS       1559 47.63                              52   -0.1910  131 166 
 LZ4  SZ  AML     1559 51.47        23.7 0.68                           131 166 
                                                                                
