 2008  715 1158 25.1 L  21.341 -99.283 10.0  RAL  2 0.3 0.0LRAL                1
 GAP=220        3.56       1.5     5.3 26.3  0.3596E+01  0.5356E+01 -0.1194E+01E
 ACTION:UPD 12-06-08 11:37 OP:RALL STATUS:               ID:20080715115825     I
 2008-07-15-1158-20S.PLUR1_006                                                 6
 STAT SP IPHASW D HRMM SECON CODA AMPLIT PERI AZIMU VELO AIN AR TRES W  DIS CAZ7
 LZ4  SZ E        1158 27.12                  310.4 17.9      0        1.78 130 
 LZ4  SN IP       1158 27.40                             170    0.4210 1.78 130 
 LZ4  SE IS       1158 29.26                             170    0.9210 1.78 130 
 LA4  SN IP       1158 27.62                             120   -0.7310 16.0 350 
 LA4  SZ E        1158 27.80                  154.2 10.5    -15        16.0 350 
 LA4  SE IS       1158 30.10                             120   -0.6110 16.0 350 
 LA4  SZ  AML     1158 30.43         3.0 0.24                          16.0 350 
                                                                                
