 2008  717 1621 51.4 L  21.933 -99.428  4.8  RAL  2 0.2 1.6LRAL                1
 GAP=360        1.46     999.9   999.9999.9 -0.1667E+08 -0.3320E+08  0.1243E+09E
 ACTION:UPD 12-06-08 11:37 OP:RALL STATUS:               ID:20080717162151     I
 2008-07-17-1621-52S.PLUR1_006                                                 6
 STAT SP IPHASW D HRMM SECON CODA AMPLIT PERI AZIMU VELO AIN AR TRES W  DIS CAZ7
 LA4  SN IP       1621 59.55                              63   -0.3410 51.2 166 
 LA4  SZ E        1621 59.64                  348.9 18.1      3        51.2 166 
 LA4  SE IS       1622  5.42                              63   -0.6510 51.2 166 
 LA4  SZ  AML     1622  8.20        45.6 0.32                          51.2 166 
 LZ4  SZ E        1622  2.51                  342.4 10.8     -3        68.6 166 
 LZ4  SN IP       1622  2.93                              63    0.3410 68.6 166 
 LZ4  SE IS       1622 11.38                              63    0.6510 68.6 166 
 LZ4  SZ  AML     1622 13.42        41.6 0.84                          68.6 166 
                                                                                
