 2008  717 2116 48.3 L  21.386 -99.271  0.0  RAL  2 0.4 0.2LRAL                1
 GAP=198        4.79      11.1     2.6255.2 -0.1147E+02  0.1767E+03 -0.1765E+04E
 ACTION:UPD 12-06-08 11:37 OP:RALL STATUS:               ID:20080717211648     I
 2008-07-17-2116-39S.PLUR1_006                                                 6
 STAT SP IPHASW D HRMM SECON CODA AMPLIT PERI AZIMU VELO AIN AR TRES W  DIS CAZ7
 LZ4  SN IP       2116 48.60                             100   -0.7610 6.11 178 
 LZ4  SZ E        2116 48.62                  346.8  8.1    -10        6.11 178 
 LZ4  SE IS       2116 49.13                             100   -1.0310 6.11 178 
 LZ4  SZ  AML     2116 49.20        35.5 0.16                          6.11 178 
 LA4  SN IP       2116 50.89                              96    0.5910 11.5 340 
 LA4  SZ E        2116 51.24                  141.9  9.2    -17        11.5 340 
 LA4  SE IS       2116 52.97                              96    1.2010 11.5 340 
 LA4  SZ  AML     2116 54.49         2.6 0.24                          11.5 340 
                                                                                
