 2008  718 2018 51.5 L  21.325 -99.252 10.0  RAL  1 0.0 0.7LRAL                1
 GAP=360        0.30       3.9     1.5  0.0 -0.5428E+01  0.1767E+03 -0.1765E+04E
 ACTION:UPD 12-06-08 11:37 OP:RALL STATUS:               ID:20080718201851     I
 2008-07-18-2018-47S.PLUR1_003                                                 6
 STAT SP IPHASW D HRMM SECON CODA AMPLIT PERI AZIMU VELO AIN AR TRES W  DIS CAZ7
 LA4  SZ E        2018 55.03                  161.2 10.0      0        18.5 341 
 LA4  SN IP       2018 55.03                             116    0.0010 18.5 341 
 LA4  SE IS       2018 57.63                             116    0.0010 18.5 341 
 LA4  SZ  AML     2018 59.11        14.8 0.20                          18.5 341 
                                                                                
