 2008  720 1827 59.5 L  21.739 -99.528 10.0  RAL  1 0.0 0.4LRAL                1
 GAP=360        0.30       3.0     2.7  0.0 -0.7056E+01  0.1767E+03 -0.1765E+04E
 ACTION:UPD 12-06-08 11:37 OP:RALL STATUS:               ID:20080720182759     I
 2008-07-20-1828-01S.PLUR1_006                                                 6
 STAT SP IPHASW D HRMM SECON CODA AMPLIT PERI AZIMU VELO AIN AR TRES W  DIS CAZ7
 LA4  SZ E        1828  5.54                  321.3 15.1      0        36.3 141 
 LA4  SN IP       1828  5.70                             101    0.0210 36.3 141 
 LA4  SE IS       1828 10.19                             101   -0.0210 36.3 141 
 LA4  SZ  AML     1828 10.59         4.2 0.32                          36.3 141 
                                                                                
