 2008  723 0051 37.4 L  21.489 -99.318 42.8  RAL  2 0.5 0.9LRAL                1
 GAP=318        5.65       6.0     9.9 65.6 -0.2471E+01  0.3150E+01 -0.1785E+01E
 ACTION:UPD 12-06-08 11:37 OP:RALL STATUS:               ID:20080723005137     I
 2008-07-23-0051-33S.PLUR1_006                                                 6
 STAT SP IPHASW D HRMM SECON CODA AMPLIT PERI AZIMU VELO AIN AR TRES W  DIS CAZ7
 LA4  SZ E         051 42.77                  294.4 10.1     -7        1.12 122 
 LA4  SN IP        051 42.83                             178   -0.9910 1.12 122 
 LA4  SE IS        051 47.65                             178   -0.8610 1.12 122 
 LA4  SZ  AML      051 48.70        10.0 0.32                          1.12 122 
 LZ4  SZ E         051 44.55                    8.5 30.8     25        18.2 164 
 LZ4  SN IP        051 44.69                             153    0.3610 18.2 164 
 LZ4  SE IS        051 50.88                             153    1.4910 18.2 164 
 LZ4  SZ  AML      051 51.76        13.6 0.20                          18.2 164 
                                                                                
