 2008  724 0454  8.6 L  21.336 -99.280 10.0  RAL  2 0.2 0.9LRAL                1
 GAP=232        2.08       0.9     3.2 14.9  0.1660E+01  0.1394E+01 -0.3617E+00E
 ACTION:UPD 12-06-08 11:37 OP:RALL STATUS:               ID:20080724045408     I
 2008-07-24-0454-00S.PLUR1_006                                                 6
 STAT SP IPHASW D HRMM SECON CODA AMPLIT PERI AZIMU VELO AIN AR TRES W  DIS CAZ7
 LZ4  SZ E         454 10.31                  295.4  7.0     -1        1.19 118 
 LZ4  SN IP        454 10.31                             173   -0.1210 1.19 118 
 LZ4  SE IS        454 11.37                             173   -0.4110 1.19 118 
 LZ4  SZ  AML      454 12.85       100.7 0.24                          1.19 118 
 LA4  SZ E         454 12.06                  160.1 10.0     -8        16.6 349 
 LA4  SN IP        454 12.08                             119    0.1810 16.6 349 
 LA4  SE IS        454 14.67                             119    0.3510 16.6 349 
 LA4  SZ  AML      454 16.26        10.4 0.20                          16.6 349 
                                                                                
