 2008  724 1045  5.8 L  21.502 -99.630 10.0  RAL  1 0.0 0.6LRAL                1
 GAP=360        0.30       0.9     4.1  0.0 -0.8895E+00  0.2120E+02 -0.6300E+01E
 ACTION:UPD 12-06-08 11:37 OP:RALL STATUS:               ID:20080724104505     I
 2008-07-24-1045-02S.PLUR1_006                                                 6
 STAT SP IPHASW D HRMM SECON CODA AMPLIT PERI AZIMU VELO AIN AR TRES W  DIS CAZ7
 LA4  SZ E        1045 11.58                  273.6 15.4      0        33.3  93 
 LA4  SN IP       1045 11.60                             102    0.0110 33.3  93 
 LA4  SE IS       1045 15.78                             102   -0.0110 33.3  93 
 LA4  SZ  AML     1045 16.47         6.8 0.28                          33.3  93 
                                                                                
