 2008  724 1037 59.7 L  21.553 -99.466 27.7  RAL  2 0.4 1.1LRAL                1
 GAP=335        4.80       4.3    12.2 56.3 -0.4213E+02  0.2120E+02 -0.6300E+01E
 ACTION:UPD 12-06-08 11:37 OP:RALL STATUS:               ID:20080724103759     I
 2008-07-24-1037-54S.PLUR1_006                                                 6
 STAT SP IPHASW D HRMM SECON CODA AMPLIT PERI AZIMU VELO AIN AR TRES W  DIS CAZ7
 LA4  SZ E        1038  4.15                  282.7 12.6    -12        18.0 115 
 LA4  SN IP       1038  4.24                             172   -0.7610 18.0 115 
 LA4  SE IS       1038  9.02                             172    0.1310 18.0 115 
 LA4  SZ  AML     1038 12.95        16.5 0.72                          18.0 115 
 LZ4  SZ E        1038  5.87                  339.0 17.8     19        32.0 140 
 LZ4  SN IP       1038  6.01                             150   -0.3910 32.0 140 
 LZ4  SE IS       1038 12.33                             150    1.0210 32.0 140 
 LZ4  SZ  AML     1038 12.81        22.4 0.20                          32.0 140 
                                                                                
