 2008  725 1221 46.8 L  21.332 -99.268 10.0  RAL  3 0.9 1.3LRAL                1
 GAP=213       15.18       7.5    17.3 92.5 -0.8331E+02  0.7309E+02 -0.2216E+02E
 ACTION:UPD 12-06-08 11:37 OP:RALL STATUS:               ID:20080725122146     I
 2008-07-25-1221-38S.PLUR1_009                                                 6
 STAT SP IPHASW D HRMM SECON CODA AMPLIT PERI AZIMU VELO AIN AR TRES W  DIS CAZ7
 LZ4  SZ E        1221 48.22                  335.3  6.7     84        0.15 240 
 LZ4  SN IP       1221 48.23                             179   -0.4110 0.15 240 
 LZ4  SE IS       1221 48.85                             179   -1.1310 0.15 240 
 LZ4  SZ  AML     1221 49.54       637.7 0.44                          0.15 240 
 LD5  SZ E        1221 50.90                   38.6  9.8     20        16.9 199 
 LD5  SN IP       1221 51.10                             118    0.9510 16.9 199 
 LD5  SE IS       1221 54.18                             118    1.5910 16.9 199 
 LD5  SZ  AML     1221 57.00         5.7 0.60                          16.9 199 
 LA4  SZ E        1221 49.86                  159.3  9.4     -6        17.4 346 
 LA4  SN IP       1221 49.87                             116   -0.3510 17.4 346 
 LA4  SE IS       1221 52.07                             116   -0.6410 17.4 346 
 LA4  SZ  AML     1221 54.05        83.8 0.56                          17.4 346 
                                                                                
