 2008  725 2234 47.1 L  22.078 -99.767  5.1  RAL  2 0.3 1.7LRAL                1
 GAP=356        5.70     794.7   584.3999.9 -0.4632E+06 -0.1084E+07  0.1476E+07E
 ACTION:UPD 12-06-08 11:37 OP:RALL STATUS:               ID:20080725223447     I
 2008-07-25-2234-50S.PLUR1_006                                                 6
 STAT SP IPHASW D HRMM SECON CODA AMPLIT PERI AZIMU VELO AIN AR TRES W  DIS CAZ7
 LA4  SN IP       2234 59.56                              63   -0.2410 81.1 144 
 LA4  SZ E        2234 59.73                  341.9  9.9     18        81.1 144 
 LA4  SE IS       2235  8.79                              63   -0.3210 81.1 144 
 LA4  SZ  AML     2235  9.03        51.6 0.28                          81.1 144 
 LZ4  SN IP       2235  2.59                              63    0.2510 97.4 148 
 LZ4  SZ E        2235  2.91                  306.7  8.8    -20        97.4 148 
 LZ4  SE IS       2235 13.79                              63    0.3010 97.4 148 
 LZ4  SZ  AML     2235 17.31        24.2 0.68                          97.4 148 
                                                                                
