 2008  726 1514 40.1 L  22.063 -99.469 22.0  RAL  2 0.1 1.9LRAL                1
 GAP=360        1.23      14.6     7.1117.9 -0.5117E+02  0.3079E+03 -0.1099E+04E
 ACTION:UPD 12-06-08 11:37 OP:RALL STATUS:               ID:20080726151440     I
 2008-07-26-1514-42S.PLUR1_006                                                 6
 STAT SP IPHASW D HRMM SECON CODA AMPLIT PERI AZIMU VELO AIN AR TRES W  DIS CAZ7
 LA4  SZ E        1514 50.97                  349.1  7.9      4        66.2 165 
 LA4  SN EP       1514 51.05                              96   -0.1110 66.2 165 
 LA4  SE IS       1514 59.30                              96    0.0610 66.2 165 
 LA4  SZ  AML     1515  1.98        42.3 0.28                          66.2 165 
 LZ4  SN IP       1514 53.79                              93    0.1110 83.6 166 
 LZ4  SZ E        1514 53.86                  341.2  7.7     -4        83.6 166 
 LZ4  SE IS       1515  3.53                              93   -0.0710 83.6 166 
 LZ4  SZ  AML     1515  8.82        78.8 0.60                          83.6 166 
                                                                                
