 2008  726 2311 37.7 R  22.192 -99.417  0.1  RAL  2 0.2 1.6LRAL                1
 GAP=359        1.98     999.9   197.5999.9 -0.2410E+06 -0.4710E+06  0.2920E+07E
 ACTION:UPD 12-06-08 11:37 OP:RALL STATUS:               ID:20080726231137     I
 2008-07-26-2311-42S.PLUR1_006                                                 6
 STAT SP IPHASW D HRMM SECON CODA AMPLIT PERI AZIMU VELO AIN AR TRES W  DIS CAZ7
 LA4  SZ E        2311 50.76                  357.6  8.2      6        79.2 172 
 LA4  SN IP       2311 50.79                              63   -0.0910 79.2 172 
 LA4  SE IS       2311 59.99                              63   -0.5210 79.2 172 
 LA4  SZ  AML     2312  1.74        20.9 0.32                          79.2 172 
 LZ4  SN IP       2311 53.65                              63    0.0810 96.6 171 
 LZ4  SZ E        2311 53.80                  344.2 10.7     -6        96.6 171 
 LZ4  SE IS       2312  5.69                              63    0.5310 96.6 171 
 LZ4  SZ  AML     2312  7.35        39.0 0.52                          96.6 171 
                                                                                
