 2008  728 0259 37.2 L  21.341 -99.295 10.0  RAL  1 0.1 1.0LRAL                1
 GAP=360        0.39       7.1    17.8  0.0 -0.1253E+03 -0.4710E+06  0.2920E+07E
 ACTION:UPD 12-06-08 11:37 OP:RALL STATUS:               ID:20080728025937     I
 2008-07-28-0259-30S.PLUR1_006                                                 6
 STAT SP IPHASW D HRMM SECON CODA AMPLIT PERI AZIMU VELO AIN AR TRES W  DIS CAZ7
 LZ4  SN IP        259 39.29                             164    0.1810 2.93 113 
 LZ4  SZ E         259 39.31                  293.1  6.6      0        2.93 113 
 LZ4  SE IS        259 40.32                             164   -0.1810 2.93 113 
 LZ4  SZ  AML      259 40.47        54.7 0.36                          2.93 113 
                                                                                
