 2008  729 0952 41.1 R  22.409 -99.410  0.0  RAL  2 0.2 1.8LRAL                1
 GAP=359        2.80     999.9   235.1999.9 -0.4578E+06 -0.8904E+06  0.7434E+07E
 ACTION:UPD 12-06-08 11:37 OP:RALL STATUS:               ID:20080729095241     I
 2008-07-29-0952-49S.PLUR1_006                                                 6
 STAT SP IPHASW D HRMM SECON CODA AMPLIT PERI AZIMU VELO AIN AR TRES W  DIS CAZ7
 LA4  SN IP        952 57.78                              63   -0.2010  103 174 
 LA4  SZ E         952 58.00                    3.0  8.6      9         103 174 
 LA4  SE IS        953 10.08                              63   -0.2310  103 174 
 LA4  SZ  AML      953 11.39        23.2 0.40                           103 174 
 LZ4  SZ E         953  0.81                  342.9  7.9     -9         120 173 
 LZ4  SN IP        953  0.84                              63    0.1810  120 173 
 LZ4  SE IS        953 15.18                              63    0.2410  120 173 
 LZ4  SZ  AML      953 18.84        45.0 0.32                           120 173 
                                                                                
