 2009  2 1 0231 47.2 L  21.262 -99.267 10.0  RAL  1 0.2 0.9LRAL                1
 GAP=360        0.88      39.0    42.1  0.0  0.1642E+04  0.7910E+00  0.2385E+00E
 ACTION:UPD 12-06-08 11:37 OP:RALL STATUS:               ID:20090201023147     I
 2009-02-01-0231-40S.PLUR1_003                                                 6
 STAT SP IPHASW D HRMM SECON CODA AMPLIT PERI AZIMU VELO AIN AR TRES W  DIS CAZ7
 LG3  SZ E         231 49.55                  225.2 27.6      0        2.12  45 
 LG3  SN IP        231 49.62                             169    0.5610 2.12  45 
 LG3  SE IS        231 49.87                             169   -0.5610 2.12  45 
 LG3  SZ  AML      231 49.99        40.7 0.10                          2.12  45 
                                                                                
