 2009  2 1 0615  4.9 L  21.670 -99.506 10.0  RAL  1 0.0 1.8LRAL                1
 GAP=360        0.30       3.2     2.4  0.0 -0.6237E+01  0.7910E+00  0.2385E+00E
 ACTION:UPD 12-06-08 11:37 OP:RALL STATUS:               ID:20090201061504     I
 2009-02-01-0615-03S.PLUR1_003                                                 6
 STAT SP IPHASW D HRMM SECON CODA AMPLIT PERI AZIMU VELO AIN AR TRES W  DIS CAZ7
 LZ4  SZ E         615 12.42                  327.0  8.6      0        44.8 147 
 LZ4  SN IP        615 12.43                              98    0.0210 44.8 147 
 LZ4  SE IS        615 17.88                              98   -0.0210 44.8 147 
 LZ4  SZ  AML      615 19.49        75.0 0.38                          44.8 147 
                                                                                
