 2009  2 1 0109 44.0 L  21.316 -99.258 10.0  RAL  1 0.2-0.9LRAL                1
 GAP=360        0.88     986.5   999.9  0.0  0.1575E+07  0.7910E+00  0.2385E+00E
 ACTION:UPD 12-06-08 11:37 OP:RALL STATUS:               ID:20090201010944     I
 2009-02-01-0109-37S.PLUR1_003                                                 6
 STAT SP IPHASW D HRMM SECON CODA AMPLIT PERI AZIMU VELO AIN AR TRES W  DIS CAZ7
 LZ4  SN IP        1 9 46.42                             169    0.5410 1.99 325 
 LZ4  SZ E         1 9 46.45                  145.6 60.5      1        1.99 325 
 LZ4  SE IS        1 9 46.69                             169   -0.5410 1.99 325 
 LZ4  SZ  AML      1 9 47.07         0.7 0.01                          1.99 325 
                                                                                
