 2009  2 1 0621  2.0 L  21.332 -99.225 10.0  RAL  1 0.0 0.2LRAL                1
 GAP=360        0.30       0.3     9.6  0.0  0.2224E+01  0.7910E+00  0.2385E+00E
 ACTION:UPD 12-06-08 11:37 OP:RALL STATUS:               ID:20090201062102     I
 2009-02-01-0620-55S.PLUR1_003                                                 6
 STAT SP IPHASW D HRMM SECON CODA AMPLIT PERI AZIMU VELO AIN AR TRES W  DIS CAZ7
 LZ4  SN IP        621  3.97                             156    0.0110 4.63 269 
 LZ4  SZ E         621  4.05                   88.5 37.7      0        4.63 269 
 LZ4  SE IS        621  5.40                             156   -0.0110 4.63 269 
 LZ4  SZ  AML      621  5.80         8.1 0.28                          4.63 269 
                                                                                
