 2009  2 1 1240 27.4 L  21.321 -99.289 10.0  RAL  1 0.2 0.3LRAL                1
 GAP=360        0.71      19.0    38.3  0.0  0.7267E+03  0.7910E+00  0.2385E+00E
 ACTION:UPD 12-06-08 11:37 OP:RALL STATUS:               ID:20090201124027     I
 2009-02-01-1240-21S.PLUR1_003                                                 6
 STAT SP IPHASW D HRMM SECON CODA AMPLIT PERI AZIMU VELO AIN AR TRES W  DIS CAZ7
 LZ4  SZ E        1240 29.64                  242.0 39.2      0        2.33  62 
 LZ4  SN IP       1240 29.69                             167    0.4410 2.33  62 
 LZ4  SE IS       1240 30.18                             167   -0.4410 2.33  62 
 LZ4  SZ  AML     1240 30.30        12.2 0.38                          2.33  62 
                                                                                
