 2009  2 1 1644 41.8 L  21.187 -99.310 10.0  RAL  1 0.2-0.3LRAL                1
 GAP=360        1.84     999.9   999.9  0.0 -0.2089E+09  0.7910E+00  0.2385E+00E
 ACTION:UPD 12-06-08 11:37 OP:RALL STATUS:               ID:20090201164441     I
 2009-02-01-1644-29S.PLUR1_003                                                 6
 STAT SP IPHASW D HRMM SECON CODA AMPLIT PERI AZIMU VELO AIN AR TRES W  DIS CAZ7
 LD5  SN IP       1644 44.05                             174    0.3710 1.10 267 
 LD5  SZ E        1644 44.06                   78.8 22.7     -7        1.10 267 
 LD5  SE IS       1644 44.66                             174   -0.3710 1.10 267 
 LD5  SZ  AML     1644 44.71         2.6 0.14                          1.10 267 
                                                                                
