 2009  2 2 1637 20.4 L  21.334 -99.287 10.0  RAL  1 0.1 0.5LRAL                1
 GAP=360        0.36       4.3    26.3  0.0 -0.1124E+03 -0.1796E+05  0.4301E+04E
 ACTION:UPD 12-06-08 11:37 OP:RALL STATUS:               ID:20090202163720     I
 2009-02-02-1637-14S.PLUR1_003                                                 6
 STAT SP IPHASW D HRMM SECON CODA AMPLIT PERI AZIMU VELO AIN AR TRES W  DIS CAZ7
 LZ4  SZ E        1637 22.37                  279.9 24.2      0        1.87 100 
 LZ4  SN IP       1637 22.39                             170    0.1310 1.87 100 
 LZ4  SE IS       1637 23.48                             170   -0.1310 1.87 100 
 LZ4  SZ  AML     1637 23.58        18.4 0.24                          1.87 100 
                                                                                
