 2009  2 2 1110 44.1 L  21.306 -99.262 10.0  RAL  1 0.1 0.2LRAL                1
 GAP=360        0.36      16.1     5.1  0.0 -0.8257E+02 -0.1796E+05  0.4301E+04E
 ACTION:UPD 12-06-08 11:37 OP:RALL STATUS:               ID:20090202111044     I
 2009-02-02-1110-37S.PLUR1_003                                                 6
 STAT SP IPHASW D HRMM SECON CODA AMPLIT PERI AZIMU VELO AIN AR TRES W  DIS CAZ7
 LZ4  SN IP       1110 46.14                             165    0.1310 2.84 343 
 LZ4  SZ E        1110 46.15                  163.4 48.0      0        2.84 343 
 LZ4  SE IS       1110 47.25                             165   -0.1310 2.84 343 
 LZ4  SZ  AML     1110 47.81         8.4 0.18                          2.84 343 
                                                                                
