 2009  2 2 1259 24.6 L  21.356 -99.281 10.0  RAL  1 0.1 0.0LRAL                1
 GAP=360        0.39      15.5     7.1  0.0 -0.1104E+03 -0.1796E+05  0.4301E+04E
 ACTION:UPD 12-06-08 11:37 OP:RALL STATUS:               ID:20090202125924     I
 2009-02-02-1259-18S.PLUR1_003                                                 6
 STAT SP IPHASW D HRMM SECON CODA AMPLIT PERI AZIMU VELO AIN AR TRES W  DIS CAZ7
 LZ4  SZ E        1259 26.61                  336.8 15.9      0        3.08 157 
 LZ4  SN IP       1259 26.67                             163    0.1710 3.08 157 
 LZ4  SE IS       1259 27.72                             163   -0.1710 3.08 157 
 LZ4  SZ  AML     1259 28.43         5.5 0.28                          3.08 157 
                                                                                
