 2009  2 2 1050 35.3 L  21.355 -99.448  5.1  RAL  2 0.6 0.8LRAL                1
 GAP=345        9.93      26.5    98.8248.6 -0.2290E+04 -0.1796E+05  0.4301E+04E
 ACTION:UPD 12-06-08 11:37 OP:RALL STATUS:               ID:20090202105035     I
 2009-02-02-1050-29S.PLUR1_006                                                 6
 STAT SP IPHASW D HRMM SECON CODA AMPLIT PERI AZIMU VELO AIN AR TRES W  DIS CAZ7
 LZ4  SZ E        1050 38.97                  297.0 21.9     19        18.7  98 
 LZ4  SN IP       1050 38.99                              63    0.6210 18.7  98 
 LZ4  SE IS       1050 39.75                              63   -0.8610 18.7  98 
 LZ4  SZ  AML     1050 39.86        55.7 0.16                          18.7  98 
 LG3  SZ E        1050 39.70                  249.1 27.8    -43        22.1 113 
 LG3  SN IP       1050 39.74                              63    0.8310 22.1 113 
 LG3  SE IS       1050 40.94                              63   -0.5910 22.1 113 
 LG3  SZ  AML     1050 41.12         5.5 0.18                          22.1 113 
                                                                                
