 2009  2 2 2159 32.7 L  21.193 -99.340 10.0  RAL  1 0.1-0.1LRAL                1
 GAP=360        0.42       7.8    25.5  0.0 -0.1996E+03 -0.1796E+05  0.4301E+04E
 ACTION:UPD 12-06-08 11:37 OP:RALL STATUS:               ID:20090202215932     I
 2009-02-02-2159-20S.PLUR1_003                                                 6
 STAT SP IPHASW D HRMM SECON CODA AMPLIT PERI AZIMU VELO AIN AR TRES W  DIS CAZ7
 LD5  SZ E        2159 34.71                  288.2 32.2      0        2.20 108 
 LD5  SN IP       2159 34.72                             168    0.2010 2.20 108 
 LD5  SE IS       2159 35.68                             168   -0.2010 2.20 108 
 LD5  SZ  AML     2159 35.99         4.9 0.16                          2.20 108 
                                                                                
