 2009  2 3 0249 45.5 L  21.826 -99.501 10.0  RAL  1 0.0 1.2LRAL                1
 GAP=360        0.30       3.4     2.2  0.0 -0.5682E+01 -0.1796E+05  0.4301E+04E
 ACTION:UPD 12-06-08 11:37 OP:RALL STATUS:               ID:20090203024945     I
 2009-02-03-0249-39S.PLUR1_003                                                 6
 STAT SP IPHASW D HRMM SECON CODA AMPLIT PERI AZIMU VELO AIN AR TRES W  DIS CAZ7
 LA4  SZ E         249 52.69                  332.4  7.5      0        42.8 152 
 LA4  SN IP        249 52.72                              99    0.0110 42.8 152 
 LA4  SE IS        249 57.95                              99   -0.0110 42.8 152 
 LA4  SZ  AML      249 58.66        21.0 0.26                          42.8 152 
                                                                                
