 2009  2 3 0053 39.5 L  21.242 -99.215 10.0  RAL  1 0.0 0.6LRAL                1
 GAP=360        0.30       4.3     2.6  0.0 -0.1103E+02 -0.1796E+05  0.4301E+04E
 ACTION:UPD 12-06-08 11:37 OP:RALL STATUS:               ID:20090203005339     I
 2009-02-03-0053-34S.PLUR1_003                                                 6
 STAT SP IPHASW D HRMM SECON CODA AMPLIT PERI AZIMU VELO AIN AR TRES W  DIS CAZ7
 LZ4  SZ E         053 42.11                  150.2 18.3      0        11.3 330 
 LZ4  SN IP        053 42.14                             131    0.0210 11.3 330 
 LZ4  SZ  AML      053 43.92        14.1 0.34                          11.3 330 
 LZ4  SE IS        053 44.01                             131   -0.0210 11.3 330 
                                                                                
