 2009  2 3 1817 18.2 L  21.543 -99.319 10.0  RAL  1 0.0 0.0LRAL                1
 GAP=360        0.30       6.7     1.1  0.0 -0.7365E+01 -0.1796E+05  0.4301E+04E
 ACTION:UPD 12-06-08 11:37 OP:RALL STATUS:               ID:20090203181718     I
 2009-02-03-1817-07S.PLUR1_003                                                 6
 STAT SP IPHASW D HRMM SECON CODA AMPLIT PERI AZIMU VELO AIN AR TRES W  DIS CAZ7
 LA4  SZ E        1817 20.39                  351.4  7.7      0        6.61 171 
 LA4  SN IP       1817 20.40                             147    0.0110 6.61 171 
 LA4  SE IS       1817 21.94                             147   -0.0110 6.61 171 
 LA4  SZ  AML     1817 22.03         4.9 0.10                          6.61 171 
                                                                                
