 2009  2 3 1529  5.0 L  21.199 -99.321 10.0  RAL  1 0.1-0.2LRAL                1
 GAP=360        0.48      44.2     2.2  0.0 -0.9514E+02 -0.1796E+05  0.4301E+04E
 ACTION:UPD 12-06-08 11:37 OP:RALL STATUS:               ID:20090203152905     I
 2009-02-03-1528-53S.PLUR1_003                                                 6
 STAT SP IPHASW D HRMM SECON CODA AMPLIT PERI AZIMU VELO AIN AR TRES W  DIS CAZ7
 LD5  SZ E        1529  7.09                  357.6 11.0      0        1.41 177 
 LD5  SN IP       1529  7.09                             172    0.2510 1.41 177 
 LD5  SE IS       1529  7.93                             172   -0.2510 1.41 177 
 LD5  SZ  AML     1529  8.06         3.7 0.14                          1.41 177 
                                                                                
