 2009  2 3 1516 34.2 L  21.311 -99.165 10.0  RAL  1 0.0 0.6LRAL                1
 GAP=360        0.30       1.0     5.2  0.0 -0.5002E+01 -0.1796E+05  0.4301E+04E
 ACTION:UPD 12-06-08 11:37 OP:RALL STATUS:               ID:20090203151634     I
 2009-02-03-1516-27S.PLUR1_003                                                 6
 STAT SP IPHASW D HRMM SECON CODA AMPLIT PERI AZIMU VELO AIN AR TRES W  DIS CAZ7
 LZ4  SZ E        1516 36.76                  101.3 14.1      0        11.0 281 
 LZ4  SN IP       1516 36.76                             131    0.0010 11.0 281 
 LZ4  SE IS       1516 38.64                             131    0.0010 11.0 281 
 LZ4  SZ  AML     1516 38.89        16.5 0.26                          11.0 281 
                                                                                
