 2009  2 3 1946 23.4 L  21.305 -99.213 10.0  RAL  1 0.0 0.5LRAL                1
 GAP=360        0.30       3.0     6.6  0.0 -0.1953E+02 -0.1796E+05  0.4301E+04E
 ACTION:UPD 12-06-08 11:37 OP:RALL STATUS:               ID:20090203194623     I
 2009-02-03-1946-17S.PLUR1_003                                                 6
 STAT SP IPHASW D HRMM SECON CODA AMPLIT PERI AZIMU VELO AIN AR TRES W  DIS CAZ7
 LZ4  SN IP       1946 25.58                             147    0.0210 6.55 296 
 LZ4  SZ E        1946 25.72                  115.5 14.5      0        6.55 296 
 LZ4  SE IS       1946 27.09                             147   -0.0210 6.55 296 
 LZ4  SZ  AML     1946 27.34        15.7 0.16                          6.55 296 
                                                                                
