 2009  2 3 2217 29.8 L  21.327 -99.286 10.0  RAL  1 0.1 0.9LRAL                1
 GAP=360        0.40       7.5    31.2  0.0  0.2343E+03 -0.1796E+05  0.4301E+04E
 ACTION:UPD 12-06-08 11:37 OP:RALL STATUS:               ID:20090203221729     I
 2009-02-03-2217-23S.PLUR1_003                                                 6
 STAT SP IPHASW D HRMM SECON CODA AMPLIT PERI AZIMU VELO AIN AR TRES W  DIS CAZ7
 LZ4  SN IP       2217 31.86                             170    0.1910 1.76  76 
 LZ4  SZ E        2217 31.88                  255.5  9.5      0        1.76  76 
 LZ4  SE IS       2217 32.84                             170   -0.1910 1.76  76 
 LZ4  SZ  AML     2217 33.06        42.2 0.16                          1.76  76 
                                                                                
