 2009  2 4 0843  3.1 L  21.255 -99.241 10.0  RAL  1 0.1-0.2LRAL                1
 GAP=360        0.47      21.1    11.9  0.0 -0.2516E+03 -0.1796E+05  0.4301E+04E
 ACTION:UPD 12-06-08 11:37 OP:RALL STATUS:               ID:20090204084303     I
 2009-02-04-0842-56S.PLUR1_003                                                 6
 STAT SP IPHASW D HRMM SECON CODA AMPLIT PERI AZIMU VELO AIN AR TRES W  DIS CAZ7
 LG3  SZ E         843  5.18                  152.1 10.9      0        2.63 332 
 LG3  SN IP        843  5.24                             166    0.2410 2.63 332 
 LG3  SE IS        843  6.14                             166   -0.2410 2.63 332 
 LG3  SZ  AML      843  6.32         3.3 0.42                          2.63 332 
                                                                                
