 2009  2 4 0146  0.0 L  21.356 -99.241 10.0  RAL  1 0.1 0.7LRAL                1
 GAP=360        0.37       8.5     9.9  0.0  0.8370E+02 -0.1796E+05  0.4301E+04E
 ACTION:UPD 12-06-08 11:37 OP:RALL STATUS:               ID:20090204014600     I
 2009-02-04-0145-53S.PLUR1_003                                                 6
 STAT SP IPHASW D HRMM SECON CODA AMPLIT PERI AZIMU VELO AIN AR TRES W  DIS CAZ7
 LZ4  SN IP        146  2.14                             158    0.1510 4.10 227 
 LZ4  SZ E         146  2.15                   47.2 59.0      0        4.10 227 
 LZ4  SN E         146  2.15                                           4.10 227 
 LZ4  SE IS        146  3.26                             158   -0.1510 4.10 227 
 LZ4  SZ  AML      146  4.08        24.7 0.26                          4.10 227 
                                                                                
