 2009  2 4 0511 52.1 L  21.205 -99.339 10.0  RAL  1 0.2-0.4LRAL                1
 GAP=360        0.67      22.4    23.3  0.0 -0.5210E+03 -0.1796E+05  0.4301E+04E
 ACTION:UPD 12-06-08 11:37 OP:RALL STATUS:               ID:20090204051152     I
 2009-02-04-0511-40S.PLUR1_003                                                 6
 STAT SP IPHASW D HRMM SECON CODA AMPLIT PERI AZIMU VELO AIN AR TRES W  DIS CAZ7
 LD5  SZ E         511 54.36                  315.9  8.2      0        2.85 136 
 LD5  SN IP        511 54.36                             165    0.4010 2.85 136 
 LD5  SE IS        511 54.93                             165   -0.4010 2.85 136 
 LD5  SZ  AML      511 54.99         2.3 0.18                          2.85 136 
                                                                                
