 2009  2 4 0020 10.9 L  21.350 -99.278 10.0  RAL  1 0.2 0.9LRAL                1
 GAP=360        0.98      51.8    23.3  0.0 -0.1208E+04 -0.1796E+05  0.4301E+04E
 ACTION:UPD 12-06-08 11:37 OP:RALL STATUS:               ID:20090204002010     I
 2009-02-04-0020-03S.PLUR1_003                                                 6
 STAT SP IPHASW D HRMM SECON CODA AMPLIT PERI AZIMU VELO AIN AR TRES W  DIS CAZ7
 LZ4  SZ E         020 13.25                  334.2  6.4     -2        2.31 157 
 LZ4  SN IP        020 13.25                             167    0.4610 2.31 157 
 LZ4  SE IS        020 13.69                             167   -0.4610 2.31 157 
 LZ4  SZ  AML      020 14.02        42.3 0.18                          2.31 157 
                                                                                
