 2009  2 4 0007  1.3 L  22.000 -99.685 10.0  RAL  1 0.0 1.9LRAL                1
 GAP=360        0.30       3.2     2.8  0.0 -0.5317E+01 -0.1796E+05  0.4301E+04E
 ACTION:UPD 12-06-08 11:37 OP:RALL STATUS:               ID:20090204000701     I
 2009-02-04-0007-00S.PLUR1_003                                                 6
 STAT SP IPHASW D HRMM SECON CODA AMPLIT PERI AZIMU VELO AIN AR TRES W  DIS CAZ7
 LA4  SN IP        0 7 12.55                              95    0.0110 69.1 146 
 LA4  SZ E         0 7 12.57                  325.8  8.2      0        69.1 146 
 LA4  SE IS        0 7 20.75                              95   -0.0110 69.1 146 
 LA4  SZ  AML      0 7 24.29        74.9 0.42                          69.1 146 
                                                                                
