 2009  2 4 0624 15.4 L  21.205 -99.340 10.0  RAL  1 0.2 0.1LRAL                1
 GAP=360        0.65      20.8    23.2  0.0 -0.4815E+03 -0.1796E+05  0.4301E+04E
 ACTION:UPD 12-06-08 11:37 OP:RALL STATUS:               ID:20090204062415     I
 2009-02-04-0624-02S.PLUR1_003                                                 6
 STAT SP IPHASW D HRMM SECON CODA AMPLIT PERI AZIMU VELO AIN AR TRES W  DIS CAZ7
 LD5  SN IP        624 17.66                             164    0.3910 2.88 134 
 LD5  SZ E         624 17.67                  313.8  9.6      0        2.88 134 
 LD5  SE IS        624 18.26                             164   -0.3910 2.88 134 
 LD5  SZ  AML      624 18.32         6.4 0.20                          2.88 134 
                                                                                
