 2009  2 4 0431 29.6 L  21.351 -99.277 10.0  RAL  1 0.1 0.6LRAL                1
 GAP=360        0.42      22.6     8.3  0.0 -0.1882E+03 -0.1796E+05  0.4301E+04E
 ACTION:UPD 12-06-08 11:37 OP:RALL STATUS:               ID:20090204043129     I
 2009-02-04-0431-22S.PLUR1_003                                                 6
 STAT SP IPHASW D HRMM SECON CODA AMPLIT PERI AZIMU VELO AIN AR TRES W  DIS CAZ7
 LZ4  SZ E         431 31.62                  341.1 17.6      0        2.32 161 
 LZ4  SN IP        431 31.63                             167    0.2010 2.32 161 
 LZ4  SE IS        431 32.59                             167   -0.2010 2.32 161 
 LZ4  SZ  AML      431 32.98        23.5 0.22                          2.32 161 
                                                                                
