 2009  2 4 1629 44.6 L  21.323 -99.243 10.0  RAL  1 0.1 0.2LRAL                1
 GAP=360        0.37       4.9    17.4  0.0 -0.8469E+02 -0.1796E+05  0.4301E+04E
 ACTION:UPD 12-06-08 11:37 OP:RALL STATUS:               ID:20090204162944     I
 2009-02-04-1629-38S.PLUR1_003                                                 6
 STAT SP IPHASW D HRMM SECON CODA AMPLIT PERI AZIMU VELO AIN AR TRES W  DIS CAZ7
 LZ4  SN IP       1629 46.60                             164    0.1510 2.89 287 
 LZ4  SZ E        1629 46.78                  106.7 13.7      0        2.89 287 
 LZ4  SE IS       1629 47.69                             164   -0.1510 2.89 287 
 LZ4  SZ  AML     1629 48.00         8.7 0.10                          2.89 287 
                                                                                
