 2009  2 4 2303 35.2 L  21.608 -99.232 10.0  RAL  1 0.0 0.2LRAL                1
 GAP=360        0.30       3.7     2.3  0.0  0.8472E+01 -0.1796E+05  0.4301E+04E
 ACTION:UPD 12-06-08 11:37 OP:RALL STATUS:               ID:20090204230335     I
 2009-02-04-2303-26S.PLUR1_003                                                 6
 STAT SP IPHASW D HRMM SECON CODA AMPLIT PERI AZIMU VELO AIN AR TRES W  DIS CAZ7
 LA4  SZ E        23 3 38.41                   30.2  4.7      0        15.9 210 
 LA4  SN IP       23 3 38.47                             120    0.0110 15.9 210 
 LA4  SE IS       23 3 40.80                             120   -0.0110 15.9 210 
 LA4  SZ  AML     23 3 42.45         4.8 0.86                          15.9 210 
                                                                                
