 2009  2 5 0213 44.5 L  21.518 -99.348 10.0  RAL  1 0.0 0.1LRAL                1
 GAP=360        0.31       5.5     6.3  0.0 -0.3496E+02 -0.1796E+05  0.4301E+04E
 ACTION:UPD 12-06-08 11:37 OP:RALL STATUS:               ID:20090205021344     I
 2009-02-05-0213-34S.PLUR1_003                                                 6
 STAT SP IPHASW D HRMM SECON CODA AMPLIT PERI AZIMU VELO AIN AR TRES W  DIS CAZ7
 LA4  SZ E         213 46.60                  313.3  9.0      0        5.62 133 
 LA4  SN IP        213 46.60                             151    0.0610 5.62 133 
 LA4  SE IS        213 47.98                             151   -0.0610 5.62 133 
 LA4  SZ  AML      213 48.70         6.4 0.22                          5.62 133 
                                                                                
