 2009  2 5 1919 50.6 L  21.268 -99.269 10.0  RAL  1 0.2 0.9LRAL                1
 GAP=360        0.87      28.4    57.2  0.0  0.1622E+04 -0.1796E+05  0.4301E+04E
 ACTION:UPD 12-06-08 11:37 OP:RALL STATUS:               ID:20090205191950     I
 2009-02-05-1919-44S.PLUR1_003                                                 6
 STAT SP IPHASW D HRMM SECON CODA AMPLIT PERI AZIMU VELO AIN AR TRES W  DIS CAZ7
 LG3  SZ E        1919 53.07                  242.0 17.7      0        1.91  62 
 LG3  SN IP       1919 53.07                             170    0.5610 1.91  62 
 LG3  SE IS       1919 53.33                             170   -0.5610 1.91  62 
 LG3  SZ  AML     1919 53.99        45.1 0.10                          1.91  62 
                                                                                
