 2009  2 6 0851 11.7 L  21.343 -99.299 10.0  RAL  1 0.1-0.1LRAL                1
 GAP=360        0.38       6.2    15.0  0.0 -0.9293E+02 -0.1796E+05  0.4301E+04E
 ACTION:UPD 12-06-08 11:37 OP:RALL STATUS:               ID:20090206085111     I
 2009-02-06-0851-05S.PLUR1_003                                                 6
 STAT SP IPHASW D HRMM SECON CODA AMPLIT PERI AZIMU VELO AIN AR TRES W  DIS CAZ7
 LZ4  SZ E         851 13.73                  293.8 23.1      0        3.32 114 
 LZ4  SN IP        851 13.75                             162    0.1610 3.32 114 
 LZ4  SE IS        851 14.83                             162   -0.1610 3.32 114 
 LZ4  SZ  AML      851 14.98         4.3 0.16                          3.32 114 
                                                                                
