 2009  2 6 0345 49.2 L  21.305 -99.279 10.0  RAL  1 0.1 0.8LRAL                1
 GAP=360        0.36      14.7     5.3  0.0  0.7804E+02 -0.1796E+05  0.4301E+04E
 ACTION:UPD 12-06-08 11:37 OP:RALL STATUS:               ID:20090206034549     I
 2009-02-06-0345-42S.PLUR1_003                                                 6
 STAT SP IPHASW D HRMM SECON CODA AMPLIT PERI AZIMU VELO AIN AR TRES W  DIS CAZ7
 LZ4  SN IP        345 51.26                             163    0.1310 3.08  19 
 LZ4  SZ E         345 51.29                  198.6 21.4      0        3.08  19 
 LZ4  SE IS        345 52.38                             163   -0.1310 3.08  19 
 LZ4  SZ  AML      345 52.52        32.9 0.18                          3.08  19 
                                                                                
