 2009  2 6 1406 59.4 L  21.363 -99.313 10.0  RAL  1 0.0 0.4LRAL                1
 GAP=360        0.31       4.8     6.6  0.0 -0.3167E+02 -0.1796E+05  0.4301E+04E
 ACTION:UPD 12-06-08 11:37 OP:RALL STATUS:               ID:20090206140659     I
 2009-02-06-1406-53S.PLUR1_003                                                 6
 STAT SP IPHASW D HRMM SECON CODA AMPLIT PERI AZIMU VELO AIN AR TRES W  DIS CAZ7
 LZ4  SN IP       14 7  1.56                             150    0.0610 5.77 128 
 LZ4  SZ E        14 7  1.56                  307.9 99.9      0        5.77 128 
 LZ4  SE IS       14 7  2.95                             150   -0.0610 5.77 128 
 LZ4  SZ  AML     14 7  5.18        11.7 0.56                          5.77 128 
                                                                                
