 2009  2 6 1628 42.7 L  21.649 -99.291 10.0  RAL  2 0.2 1.0LRAL                1
 GAP=350        2.63      23.2     4.6 42.4  0.5851E+02 -0.4537E+02 -0.3537E+03E
 ACTION:UPD 12-06-08 11:37 OP:RALL STATUS:               ID:20090206162842     I
 2009-02-06-1628-32S.PLUR1_006                                                 6
 STAT SP IPHASW D HRMM SECON CODA AMPLIT PERI AZIMU VELO AIN AR TRES W  DIS CAZ7
 LA4  SZ E        1628 45.56                   17.0 12.0     11        18.3 186 
 LA4  SN IP       1628 45.66                             117   -0.6010 18.3 186 
 LA4  SE IS       1628 48.82                             117   -0.0310 18.3 186 
 LA4  SZ  AML     1628 51.86        27.5 0.36                          18.3 186 
 LZ4  SZ E        1628 48.69                  351.4 12.5     -4        35.2 176 
 LZ4  SN IP       1628 48.86                             101    0.1110 35.2 176 
 LZ4  SE IS       1628 53.68                             101    0.5210 35.2 176 
 LZ4  SZ  AML     1628 54.63        15.3 0.24                          35.2 176 
                                                                                
