 2009  2 6 1846 37.1 L  21.310 -99.130 10.0  RAL  2 0.6 0.3LRAL                1
 GAP=316        4.36       5.2    16.6 62.4  0.1004E+02 -0.2494E+03  0.1636E+02E
 ACTION:UPD 12-06-08 11:37 OP:RALL STATUS:               ID:20090206184637     I
 2009-02-06-1846-27S.PLUR1_006                                                 6
 STAT SP IPHASW D HRMM SECON CODA AMPLIT PERI AZIMU VELO AIN AR TRES W  DIS CAZ7
 LZ4  SZ E        1846 41.56                   82.8 30.1    -15        14.7 279 
 LZ4  SN IP       1846 41.56                             126    1.4710 14.7 279 
 LZ4  SE IS       1846 43.15                             126    0.8410 14.7 279 
 LZ4  SZ  AML     1846 44.19        21.0 0.16                          14.7 279 
 LD5  SN IP       1846 41.20                             112   -0.2010 24.0 235 
 LD5  SZ E        1846 41.21                   54.1 10.2      0        24.0 235 
 LD5  SE IS       1846 42.47                             112   -2.1010 24.0 235 
 LD5  SZ  AML     1846 44.09         1.6 0.38                          24.0 235 
                                                                                
