 2009  2 6 1616 46.2 L  21.337 -99.255 10.0  RAL  1 0.3 0.4LRAL                1
 GAP=360        1.84     194.6   274.9  0.0 -0.5347E+05 -0.1796E+05  0.4301E+04E
 ACTION:UPD 12-06-08 11:37 OP:RALL STATUS:               ID:20090206161646     I
 2009-02-06-1616-39S.PLUR1_003                                                 6
 STAT SP IPHASW D HRMM SECON CODA AMPLIT PERI AZIMU VELO AIN AR TRES W  DIS CAZ7
 LZ4  SZ E        1616 48.63                   71.5  8.4      8        1.65 244 
 LZ4  SN IP       1616 48.67                             171    0.6010 1.65 244 
 LZ4  SE IS       1616 48.82                             171   -0.6010 1.65 244 
 LZ4  SZ  AML     1616 49.07        14.2 0.22                          1.65 244 
                                                                                
