 2009  2 6 2026 47.3 L  21.238 -99.260 10.0  RAL  1 0.0 0.2LRAL                1
 GAP=360        0.30       5.1     0.6  0.0 -0.2756E+01 -0.2494E+03  0.1636E+02E
 ACTION:UPD 12-06-08 11:37 OP:RALL STATUS:               ID:20090206202647     I
 2009-02-06-2026-42S.PLUR1_003                                                 6
 STAT SP IPHASW D HRMM SECON CODA AMPLIT PERI AZIMU VELO AIN AR TRES W  DIS CAZ7
 LZ4  SZ E        2026 49.72                  174.3  9.8      0        10.3 354 
 LZ4  SN IP       2026 49.79                             134    0.0010 10.3 354 
 LZ4  SE IS       2026 51.61                             134    0.0010 10.3 354 
 LZ4  SZ  AML     2026 52.31         6.4 0.10                          10.3 354 
                                                                                
