 2009  2 7 2308 42.1 L  21.348 -99.289 10.0  RAL  1 0.1 1.1LRAL                1
 GAP=360        0.59      19.5    21.9  0.0 -0.4267E+03 -0.2494E+03  0.1636E+02E
 ACTION:UPD 12-06-08 11:37 OP:RALL STATUS:               ID:20090207230842     I
 2009-02-07-2308-34S.PLUR1_003                                                 6
 STAT SP IPHASW D HRMM SECON CODA AMPLIT PERI AZIMU VELO AIN AR TRES W  DIS CAZ7
 LZ4  SZ E        23 8 44.31                  313.6 21.1      0        2.78 134 
 LZ4  SN IP       23 8 44.35                             165    0.3410 2.78 134 
 LZ4  SE IS       23 8 45.04                             165   -0.3410 2.78 134 
 LZ4  SZ  AML     23 8 45.10        76.6 0.16                          2.78 134 
                                                                                
