 2009  2 7 2005  1.2 L  21.616 -99.426 10.0  RAL  1 0.0 1.2LRAL                1
 GAP=360        0.30       3.2     2.8  0.0 -0.8657E+01 -0.2494E+03  0.1636E+02E
 ACTION:UPD 12-06-08 11:37 OP:RALL STATUS:               ID:20090207200501     I
 2009-02-07-2004-51S.PLUR1_003                                                 6
 STAT SP IPHASW D HRMM SECON CODA AMPLIT PERI AZIMU VELO AIN AR TRES W  DIS CAZ7
 LA4  SZ E        20 5  4.76                  320.5 10.1      0        19.0 140 
 LA4  SN IP       20 5  4.86                             115    0.0110 19.0 140 
 LA4  SE IS       20 5  7.50                             115   -0.0110 19.0 140 
 LA4  SZ  AML     20 5  7.98        39.7 0.30                          19.0 140 
                                                                                
