 2009  2 8 1626  1.7 L  21.182 -99.310 10.0  RAL  1 0.3-0.2LRAL                1
 GAP=360        3.02     999.9   999.9  0.0  0.6596E+08 -0.2494E+03  0.1636E+02E
 ACTION:UPD 12-06-08 11:37 OP:RALL STATUS:               ID:20090208162601     I
 2009-02-08-1625-49S.PLUR1_003                                                 6
 STAT SP IPHASW D HRMM SECON CODA AMPLIT PERI AZIMU VELO AIN AR TRES W  DIS CAZ7
 LD5  SN IP       1626  4.00                             174    0.4810 1.16 295 
 LD5  SZ E        1626  4.01                  101.3 11.3    -13        1.16 295 
 LD5  SE IS       1626  4.39                             174   -0.4810 1.16 295 
 LD5  SZ  AML     1626  4.48         3.8 0.16                          1.16 295 
                                                                                
