 2009  2 8 1822 30.7 R  22.474 -99.581  9.8  RAL  2 0.3 2.3LRAL                1
 GAP=360        4.66      42.3    38.1 31.8 -0.1615E+03  0.8117E+02 -0.2838E+03E
 ACTION:UPD 12-06-08 11:37 OP:RALL STATUS:               ID:20090208182230     I
 2009-02-08-1822-34S.PLUR1_006                                                 6
 STAT SP IPHASW D HRMM SECON CODA AMPLIT PERI AZIMU VELO AIN AR TRES W  DIS CAZ7
 LA4  SZ E        1822 48.75                    0.6  9.1     15         113 166 
 LA4  SN IP       1822 48.82                              93    0.0710  113 166 
 LA4  SE IS       1823  1.91                              93   -0.0410  113 166 
 LA4  SZ  AML     1823  8.47        65.2 0.84                           113 166 
 LZ4  SN IP       1822 51.30                              52   -0.0610  131 166 
 LZ4  SZ E        1822 51.38                  328.6  8.4    -16         131 166 
 LZ4  SE IS       1823  6.50                              52    0.0410  131 166 
 LZ4  SZ  AML     1823 12.68       103.8 0.74                           131 166 
                                                                                
