 2009  2 8 1827 48.4 L  22.465 -99.508 10.0  RAL  1 0.0 1.8LRAL                1
 GAP=360        0.30       3.7     3.1  0.0 -0.1097E+01  0.8117E+02 -0.2838E+03E
 ACTION:UPD 12-06-08 11:37 OP:RALL STATUS:               ID:20090208182748     I
 2009-02-08-1827-51S.PLUR1_009                                                 6
 STAT SP IPHASW D HRMM SECON CODA AMPLIT PERI AZIMU VELO AIN AR TRES W  DIS CAZ7
 LA4  SZ E        1828  5.22                  349.3 10.8      0         111 169 
 LA4  SN IP       1828  6.06                              93    0.0010  111 169 
 LA4  SE IS       1828 18.97                              93    0.0010  111 169 
 LA4  SZ  AML     1828 19.41        32.4 0.18                           111 169 
                                                                                
