 2009  2 8 2344 38.4 L  21.531 -99.343 10.0  RAL  1 0.0 0.9LRAL                1
 GAP=360        0.30       3.7     1.5  0.0 -0.5001E+01  0.8117E+02 -0.2838E+03E
 ACTION:UPD 12-06-08 11:37 OP:RALL STATUS:               ID:20090208234438     I
 2009-02-08-2344-36S.PLUR1_003                                                 6
 STAT SP IPHASW D HRMM SECON CODA AMPLIT PERI AZIMU VELO AIN AR TRES W  DIS CAZ7
 LZ4  SZ E        2344 42.59                  341.1 19.8      0        23.4 161 
 LZ4  SN IP       2344 42.64                             109    0.0210 23.4 161 
 LZ4  SE IS       2344 45.71                             109   -0.0210 23.4 161 
 LZ4  SZ  AML     2344 48.54        16.7 0.50                          23.4 161 
                                                                                
