 2009  2 8 2210 25.7 L  21.331 -99.272 10.0  RAL  1 0.2 0.7LRAL                1
 GAP=360        3.14     999.9   280.8  0.0 -0.1396E+07  0.8117E+02 -0.2838E+03E
 ACTION:UPD 12-06-08 11:37 OP:RALL STATUS:               ID:20090208221025     I
 2009-02-08-2210-18S.PLUR1_003                                                 6
 STAT SP IPHASW D HRMM SECON CODA AMPLIT PERI AZIMU VELO AIN AR TRES W  DIS CAZ7
 LZ4  SZ E        2210 27.63                  267.1 15.7    -14        0.31 102 
 LZ4  SN IP       2210 27.68                             178    0.1810 0.31 102 
 LZ4  SE IS       2210 28.65                             178   -0.1810 0.31 102 
 LZ4  SZ  AML     2210 28.99        29.7 0.46                          0.31 102 
                                                                                
