 2009  2 9 0225 15.7 L  21.302 -99.298 10.0  RAL  1 0.1 0.8LRAL                1
 GAP=360        0.35       8.4     8.3  0.0  0.6962E+02  0.8117E+02 -0.2838E+03E
 ACTION:UPD 12-06-08 11:37 OP:RALL STATUS:               ID:20090209022515     I
 2009-02-09-0225-08S.PLUR1_003                                                 6
 STAT SP IPHASW D HRMM SECON CODA AMPLIT PERI AZIMU VELO AIN AR TRES W  DIS CAZ7
 LZ4  SN IP        225 17.81                             157    0.1310 4.32  42 
 LZ4  SZ E         225 18.07                  222.5 20.4      0        4.32  42 
 LZ4  SE IS        225 18.98                             157   -0.1310 4.32  42 
 LZ4  SZ  AML      225 19.28        31.3 0.16                          4.32  42 
                                                                                
