 2009  2 9 0726 11.0 L  21.503 -99.332 10.0  RAL  1 0.1 0.4LRAL                1
 GAP=360        0.49      13.9    16.7  0.0 -0.2308E+03  0.8117E+02 -0.2838E+03E
 ACTION:UPD 12-06-08 11:37 OP:RALL STATUS:               ID:20090209072611     I
 2009-02-09-0725-59S.PLUR1_003                                                 6
 STAT SP IPHASW D HRMM SECON CODA AMPLIT PERI AZIMU VELO AIN AR TRES W  DIS CAZ7
 LA4  SN IP        726 13.16                             163    0.2610 3.16 132 
 LA4  SZ E         726 13.19                  311.8 16.6      0        3.16 132 
 LA4  SE IS        726 14.04                             163   -0.2610 3.16 132 
 LA4  SZ  AML      726 14.20        13.9 0.30                          3.16 132 
                                                                                
