 2009  2 9 1248 15.0 L  21.355 -99.281 10.0  RAL  1 0.1 0.4LRAL                1
 GAP=360        0.44      18.1     8.3  0.0 -0.1502E+03  0.8117E+02 -0.2838E+03E
 ACTION:UPD 12-06-08 11:37 OP:RALL STATUS:               ID:20090209124815     I
 2009-02-09-1248-09S.PLUR1_003                                                 6
 STAT SP IPHASW D HRMM SECON CODA AMPLIT PERI AZIMU VELO AIN AR TRES W  DIS CAZ7
 LZ4  SZ E        1248 17.09                  336.9  7.3      0        2.97 157 
 LZ4  SN IP       1248 17.10                             164    0.2210 2.97 157 
 LZ4  SE IS       1248 18.05                             164   -0.2210 2.97 157 
 LZ4  SZ  AML     1248 18.09        13.1 0.72                          2.97 157 
                                                                                
