 2009  210 0313 51.0 L  21.335 -99.287 10.0  RAL  1 0.1 0.3LRAL                1
 GAP=360        0.41       7.4    28.7  0.0 -0.2111E+03  0.8117E+02 -0.2838E+03E
 ACTION:UPD 12-06-08 11:37 OP:RALL STATUS:               ID:20090210031351     I
 2009-02-10-0313-44S.PLUR1_003                                                 6
 STAT SP IPHASW D HRMM SECON CODA AMPLIT PERI AZIMU VELO AIN AR TRES W  DIS CAZ7
 LZ4  SZ E         313 53.02                  285.4 28.6      0        1.92 105 
 LZ4  SN IP        313 53.03                             169    0.1910 1.92 105 
 LZ4  SE IS        313 54.01                             169   -0.1910 1.92 105 
 LZ4  SZ  AML      313 55.46         9.9 0.50                          1.92 105 
                                                                                
