 2009  211 0503 22.5 L  21.244 -99.278 10.0  RAL  1 0.0 0.2LRAL                1
 GAP=360        0.30       5.3     0.6  0.0  0.2694E+01  0.8117E+02 -0.2838E+03E
 ACTION:UPD 12-06-08 11:37 OP:RALL STATUS:               ID:20090211050322     I
 2009-02-11-0503-17S.PLUR1_003                                                 6
 STAT SP IPHASW D HRMM SECON CODA AMPLIT PERI AZIMU VELO AIN AR TRES W  DIS CAZ7
 LZ4  SZ IP        5 3 24.89                             136    0.0010 9.67   5 
 LZ4  SN E         5 3 25.03                  185.2 48.0      0        9.67   5 
 LZ4  SE IS        5 3 26.66                             136    0.0010 9.67   5 
 LZ4  SN  AML      5 3 26.94         7.3 0.12                          9.67   5 
                                                                                
