 2009  211 0141 45.9 L  21.309 -99.251 10.0  RAL  1 0.1 0.6LRAL                1
 GAP=360        0.60      19.9    16.9  0.0 -0.3363E+03  0.8117E+02 -0.2838E+03E
 ACTION:UPD 12-06-08 11:37 OP:RALL STATUS:               ID:20090211014145     I
 2009-02-11-0141-39S.PLUR1_003                                                 6
 STAT SP IPHASW D HRMM SECON CODA AMPLIT PERI AZIMU VELO AIN AR TRES W  DIS CAZ7
 LZ4  SN IP        141 48.15                             163    0.3510 3.16 322 
 LZ4  SZ E         141 48.19                  141.5  7.2      0        3.16 322 
 LZ4  SE IS        141 48.84                             163   -0.3510 3.16 322 
 LZ4  SZ  AML      141 49.54        23.1 0.44                          3.16 322 
                                                                                
