 2009  211 0619 39.0 L  21.626 -99.386 10.0  RAL  1 0.0 0.3LRAL                1
 GAP=360        0.30       3.7     2.1  0.0 -0.7367E+01  0.8117E+02 -0.2838E+03E
 ACTION:UPD 12-06-08 11:37 OP:RALL STATUS:               ID:20090211061939     I
 2009-02-11-0619-32S.PLUR1_003                                                 6
 STAT SP IPHASW D HRMM SECON CODA AMPLIT PERI AZIMU VELO AIN AR TRES W  DIS CAZ7
 LA4  SN IP        619 42.41                             117    0.0010 17.7 153 
 LA4  SZ E         619 42.46                  333.2 12.5      0        17.7 153 
 LA4  SE IS        619 44.92                             117    0.0010 17.7 153 
 LA4  SZ  AML      619 46.98         6.1 0.26                          17.7 153 
                                                                                
