 2009  211 2350 40.1 L  21.767 -99.470 10.0  RAL  1 0.0 0.8LRAL                1
 GAP=360        0.30       3.4     2.1  0.0 -0.6002E+01  0.8117E+02 -0.2838E+03E
 ACTION:UPD 12-06-08 11:37 OP:RALL STATUS:               ID:20090211235040     I
 2009-02-11-2350-35S.PLUR1_003                                                 6
 STAT SP IPHASW D HRMM SECON CODA AMPLIT PERI AZIMU VELO AIN AR TRES W  DIS CAZ7
 LA4  SN IP       2350 46.25                             101    0.0210 35.5 152 
 LA4  SZ E        2350 46.27                  332.1 10.3      0        35.5 152 
 LA4  SE IS       2350 50.66                             101   -0.0210 35.5 152 
 LA4  SZ  AML     2350 51.73        10.3 0.66                          35.5 152 
                                                                                
