 2009  212 1137 27.6 L  22.045 -99.739 10.0  RAL  1 0.0 2.4LRAL                1
 GAP=360        0.30       3.4     3.0  0.0 -0.3842E+01  0.8117E+02 -0.2838E+03E
 ACTION:UPD 12-06-08 11:37 OP:RALL STATUS:               ID:20090212113727     I
 2009-02-12-1137-33S.PLUR1_003                                                 6
 STAT SP IPHASW D HRMM SECON CODA AMPLIT PERI AZIMU VELO AIN AR TRES W  DIS CAZ7
 LZ4  SZ E        1137 42.44                  328.5  8.9      0        92.8 148 
 LZ4  SN IP       1137 42.53                              94    0.0110 92.8 148 
 LZ4  SE IS       1137 53.40                              94   -0.0110 92.8 148 
 LZ4  SZ  AML     1137 55.46       140.8 0.50                          92.8 148 
                                                                                
