 2009  212 1034 30.8 L  21.989 -99.713 10.0  RAL  1 0.0 1.7LRAL                1
 GAP=360        0.30       3.4     2.9  0.0 -0.4270E+01  0.8117E+02 -0.2838E+03E
 ACTION:UPD 12-06-08 11:37 OP:RALL STATUS:               ID:20090212103430     I
 2009-02-12-1034-37S.PLUR1_003                                                 6
 STAT SP IPHASW D HRMM SECON CODA AMPLIT PERI AZIMU VELO AIN AR TRES W  DIS CAZ7
 LZ4  SN IP       1034 44.69                              94    0.0110 86.1 148 
 LZ4  SZ E        1034 44.83                  327.9 29.2      0        86.1 148 
 LZ4  SE IS       1034 54.81                              94   -0.0110 86.1 148 
 LZ4  SZ  AML     1034 59.04        38.0 0.30                          86.1 148 
                                                                                
