 2009  212 1210 40.9 L  21.172 -99.299 10.0  RAL  1 0.1-0.4LRAL                1
 GAP=360        0.63      17.7    26.9  0.0 -0.4763E+03  0.8117E+02 -0.2838E+03E
 ACTION:UPD 12-06-08 11:37 OP:RALL STATUS:               ID:20090212121040     I
 2009-02-12-1210-29S.PLUR1_003                                                 6
 STAT SP IPHASW D HRMM SECON CODA AMPLIT PERI AZIMU VELO AIN AR TRES W  DIS CAZ7
 LD5  SN IP       1210 43.19                             165    0.3810 2.74 305 
 LD5  SZ E        1210 43.27                  125.1 22.6      0        2.74 305 
 LD5  SE IS       1210 43.81                             165   -0.3810 2.74 305 
 LD5  SZ  AML     1210 43.97         2.1 0.38                          2.74 305 
                                                                                
