 2009  213 0326 53.2 L  21.261 -99.252 10.0  RAL  1 0.0 0.7LRAL                1
 GAP=360        0.30       5.8     1.5  0.0 -0.8666E+01  0.8117E+02 -0.2838E+03E
 ACTION:UPD 12-06-08 11:37 OP:RALL STATUS:               ID:20090213032653     I
 2009-02-13-0326-34S.PLUR1_003                                                 6
 STAT SP IPHASW D HRMM SECON CODA AMPLIT PERI AZIMU VELO AIN AR TRES W  DIS CAZ7
 LZ4  SZ E         326 55.49                  166.6 24.1      0        7.90 347 
 LZ4  SN IP        326 55.51                             142    0.0210 7.90 347 
 LZ4  SE IS        326 57.12                             142   -0.0210 7.90 347 
 LZ4  SZ  AML      326 57.99        24.7 0.10                          7.90 347 
                                                                                
