 2009  213 0945 42.2 L  21.200 -99.219 10.0  RAL  1 0.0 0.8LRAL                1
 GAP=360        0.30       4.1     1.6  0.0 -0.6260E+01  0.8117E+02 -0.2838E+03E
 ACTION:UPD 12-06-08 11:37 OP:RALL STATUS:               ID:20090213094542     I
 2009-02-13-0945-38S.PLUR1_003                                                 6
 STAT SP IPHASW D HRMM SECON CODA AMPLIT PERI AZIMU VELO AIN AR TRES W  DIS CAZ7
 LZ4  SN IP        945 45.32                             121    0.0010 15.4 340 
 LZ4  SZ E         945 45.37                  160.3 16.4      0        15.4 340 
 LZ4  SE IS        945 47.60                             121    0.0010 15.4 340 
 LZ4  SZ  AML      945 48.71        18.0 0.10                          15.4 340 
                                                                                
