 2009  213 0431 54.9 L  21.349 -99.260 10.0  RAL  1 0.1 0.6LRAL                1
 GAP=360        0.61     568.3   999.9  0.0 -0.7229E+06  0.8117E+02 -0.2838E+03E
 ACTION:UPD 12-06-08 11:37 OP:RALL STATUS:               ID:20090213043154     I
 2009-02-13-0431-48S.PLUR1_003                                                 6
 STAT SP IPHASW D HRMM SECON CODA AMPLIT PERI AZIMU VELO AIN AR TRES W  DIS CAZ7
 LZ4  SZ E         431 57.14                   27.1 17.8      0        2.26 207 
 LZ4  SN IP        431 57.17                             168    0.3610 2.26 207 
 LZ4  SE IS        431 57.81                             168   -0.3610 2.26 207 
 LZ4  SZ  AML      431 58.19        20.6 0.18                          2.26 207 
                                                                                
