 2009  213 0356 22.6 L  21.307 -99.288 10.0  RAL  1 0.1-0.1LRAL                1
 GAP=360        0.46      15.2    12.3  0.0  0.1869E+03  0.8117E+02 -0.2838E+03E
 ACTION:UPD 12-06-08 11:37 OP:RALL STATUS:               ID:20090213035622     I
 2009-02-13-0356-16S.PLUR1_003                                                 6
 STAT SP IPHASW D HRMM SECON CODA AMPLIT PERI AZIMU VELO AIN AR TRES W  DIS CAZ7
 LZ4  SZ IP        356 24.71                             163    0.2410 3.24  37 
 LZ4  SN E         356 24.78                  217.0 54.5      0        3.24  37 
 LZ4  SE IS        356 25.63                             163   -0.2410 3.24  37 
 LZ4  SN  AML      356 25.72         4.4 0.18                          3.24  37 
                                                                                
