 2009  213 1004 55.0 L  21.276 -99.020 10.0  RAL  1 0.0 0.7LRAL                1
 GAP=360        0.30       1.1     4.0  0.0 -0.3447E+01  0.8117E+02 -0.2838E+03E
 ACTION:UPD 12-06-08 11:37 OP:RALL STATUS:               ID:20090213100455     I
 2009-02-13-1004-54S.PLUR1_003                                                 6
 STAT SP IPHASW D HRMM SECON CODA AMPLIT PERI AZIMU VELO AIN AR TRES W  DIS CAZ7
 LZ4  SN IP       10 4 59.79                             107    0.0110 26.6 283 
 LZ4  SZ E        10 4 59.96                  103.1 21.3      0        26.6 283 
 LZ4  SE IS       10 5  3.22                             107   -0.0110 26.6 283 
 LZ4  SZ  AML     10 5  4.30        10.9 0.66                          26.6 283 
                                                                                
