 2009  213 2229  7.7 L  21.337 -99.264 10.0  RAL  2 0.6 0.7LRAL                1
 GAP=236       10.85      69.0    26.5 98.7 -0.1333E+04  0.1305E+04 -0.4477E+04E
 ACTION:UPD 12-06-08 11:37 OP:RALL STATUS:               ID:20090213222907     I
 2009-02-13-2228-59S.PLUR1_006                                                 6
 STAT SP IPHASW D HRMM SECON CODA AMPLIT PERI AZIMU VELO AIN AR TRES W  DIS CAZ7
 LZ4  SN IP       2229  9.44                             177   -0.0810 0.94 220 
 LZ4  SZ E        2229  9.46                  347.8 12.4     52        0.94 220 
 LZ4  SE IS       2229 10.04                             177   -0.8210 0.94 220 
 LZ4  SZ  AML     2229 10.35        80.7 0.18                          0.94 220 
 LA4  SZ E        2229 11.39                  156.8  6.5     -6        16.9 344 
 LA4  SN IP       2229 11.39                             117    0.3710 16.9 344 
 LA4  SE IS       2229 14.00                             117    0.5410 16.9 344 
 LA4  SZ  AML     2229 14.36         5.9 0.18                          16.9 344 
                                                                                
