 2009  214 0830 47.4 L  21.354 -99.283 10.0  RAL  1 0.1 0.5LRAL                1
 GAP=360        0.43      17.1    10.4  0.0 -0.1766E+03  0.1305E+04 -0.4477E+04E
 ACTION:UPD 12-06-08 11:37 OP:RALL STATUS:               ID:20090214083047     I
 2009-02-14-0830-41S.PLUR1_003                                                 6
 STAT SP IPHASW D HRMM SECON CODA AMPLIT PERI AZIMU VELO AIN AR TRES W  DIS CAZ7
 LZ4  SZ E         830 49.51                  330.5 13.5      0        2.94 150 
 LZ4  SN IP        830 49.53                             164    0.2110 2.94 150 
 LZ4  SE IS        830 50.49                             164   -0.2110 2.94 150 
 LZ4  SZ  AML      830 51.25        18.3 0.24                          2.94 150 
                                                                                
