 2009  214 2134 58.4 L  21.588 -99.313 10.0  RAL  1 0.0 0.1LRAL                1
 GAP=360        0.30       4.8     0.4  0.0 -0.1004E+01  0.1305E+04 -0.4477E+04E
 ACTION:UPD 12-06-08 11:37 OP:RALL STATUS:               ID:20090214213458     I
 2009-02-14-2134-48S.PLUR1_003                                                 6
 STAT SP IPHASW D HRMM SECON CODA AMPLIT PERI AZIMU VELO AIN AR TRES W  DIS CAZ7
 LA4  SZ E        2135  0.92                  357.7  8.7      0        11.6 178 
 LA4  SN IP       2135  1.03                             130    0.0010 11.6 178 
 LA4  SE IS       2135  2.97                             130    0.0010 11.6 178 
 LA4  SZ  AML     2135  2.98         5.2 0.10                          11.6 178 
                                                                                
