 2009  215 0411 55.0 L  21.349 -99.298 10.0  RAL  1 0.1 0.4LRAL                1
 GAP=360        0.37       7.9    12.4  0.0 -0.9841E+02  0.7295E+01 -0.4340E+00E
 ACTION:UPD 12-06-08 11:37 OP:RALL STATUS:               ID:20090215041155     I
 2009-02-15-0411-49S.PLUR1_003                                                 6
 STAT SP IPHASW D HRMM SECON CODA AMPLIT PERI AZIMU VELO AIN AR TRES W  DIS CAZ7
 LZ4  SN IP        411 57.03                             161    0.1510 3.60 124 
 LZ4  SZ E         411 57.06                  304.3 99.9      0        3.60 124 
 LZ4  SE IS        411 58.13                             161   -0.1510 3.60 124 
 LZ4  SZ  AML      411 58.22        14.5 0.22                          3.60 124 
                                                                                
