 2009  215 0818 57.1 L  21.331 -99.261 10.0  RAL  1 0.2 0.3LRAL                1
 GAP=360        1.86     999.9   155.4  0.0  0.3227E+06  0.7295E+01 -0.4340E+00E
 ACTION:UPD 12-06-08 11:37 OP:RALL STATUS:               ID:20090215081857     I
 2009-02-15-0818-50S.PLUR1_003                                                 6
 STAT SP IPHASW D HRMM SECON CODA AMPLIT PERI AZIMU VELO AIN AR TRES W  DIS CAZ7
 LZ4  SZ E         818 59.13                   78.2 15.6     -7        0.90 267 
 LZ4  SN IP        818 59.27                             175    0.3410 0.90 267 
 LZ4  SE IS        818 59.94                             175   -0.3410 0.90 267 
 LZ4  SZ  AML      819  1.06        11.4 0.24                          0.90 267 
                                                                                
