 2009  215 0826 36.4 L  21.606 -99.325 10.0  RAL  1 0.0 0.3LRAL                1
 GAP=360        0.30       4.5     0.7  0.0 -0.2547E+01  0.7295E+01 -0.4340E+00E
 ACTION:UPD 12-06-08 11:37 OP:RALL STATUS:               ID:20090215082636     I
 2009-02-15-0826-27S.PLUR1_003                                                 6
 STAT SP IPHASW D HRMM SECON CODA AMPLIT PERI AZIMU VELO AIN AR TRES W  DIS CAZ7
 LA4  SN IP        826 39.34                             125    0.0010 13.7 173 
 LA4  SZ E         826 39.36                  353.2  7.6      0        13.7 173 
 LA4  SE IS        826 41.47                             125    0.0010 13.7 173 
 LA4  SZ  AML      826 41.61         7.4 0.12                          13.7 173 
                                                                                
