 2009  215 0138 51.7 L  21.312 -99.284 10.0  RAL  1 0.2 1.1LRAL                1
 GAP=360        0.67      27.5    21.5  0.0  0.5907E+03  0.1305E+04 -0.4477E+04E
 ACTION:UPD 12-06-08 11:37 OP:RALL STATUS:               ID:20090215013851     I
 2009-02-15-0138-45S.PLUR1_003                                                 6
 STAT SP IPHASW D HRMM SECON CODA AMPLIT PERI AZIMU VELO AIN AR TRES W  DIS CAZ7
 LZ4  SN IP        138 53.94                             166    0.4110 2.62  36 
 LZ4  SZ E         138 53.97                  216.1 27.8      0        2.62  36 
 LZ4  SE IS        138 54.50                             166   -0.4110 2.62  36 
 LZ4  SZ  AML      138 54.60        71.3 0.16                          2.62  36 
                                                                                
