 2009  215 0249 51.5 Ll 21.328 -99.276  4.9  RAL  2 0.3 2.3LRAL                1
 GAP=281        4.37       1.4     7.2 12.2  0.3667E+01  0.7295E+01 -0.4340E+00E
 ACTION:UPD 12-06-08 11:37 OP:RALL STATUS:               ID:20090215024951     I
 2009-02-15-0249-40S.PLUR1_006                                                 6
 STAT SP IPHASW D HRMM SECON CODA AMPLIT PERI AZIMU VELO AIN AR TRES W  DIS CAZ7
 LZ4  SZ E         249 52.15                  266.1 12.1     18        0.69  68 
 LZ4  SN IP        249 52.18                             173   -0.3510 0.69  68 
 LZ4  SE IS        249 53.28                             173   -0.0110 0.69  68 
 LZ4  SZ  AML      249 53.33      3662.9 0.24                          0.69  68 
 LA4  SN IP        249 54.36                              63   -0.3510 17.5 349 
 LA4  SZ E         249 54.39                  158.9  8.6     -9        17.5 349 
 LA4  SE IS        249 57.77                              63    0.7110 17.5 349 
 LA4  SZ  AML      250  1.23       359.4 0.58                          17.5 349 
                                                                                
