 2009  215 1215 21.5 L  21.313 -99.301 10.0  RAL  1 0.1 0.3LRAL                1
 GAP=360        0.35       6.7    11.7  0.0  0.7789E+02  0.7295E+01 -0.4340E+00E
 ACTION:UPD 12-06-08 11:37 OP:RALL STATUS:               ID:20090215121521     I
 2009-02-15-1215-15S.PLUR1_003                                                 6
 STAT SP IPHASW D HRMM SECON CODA AMPLIT PERI AZIMU VELO AIN AR TRES W  DIS CAZ7
 LZ4  SZ E        1215 23.54                  238.6 10.0      0        3.78  59 
 LZ4  SN IP       1215 23.55                             160    0.1310 3.78  59 
 LZ4  SE IS       1215 24.70                             160   -0.1310 3.78  59 
 LZ4  SZ  AML     1215 25.18        10.2 0.18                          3.78  59 
                                                                                
