 2009  215 1826  1.3 L  21.361 -99.387 10.0  RAL  1 0.0 0.5LRAL                1
 GAP=360        0.30       1.3     4.8  0.0 -0.5888E+01  0.7295E+01 -0.4340E+00E
 ACTION:UPD 12-06-08 11:37 OP:RALL STATUS:               ID:20090215182601     I
 2009-02-15-1825-56S.PLUR1_003                                                 6
 STAT SP IPHASW D HRMM SECON CODA AMPLIT PERI AZIMU VELO AIN AR TRES W  DIS CAZ7
 LZ4  SZ E        1826  4.08                  285.5 19.9      0        12.6 105 
 LZ4  SN IP       1826  4.12                             127    0.0010 12.6 105 
 LZ4  SE IS       1826  6.14                             127    0.0010 12.6 105 
 LZ4  SZ  AML     1826  6.61        11.1 0.16                          12.6 105 
                                                                                
