 2009  215 1232 37.3 L  21.332 -99.271 10.0  RAL  1 0.9 0.7LRAL                1
 GAP=360       11.40     999.9   999.9  0.0  0.3518E+08  0.7295E+01 -0.4340E+00E
 ACTION:UPD 12-06-08 11:37 OP:RALL STATUS:               ID:20090215123237     I
 2009-02-15-1232-29S.PLUR1_003                                                 6
 STAT SP IPHASW D HRMM SECON CODA AMPLIT PERI AZIMU VELO AIN AR TRES W  DIS CAZ7
 LZ4  SZ E        1232 39.30                  268.6 10.1    -53        0.20 143 
 LZ4  SN IP       1232 39.35                             179    0.1910 0.20 143 
 LZ4  SE IS       1232 40.30                             179   -0.1910 0.20 143 
 LZ4  SZ  AML     1232 41.04        26.1 0.16                          0.20 143 
                                                                                
