 2009  215 2121  2.5 L  21.348 -99.266 10.0  RAL  1 0.1 0.6LRAL                1
 GAP=360        0.38     465.3   999.9  0.0 -0.1216E+07  0.7295E+01 -0.4340E+00E
 ACTION:UPD 12-06-08 11:37 OP:RALL STATUS:               ID:20090215212102     I
 2009-02-15-2120-56S.PLUR1_003                                                 6
 STAT SP IPHASW D HRMM SECON CODA AMPLIT PERI AZIMU VELO AIN AR TRES W  DIS CAZ7
 LZ4  SZ E        2121  4.53                   11.4 40.0      0        1.93 191 
 LZ4  SN IP       2121  4.56                             169    0.1610 1.93 191 
 LZ4  SE IS       2121  5.60                             169   -0.1610 1.93 191 
 LZ4  SZ  AML     2121  5.81        19.7 0.28                          1.93 191 
                                                                                
