 2009  216 0757  5.2 L  21.260 -99.615 10.0  RAL  1 0.0 0.3LRAL                1
 GAP=360        0.30       2.5     3.3  0.0  0.6800E+01  0.7295E+01 -0.4340E+00E
 ACTION:UPD 12-06-08 11:37 OP:RALL STATUS:               ID:20090216075705     I
 2009-02-16-0757-03S.PLUR1_003                                                 6
 STAT SP IPHASW D HRMM SECON CODA AMPLIT PERI AZIMU VELO AIN AR TRES W  DIS CAZ7
 LA4  SN IP        757 12.08                             100    0.0210 40.3  52 
 LA4  SZ E         757 12.14                  232.1  8.4      0        40.3  52 
 LA4  SE IS        757 17.02                             100   -0.0210 40.3  52 
 LA4  SZ  AML      757 18.28         2.6 0.18                          40.3  52 
                                                                                
