 2009  216 1318 51.6 L  21.323 -99.244 10.0  RAL  1 0.1 0.5LRAL                1
 GAP=360        0.36       5.6    17.9  0.0 -0.1003E+03 -0.8380E+06  0.1368E+07E
 ACTION:UPD 12-06-08 11:37 OP:RALL STATUS:               ID:20090216131851     I
 2009-02-16-1318-44S.PLUR1_003                                                 6
 STAT SP IPHASW D HRMM SECON CODA AMPLIT PERI AZIMU VELO AIN AR TRES W  DIS CAZ7
 LZ4  SZ E        1318 53.53                  108.5 59.5      0        2.75 289 
 LZ4  SN IP       1318 53.61                             165    0.1410 2.75 289 
 LZ4  SE IS       1318 54.70                             165   -0.1410 2.75 289 
 LZ4  SZ  AML     1318 54.95        15.7 0.22                          2.75 289 
                                                                                
