 2009  216 1049 54.7 L  22.057 -99.675  5.0  RAL  2 0.4 1.7LRAL                1
 GAP=357        5.01     784.5   481.2999.9 -0.3767E+06 -0.8380E+06  0.1368E+07E
 ACTION:UPD 12-06-08 11:37 OP:RALL STATUS:               ID:20090216104954     I
 2009-02-16-1049-54S.PLUR1_006                                                 6
 STAT SP IPHASW D HRMM SECON CODA AMPLIT PERI AZIMU VELO AIN AR TRES W  DIS CAZ7
 LA4  SN IP       1050  6.19                              63   -0.5210 73.9 149 
 LA4  SZ E        1050  6.78                  343.0  9.6     14        73.9 149 
 LA4  SE IS       1050 14.25                              63   -1.2010 73.9 149 
 LA4  SZ  AML     1050 17.76        32.2 0.52                          73.9 149 
 LZ4  SZ E        1050  9.90                  314.3  9.7    -17        90.7 152 
 LZ4  SN IP       1050 10.03                              63    0.7210 90.7 152 
 LZ4  SE IS       1050 20.94                              63    1.0010 90.7 152 
 LZ4  SZ  AML     1050 23.89        41.1 0.28                          90.7 152 
                                                                                
