 2009  216 1255 26.6 L  21.304 -99.289 10.0  RAL  1 0.1 1.1LRAL                1
 GAP=360        0.38      11.8     8.5  0.0  0.1003E+03 -0.8380E+06  0.1368E+07E
 ACTION:UPD 12-06-08 11:37 OP:RALL STATUS:               ID:20090216125526     I
 2009-02-16-1255-18S.PLUR1_003                                                 6
 STAT SP IPHASW D HRMM SECON CODA AMPLIT PERI AZIMU VELO AIN AR TRES W  DIS CAZ7
 LZ4  SN IP       1255 28.69                             161    0.1610 3.60  34 
 LZ4  SZ E        1255 28.70                  213.8 15.1      0        3.60  34 
 LZ4  SE IS       1255 29.78                             161   -0.1610 3.60  34 
 LZ4  SZ  AML     1255 30.10        70.5 0.12                          3.60  34 
                                                                                
