 2009  216 1956 25.1 R  21.991 -99.525  5.1  RAL  2 0.3 2.3LRAL                1
 GAP=358        4.04     999.9   427.0999.9 -0.4380E+06 -0.9076E+06  0.2184E+07E
 ACTION:UPD 12-06-08 11:37 OP:RALL STATUS:               ID:20090216195625     I
 2009-02-16-1956-20S.PLUR1_006                                                 6
 STAT SP IPHASW D HRMM SECON CODA AMPLIT PERI AZIMU VELO AIN AR TRES W  DIS CAZ7
 LA4  SN IP       1956 34.73                              63   -0.2410 60.4 158 
 LA4  SZ E        1956 34.75                  349.7  9.0     11        60.4 158 
 LA4  SE IS       1956 41.33                              63   -0.8510 60.4 158 
 LA4  SZ  AML     1956 45.91       193.5 0.38                          60.4 158 
 LZ4  SN IP       1956 37.97                              63    0.3310 77.7 160 
 LZ4  SZ E        1956 37.98                  325.2  7.3    -14        77.7 160 
 LZ4  SE IS       1956 47.56                              63    0.7510 77.7 160 
 LZ4  SZ  AML     1956 51.98       175.5 0.36                          77.7 160 
                                                                                
