 2009  216 2039 37.1 L  21.591 -99.650 10.0  RAL  1 0.0 0.7LRAL                1
 GAP=360        0.30       1.5     3.9  0.0 -0.4292E+01 -0.9076E+06  0.2184E+07E
 ACTION:UPD 12-06-08 11:37 OP:RALL STATUS:               ID:20090216203937     I
 2009-02-16-2039-33S.PLUR1_003                                                 6
 STAT SP IPHASW D HRMM SECON CODA AMPLIT PERI AZIMU VELO AIN AR TRES W  DIS CAZ7
 LA4  SZ E        2039 43.24                  288.6 20.9      0        37.2 109 
 LA4  SN IP       2039 43.48                             101    0.0110 37.2 109 
 LA4  SE IS       2039 48.09                             101   -0.0110 37.2 109 
 LA4  SZ  AML     2039 50.17         7.2 0.86                          37.2 109 
                                                                                
