 2009  217 1003 53.1 L  21.200 -99.441  0.0  RAL  2 0.6 2.2LRAL                1
 GAP=344        9.48      44.9    79.9999.9  0.3382E+04  0.1224E+06  0.6625E+05E
 ACTION:UPD 12-06-08 11:37 OP:RALL STATUS:               ID:20090217100353     I
 2009-02-17-1003-47S.PLUR1_006                                                 6
 STAT SP IPHASW D HRMM SECON CODA AMPLIT PERI AZIMU VELO AIN AR TRES W  DIS CAZ7
 LG3  SZ E        10 3 57.92                  212.9 13.8    -33        21.3  67 
 LG3  SN IP       10 3 57.93                              93    1.1310 21.3  67 
 LG3  SE IS       10 3 59.26                              93   -0.2610 21.3  67 
 LG3  SZ  AML     10 4  0.13       164.8 0.46                          21.3  67 
 LZ4  SZ E        10 3 57.56                  261.2 10.4     30        22.9  51 
 LZ4  SN IP       10 3 57.57                              93    0.4810 22.9  51 
 LZ4  SE IS       10 3 58.68                              93   -1.3410 22.9  51 
 LZ4  SZ  AML     10 3 59.19      1063.3 0.10                          22.9  51 
                                                                                
