 2009  217 1039 47.9 L  21.359 -99.288 10.0  RAL  1 0.1 0.3LRAL                1
 GAP=360        0.42      13.3     8.7  0.0 -0.1163E+03  0.1224E+06  0.6625E+05E
 ACTION:UPD 12-06-08 11:37 OP:RALL STATUS:               ID:20090217103947     I
 2009-02-17-1039-41S.PLUR1_003                                                 6
 STAT SP IPHASW D HRMM SECON CODA AMPLIT PERI AZIMU VELO AIN AR TRES W  DIS CAZ7
 LZ4  SZ E        1039 49.99                  328.5 25.2      0        3.63 148 
 LZ4  SN IP       1039 50.00                             161    0.2010 3.63 148 
 LZ4  SE IS       1039 51.01                             161   -0.2010 3.63 148 
 LZ4  SZ  AML     1039 51.71        10.0 0.24                          3.63 148 
                                                                                
