 2009  217 1125 39.7 L  21.333 -99.276 10.0  RAL  1 0.4 0.5LRAL                1
 GAP=360        4.94     999.9   999.9  0.0  0.6782E+09  0.1224E+06  0.6625E+05E
 ACTION:UPD 12-06-08 11:37 OP:RALL STATUS:               ID:20090217112539     I
 2009-02-17-1125-33S.PLUR1_003                                                 6
 STAT SP IPHASW D HRMM SECON CODA AMPLIT PERI AZIMU VELO AIN AR TRES W  DIS CAZ7
 LZ4  SN IP       1125 41.67                             176    0.1410 0.67 108 
 LZ4  SZ E        1125 41.70                  264.6 19.1    -23        0.67 108 
 LZ4  SE IS       1125 42.72                             176   -0.1410 0.67 108 
 LZ4  SZ  AML     1125 42.78        19.0 0.24                          0.67 108 
                                                                                
