 2009  217 2022 48.7 R                       RAL  1                            1
 ACTION:UPD 12-06-08 11:37 OP:RALL STATUS:               ID:20090217202248     I
 2009-02-17-2022-48S.PLUR1_003                                                 6
 STAT SP IPHASW D HRMM SECON CODA AMPLIT PERI AZIMU VELO AIN AR TRES W  DIS CAZ7
 LA4  SZ E        2023  1.65                  171.4 10.2                        
 LA4  SZ  AML     2023 20.01         3.6 0.28                                   
                                                                                
