 2009  218 0916 26.5 L  21.328 -99.284 10.0  RAL  1 0.1 0.2LRAL                1
 GAP=360        0.66      12.1    60.1  0.0  0.7256E+03  0.1224E+06  0.6625E+05E
 ACTION:UPD 12-06-08 11:37 OP:RALL STATUS:               ID:20090218091626     I
 2009-02-18-0916-19S.PLUR1_003                                                 6
 STAT SP IPHASW D HRMM SECON CODA AMPLIT PERI AZIMU VELO AIN AR TRES W  DIS CAZ7
 LZ4  SZ E         916 28.50                  260.4 14.3      3        1.51  78 
 LZ4  SN IP        916 28.54                             172    0.1710 1.51  78 
 LZ4  SE IS        916 29.54                             172   -0.1710 1.51  78 
 LZ4  SZ  AML      916 29.72         8.3 0.10                          1.51  78 
                                                                                
