 2009  218 0746 44.4 L  21.306 -99.239 10.0  RAL  1 0.1 0.3LRAL                1
 GAP=360        0.35       7.6     9.4  0.0 -0.7104E+02  0.1224E+06  0.6625E+05E
 ACTION:UPD 12-06-08 11:37 OP:RALL STATUS:               ID:20090218074644     I
 2009-02-18-0746-37S.PLUR1_003                                                 6
 STAT SP IPHASW D HRMM SECON CODA AMPLIT PERI AZIMU VELO AIN AR TRES W  DIS CAZ7
 LZ4  SZ E         746 46.45                  130.7 29.7      0        4.21 311 
 LZ4  SN IP        746 46.45                             158    0.1310 4.21 311 
 LZ4  SE IS        746 47.62                             158   -0.1310 4.21 311 
 LZ4  SZ  AML      746 47.85        11.1 0.26                          4.21 311 
                                                                                
