 2009  218 1527 17.7 L  21.317 -99.298 10.0  RAL  1 0.1 0.5LRAL                1
 GAP=360        0.40       7.4    15.7  0.0  0.1160E+03  0.1224E+06  0.6625E+05E
 ACTION:UPD 12-06-08 11:37 OP:RALL STATUS:               ID:20090218152717     I
 2009-02-18-1527-11S.PLUR1_003                                                 6
 STAT SP IPHASW D HRMM SECON CODA AMPLIT PERI AZIMU VELO AIN AR TRES W  DIS CAZ7
 LZ4  SZ E        1527 19.76                  243.1 75.0      0        3.30  63 
 LZ4  SN IP       1527 19.79                             162    0.1810 3.30  63 
 LZ4  SE IS       1527 20.82                             162   -0.1810 3.30  63 
 LZ4  SZ  AML     1527 20.98        17.0 0.10                          3.30  63 
                                                                                
