 2009  218 1218 58.7 L  21.923 -99.726 10.0  RAL  1 0.0 0.7LRAL                1
 GAP=360        0.30       3.0     3.0  0.0 -0.5876E+01  0.1224E+06  0.6625E+05E
 ACTION:UPD 12-06-08 11:37 OP:RALL STATUS:               ID:20090218121858     I
 2009-02-18-1219-03S.PLUR1_003                                                 6
 STAT SP IPHASW D HRMM SECON CODA AMPLIT PERI AZIMU VELO AIN AR TRES W  DIS CAZ7
 LA4  SZ E        1219  9.15                  318.5  9.9      0        65.0 138 
 LA4  SN IP       1219  9.29                              95    0.0110 65.0 138 
 LA4  SE IS       1219 17.02                              95   -0.0110 65.0 138 
 LA4  SZ  AML     1219 17.14         4.5 0.44                          65.0 138 
                                                                                
