 2009  218 1149 27.0 L  21.290 -99.231 10.0  RAL  1 0.0 0.3LRAL                1
 GAP=360        0.31       5.7     5.3  0.0 -0.2995E+02  0.1224E+06  0.6625E+05E
 ACTION:UPD 12-06-08 11:37 OP:RALL STATUS:               ID:20090218114927     I
 2009-02-18-1149-21S.PLUR1_003                                                 6
 STAT SP IPHASW D HRMM SECON CODA AMPLIT PERI AZIMU VELO AIN AR TRES W  DIS CAZ7
 LZ4  SN IP       1149 29.17                             149    0.0610 6.04 319 
 LZ4  SZ E        1149 29.19                  139.1 26.7      0        6.04 319 
 LZ4  SE IS       1149 30.58                             149   -0.0610 6.04 319 
 LZ4  SZ  AML     1149 32.41         9.6 0.42                          6.04 319 
                                                                                
