 2009  219 1322 44.3 L  21.594 -99.576 10.0  RAL  1 0.0 0.9LRAL                1
 GAP=360        0.30       1.7     3.8  0.0 -0.5573E+01  0.1224E+06  0.6625E+05E
 ACTION:UPD 12-06-08 11:37 OP:RALL STATUS:               ID:20090219132244     I
 2009-02-19-1322-35S.PLUR1_003                                                 6
 STAT SP IPHASW D HRMM SECON CODA AMPLIT PERI AZIMU VELO AIN AR TRES W  DIS CAZ7
 LA4  SZ E        1322 49.40                  293.9 28.5      0        30.2 114 
 LA4  SN IP       1322 49.62                             104    0.0210 30.2 114 
 LA4  SE IS       1322 53.44                             104   -0.0210 30.2 114 
 LA4  SZ  AML     1322 55.78        13.7 0.62                          30.2 114 
                                                                                
