 2009  219 2335 33.5 L  21.376 -99.292 13.2  RAL  2 0.0 0.7LRAL                1
 GAP=197        0.37       1.0     0.5  3.7 -0.4756E+00  0.3849E+00 -0.8559E+00E
 ACTION:UPD 12-06-08 11:37 OP:RALL STATUS:               ID:20090219233533     I
 2009-02-19-2335-24S.PLUR1_006                                                 6
 STAT SP IPHASW D HRMM SECON CODA AMPLIT PERI AZIMU VELO AIN AR TRES W  DIS CAZ7
 LZ4  SZ E        2335 36.09                  334.3  8.0      0        5.54 155 
 LZ4  SN IP       2335 36.10                             158    0.1010 5.54 155 
 LZ4  SE IS       2335 37.88                             158    0.0610 5.54 155 
 LZ4  SZ  AML     2335 38.23        40.5 0.18                          5.54 155 
 LA4  SZ E        2335 36.48                  171.1  7.9      0        12.0 352 
 LA4  SN IP       2335 36.52                             138   -0.0310 12.0 352 
 LA4  SE IS       2335 38.66                             138   -0.1310 12.0 352 
 LA4  SZ  AML     2335 40.26        10.1 0.44                          12.0 352 
                                                                                
