 2009  219 2227 43.1 R  22.058 -99.527 10.0  RAL  1 0.0 0.8LRAL                1
 GAP=360        0.30       3.5     2.2  0.0 -0.3656E+01  0.1224E+06  0.6625E+05E
 ACTION:UPD 12-06-08 11:37 OP:RALL STATUS:               ID:20090219222743     I
 2009-02-19-2227-47S.PLUR1_003                                                 6
 STAT SP IPHASW D HRMM SECON CODA AMPLIT PERI AZIMU VELO AIN AR TRES W  DIS CAZ7
 LA4  SZ E        2227 54.04                  340.5 12.9      0        67.5 160 
 LA4  SN IP       2227 54.11                              95    0.0110 67.5 160 
 LA4  SE IS       2228  2.13                              95   -0.0110 67.5 160 
 LA4  SZ  AML     2228  4.99         5.9 0.68                          67.5 160 
                                                                                
