 2009  220 0802 43.5 L  21.328 -99.277 10.0  RAL  1 0.2 2.0LRAL                1
 GAP=360        3.00     999.9   201.9  0.0 -0.4051E+06 -0.1232E+02 -0.1669E+02E
 ACTION:UPD 12-06-08 11:37 OP:RALL STATUS:               ID:20090220080243     I
 2009-02-20-0802-35S.PLUR1_003                                                 6
 STAT SP IPHASW D HRMM SECON CODA AMPLIT PERI AZIMU VELO AIN AR TRES W  DIS CAZ7
 LZ4  SZ E         8 2 45.42                  265.0 28.0     14        0.80  71 
 LZ4  SN IP        8 2 45.42                             176    0.1310 0.80  71 
 LZ4  SE IS        8 2 46.50                             176   -0.1310 0.80  71 
 LZ4  SZ  AML      8 2 47.04       553.3 0.14                          0.80  71 
                                                                                
