 2009  220 0323 35.4 L  21.353 -99.252  0.0  RAL  2 0.2 1.3LRAL                1
 GAP=238        1.25       1.6     1.3 21.1  0.1932E+01 -0.1232E+02 -0.1669E+02E
 ACTION:UPD 12-06-08 11:37 OP:RALL STATUS:               ID:20090220032335     I
 2009-02-20-0323-26S.PLUR1_006                                                 6
 STAT SP IPHASW D HRMM SECON CODA AMPLIT PERI AZIMU VELO AIN AR TRES W  DIS CAZ7
 LZ4  SN IP        323 35.60                             109   -0.3610 3.05 216 
 LZ4  SZ E         323 35.63                   35.7 15.6      0        3.05 216 
 LZ4  SE IS        323 35.85                             109   -0.5310 3.05 216 
 LZ4  SZ  AML      323 36.03      2896.1 0.26                          3.05 216 
 LA4  SN IP        323 38.22                              94    0.0810 15.6 338 
 LA4  SZ E         323 38.28                  154.9  8.2     -2        15.6 338 
 LA4  SE IS        323 40.94                              94    0.8110 15.6 338 
 LA4  SZ  AML      323 41.60        10.8 0.22                          15.6 338 
                                                                                
