 2009  220 0554 56.3 L  21.570 -99.447 10.0  RAL  1 0.0 0.9LRAL                1
 GAP=360        0.30       3.2     2.5  0.0 -0.6968E+01 -0.1232E+02 -0.1669E+02E
 ACTION:UPD 12-06-08 11:37 OP:RALL STATUS:               ID:20090220055456     I
 2009-02-20-0554-56S.PLUR1_003                                                 6
 STAT SP IPHASW D HRMM SECON CODA AMPLIT PERI AZIMU VELO AIN AR TRES W  DIS CAZ7
 LZ4  SN IP        555  1.91                             103    0.0210 32.2 145 
 LZ4  SZ E         555  1.96                  325.3 10.3      0        32.2 145 
 LZ4  SE IS        555  5.94                             103   -0.0210 32.2 145 
 LZ4  SZ  AML      555  6.24        14.2 0.12                          32.2 145 
                                                                                
