 2009  220 0550 25.4 L  21.513 -99.265 10.0  RAL  1 0.0 0.1LRAL                1
 GAP=360        0.31       4.6     7.1  0.0  0.3268E+02 -0.1232E+02 -0.1669E+02E
 ACTION:UPD 12-06-08 11:37 OP:RALL STATUS:               ID:20090220055025     I
 2009-02-20-0550-14S.PLUR1_003                                                 6
 STAT SP IPHASW D HRMM SECON CODA AMPLIT PERI AZIMU VELO AIN AR TRES W  DIS CAZ7
 LA4  SN IP        550 27.53                             151    0.0610 5.58 235 
 LA4  SZ E         550 28.45                   55.1  6.1      0        5.58 235 
 LA4  SE IS        550 28.92                             151   -0.0610 5.58 235 
 LA4  SZ  AML      550 29.78         6.0 0.24                          5.58 235 
                                                                                
