 2009  220 1048 12.5 L  21.107 -99.176 10.0  RAL  1 0.0 0.9LRAL                1
 GAP=360        0.30       3.6     1.7  0.0 -0.5267E+01 -0.1232E+02 -0.1669E+02E
 ACTION:UPD 12-06-08 11:37 OP:RALL STATUS:               ID:20090220104812     I
 2009-02-20-1048-11S.PLUR1_003                                                 6
 STAT SP IPHASW D HRMM SECON CODA AMPLIT PERI AZIMU VELO AIN AR TRES W  DIS CAZ7
 LZ4  SN IP       1048 17.25                             107    0.0210 26.6 339 
 LZ4  SZ E        1048 17.38                  158.7 15.3      0        26.6 339 
 LZ4  SE IS       1048 20.67                             107   -0.0210 26.6 339 
 LZ4  SZ  AML     1048 22.56        15.2 0.80                          26.6 339 
                                                                                
