 2009  220 2056 59.8 L  21.342 -99.292 10.0  RAL  1 0.2 1.5LRAL                1
 GAP=360        0.87      19.9    41.6  0.0 -0.8297E+03 -0.1232E+02 -0.1669E+02E
 ACTION:UPD 12-06-08 11:37 OP:RALL STATUS:               ID:20090220205659     I
 2009-02-20-2056-52S.PLUR1_003                                                 6
 STAT SP IPHASW D HRMM SECON CODA AMPLIT PERI AZIMU VELO AIN AR TRES W  DIS CAZ7
 LZ4  SN IP       2057  2.23                             166    0.5510 2.64 117 
 LZ4  SZ E        2057  2.24                  297.2  6.3      0        2.64 117 
 LZ4  SE IS       2057  2.50                             166   -0.5510 2.64 117 
 LZ4  SZ  AML     2057  2.54       175.6 0.18                          2.64 117 
                                                                                
