 2009  221 0508  2.8 L  21.323 -99.232 10.0  RAL  1 0.0 1.1LRAL                1
 GAP=360        0.30       2.3    10.7  0.0 -0.2512E+02 -0.1232E+02 -0.1669E+02E
 ACTION:UPD 12-06-08 11:37 OP:RALL STATUS:               ID:20090221050802     I
 2009-02-21-0507-54S.PLUR1_003                                                 6
 STAT SP IPHASW D HRMM SECON CODA AMPLIT PERI AZIMU VELO AIN AR TRES W  DIS CAZ7
 LZ4  SZ E         5 8  4.78                  103.2 12.9      0        4.01 283 
 LZ4  SN IP        5 8  4.79                             159    0.0310 4.01 283 
 LZ4  SE IS        5 8  6.15                             159   -0.0310 4.01 283 
 LZ4  SZ  AML      5 8  6.27        66.7 0.10                          4.01 283 
                                                                                
