 2009  221 1835 11.6 L  21.608 -99.354 10.0  RAL  1 0.0 0.0LRAL                1
 GAP=360        0.30       4.2     1.6  0.0 -0.6299E+01 -0.1232E+02 -0.1669E+02E
 ACTION:UPD 12-06-08 11:37 OP:RALL STATUS:               ID:20090221183511     I
 2009-02-21-1835-02S.PLUR1_003                                                 6
 STAT SP IPHASW D HRMM SECON CODA AMPLIT PERI AZIMU VELO AIN AR TRES W  DIS CAZ7
 LA4  SZ E        1835 14.59                  341.3  7.5      0        14.5 161 
 LA4  SN IP       1835 14.59                             123    0.0010 14.5 161 
 LA4  SE IS       1835 16.79                             123    0.0010 14.5 161 
 LA4  SZ  AML     1835 19.04         3.2 0.58                          14.5 161 
                                                                                
