 2009  221 1811 53.4 L  21.607 -99.356 10.0  RAL  1 0.0 0.5LRAL                1
 GAP=360        0.30       4.2     1.6  0.0 -0.6524E+01 -0.1232E+02 -0.1669E+02E
 ACTION:UPD 12-06-08 11:37 OP:RALL STATUS:               ID:20090221181153     I
 2009-02-21-1811-42S.PLUR1_003                                                 6
 STAT SP IPHASW D HRMM SECON CODA AMPLIT PERI AZIMU VELO AIN AR TRES W  DIS CAZ7
 LA4  SZ E        1811 56.47                  340.5  7.0      0        14.5 160 
 LA4  SN IP       1811 56.48                             123    0.0010 14.5 160 
 LA4  SE IS       1811 58.68                             123    0.0010 14.5 160 
 LA4  SZ  AML     1811 59.32        11.4 0.28                          14.5 160 
                                                                                
