 2009  221 2332 51.8 L  21.351 -99.281 10.0  RAL  1 0.1 0.1LRAL                1
 GAP=360        0.54      25.6    14.5  0.0 -0.3696E+03 -0.1232E+02 -0.1669E+02E
 ACTION:UPD 12-06-08 11:37 OP:RALL STATUS:               ID:20090221233251     I
 2009-02-21-2332-45S.PLUR1_003                                                 6
 STAT SP IPHASW D HRMM SECON CODA AMPLIT PERI AZIMU VELO AIN AR TRES W  DIS CAZ7
 LZ4  SN IP       2332 54.01                             167    0.3010 2.47 152 
 LZ4  SZ E        2332 54.09                  332.2 61.5      0        2.47 152 
 LZ4  SE IS       2332 54.77                             167   -0.3010 2.47 152 
 LZ4  SZ  AML     2332 55.02         6.8 0.24                          2.47 152 
                                                                                
