 2009  222 0631 20.5 L  21.495 -99.289 10.0  RAL  1 0.2 0.1LRAL                1
 GAP=360        0.80      23.0    39.8  0.0  0.9148E+03 -0.1232E+02 -0.1669E+02E
 ACTION:UPD 12-06-08 11:37 OP:RALL STATUS:               ID:20090222063120     I
 2009-02-22-0631-08S.PLUR1_003                                                 6
 STAT SP IPHASW D HRMM SECON CODA AMPLIT PERI AZIMU VELO AIN AR TRES W  DIS CAZ7
 LA4  SZ E         631 22.81                   58.2  7.0      0        2.43 238 
 LA4  SN IP        631 22.88                             167    0.5010 2.43 238 
 LA4  SE IS        631 23.26                             167   -0.5010 2.43 238 
 LA4  SZ  AML      631 23.65         6.8 0.24                          2.43 238 
                                                                                
