 2009  222 0949 35.6 L  21.941 -99.445 10.0  RAL  2 0.4 2.7LRAL                1
 GAP=360        4.63      70.7    27.4588.3 -0.1403E+04  0.1026E+05 -0.3433E+05E
 ACTION:UPD 12-06-08 11:37 OP:RALL STATUS:               ID:20090222094935     I
 2009-02-22-0949-29S.PLUR1_006                                                 6
 STAT SP IPHASW D HRMM SECON CODA AMPLIT PERI AZIMU VELO AIN AR TRES W  DIS CAZ7
 LA4  SN IP        949 43.94                              97   -0.3810 52.6 164 
 LA4  SZ E         949 44.00                  357.0 11.2     13        52.6 164 
 LA4  SZ  AML      949 50.96       736.3 0.42                          52.6 164 
 LA4  SE IS        949 51.81                              97    1.1410 52.6 164 
 LZ4  SZ E         949 47.40                  328.2  7.1    -16        70.0 165 
 LZ4  SN IP        949 47.40                              95    0.4010 70.0 165 
 LZ4  SE IS        949 54.14                              95   -1.1710 70.0 165 
 LZ4  SZ  AML      949 59.77       346.8 0.24                          70.0 165 
                                                                                
