 2009  222  652 26.8 L                       RAL  1                            1
 ACTION:UPD 12-06-08 11:37 OP:RALL STATUS:               ID:20090222065226     I
 2009-02-22-0652-26S.PLUR1_003                                                 6
 STAT SP IPHASW D HRMM SECON CODA AMPLIT PERI AZIMU VELO AIN AR TRES W  DIS CAZ7
 LZ4  SZ E         652 33.04                                                    
 LZ4  SN IP        652 33.10                                                    
 LZ4  SE IS        652 35.72                                                    
 LZ4  SZ  AML      652 36.51        12.4 0.64                                   
                                                                                
