 2009  222 1241  3.7 L  21.511 -99.244 10.0  RAL  1 0.0 0.3LRAL                1
 GAP=360        0.30       2.6     6.2  0.0  0.1606E+02  0.1026E+05 -0.3433E+05E
 ACTION:UPD 12-06-08 11:37 OP:RALL STATUS:               ID:20090222124103     I
 2009-02-22-1240-51S.PLUR1_003                                                 6
 STAT SP IPHASW D HRMM SECON CODA AMPLIT PERI AZIMU VELO AIN AR TRES W  DIS CAZ7
 LA4  SZ E        1241  5.88                   65.8  5.9      0        7.37 246 
 LA4  SN IP       1241  5.89                             144    0.0210 7.37 246 
 LA4  SE IS       1241  7.46                             144   -0.0210 7.37 246 
 LA4  SZ  AML     1241  7.98         9.6 0.42                          7.37 246 
                                                                                
