 2009  222 1512 28.4 L  21.326 -99.226 10.0  RAL  1 0.0 0.2LRAL                1
 GAP=360        0.30       1.1     9.9  0.0 -0.1051E+02  0.1026E+05 -0.3433E+05E
 ACTION:UPD 12-06-08 11:37 OP:RALL STATUS:               ID:20090222151228     I
 2009-02-22-1512-22S.PLUR1_003                                                 6
 STAT SP IPHASW D HRMM SECON CODA AMPLIT PERI AZIMU VELO AIN AR TRES W  DIS CAZ7
 LZ4  SN IP       1512 30.35                             156    0.0210 4.49 277 
 LZ4  SZ E        1512 30.37                   96.6 18.1      0        4.49 277 
 LZ4  SE IS       1512 31.75                             156   -0.0210 4.49 277 
 LZ4  SZ  AML     1512 32.42         7.9 0.40                          4.49 277 
                                                                                
