 2009  222 1216 12.8 L  21.596 -99.217 10.0  RAL  1 0.0 0.5LRAL                1
 GAP=360        0.30       3.4     2.8  0.0  0.9513E+01  0.1026E+05 -0.3433E+05E
 ACTION:UPD 12-06-08 11:37 OP:RALL STATUS:               ID:20090222121612     I
 2009-02-22-1216-04S.PLUR1_003                                                 6
 STAT SP IPHASW D HRMM SECON CODA AMPLIT PERI AZIMU VELO AIN AR TRES W  DIS CAZ7
 LA4  SN IP       1216 15.99                             121    0.0110 15.7 218 
 LA4  SZ E        1216 16.10                   37.5  7.7      0        15.7 218 
 LA4  SE IS       1216 18.29                             121   -0.0110 15.7 218 
 LA4  SZ  AML     1216 19.99        10.5 0.24                          15.7 218 
                                                                                
