 2009  223 0027 14.7 L  21.306 -99.257 10.0  RAL  1 0.1 0.4LRAL                1
 GAP=360        0.39      15.6     7.8  0.0 -0.1208E+03  0.1026E+05 -0.3433E+05E
 ACTION:UPD 12-06-08 11:37 OP:RALL STATUS:               ID:20090223002714     I
 2009-02-23-0027-08S.PLUR1_003                                                 6
 STAT SP IPHASW D HRMM SECON CODA AMPLIT PERI AZIMU VELO AIN AR TRES W  DIS CAZ7
 LZ4  SZ E         027 16.61                  155.1 13.5      0        3.01 335 
 LZ4  SN IP        027 16.75                             164    0.1710 3.01 335 
 LZ4  SE IS        027 17.80                             164   -0.1710 3.01 335 
 LZ4  SZ  AML      027 21.09        15.0 0.74                          3.01 335 
                                                                                
