 2009  223 1909 28.5 L  21.350 -99.280 10.0  RAL  1 0.1 1.0LRAL                1
 GAP=360        0.56      27.5    16.3  0.0 -0.4475E+03 -0.4712E+01  0.3385E+01E
 ACTION:UPD 12-06-08 11:37 OP:RALL STATUS:               ID:20090223190928     I
 2009-02-23-1909-21S.PLUR1_003                                                 6
 STAT SP IPHASW D HRMM SECON CODA AMPLIT PERI AZIMU VELO AIN AR TRES W  DIS CAZ7
 LZ4  SZ E        19 9 30.66                  331.2 26.5      0        2.36 151 
 LZ4  SN IP       19 9 30.68                             167    0.3210 2.36 151 
 LZ4  SE IS       19 9 31.40                             167   -0.3210 2.36 151 
 LZ4  SZ  AML     19 9 31.48        53.9 0.18                          2.36 151 
                                                                                
