 2009  223 1108 49.0 L  21.474 -99.302 14.2  RAL  2 0.4 0.6LRAL                1
 GAP=202        5.66       2.9     8.5 47.0  0.1234E+02 -0.4712E+01  0.3385E+01E
 ACTION:UPD 12-06-08 11:37 OP:RALL STATUS:               ID:20090223110849     I
 2009-02-23-1108-38S.PLUR1_006                                                 6
 STAT SP IPHASW D HRMM SECON CODA AMPLIT PERI AZIMU VELO AIN AR TRES W  DIS CAZ7
 LA4  SZ E        11 8 52.08                  143.2  7.3     -2        1.23 326 
 LA4  SN IP       11 8 52.11                             175    0.6610 1.23 326 
 LA4  SE IS       11 8 53.42                             175    0.1410 1.23 326 
 LA4  SZ  AML     11 8 53.49         9.1 0.22                          1.23 326 
 LZ4  SN IP       11 8 52.62                             130    0.0410 16.3 168 
 LZ4  SZ E        11 8 52.64                  320.9  7.6    -26        16.3 168 
 LZ4  SE IS       11 8 54.38                             130   -0.8410 16.3 168 
 LZ4  SZ  AML     11 8 54.85        16.6 0.18                          16.3 168 
                                                                                
