 2009  223 2013 28.4 L  21.181 -99.209  3.1  RAL  2 0.4 1.0LRAL                1
 GAP=356        6.01      45.9    20.6 38.8 -0.8169E+03 -0.6508E+02  0.1394E+03E
 ACTION:UPD 12-06-08 11:37 OP:RALL STATUS:               ID:20090223201328     I
 2009-02-23-2013-22S.PLUR1_006                                                 6
 STAT SP IPHASW D HRMM SECON CODA AMPLIT PERI AZIMU VELO AIN AR TRES W  DIS CAZ7
 LZ4  SZ E        2013 31.90                  171.9 11.4     13        17.8 339 
 LZ4  SN IP       2013 31.94                             100    0.3710 17.8 339 
 LZ4  SE IS       2013 33.43                             100   -0.4610 17.8 339 
 LZ4  SZ  AML     2013 33.64        78.2 0.20                          17.8 339 
 LA4  SN IP       2013 34.61                              63    0.1310 35.1 343 
 LA4  SZ E        2013 34.82                  136.4  8.5    -25        35.1 343 
 LA4  SE IS       2013 38.89                              63   -0.0410 35.1 343 
 LA4  SZ  AML     2013 40.36         6.3 0.36                          35.1 343 
                                                                                
