 2009  224 0619 35.3 L  21.222 -99.226  0.0  RAL  2 0.3 1.1LRAL                1
 GAP=356        5.34      46.9    19.1497.8 -0.8475E+03 -0.5163E+04  0.1313E+05E
 ACTION:UPD 12-06-08 11:37 OP:RALL STATUS:               ID:20090224061935     I
 2009-02-24-0619-28S.PLUR1_006                                                 6
 STAT SP IPHASW D HRMM SECON CODA AMPLIT PERI AZIMU VELO AIN AR TRES W  DIS CAZ7
 LZ4  SZ E         619 37.88                  169.0  9.4     10        12.9 339 
 LZ4  SN IP        619 37.88                              95    0.3410 12.9 339 
 LZ4  SE IS        619 38.79                              95   -0.4110 12.9 339 
 LZ4  SZ  AML      619 40.57       132.6 0.32                          12.9 339 
 LA4  SN IP        619 40.79                              92    0.2210 30.2 343 
 LA4  SZ E         619 40.80                  139.3  7.3    -23        30.2 343 
 LA4  SE IS        619 44.29                              92   -0.1510 30.2 343 
 LA4  SZ  AML      619 48.84        12.6 0.44                          30.2 343 
                                                                                
