 2009  224 0709 51.4 L  21.343 -99.290 10.0  RAL  1 0.2 1.1LRAL                1
 GAP=360        0.88      24.4    42.4  0.0 -0.1037E+04 -0.5163E+04  0.1313E+05E
 ACTION:UPD 12-06-08 11:37 OP:RALL STATUS:               ID:20090224070951     I
 2009-02-24-0709-44S.PLUR1_003                                                 6
 STAT SP IPHASW D HRMM SECON CODA AMPLIT PERI AZIMU VELO AIN AR TRES W  DIS CAZ7
 LZ4  SN IP        7 9 53.81                             166    0.5610 2.51 122 
 LZ4  SZ E         7 9 53.84                  301.7  7.8      0        2.51 122 
 LZ4  SE IS        7 9 54.06                             166   -0.5610 2.51 122 
 LZ4  SZ  AML      7 9 54.15        76.3 0.16                          2.51 122 
                                                                                
