 2009  224 0239  6.0 L  21.348 -99.274  4.0  RAL  2 0.1 0.9LRAL                1
 GAP=180        1.23       0.5     1.7  7.2  0.6003E+00  0.1103E+00 -0.1988E+00E
 ACTION:UPD 12-06-08 11:37 OP:RALL STATUS:               ID:20090224023906     I
 2009-02-24-0238-55S.PLUR1_006                                                 6
 STAT SP IPHASW D HRMM SECON CODA AMPLIT PERI AZIMU VELO AIN AR TRES W  DIS CAZ7
 LZ4  SZ E         239  6.64                  346.2 22.6      0        1.97 167 
 LZ4  SN IP        239  6.65                             158   -0.2610 1.97 167 
 LZ4  SE IS        239  7.65                             158    0.0510 1.97 167 
 LZ4  SZ  AML      239  7.76       272.1 0.16                          1.97 167 
 LA4  SZ E         239  8.57                  161.3  6.6     -4        15.4 346 
 LA4  SN IP        239  8.57                             108   -0.2510 15.4 346 
 LA4  SE IS        239 11.35                             108    0.4610 15.4 346 
 LA4  SZ  AML      239 11.64        10.7 0.10                          15.4 346 
                                                                                
