 2009  224 1023  3.9 L  21.719 -99.522  5.0  RAL  2 0.2 1.0LRAL                1
 GAP=351        3.61      97.7    81.0245.0 -0.7828E+04 -0.1911E+05  0.2314E+05E
 ACTION:UPD 12-06-08 11:37 OP:RALL STATUS:               ID:20090224102303     I
 2009-02-24-1022-56S.PLUR1_006                                                 6
 STAT SP IPHASW D HRMM SECON CODA AMPLIT PERI AZIMU VELO AIN AR TRES W  DIS CAZ7
 LA4  SZ E        1023  9.79                  329.5 11.7     10        34.2 140 
 LA4  SN IP       1023  9.81                              63    0.4810 34.2 140 
 LA4  SE IS       1023 13.29                              63   -0.0310 34.2 140 
 LA4  SZ  AML     1023 14.62        12.7 0.24                          34.2 140 
 LZ4  SN IP       1023 11.98                              63    0.1410 50.3 149 
 LZ4  SZ E        1023 12.19                  314.5 12.6    -13        50.3 149 
 LZ4  SE IS       1023 17.06                              63   -0.5910 50.3 149 
 LZ4  SZ  AML     1023 20.17        15.6 0.46                          50.3 149 
                                                                                
