 2009  224 1056 32.9 L  21.348 -99.278 10.0  RAL  1 0.2 1.6LRAL                1
 GAP=360        0.73      41.0    20.7  0.0 -0.8481E+03  0.3194E+04 -0.4504E+04E
 ACTION:UPD 12-06-08 11:37 OP:RALL STATUS:               ID:20090224105632     I
 2009-02-24-1056-25S.PLUR1_003                                                 6
 STAT SP IPHASW D HRMM SECON CODA AMPLIT PERI AZIMU VELO AIN AR TRES W  DIS CAZ7
 LZ4  SN IP       1056 35.19                             168    0.4510 2.12 155 
 LZ4  SZ E        1056 35.22                  334.8  7.1      0        2.12 155 
 LZ4  SE IS       1056 35.65                             168   -0.4510 2.12 155 
 LZ4  SZ  AML     1056 35.82       201.0 0.16                          2.12 155 
                                                                                
