 2009  224 1615 41.3 L  21.200 -99.153  0.1  RAL  2 0.2 1.1LRAL                1
 GAP=347        2.91      21.3    17.8449.3 -0.3606E+03 -0.5054E+04  0.6011E+04E
 ACTION:UPD 12-06-08 11:37 OP:RALL STATUS:               ID:20090224161541     I
 2009-02-24-1615-37S.PLUR1_006                                                 6
 STAT SP IPHASW D HRMM SECON CODA AMPLIT PERI AZIMU VELO AIN AR TRES W  DIS CAZ7
 LZ4  SN IP       1615 44.83                              93    0.2410 18.8 320 
 LZ4  SZ E        1615 44.88                  146.2 12.5      6        18.8 320 
 LZ4  SE IS       1615 46.45                              93   -0.5510 18.8 320 
 LZ4  SZ  AML     1615 46.65        81.6 0.20                          18.8 320 
 LA4  SN IP       1615 47.85                              92    0.3810 35.3 333 
 LA4  SZ E        1615 47.87                  140.4  7.9    -11        35.3 333 
 LA4  SE IS       1615 51.91                              92   -0.0710 35.3 333 
 LA4  SZ  AML     1615 53.52         8.5 0.48                          35.3 333 
                                                                                
