 2009  224 1101  0.9 L  21.350 -99.281 10.0  RAL  1 0.2 1.3LRAL                1
 GAP=360        0.74      34.7    20.0  0.0 -0.6922E+03  0.3194E+04 -0.4504E+04E
 ACTION:UPD 12-06-08 11:37 OP:RALL STATUS:               ID:20090224110100     I
 2009-02-24-1100-53S.PLUR1_003                                                 6
 STAT SP IPHASW D HRMM SECON CODA AMPLIT PERI AZIMU VELO AIN AR TRES W  DIS CAZ7
 LZ4  SN IP       11 1  3.25                             167    0.4510 2.47 152 
 LZ4  SZ E        11 1  3.26                  331.8  6.4      0        2.47 152 
 LZ4  SE IS       11 1  3.71                             167   -0.4510 2.47 152 
 LZ4  SZ  AML     11 1  3.86        99.0 0.16                          2.47 152 
                                                                                
