 2009  224 1039 29.9 R  21.972 -99.652 30.8  RAL  2 0.2 2.3LRAL                1
 GAP=356        2.91      35.0    26.5179.7 -0.7367E+03  0.3194E+04 -0.4504E+04E
 ACTION:UPD 12-06-08 11:37 OP:RALL STATUS:               ID:20090224103929     I
 2009-02-24-1039-26S.PLUR1_006                                                 6
 STAT SP IPHASW D HRMM SECON CODA AMPLIT PERI AZIMU VELO AIN AR TRES W  DIS CAZ7
 LA4  SZ E        1039 40.73                  335.6  8.5      9        64.6 147 
 LA4  SN IP       1039 40.74                             102   -0.0510 64.6 147 
 LA4  SE IS       1039 48.52                             102   -0.2110 64.6 147 
 LA4  SZ  AML     1039 50.48       173.5 0.32                          64.6 147 
 LZ4  SN IP       1039 42.88                              98    0.0810 81.2 151 
 LZ4  SZ E        1039 42.91                  319.9 10.2    -10        81.2 151 
 LZ4  SE IS       1039 52.39                              98    0.1810 81.2 151 
 LZ4  SZ  AML     1039 52.77       130.8 0.32                          81.2 151 
                                                                                
