 2009  224 1711 28.1 L  21.424 -99.391 10.0  RAL  1 0.0-0.3LRAL                1
 GAP=360        0.30       3.1     4.3  0.0  0.1309E+02 -0.5054E+04  0.6011E+04E
 ACTION:UPD 12-06-08 11:37 OP:RALL STATUS:               ID:20090224171128     I
 2009-02-24-1711-18S.PLUR1_003                                                 6
 STAT SP IPHASW D HRMM SECON CODA AMPLIT PERI AZIMU VELO AIN AR TRES W  DIS CAZ7
 LA4  SZ E        1711 30.67                  232.1 15.9      0        10.7  52 
 LA4  SN IP       1711 30.67                             133    0.0110 10.7  52 
 LA4  SE IS       1711 32.52                             133   -0.0110 10.7  52 
 LA4  SZ  AML     1711 33.97         2.1 0.34                          10.7  52 
                                                                                
