 2009  224 1609 28.7 L  21.289 -99.206  1.7  RAL  2 0.2 2.4LRAL                1
 GAP=332        1.28       3.1     4.3 13.6 -0.1270E+02 -0.1107E+02  0.7053E+01E
 ACTION:UPD 12-06-08 11:37 OP:RALL STATUS:               ID:20090224160928     I
 2009-02-24-1609-17S.PLUR1_006                                                 6
 STAT SP IPHASW D HRMM SECON CODA AMPLIT PERI AZIMU VELO AIN AR TRES W  DIS CAZ7
 LZ4  SZ E        16 9 29.75                  123.9 15.8      0        8.10 305 
 LZ4  SN IP       16 9 29.76                             123   -0.4110 8.10 305 
 LZ4  SE IS       16 9 31.37                             123    0.1110 8.10 305 
 LZ4  SZ  AML     16 9 32.12      3146.0 0.34                          8.10 305 
 LA4  SN IP       16 9 32.45                             101   -0.4710 24.1 334 
 LA4  SZ E        16 9 32.51                  156.9  7.7      3        24.1 334 
 LA4  SE IS       16 9 36.79                             101    0.7710 24.1 334 
 LA4  SZ  AML     16 9 38.44       384.3 0.60                          24.1 334 
                                                                                
