 2009  224 2227 46.2 L  21.303 -99.233 10.0  RAL  1 0.0 0.3LRAL                1
 GAP=360        0.33       6.0     7.8  0.0 -0.4707E+02 -0.5054E+04  0.6011E+04E
 ACTION:UPD 12-06-08 11:37 OP:RALL STATUS:               ID:20090224222746     I
 2009-02-24-2227-40S.PLUR1_003                                                 6
 STAT SP IPHASW D HRMM SECON CODA AMPLIT PERI AZIMU VELO AIN AR TRES W  DIS CAZ7
 LZ4  SZ E        2227 48.22                  129.5 12.8      0        4.92 310 
 LZ4  SN IP       2227 48.28                             154    0.1010 4.92 310 
 LZ4  SE IS       2227 49.55                             154   -0.1010 4.92 310 
 LZ4  SZ  AML     2227 49.86         9.3 0.36                          4.92 310 
                                                                                
