 2009  225 0524 22.3 L  21.255 -99.221 10.0  RAL  1 0.0 0.4LRAL                1
 GAP=360        0.30       4.5     2.9  0.0 -0.1303E+02 -0.5054E+04  0.6011E+04E
 ACTION:UPD 12-06-08 11:37 OP:RALL STATUS:               ID:20090225052422     I
 2009-02-25-0524-17S.PLUR1_003                                                 6
 STAT SP IPHASW D HRMM SECON CODA AMPLIT PERI AZIMU VELO AIN AR TRES W  DIS CAZ7
 LZ4  SN IP        524 24.73                             135    0.0110 9.81 329 
 LZ4  SZ E         524 24.84                  149.0 31.3      0        9.81 329 
 LZ4  SZ  AML      524 26.36         9.5 0.58                          9.81 329 
 LZ4  SE IS        524 26.49                             135   -0.0110 9.81 329 
                                                                                
