 2009  225 0303 54.8 L  21.320 -99.296 10.0  RAL  1 0.1 1.1LRAL                1
 GAP=360        0.37       6.4    16.4  0.0  0.1051E+03 -0.5054E+04  0.6011E+04E
 ACTION:UPD 12-06-08 11:37 OP:RALL STATUS:               ID:20090225030354     I
 2009-02-25-0303-48S.PLUR1_003                                                 6
 STAT SP IPHASW D HRMM SECON CODA AMPLIT PERI AZIMU VELO AIN AR TRES W  DIS CAZ7
 LZ4  SZ E         3 3 56.86                  247.2 29.0      0        2.96  67 
 LZ4  SN IP        3 3 56.87                             164    0.1510 2.96  67 
 LZ4  SE IS        3 3 57.96                             164   -0.1510 2.96  67 
 LZ4  SZ  AML      3 3 58.15        70.0 0.12                          2.96  67 
                                                                                
