 2009  225 1614 47.3 L  21.302 -99.282 10.0  RAL  1 0.1 0.5LRAL                1
 GAP=360        0.36      13.4     5.9  0.0  0.7930E+02 -0.5054E+04  0.6011E+04E
 ACTION:UPD 12-06-08 11:37 OP:RALL STATUS:               ID:20090225161447     I
 2009-02-25-1614-41S.PLUR1_003                                                 6
 STAT SP IPHASW D HRMM SECON CODA AMPLIT PERI AZIMU VELO AIN AR TRES W  DIS CAZ7
 LZ4  SZ E        1614 49.39                  202.4 95.7      0        3.40  22 
 LZ4  SN IP       1614 49.39                             162    0.1410 3.40  22 
 LZ4  SE IS       1614 50.50                             162   -0.1410 3.40  22 
 LZ4  SZ  AML     1614 50.96        19.0 0.20                          3.40  22 
                                                                                
