 2009  225 2240 30.8 L  21.308 -99.285 10.0  RAL  1 0.2 1.5LRAL                1
 GAP=360        0.65      25.0    16.7  0.0  0.4161E+03 -0.5054E+04  0.6011E+04E
 ACTION:UPD 12-06-08 11:37 OP:RALL STATUS:               ID:20090225224030     I
 2009-02-25-2240-23S.PLUR1_003                                                 6
 STAT SP IPHASW D HRMM SECON CODA AMPLIT PERI AZIMU VELO AIN AR TRES W  DIS CAZ7
 LZ4  SN IP       2240 33.08                             164    0.3910 2.96  32 
 LZ4  SZ E        2240 33.11                  211.7 15.7      0        2.96  32 
 LZ4  SE IS       2240 33.68                             164   -0.3910 2.96  32 
 LZ4  SZ  AML     2240 34.07       177.6 0.26                          2.96  32 
                                                                                
