 2009  226 1727 52.4 L  21.333 -99.273 10.0  RAL  1 0.9 0.7LRAL                1
 GAP=360       11.48     188.0   999.9  0.0  0.4469E+06 -0.5054E+04  0.6011E+04E
 ACTION:UPD 12-06-08 11:37 OP:RALL STATUS:               ID:20090226172752     I
 2009-02-26-1727-45S.PLUR1_003                                                 6
 STAT SP IPHASW D HRMM SECON CODA AMPLIT PERI AZIMU VELO AIN AR TRES W  DIS CAZ7
 LZ4  SZ E        1727 54.39                  358.5 42.8     55        0.49 124 
 LZ4  SN IP       1727 54.42                             177    0.1810 0.49 124 
 LZ4  SE IS       1727 55.39                             177   -0.1810 0.49 124 
 LZ4  SZ  AML     1727 55.80        29.8 0.10                          0.49 124 
                                                                                
