 2009  226 1226 22.0 L  21.185 -99.292 10.0  RAL  1 0.0 0.5LRAL                1
 GAP=360        0.30       4.2     0.8  0.0  0.2763E+01 -0.5054E+04  0.6011E+04E
 ACTION:UPD 12-06-08 11:37 OP:RALL STATUS:               ID:20090226122622     I
 2009-02-26-1226-18S.PLUR1_003                                                 6
 STAT SP IPHASW D HRMM SECON CODA AMPLIT PERI AZIMU VELO AIN AR TRES W  DIS CAZ7
 LZ4  SZ E        1226 25.27                  188.3 24.3      0        16.3   8 
 LZ4  SN IP       1226 25.28                             119    0.0210 16.3   8 
 LZ4  SE IS       1226 27.61                             119   -0.0210 16.3   8 
 LZ4  SZ  AML     1226 28.25         9.7 0.54                          16.3   8 
                                                                                
