 2009  226 2327  8.4 L  21.676 -99.378 10.0  RAL  1 0.0 0.7LRAL                1
 GAP=360        0.30       3.8     1.5  0.0 -0.4984E+01 -0.5054E+04  0.6011E+04E
 ACTION:UPD 12-06-08 11:37 OP:RALL STATUS:               ID:20090226232708     I
 2009-02-26-2327-01S.PLUR1_003                                                 6
 STAT SP IPHASW D HRMM SECON CODA AMPLIT PERI AZIMU VELO AIN AR TRES W  DIS CAZ7
 LA4  SN IP       2327 12.54                             111    0.0210 22.4 162 
 LA4  SZ E        2327 12.66                  341.6  8.6      0        22.4 162 
 LA4  SE IS       2327 15.51                             111   -0.0210 22.4 162 
 LA4  SZ  AML     2327 16.32        11.0 0.66                          22.4 162 
                                                                                
