 2009  226 2028 52.1 L  21.303 -99.287 10.0  RAL  1 0.1 0.4LRAL                1
 GAP=360        0.36      11.8     7.2  0.0  0.8443E+02 -0.5054E+04  0.6011E+04E
 ACTION:UPD 12-06-08 11:37 OP:RALL STATUS:               ID:20090226202852     I
 2009-02-26-2028-45S.PLUR1_003                                                 6
 STAT SP IPHASW D HRMM SECON CODA AMPLIT PERI AZIMU VELO AIN AR TRES W  DIS CAZ7
 LZ4  SZ E        2028 54.08                  209.6 27.0      0        3.61  30 
 LZ4  SN IP       2028 54.16                             161    0.1410 3.61  30 
 LZ4  SE IS       2028 55.29                             161   -0.1410 3.61  30 
 LZ4  SZ  AML     2028 55.30        12.4 0.46                          3.61  30 
                                                                                
