 2009  227 0209 50.0 L  21.358 -99.289 10.0  RAL  1 0.1 0.6LRAL                1
 GAP=360        0.43      13.5     9.8  0.0 -0.1328E+03 -0.5054E+04  0.6011E+04E
 ACTION:UPD 12-06-08 11:37 OP:RALL STATUS:               ID:20090227020950     I
 2009-02-27-0209-43S.PLUR1_003                                                 6
 STAT SP IPHASW D HRMM SECON CODA AMPLIT PERI AZIMU VELO AIN AR TRES W  DIS CAZ7
 LZ4  SZ E         2 9 52.12                  325.9 27.6      0        3.59 146 
 LZ4  SN IP        2 9 52.12                             161    0.2110 3.59 146 
 LZ4  SE IS        2 9 53.10                             161   -0.2110 3.59 146 
 LZ4  SZ  AML      2 9 53.80        21.1 0.68                          3.59 146 
                                                                                
