 2009  227 0422 39.9 L  21.502 -99.322 10.0  RAL  1 0.2 0.3LRAL                1
 GAP=360        0.74      32.9    24.2  0.0 -0.7978E+03 -0.5054E+04  0.6011E+04E
 ACTION:UPD 12-06-08 11:37 OP:RALL STATUS:               ID:20090227042239     I
 2009-02-27-0422-28S.PLUR1_003                                                 6
 STAT SP IPHASW D HRMM SECON CODA AMPLIT PERI AZIMU VELO AIN AR TRES W  DIS CAZ7
 LA4  SZ E         422 42.20                  325.6 11.5      0        2.45 146 
 LA4  SN IP        422 42.22                             167    0.4510 2.45 146 
 LA4  SE IS        422 42.69                             167   -0.4510 2.45 146 
 LA4  SZ  AML      422 42.79        10.5 0.22                          2.45 146 
                                                                                
