 2009  227 0727 34.8 L  21.499 -99.319 10.0  RAL  1 0.2 0.1LRAL                1
 GAP=360        0.76      42.7    27.3  0.0 -0.1168E+04 -0.5054E+04  0.6011E+04E
 ACTION:UPD 12-06-08 11:37 OP:RALL STATUS:               ID:20090227072734     I
 2009-02-27-0727-23S.PLUR1_003                                                 6
 STAT SP IPHASW D HRMM SECON CODA AMPLIT PERI AZIMU VELO AIN AR TRES W  DIS CAZ7
 LA4  SN IP        727 37.18                             169    0.4710 2.01 149 
 LA4  SZ E         727 37.20                  329.2 15.7      0        2.01 149 
 LA4  SE IS        727 37.61                             169   -0.4710 2.01 149 
 LA4  SZ  AML      727 37.70         7.1 0.18                          2.01 149 
                                                                                
