 2009  227 0942 55.9 L  21.308 -99.306 10.0  RAL  1 0.1 0.2LRAL                1
 GAP=360        0.36       6.1     9.9  0.0  0.6065E+02 -0.5054E+04  0.6011E+04E
 ACTION:UPD 12-06-08 11:37 OP:RALL STATUS:               ID:20090227094255     I
 2009-02-27-0942-50S.PLUR1_003                                                 6
 STAT SP IPHASW D HRMM SECON CODA AMPLIT PERI AZIMU VELO AIN AR TRES W  DIS CAZ7
 LZ4  SZ E         942 57.98                  236.7 31.5      0        4.51  57 
 LZ4  SN IP        942 57.99                             156    0.1410 4.51  57 
 LZ4  SE IS        942 59.16                             156   -0.1410 4.51  57 
 LZ4  SZ  AML      942 59.47         9.0 0.40                          4.51  57 
                                                                                
