 2009  227 1040  8.5 L  21.584 -99.471 10.0  RAL  1 0.0 1.2LRAL                1
 GAP=360        0.30       2.3     3.6  0.0 -0.7909E+01 -0.5054E+04  0.6011E+04E
 ACTION:UPD 12-06-08 11:37 OP:RALL STATUS:               ID:20090227104008     I
 2009-02-27-1040-01S.PLUR1_003                                                 6
 STAT SP IPHASW D HRMM SECON CODA AMPLIT PERI AZIMU VELO AIN AR TRES W  DIS CAZ7
 LA4  SZ E        1040 12.25                  303.7 10.2      0        20.1 124 
 LA4  SN IP       1040 12.28                             113    0.0010 20.1 124 
 LA4  SE IS       1040 15.04                             113    0.0010 20.1 124 
 LA4  SZ  AML     1040 17.99        38.0 0.62                          20.1 124 
                                                                                
