 2009  227 2159 46.6 L  21.672 -99.307 10.0  RAL  1 0.0 0.4LRAL                1
 GAP=360        0.30       4.0     0.6  0.0  0.1484E+00 -0.5054E+04  0.6011E+04E
 ACTION:UPD 12-06-08 11:37 OP:RALL STATUS:               ID:20090227215946     I
 2009-02-27-2159-39S.PLUR1_003                                                 6
 STAT SP IPHASW D HRMM SECON CODA AMPLIT PERI AZIMU VELO AIN AR TRES W  DIS CAZ7
 LA4  SN IP       2159 50.52                             112    0.0110 20.9 181 
 LA4  SZ E        2159 50.90                    0.5 10.8      0        20.9 181 
 LA4  SE IS       2159 53.34                             112   -0.0110 20.9 181 
 LA4  SZ  AML     2159 55.04         6.6 0.30                          20.9 181 
                                                                                
