 2009  228 0849 24.3 L  21.636 -99.353 10.0  RAL  1 0.0 0.7LRAL                1
 GAP=360        0.30       4.0     1.3  0.0 -0.4642E+01 -0.5054E+04  0.6011E+04E
 ACTION:UPD 12-06-08 11:37 OP:RALL STATUS:               ID:20090228084924     I
 2009-02-28-0849-14S.PLUR1_003                                                 6
 STAT SP IPHASW D HRMM SECON CODA AMPLIT PERI AZIMU VELO AIN AR TRES W  DIS CAZ7
 LA4  SZ E         849 27.74                  344.9  9.9      0        17.4 165 
 LA4  SN IP        849 27.75                             118    0.0010 17.4 165 
 LA4  SE IS        849 30.24                             118    0.0010 17.4 165 
 LA4  SZ  AML      849 31.10        14.1 0.18                          17.4 165 
                                                                                
