 2009  228 0423 13.4 L  21.587 -99.356 10.0  RAL  1 0.0 0.0LRAL                1
 GAP=360        0.30       4.3     2.0  0.0 -0.8428E+01 -0.5054E+04  0.6011E+04E
 ACTION:UPD 12-06-08 11:37 OP:RALL STATUS:               ID:20090228042313     I
 2009-02-28-0423-03S.PLUR1_003                                                 6
 STAT SP IPHASW D HRMM SECON CODA AMPLIT PERI AZIMU VELO AIN AR TRES W  DIS CAZ7
 LA4  SZ E         423 16.16                  337.0 11.2      0        12.5 157 
 LA4  SN IP        423 16.22                             128    0.0110 12.5 157 
 LA4  SE IS        423 18.22                             128   -0.0110 12.5 157 
 LA4  SZ  AML      423 18.33         3.7 0.10                          12.5 157 
                                                                                
