 2009  228 1808 37.7 L  21.262 -99.277 10.0  RAL  1 0.3 1.4LRAL                1
 GAP=360        1.73      40.6    73.4  0.0  0.2984E+04 -0.1565E+08 -0.4597E+06E
 ACTION:UPD 12-06-08 11:37 OP:RALL STATUS:               ID:20090228180837     I
 2009-02-28-1808-31S.PLUR1_003                                                 6
 STAT SP IPHASW D HRMM SECON CODA AMPLIT PERI AZIMU VELO AIN AR TRES W  DIS CAZ7
 LG3  SZ E        18 8 40.22                  246.1  8.0      7        2.92  59 
 LG3  SN IP       18 8 40.23                             164    0.6310 2.92  59 
 LG3  SE IS       18 8 40.36                             164   -0.6310 2.92  59 
 LG3  SZ  AML     18 8 40.72       133.0 0.20                          2.92  59 
                                                                                
