 2009  228 1811 58.4 L  21.268 -99.417 10.0  RAL  1 0.0 0.5LRAL                1
 GAP=360        0.30       3.5     1.9  0.0  0.6047E+01 -0.1565E+08 -0.4597E+06E
 ACTION:UPD 12-06-08 11:37 OP:RALL STATUS:               ID:20090228181158     I
 2009-02-28-1811-49S.PLUR1_003                                                 6
 STAT SP IPHASW D HRMM SECON CODA AMPLIT PERI AZIMU VELO AIN AR TRES W  DIS CAZ7
 LA4  SZ E        1812  3.10                  205.2 16.0      0        26.4  25 
 LA4  SN IP       1812  3.15                             107    0.0210 26.4  25 
 LA4  SE IS       1812  6.54                             107   -0.0210 26.4  25 
 LA4  SZ  AML     1812  6.79         7.3 0.20                          26.4  25 
                                                                                
