 2009  228 1249 17.2 L  21.532 -99.322 10.0  RAL  1 0.0 0.4LRAL                1
 GAP=360        0.30       7.6     2.0  0.0 -0.1525E+02 -0.1565E+08 -0.4597E+06E
 ACTION:UPD 12-06-08 11:37 OP:RALL STATUS:               ID:20090228124917     I
 2009-02-28-1249-06S.PLUR1_003                                                 6
 STAT SP IPHASW D HRMM SECON CODA AMPLIT PERI AZIMU VELO AIN AR TRES W  DIS CAZ7
 LA4  SZ E        1249 19.25                  346.1 10.2      0        5.55 166 
 LA4  SN IP       1249 19.29                             152    0.0210 5.55 166 
 LA4  SE IS       1249 20.76                             152   -0.0210 5.55 166 
 LA4  SZ  AML     1249 21.51        13.4 0.32                          5.55 166 
                                                                                
