 2009  228 1126  6.3 L  21.317 -98.746  5.4  RAL  2 0.5 0.9LRAL                1
 GAP=353        7.75      28.3   419.6999.9  0.5140E+04 -0.1565E+08 -0.4597E+06E
 ACTION:UPD 12-06-08 11:37 OP:RALL STATUS:               ID:20090228112606     I
 2009-02-28-1126-10S.PLUR1_006                                                 6
 STAT SP IPHASW D HRMM SECON CODA AMPLIT PERI AZIMU VELO AIN AR TRES W  DIS CAZ7
 LG3  SN IP       1126 14.87                              91   -0.0910 52.7 265 
 LG3  SZ E        1126 14.93                  110.9 11.9     26        52.7 265 
 LG3  SE IS       1126 20.13                              91   -1.1710 52.7 265 
 LG3  SZ  AML     1126 20.37         7.3 0.30                          52.7 265 
 LZ4  SZ E        1126 15.94                   64.9 16.6    -26        54.3 272 
 LZ4  SN IP       1126 16.05                              91    0.8510 54.3 272 
 LZ4  SE IS       1126 22.12                              91    0.4110 54.3 272 
 LZ4  SZ  AML     1126 22.78        11.6 0.18                          54.3 272 
                                                                                
