 2009  228 1832 17.4 L  21.327 -99.289 10.0  RAL  1 0.1 0.8LRAL                1
 GAP=360        0.38       5.1    25.3  0.0  0.1288E+03 -0.1565E+08 -0.4597E+06E
 ACTION:UPD 12-06-08 11:37 OP:RALL STATUS:               ID:20090228183217     I
 2009-02-28-1832-09S.PLUR1_003                                                 6
 STAT SP IPHASW D HRMM SECON CODA AMPLIT PERI AZIMU VELO AIN AR TRES W  DIS CAZ7
 LZ4  SZ E        1832 19.39                  257.8 22.2      0        2.06  78 
 LZ4  SN IP       1832 19.40                             169    0.1610 2.06  78 
 LZ4  SE IS       1832 20.44                             169   -0.1610 2.06  78 
 LZ4  SZ  AML     1832 20.53        33.5 0.22                          2.06  78 
                                                                                
