 2009  228 1218 44.1 R  20.416 -99.070 10.0  RAL  1 0.0 2.4LRAL                1
 GAP=360        0.30       3.7     3.4  0.0 -0.8455E+00 -0.1565E+08 -0.4597E+06E
 ACTION:UPD 12-06-08 11:37 OP:RALL STATUS:               ID:20090228121844     I
 2009-02-28-1218-51S.PLUR1_003                                                 6
 STAT SP IPHASW D HRMM SECON CODA AMPLIT PERI AZIMU VELO AIN AR TRES W  DIS CAZ7
 LA4  SN EP       1219  3.38                              93    0.0010  121 348 
 LA4  SZ E        1219  3.61                  168.1 10.8      0         121 348 
 LA4  SE IS       1219 17.44                              93    0.0010  121 348 
 LA4  SZ  AML     1219 19.17       119.7 0.80                           121 348 
                                                                                
