 2009  228 1011 35.2 L  21.338 -99.240 10.0  RAL  1 0.0 0.2LRAL                1
 GAP=360        0.31       3.4    13.7  0.0  0.4707E+02 -0.5054E+04  0.6011E+04E
 ACTION:UPD 12-06-08 11:37 OP:RALL STATUS:               ID:20090228101135     I
 2009-02-28-1011-29S.PLUR1_003                                                 6
 STAT SP IPHASW D HRMM SECON CODA AMPLIT PERI AZIMU VELO AIN AR TRES W  DIS CAZ7
 LZ4  SN IP       1011 37.22                             163    0.0710 3.19 255 
 LZ4  SZ E        1011 37.33                   74.9 23.5      0        3.19 255 
 LZ4  SE IS       1011 38.47                             163   -0.0710 3.19 255 
 LZ4  SZ  AML     1011 39.63         8.8 0.24                          3.19 255 
                                                                                
