 2009  228 2009  1.7 L  21.457 -99.260 10.0  RAL  1 0.0 0.4LRAL                1
 GAP=360        0.30       3.8     7.0  0.0 -0.2631E+02 -0.1565E+08 -0.4597E+06E
 ACTION:UPD 12-06-08 11:37 OP:RALL STATUS:               ID:20090228200901     I
 2009-02-28-2008-34S.PLUR1_003                                                 6
 STAT SP IPHASW D HRMM SECON CODA AMPLIT PERI AZIMU VELO AIN AR TRES W  DIS CAZ7
 LA4  SN IP       20 9  3.83                             150    0.0410 5.93 300 
 LA4  SZ E        20 9  3.97                  120.2 11.0      0        5.93 300 
 LA4  SE IS       20 9  5.28                             150   -0.0410 5.93 300 
 LA4  SZ  AML     20 9  5.63        12.3 0.26                          5.93 300 
                                                                                
