 2009  3 1 0618 24.4 L  21.485 -99.292 10.0  RAL  1 0.0 0.4LRAL                1
 GAP=360        0.30       2.0    24.1  0.0  0.4745E+02 -0.1565E+08 -0.4597E+06E
 ACTION:UPD 12-06-08 11:37 OP:RALL STATUS:               ID:20090301061824     I
 2009-03-01-0618-13S.PLUR1_003                                                 6
 STAT SP IPHASW D HRMM SECON CODA AMPLIT PERI AZIMU VELO AIN AR TRES W  DIS CAZ7
 LA4  SN IP        618 26.35                             170    0.0410 1.76 265 
 LA4  SZ E         618 26.58                   85.0  4.8      0        1.76 265 
 LA4  SE IS        618 27.64                             170   -0.0410 1.76 265 
 LA4  SZ  AML      618 27.96        12.5 0.24                          1.76 265 
                                                                                
