 2009  3 1 0449 43.8 L  21.190 -99.184 10.0  RAL  1 0.0 1.4LRAL                1
 GAP=360        0.30       3.6     2.2  0.0 -0.7758E+01 -0.1565E+08 -0.4597E+06E
 ACTION:UPD 12-06-08 11:37 OP:RALL STATUS:               ID:20090301044943     I
 2009-03-01-0449-38S.PLUR1_003                                                 6
 STAT SP IPHASW D HRMM SECON CODA AMPLIT PERI AZIMU VELO AIN AR TRES W  DIS CAZ7
 LZ4  SZ E         449 47.32                  150.3 31.4      0        17.9 330 
 LZ4  SN IP        449 47.32                             116    0.0110 17.9 330 
 LZ4  SE IS        449 49.85                             116   -0.0110 17.9 330 
 LZ4  SZ  AML      449 50.05        79.5 0.22                          17.9 330 
                                                                                
