 2009  3 1 0324 44.0 L  21.427 -99.208 10.0  RAL  1 0.0 0.3LRAL                1
 GAP=360        0.30       2.4     4.4  0.0 -0.1054E+02 -0.1565E+08 -0.4597E+06E
 ACTION:UPD 12-06-08 11:37 OP:RALL STATUS:               ID:20090301032444     I
 2009-03-01-0324-35S.PLUR1_003                                                 6
 STAT SP IPHASW D HRMM SECON CODA AMPLIT PERI AZIMU VELO AIN AR TRES W  DIS CAZ7
 LA4  SN IP        324 46.72                             128    0.0210 12.2 301 
 LA4  SZ E         324 46.74                  120.7 11.2      0        12.2 301 
 LA4  SE IS        324 48.68                             128   -0.0210 12.2 301 
 LA4  SZ  AML      324 49.75         6.6 0.50                          12.2 301 
                                                                                
