 2009  3 1 0645 10.0 L  21.333 -99.257 10.0  RAL  1 0.0 0.5LRAL                1
 GAP=360        0.34     999.9   784.3  0.0 -0.3760E+07 -0.1565E+08 -0.4597E+06E
 ACTION:UPD 12-06-08 11:37 OP:RALL STATUS:               ID:20090301064510     I
 2009-03-01-0645-03S.PLUR1_003                                                 6
 STAT SP IPHASW D HRMM SECON CODA AMPLIT PERI AZIMU VELO AIN AR TRES W  DIS CAZ7
 LZ4  SZ E         645 11.94                   81.8 99.9      0        1.34 262 
 LZ4  SN IP        645 11.97                             173    0.1110 1.34 262 
 LZ4  SE IS        645 13.09                             173   -0.1110 1.34 262 
 LZ4  SZ  AML      645 15.43        16.8 0.66                          1.34 262 
                                                                                
