 2009  3 1 0647 55.5 L  21.653 -99.393 30.7  RAL  2 0.5 2.3LRAL                1
 GAP=355        6.88      65.5    32.0805.6 -0.1881E+04  0.1584E+05 -0.3447E+05E
 ACTION:UPD 12-06-08 11:37 OP:RALL STATUS:               ID:20090301064755     I
 2009-03-01-0647-48S.PLUR1_006                                                 6
 STAT SP IPHASW D HRMM SECON CODA AMPLIT PERI AZIMU VELO AIN AR TRES W  DIS CAZ7
 LA4  SZ E         648  2.35                  352.3 39.8     17        20.6 155 
 LA4  SN IP        648  2.37                              94    0.9610 20.6 155 
 LA4  SE IS        648  5.86                              94    0.1610 20.6 155 
 LA4  SZ  AML      648  8.06       241.5 0.34                          20.6 155 
 LZ4  SZ E         648  3.14                  312.3  7.4    -27        37.8 160 
 LZ4  SN IP        648  3.16                              92    0.0010 37.8 160 
 LZ4  SE IS        648  7.62                              92   -1.1210 37.8 160 
 LZ4  SZ  AML      648  7.82       416.1 0.24                          37.8 160 
                                                                                
