 2009  3 1 1129 51.5 L  21.266 -99.227  1.9  RAL  2 0.1 0.3LRAL                1
 GAP=324        0.42       0.3     0.5  3.5 -0.1228E+00 -0.7796E-01  0.2469E-01E
 ACTION:UPD 12-06-08 11:37 OP:RALL STATUS:               ID:20090301112951     I
 2009-03-01-1129-43S.PLUR1_006                                                 6
 STAT SP IPHASW D HRMM SECON CODA AMPLIT PERI AZIMU VELO AIN AR TRES W  DIS CAZ7
 LG3  SZ E        1129 52.10                  112.3 16.1      0        2.88 292 
 LG3  SN IP       1129 52.14                             137   -0.0810 2.88 292 
 LG3  SE IS       1129 52.72                             137   -0.0410 2.88 292 
 LG3  SZ  AML     1129 53.20        37.4 0.12                          2.88 292 
 LZ4  SN IP       1129 52.91                             109   -0.1410 8.45 328 
 LZ4  SZ E        1129 52.92                  148.6 12.9      0        8.45 328 
 LZ4  SE IS       1129 54.44                             109    0.2510 8.45 328 
 LZ4  SZ  AML     1129 54.85        12.6 0.24                          8.45 328 
                                                                                
