 2009  3 1 1734  0.9 L  21.493 -99.308 10.0  RAL  1 0.1 0.1LRAL                1
 GAP=360        1.39     999.9   999.9  0.0 -0.1151E+09 -0.7796E-01  0.2469E-01E
 ACTION:UPD 12-06-08 11:37 OP:RALL STATUS:               ID:20090301173400     I
 2009-03-01-1733-49S.PLUR1_003                                                 6
 STAT SP IPHASW D HRMM SECON CODA AMPLIT PERI AZIMU VELO AIN AR TRES W  DIS CAZ7
 LA4  SN IP       1734  2.78                             174    0.0610 1.08 183 
 LA4  SZ E        1734  2.80                  356.5  7.5      6        1.08 183 
 LA4  SE IS       1734  4.02                             174   -0.0610 1.08 183 
 LA4  SZ  AML     1734  4.37         7.7 0.52                          1.08 183 
                                                                                
