 2009  3 1 1719 20.9 L  21.328 -99.286 10.0  RAL  1 0.1 0.5LRAL                1
 GAP=360        0.39       5.8    29.8  0.0  0.1739E+03 -0.7796E-01  0.2469E-01E
 ACTION:UPD 12-06-08 11:37 OP:RALL STATUS:               ID:20090301171920     I
 2009-03-01-1719-14S.PLUR1_003                                                 6
 STAT SP IPHASW D HRMM SECON CODA AMPLIT PERI AZIMU VELO AIN AR TRES W  DIS CAZ7
 LZ4  SZ E        1719 22.87                  258.1 10.2      0        1.78  78 
 LZ4  SN IP       1719 22.90                             170    0.1710 1.78  78 
 LZ4  SE IS       1719 23.92                             170   -0.1710 1.78  78 
 LZ4  SZ  AML     1719 24.11        16.3 0.14                          1.78  78 
                                                                                
