 2009  3 1 1817 27.8 L  21.441 -99.254 10.0  RAL  1 0.0 0.1LRAL                1
 GAP=360        0.30       4.1     5.2  0.0 -0.2115E+02 -0.7796E-01  0.2469E-01E
 ACTION:UPD 12-06-08 11:37 OP:RALL STATUS:               ID:20090301181727     I
 2009-03-01-1817-16S.PLUR1_003                                                 6
 STAT SP IPHASW D HRMM SECON CODA AMPLIT PERI AZIMU VELO AIN AR TRES W  DIS CAZ7
 LA4  SZ E        1817 29.99                  129.7 13.1      0        7.40 310 
 LA4  SN IP       1817 30.00                             144    0.0310 7.40 310 
 LA4  SE IS       1817 31.56                             144   -0.0310 7.40 310 
 LA4  SZ  AML     1817 32.14         5.2 0.56                          7.40 310 
                                                                                
