 2009  3 1 1239 53.9 L  21.348 -99.275 10.0  RAL  1 0.2 0.5LRAL                1
 GAP=360        1.41      86.3    29.0  0.0 -0.2507E+04 -0.7796E-01  0.2469E-01E
 ACTION:UPD 12-06-08 11:37 OP:RALL STATUS:               ID:20090301123953     I
 2009-03-01-1239-47S.PLUR1_003                                                 6
 STAT SP IPHASW D HRMM SECON CODA AMPLIT PERI AZIMU VELO AIN AR TRES W  DIS CAZ7
 LZ4  SN IP       1239 56.27                             169    0.5110 2.04 163 
 LZ4  SZ E        1239 56.32                  337.1 22.2     -4        2.04 163 
 LZ4  SE IS       1239 56.61                             169   -0.5110 2.04 163 
 LZ4  SZ  AML     1239 56.88        18.9 0.30                          2.04 163 
                                                                                
