 2009  3 2 0136 50.4 Ly 21.252 -99.271  9.5  RAL  2 0.2 1.4LRAL                1
 GAP=350        3.71      28.3     2.9 32.1  0.6258E+01  0.1499E+01 -0.4230E+02E
 ACTION:UPD 12-06-08 11:37 OP:RALL STATUS:               ID:20090302013650     I
 2009-03-02-0136-43S.PLUR1_006                                                 6
 STAT SP IPHASW D HRMM SECON CODA AMPLIT PERI AZIMU VELO AIN AR TRES W  DIS CAZ7
 LZ4  SZ E         136 52.62                  184.7 24.5      3        8.76   1 
 LZ4  SN IP        136 52.64                             137   -0.0710 8.76   1 
 LZ4  SE IS        136 53.85                             137   -0.5210 8.76   1 
 LZ4  SZ  AML      136 53.93       281.8 0.22                          8.76   1 
 LA4  SN IP        136 55.22                             106    0.1610 26.0 351 
 LA4  SZ E         136 55.23                  153.9  7.1    -16        26.0 351 
 LA4  SE IS        136 58.87                             106    0.4310 26.0 351 
 LA4  SZ  AML      136 59.49        25.6 0.38                          26.0 351 
                                                                                
