 2009  3 2 0141 26.5 L  21.306 -99.277 10.0  RAL  1 0.0 0.8LRAL                1
 GAP=360        0.33      15.0     4.4  0.0  0.6675E+02  0.1499E+01 -0.4230E+02E
 ACTION:UPD 12-06-08 11:37 OP:RALL STATUS:               ID:20090302014126     I
 2009-03-02-0141-19S.PLUR1_003                                                 6
 STAT SP IPHASW D HRMM SECON CODA AMPLIT PERI AZIMU VELO AIN AR TRES W  DIS CAZ7
 LZ4  SZ E         141 28.52                  195.4 19.6      0        2.80  15 
 LZ4  SN IP        141 28.53                             165    0.0910 2.80  15 
 LZ4  SE IS        141 29.72                             165   -0.0910 2.80  15 
 LZ4  SZ  AML      141 30.24        36.6 0.22                          2.80  15 
                                                                                
