 2009  3 2 0129  9.6 L  21.279 -99.238 10.0  RAL  1 0.0 0.4LRAL                1
 GAP=360        0.30       6.0     3.6  0.0 -0.2127E+02 -0.7796E-01  0.2469E-01E
 ACTION:UPD 12-06-08 11:37 OP:RALL STATUS:               ID:20090302012909     I
 2009-03-02-0129-03S.PLUR1_003                                                 6
 STAT SP IPHASW D HRMM SECON CODA AMPLIT PERI AZIMU VELO AIN AR TRES W  DIS CAZ7
 LZ4  SZ E         129 11.69                  150.8 15.6      0        6.61 331 
 LZ4  SN IP        129 11.72                             147    0.0310 6.61 331 
 LZ4  SE IS        129 13.22                             147   -0.0310 6.61 331 
 LZ4  SZ  AML      129 14.79        11.6 1.02                          6.61 331 
                                                                                
