 2009  3 2 0539 26.2 L  21.381 -99.157 48.2  RAL  3 1.5 1.7LRAL                1
 GAP=275       25.87     214.1   392.6377.6  0.7784E+05  0.9599E+05  0.5031E+05E
 ACTION:UPD 12-06-08 11:37 OP:RALL STATUS:               ID:20090302053926     I
 2009-03-02-0539-19S.PLUR1_009                                                 6
 STAT SP IPHASW D HRMM SECON CODA AMPLIT PERI AZIMU VELO AIN AR TRES W  DIS CAZ7
 LZ4  SN IP        539 31.27                             150   -2.1910 13.0 244 
 LZ4  SZ E         539 31.34                  347.7 10.4     77        13.0 244 
 LZ4  SE IS        539 38.58                             150   -0.2010 13.0 244 
 LZ4  SZ  AML      539 39.06        73.5 0.30                          13.0 244 
 LG3  SN IP        539 35.95                             150    2.3810 15.3 220 
 LG3  SZ E         539 36.02                  118.8 13.9     78        15.3 220 
 LG3  SE IS        539 40.32                             150    1.3410 15.3 220 
 LG3  SZ  AML      539 40.63        39.1 0.16                          15.3 220 
 LA4  SZ E         539 30.90                  225.4 19.5    100        19.4 306 
 LA4  SN IP        539 33.65                             147   -0.1110 19.4 306 
 LA4  SE IS        539 38.08                             147   -1.2210 19.4 306 
 LA4  SZ  AML      539 38.54        59.1 0.56                          19.4 306 
                                                                                
