 2009  3 2 1852 31.9 L  21.536 -99.361 10.0  RAL  1 0.0 0.9LRAL                1
 GAP=360        0.30       4.4     4.4  0.0 -0.1940E+02  0.9599E+05  0.5031E+05E
 ACTION:UPD 12-06-08 11:37 OP:RALL STATUS:               ID:20090302185231     I
 2009-03-02-1852-20S.PLUR1_003                                                 6
 STAT SP IPHASW D HRMM SECON CODA AMPLIT PERI AZIMU VELO AIN AR TRES W  DIS CAZ7
 LA4  SN IP       1852 34.19                             142    0.0210 7.93 137 
 LA4  SZ E        1852 34.22                  317.1  9.9      0        7.93 137 
 LA4  SE IS       1852 35.80                             142   -0.0210 7.93 137 
 LA4  SZ  AML     1852 35.90        39.7 0.10                          7.93 137 
                                                                                
