 2009  3 3 1546 14.3 L  21.300 -99.253 10.0  RAL  1 0.1 0.5LRAL                1
 GAP=360        0.36      11.5     6.2  0.0 -0.7103E+02  0.2070E+04 -0.4944E+04E
 ACTION:UPD 12-06-08 11:37 OP:RALL STATUS:               ID:20090303154614     I
 2009-03-03-1546-08S.PLUR1_003                                                 6
 STAT SP IPHASW D HRMM SECON CODA AMPLIT PERI AZIMU VELO AIN AR TRES W  DIS CAZ7
 LZ4  SZ E        1546 16.29                  153.3 19.5      0        3.88 333 
 LZ4  SN IP       1546 16.35                             159    0.1410 3.88 333 
 LZ4  SE IS       1546 17.48                             159   -0.1410 3.88 333 
 LZ4  SZ  AML     1546 17.97        18.2 0.32                          3.88 333 
                                                                                
