 2009  3 3 1635 29.9 L  21.273 -99.234  7.4  RAL  2 0.2 1.3LRAL                1
 GAP=308        1.08       0.3     0.9  9.6 -0.1330E+00 -0.5449E-01 -0.7292E-02E
 ACTION:UPD 12-06-08 11:37 OP:RALL STATUS:               ID:20090303163529     I
 2009-03-03-1635-22S.PLUR1_006                                                 6
 STAT SP IPHASW D HRMM SECON CODA AMPLIT PERI AZIMU VELO AIN AR TRES W  DIS CAZ7
 LG3  SZ E        1635 30.87                   97.3 13.9      0        1.89 279 
 LG3  SN IP       1635 30.87                             166   -0.5210 1.89 279 
 LG3  SE IS       1635 32.19                             166   -0.2810 1.89 279 
 LG3  SZ  AML     1635 32.96       104.2 0.26                          1.89 279 
 LZ4  SZ E        1635 31.78                  150.3 16.2      0        7.35 330 
 LZ4  SN IP       1635 31.80                             133    0.0010 7.35 330 
 LZ4  SE IS       1635 33.97                             133    0.7910 7.35 330 
 LZ4  SZ  AML     1635 34.59       122.0 0.18                          7.35 330 
                                                                                
