 2009  3 3 1811 35.5 L  21.302 -99.284 10.0  RAL  1 0.1 0.8LRAL                1
 GAP=360        0.37      12.7     6.3  0.0  0.7976E+02 -0.5449E-01 -0.7292E-02E
 ACTION:UPD 12-06-08 11:37 OP:RALL STATUS:               ID:20090303181135     I
 2009-03-03-1811-28S.PLUR1_003                                                 6
 STAT SP IPHASW D HRMM SECON CODA AMPLIT PERI AZIMU VELO AIN AR TRES W  DIS CAZ7
 LZ4  SN IP       1811 37.52                             161    0.1510 3.55  25 
 LZ4  SZ E        1811 37.56                  204.6 34.4      0        3.55  25 
 LZ4  SE IS       1811 38.63                             161   -0.1510 3.55  25 
 LZ4  SZ  AML     1811 39.07        34.8 0.18                          3.55  25 
                                                                                
