 2009  3 3 1416  7.2 L  21.351 -99.295 10.0  RAL  1 0.1 0.9LRAL                1
 GAP=360        0.40      10.1    12.9  0.0 -0.1303E+03  0.2070E+04 -0.4944E+04E
 ACTION:UPD 12-06-08 11:37 OP:RALL STATUS:               ID:20090303141607     I
 2009-03-03-1416-00S.PLUR1_003                                                 6
 STAT SP IPHASW D HRMM SECON CODA AMPLIT PERI AZIMU VELO AIN AR TRES W  DIS CAZ7
 LZ4  SZ E        1416  9.31                  310.1 57.2      0        3.48 130 
 LZ4  SN IP       1416  9.33                             161    0.1910 3.48 130 
 LZ4  SE IS       1416 10.36                             161   -0.1910 3.48 130 
 LZ4  SZ  AML     1416 10.42        46.8 0.26                          3.48 130 
                                                                                
