 2009  3 3 1024 37.4 L  21.688 -99.396  0.0  RAL  2 0.1 0.8LRAL                1
 GAP=357        2.04      19.7     9.0387.5 -0.1543E+03  0.2070E+04 -0.4944E+04E
 ACTION:UPD 12-06-08 11:37 OP:RALL STATUS:               ID:20090303102437     I
 2009-03-03-1024-29S.PLUR1_006                                                 6
 STAT SP IPHASW D HRMM SECON CODA AMPLIT PERI AZIMU VELO AIN AR TRES W  DIS CAZ7
 LA4  SZ E        1024 41.40                  343.2  8.9      5        24.3 158 
 LA4  SN IP       1024 41.42                              93   -0.2010 24.3 158 
 LA4  SE IS       1024 44.58                              93   -0.1410 24.3 158 
 LA4  SZ  AML     1024 45.51        11.5 0.20                          24.3 158 
 LZ4  SN IP       1024 45.04                              91    0.4010 41.6 162 
 LZ4  SZ E        1024 45.29                  333.4 12.1     -7        41.6 162 
 LZ4  SE IS       1024 49.89                              91   -0.0610 41.6 162 
 LZ4  SZ  AML     1024 52.46        13.7 0.64                          41.6 162 
                                                                                
