 2009  3 4 1024  6.2 L  21.553 -99.666  5.1  RAL  3 1.3 1.2LRAL                1
 GAP=336       23.20     127.4   322.0690.8 -0.3616E+05 -0.1960E+06  0.7115E+05E
 ACTION:UPD 12-06-08 11:37 OP:RALL STATUS:               ID:20090304102406     I
 2009-03-04-1023-57S.PLUR1_009                                                 6
 STAT SP IPHASW D HRMM SECON CODA AMPLIT PERI AZIMU VELO AIN AR TRES W  DIS CAZ7
 LA4  SZ E        1024 12.57                  329.9  8.3     48        37.8 102 
 LA4  SN IP       1024 12.60                              63    0.3510 37.8 102 
 LA4  SE IS       1024 13.97                              63   -2.6710 37.8 102 
 LA4  SZ  AML     1024 14.82        65.6 0.32                          37.8 102 
 LZ4  SN IP       1024 14.97                              63    1.1610 47.9 121 
 LZ4  SZ E        1024 15.00                  322.6 11.0     22        47.9 121 
 LZ4  SE IS       1024 19.06                              63   -0.2910 47.9 121 
 LZ4  SZ  AML     1024 19.53        19.0 0.36                          47.9 121 
 LG3  SN IP       1024 15.90                              63    1.3310 52.8 126 
 LG3  SZ E        1024 15.92                  183.5  4.8    -99        52.8 126 
 LG3  SE IS       1024 20.80                              63    0.1310 52.8 126 
 LG3  SZ  AML     1024 21.56         6.3 0.28                          52.8 126 
                                                                                
