 2009  3 4 1655  4.1 L  21.403 -99.136 10.0  RAL  1 0.0 0.6LRAL                1
 GAP=360        0.30       2.1     4.0  0.0  0.8324E+01 -0.1960E+06  0.7115E+05E
 ACTION:UPD 12-06-08 11:37 OP:RALL STATUS:               ID:20090304165504     I
 2009-03-04-1654-47S.PLUR1_003                                                 6
 STAT SP IPHASW D HRMM SECON CODA AMPLIT PERI AZIMU VELO AIN AR TRES W  DIS CAZ7
 LZ4  SN IP       1655  7.34                             120    0.0110 16.0 240 
 LZ4  SZ E        1655  7.64                   60.2  9.6      0        16.0 240 
 LZ4  SE IS       1655  9.67                             120   -0.0110 16.0 240 
 LZ4  SZ  AML     1655  9.80        11.2 0.16                          16.0 240 
                                                                                
