 2009  3 4 1831 11.5 L  20.388 -98.614  0.0  RAL  2 0.4 2.1LRAL                1
 GAP=358        4.88     999.9   999.9999.9 -0.1783E+07  0.4066E+07 -0.6099E+07E
 ACTION:UPD 12-06-08 11:37 OP:RALL STATUS:               ID:20090304183111     I
 2009-03-04-1831-23S.PLUR1_009                                                 6
 STAT SP IPHASW D HRMM SECON CODA AMPLIT PERI AZIMU VELO AIN AR TRES W  DIS CAZ7
 LZ4  SZ E        1831 31.55                  131.2 24.1    -15         125 327 
 LZ4  SN IP       1831 31.57                              63   -0.1910  125 327 
 LZ4  SE IS       1831 45.61                              63   -0.9310  125 327 
 LZ4  SZ  AML     1831 48.99        66.1 0.24                           125 327 
 LA4  SN IP       1831 34.46                              63    0.1310  141 329 
 LA4  SZ E        1831 34.52                  165.9  9.8     17         141 329 
 LA4  SE IS       1831 51.96                              63    0.9810  141 329 
 LA4  SZ  AML     1831 54.57        39.2 0.46                           141 329 
                                                                                
