 2009  3 5 0310 56.4 L  21.420 -99.314  0.0  RAL  2 0.5 0.7LRAL                1
 GAP=209        3.78       6.7     2.3195.8 -0.3306E+01 -0.5549E+02  0.6615E+03E
 ACTION:UPD 12-06-08 11:37 OP:RALL STATUS:               ID:20090305031056     I
 2009-03-05-0310-42S.PLUR1_006                                                 6
 STAT SP IPHASW D HRMM SECON CODA AMPLIT PERI AZIMU VELO AIN AR TRES W  DIS CAZ7
 LA4  SN IP        310 56.77                              99   -0.9110 7.11   4 
 LA4  SZ E         310 56.78                  175.9  9.9     -7        7.11   4 
 LA4  SE IS        310 57.30                              99   -1.3010 7.11   4 
 LA4  SZ  AML      310 57.40        60.7 0.24                          7.11   4 
 LZ4  SN IP        310 58.86                              96    0.5310 10.8 155 
 LZ4  SZ E         310 58.88                  323.4  7.7    -11        10.8 155 
 LZ4  SE IS        311  1.40                              96    1.6810 10.8 155 
 LZ4  SZ  AML      311  1.60        13.6 0.18                          10.8 155 
                                                                                
