 2009  3 5 0630 31.8 L  21.307 -99.280 10.0  RAL  1 0.1 0.3LRAL                1
 GAP=360        0.43      18.7     8.5  0.0  0.1594E+03 -0.5549E+02  0.6615E+03E
 ACTION:UPD 12-06-08 11:37 OP:RALL STATUS:               ID:20090305063031     I
 2009-03-05-0630-26S.PLUR1_003                                                 6
 STAT SP IPHASW D HRMM SECON CODA AMPLIT PERI AZIMU VELO AIN AR TRES W  DIS CAZ7
 LZ4  SZ E         630 33.90                  203.1 15.4      0        2.81  23 
 LZ4  SN IP        630 33.91                             165    0.2110 2.81  23 
 LZ4  SE IS        630 34.87                             165   -0.2110 2.81  23 
 LZ4  SZ  AML      630 36.09        10.6 0.38                          2.81  23 
                                                                                
