 2009  3 5 0835 37.0 L  21.328 -99.245 10.0  RAL  1 0.0 0.5LRAL                1
 GAP=360        0.30     999.9   247.3  0.0  0.3640E+06  0.8101E+03 -0.1724E+04E
 ACTION:UPD 12-06-08 11:37 OP:RALL STATUS:               ID:20090305083537     I
 2009-03-05-0835-31S.PLUR1_003                                                 6
 STAT SP IPHASW D HRMM SECON CODA AMPLIT PERI AZIMU VELO AIN AR TRES W  DIS CAZ7
 LZ4  SZ E         835 38.89                   98.3 19.4      0        2.53 278 
 LZ4  SN IP        835 38.89                             166    0.0410 2.53 278 
 LZ4  SE IS        835 40.18                             166   -0.0410 2.53 278 
 LZ4  SZ  AML      835 40.82        15.8 0.10                          2.53 278 
                                                                                
