 2009  3 5 0843 17.1 L  21.348 -99.296 10.0  RAL  1 0.1                        1
 GAP=360        0.46      10.5    16.4  0.0 -0.1719E+03  0.8101E+03 -0.1724E+04E
 ACTION:UPD 12-06-08 11:37 OP:RALL STATUS:               ID:20090305084317     I
 2009-03-05-0843-11S.PLUR1_003                                                 6
 STAT SP IPHASW D HRMM SECON CODA AMPLIT PERI AZIMU VELO AIN AR TRES W  DIS CAZ7
 LZ4  SZ E         843 19.19                  304.4 20.0      0        3.35 124 
 LZ4  SN IP        843 19.24                             162    0.2410 3.35 124 
 LZ4  SE IS        843 20.16                             162   -0.2410 3.35 124 
                                                                                
