 2009  3 5 0812 51.5 L  21.199 -99.351 10.0  RAL  1 0.0 0.6LRAL                1
 GAP=360        0.30       3.6     2.3  0.0  0.8063E+01  0.8101E+03 -0.1724E+04E
 ACTION:UPD 12-06-08 11:37 OP:RALL STATUS:               ID:20090305081251     I
 2009-03-05-0812-48S.PLUR1_003                                                 6
 STAT SP IPHASW D HRMM SECON CODA AMPLIT PERI AZIMU VELO AIN AR TRES W  DIS CAZ7
 LZ4  SZ E         812 54.80                  209.9 65.3      0        16.9  30 
 LZ4  SN IP        812 54.84                             118    0.0110 16.9  30 
 LZ4  SE IS        812 57.26                             118   -0.0110 16.9  30 
 LZ4  SZ  AML      812 57.81        13.0 0.70                          16.9  30 
                                                                                
