 2009  3 5 0718 51.5 L  21.717 -99.427 10.0  RAL  2 0.2 2.0LRAL                1
 GAP=356        2.77      29.5    14.8 93.7 -0.3864E+03  0.8101E+03 -0.1724E+04E
 ACTION:UPD 12-06-08 11:37 OP:RALL STATUS:               ID:20090305071851     I
 2009-03-05-0718-42S.PLUR1_006                                                 6
 STAT SP IPHASW D HRMM SECON CODA AMPLIT PERI AZIMU VELO AIN AR TRES W  DIS CAZ7
 LA4  SZ E         718 56.79                  343.1  8.7      8        28.6 155 
 LA4  SN IP        718 56.80                             107    0.3110 28.6 155 
 LA4  SE IS        719  0.21                             107    0.0410 28.6 155 
 LA4  SZ  AML      719  2.02       139.9 0.28                          28.6 155 
 LZ4  SN IP        718 59.03                              99   -0.0710 45.8 159 
 LZ4  SZ E         718 59.06                  328.8  6.6     -9        45.8 159 
 LZ4  SE IS        719  4.40                              99   -0.2810 45.8 159 
 LZ4  SZ  AML      719  5.07       147.3 0.42                          45.8 159 
                                                                                
