 2009  3 5 0342 17.1 L  21.465 -99.372 10.0  RAL  1 0.0 0.2LRAL                1
 GAP=360        0.30       2.0     6.8  0.0  0.1366E+02 -0.5549E+02  0.6615E+03E
 ACTION:UPD 12-06-08 11:37 OP:RALL STATUS:               ID:20090305034217     I
 2009-03-05-0342-06S.PLUR1_003                                                 6
 STAT SP IPHASW D HRMM SECON CODA AMPLIT PERI AZIMU VELO AIN AR TRES W  DIS CAZ7
 LA4  SN IP        342 19.30                             146    0.0110 6.82  72 
 LA4  SZ E         342 19.45                  252.5  7.9      0        6.82  72 
 LA4  SE IS        342 20.85                             146   -0.0110 6.82  72 
 LA4  SZ  AML      342 21.06         6.9 0.22                          6.82  72 
                                                                                
