 2009  3 5 1437  4.4 L  21.450 -99.415 10.0  RAL  1 0.0 0.5LRAL                1
 GAP=360        0.30       1.6     4.9  0.0  0.7637E+01  0.8101E+03 -0.1724E+04E
 ACTION:UPD 12-06-08 11:37 OP:RALL STATUS:               ID:20090305143704     I
 2009-03-05-1436-55S.PLUR1_003                                                 6
 STAT SP IPHASW D HRMM SECON CODA AMPLIT PERI AZIMU VELO AIN AR TRES W  DIS CAZ7
 LA4  SZ E        1437  6.98                  251.3  9.4      0        11.5  71 
 LA4  SN IP       1437  7.05                             130    0.0110 11.5  71 
 LA4  SE IS       1437  8.97                             130   -0.0110 11.5  71 
 LA4  SZ  AML     1437 10.42        12.1 0.56                          11.5  71 
                                                                                
