 2009  3 5 2308 27.1 L  21.340 -99.288 10.0  RAL  1 0.1 1.1LRAL                1
 GAP=360        0.66      18.5    37.2  0.0 -0.6876E+03  0.8101E+03 -0.1724E+04E
 ACTION:UPD 12-06-08 11:37 OP:RALL STATUS:               ID:20090305230827     I
 2009-03-05-2308-20S.PLUR1_003                                                 6
 STAT SP IPHASW D HRMM SECON CODA AMPLIT PERI AZIMU VELO AIN AR TRES W  DIS CAZ7
 LZ4  SZ E        23 8 29.29                  297.0 21.9      0        2.21 118 
 LZ4  SN IP       23 8 29.30                             168    0.3710 2.21 118 
 LZ4  SE IS       23 8 29.92                             168   -0.3710 2.21 118 
 LZ4  SZ  AML     23 8 30.05        74.4 0.18                          2.21 118 
                                                                                
