 2009  3 5 2337 33.4 L  21.502 -99.328 10.0  RAL  1 0.2 0.7LRAL                1
 GAP=360        0.69      24.1    24.4  0.0 -0.5883E+03  0.8101E+03 -0.1724E+04E
 ACTION:UPD 12-06-08 11:37 OP:RALL STATUS:               ID:20090305233733     I
 2009-03-05-2337-21S.PLUR1_003                                                 6
 STAT SP IPHASW D HRMM SECON CODA AMPLIT PERI AZIMU VELO AIN AR TRES W  DIS CAZ7
 LA4  SZ E        2337 35.69                  316.6  8.3      0        2.81 137 
 LA4  SN IP       2337 35.70                             165    0.4210 2.81 137 
 LA4  SE IS       2337 36.24                             165   -0.4210 2.81 137 
 LA4  SZ  AML     2337 36.29        29.9 0.20                          2.81 137 
                                                                                
