 2009  3 5 2330  6.0 L  21.321 -99.266 10.0  RAL  1 0.2 0.9LRAL                1
 GAP=360        0.94     999.9   999.9  0.0  0.9438E+07  0.8101E+03 -0.1724E+04E
 ACTION:UPD 12-06-08 11:37 OP:RALL STATUS:               ID:20090305233006     I
 2009-03-05-2329-58S.PLUR1_003                                                 6
 STAT SP IPHASW D HRMM SECON CODA AMPLIT PERI AZIMU VELO AIN AR TRES W  DIS CAZ7
 LZ4  SN IP       2330  8.46                             174    0.6010 1.10 343 
 LZ4  SZ E        2330  8.52                  162.8 13.2      0        1.10 343 
 LZ4  SE IS       2330  8.60                             174   -0.6010 1.10 343 
 LZ4  SZ  AML     2330  8.68        42.5 0.32                          1.10 343 
                                                                                
