 2009  3 6 0421 45.3 L  21.340 -99.288 10.0  RAL  1 0.1 0.8LRAL                1
 GAP=360        0.55      15.2    32.3  0.0 -0.4905E+03  0.8101E+03 -0.1724E+04E
 ACTION:UPD 12-06-08 11:37 OP:RALL STATUS:               ID:20090306042145     I
 2009-03-06-0421-37S.PLUR1_003                                                 6
 STAT SP IPHASW D HRMM SECON CODA AMPLIT PERI AZIMU VELO AIN AR TRES W  DIS CAZ7
 LZ4  SZ E         421 47.46                  296.7 20.5      0        2.16 117 
 LZ4  SN IP        421 47.47                             168    0.3210 2.16 117 
 LZ4  SE IS        421 48.20                             168   -0.3210 2.16 117 
 LZ4  SZ  AML      421 48.33        37.2 0.22                          2.16 117 
                                                                                
