 2009  3 6 0331 57.6 L  21.502 -99.322 10.0  RAL  1 0.2 0.2LRAL                1
 GAP=360        0.66      29.8    21.1  0.0 -0.6297E+03  0.8101E+03 -0.1724E+04E
 ACTION:UPD 12-06-08 11:37 OP:RALL STATUS:               ID:20090306033157     I
 2009-03-06-0331-46S.PLUR1_003                                                 6
 STAT SP IPHASW D HRMM SECON CODA AMPLIT PERI AZIMU VELO AIN AR TRES W  DIS CAZ7
 LA4  SN IP        331 59.91                             167    0.4010 2.47 147 
 LA4  SZ E         331 59.93                  326.6  8.7      0        2.47 147 
 LA4  SE IS        332  0.49                             167   -0.4010 2.47 147 
 LA4  SZ  AML      332  0.57         8.4 0.32                          2.47 147 
                                                                                
