 2009  3 6 1044 40.2 R  22.210 -99.554  5.1  RAL  2 0.1 2.1LRAL                1
 GAP=359        0.93     887.6   298.0999.9 -0.2645E+06 -0.5354E+06  0.1595E+07E
 ACTION:UPD 12-06-08 11:37 OP:RALL STATUS:               ID:20090306104440     I
 2009-03-06-1044-39S.PLUR1_006                                                 6
 STAT SP IPHASW D HRMM SECON CODA AMPLIT PERI AZIMU VELO AIN AR TRES W  DIS CAZ7
 LA4  SN IP       1044 53.93                              63    0.1010 84.3 162 
 LA4  SZ E        1044 54.11                  345.1 11.9      3        84.3 162 
 LA4  SE IS       1045  3.55                              63   -0.1910 84.3 162 
 LA4  SZ  AML     1045  8.86        70.5 0.48                          84.3 162 
 LZ4  SN IP       1044 56.42                              63   -0.1010  102 163 
 LZ4  SZ E        1044 56.70                  340.1  8.9     -2         102 163 
 LZ4  SE IS       1045  8.59                              63    0.1910  102 163 
 LZ4  SZ  AML     1045 14.70        97.1 0.96                           102 163 
                                                                                
