 2009  3 6 1108  9.5 L  21.271 -99.406 10.0  RAL  1 0.0 0.5LRAL                1
 GAP=360        0.30       1.9     4.2  0.0  0.7502E+01 -0.5354E+06  0.1595E+07E
 ACTION:UPD 12-06-08 11:37 OP:RALL STATUS:               ID:20090306110809     I
 2009-03-06-1108-06S.PLUR1_003                                                 6
 STAT SP IPHASW D HRMM SECON CODA AMPLIT PERI AZIMU VELO AIN AR TRES W  DIS CAZ7
 LZ4  SZ E        11 8 12.64                  245.0 15.9      0        15.6  65 
 LZ4  SN IP       11 8 12.66                             120    0.0110 15.6  65 
 LZ4  SE IS       11 8 14.96                             120   -0.0110 15.6  65 
 LZ4  SZ  AML     11 8 15.39        10.0 0.48                          15.6  65 
                                                                                
