 2009  3 6 1349 28.7 L  21.351 -99.282 10.0  RAL  1 0.1 1.1LRAL                1
 GAP=360        0.55     439.2   889.6  0.0  0.3907E+06 -0.5354E+06  0.1595E+07E
 ACTION:UPD 12-06-08 11:37 OP:RALL STATUS:               ID:20090306134928     I
 2009-03-06-1349-22S.PLUR1_003                                                 6
 STAT SP IPHASW D HRMM SECON CODA AMPLIT PERI AZIMU VELO AIN AR TRES W  DIS CAZ7
 LZ4  SN IP       1349 30.92                             166    0.3110 2.61 150 
 LZ4  SZ E        1349 31.02                  330.4  8.4      0        2.61 150 
 LZ4  SE IS       1349 31.67                             166   -0.3110 2.61 150 
 LZ4  SZ  AML     1349 31.68        69.0 0.18                          2.61 150 
                                                                                
