 2009  3 6 1128  0.8 R  21.233 -99.357 10.0  RAL  1 0.0 1.0LRAL                1
 GAP=360        0.30       3.4     3.1  0.0  0.1037E+02 -0.5354E+06  0.1595E+07E
 ACTION:UPD 12-06-08 11:37 OP:RALL STATUS:               ID:20090306112800     I
 2009-03-06-1127-51S.PLUR1_006                                                 6
 STAT SP IPHASW D HRMM SECON CODA AMPLIT PERI AZIMU VELO AIN AR TRES W  DIS CAZ7
 LZ4  SN IP       1128  3.74                             124   -0.0110 14.1  40 
 LZ4  SE IP       1128  3.74                                           14.1  40 
 LZ4  SZ E        1128  3.78                  220.1 46.3      0        14.1  40 
 LZ4  SE IS       1128  5.93                             124    0.0110 14.1  40 
 LZ4  SZ  AML     1128  6.07        37.9 0.22                          14.1  40 
                                                                                
