 2009  3 6 2034 52.3 L  22.136 -99.430 10.0  RAL  1 0.0 1.4LRAL                1
 GAP=360        0.30       3.7     2.1  0.0 -0.1848E+01 -0.5354E+06  0.1595E+07E
 ACTION:UPD 12-06-08 11:37 OP:RALL STATUS:               ID:20090306203452     I
 2009-03-06-2034-51S.PLUR1_003                                                 6
 STAT SP IPHASW D HRMM SECON CODA AMPLIT PERI AZIMU VELO AIN AR TRES W  DIS CAZ7
 LA4  SZ E        2035  3.56                  350.2 13.2      0        73.3 170 
 LA4  SN IP       2035  4.25                              95    0.0110 73.3 170 
 LA4  SE IS       2035 12.93                              95   -0.0110 73.3 170 
 LA4  SZ  AML     2035 19.45        22.5 0.66                          73.3 170 
                                                                                
