 2009  3 7 0314 19.0 L  21.477 -99.311 10.0  RAL  1 0.2-0.3LRAL                1
 GAP=360        0.72     999.9   999.9  0.0 -0.6735E+07 -0.5354E+06  0.1595E+07E
 ACTION:UPD 12-06-08 11:37 OP:RALL STATUS:               ID:20090307031419     I
 2009-03-07-0314-07S.PLUR1_003                                                 6
 STAT SP IPHASW D HRMM SECON CODA AMPLIT PERI AZIMU VELO AIN AR TRES W  DIS CAZ7
 LA4  SZ E         314 21.30                  193.6  9.4      0        0.74  14 
 LA4  SN IP        314 21.31                             176    0.4410 0.74  14 
 LA4  SE IS        314 21.77                             176   -0.4410 0.74  14 
 LA4  SZ  AML      314 22.16         2.8 0.16                          0.74  14 
                                                                                
