 2009  3 7 0714 40.0 L  21.354 -99.293 10.0  RAL  1 0.1 0.3LRAL                1
 GAP=360        0.45      12.2    12.5  0.0 -0.1527E+03 -0.5354E+06  0.1595E+07E
 ACTION:UPD 12-06-08 11:37 OP:RALL STATUS:               ID:20090307071440     I
 2009-03-07-0714-33S.PLUR1_003                                                 6
 STAT SP IPHASW D HRMM SECON CODA AMPLIT PERI AZIMU VELO AIN AR TRES W  DIS CAZ7
 LZ4  SZ E         714 42.11                  316.5 21.6      0        3.61 136 
 LZ4  SN IP        714 42.16                             161    0.2310 3.61 136 
 LZ4  SE IS        714 43.11                             161   -0.2310 3.61 136 
 LZ4  SZ  AML      714 43.16        11.2 0.20                          3.61 136 
                                                                                
