 2009  3 7 0520  1.8 L  21.667 -99.370 10.0  RAL  1 0.0 0.6LRAL                1
 GAP=360        0.30       3.8     1.4  0.0 -0.4810E+01 -0.5354E+06  0.1595E+07E
 ACTION:UPD 12-06-08 11:37 OP:RALL STATUS:               ID:20090307052001     I
 2009-03-07-0519-54S.PLUR1_003                                                 6
 STAT SP IPHASW D HRMM SECON CODA AMPLIT PERI AZIMU VELO AIN AR TRES W  DIS CAZ7
 LA4  SZ E         520  5.81                  342.8  8.0      0        21.2 163 
 LA4  SN IP        520  5.81                             112    0.0210 21.2 163 
 LA4  SE IS        520  8.65                             112   -0.0210 21.2 163 
 LA4  SZ  AML      520 11.42        10.1 0.66                          21.2 163 
                                                                                
