 2009  3 7 0532 10.5 L  21.332 -99.266 10.0  RAL  1 0.2 0.6LRAL                1
 GAP=360        1.07     999.9   999.9  0.0 -0.1230E+08 -0.5354E+06  0.1595E+07E
 ACTION:UPD 12-06-08 11:37 OP:RALL STATUS:               ID:20090307053210     I
 2009-03-07-0532-03S.PLUR1_003                                                 6
 STAT SP IPHASW D HRMM SECON CODA AMPLIT PERI AZIMU VELO AIN AR TRES W  DIS CAZ7
 LZ4  SZ E         532 12.83                   77.6 21.0      4        0.37 254 
 LZ4  SN IP        532 12.84                             178    0.4910 0.37 254 
 LZ4  SE IS        532 13.20                             178   -0.4910 0.37 254 
 LZ4  SZ  AML      532 13.35        22.7 0.20                          0.37 254 
                                                                                
