 2009  3 7 0821 22.1 L  21.483 -99.320 10.0  RAL  1 0.1-0.5LRAL                1
 GAP=360        1.66     397.1   222.7  0.0 -0.8842E+05 -0.5354E+06  0.1595E+07E
 ACTION:UPD 12-06-08 11:37 OP:RALL STATUS:               ID:20090307082122     I
 2009-03-07-0821-11S.PLUR1_003                                                 6
 STAT SP IPHASW D HRMM SECON CODA AMPLIT PERI AZIMU VELO AIN AR TRES W  DIS CAZ7
 LA4  SZ E         821 24.08                  276.2 13.0      8        1.10  89 
 LA4  SN IP        821 24.16                             174    0.2110 1.10  89 
 LA4  SE IS        821 25.10                             174   -0.2110 1.10  89 
 LA4  SZ  AML      821 25.74         1.7 0.20                          1.10  89 
                                                                                
