 2009  3 7 1320 52.4 L  21.328 -99.276 10.0  RAL  2 0.4 1.2LRAL                1
 GAP=284        3.23       1.6     5.5 20.9  0.5989E+01 -0.9990E+00 -0.1311E+01E
 ACTION:UPD 12-06-08 11:37 OP:RALL STATUS:               ID:20090307132052     I
 2009-03-07-1320-43S.PLUR1_006                                                 6
 STAT SP IPHASW D HRMM SECON CODA AMPLIT PERI AZIMU VELO AIN AR TRES W  DIS CAZ7
 LZ4  SZ E        1320 53.69                  255.4 10.6     10        0.72  65 
 LZ4  SN IP       1320 53.70                             173   -0.5710 0.72  65 
 LZ4  SE IS       1320 54.76                             173   -0.8510 0.72  65 
 LZ4  SZ  AML     1320 54.84       275.8 0.26                          0.72  65 
 LA4  SN IP       1320 55.90                             113    0.0310 17.6 349 
 LA4  SZ E        1320 55.93                  160.5  7.2     -7        17.6 349 
 LA4  SE IS       1320 59.78                             113    1.4010 17.6 349 
 LA4  SZ  AML     1321  1.62        14.0 0.32                          17.6 349 
                                                                                
