 2009  3 8 0804 45.7 L  21.334 -99.274 10.0  RAL  1 0.6 0.5LRAL                1
 GAP=360        7.46     970.6   999.9  0.0  0.3118E+07 -0.9990E+00 -0.1311E+01E
 ACTION:UPD 12-06-08 11:37 OP:RALL STATUS:               ID:20090308080445     I
 2009-03-08-0804-38S.PLUR1_003                                                 6
 STAT SP IPHASW D HRMM SECON CODA AMPLIT PERI AZIMU VELO AIN AR TRES W  DIS CAZ7
 LZ4  SZ E         8 4 47.79                  343.1 23.4     36        0.53 128 
 LZ4  SN IP        8 4 47.82                             177    0.3010 0.53 128 
 LZ4  SE IS        8 4 48.55                             177   -0.3010 0.53 128 
 LZ4  SZ  AML      8 4 48.62        16.9 0.18                          0.53 128 
                                                                                
