 2009  3 8 0840 14.8 L  21.267 -99.201 10.0  RAL  1 0.0 0.8LRAL                1
 GAP=360        0.30       3.7     3.9  0.0 -0.1443E+02 -0.9990E+00 -0.1311E+01E
 ACTION:UPD 12-06-08 11:37 OP:RALL STATUS:               ID:20090308084014     I
 2009-03-08-0840-09S.PLUR1_003                                                 6
 STAT SP IPHASW D HRMM SECON CODA AMPLIT PERI AZIMU VELO AIN AR TRES W  DIS CAZ7
 LZ4  SN IP        840 17.33                             134    0.0210 10.0 315 
 LZ4  SZ E         840 17.34                  135.0 16.9      0        10.0 315 
 LZ4  SE IS        840 19.10                             134   -0.0210 10.0 315 
 LZ4  SZ  AML      840 19.27        26.4 0.24                          10.0 315 
                                                                                
