 2009  3 8 0848  7.8 L  21.346 -99.303 10.0  RAL  1 0.0 0.4LRAL                1
 GAP=360        0.33       4.9    11.3  0.0 -0.5514E+02 -0.9990E+00 -0.1311E+01E
 ACTION:UPD 12-06-08 11:37 OP:RALL STATUS:               ID:20090308084807     I
 2009-03-08-0848-01S.PLUR1_003                                                 6
 STAT SP IPHASW D HRMM SECON CODA AMPLIT PERI AZIMU VELO AIN AR TRES W  DIS CAZ7
 LZ4  SZ E         848  9.83                  295.0 18.0      0        3.85 115 
 LZ4  SN IP        848  9.83                             159    0.0910 3.85 115 
 LZ4  SE IS        848 11.06                             159   -0.0910 3.85 115 
 LZ4  SZ  AML      848 11.14        13.6 0.16                          3.85 115 
                                                                                
