 2009  3 8 1738 35.8 L  21.349 -99.298 10.0  RAL  1 0.1 0.4LRAL                1
 GAP=360        0.40       8.7    13.2  0.0 -0.1143E+03 -0.9990E+00 -0.1311E+01E
 ACTION:UPD 12-06-08 11:37 OP:RALL STATUS:               ID:20090308173835     I
 2009-03-08-1738-29S.PLUR1_003                                                 6
 STAT SP IPHASW D HRMM SECON CODA AMPLIT PERI AZIMU VELO AIN AR TRES W  DIS CAZ7
 LZ4  SZ E        1738 37.92                  305.3 64.7      0        3.57 125 
 LZ4  SN IP       1738 37.94                             161    0.1810 3.57 125 
 LZ4  SE IS       1738 38.99                             161   -0.1810 3.57 125 
 LZ4  SZ  AML     1738 39.70        13.3 0.52                          3.57 125 
                                                                                
