 2009  3 8 1141 42.7 L  21.632 -99.287 10.0  RAL  1 0.0 0.2LRAL                1
 GAP=360        0.30       4.2     0.8  0.0  0.2597E+01 -0.9990E+00 -0.1311E+01E
 ACTION:UPD 12-06-08 11:37 OP:RALL STATUS:               ID:20090308114142     I
 2009-03-08-1141-34S.PLUR1_003                                                 6
 STAT SP IPHASW D HRMM SECON CODA AMPLIT PERI AZIMU VELO AIN AR TRES W  DIS CAZ7
 LA4  SZ E        1141 45.96                    7.8 12.8      0        16.5 188 
 LA4  SN IP       1141 46.02                             119    0.0210 16.5 188 
 LA4  SE IS       1141 48.38                             119   -0.0210 16.5 188 
 LA4  SZ  AML     1141 48.74         5.3 0.26                          16.5 188 
                                                                                
