 2009  3 9 0318 21.0 L  21.301 -99.246 10.0  RAL  1 0.1 0.4LRAL                1
 GAP=360        0.38      10.2     7.9  0.0 -0.8058E+02 -0.9990E+00 -0.1311E+01E
 ACTION:UPD 12-06-08 11:37 OP:RALL STATUS:               ID:20090309031821     I
 2009-03-09-0318-14S.PLUR1_003                                                 6
 STAT SP IPHASW D HRMM SECON CODA AMPLIT PERI AZIMU VELO AIN AR TRES W  DIS CAZ7
 LZ4  SZ E         318 23.07                  144.1 47.0      0        4.14 324 
 LZ4  SN IP        318 23.10                             158    0.1610 4.14 324 
 LZ4  SE IS        318 24.21                             158   -0.1610 4.14 324 
 LZ4  SZ  AML      318 24.87        14.7 0.26                          4.14 324 
                                                                                
