 2009  3 9 0331 29.2 L  21.348 -99.293 10.0  RAL  1 0.1 0.7LRAL                1
 GAP=360        0.60      16.4    21.9  0.0 -0.3601E+03 -0.9990E+00 -0.1311E+01E
 ACTION:UPD 12-06-08 11:37 OP:RALL STATUS:               ID:20090309033129     I
 2009-03-09-0331-22S.PLUR1_003                                                 6
 STAT SP IPHASW D HRMM SECON CODA AMPLIT PERI AZIMU VELO AIN AR TRES W  DIS CAZ7
 LZ4  SZ E         331 31.43                  308.8 12.5      0        3.07 129 
 LZ4  SN IP        331 31.44                             163    0.3510 3.07 129 
 LZ4  SZ  AML      331 32.11        30.4 0.16                          3.07 129 
 LZ4  SE IS        331 32.12                             163   -0.3510 3.07 129 
                                                                                
