 2009  3 9 1958 57.1 L  21.316 -99.251 10.0  RAL  1 0.2 2.1LRAL                1
 GAP=360        0.83      27.9    34.5  0.0 -0.9632E+03 -0.9990E+00 -0.1311E+01E
 ACTION:UPD 12-06-08 11:37 OP:RALL STATUS:               ID:20090309195857     I
 2009-03-09-1958-50S.PLUR1_003                                                 6
 STAT SP IPHASW D HRMM SECON CODA AMPLIT PERI AZIMU VELO AIN AR TRES W  DIS CAZ7
 LZ4  SZ E        1958 59.52                  131.0  9.7      0        2.57 311 
 LZ4  SN IP       1958 59.52                             166    0.5210 2.57 311 
 LZ4  SE IS       1958 59.85                             166   -0.5210 2.57 311 
 LZ4  SZ  AML     1958 59.96       631.4 0.06                          2.57 311 
                                                                                
