 2009  310 0119 40.3 L  21.338 -99.293 10.0  RAL  1 0.1 0.8LRAL                1
 GAP=360        0.56       8.7    29.5  0.0 -0.2571E+03 -0.9990E+00 -0.1311E+01E
 ACTION:UPD 12-06-08 11:37 OP:RALL STATUS:               ID:20090310011940     I
 2009-03-10-0119-33S.PLUR1_003                                                 6
 STAT SP IPHASW D HRMM SECON CODA AMPLIT PERI AZIMU VELO AIN AR TRES W  DIS CAZ7
 LZ4  SZ E         119 42.52                  287.6 14.6      0        2.57 108 
 LZ4  SN IP        119 42.52                             166    0.3210 2.57 108 
 LZ4  SE IS        119 43.25                             166   -0.3210 2.57 108 
 LZ4  SZ  AML      119 43.36        34.1 0.26                          2.57 108 
                                                                                
