 2009  310 0834 47.5 L  21.533 -99.345 10.0  RAL  1 0.0 0.6LRAL                1
 GAP=360        0.30       5.7     4.2  0.0 -0.2365E+02 -0.9990E+00 -0.1311E+01E
 ACTION:UPD 12-06-08 11:37 OP:RALL STATUS:               ID:20090310083447     I
 2009-03-10-0834-35S.PLUR1_003                                                 6
 STAT SP IPHASW D HRMM SECON CODA AMPLIT PERI AZIMU VELO AIN AR TRES W  DIS CAZ7
 LA4  SZ E         834 49.69                  325.5  9.0      0        6.64 145 
 LA4  SN IP        834 49.69                             147    0.0310 6.64 145 
 LA4  SE IS        834 51.19                             147   -0.0310 6.64 145 
 LA4  SZ  AML      834 52.71        17.9 0.40                          6.64 145 
                                                                                
