 2009  310 1426 12.8 L  21.474 -99.328 10.0  RAL  1 0.1 0.0LRAL                1
 GAP=360        0.60      17.9    33.3  0.0  0.5965E+03 -0.9990E+00 -0.1311E+01E
 ACTION:UPD 12-06-08 11:37 OP:RALL STATUS:               ID:20090310142612     I
 2009-03-10-1426-00S.PLUR1_003                                                 6
 STAT SP IPHASW D HRMM SECON CODA AMPLIT PERI AZIMU VELO AIN AR TRES W  DIS CAZ7
 LA4  SZ E        1426 15.07                  240.0 14.4      0        2.22  60 
 LA4  SN IP       1426 15.08                             168    0.3510 2.22  60 
 LA4  SE IS       1426 15.75                             168   -0.3510 2.22  60 
 LA4  SZ  AML     1426 16.12         5.4 0.26                          2.22  60 
                                                                                
