 2009  310 1634  4.9 L  21.494 -99.330 10.0  RAL  1 0.2 0.9LRAL                1
 GAP=360        0.76      18.6    39.2  0.0 -0.7288E+03 -0.9990E+00 -0.1311E+01E
 ACTION:UPD 12-06-08 11:37 OP:RALL STATUS:               ID:20090310163404     I
 2009-03-10-1633-53S.PLUR1_003                                                 6
 STAT SP IPHASW D HRMM SECON CODA AMPLIT PERI AZIMU VELO AIN AR TRES W  DIS CAZ7
 LA4  SN IP       1634  7.27                             167    0.4710 2.48 117 
 LA4  SZ E        1634  7.28                  297.0 19.6      0        2.48 117 
 LA4  SE IS       1634  7.70                             167   -0.4710 2.48 117 
 LA4  SZ  AML     1634  7.81        42.6 0.18                          2.48 117 
                                                                                
