 2009  311 0416 39.6 L  21.320 -99.266 10.0  RAL  1 0.1 0.5LRAL                1
 GAP=360        1.00     999.9   999.9  0.0  0.7995E+08 -0.9990E+00 -0.1311E+01E
 ACTION:UPD 12-06-08 11:37 OP:RALL STATUS:               ID:20090311041639     I
 2009-03-11-0416-32S.PLUR1_003                                                 6
 STAT SP IPHASW D HRMM SECON CODA AMPLIT PERI AZIMU VELO AIN AR TRES W  DIS CAZ7
 LZ4  SZ E         416 41.54                  164.4 36.0      4        1.24 340 
 LZ4  SN IP        416 41.80                             173    0.3310 1.24 340 
 LZ4  SE IS        416 42.49                             173   -0.3310 1.24 340 
 LZ4  SZ  AML      416 43.58        18.0 0.30                          1.24 340 
                                                                                
