 2009  311 0207 36.2 L  21.797 -99.484 10.0  RAL  1 0.0 0.4LRAL                1
 GAP=360        0.30       3.4     2.1  0.0 -0.5801E+01 -0.9990E+00 -0.1311E+01E
 ACTION:UPD 12-06-08 11:37 OP:RALL STATUS:               ID:20090311020736     I
 2009-03-11-0207-34S.PLUR1_003                                                 6
 STAT SP IPHASW D HRMM SECON CODA AMPLIT PERI AZIMU VELO AIN AR TRES W  DIS CAZ7
 LA4  SZ E         2 7 42.77                  332.5 10.0      0        39.2 152 
 LA4  SN IP        2 7 42.82                             100    0.0210 39.2 152 
 LA4  SE IS        2 7 47.64                             100   -0.0210 39.2 152 
 LA4  SZ  AML      2 7 49.79         3.7 0.56                          39.2 152 
                                                                                
