 2009  311 1344 32.4 L  21.309 -99.250 10.0  RAL  1 0.1 0.6LRAL                1
 GAP=360        0.50      16.0    14.4  0.0 -0.2307E+03 -0.9990E+00 -0.1311E+01E
 ACTION:UPD 12-06-08 11:37 OP:RALL STATUS:               ID:20090311134432     I
 2009-03-11-1344-25S.PLUR1_003                                                 6
 STAT SP IPHASW D HRMM SECON CODA AMPLIT PERI AZIMU VELO AIN AR TRES W  DIS CAZ7
 LZ4  SN IP       1344 34.53                             163    0.2710 3.20 320 
 LZ4  SZ E        1344 34.55                  140.1 11.1      0        3.20 320 
 LZ4  SE IS       1344 35.38                             163   -0.2710 3.20 320 
 LZ4  SZ  AML     1344 36.21        20.8 0.10                          3.20 320 
                                                                                
