 2009  311 1636 56.6 L  21.340 -99.270 10.0  RAL  1 0.3                        1
 GAP=360        3.13     384.5   887.3  0.0 -0.3411E+06  0.4502E+01 -0.2600E+01E
 ACTION:UPD 12-06-08 11:37 OP:RALL STATUS:               ID:20090311163656     I
 2009-03-11-1636-50S.PLUR1_003                                                 6
 STAT SP IPHASW D HRMM SECON CODA AMPLIT PERI AZIMU VELO AIN AR TRES W  DIS CAZ7
 LZ4  SZ E        1636 59.04                  345.3 10.6    -13        1.04 180 
 LZ4  SN IP       1636 59.04                             174    0.5610 1.04 180 
 LZ4  SE IS       1636 59.27                             174   -0.5610 1.04 180 
                                                                                
