 2009  311 1747 39.5 L  21.317 -99.264 10.0  RAL  1 0.1 0.6LRAL                1
 GAP=360        0.47     826.5   999.9  0.0  0.2062E+07  0.4502E+01 -0.2600E+01E
 ACTION:UPD 12-06-08 11:37 OP:RALL STATUS:               ID:20090311174739     I
 2009-03-11-1747-33S.PLUR1_003                                                 6
 STAT SP IPHASW D HRMM SECON CODA AMPLIT PERI AZIMU VELO AIN AR TRES W  DIS CAZ7
 LZ4  SZ E        1747 41.58                  159.5 13.4      0        1.66 340 
 LZ4  SN IP       1747 41.60                             171    0.2510 1.66 340 
 LZ4  SE IS       1747 42.46                             171   -0.2510 1.66 340 
 LZ4  SZ  AML     1747 42.57        23.2 0.10                          1.66 340 
                                                                                
