 2009  311 1550 44.6 L  21.756 -99.410  0.0  RAL  2 0.2 1.4LRAL                1
 GAP=358        3.09      23.8    11.2 24.7 -0.1843E+03  0.4502E+01 -0.2600E+01E
 ACTION:UPD 12-06-08 11:37 OP:RALL STATUS:               ID:20090311155044     I
 2009-03-11-1550-36S.PLUR1_006                                                 6
 STAT SP IPHASW D HRMM SECON CODA AMPLIT PERI AZIMU VELO AIN AR TRES W  DIS CAZ7
 LA4  SZ E        1550 50.04                  349.2  8.8      8        31.9 161 
 LA4  SN IP       1550 50.04                              92   -0.1610 31.9 161 
 LA4  SE IS       1550 54.21                              92   -0.0610 31.9 161 
 LA4  SZ  AML     1550 55.09        44.7 0.36                          31.9 161 
 LZ4  SN IP       1550 53.43                              63    0.2810 49.3 163 
 LZ4  SZ E        1550 53.46                  330.4  7.4    -12        49.3 163 
 LZ4  SE IS       1550 59.33                              63   -0.0510 49.3 163 
 LZ4  SZ  AML     1550 59.92        34.8 0.12                          49.3 163 
                                                                                
