 2009  311 2304 21.7 L  21.326 -99.290 10.0  RAL  1 0.1 0.9LRAL                1
 GAP=360        0.36       5.1    22.7  0.0  0.1160E+03  0.4502E+01 -0.2600E+01E
 ACTION:UPD 12-06-08 11:37 OP:RALL STATUS:               ID:20090311230421     I
 2009-03-11-2304-15S.PLUR1_003                                                 6
 STAT SP IPHASW D HRMM SECON CODA AMPLIT PERI AZIMU VELO AIN AR TRES W  DIS CAZ7
 LZ4  SZ E        23 4 23.71                  256.4 28.1      0        2.19  76 
 LZ4  SN IP       23 4 23.71                             168    0.1410 2.19  76 
 LZ4  SE IS       23 4 24.79                             168   -0.1410 2.19  76 
 LZ4  SZ  AML     23 4 24.97        39.7 0.18                          2.19  76 
                                                                                
