 2009  312 0334  8.7 L  21.499 -99.324 10.0  RAL  1 0.2 0.5LRAL                1
 GAP=360        0.68      28.1    28.4  0.0 -0.7974E+03  0.4502E+01 -0.2600E+01E
 ACTION:UPD 12-06-08 11:37 OP:RALL STATUS:               ID:20090312033408     I
 2009-03-12-0333-57S.PLUR1_003                                                 6
 STAT SP IPHASW D HRMM SECON CODA AMPLIT PERI AZIMU VELO AIN AR TRES W  DIS CAZ7
 LA4  SZ E         334 11.01                  316.8  9.6      0        2.34 137 
 LA4  SN IP        334 11.04                             167    0.4110 2.34 137 
 LA4  SE IS        334 11.59                             167   -0.4110 2.34 137 
 LA4  SZ  AML      334 11.73        18.3 0.38                          2.34 137 
                                                                                
