 2009  312 0404 22.8 L  21.332 -99.270 10.0  RAL  1 0.0 1.1LRAL                1
 GAP=360        0.36      36.1   999.9  0.0 -0.1356E+06  0.4502E+01 -0.2600E+01E
 ACTION:UPD 12-06-08 11:37 OP:RALL STATUS:               ID:20090312040422     I
 2009-03-12-0404-15S.PLUR1_003                                                 6
 STAT SP IPHASW D HRMM SECON CODA AMPLIT PERI AZIMU VELO AIN AR TRES W  DIS CAZ7
 LZ4  SZ E         4 4 24.73                  353.8 37.9      0        0.13 174 
 LZ4  SN IP        4 4 24.77                             179    0.1110 0.13 174 
 LZ4  SE IS        4 4 25.89                             179   -0.1110 0.13 174 
 LZ4  SZ  AML      4 4 26.07        74.1 0.36                          0.13 174 
                                                                                
