 2009  312 1527 27.6 L  21.405 -99.232 10.0  RAL  1 0.0 0.9LRAL                1
 GAP=360        0.30       5.0     2.5  0.0  0.1232E+02  0.4502E+01 -0.2600E+01E
 ACTION:UPD 12-06-08 11:37 OP:RALL STATUS:               ID:20090312152727     I
 2009-03-12-1527-20S.PLUR1_003                                                 6
 STAT SP IPHASW D HRMM SECON CODA AMPLIT PERI AZIMU VELO AIN AR TRES W  DIS CAZ7
 LZ4  SZ E        1527 30.00                   25.1 21.8      0        9.12 205 
 LZ4  SN IP       1527 30.02                             137    0.0110 9.12 205 
 LZ4  SE IS       1527 31.73                             137   -0.0110 9.12 205 
 LZ4  SZ  AML     1527 32.08        37.5 0.24                          9.12 205 
                                                                                
