 2009  312 2024 38.3 L  21.350 -99.289 10.0  RAL  1 0.2 0.5LRAL                1
 GAP=360        0.86      27.9    28.6  0.0 -0.7984E+03  0.4502E+01 -0.2600E+01E
 ACTION:UPD 12-06-08 11:37 OP:RALL STATUS:               ID:20090312202438     I
 2009-03-12-2024-31S.PLUR1_003                                                 6
 STAT SP IPHASW D HRMM SECON CODA AMPLIT PERI AZIMU VELO AIN AR TRES W  DIS CAZ7
 LZ4  SZ E        2024 40.73                  316.3 40.9      0        2.99 136 
 LZ4  SN IP       2024 40.73                             164    0.5510 2.99 136 
 LZ4  SE IS       2024 41.02                             164   -0.5510 2.99 136 
 LZ4  SZ  AML     2024 41.11        17.1 0.16                          2.99 136 
                                                                                
