 2009  313 0210 48.9 L  21.349 -99.276 10.0  RAL  1 0.2 0.9LRAL                1
 GAP=360        1.55      89.9    31.5  0.0 -0.2837E+04  0.4502E+01 -0.2600E+01E
 ACTION:UPD 12-06-08 11:37 OP:RALL STATUS:               ID:20090313021048     I
 2009-03-13-0210-42S.PLUR1_003                                                 6
 STAT SP IPHASW D HRMM SECON CODA AMPLIT PERI AZIMU VELO AIN AR TRES W  DIS CAZ7
 LZ4  SN IP        210 51.35                             168    0.5810 2.15 162 
 LZ4  SZ E         210 51.39                  335.9  5.3     -5        2.15 162 
 LZ4  SZ  AML      210 51.53        44.7 0.10                          2.15 162 
 LZ4  SE IS        210 51.55                             168   -0.5810 2.15 162 
                                                                                
