 2009  313 0854  1.9 L  21.317 -99.249 10.0  RAL  1 0.1 0.1LRAL                1
 GAP=360        0.64      19.5    27.6  0.0 -0.5384E+03  0.4502E+01 -0.2600E+01E
 ACTION:UPD 12-06-08 11:37 OP:RALL STATUS:               ID:20090313085401     I
 2009-03-13-0853-55S.PLUR1_003                                                 6
 STAT SP IPHASW D HRMM SECON CODA AMPLIT PERI AZIMU VELO AIN AR TRES W  DIS CAZ7
 LZ4  SN IP        854  4.21                             166    0.3810 2.62 307 
 LZ4  SZ E         854  4.23                  127.1 26.2      0        2.62 307 
 LZ4  SE IS        854  4.82                             166   -0.3810 2.62 307 
 LZ4  SZ  AML      854  4.88         7.7 0.10                          2.62 307 
                                                                                
