 2009  313 0613 14.5 L  21.344 -99.256 10.0  RAL  1 0.2 0.2LRAL                1
 GAP=360        1.02     450.6   399.6  0.0 -0.1800E+06  0.4502E+01 -0.2600E+01E
 ACTION:UPD 12-06-08 11:37 OP:RALL STATUS:               ID:20090313061314     I
 2009-03-13-0613-08S.PLUR1_003                                                 6
 STAT SP IPHASW D HRMM SECON CODA AMPLIT PERI AZIMU VELO AIN AR TRES W  DIS CAZ7
 LZ4  SZ E         613 16.97                   42.3 17.0     -1        2.07 224 
 LZ4  SN IP        613 16.99                             169    0.6010 2.07 224 
 LZ4  SZ  AML      613 17.09         8.1 0.26                          2.07 224 
 LZ4  SE IS        613 17.14                             169   -0.6010 2.07 224 
                                                                                
