 2009  313 0914 29.1 L  21.305 -99.274 10.0  RAL  1 0.0 0.4LRAL                1
 GAP=360        0.30      13.7     2.4  0.0  0.3238E+02  0.4502E+01 -0.2600E+01E
 ACTION:UPD 12-06-08 11:37 OP:RALL STATUS:               ID:20090313091429     I
 2009-03-13-0914-23S.PLUR1_003                                                 6
 STAT SP IPHASW D HRMM SECON CODA AMPLIT PERI AZIMU VELO AIN AR TRES W  DIS CAZ7
 LZ4  SN IP        914 31.02                             164    0.0310 2.89   9 
 LZ4  SZ E         914 31.21                  189.2 29.3      0        2.89   9 
 LZ4  SE IS        914 32.34                             164   -0.0310 2.89   9 
 LZ4  SZ  AML      914 32.80        12.8 0.66                          2.89   9 
                                                                                
