 2009  313 0121 27.7 L  21.335 -99.261 10.0  RAL  1 0.3 0.7LRAL                1
 GAP=360        3.70     999.9   999.9  0.0 -0.1267E+09  0.4502E+01 -0.2600E+01E
 ACTION:UPD 12-06-08 11:37 OP:RALL STATUS:               ID:20090313012127     I
 2009-03-13-0121-21S.PLUR1_003                                                 6
 STAT SP IPHASW D HRMM SECON CODA AMPLIT PERI AZIMU VELO AIN AR TRES W  DIS CAZ7
 LZ4  SN IP        121 30.06                             174    0.5210 1.02 245 
 LZ4  SZ E         121 30.19                   81.8  9.1     17        1.02 245 
 LZ4  SE IS        121 30.36                             174   -0.5210 1.02 245 
 LZ4  SZ  AML      121 30.48        28.6 0.16                          1.02 245 
                                                                                
