 2009  313 1307 21.5 L  21.323 -99.457 10.0  RAL  1 0.0 0.6LRAL                1
 GAP=360        0.30       0.5     4.4  0.0  0.8088E+00  0.4502E+01 -0.2600E+01E
 ACTION:UPD 12-06-08 11:37 OP:RALL STATUS:               ID:20090313130721     I
 2009-03-13-1307-18S.PLUR1_003                                                 6
 STAT SP IPHASW D HRMM SECON CODA AMPLIT PERI AZIMU VELO AIN AR TRES W  DIS CAZ7
 LZ4  SZ E        13 7 25.04                  267.4 26.3      0        19.5  87 
 LZ4  SN IP       13 7 25.22                             114    0.0210 19.5  87 
 LZ4  SE IS       13 7 27.89                             114   -0.0210 19.5  87 
 LZ4  SZ  AML     13 7 30.27        11.1 0.80                          19.5  87 
                                                                                
