 2009  314 0215  4.4 L  21.318 -99.239 10.0  RAL  1 0.0 0.5LRAL                1
 GAP=360        0.34       5.5    13.4  0.0 -0.7333E+02  0.4502E+01 -0.2600E+01E
 ACTION:UPD 12-06-08 11:37 OP:RALL STATUS:               ID:20090314021504     I
 2009-03-14-0214-57S.PLUR1_003                                                 6
 STAT SP IPHASW D HRMM SECON CODA AMPLIT PERI AZIMU VELO AIN AR TRES W  DIS CAZ7
 LZ4  SN IP        215  6.39                             162    0.1210 3.42 294 
 LZ4  SZ E         215  6.40                  113.7 22.5      0        3.42 294 
 LZ4  SE IS        215  7.55                             162   -0.1210 3.42 294 
 LZ4  SZ  AML      215  7.79        18.8 0.10                          3.42 294 
                                                                                
