 2009  314 0535 40.3 L  21.335 -99.283 10.0  RAL  1 0.1 1.2LRAL                1
 GAP=360        0.47     999.9   473.3  0.0  0.5406E+06  0.4502E+01 -0.2600E+01E
 ACTION:UPD 12-06-08 11:37 OP:RALL STATUS:               ID:20090314053540     I
 2009-03-14-0535-33S.PLUR1_003                                                 6
 STAT SP IPHASW D HRMM SECON CODA AMPLIT PERI AZIMU VELO AIN AR TRES W  DIS CAZ7
 LZ4  SZ E         535 42.38                  289.4  8.9      0        1.45 109 
 LZ4  SN IP        535 42.41                             172    0.2410 1.45 109 
 LZ4  SE IS        535 43.27                             172   -0.2410 1.45 109 
 LZ4  SZ  AML      535 43.38        79.4 0.16                          1.45 109 
                                                                                
