 2009  314 0451 25.5 L  21.318 -99.272 10.0  RAL  1 0.3 0.1LRAL                1
 GAP=360        3.59     999.9   999.9  0.0 -0.1304E+09  0.4502E+01 -0.2600E+01E
 ACTION:UPD 12-06-08 11:37 OP:RALL STATUS:               ID:20090314045125     I
 2009-03-14-0451-19S.PLUR1_003                                                 6
 STAT SP IPHASW D HRMM SECON CODA AMPLIT PERI AZIMU VELO AIN AR TRES W  DIS CAZ7
 LZ4  SN IP        451 27.49                             172    0.1010 1.45  10 
 LZ4  SZ E         451 27.55                  173.3 38.0    -16        1.45  10 
 LZ4  SZ  AML      451 28.60         6.5 0.40                          1.45  10 
 LZ4  SE IS        451 28.63                             172   -0.1010 1.45  10 
                                                                                
