 2009  314 1522 54.3 L  21.310 -99.297 10.0  RAL  1 0.1 0.7LRAL                1
 GAP=360        0.39       9.2    12.0  0.0  0.1109E+03  0.4502E+01 -0.2600E+01E
 ACTION:UPD 12-06-08 11:37 OP:RALL STATUS:               ID:20090314152254     I
 2009-03-14-1522-48S.PLUR1_003                                                 6
 STAT SP IPHASW D HRMM SECON CODA AMPLIT PERI AZIMU VELO AIN AR TRES W  DIS CAZ7
 LZ4  SZ E        1522 56.38                  230.6 22.1      0        3.68  51 
 LZ4  SN IP       1522 56.43                             160    0.1710 3.68  51 
 LZ4  SE IS       1522 57.49                             160   -0.1710 3.68  51 
 LZ4  SZ  AML     1522 57.69        25.7 0.16                          3.68  51 
                                                                                
