 2009  315 0540 55.4 L  21.264 -99.443 10.0  RAL  1 0.0 1.2LRAL                1
 GAP=360        0.30       1.6     4.0  0.0  0.6075E+01  0.4502E+01 -0.2600E+01E
 ACTION:UPD 12-06-08 11:37 OP:RALL STATUS:               ID:20090315054055     I
 2009-03-15-0540-50S.PLUR1_003                                                 6
 STAT SP IPHASW D HRMM SECON CODA AMPLIT PERI AZIMU VELO AIN AR TRES W  DIS CAZ7
 LZ4  SZ E         540 59.04                  247.8 19.6      0        19.4  68 
 LZ4  SN IP        540 59.09                             114    0.0010 19.4  68 
 LZ4  SE IS        541  1.78                             114    0.0010 19.4  68 
 LZ4  SZ  AML      541  2.45        39.4 0.32                          19.4  68 
                                                                                
