 2009  315 0926 41.7 L  21.339 -99.234 10.0  RAL  1 0.0 0.1LRAL                1
 GAP=360        0.30       3.7     2.0  0.0 -0.7127E+01 -0.1849E+04  0.6247E+04E
 ACTION:UPD 12-06-08 11:37 OP:RALL STATUS:               ID:20090315092641     I
 2009-03-15-0926-34S.PLUR1_003                                                 6
 STAT SP IPHASW D HRMM SECON CODA AMPLIT PERI AZIMU VELO AIN AR TRES W  DIS CAZ7
 LA4  SN IP        926 45.18                             117    0.0010 17.9 334 
 LA4  SZ E         926 45.49                  154.1 10.8      0        17.9 334 
 LA4  SE IS        926 47.71                             117    0.0010 17.9 334 
 LA4  SZ  AML      926 47.87         3.9 0.48                          17.9 334 
                                                                                
