 2009  315 0241  4.5 L  21.333 -99.284 10.0  RAL  1 0.1 0.7LRAL                1
 GAP=360        0.63     835.6   197.1  0.0  0.1647E+06  0.4502E+01 -0.2600E+01E
 ACTION:UPD 12-06-08 11:37 OP:RALL STATUS:               ID:20090315024104     I
 2009-03-15-0240-57S.PLUR1_003                                                 6
 STAT SP IPHASW D HRMM SECON CODA AMPLIT PERI AZIMU VELO AIN AR TRES W  DIS CAZ7
 LZ4  SZ E         241  6.46                  281.2 23.9      2        1.55  99 
 LZ4  SN IP        241  6.48                             171    0.1810 1.55  99 
 LZ4  SE IS        241  7.47                             171   -0.1810 1.55  99 
 LZ4  SZ  AML      241  7.91        28.9 0.18                          1.55  99 
                                                                                
