 2009  315 0757  8.3 L  21.163 -99.220  0.0  RAL  2 0.1 1.4LRAL                1
 GAP=359        2.27      23.5     7.8389.9 -0.1597E+03 -0.1849E+04  0.6247E+04E
 ACTION:UPD 12-06-08 11:37 OP:RALL STATUS:               ID:20090315075708     I
 2009-03-15-0757-01S.PLUR1_006                                                 6
 STAT SP IPHASW D HRMM SECON CODA AMPLIT PERI AZIMU VELO AIN AR TRES W  DIS CAZ7
 LZ4  SN IP        757 11.88                              93    0.1910 19.3 344 
 LZ4  SZ E         757 11.89                  169.6  9.0      5        19.3 344 
 LZ4  SE IS        757 14.02                              93   -0.1410 19.3 344 
 LZ4  SZ  AML      757 15.43       146.0 0.26                          19.3 344 
 LA4  SZ E         757 14.59                  155.7  7.8     -9        36.7 345 
 LA4  SN IP        757 14.62                              92   -0.1110 36.7 345 
 LA4  SE IS        757 19.49                              92    0.0710 36.7 345 
 LA4  SZ  AML      757 19.99        18.2 0.38                          36.7 345 
                                                                                
