 2009  315 1126 28.2 L  21.327 -99.278 10.0  RAL  1 0.1 0.9LRAL                1
 GAP=360        1.10     999.9   999.9  0.0 -0.3331E+07 -0.1849E+04  0.6247E+04E
 ACTION:UPD 12-06-08 11:37 OP:RALL STATUS:               ID:20090315112628     I
 2009-03-15-1126-20S.PLUR1_003                                                 6
 STAT SP IPHASW D HRMM SECON CODA AMPLIT PERI AZIMU VELO AIN AR TRES W  DIS CAZ7
 LZ4  SZ E        1126 30.28                  250.5 11.3      5        0.96  66 
 LZ4  SN IP       1126 30.30                             175    0.3010 0.96  66 
 LZ4  SE IS       1126 31.04                             175   -0.3010 0.96  66 
 LZ4  SZ  AML     1126 31.13        42.6 0.18                          0.96  66 
                                                                                
