 2009  315 1013 46.6 L  21.315 -99.244 10.0  RAL  1 0.1 0.8LRAL                1
 GAP=360        0.45      10.4    17.0  0.0 -0.1761E+03 -0.1849E+04  0.6247E+04E
 ACTION:UPD 12-06-08 11:37 OP:RALL STATUS:               ID:20090315101346     I
 2009-03-15-1013-40S.PLUR1_003                                                 6
 STAT SP IPHASW D HRMM SECON CODA AMPLIT PERI AZIMU VELO AIN AR TRES W  DIS CAZ7
 LZ4  SN IP       1013 48.76                             163    0.2310 3.21 303 
 LZ4  SZ E        1013 48.77                  123.1 12.2      0        3.21 303 
 LZ4  SE IS       1013 49.69                             163   -0.2310 3.21 303 
 LZ4  SZ  AML     1013 50.99        31.6 0.26                          3.21 303 
                                                                                
