 2009  316 1530 57.2 L  21.344 -99.292 10.0  RAL  1 0.1 0.4LRAL                1
 GAP=360        0.57      14.5    25.5  0.0 -0.3702E+03 -0.1849E+04  0.6247E+04E
 ACTION:UPD 12-06-08 11:37 OP:RALL STATUS:               ID:20090316153057     I
 2009-03-16-1530-50S.PLUR1_003                                                 6
 STAT SP IPHASW D HRMM SECON CODA AMPLIT PERI AZIMU VELO AIN AR TRES W  DIS CAZ7
 LZ4  SN IP       1530 59.39                             165    0.3310 2.71 121 
 LZ4  SZ E        1530 59.42                  301.5 12.7      0        2.71 121 
 LZ4  SE IS       1531  0.11                             165   -0.3310 2.71 121 
 LZ4  SZ  AML     1531  0.30        15.2 0.16                          2.71 121 
                                                                                
