 2009  316 1841 57.7 L  21.389 -99.307 10.0  RAL  1 0.0 0.4LRAL                1
 GAP=360        0.30       5.3     3.4  0.0 -0.1818E+02 -0.1849E+04  0.6247E+04E
 ACTION:UPD 12-06-08 11:37 OP:RALL STATUS:               ID:20090316184157     I
 2009-03-16-1841-52S.PLUR1_003                                                 6
 STAT SP IPHASW D HRMM SECON CODA AMPLIT PERI AZIMU VELO AIN AR TRES W  DIS CAZ7
 LZ4  SZ E        1841 59.88                  328.9 11.3      0        7.53 149 
 LZ4  SN IP       1841 59.89                             143    0.0210 7.53 149 
 LZ4  SE IS       1842  1.47                             143   -0.0210 7.53 149 
 LZ4  SZ  AML     1842  2.12        12.3 0.76                          7.53 149 
                                                                                
