 2009  317 0916 47.9 L  21.332 -99.274 10.0  RAL  1 0.2 0.3LRAL                1
 GAP=360        2.05     999.9    66.6  0.0  0.2131E+06 -0.6066E-01  0.8114E-01E
 ACTION:UPD 12-06-08 11:37 OP:RALL STATUS:               ID:20090317091647     I
 2009-03-17-0916-40S.PLUR1_006                                                 6
 STAT SP IPHASW D HRMM SECON CODA AMPLIT PERI AZIMU VELO AIN AR TRES W  DIS CAZ7
 LZ4  SZ E         916 49.75                  271.0 27.0     -9        0.48 101 
 LZ4  SN IP        916 49.85                             177    0.1210 0.48 101 
 LZ4  SE IS        916 50.94                             177   -0.1210 0.48 101 
 LZ4  SZ  AML      916 51.17        11.4 0.66                          0.48 101 
                                                                                
