 2009  317 0806 38.7 L  21.271 -99.230 10.0  RAL  1 0.1 0.0LRAL                1
 GAP=360        0.35     999.9   307.8  0.0  0.3512E+06 -0.6066E-01  0.8114E-01E
 ACTION:UPD 12-06-08 11:37 OP:RALL STATUS:               ID:20090317080638     I
 2009-03-17-0806-31S.PLUR1_003                                                 6
 STAT SP IPHASW D HRMM SECON CODA AMPLIT PERI AZIMU VELO AIN AR TRES W  DIS CAZ7
 LG3  SZ E         8 6 40.77                  103.2 40.1      0        2.44 283 
 LG3  SN IP        8 6 40.77                             167    0.1310 2.44 283 
 LG3  SE IS        8 6 41.89                             167   -0.1310 2.44 283 
 LG3  SZ  AML      8 6 43.08         5.4 0.38                          2.44 283 
                                                                                
