 2009  317 0147 52.9 L  21.318 -99.298 10.0  RAL  1 0.1 1.1LRAL                1
 GAP=360        0.39       7.0    15.6  0.0  0.1085E+03 -0.1849E+04  0.6247E+04E
 ACTION:UPD 12-06-08 11:37 OP:RALL STATUS:               ID:20090317014752     I
 2009-03-17-0147-45S.PLUR1_003                                                 6
 STAT SP IPHASW D HRMM SECON CODA AMPLIT PERI AZIMU VELO AIN AR TRES W  DIS CAZ7
 LZ4  SN IP        147 55.02                             162    0.1710 3.26  64 
 LZ4  SZ E         147 55.04                  244.4 24.3      0        3.26  64 
 LZ4  SE IS        147 56.07                             162   -0.1710 3.26  64 
 LZ4  SZ  AML      147 56.15        66.8 0.24                          3.26  64 
                                                                                
