 2009  317 0202 36.8 L  21.328 -99.283 10.0  RAL  1 0.1 0.9LRAL                1
 GAP=360        0.72     999.9   392.0  0.0 -0.7569E+06 -0.1849E+04  0.6247E+04E
 ACTION:UPD 12-06-08 11:37 OP:RALL STATUS:               ID:20090317020236     I
 2009-03-17-0202-29S.PLUR1_003                                                 6
 STAT SP IPHASW D HRMM SECON CODA AMPLIT PERI AZIMU VELO AIN AR TRES W  DIS CAZ7
 LZ4  SZ E         2 2 38.76                  260.2 18.5      3        1.41  77 
 LZ4  SN IP        2 2 38.78                             172    0.1810 1.41  77 
 LZ4  SE IS        2 2 39.77                             172   -0.1810 1.41  77 
 LZ4  SZ  AML      2 2 39.98        44.9 0.10                          1.41  77 
                                                                                
