 2009  317 0605 36.1 L  21.245 -99.230  7.8  RAL  2 0.0 0.3LRAL                1
 GAP=348        0.35       1.2     0.9  3.3 -0.1069E+01 -0.6066E-01  0.8114E-01E
 ACTION:UPD 12-06-08 11:37 OP:RALL STATUS:               ID:20090317060536     I
 2009-03-17-0605-28S.PLUR1_006                                                 6
 STAT SP IPHASW D HRMM SECON CODA AMPLIT PERI AZIMU VELO AIN AR TRES W  DIS CAZ7
 LG3  SZ E         6 5 37.83                  144.9 17.8      0        4.10 325 
 LG3  SN IP        6 5 37.85                             153    0.1310 4.10 325 
 LG3  SZ  AML      6 5 38.83         7.9 0.10                          4.10 325 
 LG3  SE IS        6 5 38.94                             153    0.0110 4.10 325 
 LZ4  SN IP        6 5 38.33                             125   -0.0210 10.3 336 
 LZ4  SZ E         6 5 38.59                  156.0 19.5      0        10.3 336 
 LZ4  SE IS        6 5 39.89                             125   -0.1210 10.3 336 
 LZ4  SZ  AML      6 5 41.09        11.7 0.38                          10.3 336 
                                                                                
