 2009  317 0355 54.3 L  21.321 -99.286 10.0  RAL  1 0.2 0.8LRAL                1
 GAP=360        0.91      31.9    53.7  0.0  0.1716E+04 -0.1849E+04  0.6247E+04E
 ACTION:UPD 12-06-08 11:37 OP:RALL STATUS:               ID:20090317035554     I
 2009-03-17-0355-47S.PLUR1_003                                                 6
 STAT SP IPHASW D HRMM SECON CODA AMPLIT PERI AZIMU VELO AIN AR TRES W  DIS CAZ7
 LZ4  SZ E         355 56.71                  237.5 13.4      0        2.00  57 
 LZ4  SN IP        355 56.72                             169    0.5810 2.00  57 
 LZ4  SE IS        355 56.92                             169   -0.5810 2.00  57 
 LZ4  SZ  AML      355 57.07        34.8 0.18                          2.00  57 
                                                                                
