 2009  317 0451 52.2 L  21.351 -99.285 10.0  RAL  1 0.2 0.4LRAL                1
 GAP=360        0.68      26.4    21.4  0.0 -0.5643E+03 -0.1849E+04  0.6247E+04E
 ACTION:UPD 12-06-08 11:37 OP:RALL STATUS:               ID:20090317045152     I
 2009-03-17-0451-45S.PLUR1_003                                                 6
 STAT SP IPHASW D HRMM SECON CODA AMPLIT PERI AZIMU VELO AIN AR TRES W  DIS CAZ7
 LZ4  SN IP        451 54.50                             165    0.4110 2.73 143 
 LZ4  SZ E         451 54.56                  322.9 22.7      0        2.73 143 
 LZ4  SE IS        451 55.05                             165   -0.4110 2.73 143 
 LZ4  SZ  AML      451 55.80        14.2 0.76                          2.73 143 
                                                                                
