 2009  317 1102 53.2 L  21.275 -99.245 10.0  RAL  2 0.4 0.4LRAL                1
 GAP=301        7.32       4.3     4.0 66.7 -0.1118E+01  0.8173E+00 -0.1827E+01E
 ACTION:UPD 12-06-08 11:37 OP:RALL STATUS:               ID:20090317110253     I
 2009-03-17-1102-45S.PLUR1_006                                                 6
 STAT SP IPHASW D HRMM SECON CODA AMPLIT PERI AZIMU VELO AIN AR TRES W  DIS CAZ7
 LG3  SZ E        11 2 54.87                   95.2 17.4     -2        0.80 278 
 LG3  SN IP       11 2 54.89                             177   -0.1710 0.80 278 
 LG3  SE IS       11 2 55.67                             177   -0.7510 0.80 278 
 LG3  SZ  AML     11 2 56.28        12.8 0.24                          0.80 278 
 LZ4  SN IP       11 2 55.68                             148    0.3310 6.73 338 
 LZ4  SZ E        11 2 55.71                  193.0 13.9     35        6.73 338 
 LZ4  SE IS       11 2 57.50                             148    0.5910 6.73 338 
 LZ4  SZ  AML     11 2 57.80        10.9 0.20                          6.73 338 
                                                                                
