 2009  318 0835 32.0 L  21.269 -99.276 10.0  RAL  1 0.0 0.9LRAL                1
 GAP=360        0.30       6.5     0.7  0.0  0.4186E+01  0.8173E+00 -0.1827E+01E
 ACTION:UPD 12-06-08 11:37 OP:RALL STATUS:               ID:20090318083532     I
 2009-03-18-0835-24S.PLUR1_003                                                 6
 STAT SP IPHASW D HRMM SECON CODA AMPLIT PERI AZIMU VELO AIN AR TRES W  DIS CAZ7
 LZ4  SZ E         835 34.11                  185.2 13.3      0        6.87   5 
 LZ4  SN IP        835 34.12                             146    0.0110 6.87   5 
 LZ4  SE IS        835 35.68                             146   -0.0110 6.87   5 
 LZ4  SZ  AML      835 36.25        38.3 0.24                          6.87   5 
                                                                                
