 2009  318 0653  4.7 L  21.346 -99.271 10.0  RAL  1 0.3 0.5LRAL                1
 GAP=360        2.77     999.9   999.9  0.0  0.1556E+09  0.8173E+00 -0.1827E+01E
 ACTION:UPD 12-06-08 11:37 OP:RALL STATUS:               ID:20090318065304     I
 2009-03-18-0652-57S.PLUR1_003                                                 6
 STAT SP IPHASW D HRMM SECON CODA AMPLIT PERI AZIMU VELO AIN AR TRES W  DIS CAZ7
 LZ4  SN IP        653  6.98                             171    0.4510 1.73 176 
 LZ4  SZ E         653  6.99                  343.7  7.9    -12        1.73 176 
 LZ4  SE IS        653  7.44                             171   -0.4510 1.73 176 
 LZ4  SZ  AML      653  7.70        17.9 0.10                          1.73 176 
                                                                                
