 2009  318 0447 11.1 L  21.331 -99.275 10.0  RAL  1 0.3 0.4LRAL                1
 GAP=360        3.56     999.9   999.9  0.0  0.5311E+10  0.8173E+00 -0.1827E+01E
 ACTION:UPD 12-06-08 11:37 OP:RALL STATUS:               ID:20090318044711     I
 2009-03-18-0447-04S.PLUR1_003                                                 6
 STAT SP IPHASW D HRMM SECON CODA AMPLIT PERI AZIMU VELO AIN AR TRES W  DIS CAZ7
 LZ4  SN IP        447 13.20                             177    0.2810 0.60  91 
 LZ4  SZ E         447 13.22                  288.2 61.5     17        0.60  91 
 LZ4  SE IS        447 13.98                             177   -0.2810 0.60  91 
 LZ4  SZ  AML      447 14.60        12.8 0.46                          0.60  91 
                                                                                
