 2009  318 1030 42.7 L  21.670 -99.667 10.0  RAL  1 0.0 1.2LRAL                1
 GAP=360        0.30       2.7     3.1  0.0 -0.6318E+01  0.8173E+00 -0.1827E+01E
 ACTION:UPD 12-06-08 11:37 OP:RALL STATUS:               ID:20090318103042     I
 2009-03-18-1030-42S.PLUR1_003                                                 6
 STAT SP IPHASW D HRMM SECON CODA AMPLIT PERI AZIMU VELO AIN AR TRES W  DIS CAZ7
 LZ4  SZ E        1030 51.90                  312.4  8.0      0        55.8 132 
 LZ4  SN IP       1030 51.93                              96    0.0110 55.8 132 
 LZ4  SZ  AML     1030 58.50        17.6 0.42                          55.8 132 
 LZ4  SE IS       1030 58.61                              96   -0.0110 55.8 132 
                                                                                
