 2009  319 0818 32.6 L  21.326 -99.290 10.0  RAL  1 0.1 0.6LRAL                1
 GAP=360        0.36       4.9    22.6  0.0  0.1100E+03  0.8173E+00 -0.1827E+01E
 ACTION:UPD 12-06-08 11:37 OP:RALL STATUS:               ID:20090319081832     I
 2009-03-19-0818-26S.PLUR1_003                                                 6
 STAT SP IPHASW D HRMM SECON CODA AMPLIT PERI AZIMU VELO AIN AR TRES W  DIS CAZ7
 LZ4  SZ E         818 34.54                  257.0 31.3      0        2.18  77 
 LZ4  SN IP        818 34.56                             168    0.1410 2.18  77 
 LZ4  SE IS        818 35.65                             168   -0.1410 2.18  77 
 LZ4  SZ  AML      818 35.85        20.5 0.16                          2.18  77 
                                                                                
