 2009  319 1356  1.8 L  21.314 -99.276 10.0  RAL  1 0.2 1.5LRAL                1
 GAP=360        0.86     825.8   999.9  0.0 -0.2062E+07  0.8173E+00 -0.1827E+01E
 ACTION:UPD 12-06-08 11:37 OP:RALL STATUS:               ID:20090319135601     I
 2009-03-19-1355-54S.PLUR1_003                                                 6
 STAT SP IPHASW D HRMM SECON CODA AMPLIT PERI AZIMU VELO AIN AR TRES W  DIS CAZ7
 LZ4  SZ E        1356  4.17                  200.8 13.5      0        1.97  21 
 LZ4  SN IP       1356  4.19                             169    0.5410 1.97  21 
 LZ4  SE IS       1356  4.46                             169   -0.5410 1.97  21 
 LZ4  SZ  AML     1356  4.81       178.3 0.24                          1.97  21 
                                                                                
