 2008  1 1 1930 32.6 L  21.320 -99.507  5.1  RAL  3 1.6 1.5LRAL                1
 GAP=243       29.89      43.5    39.7418.6 -0.8439E+02 -0.1741E+04  0.5654E+03E
 ACTION:UPD 12-06-08 11:37 OP:RALL STATUS:               ID:20080101193032     I
 2008-01-01-1930-25S.PLUR1_009                                                 6
 STAT SP IPHASW D HRMM SECON CODA AMPLIT PERI AZIMU VELO AIN AR TRES W  DIS CAZ7
 LD3  SZ E        1930 35.57                  182.2 23.6    -16        16.4  20 
 LD3  SN IP       1930 35.63                              63    0.3510 16.4  20 
 LD3  SE IS       1930 36.17                              63   -1.0710 16.4  20 
 LD3  SZ  AML     1930 36.98       157.2 0.46                          16.4  20 
 LD2  SZ E        1930 37.39                  191.0  7.6    -99        23.5 136 
 LD2  SN IP       1930 37.53                              63    1.1410 23.5 136 
 LD2  SE IS       1930 39.76                              63    0.5910 23.5 136 
 LD2  SZ  AML     1930 39.95        68.8 0.24                          23.5 136 
 LD5  SN IP       1930 36.61                              63    0.1010 24.4 127 
 LD5  SZ E        1930 36.62                   64.3 10.4    117        24.4 127 
 LD5  SE IS       1930 38.27                              63   -1.1010 24.4 127 
 LD5  SZ  AML     1930 38.40        68.5 0.10                          24.4 127 
                                                                                
