 2008  1 1 2327 48.0 L  21.275 -99.537  0.0  RAL  3 1.5 1.0LRAL                1
 GAP=261       26.53      35.8    47.7999.9 -0.1388E+03  0.1605E+05  0.1161E+05E
 ACTION:UPD 12-06-08 11:37 OP:RALL STATUS:               ID:20080101232748     I
 2008-01-01-2327-41S.PLUR1_009                                                 6
 STAT SP IPHASW D HRMM SECON CODA AMPLIT PERI AZIMU VELO AIN AR TRES W  DIS CAZ7
 LD3  SZ E        2327 51.77                  183.9 24.8    -18        22.1  23 
 LD3  SN IP       2327 51.78                              93   -0.0810 22.1  23 
 LD3  SE IS       2327 52.48                              93   -2.2010 22.1  23 
 LD3  SZ  AML     2327 53.22        53.3 0.34                          22.1  23 
 LD2  SZ E        2327 53.54                  194.1  8.2    -99        22.9 122 
 LD2  SN IP       2327 53.60                              93    1.6110 22.9 122 
 LD2  SZ  AML     2327 56.08        14.3 0.24                          22.9 122 
 LD2  SE IS       2327 56.11                              93    1.2010 22.9 122 
 LD5  SZ E        2327 52.76                   39.6 10.7    106        24.6 114 
 LD5  SN IP     C 2327 52.78                              92    0.4910 24.6 114 
 LD5  SE IS       2327 54.41                              92   -1.0210 24.6 114 
 LD5  SZ  AML     2327 54.54        20.5 0.30                          24.6 114 
                                                                                
