 2008  1 2 1054 17.6 L  21.276 -99.842  7.6  RAL  3 1.5 1.1LRAL                1
 GAP=320       26.88      69.9   242.6560.8  0.3421E+04 -0.1013E+06 -0.5983E+04E
 ACTION:UPD 12-06-08 11:37 OP:RALL STATUS:               ID:20080102105417     I
 2008-01-02-1054-16S.PLUR1_009                                                 6
 STAT SP IPHASW D HRMM SECON CODA AMPLIT PERI AZIMU VELO AIN AR TRES W  DIS CAZ7
 LD3  SZ E        1054 25.45                  294.0 13.8     51        45.0  63 
 LD3  SN IP       1054 25.48                              63    0.3210 45.0  63 
 LD3  SE IS       1054 29.20                              63   -1.4410 45.0  63 
 LD3  SZ  AML     1054 30.84        23.3 0.28                          45.0  63 
 LD2  SZ E        1054 27.56                  161.2  9.1    -99        52.4 103 
 LD2  SN IP       1054 27.73                              63    1.4310 52.4 103 
 LD2  SE IS       1054 33.35                              63    0.7410 52.4 103 
 LD2  SN  AML     1054 35.35        21.9 0.24                          52.4 103 
 LD2  SZ  AML     1054 35.47        14.3 0.24                          52.4 103 
 LD5  SZ E        1054 27.06                    0.4 10.6     80        55.0 100 
 LD5  SN IP       1054 27.18                              63    0.4910 55.0 100 
 LD5  SE IS       1054 31.74                              63   -1.5510 55.0 100 
 LD5  SZ  AML     1054 33.23         8.9 0.42                          55.0 100 
                                                                                
