 2008  1 2 1314 13.3 L  21.151 -99.774 10.0  RAL  3 1.3 0.7LRAL                1
 GAP=316       21.33      61.8   151.6999.9  0.5517E+04  0.1437E+06  0.3712E+05E
 ACTION:UPD 12-06-08 11:37 OP:RALL STATUS:               ID:20080102131413     I
 2008-01-02-1314-13S.PLUR1_009                                                 6
 STAT SP IPHASW D HRMM SECON CODA AMPLIT PERI AZIMU VELO AIN AR TRES W  DIS CAZ7
 LD2  SZ E        1314 22.42                  175.5  6.5    -91        44.0  88 
 LD2  SN IP       1314 22.54                              99    1.8510 44.0  88 
 LD2  SZ  AML     1314 25.04        11.5 0.20                          44.0  88 
 LD2  SE IS       1314 25.89                              99   -0.2010 44.0  88 
 LD5  SN IP       1314 22.18                              98    1.0010 47.3  85 
 LD5  SZ E        1314 22.22                  330.5 10.6     65        47.3  85 
 LD5  SE IS       1314 24.72                              98   -2.2210 47.3  85 
 LD5  SZ  AML     1314 25.05         5.8 0.32                          47.3  85 
 LD3  SZ E        1314 22.72                  269.0 17.2     45        47.6  44 
 LD3  SN IP       1314 22.78                              98    1.5310 47.6  44 
 LD3  SE IS       1314 25.08                              98   -1.9710 47.6  44 
 LD3  SZ  AML     1314 25.95         4.6 0.30                          47.6  44 
                                                                                
