 2008  1 3 1534 29.8 L  21.208 -99.796 10.0  RAL  3 1.6 0.6LRAL                1
 GAP=316       27.17      73.4   194.6999.9  0.6703E+04  0.3898E+06  0.8628E+05E
 ACTION:UPD 12-06-08 11:37 OP:RALL STATUS:               ID:20080103153429     I
 2008-01-03-1534-31S.PLUR1_009                                                 6
 STAT SP IPHASW D HRMM SECON CODA AMPLIT PERI AZIMU VELO AIN AR TRES W  DIS CAZ7
 LD3  SZ E        1534 38.77                  345.4 18.9    113        45.1  52 
 LD3  SN IP       1534 39.36                              95    1.9610 45.1  52 
 LD3  SE IS       1534 42.57                              95   -0.3410 45.1  52 
 LD3  SZ  AML     1534 43.10         5.5 0.48                          45.1  52 
 LD2  SZ E        1534 38.90                  179.1 13.3    -96        46.5  96 
 LD2  SN IP       1534 39.82                              95    2.2110 46.5  96 
 LD2  SE IS       1534 41.59                              95   -1.6910 46.5  96 
 LD2  SZ  AML     1534 42.51         7.3 0.24                          46.5  96 
 LD5  SZ E        1534 38.34                  317.3 16.1     44        49.5  93 
 LD5  SN IP       1534 38.36                              94    0.3110 49.5  93 
 LD5  SE IS       1534 41.61                              94   -2.4410 49.5  93 
 LD5  SZ  AML     1534 43.14         3.1 0.32                          49.5  93 
                                                                                
