 2008  1 4 1129 56.9 L  20.942 -99.265  5.0  RAL  2 0.6 0.1LRAL                1
 GAP=352        7.08     122.7    39.7999.9 -0.4590E+04 -0.9964E+05  0.3227E+06E
 ACTION:UPD 12-06-08 11:37 OP:RALL STATUS:               ID:20080104112956     I
 2008-01-04-1129-52S.PLUR1_006                                                 6
 STAT SP IPHASW D HRMM SECON CODA AMPLIT PERI AZIMU VELO AIN AR TRES W  DIS CAZ7
 LD2  SZ E        1130  2.31                  190.0 14.2     30        26.4 340 
 LD2  SN IP       1130  2.41                              93    1.2510 26.4 340 
 LD2  SE IS       1130  4.29                              93    0.0310 26.4 340 
 LD2  SZ  AML     1130  4.50         1.9 0.20                          26.4 340 
 LD5  SZ IP       1130  1.84                  151.0 17.4  92-16 0.4910 27.7 348 
 LD5  SN IP       1130  1.86                              92    0.5110 27.7 348 
 LD5  SE IS       1130  2.33                              92   -2.2710 27.7 348 
 LD5  SZ  AML     1130  2.41         3.7 0.18                          27.7 348 
                                                                                
