 2008  1 4 1342 40.6 L  21.154 -99.196  0.0  RAL  2 0.2-0.4LRAL                1
 GAP=349        2.61       5.3    26.3430.3 -0.1254E+03 -0.8704E+04  0.1595E+04E
 ACTION:UPD 12-06-08 11:37 OP:RALL STATUS:               ID:20080104134240     I
 2008-01-04-1342-34S.PLUR1_006                                                 6
 STAT SP IPHASW D HRMM SECON CODA AMPLIT PERI AZIMU VELO AIN AR TRES W  DIS CAZ7
 LD5  SZ E        1342 43.21                   97.4 13.5     -7        13.4 285 
 LD5  SN IP       1342 43.22                              94    0.3210 13.4 285 
 LD5  SE IS       1342 44.22                              94   -0.4010 13.4 285 
 LD5  SZ  AML     1342 44.71         1.2 0.18                          13.4 285 
 LD2  SZ E        1342 43.76                  103.6 23.5      9        16.1 275 
 LD2  SN IP       1342 43.84                              94    0.4610 16.1 275 
 LD2  SE IS       1342 45.07                              94   -0.3710 16.1 275 
 LD2  SZ  AML     1342 45.53         1.7 0.20                          16.1 275 
                                                                                
