 2008  1 6 0028 18.6 L  21.361 -99.960 10.0  RAL  2 0.7 1.3LRAL                1
 GAP=357       11.80     321.1   999.9999.9 -0.3409E+06  0.1266E+08 -0.3738E+07E
 ACTION:UPD 12-06-08 11:37 OP:RALL STATUS:               ID:20080106002818     I
 2008-01-06-0028-21S.PLUR1_006                                                 6
 STAT SP IPHASW D HRMM SECON CODA AMPLIT PERI AZIMU VELO AIN AR TRES W  DIS CAZ7
 LD2  SZ E         028 30.00                  249.0 13.2    -39        66.8 109 
 LD2  SN IP        028 30.08                              95    0.5810 66.8 109 
 LD2  SE IS        028 37.59                              95    0.1310 66.8 109 
 LD2  SZ  AML      028 39.69        24.9 0.64                          66.8 109 
 LD5  SZ E         028 29.61                  327.9 14.6     42        69.1 106 
 LD5  SN IP        028 29.63                              95   -0.2210 69.1 106 
 LD5  SE IS        028 37.57                              95   -0.4910 69.1 106 
 LD5  SZ  AML      028 40.88        14.0 0.78                          69.1 106 
                                                                                
