 2008  1 7 0727 14.9 L  21.459 -99.456 25.7  RAL  2 1.0 0.3LRAL                1
 GAP=301       14.56      17.6    41.8117.6  0.6819E+03 -0.3748E+02  0.1700E+02E
 ACTION:UPD 12-06-08 11:37 OP:RALL STATUS:               ID:20080107072714     I
 2008-01-07-0727-12S.PLUR1_006                                                 6
 STAT SP IPHASW D HRMM SECON CODA AMPLIT PERI AZIMU VELO AIN AR TRES W  DIS CAZ7
 LD3  SZ E         727 21.24                  270.6 30.5     -4        0.19  96 
 LD3  SN IP        727 21.25                             180    2.0910 0.19  96 
 LD3  SE IS        727 22.21                             180   -0.0510 0.19  96 
 LD3  SZ  AML      727 22.49         7.8 0.26                          0.19  96 
 LD5  SZ E         727 22.13                   44.2  9.4     69        33.3 155 
 LD5  SN IP        727 22.14                             123    0.5010 33.3 155 
 LD5  SE IS        727 24.01                             123   -2.5410 33.3 155 
 LD5  SZ  AML      727 24.30         1.4 0.14                          33.3 155 
                                                                                
