 2008  112 1250 39.3 L  21.467 -99.457 46.6  RAL  2 0.5 0.6LRAL                1
 GAP=358        3.74       5.0    10.9 41.9  0.4813E+02 -0.9401E+00  0.1352E+01E
 ACTION:UPD 12-06-08 11:37 OP:RALL STATUS:               ID:20080112125039     I
 2008-01-12-1250-41S.PLUR1_006                                                 6
 STAT SP IPHASW D HRMM SECON CODA AMPLIT PERI AZIMU VELO AIN AR TRES W  DIS CAZ7
 LD3  SZ E        1250 47.49                  323.1 26.5    -13        0.89 157 
 LD3  SN IP       1250 47.55                             179    1.3710 0.89 157 
 LD3  SE IS       1250 51.74                             179    0.5310 0.89 157 
 LD3  SZ  AML     1250 52.27         5.3 0.28                          0.89 157 
 LD5  SZ E        1250 47.53                  334.8  9.7      0        34.1 155 
 LD5  SN IP       1250 47.60                             138   -0.1010 34.1 155 
 LD5  SE IS       1250 52.05                             138   -1.7910 34.1 155 
 LD5  SZ  AML     1250 54.44         4.9 0.74                          34.1 155 
                                                                                
