 2008  118 0835 34.6 L  21.474 -99.463 51.6  RAL  2 0.3 0.4LRAL                1
 GAP=355        4.02       5.5    12.1 45.8  0.5776E+02 -0.3304E+00  0.1181E+01E
 ACTION:UPD 12-06-08 11:37 OP:RALL STATUS:               ID:20080118083534     I
 2008-01-18-0835-38S.PLUR1_006                                                 6
 STAT SP IPHASW D HRMM SECON CODA AMPLIT PERI AZIMU VELO AIN AR TRES W  DIS CAZ7
 LD3  SZ E         835 41.60                  333.5 16.5      4        1.89 150 
 LD3  SN IP        835 42.56                             178    0.4210 1.89 150 
 LD3  SE IS        835 47.97                             178    0.3510 1.89 150 
 LD3  SZ  AML      835 49.66         3.8 0.28                          1.89 150 
 LD5  SZ E         835 42.41                  316.5 15.1    -18        35.1 155 
 LD5  SN IP        835 43.71                             141    0.1210 35.1 155 
 LD5  SE IS        835 49.24                             141   -0.8810 35.1 155 
 LD5  SZ  AML      835 50.33         2.3 0.50                          35.1 155 
                                                                                
