 2008  122 0250 16.2 L  21.463 -99.458100.0  RAL  2 0.7 1.2LRAL                1
 GAP=343        5.77       9.4    16.9 68.9  0.9576E+02  0.2897E+01 -0.3815E+01E
 ACTION:UPD 12-06-08 11:37 OP:RALL STATUS:               ID:20080122025016     I
 2008-01-22-0250-27S.PLUR1_006                                                 6
 STAT SP IPHASW D HRMM SECON CODA AMPLIT PERI AZIMU VELO AIN AR TRES W  DIS CAZ7
 LD3  SZ E         250 30.68                  317.4 15.7      0        0.56 138 
 LD3  SN IP        250 30.74                             180    1.2510 0.56 138 
 LD3  SE IS        250 36.99                             180   -2.2110 0.56 138 
 LD3  SZ  AML      250 42.73        11.4 0.62                          0.56 138 
 LD5  SN IP        250 32.02                             160    1.8410 33.8 155 
 LD5  SZ E         250 32.24                  358.1 13.7     23        33.8 155 
 LD5  SE IS        250 39.51                             160   -0.8810 33.8 155 
 LD5  SZ  AML      250 42.50         7.3 0.56                          33.8 155 
                                                                                
