 2008  123 1153 29.2 L  21.462 -99.460 41.3  RAL  2 0.9 0.7LRAL                1
 GAP=317        4.72      61.1    36.9999.9  0.1698E+04 -0.2707E+06 -0.4910E+06E
 ACTION:UPD 12-06-08 11:37 OP:RALL STATUS:               ID:20080123115329     I
 2008-01-23-1153-28S.PLUR1_006                                                 6
 STAT SP IPHASW D HRMM SECON CODA AMPLIT PERI AZIMU VELO AIN AR TRES W  DIS CAZ7
 LD3  SZ E        1153 38.12                  292.7 20.5      1        0.71 112 
 LD3  SN IP       1153 38.15                              90    2.7010 0.71 112 
 LD3  SE IS       1153 40.22                              90    0.2210 0.71 112 
 LD3  SZ  AML     1153 40.66         6.9 0.18                          0.71 112 
 LD5  SN IP       1153 37.65                              90    0.5310 33.7 154 
 LD5  SZ E        1153 37.66                  328.0 11.1     -6        33.7 154 
 LD5  SE IS       1153 39.44                              90   -3.4510 33.7 154 
 LD5  SZ  AML     1153 40.34         6.4 0.52                          33.7 154 
                                                                                
