 2008  123 1215 44.7 L  21.387 -99.356 13.8  RAL  2 0.5 0.1LRAL                1
 GAP=222        4.22       8.1     8.6 53.8 -0.4962E+02 -0.1689E+03  0.1687E+03E
 ACTION:UPD 12-06-08 11:37 OP:RALL STATUS:               ID:20080123121544     I
 2008-01-23-1215-41S.PLUR1_006                                                 6
 STAT SP IPHASW D HRMM SECON CODA AMPLIT PERI AZIMU VELO AIN AR TRES W  DIS CAZ7
 LD3  SZ E        1215 49.00                  120.2 19.9     -7        12.9 308 
 LD3  SN IP       1215 49.06                             137    1.1710 12.9 308 
 LD3  SE IS       1215 51.15                             137    0.9110 12.9 308 
 LD3  SZ  AML     1215 52.13         3.6 0.20                          12.9 308 
 LD5  SZ E        1215 48.57                  335.2  9.5    -14        22.5 171 
 LD5  SN IP       1215 48.61                             120   -0.4410 22.5 171 
 LD5  SE IS       1215 50.60                             120   -1.6410 22.5 171 
 LD5  SZ  AML     1215 51.21         2.7 0.52                          22.5 171 
                                                                                
