 2008  123 1146  3.5 L  21.312 -99.637 10.0  RAL  2 0.9 0.8LRAL                1
 GAP=296       11.72      28.1    45.7304.3  0.6549E+03  0.4434E+04  0.3461E+04E
 ACTION:UPD 12-06-08 11:37 OP:RALL STATUS:               ID:20080123114603     I
 2008-01-23-1145-59S.PLUR1_006                                                 6
 STAT SP IPHASW D HRMM SECON CODA AMPLIT PERI AZIMU VELO AIN AR TRES W  DIS CAZ7
 LD3  SZ E        1146  9.83                  274.2 18.5     45        25.0  49 
 LD3  SN IP       1146  9.84                             110    1.8610 25.0  49 
 LD3  SE IS       1146 12.15                             110    0.8810 25.0  49 
 LD3  SZ  AML     1146 12.40        15.2 0.18                          25.0  49 
 LD5  SZ E        1146  9.40                  324.7  8.7     32        35.7 113 
 LD5  SN IP       1146  9.41                             102   -0.1610 35.7 113 
 LD5  SE IS       1146 11.46                             102   -2.5710 35.7 113 
 LD5  SZ  AML     1146 12.31         9.8 0.40                          35.7 113 
                                                                                
