 2008  123 2009  8.6 L  21.347 -99.622 10.0  RAL  2 0.9 0.3LRAL                1
 GAP=295       10.31      23.0    36.7225.4  0.4564E+03  0.2595E+04  0.2170E+04E
 ACTION:UPD 12-06-08 11:37 OP:RALL STATUS:               ID:20080123200908     I
 2008-01-23-2009-06S.PLUR1_006                                                 6
 STAT SP IPHASW D HRMM SECON CODA AMPLIT PERI AZIMU VELO AIN AR TRES W  DIS CAZ7
 LD3  SZ E        20 9 14.60                  275.5 19.0     41        21.4  54 
 LD3  SN IP       20 9 14.60                             112    2.0310 21.4  54 
 LD3  SE IS       20 9 16.87                             112    1.3910 21.4  54 
 LD3  SZ  AML     20 9 17.16         5.9 0.20                          21.4  54 
 LD5  SZ E        20 9 14.21                  321.0  8.7     21        36.0 119 
 LD5  SN IP       20 9 14.50                             101   -0.2410 36.0 119 
 LD5  SE IS       20 9 16.04                             101   -3.1910 36.0 119 
 LD5  SZ  AML     20 9 17.12         3.1 0.30                          36.0 119 
                                                                                
