 2008  123 2016  0.5 L  21.315 -99.389  1.5  RAL  2 0.1-0.2LRAL                1
 GAP=184        2.46       4.7     3.4124.0 -0.7844E+01  0.2023E+02 -0.3702E+02E
 ACTION:UPD 12-06-08 11:37 OP:RALL STATUS:               ID:20080123201600     I
 2008-01-23-2015-55S.PLUR1_006                                                 6
 STAT SP IPHASW D HRMM SECON CODA AMPLIT PERI AZIMU VELO AIN AR TRES W  DIS CAZ7
 LD5  SZ E        2016  3.24                  341.2  9.3      8        15.9 153 
 LD5  SN IP       2016  3.28                              99   -0.0610 15.9 153 
 LD5  SE IS       2016  5.29                              99   -0.1010 15.9 153 
 LD5  SZ  AML     2016  6.32         1.7 0.28                          15.9 153 
 LD3  SZ E        2016  3.63                  166.1 44.2      9        17.4 337 
 LD3  SN IP       2016  3.65                              99    0.0510 17.4 337 
 LD3  SE IS       2016  5.96                              99    0.1110 17.4 337 
 LD3  SZ  AML     2016  6.20         3.3 0.18                          17.4 337 
                                                                                
