 2008  124 0231 41.0 L  21.299 -99.553 10.0  RAL  2 0.6 0.5LRAL                1
 GAP=273        7.00      14.4    14.9154.7  0.7271E+02  0.3151E+03  0.7604E+03E
 ACTION:UPD 12-06-08 11:37 OP:RALL STATUS:               ID:20080124023141     I
 2008-01-24-0231-36S.PLUR1_006                                                 6
 STAT SP IPHASW D HRMM SECON CODA AMPLIT PERI AZIMU VELO AIN AR TRES W  DIS CAZ7
 LD3  SN IP        231 46.04                             114    1.2110 20.6  30 
 LD3  SZ E         231 46.08                  228.1 27.8     18        20.6  30 
 LD3  SE IS        231 48.31                             114    0.6610 20.6  30 
 LD3  SZ  AML      231 48.56         9.1 0.20                          20.6  30 
 LD5  SN IP        231 45.63                             106   -0.1610 27.2 117 
 LD5  SZ E         231 45.68                  324.1 11.5     27        27.2 117 
 LD5  SE IS        231 47.59                             106   -1.7110 27.2 117 
 LD5  SZ  AML      231 48.54         5.2 0.30                          27.2 117 
                                                                                
