 2008  125 1806 49.4 L  21.770 -99.353 10.0  RAL  2 1.0 2.1LRAL                1
 GAP=340        8.60      82.8    33.7379.6  0.1762E+04 -0.6045E+04 -0.1750E+05E
 ACTION:UPD 12-06-08 11:37 OP:RALL STATUS:               ID:20080125180649     I
 2008-01-25-1806-47S.PLUR1_006                                                 6
 STAT SP IPHASW D HRMM SECON CODA AMPLIT PERI AZIMU VELO AIN AR TRES W  DIS CAZ7
 LD3  SN IP       18 6 56.94                             101    1.4110 36.0 197 
 LD3  SZ E        18 6 56.97                  344.6 11.8     32        36.0 197 
 LD3  SE IS       18 7  3.31                             101    3.2810 36.0 197 
 LD3  SZ  AML     18 7  4.52       121.1 0.40                          36.0 197 
 LD5  SZ E        18 6 57.63                  345.6 10.6    -10        64.7 177 
 LD5  SN IP       18 6 57.79                              95   -2.1510 64.7 177 
 LD5  SE IS       18 7  5.12                              95   -2.5410 64.7 177 
 LD5  SZ  AML     18 7  7.44       166.5 0.84                          64.7 177 
                                                                                
