 2008  513 2353 46.4 L  21.626 -99.453  0.0  RAL  2 0.2 1.7LRAL                1
 GAP=346        1.23       8.6     5.2 10.1 -0.3124E+02  0.5115E+01  0.1177E+01E
 ACTION:UPD 12-06-08 11:37 OP:RALL STATUS:               ID:20080513235346     I
 2008-05-13-2353-43S.PLUR1_006                                                 6
 STAT SP IPHASW D HRMM SECON CODA AMPLIT PERI AZIMU VELO AIN AR TRES W  DIS CAZ7
 LD1  SN IP       2353 52.30                              92   -0.7310 37.9 150 
 LD1  SZ E        2353 52.32                  328.3  7.4     -1        37.9 150 
 LD1  SE IS       2353 57.57                              92   -0.2910 37.9 150 
 LD1  SZ  AML     2353 59.67       352.8 0.28                          37.9 150 
 LD5  SZ E        2353 55.43                  345.4 14.4      1        50.5 164 
 LD5  SN IP       2353 55.49                              63    0.3610 50.5 164 
 LD5  SE IS       2354  2.17                              63    0.6610 50.5 164 
 LD5  SZ  AML     2354  3.70        11.6 0.32                          50.5 164 
                                                                                
