 2008  514 2157 17.2 L  21.221 -99.330 14.7  RAL  2 0.0 1.4LRAL                1
 GAP=222        0.37       0.6     0.2  3.4 -0.8867E-01  0.5430E-01 -0.2442E+00E
 ACTION:UPD 12-06-08 11:37 OP:RALL STATUS:               ID:20080514215717     I
 2008-05-14-2157-10S.PLUR1_006                                                 6
 STAT SP IPHASW D HRMM SECON CODA AMPLIT PERI AZIMU VELO AIN AR TRES W  DIS CAZ7
 LD5  SN IP       2157 19.70                             165   -0.1810 3.99 165 
 LD5  SZ E        2157 19.78                  345.5  7.9      0        3.99 165 
 LD5  SE IS       2157 21.85                             165    0.0510 3.99 165 
 LD5  SZ  AML     2157 22.02        28.7 0.38                          3.99 165 
 LD1  SZ E        2157 20.72                  207.4 16.1      0        13.4  27 
 LD1  SN IP       2157 20.73                             137    0.1410 13.4  27 
 LD1  SE IS       2157 23.03                             137   -0.0110 13.4  27 
 LD1  SZ  AML     2157 23.47       251.4 0.20                          13.4  27 
                                                                                
