 2008  516 1650 48.0 L  21.752 -99.173  5.1  RAL  3 1.5 1.6LRAL                1
 GAP=350       25.60     301.5   101.7999.9  0.1823E+05 -0.1089E+07 -0.4993E+07E
 ACTION:UPD 12-06-08 11:37 OP:RALL STATUS:               ID:20080516165048     I
 2008-05-16-1650-47S.PLUR1_009                                                 6
 STAT SP IPHASW D HRMM SECON CODA AMPLIT PERI AZIMU VELO AIN AR TRES W  DIS CAZ7
 LD1  SN IP       1650 57.10                              91    1.5610 47.9 192 
 LD1  SZ E        1650 57.16                  320.9  9.6     51        47.9 192 
 LD1  SE IS       1651  0.79                              91   -0.2910 47.9 192 
 LD1  SZ  AML     1651  0.87       403.7 0.20                          47.9 192 
 LD5  SZ E        1650 58.09                  331.5  9.2     42        64.4 194 
 LD5  SN IP       1650 58.18                              91    0.0610 64.4 194 
 LD5  SE IS       1651  3.09                              91   -2.4310 64.4 194 
 LD5  SZ  AML     1651  5.31        15.3 0.40                          64.4 194 
 LO8  SN IP       1650 59.79                              91    1.4510 65.7 184 
 LO8  SZ E        1650 59.82                  134.8  7.8    131        65.7 184 
 LO8  SE IS       1651  5.56                              91   -0.3510 65.7 184 
 LO8  SZ  AML     1651  6.06         9.6 0.38                          65.7 184 
                                                                                
