 2008  516 2158 24.2 L  21.694 -99.192 10.0  RAL  3 1.5 1.8LRAL                1
 GAP=349       25.80     277.7    87.8999.9  0.1340E+05 -0.1183E+06 -0.6240E+06E
 ACTION:UPD 12-06-08 11:37 OP:RALL STATUS:               ID:20080516215824     I
 2008-05-16-2158-23S.PLUR1_009                                                 6
 STAT SP IPHASW D HRMM SECON CODA AMPLIT PERI AZIMU VELO AIN AR TRES W  DIS CAZ7
 LD1  SZ E        2158 32.63                  320.3 11.1     51        41.2 191 
 LD1  SN IP       2158 32.67                              96    1.5010 41.2 191 
 LD1  SE IS       2158 36.29                              96    0.0610 41.2 191 
 LD1  SZ  AML     2158 36.41       657.4 0.22                          41.2 191 
 LD5  SN IP       2158 33.65                              94   -0.0610 57.7 193 
 LD5  SZ E        2158 33.65                  317.6 10.0     56        57.7 193 
 LD5  SE IS       2158 38.06                              94   -2.5810 57.7 193 
 LD5  SZ  AML     2158 40.86        26.0 0.38                          57.7 193 
 LO8  SN IP       2158 35.16                              94    1.1910 59.2 182 
 LO8  SZ E        2158 35.17                  129.6  7.4    128        59.2 182 
 LO8  SE IS       2158 40.97                              94   -0.1110 59.2 182 
 LO8  SZ  AML     2158 41.82        19.3 0.34                          59.2 182 
                                                                                
