 2008  525 1745  8.4 L  21.194 -99.329 10.0  RAL  2 0.5 0.8LRAL                1
 GAP=250        8.88       5.4    12.5 58.9 -0.5108E+02  0.1501E+02 -0.1706E+02E
 ACTION:UPD 12-06-08 11:37 OP:RALL STATUS:               ID:20080525174508     I
 2008-05-25-1745-00S.PLUR1_009                                                 6
 STAT SP IPHASW D HRMM SECON CODA AMPLIT PERI AZIMU VELO AIN AR TRES W  DIS CAZ7
 LD5  SZ E        1745 10.16                  305.7 12.0     -5        1.19 132 
 LD5  SN IP       1745 10.21                             174   -0.0310 1.19 132 
 LD5  SE IS       1745 11.50                             174   -0.0810 1.19 132 
 LD5  SZ  AML     1745 12.01         9.4 0.10                          1.19 132 
 LD1  SZ E        1745 11.51                  159.0 22.0    -42        16.2  22 
 LD1  SN IP       1745 11.52                             114   -0.1110 16.2  22 
 LD1  SE IS       1745 14.21                             114    0.2210 16.2  22 
 LD1  SZ  AML     1745 14.38        73.1 0.30                          16.2  22 
                                                                                
