 2008  527 1436 56.7 L  21.110 -99.225 17.0  RAL  2 0.3 1.6LRAL                1
 GAP=321        1.51       4.0     4.1 16.4 -0.1375E+02 -0.7664E+01  0.5677E+01E
 ACTION:UPD 12-06-08 11:37 OP:RALL STATUS:               ID:20080527143656     I
 2008-05-27-1436-49S.PLUR1_006                                                 6
 STAT SP IPHASW D HRMM SECON CODA AMPLIT PERI AZIMU VELO AIN AR TRES W  DIS CAZ7
 LD5  SN E        1436 59.47                  129.1 11.9      0        13.0 310 
 LD5  SE IS       1437  2.55                             148   -0.4010 13.0 310 
 LD5  SN  AML     1437  3.97        41.0 0.26                          13.0 310 
 LD1  SN IP       1437  1.02                             129   -0.6410 24.7 349 
 LD1  SZ E        1437  1.06                  170.5 11.2      2        24.7 349 
 LD1  SE IS       1437  6.30                             129    1.0410 24.7 349 
 LD1  SZ  AML     1437  6.89       232.3 0.56                          24.7 349 
                                                                                
