 2008  529 0502 57.9 L  21.240 -98.950  5.1  RAL  2 1.0 1.0LRAL                1
 GAP=335        7.00      17.2    77.7182.0 -0.5080E+03  0.1068E+05 -0.9302E+03E
 ACTION:UPD 12-06-08 11:37 OP:RALL STATUS:               ID:20080529050257     I
 2008-05-29-0502-54S.PLUR1_006                                                 6
 STAT SP IPHASW D HRMM SECON CODA AMPLIT PERI AZIMU VELO AIN AR TRES W  DIS CAZ7
 LD1  SN IP        5 3  6.01                              63    2.6210 34.7 287 
 LD1  SZ E         5 3  6.14                   87.3 22.1    -18        34.7 287 
 LD1  SE IS        5 3  8.73                              63    1.3010 34.7 287 
 LD1  SZ  AML      5 3  9.34        18.3 0.22                          34.7 287 
 LD5  SZ E         5 3  4.06                   94.9 17.3     14        38.9 261 
 LD5  SN IP        5 3  4.13                              63    0.0910 38.9 261 
 LD5  SE IS        5 3  4.54                              63   -4.0210 38.9 261 
 LD5  SZ  AML      5 3  4.60        15.3 0.14                          38.9 261 
                                                                                
