 2008  530 2323 14.5 L  21.441 -99.649  4.6  RAL  2 0.4 0.9LRAL                1
 GAP=338        4.48      30.6    59.1140.0 -0.1630E+04 -0.6900E+04  0.3378E+04E
 ACTION:UPD 12-06-08 11:37 OP:RALL STATUS:               ID:20080530232314     I
 2008-05-30-2323-12S.PLUR1_006                                                 6
 STAT SP IPHASW D HRMM SECON CODA AMPLIT PERI AZIMU VELO AIN AR TRES W  DIS CAZ7
 LD1  SN IP       2323 21.59                              63    0.1910 41.2 107 
 LD1  SZ E        2323 21.60                  298.5  6.9     11        41.2 107 
 LD1  SE IS       2323 25.55                              63   -0.8910 41.2 107 
 LD1  SZ  AML     2323 26.58        71.5 0.34                          41.2 107 
 LD5  SZ E        2323 22.61                  291.9 24.3    -17        44.3 130 
 LD5  SN IP       2323 22.86                              63    0.9810 44.3 130 
 LD5  SE IS       2323 27.00                              63   -0.2810 44.3 130 
 LD5  SZ  AML     2323 28.87         1.8 0.24                          44.3 130 
                                                                                
