 2010  7 1 0500 10.7 L  21.347 -99.295 10.0  RAL  1 0.1 0.5LRAL                1
 GAP=360        0.45      10.2    16.9  0.0 -0.1713E+03 -0.3479E+02  0.8027E+02E
 ACTION:UPD 12-06-08 11:37 OP:RALL STATUS:               ID:20100701050010     I
 2010-07-01-0500-04S.PLUR1_003                                                 6
 STAT SP IPHASW D HRMM SECON CODA AMPLIT PERI AZIMU VELO AIN AR TRES W  DIS CAZ7
 LZ4  SN IP        5 0 12.84                             163    0.2310 3.21 123 
 LZ4  SZ E         5 0 12.86                  302.9 17.7      0        3.21 123 
 LZ4  SE IS        5 0 13.78                             163   -0.2310 3.21 123 
 LZ4  SZ  AML      5 0 14.39        15.7 0.54                          3.21 123 
                                                                                
