 2010  7 2 0757 47.1 L  21.284 -99.253 10.0  RAL  1 0.2 0.6LRAL                1
 GAP=360        1.55     999.9   999.9  0.0  0.9414E+09 -0.3479E+02  0.8027E+02E
 ACTION:UPD 12-06-08 11:37 OP:RALL STATUS:               ID:20100702075747     I
 2010-07-02-0757-40S.PLUR1_003                                                 6
 STAT SP IPHASW D HRMM SECON CODA AMPLIT PERI AZIMU VELO AIN AR TRES W  DIS CAZ7
 LG3  SN IP        757 49.26                             175    0.3310 0.97 179 
 LG3  SZ E         757 49.26                  352.5  7.7     -6        0.97 179 
 LG3  SE IS        757 49.96                             175   -0.3310 0.97 179 
 LG3  SZ  AML      757 50.00        20.7 0.18                          0.97 179 
                                                                                
