 2010  7 3 0544 22.8 L  21.379 -99.282 10.0  RAL  1 0.0 0.4LRAL                1
 GAP=360        0.30       7.6     2.0  0.0 -0.1561E+02 -0.3479E+02  0.8027E+02E
 ACTION:UPD 12-06-08 11:37 OP:RALL STATUS:               ID:20100703054422     I
 2010-07-03-0544-15S.PLUR1_003                                                 6
 STAT SP IPHASW D HRMM SECON CODA AMPLIT PERI AZIMU VELO AIN AR TRES W  DIS CAZ7
 LZ4  SZ E         544 24.84                  346.0 73.8      0        5.46 166 
 LZ4  SN IP        544 24.91                             152    0.0210 5.46 166 
 LZ4  SE IS        544 26.36                             152   -0.0210 5.46 166 
 LZ4  SZ  AML      544 26.72        13.3 0.28                          5.46 166 
                                                                                
