 2010  7 6 0815  2.8 L  21.292 -99.252 10.0  RAL  1 0.1 0.9LRAL                1
 GAP=360        0.57     568.3   999.9  0.0 -0.7431E+07 -0.3479E+02  0.8027E+02E
 ACTION:UPD 12-06-08 11:37 OP:RALL STATUS:               ID:20100706081502     I
 2010-07-06-0814-55S.PLUR1_003                                                 6
 STAT SP IPHASW D HRMM SECON CODA AMPLIT PERI AZIMU VELO AIN AR TRES W  DIS CAZ7
 LG3  SN IP        815  4.96                             170    0.3310 1.83 183 
 LG3  SZ E         815  4.96                    2.8 14.7      0        1.83 183 
 LG3  SZ  AML      815  5.64        45.1 0.28                          1.83 183 
 LG3  SE IS        815  5.67                             170   -0.3310 1.83 183 
                                                                                
