 2010  7 6 0024 44.8 L  21.283 -99.252 10.0  RAL  1 0.4 0.7LRAL                1
 GAP=360        4.40     999.9   999.9  0.0 -0.9558E+09 -0.3479E+02  0.8027E+02E
 ACTION:UPD 12-06-08 11:37 OP:RALL STATUS:               ID:20100706002444     I
 2010-07-06-0024-37S.PLUR1_003                                                 6
 STAT SP IPHASW D HRMM SECON CODA AMPLIT PERI AZIMU VELO AIN AR TRES W  DIS CAZ7
 LG3  SN IP        024 47.16                             175    0.5510 0.86 186 
 LG3  SZ E         024 47.18                  345.3  6.4     21        0.86 186 
 LG3  SE IS        024 47.42                             175   -0.5510 0.86 186 
 LG3  SZ  AML      024 47.51        30.2 0.40                          0.86 186 
                                                                                
