 2010  7 6 0912 11.4 L  21.313 -99.298 10.0  RAL  1 0.1 0.3LRAL                1
 GAP=360        0.38       7.9    12.7  0.0  0.1002E+03 -0.3479E+02  0.8027E+02E
 ACTION:UPD 12-06-08 11:37 OP:RALL STATUS:               ID:20100706091211     I
 2010-07-06-0912-05S.PLUR1_003                                                 6
 STAT SP IPHASW D HRMM SECON CODA AMPLIT PERI AZIMU VELO AIN AR TRES W  DIS CAZ7
 LZ4  SZ E         912 13.46                  236.2 12.9      0        3.60  56 
 LZ4  SN IP        912 13.52                             161    0.1610 3.60  56 
 LZ4  SE IS        912 14.61                             161   -0.1610 3.60  56 
 LZ4  SZ  AML      912 14.79        10.1 0.34                          3.60  56 
                                                                                
