 2010  7 6 1320 46.2 L  21.514 -99.329 10.0  RAL  1 0.1-0.3LRAL                1
 GAP=360        0.37      11.0     7.1  0.0 -0.7850E+02 -0.3479E+02  0.8027E+02E
 ACTION:UPD 12-06-08 11:37 OP:RALL STATUS:               ID:20100706132046     I
 2010-07-06-1320-39S.PLUR1_003                                                 6
 STAT SP IPHASW D HRMM SECON CODA AMPLIT PERI AZIMU VELO AIN AR TRES W  DIS CAZ7
 LA4  SN IP       1320 48.34                             159    0.1510 3.98 149 
 LA4  SZ E        1320 48.40                  328.8  5.1      0        3.98 149 
 LA4  SE IS       1320 49.47                             159   -0.1510 3.98 149 
 LA4  SZ  AML     1320 49.55         2.5 0.22                          3.98 149 
                                                                                
