 2010  7 8 2136 56.4 L  21.622 -99.142 10.0  RAL  1 0.0 1.1LRAL                1
 GAP=360        0.30       3.6     1.6  0.0  0.3844E+01 -0.3479E+02  0.8027E+02E
 ACTION:UPD 12-06-08 11:37 OP:RALL STATUS:               ID:20100708213656     I
 2010-07-08-2136-58S.PLUR1_003                                                 6
 STAT SP IPHASW D HRMM SECON CODA AMPLIT PERI AZIMU VELO AIN AR TRES W  DIS CAZ7
 LG3  SZ E        2137  3.15                   16.6 15.4      0        40.0 197 
 LG3  SN IP       2137  3.20                             100    0.0110 40.0 197 
 LG3  SE IS       2137  8.13                             100   -0.0110 40.0 197 
 LG3  SZ  AML     2137  8.89        17.0 0.20                          40.0 197 
                                                                                
