 2010  7 9 0731  2.1 L  21.280 -99.281 10.4  RAL  2 0.2 0.2LRAL                1
 GAP=259        0.97       0.3     1.0  8.6 -0.1593E+00  0.5109E+00 -0.4898E-01E
 ACTION:UPD 12-06-08 11:37 OP:RALL STATUS:               ID:20100709073102     I
 2010-07-09-0730-55S.PLUR1_006                                                 6
 STAT SP IPHASW D HRMM SECON CODA AMPLIT PERI AZIMU VELO AIN AR TRES W  DIS CAZ7
 LG3  SZ E         731  4.60                  281.1 21.3      1        2.96 100 
 LG3  SN IP        731  4.65                             165    0.5310 2.96 100 
 LG3  SE IS        731  5.72                             165    0.1610 2.96 100 
 LG3  SZ  AML      731  5.87        29.7 0.24                          2.96 100 
 LD5  SN IP        731  4.78                             132    0.0010 11.2 202 
 LD5  SZ E         731  4.79                   21.9  7.8      0        11.2 202 
 LD5  SE IS        731  6.02                             132   -0.6910 11.2 202 
 LD5  SZ  AML      731  6.37         2.1 0.32                          11.2 202 
                                                                                
