 2010  7 9 2103 54.0 L  21.271 -99.251 10.0  RAL  1 0.0 0.8LRAL                1
 GAP=360        0.30       6.3     2.0  0.0 -0.1245E+02  0.5109E+00 -0.4898E-01E
 ACTION:UPD 12-06-08 11:37 OP:RALL STATUS:               ID:20100709210354     I
 2010-07-09-2103-46S.PLUR1_003                                                 6
 STAT SP IPHASW D HRMM SECON CODA AMPLIT PERI AZIMU VELO AIN AR TRES W  DIS CAZ7
 LZ4  SZ E        21 3 56.07                  163.7 15.5      0        6.90 344 
 LZ4  SN IP       21 3 56.19                             146    0.0110 6.90 344 
 LZ4  SE IS       21 3 57.74                             146   -0.0110 6.90 344 
 LZ4  SZ  AML     21 3 58.38        27.5 0.24                          6.90 344 
                                                                                
