 2010  710 0257 22.5 L  21.727 -99.490 10.0  RAL  1 0.0 1.3LRAL                1
 GAP=360        0.30       3.4     2.2  0.0 -0.5433E+01  0.5109E+00 -0.4898E-01E
 ACTION:UPD 12-06-08 11:37 OP:RALL STATUS:               ID:20100710025722     I
 2010-07-10-0257-21S.PLUR1_003                                                 6
 STAT SP IPHASW D HRMM SECON CODA AMPLIT PERI AZIMU VELO AIN AR TRES W  DIS CAZ7
 LZ4  SZ E         257 30.67                  332.5 10.1      0        49.4 152 
 LZ4  SN IP        257 30.69                              97    0.0110 49.4 152 
 LZ4  SE IS        257 36.66                              97   -0.0110 49.4 152 
 LZ4  SZ  AML      257 37.42        23.8 0.14                          49.4 152 
                                                                                
