 2010  711 0803 35.7 R  21.667-100.291 10.0  RAL  1 0.0 1.9LRAL                1
 GAP=360        0.30       3.1     3.9  0.0 -0.1744E+01 -0.3048E+02  0.4780E+02E
 ACTION:UPD 12-06-08 11:37 OP:RALL STATUS:               ID:20100711080335     I
 2010-07-11-0803-44S.PLUR1_009                                                 6
 STAT SP IPHASW D HRMM SECON CODA AMPLIT PERI AZIMU VELO AIN AR TRES W  DIS CAZ7
 LG3  SZ E         8 3 54.15                  292.1 12.8      0         116 112 
 LG3  SN IP        8 3 54.25                              93    0.0010  116 112 
 LG3  SE IS        8 4  7.77                              93    0.0010  116 112 
 LG3  SZ  AML      8 4 10.26        36.1 1.14                           116 112 
                                                                                
