 2010  711 0707 39.9 L  21.400 -99.328 10.0  RAL  3 1.3 0.2LRAL                1
 GAP=211       23.80      12.7    18.3159.2  0.1463E+03 -0.3048E+02  0.4780E+02E
 ACTION:UPD 12-06-08 11:37 OP:RALL STATUS:               ID:20100711070739     I
 2010-07-11-0707-31S.PLUR1_009                                                 6
 STAT SP IPHASW D HRMM SECON CODA AMPLIT PERI AZIMU VELO AIN AR TRES W  DIS CAZ7
 LT9  SZ E         7 7 41.06                  281.3 13.1    -58        0.51 161 
 LT9  SN IP        7 7 41.06                             177   -0.5710 0.51 161 
 LT9  SE IS        7 7 41.62                             177   -1.3110 0.51 161 
 LT9  SZ  AML      7 7 42.27         3.6 0.46                          0.51 161 
 LA4  SZ E         7 7 42.46                  176.2  8.4    -15        9.51  12 
 LA4  SN IP        7 7 42.60                             134    0.3210 9.51  12 
 LA4  SE IS        7 7 44.34                             134    0.2910 9.51  12 
 LA4  SZ  AML      7 7 44.91        10.6 0.16                          9.51  12 
 LG3  SN IP        7 7 43.45                             120    0.3910 15.8 150 
 LG3  SZ E         7 7 43.45                   93.0 30.1    123        15.8 150 
 LG3  SE IS        7 7 46.27                             120    0.8810 15.8 150 
 LG3  SZ  AML      7 7 48.34         7.3 0.14                          15.8 150 
                                                                                
