 2010  711 1835 32.6 L  21.320 -99.291 10.0  RAL  1 0.1 0.4LRAL                1
 GAP=360        0.62      16.2    30.6  0.0  0.4976E+03 -0.3048E+02  0.4780E+02E
 ACTION:UPD 12-06-08 11:37 OP:RALL STATUS:               ID:20100711183532     I
 2010-07-11-1835-25S.PLUR1_003                                                 6
 STAT SP IPHASW D HRMM SECON CODA AMPLIT PERI AZIMU VELO AIN AR TRES W  DIS CAZ7
 LZ4  SZ E        1835 34.78                  240.4 26.7      0        2.51  60 
 LZ4  SN IP       1835 34.84                             166    0.3710 2.51  60 
 LZ4  SE IS       1835 35.47                             166   -0.3710 2.51  60 
 LZ4  SZ  AML     1835 35.79        14.7 0.36                          2.51  60 
                                                                                
