 2010  711 2036 23.0 L  21.430 -99.339 10.0  RAL  1 0.0 1.0LRAL                1
 GAP=360        0.30       3.8     2.7  0.0 -0.1030E+02 -0.3048E+02  0.4780E+02E
 ACTION:UPD 12-06-08 11:37 OP:RALL STATUS:               ID:20100711203623     I
 2010-07-11-2036-17S.PLUR1_003                                                 6
 STAT SP IPHASW D HRMM SECON CODA AMPLIT PERI AZIMU VELO AIN AR TRES W  DIS CAZ7
 LZ4  SN IP       2036 25.86                             126    0.0210 13.1 146 
 LZ4  SZ E        2036 25.88                  326.5  7.9      0        13.1 146 
 LZ4  SE IS       2036 27.90                             126   -0.0210 13.1 146 
 LZ4  SZ  AML     2036 28.16        34.7 0.22                          13.1 146 
                                                                                
