 2010  711 2132 11.7 R  20.377 -98.434 10.0  RAL  1 0.0 2.2LRAL                1
 GAP=360        0.30       4.3     4.3  0.0 -0.5089E+01 -0.3048E+02  0.4780E+02E
 ACTION:UPD 12-06-08 11:37 OP:RALL STATUS:               ID:20100711213211     I
 2010-07-11-2132-25S.PLUR1_003                                                 6
 STAT SP IPHASW D HRMM SECON CODA AMPLIT PERI AZIMU VELO AIN AR TRES W  DIS CAZ7
 LZ4  SZ E        2132 33.11                  140.4 21.6      0         137 321 
 LZ4  SN IP       2132 33.14                              52    0.0110  137 321 
 LZ4  SE IS       2132 48.76                              52   -0.0110  137 321 
 LZ4  SZ  AML     2132 51.94        57.8 0.50                           137 321 
                                                                                
