 2010  711 2258 10.0 L  21.305 -99.250 10.0  RAL  1 0.1 0.6LRAL                1
 GAP=360        0.43      13.7    10.4  0.0 -0.1425E+03 -0.3048E+02  0.4780E+02E
 ACTION:UPD 12-06-08 11:37 OP:RALL STATUS:               ID:20100711225810     I
 2010-07-11-2258-03S.PLUR1_003                                                 6
 STAT SP IPHASW D HRMM SECON CODA AMPLIT PERI AZIMU VELO AIN AR TRES W  DIS CAZ7
 LZ4  SZ E        2258 12.15                  144.8 26.5      0        3.46 325 
 LZ4  SN IP       2258 12.15                             161    0.2110 3.46 325 
 LZ4  SE IS       2258 13.13                             161   -0.2110 3.46 325 
 LZ4  SZ  AML     2258 13.25        21.3 0.14                          3.46 325 
                                                                                
