 2010  711 2144 42.7 R  19.890 -98.221 10.0  RAL  1 0.0 2.2LRAL                1
 GAP=360        0.30       4.8     5.2  0.0  0.1358E+01 -0.3048E+02  0.4780E+02E
 ACTION:UPD 12-06-08 11:37 OP:RALL STATUS:               ID:20100711214442     I
 2010-07-11-2145-01S.PLUR1_003                                                 6
 STAT SP IPHASW D HRMM SECON CODA AMPLIT PERI AZIMU VELO AIN AR TRES W  DIS CAZ7
 LZ4  SZ E        2145 10.61                  145.4 13.5      0         193 326 
 LZ4  SN IP       2145 10.99                              52    0.0110  193 326 
 LZ4  SE IS       2145 31.65                              52   -0.0110  193 326 
 LZ4  SZ  AML     2145 33.01        42.3 0.20                           193 326 
                                                                                
