 2010  712 0513 36.6 L  21.206 -99.374 10.0  RAL  1 0.0 1.0LRAL                1
 GAP=360        0.30       3.3     2.8  0.0  0.8999E+01 -0.3048E+02  0.4780E+02E
 ACTION:UPD 12-06-08 11:37 OP:RALL STATUS:               ID:20100712051336     I
 2010-07-12-0513-32S.PLUR1_003                                                 6
 STAT SP IPHASW D HRMM SECON CODA AMPLIT PERI AZIMU VELO AIN AR TRES W  DIS CAZ7
 LZ4  SZ E         513 39.97                  217.9 29.6      0        17.6  38 
 LZ4  SN IP        513 39.97                             117   -0.0210 17.6  38 
 LZ4  SE IS        513 42.51                             117    0.0210 17.6  38 
 LZ4  SZ  AML      513 44.11        27.7 0.72                          17.6  38 
                                                                                
