 2010  712 0610 39.4 L  21.399 -99.333 10.0  RAL  2 1.1 0.5LRAL                1
 GAP=330       19.06      82.0    56.0154.3 -0.3739E+04 -0.3550E+04  0.5709E+04E
 ACTION:UPD 12-06-08 11:37 OP:RALL STATUS:               ID:20100712061039     I
 2010-07-12-0610-31S.PLUR1_006                                                 6
 STAT SP IPHASW D HRMM SECON CODA AMPLIT PERI AZIMU VELO AIN AR TRES W  DIS CAZ7
 LT9  SN IP        610 40.93                             175   -0.2510 0.81 119 
 LT9  SZ E         610 40.94                  234.5 15.6    -63        0.81 119 
 LT9  SE IS        610 41.46                             175   -1.0210 0.81 119 
 LT9  SZ  AML      610 42.22        16.0 0.78                          0.81 119 
 LG3  SZ E         610 43.14                   35.9 21.3     67        16.0 148 
 LG3  SN IP        610 43.19                             120    0.5610 16.0 148 
 LG3  SE IS        610 45.70                             120    0.7110 16.0 148 
 LG3  SZ  AML      610 46.38        13.1 0.26                          16.0 148 
                                                                                
