 2010  712 0109 18.3 L  21.327 -99.269 10.0  RAL  1 1.8 1.3LRAL                1
 GAP=360       23.89     999.9   999.9  0.0  0.3531E+10 -0.3048E+02  0.4780E+02E
 ACTION:UPD 12-06-08 11:37 OP:RALL STATUS:               ID:20100712010918     I
 2010-07-12-0109-11S.PLUR1_003                                                 6
 STAT SP IPHASW D HRMM SECON CODA AMPLIT PERI AZIMU VELO AIN AR TRES W  DIS CAZ7
 LZ4  SZ E         1 9 20.60                  287.1 38.5    114        0.43 353 
 LZ4  SN IP        1 9 20.60                             178    0.4610 0.43 353 
 LZ4  SE IS        1 9 21.01                             178   -0.4610 0.43 353 
 LZ4  SZ  AML      1 9 21.04       119.5 0.18                          0.43 353 
                                                                                
