 2010  712 1801 24.2 L  21.324 -99.293 10.0  RAL  1 0.1                        1
 GAP=360        0.38       5.6    20.1  0.0  0.1127E+03 -0.9313E+01  0.8186E+01E
 ACTION:UPD 12-06-08 11:37 OP:RALL STATUS:               ID:20100712180124     I
 2010-07-12-1801-17S.PLUR1_003                                                 6
 STAT SP IPHASW D HRMM SECON CODA AMPLIT PERI AZIMU VELO AIN AR TRES W  DIS CAZ7
 LZ4  SZ E        18 1 26.10                  253.3 29.0      0        2.54  73 
 LZ4  SN IP       18 1 26.19                             166    0.1610 2.54  73 
 LZ4  SE IS       18 1 27.25                             166   -0.1610 2.54  73 
                                                                                
