 2010  712 1032 44.6 L  21.395 -99.327  8.5  RAL  2 0.6 0.1LRAL                1
 GAP=288        9.58       6.8    12.2 65.0  0.6716E+02 -0.9313E+01  0.8186E+01E
 ACTION:UPD 12-06-08 11:37 OP:RALL STATUS:               ID:20100712103244     I
 2010-07-12-1032-36S.PLUR1_006                                                 6
 STAT SP IPHASW D HRMM SECON CODA AMPLIT PERI AZIMU VELO AIN AR TRES W  DIS CAZ7
 LT9  SZ E        1032 45.81                  242.7 10.4    -14        0.06  78 
 LT9  SN IP       1032 45.82                             180   -0.3310 0.06  78 
 LT9  SE IS       1032 46.33                             180   -0.9510 0.06  78 
 LT9  SZ  AML     1032 47.10         6.4 0.78                          0.06  78 
 LG3  SN IP       1032 48.06                             116    0.4310 15.3 150 
 LG3  SZ E        1032 48.08                   13.7  9.9     44        15.3 150 
 LG3  SE IS       1032 50.70                             116    0.8610 15.3 150 
 LG3  SZ  AML     1032 51.18         5.5 0.14                          15.3 150 
                                                                                
