 2010  712 1937 23.5 L  21.387 -99.336 10.0  RAL  1 0.0 1.0LRAL                1
 GAP=360        0.30       3.7     4.3  0.0 -0.1577E+02 -0.9313E+01  0.8186E+01E
 ACTION:UPD 12-06-08 11:37 OP:RALL STATUS:               ID:20100712193723     I
 2010-07-12-1937-16S.PLUR1_003                                                 6
 STAT SP IPHASW D HRMM SECON CODA AMPLIT PERI AZIMU VELO AIN AR TRES W  DIS CAZ7
 LZ4  SN IP       1937 25.89                             137    0.0210 9.29 132 
 LZ4  SZ E        1937 25.90                  312.3 15.4      0        9.29 132 
 LZ4  SE IS       1937 27.59                             137   -0.0210 9.29 132 
 LZ4  SZ  AML     1937 28.00        46.9 0.12                          9.29 132 
                                                                                
