 2010  712 1542  6.7 L  21.636 -99.492 10.0  RAL  1 0.0 1.0LRAL                1
 GAP=360        0.30       3.2     2.5  0.0 -0.6521E+01 -0.9313E+01  0.8186E+01E
 ACTION:UPD 12-06-08 11:37 OP:RALL STATUS:               ID:20100712154206     I
 2010-07-12-1542-09S.PLUR1_003                                                 6
 STAT SP IPHASW D HRMM SECON CODA AMPLIT PERI AZIMU VELO AIN AR TRES W  DIS CAZ7
 LZ4  SN IP       1542 13.65                              99    0.0210 40.9 146 
 LZ4  SZ E        1542 13.68                  325.7 15.2      0        40.9 146 
 LZ4  SE IS       1542 18.65                              99   -0.0210 40.9 146 
 LZ4  SZ  AML     1542 19.33        15.0 0.70                          40.9 146 
                                                                                
