 2010  712 2359  5.7 L  21.399 -99.322 10.0  RAL  1 0.0 0.8LRAL                1
 GAP=360        0.30       4.4     3.4  0.0 -0.1484E+02 -0.9313E+01  0.8186E+01E
 ACTION:UPD 12-06-08 11:37 OP:RALL STATUS:               ID:20100712235905     I
 2010-07-12-2358-59S.PLUR1_003                                                 6
 STAT SP IPHASW D HRMM SECON CODA AMPLIT PERI AZIMU VELO AIN AR TRES W  DIS CAZ7
 LZ4  SZ E        2359  8.07                  324.5  8.8      0        9.34 144 
 LZ4  SN IP       2359  8.08                             137    0.0210 9.34 144 
 LZ4  SE IS       2359  9.79                             137   -0.0210 9.34 144 
 LZ4  SZ  AML     2359 10.18        29.3 0.36                          9.34 144 
                                                                                
