 2010  712 2045 30.6 L  21.819 -99.539 10.0  RAL  1 0.0 1.4LRAL                1
 GAP=360        0.30       3.4     2.4  0.0 -0.4980E+01 -0.9313E+01  0.8186E+01E
 ACTION:UPD 12-06-08 11:37 OP:RALL STATUS:               ID:20100712204530     I
 2010-07-12-2045-31S.PLUR1_003                                                 6
 STAT SP IPHASW D HRMM SECON CODA AMPLIT PERI AZIMU VELO AIN AR TRES W  DIS CAZ7
 LZ4  SZ E        2045 40.49                  332.8  8.8      0        60.8 153 
 LZ4  SN IP       2045 40.54                              96    0.0110 60.8 153 
 LZ4  SE IS       2045 47.80                              96   -0.0110 60.8 153 
 LZ4  SZ  AML     2045 52.27        26.3 0.38                          60.8 153 
                                                                                
