 2010  713 0943 21.3 L  21.364 -99.282 10.0  RAL  1 0.0 0.7LRAL                1
 GAP=360        0.31      10.2     3.8  0.0 -0.3846E+02 -0.9313E+01  0.8186E+01E
 ACTION:UPD 12-06-08 11:37 OP:RALL STATUS:               ID:20100713094321     I
 2010-07-13-0943-14S.PLUR1_003                                                 6
 STAT SP IPHASW D HRMM SECON CODA AMPLIT PERI AZIMU VELO AIN AR TRES W  DIS CAZ7
 LZ4  SZ E         943 23.33                  340.9 10.3      0        3.93 161 
 LZ4  SN IP        943 23.35                             159    0.0610 3.93 161 
 LZ4  SE IS        943 24.65                             159   -0.0610 3.93 161 
 LZ4  SZ  AML      943 24.82        29.6 0.22                          3.93 161 
                                                                                
