 2010  713 0716  7.2 L  21.892 -98.941 10.0  RAL  1 0.0 1.4LRAL                1
 GAP=360        0.30       3.4     2.6  0.0  0.4731E+01 -0.9313E+01  0.8186E+01E
 ACTION:UPD 12-06-08 11:37 OP:RALL STATUS:               ID:20100713071607     I
 2010-07-13-0716-09S.PLUR1_003                                                 6
 STAT SP IPHASW D HRMM SECON CODA AMPLIT PERI AZIMU VELO AIN AR TRES W  DIS CAZ7
 LZ4  SZ E         716 18.66                   28.6 10.0      0        70.8 209 
 LZ4  SN IP        716 18.71                              95    0.0110 70.8 209 
 LZ4  SE IS        716 27.10                              95   -0.0110 70.8 209 
 LZ4  SZ  AML      716 27.69        19.7 0.50                          70.8 209 
                                                                                
