 2010  713 2019 54.0 L  21.270 -99.318  0.0  RAL  2 0.3 0.2LRAL                1
 GAP=354        4.59      95.8     6.6999.9 -0.3904E+03 -0.7634E+04  0.1788E+06E
 ACTION:UPD 12-06-08 11:37 OP:RALL STATUS:               ID:20100713201954     I
 2010-07-13-2019-47S.PLUR1_006                                                 6
 STAT SP IPHASW D HRMM SECON CODA AMPLIT PERI AZIMU VELO AIN AR TRES W  DIS CAZ7
 LT9  SZ E        2019 56.96                  183.0  7.4      7        13.9 356 
 LT9  SN IP       2019 56.98                              93    0.5510 13.9 356 
 LT9  SE IS       2019 57.49                              93   -0.7210 13.9 356 
 LT9  SZ  AML     2019 57.58         4.9 0.10                          13.9 356 
 LA4  SN IP       2019 58.67                              93    0.5310 23.7   2 
 LA4  SZ E        2019 58.68                  161.5  6.4    -20        23.7   2 
 LA4  SE IS       2020  0.80                              93   -0.3710 23.7   2 
 LA4  SZ  AML     2020  0.95         6.2 0.22                          23.7   2 
                                                                                
