 2010  714 0715 16.6 L  21.339 -99.265 10.0  RAL  1 0.3 0.3LRAL                1
 GAP=360        3.93     999.9   999.9  0.0 -0.1333E+09 -0.4243E+01  0.3237E+01E
 ACTION:UPD 12-06-08 11:37 OP:RALL STATUS:               ID:20100714071516     I
 2010-07-14-0715-09S.PLUR1_003                                                 6
 STAT SP IPHASW D HRMM SECON CODA AMPLIT PERI AZIMU VELO AIN AR TRES W  DIS CAZ7
 LZ4  SN IP        715 18.85                             174    0.4510 1.00 209 
 LZ4  SZ E         715 18.90                   10.2 14.7    -17        1.00 209 
 LZ4  SE IS        715 19.30                             174   -0.4510 1.00 209 
 LZ4  SZ  AML      715 19.77        11.5 0.54                          1.00 209 
                                                                                
