 2010  714 0520  0.7 L  21.394 -99.326  8.4  RAL  2 0.4-0.2LRAL                1
 GAP=206        6.21       4.3     7.8 41.5  0.2758E+02 -0.4243E+01  0.3237E+01E
 ACTION:UPD 12-06-08 11:37 OP:RALL STATUS:               ID:20100714052000     I
 2010-07-14-0519-52S.PLUR1_006                                                 6
 STAT SP IPHASW D HRMM SECON CODA AMPLIT PERI AZIMU VELO AIN AR TRES W  DIS CAZ7
 LT9  SZ E         520  2.08                  186.7  7.8     11        0.10 356 
 LT9  SN IP        520  2.09                             179   -0.1210 0.10 356 
 LT9  SE IS        520  2.60                             179   -0.7210 0.10 356 
 LT9  SZ  AML      520  2.70         2.2 1.06                          0.10 356 
 LG3  SZ E         520  4.22                  357.8  9.7     28        15.2 150 
 LG3  SN IP        520  4.22                             115    0.5310 15.2 150 
 LG3  SE IS        520  6.18                             115    0.3010 15.2 150 
 LG3  SZ  AML      520  6.67         4.0 0.44                          15.2 150 
                                                                                
