 2010  714 1842 39.6 L  21.364 -99.298 10.0  RAL  1 0.0 0.5LRAL                1
 GAP=360        0.32       7.4     6.4  0.0 -0.4733E+02 -0.4243E+01  0.3237E+01E
 ACTION:UPD 12-06-08 11:37 OP:RALL STATUS:               ID:20100714184239     I
 2010-07-14-1842-33S.PLUR1_003                                                 6
 STAT SP IPHASW D HRMM SECON CODA AMPLIT PERI AZIMU VELO AIN AR TRES W  DIS CAZ7
 LZ4  SZ E        1842 41.68                  321.4  6.7      0        4.73 141 
 LZ4  SN IP       1842 41.69                             155    0.0810 4.73 141 
 LZ4  SE IS       1842 42.98                             155   -0.0810 4.73 141 
 LZ4  SZ  AML     1842 43.18        14.7 0.10                          4.73 141 
                                                                                
