 2010  715 0907 52.9 L  21.613 -99.215 10.0  RAL  1 0.0 1.4LRAL                1
 GAP=360        0.30       3.7     1.1  0.0  0.2610E+01 -0.4243E+01  0.3237E+01E
 ACTION:UPD 12-06-08 11:37 OP:RALL STATUS:               ID:20100715090752     I
 2010-07-15-0907-49S.PLUR1_003                                                 6
 STAT SP IPHASW D HRMM SECON CODA AMPLIT PERI AZIMU VELO AIN AR TRES W  DIS CAZ7
 LZ4  SN IP        9 7 58.45                             103    0.0110 31.7 190 
 LZ4  SZ E         9 7 58.65                   10.3  8.7      0        31.7 190 
 LZ4  SE IS        9 8  2.45                             103   -0.0110 31.7 190 
 LZ4  SZ  AML      9 8  3.72        49.7 0.26                          31.7 190 
                                                                                
