 2010  715 1957  1.9 L  21.413 -99.325 10.0  RAL  1 0.0 0.0LRAL                1
 GAP=360        0.30       5.8     1.4  0.0  0.7896E+01 -0.4243E+01  0.3237E+01E
 ACTION:UPD 12-06-08 11:37 OP:RALL STATUS:               ID:20100715195701     I
 2010-07-15-1956-55S.PLUR1_003                                                 6
 STAT SP IPHASW D HRMM SECON CODA AMPLIT PERI AZIMU VELO AIN AR TRES W  DIS CAZ7
 LA4  SN IP       1957  4.20                             142    0.0110 7.98  12 
 LA4  SZ E        1957  4.28                  192.2 28.8      0        7.98  12 
 LA4  SE IS       1957  5.83                             142   -0.0110 7.98  12 
 LA4  SZ  AML     1957  5.94         4.5 0.36                          7.98  12 
                                                                                
