 2010  715 1948 34.4 L  21.546 -99.331 10.0  RAL  1 0.0 1.5LRAL                1
 GAP=360        0.30       6.1     2.1  0.0 -0.1286E+02 -0.4243E+01  0.3237E+01E
 ACTION:UPD 12-06-08 11:37 OP:RALL STATUS:               ID:20100715194834     I
 2010-07-15-1948-28S.PLUR1_006                                                 6
 STAT SP IPHASW D HRMM SECON CODA AMPLIT PERI AZIMU VELO AIN AR TRES W  DIS CAZ7
 LA4  SZ E        1948 36.63                  342.0  9.2      0        7.23 162 
 LA4  SN IP       1948 36.65                             145    0.0110 7.23 162 
 LA4  SE IS       1948 38.23                             145   -0.0110 7.23 162 
 LA4  SZ  AML     1948 38.35       135.1 0.38                          7.23 162 
                                                                                
