 2010  715 1122 14.1 L  21.333 -99.283 10.0  RAL  1 0.1 0.5LRAL                1
 GAP=360        1.22     999.9   999.9  0.0  0.1349E+08 -0.4243E+01  0.3237E+01E
 ACTION:UPD 12-06-08 11:37 OP:RALL STATUS:               ID:20100715112214     I
 2010-07-15-1122-07S.PLUR1_003                                                 6
 STAT SP IPHASW D HRMM SECON CODA AMPLIT PERI AZIMU VELO AIN AR TRES W  DIS CAZ7
 LZ4  SN IP       1122 16.11                             172    0.2110 1.46 101 
 LZ4  SZ E        1122 16.12                  286.6 27.5      5        1.46 101 
 LZ4  SE IS       1122 17.03                             172   -0.2110 1.46 101 
 LZ4  SZ  AML     1122 17.62        19.0 0.24                          1.46 101 
                                                                                
