 2010  715 2032 37.6 L  21.551 -99.360 10.0  RAL  1 0.0 0.3LRAL                1
 GAP=360        0.30       4.5     3.5  0.0 -0.1542E+02 -0.4243E+01  0.3237E+01E
 ACTION:UPD 12-06-08 11:37 OP:RALL STATUS:               ID:20100715203237     I
 2010-07-15-2032-32S.PLUR1_003                                                 6
 STAT SP IPHASW D HRMM SECON CODA AMPLIT PERI AZIMU VELO AIN AR TRES W  DIS CAZ7
 LA4  SN IP       2032 39.97                             138    0.0210 9.13 144 
 LA4  SZ E        2032 39.99                  324.4  8.9      0        9.13 144 
 LA4  SE IS       2032 41.67                             138   -0.0210 9.13 144 
 LA4  SZ  AML     2032 41.73         7.7 0.10                          9.13 144 
                                                                                
