 2010  716 1623 32.1 L  21.162 -99.214 12.2  RAL  2 0.4 0.4LRAL                1
 GAP=225        2.42       4.2    17.0 22.1 -0.5866E+02  0.9357E+02 -0.1972E+02E
 ACTION:UPD 12-06-08 11:37 OP:RALL STATUS:               ID:20100716162332     I
 2010-07-16-1623-25S.PLUR1_009                                                 6
 STAT SP IPHASW D HRMM SECON CODA AMPLIT PERI AZIMU VELO AIN AR TRES W  DIS CAZ7
 LO8  SN IP       1623 32.76                             178   -1.5710 0.29 149 
 LO8  SZ E        1623 32.77                  332.5  9.3      3        0.29 149 
 LO8  SE IS       1623 35.88                             178   -0.0910 0.29 149 
 LO8  SZ  AML     1623 37.13        17.9 0.48                          0.29 149 
 LD5  SZ E        1623 34.42                  105.7  9.9      2        11.3 284 
 LD5  SN IP       1623 35.05                             139    0.0910 11.3 284 
 LD5  SE IS       1623 38.61                             139    1.5710 11.3 284 
 LD5  SZ  AML     1623 39.78         4.8 0.20                          11.3 284 
                                                                                
