 2010  717 0900 57.3 R  22.050-100.065 10.0  RAL  1 0.0 1.4LRAL                1
 GAP=360        0.30       3.4     3.7  0.0 -0.2195E+01  0.9357E+02 -0.1972E+02E
 ACTION:UPD 12-06-08 11:37 OP:RALL STATUS:               ID:20100717090057     I
 2010-07-17-0901-08S.PLUR1_003                                                 6
 STAT SP IPHASW D HRMM SECON CODA AMPLIT PERI AZIMU VELO AIN AR TRES W  DIS CAZ7
 LG3  SN IP        9 1 16.40                              93    0.0010  120 135 
 LG3  SZ E         9 1 16.44                  315.7  9.9      0         120 135 
 LG3  SE IS        9 1 30.38                              93    0.0010  120 135 
 LG3  SZ  AML      9 1 32.26        12.8 0.12                           120 135 
                                                                                
