 2010  717 2217  0.8 R  20.400 -98.391 10.0  RAL  1 0.0 1.8LRAL                1
 GAP=360        0.30       4.2     4.4  0.0 -0.5053E+01  0.9357E+02 -0.1972E+02E
 ACTION:UPD 12-06-08 11:37 OP:RALL STATUS:               ID:20100717221700     I
 2010-07-17-2217-17S.PLUR1_003                                                 6
 STAT SP IPHASW D HRMM SECON CODA AMPLIT PERI AZIMU VELO AIN AR TRES W  DIS CAZ7
 LZ4  SN IP       2217 22.33                              52    0.0110  138 319 
 LZ4  SZ E        2217 23.18                  138.3 46.1      0         138 319 
 LZ4  SE IS       2217 38.04                              52   -0.0110  138 319 
 LZ4  SZ  AML     2217 41.18        28.1 0.34                           138 319 
                                                                                
