 2010  718 1053 23.5 L  21.366 -99.300 10.0  RAL  1 0.0 0.3LRAL                1
 GAP=360        0.32       7.2     6.2  0.0 -0.4435E+02  0.9357E+02 -0.1972E+02E
 ACTION:UPD 12-06-08 11:37 OP:RALL STATUS:               ID:20100718105323     I
 2010-07-18-1053-17S.PLUR1_003                                                 6
 STAT SP IPHASW D HRMM SECON CODA AMPLIT PERI AZIMU VELO AIN AR TRES W  DIS CAZ7
 LZ4  SN IP       1053 25.60                             154    0.0910 4.99 141 
 LZ4  SZ E        1053 25.60                  321.2 25.9      0        4.99 141 
 LZ4  SE IS       1053 26.89                             154   -0.0910 4.99 141 
 LZ4  SZ  AML     1053 28.58        11.2 0.66                          4.99 141 
                                                                                
