 2010  719 0806 24.5 L  20.944 -99.134  0.0  RAL  3 0.1                        1
 GAP=343        0.39       4.3     4.8 63.6  0.8912E+01  0.6133E+02  0.2005E+03E
 ACTION:UPD 12-06-08 11:37 OP:RALL STATUS:               ID:20100719080624     I
 2010-07-19-0806-22S.PLUR1_009                                                 6
 STAT SP IPHASW D HRMM SECON CODA AMPLIT PERI AZIMU VELO AIN AR TRES W  DIS CAZ7
 LO8  SN IP        8 6 29.10                              93    0.1310 25.2 341 
 LO8  SE IS        8 6 32.05                              93   -0.1410 25.2 341 
 LD5  SN IP        8 6 30.31                              92   -0.0210 33.1 324 
 LD5  SE IS        8 6 34.57                              92    0.0110 33.1 324 
 LG3  SN IP        8 6 31.21                              92   -0.1110 38.7 342 
 LG3  SE IS        8 6 36.39                              92    0.1310 38.7 342 
                                                                                
