 2010  719 2118 24.6 R  21.021 -99.620 10.0  RAL  1 0.0 1.5LRAL                1
 GAP=360        0.30       2.7     3.1  0.0  0.6564E+01  0.6133E+02  0.2005E+03E
 ACTION:UPD 12-06-08 11:37 OP:RALL STATUS:               ID:20100719211824     I
 2010-07-19-2118-25S.PLUR1_003                                                 6
 STAT SP IPHASW D HRMM SECON CODA AMPLIT PERI AZIMU VELO AIN AR TRES W  DIS CAZ7
 LZ4  SN IP       2118 32.87                              97    0.0210 50.0  47 
 LZ4  SZ E        2118 33.31                  226.8 30.7      0        50.0  47 
 LZ4  SE IS       2118 38.90                              97   -0.0210 50.0  47 
 LZ4  SZ  AML     2118 41.40        34.9 0.38                          50.0  47 
                                                                                
