 2010  720 0756 39.5 L  21.266 -99.064 15.0  RAL  5 1.2 0.9LRAL                1
 GAP=279       19.94      20.8    45.2163.7  0.1798E+03 -0.1568E+04 -0.4838E+03E
 ACTION:UPD 12-06-08 11:37 OP:RALL STATUS:               ID:20100720075639     I
 2010-07-20-0756-34S.PLUR1_015                                                 6
 STAT SP IPHASW D HRMM SECON CODA AMPLIT PERI AZIMU VELO AIN AR TRES W  DIS CAZ7
 LO8  SZ E         756 46.19                  131.2  6.3     78        19.4 233 
 LO8  SN IP        756 46.21                             135    2.6110 19.4 233 
 LO8  SE IS        756 49.57                             135    2.9610 19.4 233 
 LO8  SZ  AML      756 50.31         6.5 0.34                          19.4 233 
 LG3  SZ E         756 44.28                   44.2 14.3    -48        19.6 273 
 LG3  SN IP        756 44.30                             133    0.7010 19.6 273 
 LG3  SE IS        756 45.80                             133   -0.8010 19.6 273 
 LD5  SZ E         756 45.00                  356.9  9.6     75        28.0 252 
 LD5  SN IP        756 45.04                             123    0.3410 28.0 252 
 LD5  SE IS        756 47.31                             123   -1.2010 28.0 252 
 LD5  SZ  AML      756 49.57        13.4 0.88                          28.0 252 
 LT9  SZ E         756 44.33                  192.1 12.0     74        30.7 298 
 LT9  SN IP        756 44.33                             119   -0.7210 30.7 298 
 LT9  SE IS        756 46.01                             119   -3.1210 30.7 298 
 LT9  SZ  AML      756 47.38        15.0 0.26                          30.7 298 
 LA4  SZ E         756 45.98                  154.1  6.7     21        35.0 314 
 LA4  SN IP        756 46.00                             116    0.2910 35.0 314 
 LA4  SE IS        756 49.20                             116   -1.0610 35.0 314 
 LA4  SZ  AML      756 50.94        52.6 0.28                          35.0 314 
                                                                                
