 2010  720 0740 15.0 L  21.328 -99.228 10.0  RAL  1 0.0 0.5LRAL                1
 GAP=360        0.30       6.5     3.1  0.0  0.2005E+02  0.6133E+02  0.2005E+03E
 ACTION:UPD 12-06-08 11:37 OP:RALL STATUS:               ID:20100720074015     I
 2010-07-20-0740-07S.PLUR1_003                                                 6
 STAT SP IPHASW D HRMM SECON CODA AMPLIT PERI AZIMU VELO AIN AR TRES W  DIS CAZ7
 LG3  SN IP        740 17.15                             148    0.0210 6.32 204 
 LG3  SZ E         740 17.18                   24.1 13.7      0        6.32 204 
 LG3  SE IS        740 18.66                             148   -0.0210 6.32 204 
 LG3  SZ  AML      740 19.57        14.6 0.16                          6.32 204 
                                                                                
