 2010  720 1044 14.9 L  21.716 -99.467  5.1  RAL  2 0.3 0.9LRAL                1
 GAP=350        4.06      86.2    51.0201.1 -0.4307E+04 -0.9505E+04  0.1626E+05E
 ACTION:UPD 12-06-08 11:37 OP:RALL STATUS:               ID:20100720104414     I
 2010-07-20-1044-11S.PLUR1_006                                                 6
 STAT SP IPHASW D HRMM SECON CODA AMPLIT PERI AZIMU VELO AIN AR TRES W  DIS CAZ7
 LA4  SN IP       1044 20.91                              63    0.7810 30.5 148 
 LA4  SZ E        1044 20.92                  339.2 10.0     12        30.5 148 
 LA4  SE IS       1044 23.52                              63   -0.4210 30.5 148 
 LA4  SZ  AML     1044 25.35        76.1 0.24                          30.5 148 
 LT9  SN IP       1044 21.91                              63    0.5910 38.4 158 
 LT9  SZ E        1044 21.93                  323.3  7.9    -13        38.4 158 
 LT9  SE IS       1044 25.07                              63   -0.9410 38.4 158 
 LT9  SZ  AML     1044 27.31         2.0 0.46                          38.4 158 
                                                                                
