 2010  720 1855 50.3 L  22.215-100.088 10.0  RAL  1 0.0 2.2LRAL                1
 GAP=360        0.30       4.2     4.3  0.0 -0.5898E+01 -0.9505E+04  0.1626E+05E
 ACTION:UPD 12-06-08 11:37 OP:RALL STATUS:               ID:20100720185550     I
 2010-07-20-1856-03S.PLUR1_003                                                 6
 STAT SP IPHASW D HRMM SECON CODA AMPLIT PERI AZIMU VELO AIN AR TRES W  DIS CAZ7
 LZ4  SZ E        1856 10.65                  319.3 10.9      0         129 139 
 LZ4  SN IP       1856 10.81                              52    0.0110  129 139 
 LZ4  SE IS       1856 25.78                              52   -0.0110  129 139 
 LZ4  SZ  AML     1856 29.63        76.8 0.30                           129 139 
                                                                                
