 2010  720 2050 13.2 L  21.359 -99.305 10.0  RAL  1 0.0 1.2LRAL                1
 GAP=360        0.33       6.3     7.9  0.0 -0.4945E+02 -0.9505E+04  0.1626E+05E
 ACTION:UPD 12-06-08 11:37 OP:RALL STATUS:               ID:20100720205013     I
 2010-07-20-2050-06S.PLUR1_003                                                 6
 STAT SP IPHASW D HRMM SECON CODA AMPLIT PERI AZIMU VELO AIN AR TRES W  DIS CAZ7
 LZ4  SZ E        2050 15.25                  310.6 17.5      0        4.83 131 
 LZ4  SN IP       2050 15.31                             155    0.1010 4.83 131 
 LZ4  SE IS       2050 16.57                             155   -0.1010 4.83 131 
 LZ4  SZ  AML     2050 17.53        73.1 0.22                          4.83 131 
                                                                                
