 2010  720 2353 58.1 L  21.107 -99.654 10.0  RAL  1 0.0 1.3LRAL                1
 GAP=360        0.30       2.2     3.5  0.0  0.6006E+01 -0.9505E+04  0.1626E+05E
 ACTION:UPD 12-06-08 11:37 OP:RALL STATUS:               ID:20100720235358     I
 2010-07-20-2353-59S.PLUR1_003                                                 6
 STAT SP IPHASW D HRMM SECON CODA AMPLIT PERI AZIMU VELO AIN AR TRES W  DIS CAZ7
 LZ4  SZ E        2354  5.94                  238.3 50.2      0        47.0  58 
 LZ4  SN IP       2354  5.99                              98    0.0110 47.0  58 
 LZ4  SE IS       2354 11.68                              98   -0.0110 47.0  58 
 LZ4  SZ  AML     2354 12.51        23.8 0.40                          47.0  58 
                                                                                
