 2010  720 2106 39.1 L  21.334 -99.290 10.0  RAL  1 0.0 2.2LRAL                1
 GAP=360        0.31     999.9   309.0  0.0  0.6004E+06 -0.9505E+04  0.1626E+05E
 ACTION:UPD 12-06-08 11:37 OP:RALL STATUS:               ID:20100720210639     I
 2010-07-20-2106-31S.PLUR1_003                                                 6
 STAT SP IPHASW D HRMM SECON CODA AMPLIT PERI AZIMU VELO AIN AR TRES W  DIS CAZ7
 LZ4  SZ E        21 6 40.96                  277.9 18.3      0        2.18  98 
 LZ4  SN IP       21 6 41.01                             168    0.0710 2.18  98 
 LZ4  SE IS       21 6 42.23                             168   -0.0710 2.18  98 
 LZ4  SZ  AML     21 6 43.22       786.8 0.46                          2.18  98 
                                                                                
