 2010  721 0626 57.3 R  21.813 -99.191  8.8  RAL  3 0.9 1.2LRAL                1
 GAP=348       15.22      99.7    46.6101.8  0.1930E+04 -0.7171E+02  0.9080E+03E
 ACTION:UPD 12-06-08 11:37 OP:RALL STATUS:               ID:20100721062657     I
 2010-07-21-0626-54S.PLUR1_009                                                 6
 STAT SP IPHASW D HRMM SECON CODA AMPLIT PERI AZIMU VELO AIN AR TRES W  DIS CAZ7
 LA4  SZ E         627  3.82                  340.5 13.1     38        38.4 199 
 LA4  SN IP        627  3.85                              92    0.0210 38.4 199 
 LA4  SE IS        627  7.54                              92   -1.0410 38.4 199 
 LA4  SZ  AML      627  8.69        85.8 0.62                          38.4 199 
 LT9  SZ E         627  5.97                  337.3  9.3     40        48.3 197 
 LT9  SN IP        627  6.26                              63    0.9410 48.3 197 
 LT9  SE IS        627 10.56                              63   -0.5910 48.3 197 
 LT9  SZ  AML      627 11.27         4.9 0.28                          48.3 197 
 LG3  SZ E         627  8.19                   74.2 15.4     68        59.8 186 
 LG3  SN IP        627  8.20                              63    1.0710 59.8 186 
 LG3  SE IS        627 13.90                              63   -0.3910 59.8 186 
 LG3  SZ  AML      627 19.97        20.4 0.56                          59.8 186 
                                                                                
