 2010  721 1934 59.3 L  21.744 -99.314 10.0  RAL  1 0.0 1.5LRAL                1
 GAP=360        0.30       3.7     1.3  0.0 -0.1362E+01 -0.7171E+02  0.9080E+03E
 ACTION:UPD 12-06-08 11:37 OP:RALL STATUS:               ID:20100721193459     I
 2010-07-21-1934-57S.PLUR1_003                                                 6
 STAT SP IPHASW D HRMM SECON CODA AMPLIT PERI AZIMU VELO AIN AR TRES W  DIS CAZ7
 LZ4  SN IP       1935  7.00                              98    0.0110 45.9 174 
 LZ4  SZ E        1935  7.13                  354.2  7.3      0        45.9 174 
 LZ4  SE IS       1935 12.59                              98   -0.0110 45.9 174 
 LZ4  SZ  AML     1935 13.91        37.8 0.38                          45.9 174 
                                                                                
