 2010  722 0354 37.2 R  22.385 -99.747 10.0  RAL  1 0.0 1.9LRAL                1
 GAP=360        0.30       3.6     3.2  0.0 -0.2310E+01 -0.7171E+02  0.9080E+03E
 ACTION:UPD 12-06-08 11:37 OP:RALL STATUS:               ID:20100722035437     I
 2010-07-22-0354-45S.PLUR1_003                                                 6
 STAT SP IPHASW D HRMM SECON CODA AMPLIT PERI AZIMU VELO AIN AR TRES W  DIS CAZ7
 LA4  SZ E         354 54.65                  335.7 10.1      0         110 156 
 LA4  SN IP        354 54.69                              93    0.0010  110 156 
 LA4  SE IS        355  7.49                              93    0.0010  110 156 
 LA4  SZ  AML      355 12.38        40.3 0.48                           110 156 
                                                                                
