 2010  722 0846 19.6 R  21.002 -98.959 10.0  RAL  1 0.0 1.1LRAL                1
 GAP=360        0.30       2.9     2.8  0.0 -0.6587E+01 -0.7171E+02  0.9080E+03E
 ACTION:UPD 12-06-08 11:37 OP:RALL STATUS:               ID:20100722084619     I
 2010-07-22-0846-24S.PLUR1_003                                                 6
 STAT SP IPHASW D HRMM SECON CODA AMPLIT PERI AZIMU VELO AIN AR TRES W  DIS CAZ7
 LZ4  SN IP        846 27.74                              98    0.0210 48.6 318 
 LZ4  SZ E         846 27.76                  138.4 12.8      0        48.6 318 
 LZ4  SE IS        846 33.61                              98   -0.0210 48.6 318 
 LZ4  SZ  AML      846 35.77        14.9 0.50                          48.6 318 
                                                                                
