 2010  722 1219 35.4 R  21.309 -99.083 10.0  RAL  4 1.1 0.6LRAL                1
 GAP=289       18.91      24.7    48.4280.3  0.6267E+03 -0.3369E+04 -0.1400E+04E
 ACTION:UPD 12-06-08 11:37 OP:RALL STATUS:               ID:20100722121935     I
 2010-07-22-1219-31S.PLUR1_012                                                 6
 STAT SP IPHASW D HRMM SECON CODA AMPLIT PERI AZIMU VELO AIN AR TRES W  DIS CAZ7
 LG3  SZ E        1219 39.37                   46.8 20.5    -30        18.0 258 
 LG3  SN IP       1219 39.40                             116    0.5110 18.0 258 
 LG3  SE IS       1219 40.63                             116   -0.8110 18.0 258 
 LG3  SZ  AML     1219 40.87       212.5 0.16                          18.0 258 
 LO8  SZ E        1219 41.35                  136.9  7.2     98        21.4 219 
 LO8  SN IP       1219 41.39                             112    2.0010 21.4 219 
 LO8  SE IS       1219 44.44                             112    2.1310 21.4 219 
 LO8  SZ  AML     1219 45.73         2.1 0.18                          21.4 219 
 LT9  SN IP       1219 39.52                             105   -0.6310 27.0 291 
 LT9  SZ E        1219 39.53                  158.5  8.0     48        27.0 291 
 LT9  SE IS       1219 41.05                             105   -2.5810 27.0 291 
 LT9  SZ  AML     1219 41.31        10.1 0.30                          27.0 291 
 LD5  SZ E        1219 40.70                   15.6  7.6    -45        28.1 241 
 LD5  SN IP       1219 40.72                             105    0.3710 28.1 241 
 LD5  SE IS       1219 42.99                             105   -0.9810 28.1 241 
 LD5  SZ  AML     1219 46.02         2.0 0.32                          28.1 241 
                                                                                
