 2010  723 1121 15.2 R  22.185 -99.223 10.0  RAL  1 0.0 1.5LRAL                1
 GAP=360        0.30       3.7     2.6  0.0  0.4240E+00 -0.3369E+04 -0.1400E+04E
 ACTION:UPD 12-06-08 11:37 OP:RALL STATUS:               ID:20100723112115     I
 2010-07-23-1121-21S.PLUR1_003                                                 6
 STAT SP IPHASW D HRMM SECON CODA AMPLIT PERI AZIMU VELO AIN AR TRES W  DIS CAZ7
 LZ4  SZ E        1121 30.36                    2.9 41.5      0        94.7 183 
 LZ4  SN IP       1121 30.39                              93    0.0110 94.7 183 
 LZ4  SE IS       1121 41.48                              93   -0.0110 94.7 183 
 LZ4  SZ  AML     1121 43.25        19.4 0.90                          94.7 183 
                                                                                
