 2010  724 0951 19.9 R  21.537 -99.263 10.0  RAL  1 0.0 0.9LRAL                1
 GAP=360        0.30       3.9     0.6  0.0  0.4563E+00 -0.3369E+04 -0.1400E+04E
 ACTION:UPD 12-06-08 11:37 OP:RALL STATUS:               ID:20100724095119     I
 2010-07-24-0951-17S.PLUR1_003                                                 6
 STAT SP IPHASW D HRMM SECON CODA AMPLIT PERI AZIMU VELO AIN AR TRES W  DIS CAZ7
 LZ4  SZ E         951 24.10                    1.6 11.5      0        22.9 182 
 LZ4  SN IP        951 24.13                             110    0.0110 22.9 182 
 LZ4  SE IS        951 27.16                             110   -0.0110 22.9 182 
 LZ4  SZ  AML      951 27.36        19.9 0.26                          22.9 182 
                                                                                
