 2010  724 0101 37.9 R  21.993 -99.460 10.0  RAL  1 0.0 2.0LRAL                1
 GAP=360        0.30       3.6     2.3  0.0 -0.2679E+01 -0.3369E+04 -0.1400E+04E
 ACTION:UPD 12-06-08 11:37 OP:RALL STATUS:               ID:20100724010137     I
 2010-07-24-0101-41S.PLUR1_003                                                 6
 STAT SP IPHASW D HRMM SECON CODA AMPLIT PERI AZIMU VELO AIN AR TRES W  DIS CAZ7
 LZ4  SN IP        1 1 50.22                              94    0.0110 75.9 165 
 LZ4  SZ E         1 1 50.27                  345.0 14.2      0        75.9 165 
 LZ4  SE IS        1 1 59.19                              94   -0.0110 75.9 165 
 LZ4  SZ  AML      1 2  2.84        76.9 0.48                          75.9 165 
                                                                                
