 2010  724 0433 58.4 R  21.456 -99.431 10.0  RAL  1 0.0 0.8LRAL                1
 GAP=360        0.30       2.6     3.3  0.0 -0.8118E+01 -0.3369E+04 -0.1400E+04E
 ACTION:UPD 12-06-08 11:37 OP:RALL STATUS:               ID:20100724043358     I
 2010-07-24-0433-56S.PLUR1_003                                                 6
 STAT SP IPHASW D HRMM SECON CODA AMPLIT PERI AZIMU VELO AIN AR TRES W  DIS CAZ7
 LZ4  SN IP        434  2.45                             111    0.0010 21.8 130 
 LZ4  SZ E         434  2.59                  309.6 11.2      0        21.8 130 
 LZ4  SE IS        434  5.38                             111    0.0010 21.8 130 
 LZ4  SZ  AML      434  5.66        15.2 0.40                          21.8 130 
                                                                                
