 2010  724 0320  7.6 R  21.372 -99.277 10.0  RAL  1 0.0 0.5LRAL                1
 GAP=360        0.30       8.8     1.6  0.0 -0.1439E+02 -0.3369E+04 -0.1400E+04E
 ACTION:UPD 12-06-08 11:37 OP:RALL STATUS:               ID:20100724032007     I
 2010-07-24-0320-01S.PLUR1_003                                                 6
 STAT SP IPHASW D HRMM SECON CODA AMPLIT PERI AZIMU VELO AIN AR TRES W  DIS CAZ7
 LZ4  SZ E         320  9.51                  350.2  9.8      0        4.66 170 
 LZ4  SN IP        320  9.58                             156    0.0210 4.66 170 
 LZ4  SE IS        320 11.00                             156   -0.0210 4.66 170 
 LZ4  SZ  AML      320 11.70        16.1 0.24                          4.66 170 
                                                                                
