 2010  724 0610 57.1 R  21.500 -99.321 10.0  RAL  1 0.2 1.0LRAL                1
 GAP=360        0.76      37.5    28.6  0.0 -0.1070E+04 -0.3369E+04 -0.1400E+04E
 ACTION:UPD 12-06-08 11:37 OP:RALL STATUS:               ID:20100724061057     I
 2010-07-24-0610-49S.PLUR1_003                                                 6
 STAT SP IPHASW D HRMM SECON CODA AMPLIT PERI AZIMU VELO AIN AR TRES W  DIS CAZ7
 LA4  SN IP        610 59.43                             168    0.4710 2.18 145 
 LA4  SZ E         610 59.43                  324.6 12.8      0        2.18 145 
 LA4  SE IS        610 59.86                             168   -0.4710 2.18 145 
 LA4  SZ  AML      611  0.01        55.2 0.26                          2.18 145 
                                                                                
