 2010  724 1912 46.1 L  21.500 -99.308 10.0  RAL  1 0.0 0.5LRAL                1
 GAP=360        0.30       4.0     1.0  0.0 -0.3580E+01 -0.3369E+04 -0.1400E+04E
 ACTION:UPD 12-06-08 11:37 OP:RALL STATUS:               ID:20100724191246     I
 2010-07-24-1912-43S.PLUR1_003                                                 6
 STAT SP IPHASW D HRMM SECON CODA AMPLIT PERI AZIMU VELO AIN AR TRES W  DIS CAZ7
 LZ4  SZ E        1912 49.80                  348.1 24.9      0        19.1 168 
 LZ4  SN IP       1912 49.81                             115    0.0210 19.1 168 
 LZ4  SE IS       1912 52.43                             115   -0.0210 19.1 168 
 LZ4  SZ  AML     1912 54.22         8.6 0.70                          19.1 168 
                                                                                
