 2010  724 1721 45.8 L  21.504 -99.329 10.0  RAL  1 0.1 0.3LRAL                1
 GAP=360        0.60      19.1    19.7  0.0 -0.3751E+03 -0.3369E+04 -0.1400E+04E
 ACTION:UPD 12-06-08 11:37 OP:RALL STATUS:               ID:20100724172145     I
 2010-07-24-1721-39S.PLUR1_003                                                 6
 STAT SP IPHASW D HRMM SECON CODA AMPLIT PERI AZIMU VELO AIN AR TRES W  DIS CAZ7
 LA4  SZ E        1721 48.06                  316.2  9.6      0        3.07 136 
 LA4  SN IP       1721 48.09                             164    0.3510 3.07 136 
 LA4  SZ  AML     1721 48.74        10.7 0.10                          3.07 136 
 LA4  SE IS       1721 48.78                             164   -0.3510 3.07 136 
                                                                                
