 2010  724 1916 59.4 L  21.482 -99.311 10.0  RAL  1 0.5 0.5LRAL                1
 GAP=360        6.80     999.9   519.0  0.0 -0.2875E+07 -0.3369E+04 -0.1400E+04E
 ACTION:UPD 12-06-08 11:37 OP:RALL STATUS:               ID:20100724191659     I
 2010-07-24-1916-53S.PLUR1_003                                                 6
 STAT SP IPHASW D HRMM SECON CODA AMPLIT PERI AZIMU VELO AIN AR TRES W  DIS CAZ7
 LA4  SZ E        1917  1.65                  264.3 28.5     32        0.29  52 
 LA4  SN IP       1917  1.66                             178    0.4610 0.29  52 
 LA4  SE IS       1917  2.08                             178   -0.4610 0.29  52 
 LA4  SZ  AML     1917  2.16        16.1 0.18                          0.29  52 
                                                                                
