 2010  724 1321 40.6 L  21.502 -99.329 10.0  RAL  1 0.2 1.2LRAL                1
 GAP=360        0.73      23.5    26.0  0.0 -0.6100E+03 -0.3369E+04 -0.1400E+04E
 ACTION:UPD 12-06-08 11:37 OP:RALL STATUS:               ID:20100724132140     I
 2010-07-24-1321-33S.PLUR1_003                                                 6
 STAT SP IPHASW D HRMM SECON CODA AMPLIT PERI AZIMU VELO AIN AR TRES W  DIS CAZ7
 LA4  SN IP       1321 42.99                             164    0.4510 2.91 134 
 LA4  SZ E        1321 42.99                  314.1 11.1      0        2.91 134 
 LA4  SE IS       1321 43.48                             164   -0.4510 2.91 134 
 LA4  SZ  AML     1321 43.56        84.3 0.20                          2.91 134 
                                                                                
