 2010  724 1522 25.3 L  21.503 -99.327 10.0  RAL  1 0.2 0.7LRAL                1
 GAP=360        0.69      24.9    22.6  0.0 -0.5615E+03 -0.3369E+04 -0.1400E+04E
 ACTION:UPD 12-06-08 11:37 OP:RALL STATUS:               ID:20100724152225     I
 2010-07-24-1522-18S.PLUR1_003                                                 6
 STAT SP IPHASW D HRMM SECON CODA AMPLIT PERI AZIMU VELO AIN AR TRES W  DIS CAZ7
 LA4  SZ E        1522 27.58                  319.8  8.6      0        2.84 140 
 LA4  SN IP       1522 27.58                             165    0.4210 2.84 140 
 LA4  SE IS       1522 28.13                             165   -0.4210 2.84 140 
 LA4  SZ  AML     1522 28.67        25.9 0.20                          2.84 140 
                                                                                
