 2010  724 1730 54.0 L  21.378 -99.339 10.0  RAL  1 0.2-0.6LRAL                1
 GAP=360        0.74      34.1    25.0  0.0  0.8512E+03 -0.3369E+04 -0.1400E+04E
 ACTION:UPD 12-06-08 11:37 OP:RALL STATUS:               ID:20100724173054     I
 2010-07-24-1730-46S.PLUR1_003                                                 6
 STAT SP IPHASW D HRMM SECON CODA AMPLIT PERI AZIMU VELO AIN AR TRES W  DIS CAZ7
 LT9  SN IP       1730 56.29                             167    0.4610 2.30  34 
 LT9  SZ E        1730 56.29                  214.3 11.5      0        2.30  34 
 LT9  SE IS       1730 56.70                             167   -0.4610 2.30  34 
 LT9  SZ  AML     1730 58.12         1.4 0.24                          2.30  34 
                                                                                
