 2010  724 1034 16.7 R  21.528 -99.277 10.0  RAL  1 0.0 0.6LRAL                1
 GAP=360        0.30       4.0     0.6  0.0 -0.5803E+00 -0.3369E+04 -0.1400E+04E
 ACTION:UPD 12-06-08 11:37 OP:RALL STATUS:               ID:20100724103416     I
 2010-07-24-1034-14S.PLUR1_003                                                 6
 STAT SP IPHASW D HRMM SECON CODA AMPLIT PERI AZIMU VELO AIN AR TRES W  DIS CAZ7
 LZ4  SN IP       1034 20.70                             111    0.0110 21.9 178 
 LZ4  SZ E        1034 20.74                  358.0 10.9      0        21.9 178 
 LZ4  SE IS       1034 23.62                             111   -0.0110 21.9 178 
 LZ4  SZ  AML     1034 24.08        10.7 0.30                          21.9 178 
                                                                                
