 2010  724 1518 25.8 L  21.501 -99.328 10.0  RAL  1 0.2 1.5LRAL                1
 GAP=360        0.76      25.9    28.2  0.0 -0.7326E+03 -0.3369E+04 -0.1400E+04E
 ACTION:UPD 12-06-08 11:37 OP:RALL STATUS:               ID:20100724151825     I
 2010-07-24-1518-18S.PLUR1_003                                                 6
 STAT SP IPHASW D HRMM SECON CODA AMPLIT PERI AZIMU VELO AIN AR TRES W  DIS CAZ7
 LA4  SN IP       1518 28.13                             165    0.4710 2.76 135 
 LA4  SZ E        1518 28.13                  314.6 23.2      0        2.76 135 
 LA4  SZ  AML     1518 28.23       154.5 0.16                          2.76 135 
 LA4  SE IS       1518 28.57                             165   -0.4710 2.76 135 
                                                                                
