 2010  724 2345 14.4 L  21.402 -99.343 10.0  RAL  1 0.2-0.8LRAL                1
 GAP=360        0.74      19.9    48.8  0.0 -0.9692E+03 -0.3369E+04 -0.1400E+04E
 ACTION:UPD 12-06-08 11:37 OP:RALL STATUS:               ID:20100724234514     I
 2010-07-24-2345-07S.PLUR1_003                                                 6
 STAT SP IPHASW D HRMM SECON CODA AMPLIT PERI AZIMU VELO AIN AR TRES W  DIS CAZ7
 LT9  SZ E        2345 16.69                  293.6 10.5      0        1.90 114 
 LT9  SN IP       2345 16.70                             169    0.4610 1.90 114 
 LT9  SE IS       2345 17.10                             169   -0.4610 1.90 114 
 LT9  SZ  AML     2345 17.20         0.8 0.22                          1.90 114 
                                                                                
