 2010  724 2213 53.4 L  21.518 -99.316 10.0  RAL  1 0.0 0.5LRAL                1
 GAP=360        0.30       3.9     1.1  0.0 -0.3708E+01 -0.3369E+04 -0.1400E+04E
 ACTION:UPD 12-06-08 11:37 OP:RALL STATUS:               ID:20100724221353     I
 2010-07-24-2213-51S.PLUR1_003                                                 6
 STAT SP IPHASW D HRMM SECON CODA AMPLIT PERI AZIMU VELO AIN AR TRES W  DIS CAZ7
 LZ4  SN IP       2213 57.35                             112    0.0210 21.2 167 
 LZ4  SZ E        2213 57.55                  347.0 10.8      0        21.2 167 
 LZ4  SE IS       2214  0.19                             112   -0.0210 21.2 167 
 LZ4  SZ  AML     2214  0.50         8.4 0.16                          21.2 167 
                                                                                
