 2010  724 2035 10.8 L  21.500 -99.324 10.0  RAL  1 0.2 0.1LRAL                1
 GAP=360        0.78      33.2    30.3  0.0 -0.1006E+04 -0.3369E+04 -0.1400E+04E
 ACTION:UPD 12-06-08 11:37 OP:RALL STATUS:               ID:20100724203510     I
 2010-07-24-2035-04S.PLUR1_003                                                 6
 STAT SP IPHASW D HRMM SECON CODA AMPLIT PERI AZIMU VELO AIN AR TRES W  DIS CAZ7
 LA4  SN IP       2035 13.16                             167    0.4910 2.39 140 
 LA4  SZ E        2035 13.16                  319.7 15.4      0        2.39 140 
 LA4  SZ  AML     2035 13.55         7.4 0.18                          2.39 140 
 LA4  SE IS       2035 13.56                             167   -0.4910 2.39 140 
                                                                                
