 2010  725 0349 21.9 L  21.381 -99.321 10.0  RAL  1 0.2-0.5LRAL                1
 GAP=360        0.80      58.1    22.7  0.0 -0.1319E+04 -0.3369E+04 -0.1400E+04E
 ACTION:UPD 12-06-08 11:37 OP:RALL STATUS:               ID:20100725034921     I
 2010-07-25-0349-14S.PLUR1_003                                                 6
 STAT SP IPHASW D HRMM SECON CODA AMPLIT PERI AZIMU VELO AIN AR TRES W  DIS CAZ7
 LT9  SZ E         349 24.24                  160.0  5.5      0        1.66 340 
 LT9  SN IP        349 24.25                             171    0.5110 1.66 340 
 LT9  SE IS        349 24.55                             171   -0.5110 1.66 340 
 LT9  SZ  AML      349 24.72         1.6 0.20                          1.66 340 
                                                                                
