 2010  725 0029 56.2 L  21.610 -99.363 10.0  RAL  1 0.0 1.5LRAL                1
 GAP=360        0.30       3.6     1.5  0.0 -0.4197E+01 -0.3369E+04 -0.1400E+04E
 ACTION:UPD 12-06-08 11:37 OP:RALL STATUS:               ID:20100725002956     I
 2010-07-25-0029-52S.PLUR1_003                                                 6
 STAT SP IPHASW D HRMM SECON CODA AMPLIT PERI AZIMU VELO AIN AR TRES W  DIS CAZ7
 LZ4  SZ E         030  1.78                  342.7  9.3      0        32.4 163 
 LZ4  SN IP        030  1.78                             103    0.0110 32.4 163 
 LZ4  SE IS        030  5.85                             103   -0.0110 32.4 163 
 LZ4  SZ  AML      030  6.05        56.7 0.32                          32.4 163 
                                                                                
