 2010  725 0911 15.8 L  21.403 -99.303 10.0  RAL  1 0.0 1.0LRAL                1
 GAP=360        0.30       5.2     2.4  0.0 -0.1223E+02  0.1211E+02  0.4501E+02E
 ACTION:UPD 12-06-08 11:37 OP:RALL STATUS:               ID:20100725091115     I
 2010-07-25-0911-08S.PLUR1_003                                                 6
 STAT SP IPHASW D HRMM SECON CODA AMPLIT PERI AZIMU VELO AIN AR TRES W  DIS CAZ7
 LZ4  SN IP        911 18.18                             139    0.0110 8.73 157 
 LZ4  SZ E         911 18.23                  336.8  8.3      0        8.73 157 
 LZ4  SE IS        911 19.86                             139   -0.0110 8.73 157 
 LZ4  SZ  AML      911 20.21        46.3 0.26                          8.73 157 
                                                                                
