 2010  725 0034 20.1 L  21.497 -99.316 10.0  RAL  1 0.2 0.5LRAL                1
 GAP=360        0.66     919.7   999.9  0.0  0.1969E+07 -0.3369E+04 -0.1400E+04E
 ACTION:UPD 12-06-08 11:37 OP:RALL STATUS:               ID:20100725003420     I
 2010-07-25-0034-12S.PLUR1_003                                                 6
 STAT SP IPHASW D HRMM SECON CODA AMPLIT PERI AZIMU VELO AIN AR TRES W  DIS CAZ7
 LA4  SZ E         034 22.31                  333.8  8.6      0        1.61 154 
 LA4  SN IP        034 22.34                             171    0.4010 1.61 154 
 LA4  SE IS        034 22.90                             171   -0.4010 1.61 154 
 LA4  SZ  AML      034 22.95        16.5 0.10                          1.61 154 
                                                                                
