 2010  725 0627 46.7 L  21.278 -99.261 10.0  RAL  1 0.1 0.2LRAL                1
 GAP=360        0.63     999.9   999.9  0.0  0.6933E+07 -0.3369E+04 -0.1400E+04E
 ACTION:UPD 12-06-08 11:37 OP:RALL STATUS:               ID:20100725062746     I
 2010-07-25-0627-39S.PLUR1_003                                                 6
 STAT SP IPHASW D HRMM SECON CODA AMPLIT PERI AZIMU VELO AIN AR TRES W  DIS CAZ7
 LG3  SN IP        627 48.90                             175    0.3510 0.91 106 
 LG3  SZ E         627 48.92                  284.6 26.3      0        0.91 106 
 LG3  SE IS        627 49.56                             175   -0.3510 0.91 106 
 LG3  SZ  AML      627 50.22         9.0 0.10                          0.91 106 
                                                                                
