 2010  725 0456 19.7 L  21.546 -99.266 10.0  RAL  1 0.0 0.8LRAL                1
 GAP=360        0.30       3.9     0.7  0.0  0.2254E+00 -0.3369E+04 -0.1400E+04E
 ACTION:UPD 12-06-08 11:37 OP:RALL STATUS:               ID:20100725045619     I
 2010-07-25-0456-17S.PLUR1_003                                                 6
 STAT SP IPHASW D HRMM SECON CODA AMPLIT PERI AZIMU VELO AIN AR TRES W  DIS CAZ7
 LZ4  SN IP        456 24.00                             109    0.0110 23.8 181 
 LZ4  SZ E         456 24.02                    0.8 15.3      0        23.8 181 
 LZ4  SE IS        456 27.13                             109   -0.0110 23.8 181 
 LZ4  SZ  AML      456 27.86        15.3 0.62                          23.8 181 
                                                                                
