 2010  725 0741  3.0 L  21.297 -99.258 10.0  RAL  1 0.0 0.8LRAL                1
 GAP=360        0.31      10.1     3.5  0.0 -0.3520E+02 -0.3369E+04 -0.1400E+04E
 ACTION:UPD 12-06-08 11:37 OP:RALL STATUS:               ID:20100725074103     I
 2010-07-25-0740-56S.PLUR1_003                                                 6
 STAT SP IPHASW D HRMM SECON CODA AMPLIT PERI AZIMU VELO AIN AR TRES W  DIS CAZ7
 LZ4  SN IP        741  5.04                             159    0.0510 3.95 342 
 LZ4  SZ E         741  5.05                  162.3 10.6      0        3.95 342 
 LZ4  SE IS        741  6.35                             159   -0.0510 3.95 342 
 LZ4  SZ  AML      741  6.95        30.0 0.20                          3.95 342 
                                                                                
