 2010  725 0810 46.1 L  21.398 -99.331 10.0  RAL  3 1.0 0.2LRAL                1
 GAP=224       18.73      11.0    15.3125.7  0.1164E+03  0.1211E+02  0.4501E+02E
 ACTION:UPD 12-06-08 11:37 OP:RALL STATUS:               ID:20100725081046     I
 2010-07-25-0810-37S.PLUR1_009                                                 6
 STAT SP IPHASW D HRMM SECON CODA AMPLIT PERI AZIMU VELO AIN AR TRES W  DIS CAZ7
 LT9  SZ E         810 47.39                  295.6 11.4     -4        0.55 121 
 LT9  SN IP        810 47.40                             177   -0.5110 0.55 121 
 LT9  SE IS        810 48.02                             177   -1.1910 0.55 121 
 LT9  SZ  AML      810 48.17         4.6 0.16                          0.55 121 
 LA4  SN IP        810 48.54                             136   -0.0510 9.77  13 
 LA4  SZ E         810 48.78                  175.8  7.1    -17        9.77  13 
 LA4  SE IS        810 50.62                             136    0.2410 9.77  13 
 LA4  SZ  AML      810 50.77         8.1 0.16                          9.77  13 
 LG3  SN IP        810 49.70                             121    0.3710 15.8 149 
 LG3  SZ E         810 49.78                   75.3 20.6    106        15.8 149 
 LG3  SE IS        810 52.82                             121    1.1510 15.8 149 
 LG3  SZ  AML      810 54.16         6.1 0.58                          15.8 149 
                                                                                
