 2010  725 0007  1.8 L  21.401 -99.340 10.0  RAL  1 0.1-0.4LRAL                1
 GAP=360        0.64     999.9   764.3  0.0  0.1150E+07 -0.3369E+04 -0.1400E+04E
 ACTION:UPD 12-06-08 11:37 OP:RALL STATUS:               ID:20100725000701     I
 2010-07-25-0006-54S.PLUR1_003                                                 6
 STAT SP IPHASW D HRMM SECON CODA AMPLIT PERI AZIMU VELO AIN AR TRES W  DIS CAZ7
 LT9  SZ E         0 7  3.96                  293.6  9.9      0        1.53 114 
 LT9  SN IP        0 7  3.96                             171    0.3810 1.53 114 
 LT9  SE IS        0 7  4.51                             171   -0.3810 1.53 114 
 LT9  SZ  AML      0 7  5.01         2.3 0.16                          1.53 114 
                                                                                
