 2010  725 0202 53.3 L  21.404 -99.307 10.0  RAL  1 0.0 1.2LRAL                1
 GAP=360        0.30       5.0     2.6  0.0 -0.1270E+02 -0.3369E+04 -0.1400E+04E
 ACTION:UPD 12-06-08 11:37 OP:RALL STATUS:               ID:20100725020253     I
 2010-07-25-0202-46S.PLUR1_003                                                 6
 STAT SP IPHASW D HRMM SECON CODA AMPLIT PERI AZIMU VELO AIN AR TRES W  DIS CAZ7
 LZ4  SZ E         2 2 55.72                  334.3  8.8      0        9.03 154 
 LZ4  SN IP        2 2 55.72                             138    0.0110 9.03 154 
 LZ4  SE IS        2 2 57.42                             138   -0.0110 9.03 154 
 LZ4  SZ  AML      2 2 57.88        72.1 0.20                          9.03 154 
                                                                                
