 2010  725 0144 31.6 L  21.487 -99.317 10.0  RAL  1 0.2 0.3LRAL                1
 GAP=360        0.77     999.9   721.1  0.0  0.1069E+07 -0.3369E+04 -0.1400E+04E
 ACTION:UPD 12-06-08 11:37 OP:RALL STATUS:               ID:20100725014431     I
 2010-07-25-0144-25S.PLUR1_003                                                 6
 STAT SP IPHASW D HRMM SECON CODA AMPLIT PERI AZIMU VELO AIN AR TRES W  DIS CAZ7
 LA4  SZ E         144 33.83                  292.4 21.7      2        0.90 110 
 LA4  SN IP        144 33.84                             175    0.4010 0.90 110 
 LA4  SE IS        144 34.40                             175   -0.4010 0.90 110 
 LA4  SZ  AML      144 34.42        10.3 0.14                          0.90 110 
                                                                                
