 2010  725 0851 53.0 L  21.400 -99.338 10.0  RAL  1 0.2-0.6LRAL                1
 GAP=360        0.69     999.9   928.9  0.0  0.1750E+07  0.1211E+02  0.4501E+02E
 ACTION:UPD 12-06-08 11:37 OP:RALL STATUS:               ID:20100725085153     I
 2010-07-25-0851-45S.PLUR1_003                                                 6
 STAT SP IPHASW D HRMM SECON CODA AMPLIT PERI AZIMU VELO AIN AR TRES W  DIS CAZ7
 LT9  SZ E         851 55.15                  293.0 12.9      0        1.27 113 
 LT9  SN IP        851 55.16                             173    0.4210 1.27 113 
 LT9  SE IS        851 55.63                             173   -0.4210 1.27 113 
 LT9  SZ  AML      851 55.75         1.3 0.38                          1.27 113 
                                                                                
