 2010  725 0544 46.0 L  21.518 -99.179 10.0  RAL  1 0.0 0.9LRAL                1
 GAP=360        0.30       3.6     1.8  0.0  0.6124E+01 -0.3369E+04 -0.1400E+04E
 ACTION:UPD 12-06-08 11:37 OP:RALL STATUS:               ID:20100725054446     I
 2010-07-25-0544-43S.PLUR1_003                                                 6
 STAT SP IPHASW D HRMM SECON CODA AMPLIT PERI AZIMU VELO AIN AR TRES W  DIS CAZ7
 LZ4  SZ E         544 50.19                   24.4 12.5      0        22.8 204 
 LZ4  SN IP        544 50.19                             110    0.0010 22.8 204 
 LZ4  SE IS        544 53.23                             110    0.0010 22.8 204 
 LZ4  SZ  AML      544 54.00        17.6 0.44                          22.8 204 
                                                                                
