 2010  725 0047 13.4 L  21.514 -99.320 10.0  RAL  1 0.0 1.2LRAL                1
 GAP=360        0.33      11.9     4.2  0.0 -0.5044E+02 -0.3369E+04 -0.1400E+04E
 ACTION:UPD 12-06-08 11:37 OP:RALL STATUS:               ID:20100725004713     I
 2010-07-25-0047-05S.PLUR1_003                                                 6
 STAT SP IPHASW D HRMM SECON CODA AMPLIT PERI AZIMU VELO AIN AR TRES W  DIS CAZ7
 LA4  SZ E         047 15.40                  341.6 10.9      0        3.55 162 
 LA4  SN IP        047 15.44                             161    0.0910 3.55 162 
 LA4  SE IS        047 16.67                             161   -0.0910 3.55 162 
 LA4  SZ  AML      047 16.79        81.4 0.28                          3.55 162 
                                                                                
