 2010  725  513 19.0 L                       RAL  1                            1
 ACTION:UPD 12-06-08 11:37 OP:RALL STATUS:               ID:20100725051319     I
 2010-07-25-0513-19S.PLUR1_003                                                 6
 STAT SP IPHASW D HRMM SECON CODA AMPLIT PERI AZIMU VELO AIN AR TRES W  DIS CAZ7
 LZ4  SZ E         513 28.49                                                    
 LZ4  SN IP        513 28.50                                                    
 LZ4  SE IS        513 28.64                                                    
 LZ4  SZ  AML      513 28.68       232.2 0.20                                   
                                                                                
