 2010  725 0356 53.9 L  21.296 -99.198 10.0  RAL  1 0.0 0.5LRAL                1
 GAP=360        0.30       2.7     5.5  0.0 -0.1461E+02 -0.3369E+04 -0.1400E+04E
 ACTION:UPD 12-06-08 11:37 OP:RALL STATUS:               ID:20100725035653     I
 2010-07-25-0356-48S.PLUR1_003                                                 6
 STAT SP IPHASW D HRMM SECON CODA AMPLIT PERI AZIMU VELO AIN AR TRES W  DIS CAZ7
 LZ4  SN IP        356 56.22                             140    0.0210 8.39 298 
 LZ4  SZ E         356 56.22                  117.5 12.0      0        8.39 298 
 LZ4  SE IS        356 57.86                             140   -0.0210 8.39 298 
 LZ4  SZ  AML      356 58.29        13.7 0.16                          8.39 298 
                                                                                
