 2010  725 1146  7.2 L  21.347 -99.293 10.0  RAL  1 0.1 0.7LRAL                1
 GAP=360        0.56      14.4    20.8  0.0 -0.3002E+03 -0.1946E+03 -0.9027E+03E
 ACTION:UPD 12-06-08 11:37 OP:RALL STATUS:               ID:20100725114607     I
 2010-07-25-1146-00S.PLUR1_003                                                 6
 STAT SP IPHASW D HRMM SECON CODA AMPLIT PERI AZIMU VELO AIN AR TRES W  DIS CAZ7
 LZ4  SZ E        1146  9.42                  306.7 18.7      0        3.09 127 
 LZ4  SN IP       1146  9.44                             163    0.3210 3.09 127 
 LZ4  SE IS       1146 10.19                             163   -0.3210 3.09 127 
 LZ4  SZ  AML     1146 10.44        27.5 0.20                          3.09 127 
                                                                                
