 2010  725 1130 39.4 L  21.678 -99.292  9.4  RAL  3 0.8 1.3LRAL                1
 GAP=348       13.95      89.0    24.6 90.9  0.3513E+03 -0.1946E+03 -0.9027E+03E
 ACTION:UPD 12-06-08 11:37 OP:RALL STATUS:               ID:20100725113039     I
 2010-07-25-1130-34S.PLUR1_009                                                 6
 STAT SP IPHASW D HRMM SECON CODA AMPLIT PERI AZIMU VELO AIN AR TRES W  DIS CAZ7
 LA4  SN IP       1130 43.72                              96    0.3210 21.5 185 
 LA4  SZ E        1130 43.73                  341.8  9.8     23        21.5 185 
 LA4  SE IS       1130 44.97                              96   -1.3210 21.5 185 
 LA4  SZ  AML     1130 45.02       456.3 0.10                          21.5 185 
 LT9  SZ E        1130 45.39                  329.2  9.4     37        31.5 187 
 LT9  SN IP       1130 45.43                              93    0.5810 31.5 187 
 LT9  SE IS       1130 48.16                              93   -0.6410 31.5 187 
 LT9  SZ  AML     1130 49.28         4.1 0.12                          31.5 187 
 LG3  SZ E        1130 47.61                   61.8 14.1     67        44.7 175 
 LG3  SN IP       1130 47.64                              63    0.7310 44.7 175 
 LG3  SE IS       1130 52.70                              63    0.3310 44.7 175 
 LG3  SZ  AML     1130 54.23        19.3 0.28                          44.7 175 
                                                                                
