 2010  725 1608 54.5 L  21.355 -99.285 10.0  RAL  1 0.1 0.4LRAL                1
 GAP=360        0.45      16.8    10.8  0.0 -0.1825E+03  0.2436E+02 -0.1728E+02E
 ACTION:UPD 12-06-08 11:37 OP:RALL STATUS:               ID:20100725160854     I
 2010-07-25-1608-48S.PLUR1_003                                                 6
 STAT SP IPHASW D HRMM SECON CODA AMPLIT PERI AZIMU VELO AIN AR TRES W  DIS CAZ7
 LZ4  SZ E        16 8 56.56                  329.0 21.6      0        3.07 149 
 LZ4  SN IP       16 8 56.58                             163    0.2310 3.07 149 
 LZ4  SZ  AML     16 8 57.46        12.9 0.66                          3.07 149 
 LZ4  SE IS       16 8 57.51                             163   -0.2310 3.07 149 
                                                                                
