 2010  725 1608 54.5 L  21.353 -99.293 10.0  RAL  1 0.1 0.3LRAL                1
 GAP=360        0.46      12.6    13.7  0.0 -0.1728E+03  0.2436E+02 -0.1728E+02E
 ACTION:UPD 12-06-08 11:37 OP:RALL STATUS:               ID:20100725160855d    I
 2010-07-25-1608-48S.PLUR1_003                                                 6
 STAT SP IPHASW D HRMM SECON CODA AMPLIT PERI AZIMU VELO AIN AR TRES W  DIS CAZ7
 LZ4  SZ E        16 8 56.57                  314.6 23.7      0        3.44 135 
 LZ4  SN IP       16 8 56.62                             162    0.2310 3.44 135 
 LZ4  SZ  AML     16 8 57.46        10.8 0.66                          3.44 135 
 LZ4  SE IS       16 8 57.55                             162   -0.2310 3.44 135 
                                                                                
