 2010  725 1557 27.3 L  21.538 -99.392  0.1  RAL  2 0.1 0.2LRAL                1
 GAP=328        0.85       1.9     2.1 45.9 -0.3462E+01  0.2436E+02 -0.1728E+02E
 ACTION:UPD 12-06-08 11:37 OP:RALL STATUS:               ID:20100725155727     I
 2010-07-25-1557-19S.PLUR1_006                                                 6
 STAT SP IPHASW D HRMM SECON CODA AMPLIT PERI AZIMU VELO AIN AR TRES W  DIS CAZ7
 LA4  SZ E        1557 29.39                  305.6  7.5      1        10.5 125 
 LA4  SN IP       1557 29.41                              96    0.3110 10.5 125 
 LA4  SE IS       1557 29.95                              96   -0.5010 10.5 125 
 LA4  SZ  AML     1557 30.24        54.3 0.20                          10.5 125 
 LT9  SZ E        1557 30.55                  334.8  9.9     -1        17.2 157 
 LT9  SN IP       1557 30.58                              93    0.3210 17.2 157 
 LT9  SE IS       1557 32.34                              93   -0.1210 17.2 157 
 LT9  SZ  AML     1557 33.00         0.8 0.10                          17.2 157 
                                                                                
