 2010  725 1423 53.5 L  21.432 -99.346 10.0  RAL  1 0.0 1.0LRAL                1
 GAP=360        0.30       3.7     2.8  0.0 -0.1017E+02 -0.1946E+03 -0.9027E+03E
 ACTION:UPD 12-06-08 11:37 OP:RALL STATUS:               ID:20100725142353     I
 2010-07-25-1423-46S.PLUR1_003                                                 6
 STAT SP IPHASW D HRMM SECON CODA AMPLIT PERI AZIMU VELO AIN AR TRES W  DIS CAZ7
 LZ4  SZ E        1423 56.48                  324.7  7.1      0        13.7 145 
 LZ4  SN IP       1423 56.48                             124    0.0210 13.7 145 
 LZ4  SE IS       1423 58.58                             124   -0.0210 13.7 145 
 LZ4  SZ  AML     1423 58.85        35.0 0.18                          13.7 145 
                                                                                
