 2010  725 1248 52.9 L  21.347 -99.297 10.0  RAL  1 0.1 0.4LRAL                1
 GAP=360        0.48      10.2    17.4  0.0 -0.1782E+03 -0.1946E+03 -0.9027E+03E
 ACTION:UPD 12-06-08 11:37 OP:RALL STATUS:               ID:20100725124852     I
 2010-07-25-1248-47S.PLUR1_003                                                 6
 STAT SP IPHASW D HRMM SECON CODA AMPLIT PERI AZIMU VELO AIN AR TRES W  DIS CAZ7
 LZ4  SN IP       1248 55.04                             162    0.2610 3.41 122 
 LZ4  SZ E        1248 55.04                  302.2 18.6      0        3.41 122 
 LZ4  SE IS       1248 55.92                             162   -0.2610 3.41 122 
 LZ4  SZ  AML     1248 57.38        12.2 1.02                          3.41 122 
                                                                                
