 2010  725 1438 10.5 L  21.403 -99.321 10.0  RAL  1 0.0 0.3LRAL                1
 GAP=360        0.30       4.4     3.2  0.0 -0.1400E+02 -0.1946E+03 -0.9027E+03E
 ACTION:UPD 12-06-08 11:37 OP:RALL STATUS:               ID:20100725143810     I
 2010-07-25-1438-05S.PLUR1_003                                                 6
 STAT SP IPHASW D HRMM SECON CODA AMPLIT PERI AZIMU VELO AIN AR TRES W  DIS CAZ7
 LZ4  SN IP       1438 12.97                             136    0.0210 9.63 146 
 LZ4  SZ E        1438 13.01                  326.0 19.0      0        9.63 146 
 LZ4  SE IS       1438 14.71                             136   -0.0210 9.63 146 
 LZ4  SZ  AML     1438 14.95         8.1 0.18                          9.63 146 
                                                                                
