 2008  6 1 2326 41.7 L  21.202 -99.377  8.3  RAL  2 0.1 0.4LRAL                1
 GAP=292        0.43       0.3     0.8  3.6 -0.1200E+00  0.2976E+00 -0.1242E+00E
 ACTION:UPD 12-06-08 11:37 OP:RALL STATUS:               ID:20080601232641     I
 2008-06-01-2326-35S.PLUR1_006                                                 6
 STAT SP IPHASW D HRMM SECON CODA AMPLIT PERI AZIMU VELO AIN AR TRES W  DIS CAZ7
 LD5  SZ E        2326 43.68                  286.3  7.5      0        6.18 106 
 LD5  SN IP       2326 43.84                             144    0.2710 6.18 106 
 LD5  SE IS       2326 44.84                             144   -0.1010 6.18 106 
 LD5  SZ  AML     2326 45.51         4.0 0.10                          6.18 106 
 LD1  SZ E        2326 44.84                  218.3 10.9      0        17.9  38 
 LD1  SN IP     C 2326 44.96                             110   -0.1010 17.9  38 
 LD1  SE IS       2326 47.45                             110   -0.0710 17.9  38 
 LD1  SZ  AML     2326 47.69        25.1 0.40                          17.9  38 
                                                                                
