 2008  6 2 1520 23.2 L  21.219 -99.375  4.8  RAL  2 0.1 0.2LRAL                1
 GAP=279        0.42       0.4     0.6  1.6 -0.1433E+00  0.1538E+00 -0.1437E+00E
 ACTION:UPD 12-06-08 11:37 OP:RALL STATUS:               ID:20080602152023     I
 2008-06-02-1520-16S.PLUR1_006                                                 6
 STAT SP IPHASW D HRMM SECON CODA AMPLIT PERI AZIMU VELO AIN AR TRES W  DIS CAZ7
 LD5  SN IP       1520 24.62                             131   -0.1710 6.69 122 
 LD5  SZ E        1520 24.63                  302.3  9.3      0        6.69 122 
 LD5  SE IS       1520 25.99                             131    0.0710 6.69 122 
 LD5  SZ  AML     1520 26.48         2.9 0.10                          6.69 122 
 LD1  SN IP       1520 26.15                              63   -0.1110 16.3  41 
 LD1  SZ E        1520 26.19                  221.5 10.1      0        16.3  41 
 LD1  SE IS       1520 28.69                              63    0.2110 16.3  41 
 LD1  SZ  AML     1520 28.90        18.3 0.42                          16.3  41 
                                                                                
