 2008  6 4 0648 53.1 L  21.187 -99.325 10.0  RAL  2 0.4 0.5LRAL                1
 GAP=288        4.53       2.1     6.8 30.6 -0.1181E+02 -0.1436E+01 -0.9807E+00E
 ACTION:UPD 12-06-08 11:37 OP:RALL STATUS:               ID:20080604064853     I
 2008-06-04-0648-44S.PLUR1_006                                                 6
 STAT SP IPHASW D HRMM SECON CODA AMPLIT PERI AZIMU VELO AIN AR TRES W  DIS CAZ7
 LD5  SZ E         648 54.10                  264.6  8.2     -6        0.48  91 
 LD5  SN E         648 54.10                  261.7  9.1     -9        0.48  91 
 LD5  SE IS        648 54.63                             179   -1.5910 0.48  91 
 LD5  SN  AML      648 54.85        15.7 0.18                          0.48  91 
 LD5  SZ  AML      648 55.04        11.3 0.10                          0.48  91 
 LD1  SN IP        648 56.78                             116    0.4110 16.7  20 
 LD1  SZ E         648 56.79                  183.9 14.6    -15        16.7  20 
 LD1  SE IS        648 59.97                             116    1.1810 16.7  20 
 LD1  SZ  AML      649  0.14        23.3 0.70                          16.7  20 
                                                                                
