 2008  6 8 1842  1.4 L  21.346 -99.219 19.2  RAL  2 0.5 0.5LRAL                1
 GAP=320        2.74       3.3     7.9 24.7  0.2357E+02 -0.3467E+01 -0.7420E+00E
 ACTION:UPD 12-06-08 11:37 OP:RALL STATUS:               ID:20080608184201     I
 2008-06-08-1841-57S.PLUR1_006                                                 6
 STAT SP IPHASW D HRMM SECON CODA AMPLIT PERI AZIMU VELO AIN AR TRES W  DIS CAZ7
 LD1  SZ E        1842  6.21                   68.0 18.1     -2        5.64 251 
 LD1  SN IP       1842  6.21                             163    1.4310 5.64 251 
 LD1  SE IS       1842  7.85                             163    0.6110 5.64 251 
 LD1  SZ  AML     1842  8.75        25.8 0.30                          5.64 251 
 LD5  SN IP       1842  5.93                             133   -0.1110 20.5 211 
 LD5  SZ E        1842  5.98                   34.5 17.2      4        20.5 211 
 LD5  SE IS       1842  7.48                             133   -1.9410 20.5 211 
 LD5  SZ  AML     1842  7.70         2.7 0.36                          20.5 211 
                                                                                
