 2008  6 9 2330 53.2 L  21.581 -99.559 10.0  RAL  1 0.0 1.7LRAL                1
 GAP=360        0.30       2.7     3.1  0.0 -0.6984E+01 -0.3467E+01 -0.7420E+00E
 ACTION:UPD 12-06-08 11:37 OP:RALL STATUS:               ID:20080609233053     I
 2008-06-09-2330-51S.PLUR1_006                                                 6
 STAT SP IPHASW D HRMM SECON CODA AMPLIT PERI AZIMU VELO AIN AR TRES W  DIS CAZ7
 LD1  SN IP       2331  0.09                              99    0.0210 40.9 133 
 LD1  SZ E        2331  0.13                  313.1  7.9      0        40.9 133 
 LD1  SE IS       2331  5.09                              99   -0.0210 40.9 133 
 LD1  SZ  AML     2331 10.73        73.4 0.62                          40.9 133 
                                                                                
