 2008  610 2222 13.6 L  21.203 -99.222  0.0  RAL  2 0.5 1.1LRAL                1
 GAP=280        3.44       3.0     4.9269.8 -0.1039E+00 -0.2690E+03 -0.8557E+02E
 ACTION:UPD 12-06-08 11:37 OP:RALL STATUS:               ID:20080610222213     I
 2008-06-10-2222-04S.PLUR1_006                                                 6
 STAT SP IPHASW D HRMM SECON CODA AMPLIT PERI AZIMU VELO AIN AR TRES W  DIS CAZ7
 LD5  SZ E        2222 14.67                   77.2 10.1     -1        10.4 260 
 LD5  SN IP       2222 14.70                              96   -0.7110 10.4 260 
 LD5  SE IS       2222 15.27                              96   -1.4810 10.4 260 
 LD5  SZ  AML     2222 15.35        55.9 0.30                          10.4 260 
 LD1  SN IP       2222 16.86                              94    0.6810 14.8 340 
 LD1  SZ E        2222 16.93                  148.1 14.5    -11        14.8 340 
 LD1  SE IS       2222 19.59                              94    1.5110 14.8 340 
 LD1  SZ  AML     2222 20.80        55.6 0.32                          14.8 340 
                                                                                
