 2008  617 0130 52.1 L  21.298 -99.500  0.0  RAL  2 0.3 0.8LRAL                1
 GAP=318        1.46       2.5     6.0280.1 -0.7747E+01  0.7114E+03 -0.1999E+03E
 ACTION:UPD 12-06-08 11:37 OP:RALL STATUS:               ID:20080617013052     I
 2008-06-17-0130-47S.PLUR1_006                                                 6
 STAT SP IPHASW D HRMM SECON CODA AMPLIT PERI AZIMU VELO AIN AR TRES W  DIS CAZ7
 LD5  SN IP        130 56.00                              93   -0.0510 22.4 123 
 LD5  SZ E         130 56.15                  303.8 11.0      0        22.4 123 
 LD5  SE IS        130 57.84                              93   -1.0710 22.4 123 
 LD5  SZ  AML      130 58.02         6.8 0.28                          22.4 123 
 LD1  SN IP        130 56.91                              92    0.5710 24.0  82 
 LD1  SZ E         130 57.21                  263.9  9.1      2        24.0  82 
 LD1  SE IS        130 59.97                              92    0.5610 24.0  82 
 LD1  SZ  AML      131  1.87        30.5 0.16                          24.0  82 
                                                                                
