 2008  6 1 2326 41.6 L  21.208 -99.373 10.0  RAL  1 0.0 0.9LRAL                1
 GAP=360        0.30       3.3     2.8  0.0  0.9141E+01  0.0000E+00  0.0000E+00E
 ACTION:REG 11-07-20 11:49 OP:RALL STATUS:               ID:20080601232635     I
 2008-06-01-2326-35S.PLUR1_006                                                 6
 STAT SP IPHASW D HRMM SECON CODA AMPLIT PERI AZIMU VELO AIN AR TRES W  DIS CAZ7
 LD1  SZ E        2326 44.84                  218.3 10.9      0        17.1  38 
 LD1  SN IP     C 2326 44.96                             118   -0.0210 17.1  38 
 LD1  SE IS       2326 47.45                             118    0.0210 17.1  38 
 LD1  SZ  AML     2326 47.69        25.1 0.40                          17.1  38 
                                                                                
