 2010  6 2 0946 19.4 L  21.167 -99.233 10.0  RAL  1 0.0 0.6LRAL                1
 GAP=360        0.30       4.0     1.0  0.0 -0.3595E+01 -0.2831E+05 -0.3015E+04E
 ACTION:UPD 12-06-08 11:37 OP:RALL STATUS:               ID:20100602094619     I
 2010-06-02-0946-15S.PLUR1_003                                                 6
 STAT SP IPHASW D HRMM SECON CODA AMPLIT PERI AZIMU VELO AIN AR TRES W  DIS CAZ7
 LZ4  SZ E         946 22.94                  168.2 18.3      0        18.6 348 
 LZ4  SN IP        946 22.97                             115    0.0210 18.6 348 
 LZ4  SE IS        946 25.53                             115   -0.0210 18.6 348 
 LZ4  SZ  AML      946 27.09        10.9 1.20                          18.6 348 
                                                                                
