 2010  6 2 1948 29.1 L  21.141 -99.164 10.0  RAL  1 0.0-0.4LRAL                1
 GAP=360        0.30       3.1     8.0  0.0 -0.2441E+02 -0.2831E+05 -0.3015E+04E
 ACTION:UPD 12-06-08 11:37 OP:RALL STATUS:               ID:20100602194829     I
 2010-06-02-1948-23S.PLUR1_003                                                 6
 STAT SP IPHASW D HRMM SECON CODA AMPLIT PERI AZIMU VELO AIN AR TRES W  DIS CAZ7
 LO8  SZ E        1948 31.16                  112.4  6.7      0        5.51 292 
 LO8  SN IP       1948 31.21                             152    0.0310 5.51 292 
 LO8  SE IS       1948 32.68                             152   -0.0310 5.51 292 
 LO8  SZ  AML     1948 32.82         2.0 0.34                          5.51 292 
                                                                                
