 2010  6 2 1052  1.5 L  21.294 -99.243 10.0  RAL  1 0.0 0.3LRAL                1
 GAP=360        0.32       7.5     5.5  0.0 -0.4123E+02 -0.2831E+05 -0.3015E+04E
 ACTION:UPD 12-06-08 11:37 OP:RALL STATUS:               ID:20100602105201     I
 2010-06-02-1051-55S.PLUR1_003                                                 6
 STAT SP IPHASW D HRMM SECON CODA AMPLIT PERI AZIMU VELO AIN AR TRES W  DIS CAZ7
 LZ4  SZ E        1052  3.58                  145.8 13.0      0        4.94 326 
 LZ4  SN IP       1052  3.59                             154    0.0810 4.94 326 
 LZ4  SE IS       1052  4.90                             154   -0.0810 4.94 326 
 LZ4  SZ  AML     1052  5.92         9.8 0.20                          4.94 326 
                                                                                
