 2010  6 3 0547  1.5 L  21.294 -99.238 10.0  RAL  1 0.0 0.4LRAL                1
 GAP=360        0.32       6.8     5.9  0.0 -0.4004E+02 -0.2831E+05 -0.3015E+04E
 ACTION:UPD 12-06-08 11:37 OP:RALL STATUS:               ID:20100603054701     I
 2010-06-03-0546-55S.PLUR1_003                                                 6
 STAT SP IPHASW D HRMM SECON CODA AMPLIT PERI AZIMU VELO AIN AR TRES W  DIS CAZ7
 LZ4  SN IP        547  3.59                             153    0.0810 5.20 321 
 LZ4  SZ E         547  3.77                  141.0  8.4      0        5.20 321 
 LZ4  SE IS        547  4.91                             153   -0.0810 5.20 321 
 LZ4  SZ  AML      547  5.22        11.8 0.22                          5.20 321 
                                                                                
