 2010  6 3 1724  6.6 L  21.546 -99.322 10.0  RAL  1 0.0 0.6LRAL                1
 GAP=360        0.30       6.4     1.4  0.0 -0.8570E+01 -0.2831E+05 -0.3015E+04E
 ACTION:UPD 12-06-08 11:37 OP:RALL STATUS:               ID:20100603172406     I
 2010-06-03-1724-00S.PLUR1_003                                                 6
 STAT SP IPHASW D HRMM SECON CODA AMPLIT PERI AZIMU VELO AIN AR TRES W  DIS CAZ7
 LA4  SN IP       1724  8.78                             145    0.0210 7.02 169 
 LA4  SZ E        1724  8.79                  349.0  8.0      0        7.02 169 
 LA4  SE IS       1724 10.34                             145   -0.0210 7.02 169 
 LA4  SZ  AML     1724 11.06        17.9 0.10                          7.02 169 
                                                                                
