 2010  6 4 2329 43.5 R  20.705 -99.927 10.0  RAL  2 1.9 1.9LRAL                1
 GAP=341       24.01     332.8   458.2999.9  0.1325E+06  0.3546E+07  0.2435E+07E
 ACTION:UPD 12-06-08 11:37 OP:RALL STATUS:               ID:20100604232943     I
 2010-06-04-2329-47S.PLUR1_006                                                 6
 STAT SP IPHASW D HRMM SECON CODA AMPLIT PERI AZIMU VELO AIN AR TRES W  DIS CAZ7
 LO8  SZ E        2329 53.78                  322.8 12.7     87        89.8  56 
 LO8  SN IP       2329 54.08                              94   -3.9310 89.8  56 
 LO8  SE IS       2330  6.26                              94   -2.3210 89.8  56 
 LO8  SZ  AML     2330 13.07        12.5 0.52                          89.8  56 
 LA4  SZ E        2330  1.08                  146.2  9.1    -70         108  37 
 LA4  SN IP       2330  1.43                              93    0.6810  108  37 
 LA4  SE IS       2330 18.88                              93    5.5710  108  37 
 LA4  SZ  AML     2330 21.11       156.0 0.52                           108  37 
                                                                                
