 2010  6 7 0621 23.6 L  21.333 -99.395 10.0  RAL  1 0.0 0.3LRAL                1
 GAP=360        0.30       1.7     4.2  0.0 -0.6999E+01  0.3546E+07  0.2435E+07E
 ACTION:UPD 12-06-08 11:37 OP:RALL STATUS:               ID:20100607062123     I
 2010-06-07-0621-19S.PLUR1_003                                                 6
 STAT SP IPHASW D HRMM SECON CODA AMPLIT PERI AZIMU VELO AIN AR TRES W  DIS CAZ7
 LG3  SN IP        621 26.81                             120    0.0010 16.0 113 
 LG3  SZ E         621 26.86                  293.2 17.0      0        16.0 113 
 LG3  SE IS        621 29.16                             120    0.0010 16.0 113 
 LG3  SZ  AML      621 29.69         5.6 0.32                          16.0 113 
                                                                                
