 2010  6 7 0708  1.3 L  21.313 -99.246 10.0  RAL  1 0.1 0.5LRAL                1
 GAP=360        0.58      15.9    20.4  0.0 -0.3247E+03  0.3546E+07  0.2435E+07E
 ACTION:UPD 12-06-08 11:37 OP:RALL STATUS:               ID:20100607070801     I
 2010-06-07-0707-54S.PLUR1_003                                                 6
 STAT SP IPHASW D HRMM SECON CODA AMPLIT PERI AZIMU VELO AIN AR TRES W  DIS CAZ7
 LZ4  SN IP        7 8  3.53                             163    0.3310 3.12 310 
 LZ4  SZ E         7 8  3.53                  129.8 18.2      0        3.12 310 
 LZ4  SE IS        7 8  4.25                             163   -0.3310 3.12 310 
 LZ4  SZ  AML      7 8  5.19        16.9 0.24                          3.12 310 
                                                                                
