 2010  6 9 1506 52.4 L  21.278 -99.257 10.0  RAL  2 1.5 0.6LRAL                1
 GAP=319       27.26      13.4    34.7211.3  0.2450E+03 -0.3479E+02  0.8027E+02E
 ACTION:UPD 12-06-08 11:37 OP:RALL STATUS:               ID:20100609150652     I
 2010-06-09-1506-45S.PLUR1_006                                                 6
 STAT SP IPHASW D HRMM SECON CODA AMPLIT PERI AZIMU VELO AIN AR TRES W  DIS CAZ7
 LG3  SZ E        15 6 54.53                  266.5 11.6    -33        0.58 120 
 LG3  SN IP       15 6 54.54                             177    0.2410 0.58 120 
 LG3  SE IS       15 6 55.26                             177   -0.3910 0.58 120 
 LG3  SZ  AML     15 6 55.60        64.7 0.20                          0.58 120 
 LO8  SZ E        15 6 55.73                  109.9  7.6    129        13.9 161 
 LO8  SN IP       15 6 55.74                             125    0.3110 13.9 161 
 LO8  SE IS       15 6 57.44                             125   -0.1610 13.9 161 
 LO8  SZ  AML     15 6 57.87         5.2 0.30                          13.9 161 
                                                                                
