 2010  610 0852 29.5 L  21.443 -99.324 10.0  RAL  1 0.0 0.8LRAL                1
 GAP=360        0.30       4.1     2.0  0.0 -0.8121E+01 -0.3479E+02  0.8027E+02E
 ACTION:UPD 12-06-08 11:37 OP:RALL STATUS:               ID:20100610085229     I
 2010-06-10-0852-25S.PLUR1_003                                                 6
 STAT SP IPHASW D HRMM SECON CODA AMPLIT PERI AZIMU VELO AIN AR TRES W  DIS CAZ7
 LZ4  SN IP        852 32.40                             125    0.0110 13.6 156 
 LZ4  SZ E         852 32.42                  335.7  7.9      0        13.6 156 
 LZ4  SE IS        852 34.50                             125   -0.0110 13.6 156 
 LZ4  SZ  AML      852 34.83        19.8 0.46                          13.6 156 
                                                                                
