 2010  610 1900 44.9 L  21.401 -99.340 10.0  RAL  1 0.1 0.2LRAL                1
 GAP=360        0.61     999.9   721.4  0.0  0.9512E+06 -0.3479E+02  0.8027E+02E
 ACTION:UPD 12-06-08 11:37 OP:RALL STATUS:               ID:20100610190044     I
 2010-06-10-1900-37S.PLUR1_003                                                 6
 STAT SP IPHASW D HRMM SECON CODA AMPLIT PERI AZIMU VELO AIN AR TRES W  DIS CAZ7
 LT7  SZ E        19 0 47.07                  295.2 10.8      0        1.57 115 
 LT7  SN IP       19 0 47.07                             171    0.3610 1.57 115 
 LT7  SE IS       19 0 47.66                             171   -0.3610 1.57 115 
 LT7  SZ  AML     19 0 47.76         9.7 0.18                          1.57 115 
                                                                                
