 2010  611 1124 15.7 L  21.298 -99.229 10.0  RAL  1 0.1 0.6LRAL                1
 GAP=360        0.45      12.6    13.5  0.0  0.1699E+03 -0.3479E+02  0.8027E+02E
 ACTION:UPD 12-06-08 11:37 OP:RALL STATUS:               ID:20100611112415     I
 2010-06-11-1124-09S.PLUR1_003                                                 6
 STAT SP IPHASW D HRMM SECON CODA AMPLIT PERI AZIMU VELO AIN AR TRES W  DIS CAZ7
 LG3  SN IP       1124 17.85                             161    0.2310 3.49 225 
 LG3  SZ E        1124 17.89                   44.9 15.9      0        3.49 225 
 LG3  SE IS       1124 18.80                             161   -0.2310 3.49 225 
 LG3  SZ  AML     1124 18.93        21.8 0.46                          3.49 225 
                                                                                
