 2010  613 0310  1.7 L  21.251 -99.269 10.0  RAL  1 0.1 0.3LRAL                1
 GAP=360        0.51      17.9    12.6  0.0  0.2246E+03 -0.3479E+02  0.8027E+02E
 ACTION:UPD 12-06-08 11:37 OP:RALL STATUS:               ID:20100613031001     I
 2010-06-13-0309-54S.PLUR1_003                                                 6
 STAT SP IPHASW D HRMM SECON CODA AMPLIT PERI AZIMU VELO AIN AR TRES W  DIS CAZ7
 LG3  SN IP        310  3.94                             163    0.2810 3.22  33 
 LG3  SZ E         310  3.95                  213.2 46.9      0        3.22  33 
 LG3  SE IS        310  4.79                             163   -0.2810 3.22  33 
 LG3  SZ  AML      310  6.04        11.6 0.12                          3.22  33 
                                                                                
