 2010  613 0852 24.1 L  21.330 -99.275 10.0  RAL  1 0.1 0.3LRAL                1
 GAP=360        0.98     999.9   261.4  0.0 -0.8624E+06 -0.3479E+02  0.8027E+02E
 ACTION:UPD 12-06-08 11:37 OP:RALL STATUS:               ID:20100613085224     I
 2010-06-13-0852-17S.PLUR1_003                                                 6
 STAT SP IPHASW D HRMM SECON CODA AMPLIT PERI AZIMU VELO AIN AR TRES W  DIS CAZ7
 LZ4  SZ E         852 26.09                  266.1 25.9      4        0.55  82 
 LZ4  SN IP        852 26.11                             177    0.1810 0.55  82 
 LZ4  SE IS        852 27.09                             177   -0.1810 0.55  82 
 LZ4  SZ  AML      852 28.93        11.4 0.52                          0.55  82 
                                                                                
