 2010  614 0831 43.2 L  21.291 -99.257 10.0  RAL  1 0.0 1.8LRAL                1
 GAP=360        0.30       8.6     2.8  0.0 -0.2402E+02 -0.3479E+02  0.8027E+02E
 ACTION:UPD 12-06-08 11:37 OP:RALL STATUS:               ID:20100614083143     I
 2010-06-14-0831-36S.PLUR1_003                                                 6
 STAT SP IPHASW D HRMM SECON CODA AMPLIT PERI AZIMU VELO AIN AR TRES W  DIS CAZ7
 LZ4  SZ E         831 45.24                  163.3 11.7      0        4.66 343 
 LZ4  SN IP        831 45.24                             156    0.0310 4.66 343 
 LZ4  SE IS        831 46.63                             156   -0.0310 4.66 343 
 LZ4  SZ  AML      831 46.78       345.7 0.18                          4.66 343 
                                                                                
