 2010  614 1842 41.4 L  21.064 -99.133 10.0  RAL  1 0.0                        1
 GAP=360        0.30       3.6     3.0  0.0 -0.1083E+02 -0.3479E+02  0.8027E+02E
 ACTION:UPD 12-06-08 11:37 OP:RALL STATUS:               ID:20100614184241     I
 2010-06-14-1842-33S.PLUR1_009                                                 6
 STAT SP IPHASW D HRMM SECON CODA AMPLIT PERI AZIMU VELO AIN AR TRES W  DIS CAZ7
 LO8  SN IP       1842 44.33                             126    0.0210 13.5 322 
 LO8  SZ E        1842 44.34                  142.0  5.8      0        13.5 322 
 LO8  SE IS       1842 46.43                             126   -0.0210 13.5 322 
                                                                                
