 2010  616 1151 39.9 L  21.297 -99.256 10.0  RAL  1 0.1 0.8LRAL                1
 GAP=360        0.66      35.6     6.1  0.0 -0.2171E+03 -0.3479E+02  0.8027E+02E
 ACTION:UPD 12-06-08 11:37 OP:RALL STATUS:               ID:20100616115139     I
 2010-06-16-1151-33S.PLUR1_003                                                 6
 STAT SP IPHASW D HRMM SECON CODA AMPLIT PERI AZIMU VELO AIN AR TRES W  DIS CAZ7
 LG3  SZ E        1151 42.11                  352.4 18.5      1        2.43 171 
 LG3  SN IP       1151 42.11                             167    0.3410 2.43 171 
 LG3  SE IS       1151 42.82                             167   -0.3410 2.43 171 
 LG3  SZ  AML     1151 42.84        35.3 0.18                          2.43 171 
                                                                                
