 2010  616 1204 40.9 L  21.322 -99.256 10.0  RAL  1 0.2 0.8LRAL                1
 GAP=360        0.92     999.9   999.9  0.0  0.2139E+07 -0.3479E+02  0.8027E+02E
 ACTION:UPD 12-06-08 11:37 OP:RALL STATUS:               ID:20100616120440     I
 2010-06-16-1204-33S.PLUR1_003                                                 6
 STAT SP IPHASW D HRMM SECON CODA AMPLIT PERI AZIMU VELO AIN AR TRES W  DIS CAZ7
 LZ4  SZ E        12 4 43.32                  126.9  8.9      0        1.72 307 
 LZ4  SN IP       12 4 43.32                             171    0.5910 1.72 307 
 LZ4  SE IS       12 4 43.49                             171   -0.5910 1.72 307 
 LZ4  SZ  AML     12 4 43.61        36.8 0.22                          1.72 307 
                                                                                
