 2010  619 0605 47.9 L  21.361 -99.235 10.0  RAL  1 0.0 0.4LRAL                1
 GAP=360        0.33       6.4     7.3  0.0  0.4681E+02 -0.3479E+02  0.8027E+02E
 ACTION:UPD 12-06-08 11:37 OP:RALL STATUS:               ID:20100619060547     I
 2010-06-19-0605-42S.PLUR1_003                                                 6
 STAT SP IPHASW D HRMM SECON CODA AMPLIT PERI AZIMU VELO AIN AR TRES W  DIS CAZ7
 LZ4  SZ E         6 5 50.00                   46.6 19.6      0        4.93 227 
 LZ4  SN IP        6 5 50.03                             154    0.0910 4.93 227 
 LZ4  SE IS        6 5 51.31                             154   -0.0910 4.93 227 
 LZ4  SZ  AML      6 5 54.22        14.2 0.64                          4.93 227 
                                                                                
