 2010  620 0914 18.7 L  21.675 -99.272 10.0  RAL  1 0.0 0.9LRAL                1
 GAP=360        0.30       3.7     1.2  0.0 -0.6200E+00 -0.3479E+02  0.8027E+02E
 ACTION:UPD 12-06-08 11:37 OP:RALL STATUS:               ID:20100620091418     I
 2010-06-20-0914-18S.PLUR1_003                                                 6
 STAT SP IPHASW D HRMM SECON CODA AMPLIT PERI AZIMU VELO AIN AR TRES W  DIS CAZ7
 LG3  SZ E         914 26.03                  357.4 14.8      0        44.3 177 
 LG3  SN IP        914 26.15                              99    0.0110 44.3 177 
 LG3  SE IS        914 31.56                              99   -0.0110 44.3 177 
 LG3  SZ  AML      914 32.34        11.8 0.26                          44.3 177 
                                                                                
