 2010  621 0922  2.5 R  21.962 -99.679 10.0  RAL  1 0.0 1.5LRAL                1
 GAP=360        0.30       3.4     2.8  0.0 -0.4445E+01 -0.3479E+02  0.8027E+02E
 ACTION:UPD 12-06-08 11:37 OP:RALL STATUS:               ID:20100621092202     I
 2010-06-21-0922-06S.PLUR1_003                                                 6
 STAT SP IPHASW D HRMM SECON CODA AMPLIT PERI AZIMU VELO AIN AR TRES W  DIS CAZ7
 LZ4  SZ E         922 15.56                  328.8 10.9      0        81.7 149 
 LZ4  SN IP        922 15.71                              94    0.0110 81.7 149 
 LZ4  SE IS        922 25.33                              94   -0.0110 81.7 149 
 LZ4  SZ  AML      922 28.58        24.8 0.24                          81.7 149 
                                                                                
