 2010  621 1240 49.9 L  21.355 -99.291 10.0  RAL  1 0.1 0.4LRAL                1
 GAP=360        0.40      12.1    10.8  0.0 -0.1309E+03 -0.3479E+02  0.8027E+02E
 ACTION:UPD 12-06-08 11:37 OP:RALL STATUS:               ID:20100621124049     I
 2010-06-21-1240-43S.PLUR1_003                                                 6
 STAT SP IPHASW D HRMM SECON CODA AMPLIT PERI AZIMU VELO AIN AR TRES W  DIS CAZ7
 LZ4  SZ E        1240 51.98                  320.4 14.2      0        3.46 140 
 LZ4  SN IP       1240 51.99                             161    0.1910 3.46 140 
 LZ4  SE IS       1240 53.02                             161   -0.1910 3.46 140 
 LZ4  SZ  AML     1240 53.29        12.6 0.18                          3.46 140 
                                                                                
