 2010  625 0855 19.6 L  21.331 -99.280 10.0  RAL  1 0.2 0.6LRAL                1
 GAP=360        1.74     407.7   227.0  0.0  0.9253E+05 -0.3479E+02  0.8027E+02E
 ACTION:UPD 12-06-08 11:37 OP:RALL STATUS:               ID:20100625085519     I
 2010-06-25-0855-12S.PLUR1_003                                                 6
 STAT SP IPHASW D HRMM SECON CODA AMPLIT PERI AZIMU VELO AIN AR TRES W  DIS CAZ7
 LZ4  SZ E         855 21.60                  263.0 21.2     -7        1.11  91 
 LZ4  SN IP        855 21.64                             174    0.2210 1.11  91 
 LZ4  SE IS        855 22.54                             174   -0.2210 1.11  91 
 LZ4  SZ  AML      855 22.72        24.4 0.24                          1.11  91 
                                                                                
