 2010  627 0837 55.8 L  21.314 -99.222 10.0  RAL  1 0.0 0.5LRAL                1
 GAP=360        0.32       6.8     5.6  0.0  0.3802E+02 -0.3479E+02  0.8027E+02E
 ACTION:UPD 12-06-08 11:37 OP:RALL STATUS:               ID:20100627083755     I
 2010-06-27-0837-48S.PLUR1_003                                                 6
 STAT SP IPHASW D HRMM SECON CODA AMPLIT PERI AZIMU VELO AIN AR TRES W  DIS CAZ7
 LG3  SZ E         837 57.96                   37.1 18.4      0        5.32 217 
 LG3  SN IP        837 57.97                             153    0.0710 5.32 217 
 LG3  SE IS        837 59.32                             153   -0.0710 5.32 217 
 LG3  SZ  AML      837 59.81        17.2 0.10                          5.32 217 
                                                                                
