 2010  627 0946 37.2 L  21.280 -99.239 10.0  RAL  1 0.3 0.2LRAL                1
 GAP=360        3.45     999.9   999.9  0.0 -0.6598E+08 -0.3479E+02  0.8027E+02E
 ACTION:UPD 12-06-08 11:37 OP:RALL STATUS:               ID:20100627094637     I
 2010-06-27-0946-30S.PLUR1_003                                                 6
 STAT SP IPHASW D HRMM SECON CODA AMPLIT PERI AZIMU VELO AIN AR TRES W  DIS CAZ7
 LG3  SN IP        946 39.27                             172    0.1610 1.45 250 
 LG3  SZ E         946 39.31                   86.2 23.5     16        1.45 250 
 LG3  SE IS        946 40.31                             172   -0.1610 1.45 250 
 LG3  SZ  AML      946 40.61         8.9 0.40                          1.45 250 
                                                                                
