 2010  628 0456 24.3 L  21.261 -99.623 10.0  RAL  1 0.0 1.0LRAL                1
 GAP=360        0.30       1.0     4.0  0.0  0.5959E+00 -0.3479E+02  0.8027E+02E
 ACTION:UPD 12-06-08 11:37 OP:RALL STATUS:               ID:20100628045624     I
 2010-06-28-0456-21S.PLUR1_003                                                 6
 STAT SP IPHASW D HRMM SECON CODA AMPLIT PERI AZIMU VELO AIN AR TRES W  DIS CAZ7
 LG3  SN IP        456 30.88                             100    0.0110 38.5  88 
 LG3  SZ E         456 30.90                  267.7 12.5      0        38.5  88 
 LG3  SE IS        456 35.64                             100   -0.0110 38.5  88 
 LG3  SZ  AML      456 36.34        14.9 0.26                          38.5  88 
                                                                                
