 2010  8 1 0628 43.9 L  21.316 -99.221 12.9  RAL  2 0.1 0.8LRAL                1
 GAP=242        0.72       1.2     0.9  6.1  0.9755E+00 -0.1270E+01 -0.1858E+01E
 ACTION:UPD 13-02-28 14:29 OP:RALL STATUS:               ID:20100801062843     I
 2010-08-01-0628-07S.PLUR1_012                                                 6
 STAT SP IPHASW D HRMM SECON CODA AMPLIT PERI AZIMU VELO AIN AR TRES W  DIS CAZ7
 LG3  SZ E         628 46.77                   36.5 25.5      0        5.54 216 
 LG3  SN IP        628 46.85                             157    0.4810 5.54 216 
 LG3  SE IS        628 48.13                             157   -0.0510 5.54 216 
 LG3  SZ  AML      628 49.26        21.0 0.10                          5.54 216 
 LA4  SZ E         628 47.92                  154.5  6.8      1        20.7 334 
 LA4  SN IP        628 47.95                             120   -0.0310 20.7 334 
 LA4  SE IS        628 50.55                             120   -0.4010 20.7 334 
 LA4  SZ  AML      628 50.78        15.3 0.30                          20.7 334 
                                                                                
