 2010  8 1 0813 51.3 L  21.322 -99.220 10.0  RAL  1 0.0 0.5LRAL                1
 GAP=360        0.30       6.2     4.3  0.0  0.2635E+02 -0.3766E+01 -0.6661E+01E
 ACTION:UPD 13-02-28 14:29 OP:RALL STATUS:               ID:20100801081351     I
 2010-08-01-0813-00S.PLUR1_006                                                 6
 STAT SP IPHASW D HRMM SECON CODA AMPLIT PERI AZIMU VELO AIN AR TRES W  DIS CAZ7
 LG3  SZ E         813 53.31                   32.9 14.6      0        6.15 213 
 LG3  SN IP        813 53.41                             149    0.0410 6.15 213 
 LG3  SE IS        813 54.87                             149   -0.0410 6.15 213 
 LG3  SZ  AML      813 55.10        15.2 0.10                          6.15 213 
                                                                                
