 2010  8 1 0915 54.7 L  21.337 -99.285 10.0  RAL  1 0.2 0.2LRAL                1
 GAP=360        1.80      54.2   134.7  0.0 -0.7297E+04 -0.4749E+00 -0.9090E+02E
 ACTION:UPD 13-02-28 14:29 OP:RALL STATUS:               ID:20100801091554     I
 2010-08-01-0915-48S.PLUR1_003                                                 6
 STAT SP IPHASW D HRMM SECON CODA AMPLIT PERI AZIMU VELO AIN AR TRES W  DIS CAZ7
 LZ4  SZ E         915 56.89                  285.2 23.1     -7        1.72 113 
 LZ4  SN IP        915 56.90                             171    0.3510 1.72 113 
 LZ4  SE IS        915 57.56                             171   -0.3510 1.72 113 
 LZ4  SZ  AML      915 57.71         9.8 0.18                          1.72 113 
                                                                                
