 2010  8 1 0554 13.6 L  21.308 -99.292 10.0  RAL  1 0.1 0.5LRAL                1
 GAP=360        0.47      13.6    13.3  0.0  0.1813E+03 -0.6247E+00 -0.3085E+01E
 ACTION:UPD 13-02-28 14:29 OP:RALL STATUS:               ID:20100801055413     I
 2010-08-01-0552-20S.PLUR1_006                                                 6
 STAT SP IPHASW D HRMM SECON CODA AMPLIT PERI AZIMU VELO AIN AR TRES W  DIS CAZ7
 LZ4  SZ E         554 15.51                  222.3 62.1      0        3.43  42 
 LZ4  SN IP        554 15.77                             162    0.2410 3.43  42 
 LZ4  SE IS        554 16.68                             162   -0.2410 3.43  42 
 LZ4  SZ  AML      554 17.25        17.6 0.16                          3.43  42 
                                                                                
