 2010  8 1 0106 13.6 L  21.261 -99.274 10.0  RAL  1 0.2 1.5LRAL                1
 GAP=360        0.68      18.9    28.5  0.0  0.5396E+03  0.1582E+03  0.1076E+03E
 ACTION:UPD 13-02-28 14:29 OP:RALL STATUS:               ID:20100801010613     I
 2010-08-01-0106-07S.PLUR1_003                                                 6
 STAT SP IPHASW D HRMM SECON CODA AMPLIT PERI AZIMU VELO AIN AR TRES W  DIS CAZ7
 LG3  SZ E         1 6 15.94                  234.6 25.1      0        2.79  55 
 LG3  SN IP        1 6 15.96                             165    0.4110 2.79  55 
 LG3  SE IS        1 6 16.53                             165   -0.4110 2.79  55 
 LG3  SZ  AML      1 6 16.64       173.1 0.22                          2.79  55 
                                                                                
