 2010  8 1  8 4 54.8 L                       RAL  0                            1
 ACTION:UPD 13-02-28 14:29 OP:RALL STATUS:               ID:20100801080454     I
 2010-08-01-0804-54S.PLUR1_009                                                 6
 STAT SP IPHASW D HRMM SECON CODA AMPLIT PERI AZIMU VELO AIN AR TRES W  DIS CAZ7
                                                                                
