 2010  8 1 0039 32.5 L  21.283 -99.261 10.0  RAL  3 1.5 0.4LRAL                1
 GAP=283       27.06      13.7    27.2187.1  0.2231E+03  0.1582E+03  0.1076E+03E
 ACTION:UPD 13-02-28 14:29 OP:RALL STATUS:               ID:20100801003932     I
 2010-08-01-0039-25S.PLUR1_009                                                 6
 STAT SP IPHASW D HRMM SECON CODA AMPLIT PERI AZIMU VELO AIN AR TRES W  DIS CAZ7
 LG3  SZ E         039 34.58                  283.0 22.1    -29        1.14 133 
 LG3  SN IP        039 34.63                             174    0.3010 1.14 133 
 LG3  SE IS        039 35.56                             174   -0.1310 1.14 133 
 LG3  SZ  AML      039 35.92       109.8 0.28                          1.14 133 
 LD5  SN IP        039 35.15                             128   -0.0610 12.3 210 
 LD5  SZ E         039 35.16                   35.7  7.7      6        12.3 210 
 LD5  SE IS        039 36.54                             128   -0.6710 12.3 210 
 LD5  SZ  AML      039 36.91         6.4 0.52                          12.3 210 
 LO8  SZ E         039 35.93                  133.4  8.8    153        14.5 160 
 LO8  SN IP        039 35.93                             124    0.4110 14.5 160 
 LO8  SE IS        039 37.89                             124    0.1410 14.5 160 
 LO8  SZ  AML      039 38.89         2.0 0.20                          14.5 160 
                                                                                
