 2010  8 1 0639  3.5 L  21.327 -99.279 10.0  RAL  1 0.2 0.3LRAL                1
 GAP=360        2.30     999.9   424.2  0.0 -0.6709E+06 -0.1270E+01 -0.1858E+01E
 ACTION:UPD 13-02-28 14:29 OP:RALL STATUS:               ID:20100801063903     I
 2010-08-01-0638-56S.PLUR1_003                                                 6
 STAT SP IPHASW D HRMM SECON CODA AMPLIT PERI AZIMU VELO AIN AR TRES W  DIS CAZ7
 LZ4  SZ E         639  5.61                  256.7 34.3     10        1.08  66 
 LZ4  SN IP        639  5.73                             174    0.4410 1.08  66 
 LZ4  SE IS        639  6.20                             174   -0.4410 1.08  66 
 LZ4  SZ  AML      639  6.47        10.6 0.26                          1.08  66 
                                                                                
