 2010  8 1 0558 18.8 L  21.270 -99.262 10.0  RAL  4 1.3 1.5LRAL                1
 GAP=135       24.79       9.6    21.6135.1  0.9956E+02 -0.1475E+02 -0.5645E+02E
 ACTION:UPD 13-02-28 14:29 OP:RALL STATUS:               ID:20100801055818     I
 2010-08-01-0558-11S.PLUR1_012                                                 6
 STAT SP IPHASW D HRMM SECON CODA AMPLIT PERI AZIMU VELO AIN AR TRES W  DIS CAZ7
 LG3  SZ E         558 20.38                  283.5 27.3     46        1.13  58 
 LG3  SN IP        558 20.40                             176   -0.3110 1.13  58 
 LG3  SE IS        558 21.24                             176   -0.8310 1.13  58 
 LG3  SZ  AML      558 21.52      1419.7 0.38                          1.13  58 
 LD5  SZ E         558 20.99                   20.5  9.4    -12        11.1 213 
 LD5  SN IP        558 20.99                             129   -0.4510 11.1 213 
 LD5  SE IS        558 22.39                             129   -0.9410 11.1 213 
 LD5  SZ  AML      558 23.31        69.0 0.34                          11.1 213 
 LO8  SZ E         558 21.79                  131.6  6.2    154        13.2 158 
 LO8  SN IP        558 21.81                             126    0.0710 13.2 158 
 LO8  SE IS        558 23.90                             126    0.0510 13.2 158 
 LO8  SZ  AML      558 24.46        14.7 0.38                          13.2 158 
 LA4  SZ E         558 23.92                  154.1  6.5    -13        24.1 348 
 LA4  SN IP        558 23.94                             108    0.7210 24.1 348 
 LA4  SE IS        558 28.10                             108    1.6810 24.1 348 
 LA4  SZ  AML      558 29.00        78.2 0.38                          24.1 348 
                                                                                
