 2010  8 1 0223 44.2 L  21.305 -99.224 10.0  RAL  1 0.0 0.6LRAL                1
 GAP=360        0.35       8.2     8.1  0.0  0.6700E+02  0.1582E+03  0.1076E+03E
 ACTION:UPD 13-02-28 14:29 OP:RALL STATUS:               ID:20100801022344     I
 2010-08-01-0223-36S.PLUR1_003                                                 6
 STAT SP IPHASW D HRMM SECON CODA AMPLIT PERI AZIMU VELO AIN AR TRES W  DIS CAZ7
 LG3  SN IP        223 46.29                             157    0.1310 4.38 223 
 LG3  SZ E         223 46.29                   42.6 17.5      0        4.38 223 
 LG3  SE IS        223 47.49                             157   -0.1310 4.38 223 
 LG3  SZ  AML      223 48.42        21.0 0.32                          4.38 223 
                                                                                
