 2010  8 1  430 46.4 L                       RAL  0                            1
 ACTION:UPD 13-02-28 14:29 OP:RALL STATUS:               ID:20100801043046     I
 2010-08-01-0430-46S.PLUR1_024                                                 6
 STAT SP IPHASW D HRMM SECON CODA AMPLIT PERI AZIMU VELO AIN AR TRES W  DIS CAZ7
                                                                                
