 2010  8 1 0230 10.5 L  21.280 -99.265 10.0  RAL  1 0.3 1.1LRAL                1
 GAP=360        3.33     999.9   999.9  0.0  0.4281E+07  0.1582E+03  0.1076E+03E
 ACTION:UPD 13-02-28 14:29 OP:RALL STATUS:               ID:20100801023010     I
 2010-08-01-0230-04S.PLUR1_003                                                 6
 STAT SP IPHASW D HRMM SECON CODA AMPLIT PERI AZIMU VELO AIN AR TRES W  DIS CAZ7
 LG3  SZ E         230 12.79                  276.3 20.8    -15        1.40 112 
 LG3  SN IP        230 12.79                             172    0.4310 1.40 112 
 LG3  SE IS        230 13.30                             172   -0.4310 1.40 112 
 LG3  SZ  AML      230 13.39        71.4 0.10                          1.40 112 
                                                                                
