 2010  8 1 0731 34.3 L  21.499 -99.322 10.0  RAL  1 0.2 0.6LRAL                1
 GAP=360        0.66     651.2   982.0  0.0  0.6395E+06 -0.3766E+01 -0.6661E+01E
 ACTION:UPD 13-02-28 14:29 OP:RALL STATUS:               ID:20100801073134     I
 2010-08-01-0730-35S.PLUR1_006                                                 6
 STAT SP IPHASW D HRMM SECON CODA AMPLIT PERI AZIMU VELO AIN AR TRES W  DIS CAZ7
 LA4  SZ E         731 36.55                  322.6 10.6      0        2.19 143 
 LA4  SN IP        731 36.60                             168    0.4010 2.19 143 
 LA4  SZ  AML      731 37.02        23.1 0.64                          2.19 143 
 LA4  SE IS        731 37.18                             168   -0.4010 2.19 143 
                                                                                
