 2010  8 1 0459 11.9 L  21.325 -99.223 10.0  RAL  1 0.0 0.6LRAL                1
 GAP=360        0.30       6.2     3.8  0.0  0.2398E+02 -0.6247E+00 -0.3085E+01E
 ACTION:UPD 13-02-28 14:29 OP:RALL STATUS:               ID:20100801045911     I
 2010-08-01-0459-04S.PLUR1_003                                                 6
 STAT SP IPHASW D HRMM SECON CODA AMPLIT PERI AZIMU VELO AIN AR TRES W  DIS CAZ7
 LG3  SZ E         459 13.99                   29.8 20.4      0        6.25 210 
 LG3  SN IP        459 14.07                             149    0.0310 6.25 210 
 LG3  SE IS        459 15.55                             149   -0.0310 6.25 210 
 LG3  SZ  AML      459 16.09        20.2 0.40                          6.25 210 
                                                                                
