 2010  8 1 0317 26.5 L  21.280 -99.023 10.0  RAL  4 1.1 1.3LRAL                1
 GAP=289       17.22      24.1    58.3310.5  0.5354E+03 -0.6694E+04 -0.2027E+04E
 ACTION:UPD 13-02-28 14:29 OP:RALL STATUS:               ID:20100801031726     I
 2010-08-01-0317-22S.PLUR1_012                                                 6
 STAT SP IPHASW D HRMM SECON CODA AMPLIT PERI AZIMU VELO AIN AR TRES W  DIS CAZ7
 LG3  SZ E         317 31.00                   91.4 17.7      3        23.8 269 
 LO8  SN IP        317 33.22                             110    2.3710 23.8 236 
 LO8  SE IS        317 36.42                             110    2.3910 23.8 236 
 LO8  SZ  AML      317 37.28         6.7 0.18                          23.8 236 
 LG3  SN IP        317 31.09                             110    0.2610 23.8 269 
 LG3  SE IS        317 32.53                             110   -1.4710 23.8 269 
 LO8  SZ E         317 33.20                  143.3  7.7     87        23.8 236 
 LG3  SZ  AML      317 33.19       283.7 0.18                          23.8 269 
 LD5  SZ E         317 32.42                   15.1  7.2    -55        32.5 252 
 LD5  SN IP        317 32.45                             103    0.3210 32.5 252 
 LD5  SE IS        317 35.07                             103   -1.1710 32.5 252 
 LD5  SZ  AML      317 36.98        11.0 0.28                          32.5 252 
 LA4  SN IP        317 32.46                             101   -0.3910 37.3 307 
 LA4  SZ E         317 32.46                  164.4  6.7     37        37.3 307 
 LA4  SE IS        317 35.18                             101   -2.3110 37.3 307 
 LA4  SZ  AML      317 36.52        69.9 0.52                          37.3 307 
                                                                                
