 2010  8 1 0543 11.3 L  21.349 -99.245 10.0  RAL  1 0.1-0.1LRAL                1
 GAP=360        0.47      12.3    16.4  0.0  0.2015E+03 -0.6247E+00 -0.3085E+01E
 ACTION:UPD 13-02-28 14:29 OP:RALL STATUS:               ID:20100801054311     I
 2010-08-01-0543-05S.PLUR1_003                                                 6
 STAT SP IPHASW D HRMM SECON CODA AMPLIT PERI AZIMU VELO AIN AR TRES W  DIS CAZ7
 LZ4  SN IP        543 13.45                             163    0.2510 3.22 231 
 LZ4  SZ E         543 13.45                   51.1 52.8      0        3.22 231 
 LZ4  SE IS        543 14.35                             163   -0.2510 3.22 231 
 LZ4  SZ  AML      543 14.66         4.3 0.14                          3.22 231 
                                                                                
