 2010  8 1 0911 37.9 L  21.301 -99.241 10.0  RAL  1 0.0 0.8LRAL                1
 GAP=360        0.34       7.9     7.7  0.0 -0.6072E+02 -0.4749E+00 -0.9090E+02E
 ACTION:UPD 13-02-28 14:29 OP:RALL STATUS:               ID:20100801091137     I
 2010-08-01-0911-31S.PLUR1_003                                                 6
 STAT SP IPHASW D HRMM SECON CODA AMPLIT PERI AZIMU VELO AIN AR TRES W  DIS CAZ7
 LZ4  SZ E         911 39.91                  138.0 21.0      0        4.47 318 
 LZ4  SN IP        911 39.96                             156    0.1210 4.47 318 
 LZ4  SE IS        911 41.17                             156   -0.1210 4.47 318 
 LZ4  SZ  AML      911 41.83        35.8 0.20                          4.47 318 
                                                                                
