 2010  8 1 0443 36.2 L  21.415 -99.234 10.0  RAL  1 0.0 0.6LRAL                1
 GAP=360        0.30       4.8     2.0  0.0  0.9736E+01 -0.6247E+00 -0.3085E+01E
 ACTION:UPD 13-02-28 14:29 OP:RALL STATUS:               ID:20100801044336     I
 2010-08-01-0443-31S.PLUR1_003                                                 6
 STAT SP IPHASW D HRMM SECON CODA AMPLIT PERI AZIMU VELO AIN AR TRES W  DIS CAZ7
 LZ4  SZ E         443 38.66                   21.2 14.7      0        10.0 201 
 LZ4  SN IP        443 38.66                             134    0.0210 10.0 201 
 LZ4  SE IS        443 40.43                             134   -0.0210 10.0 201 
 LZ4  SZ  AML      443 40.83        14.6 0.14                          10.0 201 
                                                                                
