 2010  8 1 0327 10.9 L  21.381 -99.250 10.0  RAL  1 0.0 0.4LRAL                1
 GAP=360        0.30       4.1     2.4  0.0 -0.9471E+01 -0.6694E+04 -0.2027E+04E
 ACTION:UPD 13-02-28 14:29 OP:RALL STATUS:               ID:20100801032710     I
 2010-08-01-0327-04S.PLUR1_003                                                 6
 STAT SP IPHASW D HRMM SECON CODA AMPLIT PERI AZIMU VELO AIN AR TRES W  DIS CAZ7
 LA4  SN IP        327 13.70                             127    0.0110 12.9 332 
 LA4  SZ E         327 13.71                  151.9  9.6      0        12.9 332 
 LA4  SE IS        327 15.73                             127   -0.0110 12.9 332 
 LA4  SZ  AML      327 16.49         9.8 0.10                          12.9 332 
                                                                                
