 2010  8 1 0255 20.2 L  21.397 -99.300 10.0  RAL  1 0.0 0.8LRAL                1
 GAP=360        0.30       5.3     0.6  0.0 -0.2762E+01  0.1582E+03  0.1076E+03E
 ACTION:UPD 13-02-28 14:29 OP:RALL STATUS:               ID:20100801025520     I
 2010-08-01-0255-13S.PLUR1_003                                                 6
 STAT SP IPHASW D HRMM SECON CODA AMPLIT PERI AZIMU VELO AIN AR TRES W  DIS CAZ7
 LA4  SZ E         255 22.60                  174.7  8.8      0        9.69 355 
 LA4  SN IP        255 22.69                             136    0.0010 9.69 355 
 LA4  SE IS        255 24.47                             136    0.0010 9.69 355 
 LA4  SZ  AML      255 25.42        29.3 0.16                          9.69 355 
                                                                                
