 2010  8 1 0403 24.7 L  21.275 -99.254  9.2  RAL  4 0.5 0.8LRAL                1
 GAP=131        6.09       2.4     5.4 32.7  0.6696E+01 -0.6247E+00 -0.3085E+01E
 ACTION:UPD 13-02-28 14:29 OP:RALL STATUS:               ID:20100801040324     I
 2010-08-01-0400-39S.PLUR1_021                                                 6
 STAT SP IPHASW D HRMM SECON CODA AMPLIT PERI AZIMU VELO AIN AR TRES W  DIS CAZ7
 LG3  SZ E         4 3 26.24                  260.7 21.6      1        0.13  80 
 LG3  SN IP        4 3 26.26                             180   -0.2110 0.13  80 
 LG3  SE IS        4 3 27.03                             180   -0.7010 0.13  80 
 LG3  SZ  AML      4 3 27.44       182.9 0.20                          0.13  80 
 LD5  SZ E         4 3 26.82                   38.3  8.7      3        12.0 215 
 LD5  SN IP        4 3 26.84                             125   -0.5310 12.0 215 
 LD5  SE IS        4 3 28.21                             125   -1.0810 12.0 215 
 LD5  SZ  AML      4 3 28.47        11.0 0.28                          12.0 215 
 LO8  SN IP        4 3 27.51                             123   -0.0910 13.5 162 
 LO8  SZ E         4 3 27.53                    6.9  7.5     25        13.5 162 
 LO8  SE IS        4 3 29.45                             123   -0.2310 13.5 162 
 LO8  SZ  AML      4 3 29.80         7.1 0.36                          13.5 162 
 LA4  SZ E         4 3 29.91                  138.1  7.7    -27        23.7 346 
 LA4  SN IP        4 3 29.96                             106    0.9310 23.7 346 
 LA4  SE IS        4 3 34.06                             106    1.9110 23.7 346 
 LA4  SZ  AML      4 3 35.37        17.1 0.22                          23.7 346 
                                                                                
