 2010  8 1 0750 19.5 L  21.348 -99.317 10.0  RAL  1 0.0 0.9LRAL                1
 GAP=360        0.30       3.9     3.5  0.0 -0.1370E+02 -0.3766E+01 -0.6661E+01E
 ACTION:UPD 13-02-28 14:29 OP:RALL STATUS:               ID:20100801075019     I
 2010-08-01-0749-39S.PLUR1_006                                                 6
 STAT SP IPHASW D HRMM SECON CODA AMPLIT PERI AZIMU VELO AIN AR TRES W  DIS CAZ7
 LG3  SZ E         750 22.00                  320.5  7.9      0        10.4 140 
 LG3  SN IP        750 22.04                             133    0.0110 10.4 140 
 LG3  SE IS        750 23.86                             133   -0.0110 10.4 140 
 LG3  SZ  AML      750 23.97        32.1 0.22                          10.4 140 
                                                                                
