 2010  8 1  341 29.6 L                       RAL  0                            1
 ACTION:UPD 13-02-28 14:29 OP:RALL STATUS:               ID:20100801034129     I
 2010-08-01-0341-29S.PLUR1_015                                                 6
 STAT SP IPHASW D HRMM SECON CODA AMPLIT PERI AZIMU VELO AIN AR TRES W  DIS CAZ7
                                                                                
