 2010  8 1 0757 14.5 L  21.286 -99.273 10.0  RAL  1 0.2 1.2LRAL                1
 GAP=360        0.67      17.9    34.6  0.0 -0.6204E+03 -0.3766E+01 -0.6661E+01E
 ACTION:UPD 13-02-28 14:29 OP:RALL STATUS:               ID:20100801075714     I
 2010-08-01-0757-07S.PLUR1_003                                                 6
 STAT SP IPHASW D HRMM SECON CODA AMPLIT PERI AZIMU VELO AIN AR TRES W  DIS CAZ7
 LG3  SN IP        757 16.78                             167    0.4110 2.42 119 
 LG3  SZ E         757 16.80                  299.0 22.6      0        2.42 119 
 LG3  SE IS        757 17.35                             167   -0.4110 2.42 119 
 LG3  SZ  AML      757 17.49        84.7 0.36                          2.42 119 
                                                                                
