 2010  8 1 0832 17.0 L  21.301 -99.224 10.0  RAL  1 0.1 0.7LRAL                1
 GAP=360        0.41       9.5    10.9  0.0  0.1033E+03 -0.3766E+01 -0.6661E+01E
 ACTION:UPD 13-02-28 14:29 OP:RALL STATUS:               ID:20100801083217     I
 2010-08-01-0832-02S.PLUR1_003                                                 6
 STAT SP IPHASW D HRMM SECON CODA AMPLIT PERI AZIMU VELO AIN AR TRES W  DIS CAZ7
 LG3  SN IP        832 19.20                             159    0.1910 4.07 227 
 LG3  SZ E         832 19.36                   46.8 17.5      0        4.07 227 
 LG3  SE IS        832 20.26                             159   -0.1910 4.07 227 
 LG3  SZ  AML      832 20.39        23.6 0.40                          4.07 227 
                                                                                
