 2010  8 1 0738  0.2 L  21.273 -99.266 10.0  RAL  1 0.2 0.9LRAL                1
 GAP=360        0.94     771.9   279.2  0.0 -0.2155E+06 -0.3766E+01 -0.6661E+01E
 ACTION:UPD 13-02-28 14:29 OP:RALL STATUS:               ID:20100801073800     I
 2010-08-01-0737-37S.PLUR1_009                                                 6
 STAT SP IPHASW D HRMM SECON CODA AMPLIT PERI AZIMU VELO AIN AR TRES W  DIS CAZ7
 LG3  SZ E         738  2.39                  254.2 23.0     -2        1.44  77 
 LG3  SN IP        738  2.43                             172    0.3910 1.44  77 
 LG3  SE IS        738  3.01                             172   -0.3910 1.44  77 
 LG3  SZ  AML      738  3.08        47.6 0.10                          1.44  77 
                                                                                
