 2010  8 1 0645 27.0 L  21.310 -99.269 10.0  RAL  1 0.0 0.4LRAL                1
 GAP=360        0.30      17.3     0.2  0.0 -0.3916E+01 -0.1270E+01 -0.1858E+01E
 ACTION:UPD 13-02-28 14:29 OP:RALL STATUS:               ID:20100801064527     I
 2010-08-01-0645-21S.PLUR1_003                                                 6
 STAT SP IPHASW D HRMM SECON CODA AMPLIT PERI AZIMU VELO AIN AR TRES W  DIS CAZ7
 LZ4  SN IP        645 28.88                             168    0.0210 2.27 359 
 LZ4  SZ E         645 28.88                  179.3 43.9      0        2.27 359 
 LZ4  SE IS        645 30.20                             168   -0.0210 2.27 359 
 LZ4  SZ  AML      645 31.37        14.7 0.42                          2.27 359 
                                                                                
