 2010  8 1 0539 41.9 L  21.274 -99.255 10.0  RAL  1 0.8 0.1LRAL                1
 GAP=360        9.65     999.9   999.9  0.0 -0.7199E+10 -0.6247E+00 -0.3085E+01E
 ACTION:UPD 13-02-28 14:29 OP:RALL STATUS:               ID:20100801053941     I
 2010-08-01-0539-35S.PLUR1_003                                                 6
 STAT SP IPHASW D HRMM SECON CODA AMPLIT PERI AZIMU VELO AIN AR TRES W  DIS CAZ7
 LG3  SN IP        539 44.17                             178    0.4010 0.31  52 
 LG3  SZ E         539 44.17                  277.7 23.3     46        0.31  52 
 LG3  SE IS        539 44.73                             178   -0.4010 0.31  52 
 LG3  SZ  AML      539 45.04         7.2 0.20                          0.31  52 
                                                                                
