 2010  8 1 0716  4.4 L  21.224 -99.301 10.0  RAL  2 0.2 0.0LRAL                1
 GAP=196        1.58       3.5     2.0 15.4  0.6690E+01 -0.3766E+01 -0.6661E+01E
 ACTION:UPD 13-02-28 14:29 OP:RALL STATUS:               ID:20100801071604     I
 2010-08-01-0715-57S.PLUR1_015                                                 6
 STAT SP IPHASW D HRMM SECON CODA AMPLIT PERI AZIMU VELO AIN AR TRES W  DIS CAZ7
 LD5  SN IP        716  6.95                             160    0.5710 4.61 205 
 LD5  SZ E         716  6.96                   22.7  8.9     -2        4.61 205 
 LD5  SE IS        716  8.34                             160    0.5110 4.61 205 
 LD5  SZ  AML      716  9.17         0.8 0.22                          4.61 205 
 LG3  SN IP        716  6.39                             142   -0.2510 7.62  41 
 LG3  SZ E         716  6.39                  217.4 25.1     -3        7.62  41 
 LG3  SE IS        716  7.43                             142   -0.8410 7.62  41 
 LG3  SZ  AML      716  7.56        25.7 0.24                          7.62  41 
                                                                                
