 2010  8 1 0926 32.2 L  21.237 -99.444 10.0  RAL  1 0.0 0.9LRAL                1
 GAP=360        0.30       1.0     4.2  0.0  0.3575E+01 -0.4749E+00 -0.9090E+02E
 ACTION:UPD 13-02-28 14:29 OP:RALL STATUS:               ID:20100801092632     I
 2010-08-01-0926-28S.PLUR1_003                                                 6
 STAT SP IPHASW D HRMM SECON CODA AMPLIT PERI AZIMU VELO AIN AR TRES W  DIS CAZ7
 LG3  SZ E         926 35.97                  257.8 22.5      0        20.4  78 
 LG3  SN IP        926 36.04                             113    0.0210 20.4  78 
 LG3  SE IS        926 38.80                             113   -0.0210 20.4  78 
 LG3  SZ  AML      926 39.08        18.5 0.10                          20.4  78 
                                                                                
