 2010  8 1 0704 22.8 L  21.288 -99.242 10.0  RAL  1 0.0 0.9LRAL                1
 GAP=360        0.31       6.9     4.5  0.0 -0.3099E+02 -0.1270E+01 -0.1858E+01E
 ACTION:UPD 13-02-28 14:29 OP:RALL STATUS:               ID:20100801070422     I
 2010-08-01-0700-35S.PLUR1_009                                                 6
 STAT SP IPHASW D HRMM SECON CODA AMPLIT PERI AZIMU VELO AIN AR TRES W  DIS CAZ7
 LZ4  SN IP        7 4 24.95                             152    0.0610 5.51 329 
 LZ4  SZ E         7 4 25.02                  148.7  9.0      0        5.51 329 
 LZ4  SE IS        7 4 26.33                             152   -0.0610 5.51 329 
 LZ4  SZ  AML      7 4 27.34        39.9 0.16                          5.51 329 
                                                                                
