 2010  8 1 0845 56.5 L  21.381 -99.297  0.0  RAL  2 0.1 0.0LRAL                1
 GAP=332        0.53       4.8     1.2 43.1  0.2089E+01 -0.4749E+00 -0.9090E+02E
 ACTION:UPD 13-02-28 14:29 OP:RALL STATUS:               ID:20100801084556     I
 2010-08-01-0844-07S.PLUR1_027                                                 6
 STAT SP IPHASW D HRMM SECON CODA AMPLIT PERI AZIMU VELO AIN AR TRES W  DIS CAZ7
 LG3  SZ IP        845 58.82                              95    0.1210 12.6 158 
 LG3  SN IS        846  0.02                              95   -0.2910 12.6 158 
 LD5  SZ E         846  0.17                    6.0  9.6      0        21.7 186 
 LD5  SN IP        846  0.22                              93   -0.0610 21.7 186 
 LD5  SE IS        846  3.28                              93    0.2310 21.7 186 
 LD5  SZ  AML      846  3.70         2.8 0.28                          21.7 186 
                                                                                
