 2010  8 1 0949  6.1 L  21.272 -99.265 10.0  RAL  1 0.2 0.5LRAL                1
 GAP=360        0.69     999.9   999.9  0.0 -0.3244E+07 -0.4749E+00 -0.9090E+02E
 ACTION:UPD 13-02-28 14:29 OP:RALL STATUS:               ID:20100801094906     I
 2010-08-01-0948-58S.PLUR1_003                                                 6
 STAT SP IPHASW D HRMM SECON CODA AMPLIT PERI AZIMU VELO AIN AR TRES W  DIS CAZ7
 LG3  SN IP        949  8.37                             172    0.4210 1.39  72 
 LG3  SZ E         949  8.37                  252.4 16.8      0        1.39  72 
 LG3  SE IS        949  8.89                             172   -0.4210 1.39  72 
 LG3  SZ  AML      949  8.99        19.4 0.10                          1.39  72 
                                                                                
