 2010  8 1 0801  6.0 L  21.257 -99.267 10.0  RAL  1 0.2 0.8LRAL                1
 GAP=360        0.69      29.0    21.9  0.0  0.6349E+03 -0.3766E+01 -0.6661E+01E
 ACTION:UPD 13-02-28 14:29 OP:RALL STATUS:               ID:20100801080106     I
 2010-08-01-0800-58S.PLUR1_003                                                 6
 STAT SP IPHASW D HRMM SECON CODA AMPLIT PERI AZIMU VELO AIN AR TRES W  DIS CAZ7
 LG3  SN IP        8 1  8.29                             166    0.4210 2.59  35 
 LG3  SZ E         8 1  8.29                  215.1 28.1      0        2.59  35 
 LG3  SE IS        8 1  8.84                             166   -0.4210 2.59  35 
 LG3  SZ  AML      8 1  9.15        33.1 0.42                          2.59  35 
                                                                                
