 2010  8 1 1103  5.7 L  21.287 -99.274 10.0  RAL  1 0.1 1.3LRAL                1
 GAP=360        0.60      15.9    29.5  0.0 -0.4683E+03 -0.1646E+03  0.3709E+02E
 ACTION:UPD 13-02-28 14:29 OP:RALL STATUS:               ID:20100801110305     I
 2010-08-01-1102-58S.PLUR1_003                                                 6
 STAT SP IPHASW D HRMM SECON CODA AMPLIT PERI AZIMU VELO AIN AR TRES W  DIS CAZ7
 LG3  SN IP       11 3  7.96                             166    0.3510 2.53 120 
 LG3  SZ E        11 3  7.96                  300.0 18.9      0        2.53 120 
 LG3  SZ  AML     11 3  8.52       107.0 0.50                          2.53 120 
 LG3  SE IS       11 3  8.64                             166   -0.3510 2.53 120 
                                                                                
