 2010  8 1 1813 53.2 L  21.153 -99.212 10.0  RAL  3 1.2 0.5LRAL                1
 GAP=293       18.76      20.8    25.7136.4 -0.2749E+03  0.2629E+03 -0.2338E+03E
 ACTION:UPD 13-02-28 14:29 OP:RALL STATUS:               ID:20100801181353     I
 2010-08-01-1813-46S.PLUR1_009                                                 6
 STAT SP IPHASW D HRMM SECON CODA AMPLIT PERI AZIMU VELO AIN AR TRES W  DIS CAZ7
 LO8  SN IP       1813 56.56                             176    1.4610 0.69 355 
 LO8  SZ E        1813 56.62                  143.7  6.4    -31        0.69 355 
 LO8  SE IS       1813 58.65                             176    2.1710 0.69 355 
 LO8  SZ  AML     1813 58.83         3.4 0.28                          0.69 355 
 LD5  SN IP       1813 56.12                             135    0.2410 11.8 288 
 LD5  SZ E        1813 56.13                   57.2  9.7    -50        11.8 288 
 LD5  SE IS       1813 57.52                             135   -0.3110 11.8 288 
 LD5  SZ  AML     1813 57.79         3.9 0.10                          11.8 288 
 LG3  SN IP       1813 55.19                             128   -1.0010 14.1 343 
 LG3  SZ E        1813 55.19                  251.2 17.4     88        14.1 343 
 LG3  SE IS       1813 55.81                             128   -2.5610 14.1 343 
 LG3  SZ  AML     1813 56.42       126.4 0.24                          14.1 343 
                                                                                
