 2010  8 1 1046 11.5 L  21.292 -99.262 10.0  RAL  1 0.2 0.7LRAL                1
 GAP=360        0.71     698.7   999.9  0.0  0.1060E+07 -0.4749E+00 -0.9090E+02E
 ACTION:UPD 13-02-28 14:29 OP:RALL STATUS:               ID:20100801104611     I
 2010-08-01-1046-04S.PLUR1_003                                                 6
 STAT SP IPHASW D HRMM SECON CODA AMPLIT PERI AZIMU VELO AIN AR TRES W  DIS CAZ7
 LG3  SN IP       1046 13.77                             169    0.4310 2.09 152 
 LG3  SZ E        1046 13.79                  332.1 13.5      0        2.09 152 
 LG3  SE IS       1046 14.28                             169   -0.4310 2.09 152 
 LG3  SZ  AML     1046 14.76        25.9 0.34                          2.09 152 
                                                                                
