 2010  8 1 1859 20.9 L  21.300 -99.235 10.0  RAL  1 0.1 1.2LRAL                1
 GAP=360        0.42      14.4    10.5  0.0  0.1506E+03  0.2629E+03 -0.2338E+03E
 ACTION:UPD 13-02-28 14:29 OP:RALL STATUS:               ID:20100801185920     I
 2010-08-01-1859-14S.PLUR1_003                                                 6
 STAT SP IPHASW D HRMM SECON CODA AMPLIT PERI AZIMU VELO AIN AR TRES W  DIS CAZ7
 LG3  SZ E        1859 23.04                   34.2 33.5      0        3.32 214 
 LG3  SN IP       1859 23.08                             162    0.2010 3.32 214 
 LG3  SE IS       1859 24.08                             162   -0.2010 3.32 214 
 LG3  SZ  AML     1859 24.36        84.8 0.10                          3.32 214 
                                                                                
