 2010  8 1 1552 55.6 L  21.420 -99.295 10.0  RAL  1 0.0 0.2LRAL                1
 GAP=360        0.30       6.3     1.4  0.0 -0.8722E+01 -0.1097E+06 -0.7958E+05E
 ACTION:UPD 13-02-28 14:29 OP:RALL STATUS:               ID:20100801155255     I
 2010-08-01-1552-49S.PLUR1_003                                                 6
 STAT SP IPHASW D HRMM SECON CODA AMPLIT PERI AZIMU VELO AIN AR TRES W  DIS CAZ7
 LA4  SZ E        1552 57.78                  168.4  6.3      0        7.17 348 
 LA4  SN IP       1552 57.79                             145    0.0210 7.17 348 
 LA4  SE IS       1552 59.36                             145   -0.0210 7.17 348 
 LA4  SZ  AML     1552 59.43         7.1 0.36                          7.17 348 
                                                                                
