 2010  8 1 1534 12.1 L  21.207 -99.272 10.0  RAL  1 0.0-0.2LRAL                1
 GAP=360        0.30       3.3     7.7  0.0  0.2522E+02 -0.1097E+06 -0.7958E+05E
 ACTION:UPD 13-02-28 14:29 OP:RALL STATUS:               ID:20100801153412     I
 2010-08-01-1534-05S.PLUR1_003                                                 6
 STAT SP IPHASW D HRMM SECON CODA AMPLIT PERI AZIMU VELO AIN AR TRES W  DIS CAZ7
 LD5  SN IP       1534 14.16                             152    0.0410 5.49 246 
 LD5  SZ E        1534 14.17                   65.6 11.8      0        5.49 246 
 LD5  SE IS       1534 15.58                             152   -0.0410 5.49 246 
 LD5  SZ  AML     1534 15.67         2.9 0.18                          5.49 246 
                                                                                
