 2010  8 1 1052  2.7 L  21.191 -99.319 10.0  RAL  3 1.5 0.3LRAL                1
 GAP=203       26.89      16.0    24.4194.2 -0.2534E+03 -0.1646E+03  0.3709E+02E
 ACTION:UPD 13-02-28 14:29 OP:RALL STATUS:               ID:20100801105202     I
 2010-08-01-1051-55S.PLUR1_009                                                 6
 STAT SP IPHASW D HRMM SECON CODA AMPLIT PERI AZIMU VELO AIN AR TRES W  DIS CAZ7
 LD5  SZ E        1052  5.21                   23.8  9.1     11        0.46 193 
 LD5  SN IP       1052  5.21                             177    0.6310 0.46 193 
 LD5  SE IS       1052  6.60                             177    0.6910 0.46 193 
 LD5  SZ  AML     1052  7.40         3.4 0.22                          0.46 193 
 LO8  SZ E        1052  6.04                  136.8  9.0    -99        11.5 107 
 LO8  SN IP       1052  6.18                             131    0.7510 11.5 107 
 LO8  SE IS       1052  7.83                             131    0.4310 11.5 107 
 LO8  SZ  AML     1052  8.78         1.7 0.10                          11.5 107 
 LG3  SZ E        1052  4.67                  251.7 24.5     35        11.7  36 
 LG3  SN IP       1052  4.69                             130   -0.7310 11.7  36 
 LG3  SE IS       1052  5.61                             130   -1.7710 11.7  36 
 LG3  SZ  AML     1052  5.91       102.2 0.42                          11.7  36 
                                                                                
