 2010  8 1 1116  3.3 L  21.266 -99.276  6.6  RAL  2 0.0 0.3LRAL                1
 GAP=218        0.39       0.2     0.5  3.2  0.1180E+00  0.3566E+00  0.1627E+00E
 ACTION:UPD 13-02-28 14:29 OP:RALL STATUS:               ID:20100801111603     I
 2010-08-01-1115-55S.PLUR1_006                                                 6
 STAT SP IPHASW D HRMM SECON CODA AMPLIT PERI AZIMU VELO AIN AR TRES W  DIS CAZ7
 LG3  SZ E        1116  4.83                  245.8 92.7      0        2.70  66 
 LG3  SN IP       1116  4.87                             159    0.1510 2.70  66 
 LG3  SE IS       1116  5.75                             159    0.0110 2.70  66 
 LG3  SZ  AML     1116  6.30        50.7 0.38                          2.70  66 
 LD5  SZ E        1116  5.43                   27.8 10.2      0        9.88 208 
 LD5  SN IP       1116  5.47                             121    0.0310 9.88 208 
 LD5  SE IS       1116  6.80                             121   -0.1910 9.88 208 
 LD5  SZ  AML     1116  7.32         3.6 0.18                          9.88 208 
                                                                                
