 2010  8 1 1225 32.4 L  21.299 -99.274 10.0  RAL  1 0.1 0.5LRAL                1
 GAP=360        0.57      17.6    15.9  0.0 -0.2798E+03  0.3566E+00  0.1627E+00E
 ACTION:UPD 13-02-28 14:29 OP:RALL STATUS:               ID:20100801122532     I
 2010-08-01-1225-25S.PLUR1_003                                                 6
 STAT SP IPHASW D HRMM SECON CODA AMPLIT PERI AZIMU VELO AIN AR TRES W  DIS CAZ7
 LG3  SN IP       1225 34.62                             162    0.3310 3.39 140 
 LG3  SZ E        1225 34.66                  319.8 14.3      0        3.39 140 
 LG3  SE IS       1225 35.37                             162   -0.3310 3.39 140 
 LG3  SZ  AML     1225 35.68        16.3 0.20                          3.39 140 
                                                                                
