 2010  8 1 1313 37.5 L  21.408 -99.298 10.0  RAL  1 0.0 0.7LRAL                1
 GAP=360        0.30       5.7     0.8  0.0 -0.4515E+01  0.3566E+00  0.1627E+00E
 ACTION:UPD 13-02-28 14:29 OP:RALL STATUS:               ID:20100801131337     I
 2010-08-01-1313-30S.PLUR1_003                                                 6
 STAT SP IPHASW D HRMM SECON CODA AMPLIT PERI AZIMU VELO AIN AR TRES W  DIS CAZ7
 LA4  SZ E        1313 39.64                  172.6  8.4      0        8.46 353 
 LA4  SN IP       1313 39.79                             140    0.0110 8.46 353 
 LA4  SE IS       1313 41.47                             140   -0.0110 8.46 353 
 LA4  SZ  AML     1313 41.75        20.9 0.28                          8.46 353 
                                                                                
