 2010  8 1 1121 35.2 L  21.391 -99.294 10.0  RAL  1 0.0 1.1LRAL                1
 GAP=360        0.30       6.0     2.5  0.0 -0.1478E+02  0.3566E+00  0.1627E+00E
 ACTION:UPD 13-02-28 14:29 OP:RALL STATUS:               ID:20100801112135     I
 2010-08-01-1121-20S.PLUR1_003                                                 6
 STAT SP IPHASW D HRMM SECON CODA AMPLIT PERI AZIMU VELO AIN AR TRES W  DIS CAZ7
 LZ4  SZ E        1121 37.37                  339.3  7.8      0        7.09 159 
 LZ4  SN IP       1121 37.39                             145    0.0210 7.09 159 
 LZ4  SE IS       1121 38.94                             145   -0.0210 7.09 159 
 LZ4  SZ  AML     1121 39.84        59.2 0.12                          7.09 159 
                                                                                
