 2010  8 1 1126 31.3 L  21.487 -99.318 10.0  RAL  1 0.1 0.5LRAL                1
 GAP=360        0.56     999.9   685.0  0.0  0.9803E+06  0.3566E+00  0.1627E+00E
 ACTION:UPD 13-02-28 14:29 OP:RALL STATUS:               ID:20100801112631     I
 2010-08-01-1125-02S.PLUR1_006                                                 6
 STAT SP IPHASW D HRMM SECON CODA AMPLIT PERI AZIMU VELO AIN AR TRES W  DIS CAZ7
 LA4  SZ E        1126 33.44                  292.0 14.6      1        1.01 111 
 LA4  SN IP       1126 33.46                             174    0.3110 1.01 111 
 LA4  SE IS       1126 34.19                             174   -0.3110 1.01 111 
 LA4  SZ  AML     1126 34.42        19.6 0.10                          1.01 111 
                                                                                
