 2010  8 1 1509 58.1 L  21.411 -99.003  8.9  RAL  3 1.3 0.9LRAL                1
 GAP=338       22.48     116.4   155.0999.9  0.1634E+05 -0.1097E+06 -0.7958E+05E
 ACTION:UPD 13-02-28 14:29 OP:RALL STATUS:               ID:20100801150958     I
 2010-08-01-1509-55S.PLUR1_009                                                 6
 STAT SP IPHASW D HRMM SECON CODA AMPLIT PERI AZIMU VELO AIN AR TRES W  DIS CAZ7
 LG3  SZ E        1510  4.07                   35.9 15.6    -23        30.0 240 
 LG3  SN IP       1510  4.07                             102    0.8010 30.0 240 
 LG3  SE IS       1510  5.15                             102   -1.9210 30.0 240 
 LG3  SZ  AML     1510  6.72       135.9 0.14                          30.0 240 
 LO8  SN IP       1510  6.13                              99    2.0110 35.4 218 
 LO8  SZ E        1510  6.19                  152.2  6.4    114        35.4 218 
 LO8  SE IS       1510  9.14                              99    0.6010 35.4 218 
 LO8  SZ  AML     1510  9.43         3.9 0.18                          35.4 218 
 LD5  SZ E        1510  5.37                  358.6 10.8     54        41.3 233 
 LD5  SN IP       1510  5.41                              97    0.4110 41.3 233 
 LD5  SE IS       1510  8.15                              97   -1.9110 41.3 233 
 LD5  SZ  AML     1510  8.23         3.6 0.44                          41.3 233 
                                                                                
