 2010  8 1 1208 25.8 L  21.294 -99.291 10.0  RAL  1 0.0 1.0LRAL                1
 GAP=360        0.32       8.3     5.0  0.0  0.4149E+02  0.3566E+00  0.1627E+00E
 ACTION:UPD 13-02-28 14:29 OP:RALL STATUS:               ID:20100801120825     I
 2010-08-01-1208-18S.PLUR1_003                                                 6
 STAT SP IPHASW D HRMM SECON CODA AMPLIT PERI AZIMU VELO AIN AR TRES W  DIS CAZ7
 LZ4  SN IP       12 8 27.89                             156    0.0810 4.66  29 
 LZ4  SZ E        12 8 27.89                  209.3 50.9      0        4.66  29 
 LZ4  SE IS       12 8 29.19                             156   -0.0810 4.66  29 
 LZ4  SZ  AML     12 8 29.54        46.8 0.20                          4.66  29 
                                                                                
