 2010  8 1 1335  4.6 L  21.416 -99.297 10.0  RAL  1 0.0 0.0LRAL                1
 GAP=360        0.30       6.1     1.1  0.0 -0.6623E+01  0.3566E+00  0.1627E+00E
 ACTION:UPD 13-02-28 14:29 OP:RALL STATUS:               ID:20100801133504     I
 2010-08-01-1334-58S.PLUR1_003                                                 6
 STAT SP IPHASW D HRMM SECON CODA AMPLIT PERI AZIMU VELO AIN AR TRES W  DIS CAZ7
 LA4  SN IP       1335  6.88                             143    0.0110 7.60 351 
 LA4  SZ E        1335  6.90                  170.5 10.8      0        7.60 351 
 LA4  SE IS       1335  8.49                             143   -0.0110 7.60 351 
 LA4  SZ  AML     1335  9.46         4.1 0.42                          7.60 351 
                                                                                
