 2010  8 1 1433 15.8 L  21.168 -99.129 10.4  RAL  2 0.9 0.0LRAL                1
 GAP=348       12.99      11.1    92.4126.5  0.5795E+03 -0.1042E+04 -0.9165E+02E
 ACTION:UPD 13-02-28 14:29 OP:RALL STATUS:               ID:20100801143315     I
 2010-08-01-1433-10S.PLUR1_006                                                 6
 STAT SP IPHASW D HRMM SECON CODA AMPLIT PERI AZIMU VELO AIN AR TRES W  DIS CAZ7
 LO8  SN IP       1433 19.45                             141    1.2010 8.75 264 
 LO8  SZ E        1433 19.53                  127.3  8.7     43        8.75 264 
 LO8  SE IS       1433 21.39                             141    1.3710 8.75 264 
 LO8  SZ  AML     1433 22.02         2.7 0.10                          8.75 264 
 LD5  SZ E        1433 19.00                   51.4  9.8    -43        19.9 276 
 LD5  SN IP       1433 19.01                             115   -0.6010 19.9 276 
 LD5  SE IS       1433 20.39                             115   -1.9810 19.9 276 
 LD5  SZ  AML     1433 20.49         3.4 0.18                          19.9 276 
                                                                                
