 2010  8 1 1131 16.6 L  21.290 -99.240 10.0  RAL  1 0.0 0.3LRAL                1
 GAP=360        0.31       6.9     4.9  0.0 -0.3357E+02  0.3566E+00  0.1627E+00E
 ACTION:UPD 13-02-28 14:29 OP:RALL STATUS:               ID:20100801113116     I
 2010-08-01-1131-10S.PLUR1_003                                                 6
 STAT SP IPHASW D HRMM SECON CODA AMPLIT PERI AZIMU VELO AIN AR TRES W  DIS CAZ7
 LZ4  SN IP       1131 18.75                             152    0.0610 5.45 326 
 LZ4  SZ E        1131 18.79                  146.4  8.8      0        5.45 326 
 LZ4  SE IS       1131 20.11                             152   -0.0610 5.45 326 
 LZ4  SZ  AML     1131 20.85         9.3 0.36                          5.45 326 
                                                                                
