 2010  8 1 1154 30.0 L  21.412 -99.307 10.0  RAL  1 0.0 0.8LRAL                1
 GAP=360        0.30       6.0     0.3  0.0 -0.1063E+01  0.3566E+00  0.1627E+00E
 ACTION:UPD 13-02-28 14:29 OP:RALL STATUS:               ID:20100801115430     I
 2010-08-01-1154-23S.PLUR1_003                                                 6
 STAT SP IPHASW D HRMM SECON CODA AMPLIT PERI AZIMU VELO AIN AR TRES W  DIS CAZ7
 LA4  SZ E        1154 32.18                  178.4  8.8      0        7.96 358 
 LA4  SN IP       1154 32.22                             142    0.0010 7.96 358 
 LA4  SE IS       1154 33.87                             142    0.0010 7.96 358 
 LA4  SZ  AML     1154 34.73        30.8 0.22                          7.96 358 
                                                                                
