 2010  8 1 1959 40.5 L  21.268 -99.263 10.0  RAL  1 0.3 0.7LRAL                1
 GAP=360        3.42     999.9   999.9  0.0 -0.5180E+08  0.2629E+03 -0.2338E+03E
 ACTION:UPD 13-02-28 14:29 OP:RALL STATUS:               ID:20100801195940     I
 2010-08-01-1959-34S.PLUR1_003                                                 6
 STAT SP IPHASW D HRMM SECON CODA AMPLIT PERI AZIMU VELO AIN AR TRES W  DIS CAZ7
 LG3  SN IP       1959 42.74                             173    0.3710 1.34  53 
 LG3  SZ E        1959 42.78                  248.6 17.3     16        1.34  53 
 LG3  SE IS       1959 43.36                             173   -0.3710 1.34  53 
 LG3  SZ  AML     1959 43.75        30.4 0.40                          1.34  53 
                                                                                
