 2010  8 1 1245 20.1 L  21.102 -99.141 10.0  RAL  1 0.0 0.7LRAL                1
 GAP=360        0.30       3.5     4.3  0.0 -0.1492E+02  0.3566E+00  0.1627E+00E
 ACTION:UPD 13-02-28 14:29 OP:RALL STATUS:               ID:20100801124520     I
 2010-08-01-1245-12S.PLUR1_009                                                 6
 STAT SP IPHASW D HRMM SECON CODA AMPLIT PERI AZIMU VELO AIN AR TRES W  DIS CAZ7
 LO8  SN IP       1245 22.65                             136    0.0210 9.89 311 
 LO8  SZ E        1245 22.74                  130.5  9.5      0        9.89 311 
 LO8  SE IS       1245 24.44                             136   -0.0210 9.89 311 
 LO8  SZ  AML     1245 24.92        20.6 0.30                          9.89 311 
                                                                                
