 2010  8 1 1727 27.7 L  21.286 -99.273 10.0  RAL  1 0.2 0.5LRAL                1
 GAP=360        0.66      17.3    33.9  0.0 -0.5850E+03 -0.1097E+06 -0.7958E+05E
 ACTION:UPD 13-02-28 14:29 OP:RALL STATUS:               ID:20100801172727     I
 2010-08-01-1727-20S.PLUR1_003                                                 6
 STAT SP IPHASW D HRMM SECON CODA AMPLIT PERI AZIMU VELO AIN AR TRES W  DIS CAZ7
 LG3  SZ E        1727 29.91                  298.6  8.1      0        2.46 119 
 LG3  SN IP       1727 29.96                             167    0.4010 2.46 119 
 LG3  SE IS       1727 30.54                             167   -0.4010 2.46 119 
 LG3  SZ  AML     1727 31.16        16.9 0.24                          2.46 119 
                                                                                
