 2010  8 1 1107 11.5 L  21.333 -99.282 10.0  RAL  1 0.3 0.9LRAL                1
 GAP=360        3.09     430.3   416.7  0.0  0.1793E+06 -0.1646E+03  0.3709E+02E
 ACTION:UPD 13-02-28 14:29 OP:RALL STATUS:               ID:20100801110711     I
 2010-08-01-1107-04S.PLUR1_009                                                 6
 STAT SP IPHASW D HRMM SECON CODA AMPLIT PERI AZIMU VELO AIN AR TRES W  DIS CAZ7
 LZ4  SZ E        11 7 13.62                  265.4  8.8    -14        1.30 100 
 LZ4  SN IP       11 7 13.64                             173    0.2910 1.30 100 
 LZ4  SE IS       11 7 14.40                             173   -0.2910 1.30 100 
 LZ4  SZ  AML     11 7 14.52        39.8 0.16                          1.30 100 
                                                                                
