 2010  8 1 1253 23.9 L  21.201 -99.357 10.0  RAL  1 0.0-0.2LRAL                1
 GAP=360        0.31       4.1    10.3  0.0 -0.4232E+02  0.3566E+00  0.1627E+00E
 ACTION:UPD 13-02-28 14:29 OP:RALL STATUS:               ID:20100801125323     I
 2010-08-01-1253-17S.PLUR1_003                                                 6
 STAT SP IPHASW D HRMM SECON CODA AMPLIT PERI AZIMU VELO AIN AR TRES W  DIS CAZ7
 LD5  SZ E        1253 25.90                  293.2 16.0      0        4.12 113 
 LD5  SN IP       1253 25.91                             158    0.0710 4.12 113 
 LD5  SE IS       1253 27.20                             158   -0.0710 4.12 113 
 LD5  SZ  AML     1253 28.33         3.7 0.26                          4.12 113 
                                                                                
