 2010  8 1 2339  3.9 L  21.498 -99.317 10.0  RAL  1 0.2-0.1LRAL                1
 GAP=360        0.68      45.4    24.6  0.0 -0.1116E+04 -0.5630E+01 -0.9325E+01E
 ACTION:UPD 13-02-28 14:29 OP:RALL STATUS:               ID:20100801233903     I
 2010-08-01-2338-57S.PLUR1_003                                                 6
 STAT SP IPHASW D HRMM SECON CODA AMPLIT PERI AZIMU VELO AIN AR TRES W  DIS CAZ7
 LA4  SN IP       2339  6.17                             170    0.4210 1.77 153 
 LA4  SZ E        2339  6.18                  333.2  9.8      0        1.77 153 
 LA4  SE IS       2339  6.70                             170   -0.4210 1.77 153 
 LA4  SZ  AML     2339  7.23         4.5 0.20                          1.77 153 
                                                                                
