 2010  8 1 2005 45.0 L  21.500 -99.324 10.0  RAL  1 0.1 0.0LRAL                1
 GAP=360        0.64      26.8    25.3  0.0 -0.6788E+03  0.2629E+03 -0.2338E+03E
 ACTION:UPD 13-02-28 14:29 OP:RALL STATUS:               ID:20100801200545     I
 2010-08-01-2005-38S.PLUR1_003                                                 6
 STAT SP IPHASW D HRMM SECON CODA AMPLIT PERI AZIMU VELO AIN AR TRES W  DIS CAZ7
 LA4  SN IP       20 5 47.31                             167    0.3810 2.38 139 
 LA4  SZ E        20 5 47.32                  318.7  9.4      0        2.38 139 
 LA4  SE IS       20 5 47.92                             167   -0.3810 2.38 139 
 LA4  SZ  AML     20 5 48.15         4.9 0.22                          2.38 139 
                                                                                
