 2010  8 1 2050 59.7 L  21.388 -99.254 10.0  RAL  1 0.0 0.4LRAL                1
 GAP=360        0.30       4.2     2.4  0.0 -0.1013E+02  0.2629E+03 -0.2338E+03E
 ACTION:UPD 13-02-28 14:29 OP:RALL STATUS:               ID:20100801205059     I
 2010-08-01-2050-54S.PLUR1_003                                                 6
 STAT SP IPHASW D HRMM SECON CODA AMPLIT PERI AZIMU VELO AIN AR TRES W  DIS CAZ7
 LA4  SZ E        2051  2.39                  151.6  9.8      0        12.0 332 
 LA4  SN IP       2051  2.43                             129    0.0210 12.0 332 
 LA4  SE IS       2051  4.38                             129   -0.0210 12.0 332 
 LA4  SZ  AML     2051  4.58         8.8 0.14                          12.0 332 
                                                                                
