 2010  8 1 2021 18.8 L  21.265 -99.274 10.0  RAL  1 0.2 1.3LRAL                1
 GAP=360        0.69      17.9    34.5  0.0  0.6197E+03  0.2629E+03 -0.2338E+03E
 ACTION:UPD 13-02-28 14:29 OP:RALL STATUS:               ID:20100801202118     I
 2010-08-01-2021-11S.PLUR1_003                                                 6
 STAT SP IPHASW D HRMM SECON CODA AMPLIT PERI AZIMU VELO AIN AR TRES W  DIS CAZ7
 LG3  SZ E        2021 21.13                  240.9 17.8      0        2.51  61 
 LG3  SN IP       2021 21.15                             166    0.4210 2.51  61 
 LG3  SE IS       2021 21.69                             166   -0.4210 2.51  61 
 LG3  SZ  AML     2021 21.99       110.7 0.20                          2.51  61 
                                                                                
