 2010  8 1 2105 51.7 L  21.232 -99.298 10.0  RAL  2 0.3 0.5LRAL                1
 GAP=200        2.82       4.8     3.1 28.4  0.1322E+02 -0.5630E+01 -0.9325E+01E
 ACTION:UPD 13-02-28 14:29 OP:RALL STATUS:               ID:20100801210551     I
 2010-08-01-2105-23S.PLUR1_006                                                 6
 STAT SP IPHASW D HRMM SECON CODA AMPLIT PERI AZIMU VELO AIN AR TRES W  DIS CAZ7
 LD5  SZ E        21 5 54.38                   16.6 10.0     -7        5.56 204 
 LD5  SN IP       21 5 54.44                             155    0.6710 5.56 204 
 LD5  SE IS       21 5 56.14                             155    0.8810 5.56 204 
 LD5  SZ  AML     21 5 56.38         4.3 0.22                          5.56 204 
 LG3  SZ E        21 5 53.43                  216.7 49.5     -7        6.75  44 
 LG3  SN IP       21 5 53.49                             144   -0.3910 6.75  44 
 LG3  SE IS       21 5 54.31                             144   -1.1510 6.75  44 
 LG3  SZ  AML     21 5 55.61        62.7 0.20                          6.75  44 
                                                                                
