 2010  8 1 2047 14.2 L  21.291 -99.253 10.0  RAL  1 0.2 0.8LRAL                1
 GAP=360        1.20      70.5   416.4  0.0 -0.2935E+05  0.2629E+03 -0.2338E+03E
 ACTION:UPD 13-02-28 14:29 OP:RALL STATUS:               ID:20100801204714     I
 2010-08-01-2047-07S.PLUR1_003                                                 6
 STAT SP IPHASW D HRMM SECON CODA AMPLIT PERI AZIMU VELO AIN AR TRES W  DIS CAZ7
 LG3  SZ E        2047 16.55                  352.5  6.7     -3        1.74 177 
 LG3  SN IP       2047 16.57                             171    0.4710 1.74 177 
 LG3  SE IS       2047 17.00                             171   -0.4710 1.74 177 
 LG3  SZ  AML     2047 17.12        32.4 0.10                          1.74 177 
                                                                                
