 2010  8 1 2231 28.3 L  21.368 -99.278 10.0  RAL  1 0.0 0.6LRAL                1
 GAP=360        0.30       4.4     1.2  0.0 -0.5251E+01 -0.5630E+01 -0.9325E+01E
 ACTION:UPD 13-02-28 14:29 OP:RALL STATUS:               ID:20100801223128     I
 2010-08-01-2231-21S.PLUR1_003                                                 6
 STAT SP IPHASW D HRMM SECON CODA AMPLIT PERI AZIMU VELO AIN AR TRES W  DIS CAZ7
 LA4  SZ E        2231 31.16                  165.9  8.0      0        13.2 346 
 LA4  SN IP       2231 31.16                             126    0.0010 13.2 346 
 LA4  SZ  AML     2231 32.95        15.0 0.42                          13.2 346 
 LA4  SE IS       2231 33.24                             126    0.0010 13.2 346 
                                                                                
