 2010  8 2  639 40.9 L                       RAL  1                            1
 ACTION:UPD 13-02-28 14:29 OP:RALL STATUS:               ID:20100802063940     I
 2010-08-02-0639-40S.PLUR1_003                                                 6
 STAT SP IPHASW D HRMM SECON CODA AMPLIT PERI AZIMU VELO AIN AR TRES W  DIS CAZ7
 LA4  SZ E         639 50.57                  285.3 15.7                        
 LA4  SE IS        639 51.00                                                    
 LA4  SN IP        639 51.01                                                    
 LA4  SZ  AML      639 51.11        31.6 0.20                                   
                                                                                
