 2010  8 2 0422 10.3 L  21.333 -99.278 10.0  RAL  1 0.1 1.1LRAL                1
 GAP=360        0.87     999.9   592.7  0.0  0.8246E+06  0.1278E+03  0.1015E+03E
 ACTION:UPD 13-02-28 14:29 OP:RALL STATUS:               ID:20100802042210     I
 2010-08-02-0422-03S.PLUR1_006                                                 6
 STAT SP IPHASW D HRMM SECON CODA AMPLIT PERI AZIMU VELO AIN AR TRES W  DIS CAZ7
 LZ4  SZ E         422 12.42                  289.8 20.1      3        0.88 107 
 LZ4  SN IP        422 12.47                             175    0.3510 0.88 107 
 LZ4  SE IS        422 13.12                             175   -0.3510 0.88 107 
 LZ4  SZ  AML      422 13.57        69.6 0.14                          0.88 107 
                                                                                
