 2010  8 2 0229  6.3 L  21.304 -99.207 10.0  RAL  1 0.0 1.7LRAL                1
 GAP=360        0.30       2.6     6.3  0.0 -0.1659E+02  0.1278E+03  0.1015E+03E
 ACTION:UPD 13-02-28 14:29 OP:RALL STATUS:               ID:20100802022906     I
 2010-08-02-0228-56S.PLUR1_003                                                 6
 STAT SP IPHASW D HRMM SECON CODA AMPLIT PERI AZIMU VELO AIN AR TRES W  DIS CAZ7
 LZ4  SZ E         229  8.52                  114.1 13.4      0        7.15 294 
 LZ4  SN IP        229  8.52                             145    0.0310 7.15 294 
 LZ4  SE IS        229 10.06                             145   -0.0310 7.15 294 
 LZ4  SZ  AML      229 10.37       245.8 0.34                          7.15 294 
                                                                                
