 2010  8 2 0551 16.0 L  21.327 -99.280 10.0  RAL  1 0.3 0.9LRAL                1
 GAP=360        3.70     999.9   880.0  0.0 -0.9657E+06  0.1278E+03  0.1015E+03E
 ACTION:UPD 13-02-28 14:29 OP:RALL STATUS:               ID:20100802055116     I
 2010-08-02-0551-08S.PLUR1_003                                                 6
 STAT SP IPHASW D HRMM SECON CODA AMPLIT PERI AZIMU VELO AIN AR TRES W  DIS CAZ7
 LZ4  SZ E         551 18.08                  268.1 36.2     17        1.17  71 
 LZ4  SN IP        551 18.17                             174    0.3510 1.17  71 
 LZ4  SE IS        551 18.81                             174   -0.3510 1.17  71 
 LZ4  SZ  AML      551 19.25        46.8 0.34                          1.17  71 
                                                                                
