 2010  8 2 0400  0.6 L  21.268 -99.234 10.0  RAL  1 0.1 0.3LRAL                1
 GAP=360        0.51      13.3    30.8  0.0 -0.4108E+03  0.1278E+03  0.1015E+03E
 ACTION:UPD 13-02-28 14:29 OP:RALL STATUS:               ID:20100802040000     I
 2010-08-02-0359-53S.PLUR1_003                                                 6
 STAT SP IPHASW D HRMM SECON CODA AMPLIT PERI AZIMU VELO AIN AR TRES W  DIS CAZ7
 LG3  SZ E         4 0  2.49                  114.9 26.5      0        2.12 295 
 LG3  SN IP        4 0  2.79                             168    0.2810 2.12 295 
 LG3  SE IS        4 0  3.61                             168   -0.2810 2.12 295 
 LG3  SZ  AML      4 0  3.70        12.2 0.18                          2.12 295 
                                                                                
