 2010  8 2 0322 56.3 L  21.347 -99.276 10.0  RAL  1 0.2 1.2LRAL                1
 GAP=360        0.80      51.6    20.3  0.0 -0.1047E+04  0.1278E+03  0.1015E+03E
 ACTION:UPD 13-02-28 14:29 OP:RALL STATUS:               ID:20100802032256     I
 2010-08-02-0322-05S.PLUR1_006                                                 6
 STAT SP IPHASW D HRMM SECON CODA AMPLIT PERI AZIMU VELO AIN AR TRES W  DIS CAZ7
 LZ4  SZ E         322 58.54                  337.9 29.5     -1        1.91 160 
 LZ4  SN IP        322 58.58                             170    0.4210 1.91 160 
 LZ4  SE IS        322 59.10                             170   -0.4210 1.91 160 
 LZ4  SZ  AML      322 59.71        79.3 0.12                          1.91 160 
                                                                                
