 2010  8 2 0154 55.9 L  21.337 -99.284 10.0  RAL  1 0.1 0.8LRAL                1
 GAP=360        0.64     999.9   765.8  0.0  0.1070E+07  0.1867E+03 -0.1628E+03E
 ACTION:UPD 13-02-28 14:29 OP:RALL STATUS:               ID:20100802015455     I
 2010-08-02-0154-49S.PLUR1_003                                                 6
 STAT SP IPHASW D HRMM SECON CODA AMPLIT PERI AZIMU VELO AIN AR TRES W  DIS CAZ7
 LZ4  SZ E         154 58.18                  295.3 21.9      0        1.67 115 
 LZ4  SN IP        154 58.18                             171    0.3910 1.67 115 
 LZ4  SE IS        154 58.76                             171   -0.3910 1.67 115 
 LZ4  SZ  AML      154 58.87        34.9 0.14                          1.67 115 
                                                                                
