 2010  8 2 0519 52.0 L  21.240 -99.296 10.0  RAL  1 0.0 0.5LRAL                1
 GAP=360        0.30       6.4     2.9  0.0  0.1859E+02  0.1278E+03  0.1015E+03E
 ACTION:UPD 13-02-28 14:29 OP:RALL STATUS:               ID:20100802051952     I
 2010-08-02-0517-32S.PLUR1_012                                                 6
 STAT SP IPHASW D HRMM SECON CODA AMPLIT PERI AZIMU VELO AIN AR TRES W  DIS CAZ7
 LD5  SZ E         519 54.11                   23.2 10.0      0        6.43 203 
 LD5  SN IP        519 54.13                             148    0.0210 6.43 203 
 LD5  SE IS        519 55.64                             148   -0.0210 6.43 203 
 LD5  SZ  AML      519 55.94        16.0 0.62                          6.43 203 
                                                                                
