 2010  8 2 0932 36.2 L  21.291 -99.257 10.0  RAL  1 0.1 0.7LRAL                1
 GAP=360        1.08     999.9   999.9  0.0  0.5646E+07 -0.4581E+04 -0.6527E+05E
 ACTION:UPD 13-02-28 14:29 OP:RALL STATUS:               ID:20100802093236     I
 2010-08-02-0932-28S.PLUR1_003                                                 6
 STAT SP IPHASW D HRMM SECON CODA AMPLIT PERI AZIMU VELO AIN AR TRES W  DIS CAZ7
 LG3  SN IP        932 38.32                             170    0.2610 1.78 165 
 LG3  SZ E         932 38.35                  340.5 18.0     -4        1.78 165 
 LG3  SE IS        932 39.17                             170   -0.2610 1.78 165 
 LG3  SZ  AML      932 39.19        26.8 0.10                          1.78 165 
                                                                                
