 2010  8 2 0456 46.5 L  21.239 -99.304 10.0  RAL  1 0.0 0.4LRAL                1
 GAP=360        0.30       6.9     2.1  0.0  0.1468E+02  0.1278E+03  0.1015E+03E
 ACTION:UPD 13-02-28 14:29 OP:RALL STATUS:               ID:20100802045646     I
 2010-08-02-0456-38S.PLUR1_012                                                 6
 STAT SP IPHASW D HRMM SECON CODA AMPLIT PERI AZIMU VELO AIN AR TRES W  DIS CAZ7
 LD5  SN IP        456 48.60                             149    0.0210 6.10 196 
 LD5  SZ E         456 48.61                   15.9  8.4      0        6.10 196 
 LD5  SE IS        456 50.09                             149   -0.0210 6.10 196 
 LD5  SZ  AML      456 50.53        13.6 0.14                          6.10 196 
                                                                                
