 2010  8 2 0026  5.0 L  21.400 -99.296 10.0  RAL  1 0.0 0.4LRAL                1
 GAP=360        0.30       5.3     0.9  0.0 -0.4563E+01 -0.5630E+01 -0.9325E+01E
 ACTION:UPD 13-02-28 14:29 OP:RALL STATUS:               ID:20100802002605     I
 2010-08-02-0025-59S.PLUR1_003                                                 6
 STAT SP IPHASW D HRMM SECON CODA AMPLIT PERI AZIMU VELO AIN AR TRES W  DIS CAZ7
 LA4  SZ E         026  7.37                  171.5  9.0      0        9.37 352 
 LA4  SN IP        026  7.38                             137    0.0010 9.37 352 
 LA4  SE IS        026  9.13                             137    0.0010 9.37 352 
 LA4  SZ  AML      026  9.25         9.9 0.12                          9.37 352 
                                                                                
