 2010  8 2 0634 44.2 L  21.256 -99.267 10.0  RAL  1 0.2 0.8LRAL                1
 GAP=360        0.66      27.3    20.4  0.0  0.5576E+03  0.1742E+05  0.5561E+06E
 ACTION:UPD 13-02-28 14:29 OP:RALL STATUS:               ID:20100802063444     I
 2010-08-02-0634-25S.PLUR1_003                                                 6
 STAT SP IPHASW D HRMM SECON CODA AMPLIT PERI AZIMU VELO AIN AR TRES W  DIS CAZ7
 LG3  SN IP        634 46.47                             166    0.4010 2.66  35 
 LG3  SZ E         634 46.48                  214.9 21.2      0        2.66  35 
 LG3  SE IS        634 47.06                             166   -0.4010 2.66  35 
 LG3  SZ  AML      634 47.14        36.3 0.10                          2.66  35 
                                                                                
