 2010  8 2 0707 30.6 L  21.267 -99.273 10.0  RAL  1 0.1 0.5LRAL                1
 GAP=360        0.50      12.4    28.1  0.0  0.3485E+03  0.6053E+03  0.7817E+03E
 ACTION:UPD 13-02-28 14:29 OP:RALL STATUS:               ID:20100802070730     I
 2010-08-02-0707-24S.PLUR1_003                                                 6
 STAT SP IPHASW D HRMM SECON CODA AMPLIT PERI AZIMU VELO AIN AR TRES W  DIS CAZ7
 LG3  SN IP        7 7 32.80                             167    0.2710 2.31  65 
 LG3  SZ E         7 7 32.90                  244.7 17.8      0        2.31  65 
 LG3  SE IS        7 7 33.63                             167   -0.2710 2.31  65 
 LG3  SZ  AML      7 7 33.82        18.6 0.20                          2.31  65 
                                                                                
