 2010  8 2 0526 20.6 L  21.266 -99.271 10.0  RAL  1 0.2 1.2LRAL                1
 GAP=360        0.69      20.6    39.9  0.0  0.8199E+03  0.1278E+03  0.1015E+03E
 ACTION:UPD 13-02-28 14:29 OP:RALL STATUS:               ID:20100802052620     I
 2010-08-02-0526-13S.PLUR1_003                                                 6
 STAT SP IPHASW D HRMM SECON CODA AMPLIT PERI AZIMU VELO AIN AR TRES W  DIS CAZ7
 LG3  SZ E         526 22.85                  241.1 21.5      0        2.14  61 
 LG3  SN IP        526 22.87                             168    0.4210 2.14  61 
 LG3  SE IS        526 23.41                             168   -0.4210 2.14  61 
 LG3  SZ  AML      526 23.47        79.1 0.38                          2.14  61 
                                                                                
