 2010  8 2 0145 14.4 L  21.152 -99.208 10.0  RAL  3 0.9 0.5LRAL                1
 GAP=307       13.45      17.1    21.0 92.9 -0.2002E+03  0.1867E+03 -0.1628E+03E
 ACTION:UPD 13-02-28 14:29 OP:RALL STATUS:               ID:20100802014514     I
 2010-08-02-0145-07S.PLUR1_009                                                 6
 STAT SP IPHASW D HRMM SECON CODA AMPLIT PERI AZIMU VELO AIN AR TRES W  DIS CAZ7
 LO8  SN IP        145 17.78                             174    1.5210 1.05 328 
 LO8  SZ E         145 17.80                  137.6  5.3     -9        1.05 328 
 LO8  SE IS        145 19.61                             174    1.9710 1.05 328 
 LO8  SZ  AML      145 19.98         4.6 0.30                          1.05 328 
 LD5  SZ E         145 17.12                   72.2 10.3    -35        12.3 288 
 LD5  SN IP        145 17.25                             128    0.1510 12.3 288 
 LD5  SE IS        145 18.70                             128   -0.3910 12.3 288 
 LD5  SZ  AML      145 18.81         6.4 0.10                          12.3 288 
 LG3  SN IP        145 16.56                             123   -0.8310 14.5 341 
 LG3  SZ E         145 16.57                  226.9 11.8     66        14.5 341 
 LG3  SE IS        145 17.18                             123   -2.4210 14.5 341 
 LG3  SZ  AML      145 17.47        74.5 0.20                          14.5 341 
                                                                                
