 2010  8 2 0630 39.2 L  21.335 -99.283 10.0  RAL  1 0.2 0.7LRAL                1
 GAP=360        1.59     337.9   278.7  0.0  0.9417E+05  0.1742E+05  0.5561E+06E
 ACTION:UPD 13-02-28 14:29 OP:RALL STATUS:               ID:20100802063039     I
 2010-08-02-0630-32S.PLUR1_003                                                 6
 STAT SP IPHASW D HRMM SECON CODA AMPLIT PERI AZIMU VELO AIN AR TRES W  DIS CAZ7
 LZ4  SZ E         630 41.47                  281.7 30.5     -6        1.48 108 
 LZ4  SN IP        630 41.47                             172    0.4410 1.48 108 
 LZ4  SE IS        630 41.93                             172   -0.4410 1.48 108 
 LZ4  SZ  AML      630 42.22        30.4 0.18                          1.48 108 
                                                                                
