 2010  8 2 0342 30.7 L  21.382 -99.339 10.0  RAL  1 0.0 0.9LRAL                1
 GAP=360        0.30       4.6     1.4  0.0  0.6294E+01  0.1278E+03  0.1015E+03E
 ACTION:UPD 13-02-28 14:29 OP:RALL STATUS:               ID:20100802034230     I
 2010-08-02-0340-06S.PLUR1_009                                                 6
 STAT SP IPHASW D HRMM SECON CODA AMPLIT PERI AZIMU VELO AIN AR TRES W  DIS CAZ7
 LA4  SZ E         342 33.39                  195.3  8.9      0        11.7  15 
 LA4  SN IP        342 33.40                             130    0.0110 11.7  15 
 LA4  SE IS        342 35.34                             130   -0.0110 11.7  15 
 LA4  SZ  AML      342 35.76        28.6 0.10                          11.7  15 
                                                                                
