 2010  8 2 0616 36.8 L  21.288 -99.274 10.0  RAL  1 0.2 0.5LRAL                1
 GAP=360        0.70      18.5    32.9  0.0 -0.6080E+03  0.1742E+05  0.5561E+06E
 ACTION:UPD 13-02-28 14:29 OP:RALL STATUS:               ID:20100802061636     I
 2010-08-02-0616-29S.PLUR1_003                                                 6
 STAT SP IPHASW D HRMM SECON CODA AMPLIT PERI AZIMU VELO AIN AR TRES W  DIS CAZ7
 LG3  SZ E         616 39.13                  301.1 23.6      0        2.62 121 
 LG3  SN IP        616 39.15                             166    0.4310 2.62 121 
 LG3  SE IS        616 39.68                             166   -0.4310 2.62 121 
 LG3  SZ  AML      616 39.75        17.2 0.10                          2.62 121 
                                                                                
