 2010  8 2 0218 47.1 L  21.274 -99.255 10.0  RAL  3 1.4 0.5LRAL                1
 GAP=206       26.39      13.0    25.8185.1  0.1889E+03  0.1278E+03  0.1015E+03E
 ACTION:UPD 13-02-28 14:29 OP:RALL STATUS:               ID:20100802021847     I
 2010-08-02-0218-39S.PLUR1_009                                                 6
 STAT SP IPHASW D HRMM SECON CODA AMPLIT PERI AZIMU VELO AIN AR TRES W  DIS CAZ7
 LG3  SZ E         218 49.12                  253.9 25.4     13        0.32  61 
 LG3  SN IP        218 49.16                             178    0.2110 0.32  61 
 LG3  SE IS        218 50.08                             178   -0.2210 0.32  61 
 LG3  SZ  AML      218 50.46       123.2 0.28                          0.32  61 
 LD5  SZ E         218 49.66                   19.9  8.8    -14        11.8 215 
 LD5  SN IP        218 49.70                             129   -0.0710 11.8 215 
 LD5  SE IS        218 51.08                             129   -0.6510 11.8 215 
 LD5  SZ  AML      218 51.67         7.4 0.28                          11.8 215 
 LO8  SN EP        218 50.42                             126    0.4110 13.4 161 
 LO8  SZ E         218 50.55                  132.1  7.0    151        13.4 161 
 LO8  SE IS        218 52.46                             126    0.3210 13.4 161 
 LO8  SZ  AML      218 53.21         2.5 0.10                          13.4 161 
                                                                                
