 2010  8 2 0713 40.9 L  21.443 -99.246 10.0  RAL  3 1.7 0.9LRAL                1
 GAP=339       31.16     215.9    45.2640.6  0.3214E+04 -0.4581E+04 -0.6527E+05E
 ACTION:UPD 13-02-28 14:29 OP:RALL STATUS:               ID:20100802071340     I
 2010-08-02-0713-19S.PLUR1_012                                                 6
 STAT SP IPHASW D HRMM SECON CODA AMPLIT PERI AZIMU VELO AIN AR TRES W  DIS CAZ7
 LG3  SZ E         713 45.66                  270.1 20.4     92        18.6 182 
 LG3  SN IP        713 45.68                             111    1.2510 18.6 182 
 LG3  SE IS        713 46.19                             111   -0.8610 18.6 182 
 LG3  SZ  AML      713 46.84       382.9 0.10                          18.6 182 
 LD5  SZ E         713 46.81                   56.8 10.5     42        29.5 195 
 LD5  SN IP        713 46.90                             102    0.8910 29.5 195 
 LD5  SE IS        713 48.46                             102   -1.3210 29.5 195 
 LD5  SZ  AML      713 48.68         3.5 0.26                          29.5 195 
 LO8  SN IP        713 47.22                             101    0.8610 31.6 174 
 LO8  SZ E         713 47.24                  142.3  5.7    149        31.6 174 
 LO8  SE IS        713 49.58                             101   -0.8110 31.6 174 
 LO8  SZ  AML      713 49.79         3.0 0.18                          31.6 174 
                                                                                
