 2010  8 2 0159 59.1 L  21.278 -99.275 10.0  RAL  1 0.2 0.7LRAL                1
 GAP=360        0.81       6.2    49.5  0.0 -0.3088E+03  0.1867E+03 -0.1628E+03E
 ACTION:UPD 13-02-28 14:29 OP:RALL STATUS:               ID:20100802015959     I
 2010-08-02-0159-52S.PLUR1_003                                                 6
 STAT SP IPHASW D HRMM SECON CODA AMPLIT PERI AZIMU VELO AIN AR TRES W  DIS CAZ7
 LG3  SZ E         2 0  1.37                  275.6 18.5     -1        2.31  98 
 LG3  SN IP        2 0  1.43                             168    0.4110 2.31  98 
 LG3  SE IS        2 0  1.99                             168   -0.4110 2.31  98 
 LG3  SZ  AML      2 0  2.10        26.3 0.34                          2.31  98 
                                                                                
