 2010  8 2 0652 18.4 L  21.256 -99.275 10.0  RAL  1 0.1 0.1LRAL                1
 GAP=360        0.55      16.3    18.8  0.0  0.3062E+03  0.1742E+05  0.5561E+06E
 ACTION:UPD 13-02-28 14:29 OP:RALL STATUS:               ID:20100802065218     I
 2010-08-02-0652-12S.PLUR1_003                                                 6
 STAT SP IPHASW D HRMM SECON CODA AMPLIT PERI AZIMU VELO AIN AR TRES W  DIS CAZ7
 LG3  SN IP        652 20.59                             163    0.3210 3.14  47 
 LG3  SZ E         652 20.59                  227.2 13.9      0        3.14  47 
 LG3  SE IS        652 21.36                             163   -0.3210 3.14  47 
 LG3  SZ  AML      652 21.63         7.6 0.28                          3.14  47 
                                                                                
