 2010  8 2 0701 49.8 L  21.275 -99.260 10.0  RAL  2 0.4 0.4LRAL                1
 GAP=236        7.71      29.8    23.8 68.9  0.6424E+03  0.6053E+03  0.7817E+03E
 ACTION:UPD 13-02-28 14:29 OP:RALL STATUS:               ID:20100802070149     I
 2010-08-02-0701-36S.PLUR1_009                                                 6
 STAT SP IPHASW D HRMM SECON CODA AMPLIT PERI AZIMU VELO AIN AR TRES W  DIS CAZ7
 LG3  SN IP        7 1 51.94                             176    0.3210 0.73  88 
 LG3  SZ E         7 1 51.95                  291.6 19.9     23        0.73  88 
 LG3  SE IS        7 1 52.62                             176   -0.3610 0.73  88 
 LG3  SZ  AML      7 1 52.78        59.2 0.10                          0.73  88 
 LD5  SN IP        7 1 52.74                             130    0.3110 11.7 213 
 LD5  SZ E         7 1 52.85                   62.0 11.7     29        11.7 213 
 LD5  SE IS        7 1 54.10                             130   -0.2710 11.7 213 
 LD5  SZ  AML      7 1 54.30         2.7 0.10                          11.7 213 
                                                                                
