 2010  8 2 0407 37.4 L  21.346 -99.293 10.0  RAL  1 0.1 0.5LRAL                1
 GAP=360        0.48      12.3    19.1  0.0 -0.2338E+03  0.1278E+03  0.1015E+03E
 ACTION:UPD 13-02-28 14:29 OP:RALL STATUS:               ID:20100802040737     I
 2010-08-02-0407-31S.PLUR1_003                                                 6
 STAT SP IPHASW D HRMM SECON CODA AMPLIT PERI AZIMU VELO AIN AR TRES W  DIS CAZ7
 LZ4  SZ E         4 7 39.53                  304.6 19.4      0        2.98 125 
 LZ4  SN IP        4 7 39.55                             164    0.2610 2.98 125 
 LZ4  SE IS        4 7 40.42                             164   -0.2610 2.98 125 
 LZ4  SZ  AML      4 7 41.20        18.7 0.16                          2.98 125 
                                                                                
