 2010  8 2 0830 50.1 L  21.298 -99.243 10.0  RAL  1 0.0 1.9LRAL                1
 GAP=360        0.34       8.4     6.8  0.0 -0.5695E+02 -0.4581E+04 -0.6527E+05E
 ACTION:UPD 13-02-28 14:29 OP:RALL STATUS:               ID:20100802083050     I
 2010-08-02-0830-42S.PLUR1_003                                                 6
 STAT SP IPHASW D HRMM SECON CODA AMPLIT PERI AZIMU VELO AIN AR TRES W  DIS CAZ7
 LZ4  SN IP        830 52.16                             156    0.1110 4.50 323 
 LZ4  SZ E         830 52.22                  143.0 10.3      0        4.50 323 
 LZ4  SE IS        830 53.38                             156   -0.1110 4.50 323 
 LZ4  SZ  AML      830 54.11       400.0 0.20                          4.50 323 
                                                                                
