 2010  8 2 0904 39.3 L  21.254 -99.268 10.0  RAL  1 0.1 0.7LRAL                1
 GAP=360        0.57      21.8    15.8  0.0  0.3439E+03 -0.4581E+04 -0.6527E+05E
 ACTION:UPD 13-02-28 14:29 OP:RALL STATUS:               ID:20100802090439     I
 2010-08-02-0904-32S.PLUR1_003                                                 6
 STAT SP IPHASW D HRMM SECON CODA AMPLIT PERI AZIMU VELO AIN AR TRES W  DIS CAZ7
 LG3  SN IP        9 4 41.59                             164    0.3310 2.92  34 
 LG3  SZ E         9 4 41.77                  214.1 14.2      0        2.92  34 
 LG3  SE IS        9 4 42.33                             164   -0.3310 2.92  34 
 LG3  SZ  AML      9 4 42.46        24.8 0.44                          2.92  34 
                                                                                
