 2010  8 2 0733 24.8 L  21.409 -99.367 10.0  RAL  1 0.0 0.0LRAL                1
 GAP=360        0.30       4.2     3.3  0.0  0.1355E+02 -0.4581E+04 -0.6527E+05E
 ACTION:UPD 13-02-28 14:29 OP:RALL STATUS:               ID:20100802073324     I
 2010-08-02-0733-19S.PLUR1_003                                                 6
 STAT SP IPHASW D HRMM SECON CODA AMPLIT PERI AZIMU VELO AIN AR TRES W  DIS CAZ7
 LA4  SN IP        733 27.29                             134    0.0110 10.2  36 
 LA4  SZ E         733 27.32                  216.2 11.1      0        10.2  36 
 LA4  SE IS        733 29.09                             134   -0.0110 10.2  36 
 LA4  SZ  AML      733 30.45         4.0 0.30                          10.2  36 
                                                                                
