 2010  8 2 0822 13.9 L  21.368 -99.327 10.0  RAL  1 0.0 1.0LRAL                1
 GAP=360        0.30       4.6     0.8  0.0  0.3264E+01 -0.4581E+04 -0.6527E+05E
 ACTION:UPD 13-02-28 14:29 OP:RALL STATUS:               ID:20100802082213     I
 2010-08-02-0822-06S.PLUR1_009                                                 6
 STAT SP IPHASW D HRMM SECON CODA AMPLIT PERI AZIMU VELO AIN AR TRES W  DIS CAZ7
 LA4  SN IP        822 16.75                             127    0.0010 12.9   8 
 LA4  SZ E         822 16.76                  188.4  7.9      0        12.9   8 
 LA4  SE IS        822 18.81                             127    0.0010 12.9   8 
 LA4  SZ  AML      822 20.76        34.4 0.52                          12.9   8 
                                                                                
