 2010  8 2 0923 54.3 L  21.256 -99.265 10.0  RAL  1 0.2 0.7LRAL                1
 GAP=360        0.67      30.5    18.9  0.0  0.5767E+03 -0.4581E+04 -0.6527E+05E
 ACTION:UPD 13-02-28 14:29 OP:RALL STATUS:               ID:20100802092354     I
 2010-08-02-0923-46S.PLUR1_003                                                 6
 STAT SP IPHASW D HRMM SECON CODA AMPLIT PERI AZIMU VELO AIN AR TRES W  DIS CAZ7
 LG3  SZ E         923 56.56                  210.1 15.5      0        2.55  30 
 LG3  SN IP        923 56.59                             166    0.4110 2.55  30 
 LG3  SE IS        923 57.16                             166   -0.4110 2.55  30 
 LG3  SZ  AML      923 57.27        30.3 0.10                          2.55  30 
                                                                                
