 2010  8 2 0556 39.4 L  21.122 -99.223 17.8  RAL  3 1.4 1.1LRAL                1
 GAP=291       22.58     537.5    53.9999.9  0.8976E+04  0.1742E+05  0.5561E+06E
 ACTION:UPD 13-02-28 14:29 OP:RALL STATUS:               ID:20100802055639     I
 2010-08-02-0556-18S.PLUR1_009                                                 6
 STAT SP IPHASW D HRMM SECON CODA AMPLIT PERI AZIMU VELO AIN AR TRES W  DIS CAZ7
 LO8  SN IP        556 44.34                              63    1.7810 4.24  14 
 LO8  SZ E         556 44.34                  142.0  5.1    -51        4.24  14 
 LO8  SE IS        556 46.72                              63    1.8510 4.24  14 
 LO8  SZ  AML      556 47.24         5.5 0.42                          4.24  14 
 LD5  SZ E         556 43.79                   46.1 10.5    -78        12.3 305 
 LD5  SN EP        556 43.79                              63    0.7710 12.3 305 
 LD5  SE IS        556 45.43                              63   -0.2410 12.3 305 
 LD5  SZ  AML      556 46.70        13.8 0.34                          12.3 305 
 LG3  SZ E         556 42.62                  257.1 50.5     87        17.2 350 
 LG3  SN IP        556 42.64                              63   -0.8810 17.2 350 
 LG3  SE IS        556 43.24                              63   -3.2910 17.2 350 
 LG3  SZ  AML      556 43.86       671.1 0.16                          17.2 350 
                                                                                
