 2010  8 2 1831 41.8 L  21.310 -99.285 10.0  RAL  1 0.1 0.2LRAL                1
 GAP=360        0.62      23.7    18.2  0.0  0.4316E+03  0.2252E+06  0.1068E+06E
 ACTION:UPD 13-02-28 14:29 OP:RALL STATUS:               ID:20100802183141     I
 2010-08-02-1831-34S.PLUR1_003                                                 6
 STAT SP IPHASW D HRMM SECON CODA AMPLIT PERI AZIMU VELO AIN AR TRES W  DIS CAZ7
 LZ4  SZ E        1831 43.95                  215.5 46.3      0        2.81  36 
 LZ4  SN IP       1831 44.03                             165    0.3610 2.81  36 
 LZ4  SE IS       1831 44.68                             165   -0.3610 2.81  36 
 LZ4  SZ  AML     1831 44.99         7.9 0.30                          2.81  36 
                                                                                
