 2010  8 2 1649  1.9 L  21.333 -99.282 10.0  RAL  1 0.2 0.9LRAL                1
 GAP=360        1.90     562.4   314.0  0.0  0.1766E+06  0.2252E+06  0.1068E+06E
 ACTION:UPD 13-02-28 14:29 OP:RALL STATUS:               ID:20100802164901     I
 2010-08-02-1648-55S.PLUR1_003                                                 6
 STAT SP IPHASW D HRMM SECON CODA AMPLIT PERI AZIMU VELO AIN AR TRES W  DIS CAZ7
 LZ4  SZ E        1649  4.10                  271.8 21.4     -8        1.32 100 
 LZ4  SN IP       1649  4.10                             173    0.4010 1.32 100 
 LZ4  SE IS       1649  4.65                             173   -0.4010 1.32 100 
 LZ4  SZ  AML     1649  4.81        41.8 0.24                          1.32 100 
                                                                                
