 2010  8 2 1456  8.5 L  21.421 -98.887  5.1  RAL  2 1.2 1.1LRAL                1
 GAP=342       18.55     165.6   336.6741.9  0.5228E+05  0.2252E+06  0.1068E+06E
 ACTION:UPD 13-02-28 14:29 OP:RALL STATUS:               ID:20100802145608     I
 2010-08-02-1456-07S.PLUR1_006                                                 6
 STAT SP IPHASW D HRMM SECON CODA AMPLIT PERI AZIMU VELO AIN AR TRES W  DIS CAZ7
 LG3  SZ E        1456 15.57                   45.3 15.5    -21        41.2 247 
 LG3  SN IP       1456 15.64                              63    0.6310 41.2 247 
 LG3  SE IS       1456 16.82                              63   -2.9610 41.2 247 
 LG3  SZ  AML     1456 17.43       113.9 0.10                          41.2 247 
 LO8  SZ E        1456 17.53                  135.6  7.6     86        44.5 229 
 LO8  SN IP       1456 17.71                              63    2.1710 44.5 229 
 LO8  SE IS       1456 20.87                              63    0.1610 44.5 229 
 LO8  SZ  AML     1456 21.21         2.2 0.16                          44.5 229 
                                                                                
