 2010  8 2 1942 33.3 L  21.200 -99.319 10.0  RAL  3 1.5 1.4LRAL                1
 GAP=217       27.31      24.1    19.6201.0  0.3549E+03 -0.2219E+03 -0.2616E+03E
   81.0000   90.0000   40.0000     0  0.0   0.0                       FOCMEC   F
 ACTION:UPD 13-02-28 14:29 OP:RALL STATUS:               ID:20100802194233     I
 2010-08-02-1942-25S.PLUR1_009                                                 6
 STAT SP IPHASW D HRMM SECON CODA AMPLIT PERI AZIMU VELO AIN AR TRES W  DIS CAZ7
 LD5  SZ E      D 1942 36.07                   27.6 14.4     24        1.50 183 
 LD5  SN IP     C 1942 36.07                             172    0.9610 1.50 183 
 LD5  SE IS     C 1942 37.62                             172    1.1610 1.50 183 
 LD5  SZ  AMPG    1942 37.76        46.0 0.03                          1.50 183 
 LD5  SN  AMSG    1942 38.82       225.4 0.17                          1.50 183 
 LD5  SZ  AML     1942 39.18        16.6 0.84                          1.50 183 
 LG3  SZ E      C 1942 34.80                  281.6 23.3     62        10.9  40 
 LG3  SN IP     D 1942 34.82                             132   -1.0310 10.9  40 
 LG3  SE IS     D 1942 35.24                             132   -2.4910 10.9  40 
 LG3  SZ  AMPG    1942 35.31     27328.4 0.10                          10.9  40 
 LG3  SZ  AML     1942 35.35      4231.2 0.60                          10.9  40 
 LG3  SN  AMSG    1942 35.39     31870.3 0.09                          10.9  40 
 LO8  SZ E        1942 36.50                  149.9  5.5    -99        11.9 112 
 LO8  SN IP     C 1942 36.52                             130    0.5210 11.9 112 
 LO8  SE IS     C 1942 38.88                             130    0.8910 11.9 112 
 LO8  SZ  AMPG    1942 39.88        56.9 0.07                          11.9 112 
 LO8  SN  AMSG    1942 40.62        93.6 0.07                          11.9 112 
 LO8  SZ  AML     1942 41.13        13.1 0.24                          11.9 112 
                                                                                
