 2010  8 2 1046 14.3 L  21.433 -99.275 10.0  RAL  1 0.0 1.9LRAL                1
 GAP=360        0.30       4.9     0.4  0.0 -0.1195E+01 -0.4581E+04 -0.6527E+05E
 ACTION:UPD 13-02-28 14:29 OP:RALL STATUS:               ID:20100802104614     I
 2010-08-02-1046-07S.PLUR1_003                                                 6
 STAT SP IPHASW D HRMM SECON CODA AMPLIT PERI AZIMU VELO AIN AR TRES W  DIS CAZ7
 LZ4  SZ E        1046 16.89                  357.3 12.4      0        11.3 177 
 LZ4  SN IP       1046 16.93                             131    0.0010 11.3 177 
 LZ4  SE IS       1046 18.84                             131    0.0010 11.3 177 
 LZ4  SZ  AML     1046 19.17       324.9 0.16                          11.3 177 
                                                                                
