 2010  8 2 1401 25.5 L  21.279 -99.266 10.0  RAL  1 0.2 1.0LRAL                1
 GAP=360        2.03     576.2   357.6  0.0  0.2060E+06 -0.2142E+03 -0.6337E+04E
 ACTION:UPD 13-02-28 14:29 OP:RALL STATUS:               ID:20100802140125     I
 2010-08-02-1401-18S.PLUR1_003                                                 6
 STAT SP IPHASW D HRMM SECON CODA AMPLIT PERI AZIMU VELO AIN AR TRES W  DIS CAZ7
 LG3  SZ E        14 1 27.72                  275.0 16.2     -8        1.47 104 
 LG3  SN IP       14 1 27.74                             172    0.3510 1.47 104 
 LG3  SE IS       14 1 28.41                             172   -0.3510 1.47 104 
 LG3  SZ  AML     14 1 28.58        52.8 0.10                          1.47 104 
                                                                                
