 2010  8 2 1021 16.3 L  21.340 -99.292 10.0  RAL  1 0.1 1.1LRAL                1
 GAP=360        0.48      10.6    24.5  0.0 -0.2608E+03 -0.4581E+04 -0.6527E+05E
 ACTION:UPD 13-02-28 14:29 OP:RALL STATUS:               ID:20100802102116     I
 2010-08-02-1021-09S.PLUR1_003                                                 6
 STAT SP IPHASW D HRMM SECON CODA AMPLIT PERI AZIMU VELO AIN AR TRES W  DIS CAZ7
 LZ4  SZ E        1021 18.38                  295.0 33.2      0        2.52 115 
 LZ4  SN IP       1021 18.43                             166    0.2610 2.52 115 
 LZ4  SE IS       1021 19.29                             166   -0.2610 2.52 115 
 LZ4  SZ  AML     1021 19.67        70.9 0.10                          2.52 115 
                                                                                
