 2010  8 2 1348 12.0 L  21.326 -99.284 10.0  RAL  1 0.1 0.6LRAL                1
 GAP=360        1.10      29.4    90.0  0.0  0.2641E+04 -0.2142E+03 -0.6337E+04E
 ACTION:UPD 13-02-28 14:29 OP:RALL STATUS:               ID:20100802134812     I
 2010-08-02-1348-04S.PLUR1_003                                                 6
 STAT SP IPHASW D HRMM SECON CODA AMPLIT PERI AZIMU VELO AIN AR TRES W  DIS CAZ7
 LZ4  SZ E        1348 14.20                  255.2 32.7      4        1.61  71 
 LZ4  SN IP       1348 14.20                             171    0.3310 1.61  71 
 LZ4  SE IS       1348 14.89                             171   -0.3310 1.61  71 
 LZ4  SZ  AML     1348 15.13        24.0 0.16                          1.61  71 
                                                                                
