 2010  8 2 1846  9.0 L  21.360 -99.201 10.0  RAL  1 0.0 1.7LRAL                1
 GAP=360        0.30       2.5     5.9  0.0  0.1465E+02  0.2252E+06  0.1068E+06E
 ACTION:UPD 13-02-28 14:29 OP:RALL STATUS:               ID:20100802184609     I
 2010-08-02-1845-58S.PLUR1_003                                                 6
 STAT SP IPHASW D HRMM SECON CODA AMPLIT PERI AZIMU VELO AIN AR TRES W  DIS CAZ7
 LZ4  SN IP       1846 11.23                             142    0.0210 7.84 246 
 LZ4  SZ E        1846 11.28                   65.6 20.4      0        7.84 246 
 LZ4  SE IS       1846 12.83                             142   -0.0210 7.84 246 
 LZ4  SZ  AML     1846 12.99       224.4 0.24                          7.84 246 
                                                                                
