 2010  8 2 1815 52.3 L  21.301 -99.252 10.0  RAL  1 0.0 0.6LRAL                1
 GAP=360        0.35      11.2     6.6  0.0 -0.7337E+02  0.2252E+06  0.1068E+06E
 ACTION:UPD 13-02-28 14:29 OP:RALL STATUS:               ID:20100802181552     I
 2010-08-02-1815-45S.PLUR1_003                                                 6
 STAT SP IPHASW D HRMM SECON CODA AMPLIT PERI AZIMU VELO AIN AR TRES W  DIS CAZ7
 LZ4  SZ E        1815 54.35                  151.2 10.9      0        3.74 331 
 LZ4  SN IP       1815 54.38                             160    0.1310 3.74 331 
 LZ4  SE IS       1815 55.54                             160   -0.1310 3.74 331 
 LZ4  SZ  AML     1815 56.65        21.3 0.18                          3.74 331 
                                                                                
