 2010  8 2 1553 39.2 L  21.320 -99.273 10.0  RAL  1 0.3 1.3LRAL                1
 GAP=360        2.78     498.6   749.3  0.0 -0.3736E+06  0.2252E+06  0.1068E+06E
 ACTION:UPD 13-02-28 14:29 OP:RALL STATUS:               ID:20100802155339     I
 2010-08-02-1553-31S.PLUR1_003                                                 6
 STAT SP IPHASW D HRMM SECON CODA AMPLIT PERI AZIMU VELO AIN AR TRES W  DIS CAZ7
 LZ4  SZ E        1553 41.33                  182.3 21.9    -12        1.21  15 
 LZ4  SN IP       1553 41.37                             173    0.3710 1.21  15 
 LZ4  SE IS       1553 41.98                             173   -0.3710 1.21  15 
 LZ4  SZ  AML     1553 42.31       119.6 0.18                          1.21  15 
                                                                                
