 2010  8 2 1926 23.6 L  21.316 -99.270 10.0  RAL  1 0.2 1.1LRAL                1
 GAP=360        2.43     999.9   999.9  0.0 -0.2035E+09  0.2252E+06  0.1068E+06E
 ACTION:UPD 13-02-28 14:29 OP:RALL STATUS:               ID:20100802192623     I
 2010-08-02-1926-14S.PLUR1_003                                                 6
 STAT SP IPHASW D HRMM SECON CODA AMPLIT PERI AZIMU VELO AIN AR TRES W  DIS CAZ7
 LZ4  SN IP       1926 25.83                             171    0.3410 1.63   2 
 LZ4  SZ E        1926 25.84                  193.6 22.0     11        1.63   2 
 LZ4  SE IS       1926 26.50                             171   -0.3410 1.63   2 
 LZ4  SZ  AML     1926 26.78        64.7 0.20                          1.63   2 
                                                                                
