 2010  8 2 1208 35.2 L  21.301 -99.218 10.0  RAL  1 0.0 1.1LRAL                1
 GAP=360        0.30       3.8     6.5  0.0 -0.2479E+02  0.4587E+03  0.6472E+03E
 ACTION:UPD 13-02-28 14:29 OP:RALL STATUS:               ID:20100802120835     I
 2010-08-02-1208-27S.PLUR1_003                                                 6
 STAT SP IPHASW D HRMM SECON CODA AMPLIT PERI AZIMU VELO AIN AR TRES W  DIS CAZ7
 LZ4  SZ E        12 8 37.37                  122.3 13.9      0        6.27 302 
 LZ4  SN IP       12 8 37.38                             148    0.0410 6.27 302 
 LZ4  SE IS       12 8 38.84                             148   -0.0410 6.27 302 
 LZ4  SZ  AML     12 8 39.43        59.3 0.10                          6.27 302 
                                                                                
