 2010  8 2 1820 33.0 L  21.318 -99.268 10.0  RAL  1 0.1 0.4LRAL                1
 GAP=360        0.65     327.7   999.9  0.0  0.1077E+07  0.2252E+06  0.1068E+06E
 ACTION:UPD 13-02-28 14:29 OP:RALL STATUS:               ID:20100802182033     I
 2010-08-02-1820-26S.PLUR1_003                                                 6
 STAT SP IPHASW D HRMM SECON CODA AMPLIT PERI AZIMU VELO AIN AR TRES W  DIS CAZ7
 LZ4  SZ E        1820 35.21                  174.5 21.7      0        1.41 355 
 LZ4  SN IP       1820 35.24                             172    0.3810 1.41 355 
 LZ4  SE IS       1820 35.82                             172   -0.3810 1.41 355 
 LZ4  SZ  AML     1820 36.26        12.8 0.20                          1.41 355 
                                                                                
