 2010  8 2 1158 57.1 L  21.270 -99.268 10.0  RAL  2 0.6 0.5LRAL                1
 GAP=220       11.16      27.4    20.8 99.8  0.4520E+03  0.4587E+03  0.6472E+03E
 ACTION:UPD 13-02-28 14:29 OP:RALL STATUS:               ID:20100802115857     I
 2010-08-02-1158-50S.PLUR1_009                                                 6
 STAT SP IPHASW D HRMM SECON CODA AMPLIT PERI AZIMU VELO AIN AR TRES W  DIS CAZ7
 LG3  SN IP       1158 59.15                             170    0.1510 1.75  70 
 LG3  SZ E        1158 59.16                  267.7 16.3     17        1.75  70 
 LG3  SE IS       1158 59.92                             170   -0.4510 1.75  70 
 LG3  SZ  AML     1159  0.62        62.5 0.26                          1.75  70 
 LD5  SZ E        1158 60.00                   81.8  9.8     52        10.7 210 
 LD5  SN IP       1159  0.05                             133    0.3710 10.7 210 
 LD5  SE IS       1159  1.47                             133   -0.0710 10.7 210 
 LD5  SZ  AML     1159  1.64         3.0 0.24                          10.7 210 
                                                                                
