 2010  8 2 1214 54.9 L  21.339 -99.298 10.0  RAL  1 0.0-0.3LRAL                1
 GAP=360        0.30       3.6     1.8  0.0 -0.6182E+01  0.4587E+03  0.6472E+03E
 ACTION:UPD 13-02-28 14:29 OP:RALL STATUS:               ID:20100802121454     I
 2010-08-02-1214-52S.PLUR1_003                                                 6
 STAT SP IPHASW D HRMM SECON CODA AMPLIT PERI AZIMU VELO AIN AR TRES W  DIS CAZ7
 LO8  SN IP       1214 58.94                             112    0.0010 21.7 156 
 LO8  SZ E        1214 58.97                  336.1  9.1      0        21.7 156 
 LO8  SE IS       1215  1.89                             112    0.0010 21.7 156 
 LO8  SZ  AML     1215  2.59         1.3 0.46                          21.7 156 
                                                                                
