 2010  8 2 1128  2.6 L  21.287 -99.216 10.0  RAL  1 0.0 0.9LRAL                1
 GAP=360        0.30       4.1     5.1  0.0 -0.2111E+02 -0.4581E+04 -0.6527E+05E
 ACTION:UPD 13-02-28 14:29 OP:RALL STATUS:               ID:20100802112802     I
 2010-08-02-1127-55S.PLUR1_003                                                 6
 STAT SP IPHASW D HRMM SECON CODA AMPLIT PERI AZIMU VELO AIN AR TRES W  DIS CAZ7
 LZ4  SZ E        1128  4.77                  130.7 16.8      0        7.38 311 
 LZ4  SN IP       1128  4.80                             144    0.0310 7.38 311 
 LZ4  SE IS       1128  6.35                             144   -0.0310 7.38 311 
 LZ4  SZ  AML     1128  6.58        32.9 0.42                          7.38 311 
                                                                                
