 2010  8 2 1340 16.3 L  21.375 -99.252 10.0  RAL  3 1.4 1.0LRAL                1
 GAP=332       25.84     123.4    23.7262.8  0.5531E+03 -0.2142E+03 -0.6337E+04E
 ACTION:UPD 13-02-28 14:29 OP:RALL STATUS:               ID:20100802134016     I
 2010-08-02-1340-10S.PLUR1_009                                                 6
 STAT SP IPHASW D HRMM SECON CODA AMPLIT PERI AZIMU VELO AIN AR TRES W  DIS CAZ7
 LG3  SZ E        1340 19.97                  314.3 15.4     46        11.0 180 
 LG3  SN IP       1340 19.99                             130    1.1010 11.0 180 
 LG3  SE IS       1340 20.93                             130    0.1410 11.0 180 
 LG3  SZ  AML     1340 21.31       209.4 0.26                          11.0 180 
 LD5  SZ E        1340 20.49                   26.9  7.1      8        22.0 199 
 LD5  SN IP       1340 20.49                             110    0.1410 22.0 199 
 LD5  SE IS       1340 21.88                             110   -1.4410 22.0 199 
 LD5  SZ  AML     1340 22.38        15.4 0.34                          22.0 199 
 LO8  SN IP       1340 21.35                             109    0.6510 24.2 170 
 LO8  SZ E        1340 21.43                  131.8  6.2    141        24.2 170 
 LO8  SE IS       1340 23.33                             109   -0.5910 24.2 170 
 LO8  SZ  AML     1340 24.26         4.9 0.22                          24.2 170 
                                                                                
