 2010  8 2 1333 57.9 L  21.466 -99.326 10.0  RAL  1 0.2 0.1LRAL                1
 GAP=360        0.70      26.7    25.8  0.0  0.6885E+03  0.4587E+03  0.6472E+03E
 ACTION:UPD 13-02-28 14:29 OP:RALL STATUS:               ID:20100802133357     I
 2010-08-02-1333-51S.PLUR1_003                                                 6
 STAT SP IPHASW D HRMM SECON CODA AMPLIT PERI AZIMU VELO AIN AR TRES W  DIS CAZ7
 LA4  SN IP       1334  0.18                             166    0.4310 2.62  42 
 LA4  SZ E        1334  0.19                  222.0  6.8      0        2.62  42 
 LA4  SE IS       1334  0.70                             166   -0.4310 2.62  42 
 LA4  SZ  AML     1334  1.01         6.3 0.22                          2.62  42 
                                                                                
