 2010  8 2 1632 10.4 L  21.398 -99.288 10.0  RAL  1 0.0 1.4LRAL                1
 GAP=360        0.30       5.9     1.7  0.0 -0.9709E+01  0.2252E+06  0.1068E+06E
 ACTION:UPD 13-02-28 14:29 OP:RALL STATUS:               ID:20100802163210     I
 2010-08-02-1631-43S.PLUR1_003                                                 6
 STAT SP IPHASW D HRMM SECON CODA AMPLIT PERI AZIMU VELO AIN AR TRES W  DIS CAZ7
 LZ4  SN IP       1632 12.68                             142    0.0210 7.73 165 
 LZ4  SZ E        1632 12.78                  345.4 11.9      0        7.73 165 
 LZ4  SE IS       1632 14.27                             142   -0.0210 7.73 165 
 LZ4  SZ  AML     1632 14.50       115.3 0.26                          7.73 165 
                                                                                
