 2010  8 2 1800 48.0 L  21.346 -99.292 10.0  RAL  1 0.1 0.4LRAL                1
 GAP=360        0.55      15.1    22.6  0.0 -0.3400E+03  0.2252E+06  0.1068E+06E
 ACTION:UPD 13-02-28 14:29 OP:RALL STATUS:               ID:20100802180048     I
 2010-08-02-1800-41S.PLUR1_003                                                 6
 STAT SP IPHASW D HRMM SECON CODA AMPLIT PERI AZIMU VELO AIN AR TRES W  DIS CAZ7
 LZ4  SN IP       18 0 50.25                             165    0.3110 2.84 126 
 LZ4  SZ E        18 0 50.25                  305.6 18.0      0        2.84 126 
 LZ4  SE IS       18 0 51.00                             165   -0.3110 2.84 126 
 LZ4  SZ  AML     18 0 52.04        13.0 0.98                          2.84 126 
                                                                                
