 2010  8 2 1410  5.3 L  21.316 -99.267 10.0  RAL  1 0.1 1.1LRAL                1
 GAP=360        0.38     413.5   999.9  0.0  0.1148E+07 -0.2142E+03 -0.6337E+04E
 ACTION:UPD 13-02-28 14:29 OP:RALL STATUS:               ID:20100802141005     I
 2010-08-02-1409-58S.PLUR1_003                                                 6
 STAT SP IPHASW D HRMM SECON CODA AMPLIT PERI AZIMU VELO AIN AR TRES W  DIS CAZ7
 LZ4  SN IP       1410  7.31                             171    0.1610 1.66 350 
 LZ4  SZ E        1410  7.33                  170.2 71.8      0        1.66 350 
 LZ4  SE IS       1410  8.35                             171   -0.1610 1.66 350 
 LZ4  SZ  AML     1410  8.46        65.6 0.16                          1.66 350 
                                                                                
