 2010  8 2 2223  0.5 L  21.322 -99.267 10.0  RAL  1 0.0 0.5LRAL                1
 GAP=360        0.30       4.0     1.2  0.0 -0.4157E+01 -0.3341E+01  0.3337E+02E
 ACTION:UPD 13-02-28 14:29 OP:RALL STATUS:               ID:20100802222300     I
 2010-08-02-2222-56S.PLUR1_003                                                 6
 STAT SP IPHASW D HRMM SECON CODA AMPLIT PERI AZIMU VELO AIN AR TRES W  DIS CAZ7
 LA4  SZ E        2223  3.96                  166.4  7.5      0        18.4 346 
 LA4  SN IP       2223  4.10                             116    0.0210 18.4 346 
 LA4  SE IS       2223  6.64                             116   -0.0210 18.4 346 
 LA4  SZ  AML     2223  6.93         8.8 0.10                          18.4 346 
                                                                                
