 2010  8 2 2116 50.0 L  21.275 -99.259 10.0  RAL  1 0.4 0.6LRAL                1
 GAP=360        4.56     999.9   999.9  0.0 -0.6052E+10 -0.2219E+03 -0.2616E+03E
 ACTION:UPD 13-02-28 14:29 OP:RALL STATUS:               ID:20100802211650     I
 2010-08-02-2116-43S.PLUR1_003                                                 6
 STAT SP IPHASW D HRMM SECON CODA AMPLIT PERI AZIMU VELO AIN AR TRES W  DIS CAZ7
 LG3  SN IP       2116 52.28                             176    0.4110 0.70  88 
 LG3  SZ E        2116 52.31                  290.0 21.1     22        0.70  88 
 LG3  SE IS       2116 52.81                             176   -0.4110 0.70  88 
 LG3  SZ  AML     2116 52.93        22.2 0.32                          0.70  88 
                                                                                
