 2010  8 2 2158  9.6 L  21.412 -99.301 13.6  RAL  3 0.2 0.6LRAL                1
 GAP=169        1.13       4.3     0.9 11.3 -0.1729E+01 -0.3341E+01  0.3337E+02E
 ACTION:UPD 13-02-28 14:29 OP:RALL STATUS:               ID:20100802215809     I
 2010-08-02-2158-02S.PLUR1_012                                                 6
 STAT SP IPHASW D HRMM SECON CODA AMPLIT PERI AZIMU VELO AIN AR TRES W  DIS CAZ7
 LA4  SZ E        2158 12.29                  174.5  8.9      1        8.01 354 
 LA4  SN IP       2158 12.33                             150    0.0110 8.01 354 
 LA4  SE IS       2158 14.27                             150   -0.0510 8.01 354 
 LA4  SZ  AML     2158 14.91       127.7 0.36                          8.01 354 
 LD5  SN IP       2158 13.92                             117   -0.3710 25.0 185 
 LD5  SZ E        2158 13.92                    7.8 10.1      3        25.0 185 
 LD5  SE IS       2158 17.29                             117   -0.4410 25.0 185 
 LD5  SZ  AML     2158 18.43         3.0 0.18                          25.0 185 
 LO8  SZ E      C 2158 14.59                                           29.3 162 
 LO8  SN IP       2158 14.95                             113    0.0110 29.3 162 
 LO8  SE IS       2158 19.69                             113    0.8410 29.3 162 
 LO8  SZ  AML     2158 20.58         2.8 0.10                          29.3 162 
 LO8  SZ  AMP     2158 20.60                                           29.3 162 
                                                                                
