 2010  8 2 2240  1.4 L  21.241 -99.298 10.0  RAL  1 0.0-0.4LRAL                1
 GAP=360        0.30       6.4     2.7  0.0  0.1706E+02  0.3117E+03 -0.2729E+03E
 ACTION:UPD 13-02-28 14:29 OP:RALL STATUS:               ID:20100802224001     I
 2010-08-02-2239-55S.PLUR1_006                                                 6
 STAT SP IPHASW D HRMM SECON CODA AMPLIT PERI AZIMU VELO AIN AR TRES W  DIS CAZ7
 LD5  SN IP       2240  3.58                             147    0.0310 6.52 201 
 LD5  SZ E        2240  3.62                   21.1 24.3      0        6.52 201 
 LD5  SE IS       2240  5.08                             147   -0.0310 6.52 201 
 LD5  SZ  AML     2240  5.49         2.0 0.48                          6.52 201 
                                                                                
