 2010  8 2 2111 29.1 L  21.436 -99.314 10.0  RAL  1 0.0 1.3LRAL                1
 GAP=360        0.30       4.3     1.9  0.0 -0.7931E+01 -0.2219E+03 -0.2616E+03E
 ACTION:UPD 13-02-28 14:29 OP:RALL STATUS:               ID:20100802211129     I
 2010-08-02-2111-22S.PLUR1_003                                                 6
 STAT SP IPHASW D HRMM SECON CODA AMPLIT PERI AZIMU VELO AIN AR TRES W  DIS CAZ7
 LZ4  SN IP       2111 31.88                             127    0.0110 12.5 158 
 LZ4  SZ E        2111 31.92                  338.4 13.7      0        12.5 158 
 LZ4  SE IS       2111 33.88                             127   -0.0110 12.5 158 
 LZ4  SZ  AML     2111 34.29        77.1 0.20                          12.5 158 
                                                                                
