 2010  8 2 2227 50.8 L  21.153 -99.212 10.0  RAL  3 1.2 0.3LRAL                1
 GAP=295       20.70      22.3    27.9150.6 -0.3148E+03  0.3117E+03 -0.2729E+03E
 ACTION:UPD 13-02-28 14:29 OP:RALL STATUS:               ID:20100802222750     I
 2010-08-02-2227-44S.PLUR1_009                                                 6
 STAT SP IPHASW D HRMM SECON CODA AMPLIT PERI AZIMU VELO AIN AR TRES W  DIS CAZ7
 LO8  SN IP       2227 54.42                             176    1.6910 0.70 353 
 LO8  SZ E        2227 54.59                  136.3  9.3    -36        0.70 353 
 LO8  SE IS       2227 56.20                             176    2.0910 0.70 353 
 LO8  SZ  AML     2227 57.25         1.8 0.22                          0.70 353 
 LD5  SN IP       2227 53.50                             135   -0.0110 11.8 288 
 LD5  SZ E        2227 53.53                   44.9  8.7    -62        11.8 288 
 LD5  SE IS       2227 54.83                             135   -0.6310 11.8 288 
 LD5  SZ  AML     2227 55.17         4.5 0.18                          11.8 288 
 LG3  SZ E        2227 52.93                  255.7 17.0     93        14.2 343 
 LG3  SN IP       2227 52.95                             128   -0.8710 14.2 343 
 LG3  SE IS       2227 53.74                             128   -2.2610 14.2 343 
 LG3  SZ  AML     2227 54.07        61.4 0.24                          14.2 343 
                                                                                
