 2010  8 3 0946 21.0 L  21.480 -99.317 22.5  RAL  3 1.5 0.9LRAL                1
 GAP=243       26.38      29.8    72.7253.5  0.1602E+04 -0.1183E+04 -0.4028E+03E
 ACTION:UPD 13-02-28 14:29 OP:RALL STATUS:               ID:20100803094621     I
 2010-08-03-0946-14S.PLUR1_012                                                 6
 STAT SP IPHASW D HRMM SECON CODA AMPLIT PERI AZIMU VELO AIN AR TRES W  DIS CAZ7
 LA4  SZ E         946 23.89                  251.7 12.2      8        0.98  63 
 LA4  SN IP        946 23.95                             147   -0.8310 0.98  63 
 LA4  SE IS        946 27.56                             147    0.0310 0.98  63 
 LA4  SZ  AML      946 32.01       109.2 0.68                          0.98  63 
 LD5  SZ E         946 26.48                  334.5 11.3     26        32.5 180 
 LD5  SN IP        946 26.56                             162   -0.8210 32.5 180 
 LD5  SE IS        946 32.16                             162    0.1310 32.5 180 
 LD5  SZ  AML      946 36.22         5.4 0.42                          32.5 180 
 LO8  SN IP        946 27.80                             171   -0.2210 37.0 163 
 LO8  SZ E         946 27.84                  132.6  6.3    150        37.0 163 
 LO8  SE IS        946 34.84                             171    1.7110 37.0 163 
 LO8  SZ  AML      946 37.23         5.3 0.70                          37.0 163 
                                                                                
