 2010  8 3 0206 50.1 L  21.163 -99.069 10.0  RAL  2 1.1 0.0LRAL                1
 GAP=353       14.71      17.3   154.3230.8 -0.1288E+03 -0.1562E+05  0.1835E+02E
 ACTION:UPD 13-02-28 14:29 OP:RALL STATUS:               ID:20100803020650     I
 2010-08-03-0206-45S.PLUR1_006                                                 6
 STAT SP IPHASW D HRMM SECON CODA AMPLIT PERI AZIMU VELO AIN AR TRES W  DIS CAZ7
 LO8  SN IP        2 6 55.11                             122    1.8610 15.0 269 
 LO8  SZ E         2 6 55.16                  126.9  6.7     38        15.0 269 
 LO8  SE IS        2 6 57.02                             122    1.4910 15.0 269 
 LO8  SZ  AML      2 6 58.60         1.5 0.28                          15.0 269 
 LD5  SN IP        2 6 54.21                             107   -0.6110 26.2 276 
 LD5  SZ E         2 6 54.23                   37.5  9.8    -57        26.2 276 
 LD5  SE IS        2 6 55.49                             107   -2.7410 26.2 276 
 LD5  SZ  AML      2 6 56.00         5.5 0.36                          26.2 276 
                                                                                
