 2010  8 3 0112 32.5 L  21.377 -99.270 10.0  RAL  1 0.0 0.3LRAL                1
 GAP=360        0.30       4.4     1.7  0.0 -0.7133E+01 -0.7120E+05 -0.2093E+04E
 ACTION:UPD 13-02-28 14:29 OP:RALL STATUS:               ID:20100803011232     I
 2010-08-03-0112-28S.PLUR1_003                                                 6
 STAT SP IPHASW D HRMM SECON CODA AMPLIT PERI AZIMU VELO AIN AR TRES W  DIS CAZ7
 LA4  SN IP     D  112 35.24                             128    0.0110 12.5 341 
 LA4  SZ E         112 35.33                  161.1 11.7      0        12.5 341 
 LA4  SE IS        112 37.25                             128   -0.0110 12.5 341 
 LA4  SZ  AML      112 37.57         7.3 0.10                          12.5 341 
                                                                                
