 2010  8 3 0235  0.2 L  21.346 -99.289 10.0  RAL  1 0.1 0.8LRAL                1
 GAP=360        0.61      19.9    25.1  0.0 -0.4990E+03 -0.1562E+05  0.1835E+02E
 ACTION:UPD 13-02-28 14:29 OP:RALL STATUS:               ID:20100803023500     I
 2010-08-03-0234-53S.PLUR1_003                                                 6
 STAT SP IPHASW D HRMM SECON CODA AMPLIT PERI AZIMU VELO AIN AR TRES W  DIS CAZ7
 LZ4  SN IP        235  2.41                             166    0.3610 2.62 130 
 LZ4  SZ E         235  2.44                  310.3 22.0      0        2.62 130 
 LZ4  SE IS        235  3.07                             166   -0.3610 2.62 130 
 LZ4  SZ  AML      235  3.39        36.2 0.16                          2.62 130 
                                                                                
