 2010  8 3 0618 46.9 L  21.348 -99.260 10.0  RAL  1 0.1 0.5LRAL                1
 GAP=360        0.53      29.2    15.2  0.0  0.4433E+03 -0.1562E+05  0.1835E+02E
 ACTION:UPD 13-02-28 14:29 OP:RALL STATUS:               ID:20100803061846     I
 2010-08-03-0618-40S.PLUR1_003                                                 6
 STAT SP IPHASW D HRMM SECON CODA AMPLIT PERI AZIMU VELO AIN AR TRES W  DIS CAZ7
 LZ4  SZ E         618 49.06                   25.9 26.8      0        2.17 206 
 LZ4  SN IP        618 49.08                             168    0.3010 2.17 206 
 LZ4  SE IS        618 49.84                             168   -0.3010 2.17 206 
 LZ4  SZ  AML      618 49.94        17.1 0.16                          2.17 206 
                                                                                
