 2010  8 3 0612 19.0 L  21.392 -99.277 10.0  RAL  1 0.0 0.6LRAL                1
 GAP=360        0.30       4.8     1.7  0.0 -0.8030E+01 -0.1562E+05  0.1835E+02E
 ACTION:UPD 13-02-28 14:29 OP:RALL STATUS:               ID:20100803061219     I
 2010-08-03-0612-05S.PLUR1_006                                                 6
 STAT SP IPHASW D HRMM SECON CODA AMPLIT PERI AZIMU VELO AIN AR TRES W  DIS CAZ7
 LA4  SZ E         612 21.50                  161.9  8.4      0        10.6 342 
 LA4  SN IP        612 21.58                             133    0.0110 10.6 342 
 LA4  SE IS        612 23.42                             133   -0.0110 10.6 342 
 LA4  SZ  AML      612 23.59        15.3 0.18                          10.6 342 
                                                                                
