 2010  8 3 0132 33.1 L  21.321 -99.289 10.0  RAL  1 0.1 1.4LRAL                1
 GAP=360        0.56      14.7    30.2  0.0  0.4459E+03 -0.7120E+05 -0.2093E+04E
 ACTION:UPD 13-02-28 14:29 OP:RALL STATUS:               ID:20100803013233     I
 2010-08-03-0132-25S.PLUR1_003                                                 6
 STAT SP IPHASW D HRMM SECON CODA AMPLIT PERI AZIMU VELO AIN AR TRES W  DIS CAZ7
 LZ4  SZ E         132 35.28                  242.4 27.9      0        2.30  62 
 LZ4  SN IP        132 35.30                             167    0.3210 2.30  62 
 LZ4  SE IS        132 36.03                             167   -0.3210 2.30  62 
 LZ4  SZ  AML      132 37.88       143.1 0.12                          2.30  62 
                                                                                
