 2010  8 3 0037 47.6 L  21.312 -99.289 10.0  RAL  1 0.2 0.5LRAL                1
 GAP=360        0.70      23.3    23.8  0.0  0.5558E+03 -0.7120E+05 -0.2093E+04E
 ACTION:UPD 13-02-28 14:29 OP:RALL STATUS:               ID:20100803003747     I
 2010-08-03-0037-40S.PLUR1_003                                                 6
 STAT SP IPHASW D HRMM SECON CODA AMPLIT PERI AZIMU VELO AIN AR TRES W  DIS CAZ7
 LZ4  SN IP        037 49.92                             164    0.4310 2.92  44 
 LZ4  SZ E         037 49.92                  223.6 27.5      0        2.92  44 
 LZ4  SE IS        037 50.44                             164   -0.4310 2.92  44 
 LZ4  SZ  AML      037 50.99        18.6 0.18                          2.92  44 
                                                                                
