 2010  8 3 0825 28.1 L  21.338 -99.290 10.0  RAL  1 0.1 0.8LRAL                1
 GAP=360        0.45       9.2    26.8  0.0 -0.2468E+03 -0.1562E+05  0.1835E+02E
 ACTION:UPD 13-02-28 14:29 OP:RALL STATUS:               ID:20100803082528     I
 2010-08-03-0825-21S.PLUR1_003                                                 6
 STAT SP IPHASW D HRMM SECON CODA AMPLIT PERI AZIMU VELO AIN AR TRES W  DIS CAZ7
 LZ4  SZ E         825 30.17                  290.3 23.6      0        2.21 110 
 LZ4  SN IP        825 30.20                             168    0.2310 2.21 110 
 LZ4  SE IS        825 31.11                             168   -0.2310 2.21 110 
 LZ4  SZ  AML      825 31.52        31.4 0.10                          2.21 110 
                                                                                
