 2010  8 3 0721 58.8 L  21.349 -99.297 10.0  RAL  1 0.1 1.0LRAL                1
 GAP=360        0.43       9.6    14.4  0.0 -0.1376E+03 -0.1562E+05  0.1835E+02E
 ACTION:UPD 13-02-28 14:29 OP:RALL STATUS:               ID:20100803072158     I
 2010-08-03-0721-52S.PLUR1_003                                                 6
 STAT SP IPHASW D HRMM SECON CODA AMPLIT PERI AZIMU VELO AIN AR TRES W  DIS CAZ7
 LZ4  SZ E         722  0.92                  305.5 15.9      0        3.55 125 
 LZ4  SN IP        722  0.94                             161    0.2110 3.55 125 
 LZ4  SE IS        722  1.92                             161   -0.2110 3.55 125 
 LZ4  SZ  AML      722  2.03        52.5 0.28                          3.55 125 
                                                                                
