 2010  8 3 0619 40.7 L  21.407 -99.289 10.0  RAL  1 0.0 0.8LRAL                1
 GAP=360        0.30       5.5     1.4  0.0 -0.7789E+01 -0.1562E+05  0.1835E+02E
 ACTION:UPD 13-02-28 14:29 OP:RALL STATUS:               ID:20100803061940     I
 2010-08-03-0619-22S.PLUR1_006                                                 6
 STAT SP IPHASW D HRMM SECON CODA AMPLIT PERI AZIMU VELO AIN AR TRES W  DIS CAZ7
 LA4  SN IP     C  619 43.04                             139    0.0110 8.78 346 
 LA4  SZ E         619 43.05                  166.3  6.9      0        8.78 346 
 LA4  SE IS     D  619 44.73                             139   -0.0110 8.78 346 
 LA4  SZ  AML      619 44.82        28.6 0.28                          8.78 346 
                                                                                
