 2010  8 3 0347 49.9 L  21.323 -99.287 10.0  RAL  1 0.2 1.0LRAL                1
 GAP=360        0.65      17.8    39.9  0.0  0.7126E+03 -0.1562E+05  0.1835E+02E
 ACTION:UPD 13-02-28 14:29 OP:RALL STATUS:               ID:20100803034749     I
 2010-08-03-0347-42S.PLUR1_003                                                 6
 STAT SP IPHASW D HRMM SECON CODA AMPLIT PERI AZIMU VELO AIN AR TRES W  DIS CAZ7
 LZ4  SZ E      C  347 52.02                  244.4 25.0      0        2.06  64 
 LZ4  SN IP     C  347 52.11                             169    0.3910 2.06  64 
 LZ4  SE IS        347 52.69                             169   -0.3910 2.06  64 
 LZ4  SZ  AML      347 53.14        57.2 0.16                          2.06  64 
                                                                                
