 2010  8 3 0916 53.5 L  21.336 -99.275 10.0  RAL  1 0.6 1.1LRAL                1
 GAP=360        7.57     999.9   999.9  0.0  0.3374E+08 -0.1562E+05  0.1835E+02E
 ACTION:UPD 13-02-28 14:29 OP:RALL STATUS:               ID:20100803091653     I
 2010-08-03-0916-46S.PLUR1_003                                                 6
 STAT SP IPHASW D HRMM SECON CODA AMPLIT PERI AZIMU VELO AIN AR TRES W  DIS CAZ7
 LZ4  SZ E         916 55.73                  278.6 44.0    -35        0.79 135 
 LZ4  SN IP        916 55.73                             176    0.4210 0.79 135 
 LZ4  SE IS        916 56.22                             176   -0.4210 0.79 135 
 LZ4  SZ  AML      916 56.68        74.9 0.24                          0.79 135 
                                                                                
