 2010  8 3 0926 44.8 L  21.328 -99.234 10.0  RAL  1 0.0 0.8LRAL                1
 GAP=360        0.30       1.0    11.9  0.0 -0.1174E+02 -0.1562E+05  0.1835E+02E
 ACTION:UPD 13-02-28 14:29 OP:RALL STATUS:               ID:20100803092644     I
 2010-08-03-0926-37S.PLUR1_003                                                 6
 STAT SP IPHASW D HRMM SECON CODA AMPLIT PERI AZIMU VELO AIN AR TRES W  DIS CAZ7
 LZ4  SN IP        926 46.80                             160    0.0210 3.65 275 
 LZ4  SZ E         926 46.99                   95.1 15.0      0        3.65 275 
 LZ4  SE IS        926 48.16                             160   -0.0210 3.65 275 
 LZ4  SZ  AML      926 48.36        32.1 0.36                          3.65 275 
                                                                                
