 2010  8 3 0337 34.6 L  21.245 -99.223 10.0  RAL  1 0.0 2.0LRAL                1
 GAP=360        0.30       4.5     2.4  0.0 -0.1093E+02 -0.1562E+05  0.1835E+02E
 ACTION:UPD 13-02-28 14:29 OP:RALL STATUS:               ID:20100803033734     I
 2010-08-03-0337-27S.PLUR1_003                                                 6
 STAT SP IPHASW D HRMM SECON CODA AMPLIT PERI AZIMU VELO AIN AR TRES W  DIS CAZ7
 LZ4  SZ E         337 37.12                  153.3 10.6      0        10.6 333 
 LZ4  SN IP     D  337 37.13                             133    0.0210 10.6 333 
 LZ4  SE IS     D  337 38.94                             133   -0.0210 10.6 333 
 LZ4  SZ  AML      337 39.60       365.7 0.56                          10.6 333 
                                                                                
