 2010  8 3 0854 43.0 L  21.338 -99.301 10.0  RAL  1 0.0 1.5LRAL                1
 GAP=360        0.30       4.3     0.5  0.0 -0.9542E+00 -0.1562E+05  0.1835E+02E
 ACTION:UPD 13-02-28 14:29 OP:RALL STATUS:               ID:20100803085443     I
 2010-08-03-0854-37S.PLUR1_003                                                 6
 STAT SP IPHASW D HRMM SECON CODA AMPLIT PERI AZIMU VELO AIN AR TRES W  DIS CAZ7
 LA4  SZ E         854 46.22                  177.2  7.6      0        16.1 357 
 LA4  SN IP        854 46.24                             120    0.0210 16.1 357 
 LA4  SE IS        854 48.56                             120   -0.0210 16.1 357 
 LA4  SZ  AML      854 49.44        97.3 0.16                          16.1 357 
                                                                                
