 2010  8 3 0605 33.6 L  21.313 -99.352 10.0  RAL  1 0.0 0.4LRAL                1
 GAP=360        0.30       4.0     1.1  0.0  0.3953E+01 -0.1562E+05  0.1835E+02E
 ACTION:UPD 13-02-28 14:29 OP:RALL STATUS:               ID:20100803060533     I
 2010-08-03-0605-29S.PLUR1_006                                                 6
 STAT SP IPHASW D HRMM SECON CODA AMPLIT PERI AZIMU VELO AIN AR TRES W  DIS CAZ7
 LA4  SN IP     D  6 5 37.30                             114    0.0210 19.4  13 
 LA4  SZ E         6 5 37.57                  193.3  7.5      0        19.4  13 
 LA4  SZ  AML      6 5 39.82         7.3 0.10                          19.4  13 
 LA4  SE IS        6 5 39.95                             114   -0.0210 19.4  13 
                                                                                
