 2010  8 3 0628 35.7 L  21.342 -99.236 10.0  RAL  1 0.0 0.0LRAL                1
 GAP=360        0.30       3.8     2.0  0.0 -0.7194E+01 -0.1562E+05  0.1835E+02E
 ACTION:UPD 13-02-28 14:29 OP:RALL STATUS:               ID:20100803062835     I
 2010-08-03-0628-32S.PLUR1_003                                                 6
 STAT SP IPHASW D HRMM SECON CODA AMPLIT PERI AZIMU VELO AIN AR TRES W  DIS CAZ7
 LA4  SN IP        628 39.09                             117    0.0010 17.5 334 
 LA4  SZ E         628 39.30                  154.2  8.3      0        17.5 334 
 LA4  SE IS     D  628 41.58                             117    0.0010 17.5 334 
 LA4  SZ  AML      628 41.64         2.8 0.30                          17.5 334 
                                                                                
