 2010  8 3 0019  9.0 L  21.354 -99.284 10.0  RAL  1 0.1 1.2LRAL                1
 GAP=360        0.49      19.3    11.9  0.0 -0.2309E+03  0.3117E+03 -0.2729E+03E
 ACTION:UPD 13-02-28 14:29 OP:RALL STATUS:               ID:20100803001909     I
 2010-08-03-0019-01S.PLUR1_003                                                 6
 STAT SP IPHASW D HRMM SECON CODA AMPLIT PERI AZIMU VELO AIN AR TRES W  DIS CAZ7
 LZ4  SZ E         019 11.17                  330.1 17.3      0        2.96 150 
 LZ4  SN IP     C  019 11.17                             164    0.2710 2.96 150 
 LZ4  SE IS     C  019 12.02                             164   -0.2710 2.96 150 
 LZ4  SZ  AML      019 12.15        84.0 0.30                          2.96 150 
                                                                                
