 2010  8 3 0658 55.0 L  21.547 -99.340 10.0  RAL  1 0.0 0.4LRAL                1
 GAP=360        0.30       5.6     2.8  0.0 -0.1530E+02 -0.1562E+05  0.1835E+02E
 ACTION:UPD 13-02-28 14:29 OP:RALL STATUS:               ID:20100803065855     I
 2010-08-03-0658-49S.PLUR1_003                                                 6
 STAT SP IPHASW D HRMM SECON CODA AMPLIT PERI AZIMU VELO AIN AR TRES W  DIS CAZ7
 LA4  SN IP        658 57.22                             143    0.0210 7.73 155 
 LA4  SZ E         658 57.25                  335.2  7.9      0        7.73 155 
 LA4  SE IS        658 58.82                             143   -0.0210 7.73 155 
 LA4  SZ  AML      658 58.93        11.7 0.28                          7.73 155 
                                                                                
