 2010  8 3 0514 49.0 L  21.334 -99.282 10.0  RAL  1 0.1 0.7LRAL                1
 GAP=360        0.51     999.9   999.9  0.0  0.2974E+08 -0.1562E+05  0.1835E+02E
 ACTION:UPD 13-02-28 14:29 OP:RALL STATUS:               ID:20100803051449     I
 2010-08-03-0514-42S.PLUR1_006                                                 6
 STAT SP IPHASW D HRMM SECON CODA AMPLIT PERI AZIMU VELO AIN AR TRES W  DIS CAZ7
 LZ4  SZ E         514 51.08                  284.2 65.7      0        1.30 104 
 LZ4  SN IP        514 51.12                             173    0.2810 1.30 104 
 LZ4  SE IS     C  514 51.91                             173   -0.2810 1.30 104 
 LZ4  SZ  AML      514 52.21        27.6 0.34                          1.30 104 
                                                                                
