 2010  8 3 0904 59.9 L  21.288 -99.254 10.0  RAL  1 0.0 1.3LRAL                1
 GAP=360        0.30       8.0     3.0  0.0 -0.2366E+02 -0.1562E+05  0.1835E+02E
 ACTION:UPD 13-02-28 14:29 OP:RALL STATUS:               ID:20100803090459     I
 2010-08-03-0904-52S.PLUR1_003                                                 6
 STAT SP IPHASW D HRMM SECON CODA AMPLIT PERI AZIMU VELO AIN AR TRES W  DIS CAZ7
 LZ4  SN IP        9 5  1.90                             154    0.0310 5.03 341 
 LZ4  SZ E         9 5  1.94                  160.9  8.2      0        5.03 341 
 LZ4  SE IS        9 5  3.31                             154   -0.0310 5.03 341 
 LZ4  SZ  AML      9 5  3.51        92.4 0.26                          5.03 341 
                                                                                
