 2010  8 3 0652 58.3 L  21.300 -99.260 10.0  RAL  1 0.0 0.6LRAL                1
 GAP=360        0.32      11.7     3.6  0.0 -0.4209E+02 -0.1562E+05  0.1835E+02E
 ACTION:UPD 13-02-28 14:29 OP:RALL STATUS:               ID:20100803065258     I
 2010-08-03-0652-52S.PLUR1_003                                                 6
 STAT SP IPHASW D HRMM SECON CODA AMPLIT PERI AZIMU VELO AIN AR TRES W  DIS CAZ7
 LZ4  SZ E         653  0.19                  163.9 11.0      0        3.54 344 
 LZ4  SN IP        653  0.26                             161    0.0810 3.54 344 
 LZ4  SE IS        653  1.51                             161   -0.0810 3.54 344 
 LZ4  SZ  AML      653  1.99        23.6 0.20                          3.54 344 
                                                                                
