 2010  8 3 0021 50.6 L  21.173 -98.995 10.0  RAL  2 1.2 0.0LRAL                1
 GAP=354       17.19      30.1   219.3493.3  0.1226E+04 -0.7120E+05 -0.2093E+04E
 ACTION:UPD 13-02-28 14:29 OP:RALL STATUS:               ID:20100803002150     I
 2010-08-03-0021-46S.PLUR1_009                                                 6
 STAT SP IPHASW D HRMM SECON CODA AMPLIT PERI AZIMU VELO AIN AR TRES W  DIS CAZ7
 LO8  SN IP        021 56.96                             112    2.1710 22.6 266 
 LO8  SZ E         021 56.98                  136.2  7.0     50        22.6 266 
 LO8  SE IS        021 59.03                             112    1.1910 22.6 266 
 LO8  SZ  AML      021 59.72         1.8 0.62                          22.6 266 
 LD5  SZ E         021 56.15                   27.7  8.6    -64        33.7 273 
 LD5  SN IP     D  021 56.17                             103   -0.2510 33.7 273 
 LD5  SE IS     D  021 57.55                             103   -3.1110 33.7 273 
 LD5  SZ  AML      021 58.26         2.5 0.44                          33.7 273 
                                                                                
