 2010  8 3 0014 41.0 L  21.309 -99.286 10.0  RAL  1 0.1 0.8LRAL                1
 GAP=360        0.63      22.7    17.7  0.0  0.4001E+03  0.3117E+03 -0.2729E+03E
 ACTION:UPD 13-02-28 14:29 OP:RALL STATUS:               ID:20100803001441     I
 2010-08-03-0014-34S.PLUR1_003                                                 6
 STAT SP IPHASW D HRMM SECON CODA AMPLIT PERI AZIMU VELO AIN AR TRES W  DIS CAZ7
 LZ4  SN IP        014 43.31                             164    0.3710 2.98  36 
 LZ4  SZ E      C  014 43.32                  216.0 48.1      0        2.98  36 
 LZ4  SE IS        014 43.95                             164   -0.3710 2.98  36 
 LZ4  SZ  AML      014 44.46        35.7 0.14                          2.98  36 
                                                                                
