 2010  8 3 0602 46.2 L  21.340 -99.297 10.0  RAL  1 0.0 0.7LRAL                1
 GAP=360        0.34       5.0    15.5  0.0 -0.7751E+02 -0.1562E+05  0.1835E+02E
 ACTION:UPD 13-02-28 14:29 OP:RALL STATUS:               ID:20100803060246     I
 2010-08-03-0602-38S.PLUR1_003                                                 6
 STAT SP IPHASW D HRMM SECON CODA AMPLIT PERI AZIMU VELO AIN AR TRES W  DIS CAZ7
 LZ4  SZ E         6 2 48.14                  289.1 23.6      0        2.97 109 
 LZ4  SN IP        6 2 48.18                             164    0.1110 2.97 109 
 LZ4  SE IS        6 2 49.34                             164   -0.1110 2.97 109 
 LZ4  SZ  AML      6 2 50.11        26.3 0.32                          2.97 109 
                                                                                
