 2010  8 3 0932 37.3 L  21.289 -99.253 10.0  RAL  1 0.0 0.7LRAL                1
 GAP=360        0.30       8.0     3.1  0.0 -0.2523E+02 -0.1562E+05  0.1835E+02E
 ACTION:UPD 13-02-28 14:29 OP:RALL STATUS:               ID:20100803093237     I
 2010-08-03-0932-30S.PLUR1_003                                                 6
 STAT SP IPHASW D HRMM SECON CODA AMPLIT PERI AZIMU VELO AIN AR TRES W  DIS CAZ7
 LZ4  SN IP        932 39.32                             154    0.0310 4.97 340 
 LZ4  SZ E         932 39.34                  160.0 13.0      0        4.97 340 
 LZ4  SE IS        932 40.72                             154   -0.0310 4.97 340 
 LZ4  SZ  AML      932 41.40        26.0 0.20                          4.97 340 
                                                                                
