 2010  8 3 0002 41.1 L  21.347 -99.297 10.0  RAL  1 0.1 1.8LRAL                1
 GAP=360        0.50      10.8    18.0  0.0 -0.1948E+03  0.3117E+03 -0.2729E+03E
 ACTION:UPD 13-02-28 14:29 OP:RALL STATUS:               ID:20100803000241     I
 2010-08-03-0002-33S.PLUR1_003                                                 6
 STAT SP IPHASW D HRMM SECON CODA AMPLIT PERI AZIMU VELO AIN AR TRES W  DIS CAZ7
 LZ4  SZ E         0 2 43.28                  302.8 18.7      0        3.39 123 
 LZ4  SN IP     C  0 2 43.29                             162    0.2710 3.39 123 
 LZ4  SE IS        0 2 44.14                             162   -0.2710 3.39 123 
 LZ4  SZ  AML      0 2 44.40       314.4 0.05                          3.39 123 
                                                                                
