 2010  8 3 0823 57.7 L  21.338 -99.286 10.0  RAL  1 0.1 0.6LRAL                1
 GAP=360        0.57      17.3    38.8  0.0 -0.6710E+03 -0.1562E+05  0.1835E+02E
 ACTION:UPD 13-02-28 14:29 OP:RALL STATUS:               ID:20100803082357     I
 2010-08-03-0823-51S.PLUR1_003                                                 6
 STAT SP IPHASW D HRMM SECON CODA AMPLIT PERI AZIMU VELO AIN AR TRES W  DIS CAZ7
 LZ4  SZ E         823 59.85                  295.6 31.8      0        1.85 116 
 LZ4  SN IP        823 59.87                             170    0.3310 1.85 116 
 LZ4  SE IS        824  0.57                             170   -0.3310 1.85 116 
 LZ4  SZ  AML      824  0.70        20.5 0.16                          1.85 116 
                                                                                
