 2010  8 3 1516 38.2 L  21.328 -99.218 10.0  RAL  1 0.0 0.7LRAL                1
 GAP=360        0.30       0.4     8.5  0.0 -0.3647E+01 -0.1386E+06 -0.3013E+05E
 ACTION:UPD 13-02-28 14:29 OP:RALL STATUS:               ID:20100803151638     I
 2010-08-03-1516-31S.PLUR1_003                                                 6
 STAT SP IPHASW D HRMM SECON CODA AMPLIT PERI AZIMU VELO AIN AR TRES W  DIS CAZ7
 LZ4  SN IP       1516 40.28                             152    0.0110 5.40 273 
 LZ4  SZ E        1516 40.29                   93.1 13.5      0        5.40 273 
 LZ4  SE IS       1516 41.75                             152   -0.0110 5.40 273 
 LZ4  SZ  AML     1516 41.86        27.8 0.34                          5.40 273 
                                                                                
