 2010  8 3 1450 56.6 L  21.153 -99.207 17.4  RAL  2 0.7 0.9LRAL                1
 GAP=328       11.74      52.8   200.6823.4  0.8393E+04 -0.1386E+06 -0.3013E+05E
 ACTION:UPD 13-02-28 14:29 OP:RALL STATUS:               ID:20100803145056     I
 2010-08-03-1450-50S.PLUR1_009                                                 6
 STAT SP IPHASW D HRMM SECON CODA AMPLIT PERI AZIMU VELO AIN AR TRES W  DIS CAZ7
 LO8  SN IP       1451  0.53                             103    0.9310 0.96 320 
 LO8  SZ E        1451  0.64                  141.8  5.7      2        0.96 320 
 LO8  SE IS       1451  2.53                             103    0.7110 0.96 320 
 LO8  SZ  AML     1451  3.05        16.5 0.30                          0.96 320 
 LD5  SZ E        1450 59.99                   50.8 10.9    -56        12.3 287 
 LD5  SN IP       1450 59.99                             100   -0.1510 12.3 287 
 LD5  SE IS       1451  1.25                             100   -1.5010 12.3 287 
 LD5  SZ  AML     1451  1.85        28.6 0.28                          12.3 287 
                                                                                
