 2010  8 3 1240  4.8 L  21.347 -99.296 10.0  RAL  1 0.1 0.7LRAL                1
 GAP=360        0.45      10.4    16.7  0.0 -0.1737E+03 -0.6523E+06 -0.8919E+05E
 ACTION:UPD 13-02-28 14:29 OP:RALL STATUS:               ID:20100803124004     I
 2010-08-03-1239-58S.PLUR1_003                                                 6
 STAT SP IPHASW D HRMM SECON CODA AMPLIT PERI AZIMU VELO AIN AR TRES W  DIS CAZ7
 LZ4  SZ E        1240  6.98                  303.7 17.3      0        3.25 124 
 LZ4  SN IP       1240  6.98                             162    0.2310 3.25 124 
 LZ4  SE IS       1240  7.91                             162   -0.2310 3.25 124 
 LZ4  SZ  AML     1240  8.87        26.4 0.50                          3.25 124 
                                                                                
