 2010  8 3 1312 40.3 L  21.275 -99.250 10.0  RAL  1 0.0 1.2LRAL                1
 GAP=360        0.30       6.6     2.3  0.0 -0.1504E+02 -0.6523E+06 -0.8919E+05E
 ACTION:UPD 13-02-28 14:29 OP:RALL STATUS:               ID:20100803131240     I
 2010-08-03-1312-33S.PLUR1_003                                                 6
 STAT SP IPHASW D HRMM SECON CODA AMPLIT PERI AZIMU VELO AIN AR TRES W  DIS CAZ7
 LZ4  SZ E        1312 42.42                  161.9 10.8      0        6.48 342 
 LZ4  SN IP       1312 42.46                             147    0.0210 6.48 342 
 LZ4  SE IS       1312 43.97                             147   -0.0210 6.48 342 
 LZ4  SZ  AML     1312 44.31        69.7 0.36                          6.48 342 
                                                                                
