 2010  8 3 1309 46.4 L  21.271 -99.250 10.0  RAL  1 0.0 0.9LRAL                1
 GAP=360        0.30       6.3     2.0  0.0 -0.1276E+02 -0.6523E+06 -0.8919E+05E
 ACTION:UPD 13-02-28 14:29 OP:RALL STATUS:               ID:20100803130946     I
 2010-08-03-1309-38S.PLUR1_003                                                 6
 STAT SP IPHASW D HRMM SECON CODA AMPLIT PERI AZIMU VELO AIN AR TRES W  DIS CAZ7
 LZ4  SZ E        13 9 48.56                  163.2 11.7      0        6.91 343 
 LZ4  SN IP       13 9 48.57                             146    0.0110 6.91 343 
 LZ4  SE IS       13 9 50.12                             146   -0.0110 6.91 343 
 LZ4  SZ  AML     13 9 50.44        41.4 0.36                          6.91 343 
                                                                                
