 2010  8 3 1114 33.6 L  21.337 -99.284 10.0  RAL  1 0.1 0.9LRAL                1
 GAP=360        0.57      18.4    45.1  0.0 -0.8291E+03 -0.6523E+06 -0.8919E+05E
 ACTION:UPD 13-02-28 14:29 OP:RALL STATUS:               ID:20100803111433     I
 2010-08-03-1114-27S.PLUR1_003                                                 6
 STAT SP IPHASW D HRMM SECON CODA AMPLIT PERI AZIMU VELO AIN AR TRES W  DIS CAZ7
 LZ4  SZ E        1114 35.79                  293.7 23.5      0        1.62 114 
 LZ4  SN IP       1114 35.82                             171    0.3310 1.62 114 
 LZ4  SE IS       1114 36.51                             171   -0.3310 1.62 114 
 LZ4  SZ  AML     1114 37.04        45.3 0.14                          1.62 114 
                                                                                
