 2010  8 3 1522  0.3 L  21.333 -99.281 10.0  RAL  1 0.1 0.7LRAL                1
 GAP=360        0.60     999.9   989.0  0.0  0.3461E+07 -0.1386E+06 -0.3013E+05E
 ACTION:UPD 13-02-28 14:29 OP:RALL STATUS:               ID:20100803152200     I
 2010-08-03-1521-52S.PLUR1_003                                                 6
 STAT SP IPHASW D HRMM SECON CODA AMPLIT PERI AZIMU VELO AIN AR TRES W  DIS CAZ7
 LZ4  SZ E        1522  2.49                  283.8 31.7      0        1.23 104 
 LZ4  SN IP       1522  2.51                             173    0.3510 1.23 104 
 LZ4  SE IS       1522  3.15                             173   -0.3510 1.23 104 
 LZ4  SZ  AML     1522  3.78        29.9 0.14                          1.23 104 
                                                                                
