 2010  8 3 1342  1.3 L  21.273 -99.245 10.0  RAL  1 0.0 0.4LRAL                1
 GAP=360        0.30       6.1     2.6  0.0 -0.1609E+02 -0.6523E+06 -0.8919E+05E
 ACTION:UPD 13-02-28 14:29 OP:RALL STATUS:               ID:20100803134201     I
 2010-08-03-1341-54S.PLUR1_003                                                 6
 STAT SP IPHASW D HRMM SECON CODA AMPLIT PERI AZIMU VELO AIN AR TRES W  DIS CAZ7
 LZ4  SZ E        1342  3.46                  158.2 10.8      0        6.89 338 
 LZ4  SN IP       1342  3.47                             146    0.0210 6.89 338 
 LZ4  SE IS       1342  5.00                             146   -0.0210 6.89 338 
 LZ4  SZ  AML     1342  5.96        12.2 0.10                          6.89 338 
                                                                                
