 2010  8 3 1414 12.7 L  21.343 -99.297 10.0  RAL  1 0.1 0.6LRAL                1
 GAP=360        0.38       6.7    15.7  0.0 -0.1055E+03 -0.6523E+06 -0.8919E+05E
 ACTION:UPD 13-02-28 14:29 OP:RALL STATUS:               ID:20100803141412     I
 2010-08-03-1414-05S.PLUR1_003                                                 6
 STAT SP IPHASW D HRMM SECON CODA AMPLIT PERI AZIMU VELO AIN AR TRES W  DIS CAZ7
 LZ4  SZ E        1414 14.70                  294.6 21.4      0        3.16 115 
 LZ4  SN IP       1414 14.72                             163    0.1610 3.16 115 
 LZ4  SE IS       1414 15.79                             163   -0.1610 3.16 115 
 LZ4  SZ  AML     1414 16.03        21.8 0.26                          3.16 115 
                                                                                
