 2010  8 3 1136 37.5 L  21.414 -99.352 10.0  RAL  1 0.0 1.9LRAL                1
 GAP=360        0.30       3.4     3.4  0.0 -0.1162E+02 -0.6523E+06 -0.8919E+05E
 ACTION:UPD 13-02-28 14:29 OP:RALL STATUS:               ID:20100803113637     I
 2010-08-03-1136-30S.PLUR1_003                                                 6
 STAT SP IPHASW D HRMM SECON CODA AMPLIT PERI AZIMU VELO AIN AR TRES W  DIS CAZ7
 LZ4  SZ E        1136 40.25                  317.0  6.2      0        12.6 137 
 LZ4  SN IP       1136 40.28                             127    0.0210 12.6 137 
 LZ4  SE IS       1136 42.26                             127   -0.0210 12.6 137 
 LZ4  SZ  AML     1136 43.39       282.3 0.30                          12.6 137 
                                                                                
