 2010  8 3 1638  3.8 L  21.311 -99.238 10.0  RAL  1 0.1 1.1LRAL                1
 GAP=360        0.39       7.7    12.1  0.0 -0.9251E+02 -0.1386E+06 -0.3013E+05E
 ACTION:UPD 13-02-28 14:29 OP:RALL STATUS:               ID:20100803163803     I
 2010-08-03-1637-56S.PLUR1_003                                                 6
 STAT SP IPHASW D HRMM SECON CODA AMPLIT PERI AZIMU VELO AIN AR TRES W  DIS CAZ7
 LZ4  SN IP       1638  5.91                             159    0.1710 3.96 304 
 LZ4  SZ E        1638  5.93                  124.3 19.8      0        3.96 304 
 LZ4  SE IS       1638  6.98                             159   -0.1710 3.96 304 
 LZ4  SZ  AML     1638  7.56        62.0 0.30                          3.96 304 
                                                                                
