 2010  8 3 1836 38.2 L  21.307 -99.288 10.0  RAL  1 0.2 1.0LRAL                1
 GAP=360        0.91      29.7    23.4  0.0  0.6934E+03 -0.1386E+06 -0.3013E+05E
 ACTION:UPD 13-02-28 14:29 OP:RALL STATUS:               ID:20100803183638     I
 2010-08-03-1836-31S.PLUR1_003                                                 6
 STAT SP IPHASW D HRMM SECON CODA AMPLIT PERI AZIMU VELO AIN AR TRES W  DIS CAZ7
 LZ4  SZ E        1836 40.51                  213.4 40.8     -2        3.31  36 
 LZ4  SN IP       1836 40.52                             162    0.4110 3.31  36 
 LZ4  SE IS       1836 41.10                             162   -0.4110 3.31  36 
 LZ4  SZ  AML     1836 41.67        53.5 0.10                          3.31  36 
                                                                                
