 2010  8 3 1616  1.8 L  21.283 -99.225 10.0  RAL  1 0.0 0.5LRAL                1
 GAP=360        0.30       4.9     4.6  0.0 -0.2271E+02 -0.1386E+06 -0.3013E+05E
 ACTION:UPD 13-02-28 14:29 OP:RALL STATUS:               ID:20100803161601     I
 2010-08-03-1615-55S.PLUR1_003                                                 6
 STAT SP IPHASW D HRMM SECON CODA AMPLIT PERI AZIMU VELO AIN AR TRES W  DIS CAZ7
 LZ4  SN IP       1616  4.04                             145    0.0310 7.04 319 
 LZ4  SZ E        1616  4.05                  138.9 15.3      0        7.04 319 
 LZ4  SE IS       1616  5.56                             145   -0.0310 7.04 319 
 LZ4  SZ  AML     1616  6.59        15.1 0.12                          7.04 319 
                                                                                
