 2010  8 3 1345 20.4 L  21.502 -99.319 10.0  RAL  1 0.2 0.4LRAL                1
 GAP=360        0.67      34.6    20.1  0.0 -0.6951E+03 -0.6523E+06 -0.8919E+05E
 ACTION:UPD 13-02-28 14:29 OP:RALL STATUS:               ID:20100803134520     I
 2010-08-03-1345-13S.PLUR1_003                                                 6
 STAT SP IPHASW D HRMM SECON CODA AMPLIT PERI AZIMU VELO AIN AR TRES W  DIS CAZ7
 LA4  SZ E        1345 22.72                  331.6  9.3      0        2.27 152 
 LA4  SN IP       1345 22.73                             168    0.4110 2.27 152 
 LA4  SE IS       1345 23.29                             168   -0.4110 2.27 152 
 LA4  SZ  AML     1345 23.33        12.9 0.10                          2.27 152 
                                                                                
