 2010  8 3 1047 23.9 L  21.222 -98.832 10.0  RAL  2 1.5 0.6LRAL                1
 GAP=355       21.98      78.5   379.0999.9  0.1871E+05 -0.6523E+06 -0.8919E+05E
 ACTION:UPD 13-02-28 14:29 OP:RALL STATUS:               ID:20100803104723     I
 2010-08-03-1047-21S.PLUR1_009                                                 6
 STAT SP IPHASW D HRMM SECON CODA AMPLIT PERI AZIMU VELO AIN AR TRES W  DIS CAZ7
 LO8  SN IP       1047 33.09                             100    2.4110 40.1 260 
 LO8  SZ E        1047 33.10                  147.4  6.2     67        40.1 260 
 LO8  SE IS       1047 36.57                             100    0.9210 40.1 260 
 LO8  SZ  AML     1047 37.51         5.9 0.74                          40.1 260 
 LD5  SZ E        1047 32.26                    4.2  8.8    -80        50.8 266 
 LD5  SN IP       1047 32.30                              97    0.0110 50.8 266 
 LD5  SE IS       1047 35.10                              97   -3.3410 50.8 266 
 LD5  SZ  AML     1047 37.06         4.2 0.28                          50.8 266 
                                                                                
