 2010  8 3 1157 12.0 L  21.484 -99.141 10.0  RAL  1 0.0 0.6LRAL                1
 GAP=360        0.30       3.1     2.7  0.0  0.8060E+01 -0.6523E+06 -0.8919E+05E
 ACTION:UPD 13-02-28 14:29 OP:RALL STATUS:               ID:20100803115712     I
 2010-08-03-1157-09S.PLUR1_003                                                 6
 STAT SP IPHASW D HRMM SECON CODA AMPLIT PERI AZIMU VELO AIN AR TRES W  DIS CAZ7
 LZ4  SN IP       1157 16.00                             111    0.0010 21.6 218 
 LZ4  SZ E        1157 16.05                   38.1  7.5      0        21.6 218 
 LZ4  SE IS       1157 18.91                             111    0.0010 21.6 218 
 LZ4  SZ  AML     1157 19.37        10.4 0.10                          21.6 218 
                                                                                
