 2010  8 3 1025 50.3 L  21.324 -99.286 10.0  RAL  1 0.2 1.0LRAL                1
 GAP=360        0.80     999.9   898.0  0.0 -0.1616E+07  0.1944E+07  0.9168E+06E
 ACTION:UPD 13-02-28 14:29 OP:RALL STATUS:               ID:20100803102550     I
 2010-08-03-1025-42S.PLUR1_003                                                 6
 STAT SP IPHASW D HRMM SECON CODA AMPLIT PERI AZIMU VELO AIN AR TRES W  DIS CAZ7
 LZ4  SZ E        1025 52.65                  246.6 30.2      0        1.91  67 
 LZ4  SN IP       1025 52.68                             170    0.5010 1.91  67 
 LZ4  SE IS       1025 53.03                             170   -0.5010 1.91  67 
 LZ4  SZ  AML     1025 53.90        49.9 0.20                          1.91  67 
                                                                                
