 2010  8 3 1907  7.7 L  21.404 -99.343 10.0  RAL  1 0.2-0.6LRAL                1
 GAP=360        0.71      22.6    43.2  0.0 -0.9754E+03 -0.1386E+06 -0.3013E+05E
 ACTION:UPD 13-02-28 14:29 OP:RALL STATUS:               ID:20100803190707     I
 2010-08-03-1907-00S.PLUR1_003                                                 6
 STAT SP IPHASW D HRMM SECON CODA AMPLIT PERI AZIMU VELO AIN AR TRES W  DIS CAZ7
 LT9  SZ E        19 7  9.89                  299.3 11.1      0        1.95 119 
 LT9  SN IP     D 19 7  9.93                             169    0.4310 1.95 119 
 LT9  SE IS       19 7 10.38                             169   -0.4310 1.95 119 
 LT9  SZ  AML     19 7 10.59         1.3 0.38                          1.95 119 
                                                                                
