 2010  8 3 1747 57.3 L  21.322 -99.271 10.0  RAL  1 0.2 0.9LRAL                1
 GAP=360        2.69     546.1   902.0  0.0 -0.4925E+06 -0.1386E+06 -0.3013E+05E
 ACTION:UPD 13-02-28 14:29 OP:RALL STATUS:               ID:20100803174757     I
 2010-08-03-1747-50S.PLUR1_003                                                 6
 STAT SP IPHASW D HRMM SECON CODA AMPLIT PERI AZIMU VELO AIN AR TRES W  DIS CAZ7
 LZ4  SZ E        1747 59.36                  179.0 24.2    -12        0.96  12 
 LZ4  SN IP       1747 59.42                             175    0.3010 0.96  12 
 LZ4  SE IS       1748  0.17                             175   -0.3010 0.96  12 
 LZ4  SZ  AML     1748  0.57        43.8 0.22                          0.96  12 
                                                                                
