 2010  8 3 1859 40.8 L  21.400 -99.291 10.0  RAL  1 0.0 1.0LRAL                1
 GAP=360        0.30       5.7     1.8  0.0 -0.9942E+01 -0.1386E+06 -0.3013E+05E
 ACTION:UPD 13-02-28 14:29 OP:RALL STATUS:               ID:20100803185940     I
 2010-08-03-1859-33S.PLUR1_003                                                 6
 STAT SP IPHASW D HRMM SECON CODA AMPLIT PERI AZIMU VELO AIN AR TRES W  DIS CAZ7
 LZ4  SN IP       1859 43.04                             141    0.0210 8.01 164 
 LZ4  SZ E        1859 43.06                  344.2  7.7      0        8.01 164 
 LZ4  SE IS       1859 44.65                             141   -0.0210 8.01 164 
 LZ4  SZ  AML     1859 44.98        44.4 0.38                          8.01 164 
                                                                                
