 2010  8 3 1349 19.6 L  21.335 -99.276 10.0  RAL  1 0.5 0.2LRAL                1
 GAP=360        6.86     999.9   999.9  0.0  0.6457E+09 -0.6523E+06 -0.8919E+05E
 ACTION:UPD 13-02-28 14:29 OP:RALL STATUS:               ID:20100803134919     I
 2010-08-03-1349-13S.PLUR1_003                                                 6
 STAT SP IPHASW D HRMM SECON CODA AMPLIT PERI AZIMU VELO AIN AR TRES W  DIS CAZ7
 LZ4  SN IP       1349 21.58                             176    0.1410 0.76 124 
 LZ4  SZ E        1349 21.58                  271.2 27.3    -32        0.76 124 
 LZ4  SE IS       1349 22.63                             176   -0.1410 0.76 124 
 LZ4  SZ  AML     1349 22.95         8.6 0.24                          0.76 124 
                                                                                
