 2010  8 3 1512 16.0 L  21.372 -99.211 10.0  RAL  1 0.0 0.7LRAL                1
 GAP=360        0.30       3.7     5.3  0.0  0.1950E+02 -0.1386E+06 -0.3013E+05E
 ACTION:UPD 13-02-28 14:29 OP:RALL STATUS:               ID:20100803151216     I
 2010-08-03-1512-10S.PLUR1_003                                                 6
 STAT SP IPHASW D HRMM SECON CODA AMPLIT PERI AZIMU VELO AIN AR TRES W  DIS CAZ7
 LZ4  SZ E        1512 18.21                   52.8 21.3      0        7.63 233 
 LZ4  SN IP       1512 18.22                             143    0.0210 7.63 233 
 LZ4  SE IS       1512 19.80                             143   -0.0210 7.63 233 
 LZ4  SZ  AML     1512 20.24        21.0 0.20                          7.63 233 
                                                                                
