 2010  8 3 1755 56.8 L  21.314 -99.278 10.0  RAL  1 0.1 0.9LRAL                1
 GAP=360        0.60      33.7    18.0  0.0  0.6062E+03 -0.1386E+06 -0.3013E+05E
 ACTION:UPD 13-02-28 14:29 OP:RALL STATUS:               ID:20100803175556     I
 2010-08-03-1755-39S.PLUR1_003                                                 6
 STAT SP IPHASW D HRMM SECON CODA AMPLIT PERI AZIMU VELO AIN AR TRES W  DIS CAZ7
 LZ4  SZ E        1755 59.00                  206.5 44.7      0        2.08  27 
 LZ4  SN IP       1755 59.02                             169    0.3510 2.08  27 
 LZ4  SE IS       1755 59.68                             169   -0.3510 2.08  27 
 LZ4  SZ  AML     1756  0.37        43.9 0.22                          2.08  27 
                                                                                
