 2010  8 3 1941 17.6 L  21.332 -99.272 10.0  RAL  1 0.5 0.9LRAL                1
 GAP=360        5.78     999.9   999.9  0.0  0.6091E+07 -0.1386E+06 -0.3013E+05E
 ACTION:UPD 13-02-28 14:29 OP:RALL STATUS:               ID:20100803194117     I
 2010-08-03-1941-11S.PLUR1_003                                                 6
 STAT SP IPHASW D HRMM SECON CODA AMPLIT PERI AZIMU VELO AIN AR TRES W  DIS CAZ7
 LZ4  SZ E        1941 19.88                  265.9 35.7    -26        0.25 113 
 LZ4  SN IP       1941 19.88                             179    0.4210 0.25 113 
 LZ4  SE IS       1941 20.37                             179   -0.4210 0.25 113 
 LZ4  SZ  AML     1941 20.56        44.2 0.14                          0.25 113 
                                                                                
