 2010  8 3 1840 35.4 L  21.338 -99.287 10.0  RAL  1 0.1 1.7LRAL                1
 GAP=360        0.48      12.1    31.6  0.0 -0.3826E+03 -0.1386E+06 -0.3013E+05E
 ACTION:UPD 13-02-28 14:29 OP:RALL STATUS:               ID:20100803184035     I
 2010-08-03-1840-28S.PLUR1_003                                                 6
 STAT SP IPHASW D HRMM SECON CODA AMPLIT PERI AZIMU VELO AIN AR TRES W  DIS CAZ7
 LZ4  SZ E        1840 37.51                  292.3 17.1      0        1.99 112 
 LZ4  SN IP       1840 37.53                             169    0.2610 1.99 112 
 LZ4  SE IS       1840 38.37                             169   -0.2610 1.99 112 
 LZ4  SZ  AML     1840 38.46       270.1 0.10                          1.99 112 
                                                                                
