 2010  8 3 1325  3.7 L  21.301 -99.251 10.0  RAL  1 0.1 0.5LRAL                1
 GAP=360        0.38      11.7     7.5  0.0 -0.8801E+02 -0.6523E+06 -0.8919E+05E
 ACTION:UPD 13-02-28 14:29 OP:RALL STATUS:               ID:20100803132503     I
 2010-08-03-1324-57S.PLUR1_003                                                 6
 STAT SP IPHASW D HRMM SECON CODA AMPLIT PERI AZIMU VELO AIN AR TRES W  DIS CAZ7
 LZ4  SZ E        1325  5.73                  149.0 14.2      0        3.81 329 
 LZ4  SN IP       1325  5.77                             160    0.1610 3.81 329 
 LZ4  SE IS       1325  6.86                             160   -0.1610 3.81 329 
 LZ4  SZ  AML     1325  7.10        16.2 0.46                          3.81 329 
                                                                                
