 2010  8 3 1426 43.6 L  21.349 -99.293 10.0  RAL  1 0.1 1.5LRAL                1
 GAP=360        0.60      15.8    21.3  0.0 -0.3363E+03 -0.6523E+06 -0.8919E+05E
 ACTION:UPD 13-02-28 14:29 OP:RALL STATUS:               ID:20100803142643     I
 2010-08-03-1426-36S.PLUR1_003                                                 6
 STAT SP IPHASW D HRMM SECON CODA AMPLIT PERI AZIMU VELO AIN AR TRES W  DIS CAZ7
 LZ4  SN IP       1426 45.81                             163    0.3510 3.16 128 
 LZ4  SZ E        1426 45.82                  308.5 22.0      0        3.16 128 
 LZ4  SE IS       1426 46.50                             163   -0.3510 3.16 128 
 LZ4  SZ  AML     1426 46.92       171.5 0.16                          3.16 128 
                                                                                
