 2010  8 3 1600 24.5 L  21.501 -99.323 10.0  RAL  1 0.2 0.9LRAL                1
 GAP=360        0.66      29.0    23.1  0.0 -0.6685E+03 -0.1386E+06 -0.3013E+05E
 ACTION:UPD 13-02-28 14:29 OP:RALL STATUS:               ID:20100803160024     I
 2010-08-03-1600-17S.PLUR1_003                                                 6
 STAT SP IPHASW D HRMM SECON CODA AMPLIT PERI AZIMU VELO AIN AR TRES W  DIS CAZ7
 LA4  SZ E        16 0 26.77                  323.4 11.0      0        2.44 143 
 LA4  SN IP       16 0 26.83                             167    0.4010 2.44 143 
 LA4  SE IS       16 0 27.41                             167   -0.4010 2.44 143 
 LA4  SZ  AML     16 0 27.52        47.6 0.24                          2.44 143 
                                                                                
