 2010  8 3 1021 12.2 L  21.390 -98.791  5.0  RAL  2 1.5 0.8LRAL                1
 GAP=352       20.85     467.5   983.1999.9  0.4531E+06  0.1944E+07  0.9168E+06E
 ACTION:UPD 13-02-28 14:29 OP:RALL STATUS:               ID:20100803102112     I
 2010-08-03-1021-11S.PLUR1_009                                                 6
 STAT SP IPHASW D HRMM SECON CODA AMPLIT PERI AZIMU VELO AIN AR TRES W  DIS CAZ7
 LO8  SN IP       1021 23.05                              63    2.8410 50.7 240 
 LO8  SZ E        1021 23.09                  141.3  7.2     82        50.7 240 
 LO8  SE IS       1021 26.52                              63    0.4310 50.7 240 
 LO8  SZ  AML     1021 27.43         9.2 0.74                          50.7 240 
 LD5  SN IP       1021 22.08                              63    0.5510 59.3 248 
 LD5  SZ E        1021 22.09                   11.1  7.9    -55        59.3 248 
 LD5  SE IS       1021 24.55                              63   -3.8210 59.3 248 
 LD5  SZ  AML     1021 26.91         5.7 0.36                          59.3 248 
                                                                                
