 2010  8 3 1053 46.8 L  21.296 -99.235 10.0  RAL  1 0.0 1.3LRAL                1
 GAP=360        0.32       6.3     6.4  0.0 -0.4055E+02 -0.6523E+06 -0.8919E+05E
 ACTION:UPD 13-02-28 14:29 OP:RALL STATUS:               ID:20100803105346     I
 2010-08-03-1053-39S.PLUR1_003                                                 6
 STAT SP IPHASW D HRMM SECON CODA AMPLIT PERI AZIMU VELO AIN AR TRES W  DIS CAZ7
 LZ4  SZ E        1053 48.91                  136.7 22.6      0        5.24 317 
 LZ4  SN IP       1053 48.92                             153    0.0810 5.24 317 
 LZ4  SE IS       1053 50.24                             153   -0.0810 5.24 317 
 LZ4  SZ  AML     1053 50.60        99.6 0.20                          5.24 317 
                                                                                
