 2010  8 3 1908 31.4 L  21.339 -99.288 10.0  RAL  1 0.1 0.9LRAL                1
 GAP=360        0.58     999.9   586.5  0.0  0.6305E+06 -0.1386E+06 -0.3013E+05E
 ACTION:UPD 13-02-28 14:29 OP:RALL STATUS:               ID:20100803190831     I
 2010-08-03-1908-23S.PLUR1_003                                                 6
 STAT SP IPHASW D HRMM SECON CODA AMPLIT PERI AZIMU VELO AIN AR TRES W  DIS CAZ7
 LZ4  SZ E        19 8 33.52                  295.2 20.4      0        2.06 115 
 LZ4  SN IP       19 8 33.56                             169    0.3410 2.06 115 
 LZ4  SE IS       19 8 34.24                             169   -0.3410 2.06 115 
 LZ4  SZ  AML     19 8 34.85        45.9 0.18                          2.06 115 
                                                                                
