 2010  8 3 1350 41.6 L  21.346 -99.287 10.0  RAL  1 0.1 0.8LRAL                1
 GAP=360        0.62      21.8    26.4  0.0 -0.5748E+03 -0.6523E+06 -0.8919E+05E
 ACTION:UPD 13-02-28 14:29 OP:RALL STATUS:               ID:20100803135041     I
 2010-08-03-1350-34S.PLUR1_003                                                 6
 STAT SP IPHASW D HRMM SECON CODA AMPLIT PERI AZIMU VELO AIN AR TRES W  DIS CAZ7
 LZ4  SN IP       1350 43.86                             166    0.3610 2.48 131 
 LZ4  SZ E        1350 43.89                  311.5 24.2      0        2.48 131 
 LZ4  SE IS       1350 44.50                             166   -0.3610 2.48 131 
 LZ4  SZ  AML     1350 44.92        37.4 0.14                          2.48 131 
                                                                                
