 2010  8 3 1358  1.2 L  21.334 -99.282 10.0  RAL  1 0.2 0.4LRAL                1
 GAP=360        2.70     999.9   110.2  0.0  0.1397E+06 -0.6523E+06 -0.8919E+05E
 ACTION:UPD 13-02-28 14:29 OP:RALL STATUS:               ID:20100803135801     I
 2010-08-03-1357-54S.PLUR1_003                                                 6
 STAT SP IPHASW D HRMM SECON CODA AMPLIT PERI AZIMU VELO AIN AR TRES W  DIS CAZ7
 LZ4  SN IP       1358  3.40                             173    0.3310 1.31 107 
 LZ4  SZ E        1358  3.41                  274.2 32.9    -12        1.31 107 
 LZ4  SE IS       1358  4.08                             173   -0.3310 1.31 107 
 LZ4  SZ  AML     1358  4.25        13.3 0.14                          1.31 107 
                                                                                
