 2010  8 3 1749 14.9 L  21.354 -99.288 10.0  RAL  1 0.1 0.6LRAL                1
 GAP=360        0.47      15.8    13.1  0.0 -0.2066E+03 -0.1386E+06 -0.3013E+05E
 ACTION:UPD 13-02-28 14:29 OP:RALL STATUS:               ID:20100803174914     I
 2010-08-03-1749-08S.PLUR1_003                                                 6
 STAT SP IPHASW D HRMM SECON CODA AMPLIT PERI AZIMU VELO AIN AR TRES W  DIS CAZ7
 LZ4  SN IP       1749 17.03                             163    0.2510 3.20 142 
 LZ4  SZ E        1749 17.04                  322.2 15.8      0        3.20 142 
 LZ4  SE IS       1749 17.92                             163   -0.2510 3.20 142 
 LZ4  SZ  AML     1749 18.37        20.4 0.30                          3.20 142 
                                                                                
