 2010  8 3 1115 46.1 L  21.326 -99.280 10.0  RAL  1 0.0 0.8LRAL                1
 GAP=360        0.30       4.1     0.9  0.0 -0.3101E+01 -0.6523E+06 -0.8919E+05E
 ACTION:UPD 13-02-28 14:29 OP:RALL STATUS:               ID:20100803111546     I
 2010-08-03-1115-42S.PLUR1_003                                                 6
 STAT SP IPHASW D HRMM SECON CODA AMPLIT PERI AZIMU VELO AIN AR TRES W  DIS CAZ7
 LA4  SZ E        1115 49.60                  170.2  7.7      0        17.7 350 
 LA4  SN IP       1115 49.60                             117    0.0210 17.7 350 
 LA4  SE IS       1115 52.08                             117   -0.0210 17.7 350 
 LA4  SZ  AML     1115 52.43        19.9 0.20                          17.7 350 
                                                                                
