 2010  8 3 1315 17.9 L  21.295 -99.229 10.0  RAL  1 0.0 0.9LRAL                1
 GAP=360        0.31       5.3     6.1  0.0 -0.3227E+02 -0.6523E+06 -0.8919E+05E
 ACTION:UPD 13-02-28 14:29 OP:RALL STATUS:               ID:20100803131517     I
 2010-08-03-1315-11S.PLUR1_003                                                 6
 STAT SP IPHASW D HRMM SECON CODA AMPLIT PERI AZIMU VELO AIN AR TRES W  DIS CAZ7
 LZ4  SZ E        1315 20.03                  133.2 19.9      0        5.82 313 
 LZ4  SN IP       1315 20.03                             150    0.0610 5.82 313 
 LZ4  SE IS       1315 21.42                             150   -0.0610 5.82 313 
 LZ4  SZ  AML     1315 21.59        41.7 0.34                          5.82 313 
                                                                                
