 2010  8 3 1334 55.2 L  21.402 -99.271 10.0  RAL  1 0.0 0.1LRAL                1
 GAP=360        0.30       4.9     2.3  0.0 -0.1096E+02 -0.6523E+06 -0.8919E+05E
 ACTION:UPD 13-02-28 14:29 OP:RALL STATUS:               ID:20100803133455     I
 2010-08-03-1334-50S.PLUR1_003                                                 6
 STAT SP IPHASW D HRMM SECON CODA AMPLIT PERI AZIMU VELO AIN AR TRES W  DIS CAZ7
 LA4  SN IP       1334 57.70                             135    0.0210 9.81 337 
 LA4  SZ E        1334 57.72                  156.5  7.8      0        9.81 337 
 LA4  SE IS       1334 59.45                             135   -0.0210 9.81 337 
 LA4  SZ  AML     1334 59.58         5.2 0.14                          9.81 337 
                                                                                
