 2010  8 3 1536 12.0 L  21.326 -99.245 10.0  RAL  1 0.0 0.4LRAL                1
 GAP=360        0.31       3.6    16.6  0.0 -0.5922E+02 -0.1386E+06 -0.3013E+05E
 ACTION:UPD 13-02-28 14:29 OP:RALL STATUS:               ID:20100803153612     I
 2010-08-03-1536-05S.PLUR1_003                                                 6
 STAT SP IPHASW D HRMM SECON CODA AMPLIT PERI AZIMU VELO AIN AR TRES W  DIS CAZ7
 LZ4  SN IP       1536 13.97                             166    0.0710 2.62 283 
 LZ4  SZ E        1536 13.98                  102.9 14.2      0        2.62 283 
 LZ4  SE IS       1536 15.20                             166   -0.0710 2.62 283 
 LZ4  SZ  AML     1536 15.96        14.4 0.32                          2.62 283 
                                                                                
