 2010  8 3 2029 32.4 L  21.332 -99.281 10.0  RAL  1 0.3 1.6LRAL                1
 GAP=360        3.18     406.8   433.2  0.0  0.1762E+06  0.2348E+02 -0.9737E+01E
 ACTION:UPD 13-02-28 14:29 OP:RALL STATUS:               ID:20100803202932     I
 2010-08-03-2029-25S.PLUR1_003                                                 6
 STAT SP IPHASW D HRMM SECON CODA AMPLIT PERI AZIMU VELO AIN AR TRES W  DIS CAZ7
 LZ4  SZ E        2029 34.59                  263.3 40.9    -14        1.21  98 
 LZ4  SN IP       2029 34.62                             173    0.3610 1.21  98 
 LZ4  SE IS       2029 35.24                             173   -0.3610 1.21  98 
 LZ4  SZ  AML     2029 35.59       211.8 0.34                          1.21  98 
                                                                                
