 2010  8 3 2250  6.0 L  21.331 -99.281 10.0  RAL  1 0.2 0.8LRAL                1
 GAP=360        1.92     446.9   252.3  0.0  0.1127E+06  0.2348E+02 -0.9737E+01E
 ACTION:UPD 13-02-28 14:29 OP:RALL STATUS:               ID:20100803225006     I
 2010-08-03-2249-59S.PLUR1_003                                                 6
 STAT SP IPHASW D HRMM SECON CODA AMPLIT PERI AZIMU VELO AIN AR TRES W  DIS CAZ7
 LZ4  SZ E        2250  8.18                  263.6 41.1     -8        1.15  92 
 LZ4  SN IP       2250  8.19                             174    0.3610 1.15  92 
 LZ4  SE IS       2250  8.82                             174   -0.3610 1.15  92 
 LZ4  SZ  AML     2250  9.24        34.3 0.12                          1.15  92 
                                                                                
