 2010  8 3 2030 46.7 L  21.351 -99.300 10.0  RAL  1 0.0-0.5LRAL                1
 GAP=360        0.30       6.7     4.0  0.0 -0.2643E+02  0.2348E+02 -0.9737E+01E
 ACTION:UPD 13-02-28 14:29 OP:RALL STATUS:               ID:20100803203046     I
 2010-08-03-2030-40S.PLUR1_006                                                 6
 STAT SP IPHASW D HRMM SECON CODA AMPLIT PERI AZIMU VELO AIN AR TRES W  DIS CAZ7
 LT9  SZ E        2030 48.75                  151.2  7.8      0        5.62 331 
 LT9  SN IP       2030 48.78                             150    0.0410 5.62 331 
 LT9  SE IS       2030 50.16                             150   -0.0410 5.62 331 
 LT9  SZ  AML     2030 50.26         1.7 0.34                          5.62 331 
                                                                                
