 2010  8 3 2200 29.3 L  21.341 -99.289 10.0  RAL  1 0.2 0.7LRAL                1
 GAP=360        0.67      18.7    35.7  0.0 -0.6681E+03  0.2348E+02 -0.9737E+01E
 ACTION:UPD 13-02-28 14:29 OP:RALL STATUS:               ID:20100803220029     I
 2010-08-03-2200-22S.PLUR1_003                                                 6
 STAT SP IPHASW D HRMM SECON CODA AMPLIT PERI AZIMU VELO AIN AR TRES W  DIS CAZ7
 LZ4  SZ E        22 0 31.59                  299.4 43.5      0        2.32 119 
 LZ4  SN IP       22 0 31.59                             167    0.4110 2.32 119 
 LZ4  SE IS       22 0 32.14                             167   -0.4110 2.32 119 
 LZ4  SZ  AML     22 0 32.44        29.4 0.24                          2.32 119 
                                                                                
