 2010  8 3 2334 26.2 L  21.347 -99.297 10.0  RAL  1 0.1 2.2LRAL                1
 GAP=360        0.48      10.5    17.7  0.0 -0.1863E+03 -0.1413E+01 -0.4840E+01E
 ACTION:UPD 13-02-28 14:29 OP:RALL STATUS:               ID:20100803233426     I
 2010-08-03-2334-18S.PLUR1_003                                                 6
 STAT SP IPHASW D HRMM SECON CODA AMPLIT PERI AZIMU VELO AIN AR TRES W  DIS CAZ7
 LZ4  SZ E        2334 28.38                  302.6 17.3      0        3.33 123 
 LZ4  SN IP       2334 28.40                             162    0.2610 3.33 123 
 LZ4  SE IS       2334 29.28                             162   -0.2610 3.33 123 
 LZ4  SZ  AML     2334 29.56       951.3 0.16                          3.33 123 
                                                                                
