 2010  8 3 2110 43.5 L  21.328 -99.275 10.0  RAL  1 0.2 0.9LRAL                1
 GAP=360        2.89     999.9   999.9  0.0 -0.1740E+09  0.2348E+02 -0.9737E+01E
 ACTION:UPD 13-02-28 14:29 OP:RALL STATUS:               ID:20100803211043     I
 2010-08-03-2110-36S.PLUR1_003                                                 6
 STAT SP IPHASW D HRMM SECON CODA AMPLIT PERI AZIMU VELO AIN AR TRES W  DIS CAZ7
 LZ4  SZ E        2110 45.48                  254.5 18.9     14        0.64  61 
 LZ4  SN IP       2110 45.56                             176    0.2510 0.64  61 
 LZ4  SE IS       2110 46.40                             176   -0.2510 0.64  61 
 LZ4  SZ  AML     2110 46.86        40.9 0.22                          0.64  61 
                                                                                
