 2010  8 3 2154 51.9 L  21.344 -99.295 10.0  RAL  1 0.1 1.1LRAL                1
 GAP=360        0.49      10.7    20.6  0.0 -0.2192E+03  0.2348E+02 -0.9737E+01E
 ACTION:UPD 13-02-28 14:29 OP:RALL STATUS:               ID:20100803215451     I
 2010-08-03-2154-44S.PLUR1_003                                                 6
 STAT SP IPHASW D HRMM SECON CODA AMPLIT PERI AZIMU VELO AIN AR TRES W  DIS CAZ7
 LZ4  SZ E        2154 54.00                  299.1 21.0      0        2.97 119 
 LZ4  SN IP       2154 54.01                             164    0.2610 2.97 119 
 LZ4  SE IS       2154 54.87                             164   -0.2610 2.97 119 
 LZ4  SZ  AML     2154 55.04        63.7 0.26                          2.97 119 
                                                                                
