 2010  8 3 2112 51.4 L  21.333 -99.284 10.0  RAL  1 0.1 0.8LRAL                1
 GAP=360        0.61       8.0    53.3  0.0 -0.4248E+03  0.2348E+02 -0.9737E+01E
 ACTION:UPD 13-02-28 14:29 OP:RALL STATUS:               ID:20100803211251     I
 2010-08-03-2112-45S.PLUR1_003                                                 6
 STAT SP IPHASW D HRMM SECON CODA AMPLIT PERI AZIMU VELO AIN AR TRES W  DIS CAZ7
 LZ4  SZ E        2112 53.33                  281.3 18.9      2        1.57  99 
 LZ4  SN IP       2112 53.40                             171    0.1810 1.57  99 
 LZ4  SE IS       2112 54.39                             171   -0.1810 1.57  99 
 LZ4  SZ  AML     2112 54.49        31.7 0.16                          1.57  99 
                                                                                
