 2010  8 3 2141 51.3 L  21.426 -99.309 10.0  RAL  1 0.0 1.7LRAL                1
 GAP=360        0.30       4.6     1.9  0.0 -0.8611E+01  0.2348E+02 -0.9737E+01E
 ACTION:UPD 13-02-28 14:29 OP:RALL STATUS:               ID:20100803214151     I
 2010-08-03-2141-44S.PLUR1_003                                                 6
 STAT SP IPHASW D HRMM SECON CODA AMPLIT PERI AZIMU VELO AIN AR TRES W  DIS CAZ7
 LZ4  SN IP       2141 53.95                             131    0.0110 11.2 159 
 LZ4  SZ E        2141 53.98                  338.9 12.9      0        11.2 159 
 LZ4  SE IS       2141 55.83                             131   -0.0110 11.2 159 
 LZ4  SZ  AML     2141 57.59       205.1 0.28                          11.2 159 
                                                                                
