 2010  8 3 2227 10.1 L  21.389 -99.328 10.0  RAL  1 0.1-1.1LRAL                1
 GAP=360        0.58     999.9   999.9  0.0 -0.1103E+08  0.2348E+02 -0.9737E+01E
 ACTION:UPD 13-02-28 14:29 OP:RALL STATUS:               ID:20100803222710     I
 2010-08-03-2227-03S.PLUR1_003                                                 6
 STAT SP IPHASW D HRMM SECON CODA AMPLIT PERI AZIMU VELO AIN AR TRES W  DIS CAZ7
 LT9  SZ E        2227 12.19                  190.5 13.0      0        0.74  11 
 LT9  SN IP       2227 12.21                             176    0.3210 0.74  11 
 LT9  SE IS       2227 12.86                             176   -0.3210 0.74  11 
 LT9  SZ  AML     2227 13.28         0.5 0.28                          0.74  11 
                                                                                
