 2010  8 3 2018 49.5 L  21.158 -99.211 17.9  RAL  3 0.4 0.2LRAL                1
 GAP=310        3.28       3.5    10.0 21.5 -0.2612E+02  0.2348E+02 -0.9737E+01E
 ACTION:UPD 13-02-28 14:29 OP:RALL STATUS:               ID:20100803201849     I
 2010-08-03-2018-43S.PLUR1_012                                                 6
 STAT SP IPHASW D HRMM SECON CODA AMPLIT PERI AZIMU VELO AIN AR TRES W  DIS CAZ7
 LO8  SN IP       2018 53.95                             180    1.2810 0.31 308 
 LO8  SZ E        2018 53.96                  136.3 11.9      8        0.31 308 
 LO8  SN IS       2018 55.83                             180    0.8910 0.31 308 
 LO8  SZ  AML     2018 56.18         4.7 0.34                          0.31 308 
 LD5  SN IP       2018 53.44                             148    0.2910 11.8 286 
 LD5  SZ E        2018 53.52                  100.6 17.4     -4        11.8 286 
 LD5  SE IS       2018 55.10                             148   -0.6810 11.8 286 
 LD5  SZ  AML     2018 55.25         4.2 0.10                          11.8 286 
 LT9  SZ E        2018 55.06                  166.0  9.9     11        28.9 335 
 LT9  SN IP       2018 55.06                             121   -0.0110 28.9 335 
 LT9  SE IS       2018 57.35                             121   -1.7610 28.9 335 
 LT9  SZ  AML     2018 57.38         2.4 0.10                          28.9 335 
                                                                                
