 2010  8 3 2233 22.3 L  21.634 -99.424 10.0  RAL  1 0.0 1.8LRAL                1
 GAP=360        0.30       3.4     2.0  0.0 -0.5549E+01  0.2348E+02 -0.9737E+01E
 ACTION:UPD 13-02-28 14:29 OP:RALL STATUS:               ID:20100803223322     I
 2010-08-03-2233-19S.PLUR1_003                                                 6
 STAT SP IPHASW D HRMM SECON CODA AMPLIT PERI AZIMU VELO AIN AR TRES W  DIS CAZ7
 LZ4  SZ E        2233 28.57                  334.6 11.8      0        37.2 155 
 LZ4  SN IP     D 2233 28.60                             101    0.0110 37.2 155 
 LZ4  SE IS       2233 33.19                             101   -0.0110 37.2 155 
 LZ4  SZ  AML     2233 33.27       106.2 0.12                          37.2 155 
                                                                                
