 2010  8 3 2250 41.6 L  21.401 -99.332 10.0  RAL  2 0.4 1.2LRAL                1
 GAP=234        5.81       2.7     4.4 51.5 -0.1626E+01 -0.1413E+01 -0.4840E+01E
 ACTION:UPD 13-02-28 14:29 OP:RALL STATUS:               ID:20100803225041     I
 2010-08-03-2250-33S.PLUR1_006                                                 6
 STAT SP IPHASW D HRMM SECON CODA AMPLIT PERI AZIMU VELO AIN AR TRES W  DIS CAZ7
 LT9  SN EP       2250 43.41                             169   -0.0110 0.86 141 
 LT9  SZ E        2250 43.42                  314.3 10.3     -6        0.86 141 
 LT9  SE IS       2250 44.07                             169   -0.6510 0.86 141 
 LT9  SZ  AML     2250 44.30        43.2 0.62                          0.86 141 
 LA4  SZ E        2250 44.57                  167.1  7.2    -26        9.41  14 
 LA4  SN IP       2250 44.58                             135    0.5210 9.41  14 
 LA4  SE IS       2250 45.96                             135    0.1410 9.41  14 
 LA4  SZ  AML     2250 46.35       127.1 0.30                          9.41  14 
                                                                                
