 2010  8 3 2308 18.4 L  21.342 -99.294 10.0  RAL  1 0.1 2.4LRAL                1
 GAP=360        0.48      10.3    21.6  0.0 -0.2222E+03 -0.1413E+01 -0.4840E+01E
 ACTION:UPD 13-02-28 14:29 OP:RALL STATUS:               ID:20100803230818     I
 2010-08-03-2308-11S.PLUR1_003                                                 6
 STAT SP IPHASW D HRMM SECON CODA AMPLIT PERI AZIMU VELO AIN AR TRES W  DIS CAZ7
 LZ4  SZ E        23 8 20.55                  297.1 17.6      0        2.83 117 
 LZ4  SN IP       23 8 20.57                             165    0.2510 2.83 117 
 LZ4  SE IS       23 8 21.44                             165   -0.2510 2.83 117 
 LZ4  SZ  AML     23 8 21.72      1460.3 0.22                          2.83 117 
                                                                                
