 2010  8 3 2257 24.2 L  21.386 -99.329 10.0  RAL  1 0.1-0.7LRAL                1
 GAP=360        0.94     999.9   999.9  0.0 -0.8938E+07 -0.1413E+01 -0.4840E+01E
 ACTION:UPD 13-02-28 14:29 OP:RALL STATUS:               ID:20100803225724     I
 2010-08-03-2257-17S.PLUR1_003                                                 6
 STAT SP IPHASW D HRMM SECON CODA AMPLIT PERI AZIMU VELO AIN AR TRES W  DIS CAZ7
 LT9  SZ E        2257 26.31                  191.9 14.1     -3        1.08  16 
 LT9  SN IP       2257 26.31                             174    0.3310 1.08  16 
 LT9  SZ  AML     2257 26.93         1.2 0.28                          1.08  16 
 LT9  SE IS       2257 26.96                             174   -0.3310 1.08  16 
                                                                                
