 2010  8 4 0655  1.5 L  21.334 -99.283 10.0  RAL  1 0.1 0.9LRAL                1
 GAP=360        0.55     869.3   324.0  0.0  0.2816E+06 -0.6770E+00 -0.1598E+02E
 ACTION:UPD 13-02-28 14:29 OP:RALL STATUS:               ID:20100804065501     I
 2010-08-04-0654-54S.PLUR1_003                                                 6
 STAT SP IPHASW D HRMM SECON CODA AMPLIT PERI AZIMU VELO AIN AR TRES W  DIS CAZ7
 LZ4  SZ E         655  3.54                  287.5 21.6      2        1.42 106 
 LZ4  SN IP        655  3.57                             172    0.2310 1.42 106 
 LZ4  SE IS        655  4.45                             172   -0.2310 1.42 106 
 LZ4  SZ  AML      655  4.94        48.6 0.18                          1.42 106 
                                                                                
