 2010  8 4 0819 12.9 L  21.298 -99.241 10.0  RAL  1 0.0 0.5LRAL                1
 GAP=360        0.33       7.7     6.6  0.0 -0.5033E+02 -0.6770E+00 -0.1598E+02E
 ACTION:UPD 13-02-28 14:29 OP:RALL STATUS:               ID:20100804081912     I
 2010-08-04-0819-05S.PLUR1_003                                                 6
 STAT SP IPHASW D HRMM SECON CODA AMPLIT PERI AZIMU VELO AIN AR TRES W  DIS CAZ7
 LZ4  SZ E         819 15.01                  141.3 14.0      0        4.71 321 
 LZ4  SN IP        819 15.02                             155    0.1010 4.71 321 
 LZ4  SE IS        819 16.28                             155   -0.1010 4.71 321 
 LZ4  SZ  AML      819 18.19        16.2 0.26                          4.71 321 
                                                                                
