 2010  8 4 0054 15.2 L  21.397 -99.336 10.0  RAL  1 0.1 0.0LRAL                1
 GAP=360        0.87     291.2   162.9  0.0  0.4738E+05 -0.1413E+01 -0.4840E+01E
 ACTION:UPD 13-02-28 14:29 OP:RALL STATUS:               ID:20100804005415     I
 2010-08-04-0054-08S.PLUR1_003                                                 6
 STAT SP IPHASW D HRMM SECON CODA AMPLIT PERI AZIMU VELO AIN AR TRES W  DIS CAZ7
 LT9  SZ E         054 17.36                  282.1 10.5      3        1.06  99 
 LT9  SN IP        054 17.37                             174    0.3410 1.06  99 
 LT9  SE IS        054 17.99                             174   -0.3410 1.06  99 
 LT9  SZ  AML      054 18.50         6.0 0.60                          1.06  99 
                                                                                
