 2010  8 4 0550  3.4 L  21.158 -99.212 21.9  RAL  3 0.5 0.3LRAL                1
 GAP=310        5.32       5.1     4.2 36.8  0.2874E+01 -0.6770E+00 -0.1598E+02E
 ACTION:UPD 13-02-28 14:29 OP:RALL STATUS:               ID:20100804055003     I
 2010-08-04-0549-57S.PLUR1_012                                                 6
 STAT SP IPHASW D HRMM SECON CODA AMPLIT PERI AZIMU VELO AIN AR TRES W  DIS CAZ7
 LO8  SN IP        550  8.48                             179    1.4010 0.21 318 
 LO8  SZ E         550  8.49                  132.4  6.4     -4        0.21 318 
 LO8  SE IS        550 10.25                             179    0.4510 0.21 318 
 LO8  SZ  AML      550 10.76         6.0 0.20                          0.21 318 
 LD5  SZ E         550  7.99                   77.7 10.2    -27        11.7 286 
 LD5  SN IP        550  8.02                             150    0.5510 11.7 286 
 LD5  SE IS        550  9.56                             150   -0.9110 11.7 286 
 LD5  SZ  AML      550  9.64         6.0 0.12                          11.7 286 
 LT9  SZ E         550  9.26                  155.5  8.9      0        28.8 336 
 LT9  SN IP        550  9.27                             122    0.0810 28.8 336 
 LT9  SE IS        550 11.88                             122   -1.5610 28.8 336 
 LT9  SZ  AML      550 12.38         2.6 0.24                          28.8 336 
                                                                                
