 2010  8 4 0115 15.9 L  21.234 -99.258  0.0  RAL  2 0.4 0.2LRAL                1
 GAP=349        5.26      77.1    28.0999.9 -0.2059E+04 -0.5504E+05  0.1578E+06E
 ACTION:UPD 13-02-28 14:29 OP:RALL STATUS:               ID:20100804011515     I
 2010-08-04-0115-11S.PLUR1_006                                                 6
 STAT SP IPHASW D HRMM SECON CODA AMPLIT PERI AZIMU VELO AIN AR TRES W  DIS CAZ7
 LT9  SZ E         115 19.75                  171.9  9.9     13        19.2 338 
 LT9  SN IP        115 19.77                              92    0.5410 19.2 338 
 LT9  SE IS        115 20.98                              92   -0.7110 19.2 338 
 LT9  SZ  AML      115 21.31         1.8 0.14                          19.2 338 
 LA4  SZ E         115 21.34                  148.0  6.7    -20        28.2 349 
 LA4  SN IP        115 21.35                              92    0.5610 28.2 349 
 LA4  SE IS        115 23.99                              92   -0.4010 28.2 349 
 LA4  SZ  AML      115 24.12        11.0 0.12                          28.2 349 
                                                                                
