 2010  8 4 0054 41.0 L  21.199 -99.284 10.0  RAL  1 0.0-0.2LRAL                1
 GAP=360        0.31       3.7    10.5  0.0  0.3880E+02 -0.1413E+01 -0.4840E+01E
 ACTION:UPD 13-02-28 14:29 OP:RALL STATUS:               ID:20100804005441     I
 2010-08-04-0054-34S.PLUR1_003                                                 6
 STAT SP IPHASW D HRMM SECON CODA AMPLIT PERI AZIMU VELO AIN AR TRES W  DIS CAZ7
 LD5  SN IP        054 42.98                             158    0.0610 4.05 250 
 LD5  SZ E         054 42.99                   69.5  8.1      0        4.05 250 
 LD5  SE IS        054 44.28                             158   -0.0610 4.05 250 
 LD5  SZ  AML      054 44.56         3.3 0.12                          4.05 250 
                                                                                
