 2010  8 4 0428 39.0 L  21.342 -99.291 10.0  RAL  1 0.1 0.8LRAL                1
 GAP=360        0.57      14.7    27.1  0.0 -0.3985E+03  0.4214E+00 -0.3186E+01E
 ACTION:UPD 13-02-28 14:29 OP:RALL STATUS:               ID:20100804042839     I
 2010-08-04-0428-32S.PLUR1_003                                                 6
 STAT SP IPHASW D HRMM SECON CODA AMPLIT PERI AZIMU VELO AIN AR TRES W  DIS CAZ7
 LZ4  SN IP        428 41.18                             166    0.3310 2.56 120 
 LZ4  SZ E         428 41.19                  300.2 24.1      0        2.56 120 
 LZ4  SE IS        428 41.90                             166   -0.3310 2.56 120 
 LZ4  SZ  AML      428 42.25        37.8 0.16                          2.56 120 
                                                                                
