 2010  8 4 0033 18.5 L  21.463 -99.330 10.0  RAL  1 0.1 0.1LRAL                1
 GAP=360        0.48      14.8    15.1  0.0  0.2224E+03 -0.1413E+01 -0.4840E+01E
 ACTION:UPD 13-02-28 14:29 OP:RALL STATUS:               ID:20100804003318     I
 2010-08-04-0033-12S.PLUR1_003                                                 6
 STAT SP IPHASW D HRMM SECON CODA AMPLIT PERI AZIMU VELO AIN AR TRES W  DIS CAZ7
 LA4  SN IP        033 20.63                             163    0.2610 3.19  43 
 LA4  SZ E         033 20.63                  223.5 19.2      0        3.19  43 
 LA4  SE IS        033 21.52                             163   -0.2610 3.19  43 
 LA4  SZ  AML      033 21.66         6.4 0.16                          3.19  43 
                                                                                
