 2010  8 4 0116 44.6 L  21.403 -99.330 10.0  RAL  1 0.1-0.1LRAL                1
 GAP=360        0.74     644.6   999.9  0.0  0.1251E+07 -0.5504E+05  0.1578E+06E
 ACTION:UPD 13-02-28 14:29 OP:RALL STATUS:               ID:20100804011644     I
 2010-08-04-0116-37S.PLUR1_006                                                 6
 STAT SP IPHASW D HRMM SECON CODA AMPLIT PERI AZIMU VELO AIN AR TRES W  DIS CAZ7
 LT9  SZ E         116 46.67                  339.5 12.7      2        0.93 157 
 LT9  SN IP        116 46.72                             175    0.3510 0.93 157 
 LT9  SE IS        116 47.33                             175   -0.3510 0.93 157 
 LT9  SZ  AML      116 47.59         4.7 0.38                          0.93 157 
                                                                                
