 2010  8 4 0919 52.1 L  21.331 -99.281 10.0  RAL  1 0.2 0.6LRAL                1
 GAP=360        1.77     261.0   214.4  0.0 -0.5582E+05 -0.6770E+00 -0.1598E+02E
 ACTION:UPD 13-02-28 14:29 OP:RALL STATUS:               ID:20100804091952     I
 2010-08-04-0919-45S.PLUR1_003                                                 6
 STAT SP IPHASW D HRMM SECON CODA AMPLIT PERI AZIMU VELO AIN AR TRES W  DIS CAZ7
 LZ4  SZ E         919 54.22                  276.9 23.3      8        1.19  89 
 LZ4  SN IP        919 54.23                             173    0.3010 1.19  89 
 LZ4  SE IS        919 54.97                             173   -0.3010 1.19  89 
 LZ4  SZ  AML      919 55.35        23.9 0.44                          1.19  89 
                                                                                
