 2010  8 4 0749 28.8 L  21.366 -99.313 10.0  RAL  1 0.1-0.5LRAL                1
 GAP=360        0.35      12.2     5.8  0.0 -0.7072E+02 -0.6770E+00 -0.1598E+02E
 ACTION:UPD 13-02-28 14:29 OP:RALL STATUS:               ID:20100804074928     I
 2010-08-04-0749-22S.PLUR1_003                                                 6
 STAT SP IPHASW D HRMM SECON CODA AMPLIT PERI AZIMU VELO AIN AR TRES W  DIS CAZ7
 LT9  SN IP        749 30.76                             161    0.1310 3.52 336 
 LT9  SZ E         749 30.85                  156.0 14.0      0        3.52 336 
 LT9  SE IS        749 31.86                             161   -0.1310 3.52 336 
 LT9  SZ  AML      749 31.99         1.8 0.36                          3.52 336 
                                                                                
