 2010  8 4 0018 11.3 L  21.483 -99.312 10.0  RAL  1 0.5 0.6LRAL                1
 GAP=360        6.66     999.9   999.9  0.0 -0.7098E+10 -0.1413E+01 -0.4840E+01E
 ACTION:UPD 13-02-28 14:29 OP:RALL STATUS:               ID:20100804001811     I
 2010-08-04-0018-04S.PLUR1_003                                                 6
 STAT SP IPHASW D HRMM SECON CODA AMPLIT PERI AZIMU VELO AIN AR TRES W  DIS CAZ7
 LA4  SN IP        018 13.57                             178    0.4210 0.32  77 
 LA4  SZ E         018 13.58                  289.1 13.4     32        0.32  77 
 LA4  SE IS        018 14.08                             178   -0.4210 0.32  77 
 LA4  SZ  AML      018 14.41        23.1 0.20                          0.32  77 
                                                                                
