 2010  8 4 0816  3.2 L  21.332 -99.278 10.0  RAL  1 0.1 0.8LRAL                1
 GAP=360        1.34     999.9   486.5  0.0  0.6811E+06 -0.6770E+00 -0.1598E+02E
 ACTION:UPD 13-02-28 14:29 OP:RALL STATUS:               ID:20100804081603     I
 2010-08-04-0815-56S.PLUR1_003                                                 6
 STAT SP IPHASW D HRMM SECON CODA AMPLIT PERI AZIMU VELO AIN AR TRES W  DIS CAZ7
 LZ4  SN IP        816  5.25                             175    0.2510 0.86 100 
 LZ4  SZ E         816  5.32                  286.1 53.3      6        0.86 100 
 LZ4  SE IS        816  6.10                             175   -0.2510 0.86 100 
 LZ4  SZ  AML      816  6.62        33.6 0.20                          0.86 100 
                                                                                
