 2010  8 4 0122 57.3 L  21.342 -99.292 10.0  RAL  1 0.1 1.1LRAL                1
 GAP=360        0.52      12.4    24.7  0.0 -0.3061E+03 -0.5504E+05  0.1578E+06E
 ACTION:UPD 13-02-28 14:29 OP:RALL STATUS:               ID:20100804012257     I
 2010-08-04-0122-21S.PLUR1_003                                                 6
 STAT SP IPHASW D HRMM SECON CODA AMPLIT PERI AZIMU VELO AIN AR TRES W  DIS CAZ7
 LZ4  SZ E         122 59.45                  298.3 20.2      0        2.63 118 
 LZ4  SN IP        122 59.48                             166    0.2910 2.63 118 
 LZ4  SE IS        123  0.28                             166   -0.2910 2.63 118 
 LZ4  SZ  AML      123  1.09        61.4 0.18                          2.63 118 
                                                                                
