 2010  8 4 0945 40.1 L  21.265 -99.081 10.0  RAL  4 1.2 0.8LRAL                1
 GAP=274       18.54      24.6    40.4221.5  0.3433E+03 -0.1965E+04 -0.1555E+04E
 ACTION:UPD 13-02-28 14:29 OP:RALL STATUS:               ID:20100804094540     I
 2010-08-04-0945-34S.PLUR1_012                                                 6
 STAT SP IPHASW D HRMM SECON CODA AMPLIT PERI AZIMU VELO AIN AR TRES W  DIS CAZ7
 LO8  SN IP     C  945 46.15                             123    2.5010 18.0 230 
 LO8  SE IS        945 49.37                             123    3.1510 18.0 230 
 LD5  SN IP     D  945 45.06                             112    0.2410 26.3 251 
 LD5  SE IS     C  945 47.28                             112   -0.9610 26.3 251 
 LT9  SZ E         945 44.34                  168.9  7.7     49        29.3 300 
 LT9  SN IP     D  945 44.42                             109   -0.8210 29.3 300 
 LT9  SE IS     C  945 45.98                             109   -2.9910 29.3 300 
 LT9  SZ  AML      945 46.63        11.7 0.44                          29.3 300 
 LA4  SN IP     D  945 45.93                             106   -0.0410 33.9 316 
 LA4  SE IS     D  945 49.16                             106   -1.0710 33.9 316 
 LA4  SZ E         945 45.98                  149.0  6.8     13        33.9 316 
 LA4  SZ  AML      945 50.67        35.3 0.46                          33.9 316 
 LA4  SR IP     D  945 45.91                                                    
 LA4  ST IS     D  945 49.21                                                    
 LD5  SZ E      C  945 45.07                    2.4 10.2    -67        26.3 251 
 LD5  SZ  AML      945 47.91        14.5 0.20                          26.3 251 
 LD5  SR IP     C  945 45.08                                                    
 LD5  ST IS     D  945 47.41                                                    
 LO8  SZ E         945 46.14                  131.9  6.0     82        18.0 230 
 LO8  SZ  AML      945 50.81         4.7 0.12                          18.0 230 
 LO8  SR IP     C  945 46.19                                                    
 LO8  ST IS     D  945 49.30                                                    
 LT9  ST IS     C  945 46.06                                                    
 LT9  SR IP     D  945 44.43                                                    
                                                                                
