 2010  8 4 0946 37.0 L  21.311 -99.112 10.0  RAL  3 1.4 0.3LRAL                1
 GAP=279       22.90      37.2    48.5394.4  0.8347E+03 -0.3265E+04 -0.3263E+04E
 ACTION:UPD 13-02-28 14:29 OP:RALL STATUS:               ID:20100804094637     I
 2010-08-04-0946-32S.PLUR1_012                                                 6
 STAT SP IPHASW D HRMM SECON CODA AMPLIT PERI AZIMU VELO AIN AR TRES W  DIS CAZ7
 LO8  SZ E         946 42.58                  130.5  7.0     98        19.8 212 
 LO8  SN IP        946 42.58                             117    1.7810 19.8 212 
 LO8  SE IS        946 45.86                             117    2.3110 19.8 212 
 LO8  SZ  AML      946 46.98         2.8 0.62                          19.8 212 
 LT9  SN IP        946 40.80                             110   -0.5610 24.1 293 
 LT9  SZ E         946 40.85                  164.3  7.2     52        24.1 293 
 LT9  SE IS        946 42.33                             110   -2.2010 24.1 293 
 LT9  SZ  AML      946 43.42         8.0 0.18                          24.1 293 
 LD5  SZ E         946 41.52                  348.4 10.7     69        25.7 237 
 LD5  SN IP        946 41.53                             109   -0.0910 25.7 237 
 LD5  SE IS        946 43.72                             109   -1.2510 25.7 237 
 LD5  SZ  AML      946 44.32         5.7 0.56                          25.7 237 
                                                                                
