 2010  8 4 0758 35.1 L  21.319 -99.272 10.0  RAL  1 0.2 0.8LRAL                1
 GAP=360        1.82     323.7   696.9  0.0 -0.2256E+06 -0.6770E+00 -0.1598E+02E
 ACTION:UPD 13-02-28 14:29 OP:RALL STATUS:               ID:20100804075835     I
 2010-08-04-0758-28S.PLUR1_003                                                 6
 STAT SP IPHASW D HRMM SECON CODA AMPLIT PERI AZIMU VELO AIN AR TRES W  DIS CAZ7
 LZ4  SZ E         758 37.23                  184.3 19.0     -7        1.37  13 
 LZ4  SN IP        758 37.26                             172    0.2710 1.37  13 
 LZ4  SE IS        758 38.06                             172   -0.2710 1.37  13 
 LZ4  SZ  AML      758 38.56        32.6 0.20                          1.37  13 
                                                                                
