 2010  8 4 0405 33.8 L  21.330 -99.311 10.0  RAL  1 0.0-0.3LRAL                1
 GAP=360        0.30       6.0     1.4  0.0 -0.8514E+01 -0.6330E+00 -0.2325E+02E
 ACTION:UPD 13-02-28 14:29 OP:RALL STATUS:               ID:20100804040533     I
 2010-08-04-0405-26S.PLUR1_006                                                 6
 STAT SP IPHASW D HRMM SECON CODA AMPLIT PERI AZIMU VELO AIN AR TRES W  DIS CAZ7
 LT9  SN IP        4 5 36.00                             143    0.0210 7.39 348 
 LT9  SZ E         4 5 36.22                  167.6  7.1      0        7.39 348 
 LT9  SE IS        4 5 37.54                             143   -0.0210 7.39 348 
 LT9  SZ  AML      4 5 37.90         2.4 0.40                          7.39 348 
                                                                                
