 2010  8 4 0307 26.3 L  21.352 -99.313 10.0  RAL  3 0.6 0.5LRAL                1
 GAP=227        4.40       2.7     2.6 31.9 -0.4543E+01  0.3192E+01 -0.4055E+01E
 ACTION:UPD 13-02-28 14:29 OP:RALL STATUS:               ID:20100804030726     I
 2010-08-04-0307-17S.PLUR1_012                                                 6
 STAT SP IPHASW D HRMM SECON CODA AMPLIT PERI AZIMU VELO AIN AR TRES W  DIS CAZ7
 LT9  SZ E         3 7 27.01                  169.1  7.0      5        5.02 344 
 LT9  SN IP     D  3 7 27.02                             156   -1.2510 5.02 344 
 LT9  SE IS     C  3 7 28.20                             156   -1.5010 5.02 344 
 LT9  SZ  AML      3 7 28.99         3.8 0.20                          5.02 344 
 LZ4  SZ E         3 7 30.57                  298.1 29.6      1        5.07 117 
 LZ4  SN IP        3 7 30.58                             157    2.2610 5.07 117 
 LZ4  SE IS        3 7 31.23                             157    1.4410 5.07 117 
 LZ4  SZ  AML      3 7 31.46        40.4 0.26                          5.07 117 
 LA4  SZ E         3 7 28.63                  163.5  7.2    -17        14.6   2 
 LA4  SN IP     C  3 7 28.65                             127   -0.7010 14.6   2 
 LA4  SE IS     C  3 7 31.31                             127   -0.2610 14.6   2 
 LA4  SZ  AML      3 7 31.39        20.4 0.14                          14.6   2 
                                                                                
