 2010  8 4 0926 58.3 L  21.326 -99.269 10.0  RAL  1 0.1 0.9LRAL                1
 GAP=360        0.74     178.7    72.2  0.0 -0.1289E+05 -0.6770E+00 -0.1598E+02E
 ACTION:UPD 13-02-28 14:29 OP:RALL STATUS:               ID:20100804092658     I
 2010-08-04-0926-52S.PLUR1_003                                                 6
 STAT SP IPHASW D HRMM SECON CODA AMPLIT PERI AZIMU VELO AIN AR TRES W  DIS CAZ7
 LZ4  SZ E         927  0.21                  177.6 11.6      3        0.52 354 
 LZ4  SN IP        927  0.24                             177    0.0710 0.52 354 
 LZ4  SE IS        927  1.44                             177   -0.0710 0.52 354 
 LZ4  SZ  AML      927  1.78        41.6 0.52                          0.52 354 
                                                                                
