 2010  8 4 0949 28.3 L  21.313 -99.317 10.0  RAL  1 0.0-0.5LRAL                1
 GAP=360        0.30       5.3     0.6  0.0 -0.3187E+01 -0.3265E+04 -0.3263E+04E
 ACTION:UPD 13-02-28 14:29 OP:RALL STATUS:               ID:20100804094928     I
 2010-08-04-0949-22S.PLUR1_003                                                 6
 STAT SP IPHASW D HRMM SECON CODA AMPLIT PERI AZIMU VELO AIN AR TRES W  DIS CAZ7
 LT9  SN IP        949 30.59                             136    0.0010 9.20 354 
 LT9  SZ E         949 30.65                  174.0 11.0      0        9.20 354 
 LT9  SE IS        949 32.29                             136    0.0010 9.20 354 
 LT9  SZ  AML      949 32.44         1.5 0.14                          9.20 354 
                                                                                
