 2010  8 4 0415  8.1 L  21.396 -99.332  9.5  RAL  2 0.4 0.8LRAL                1
 GAP=280        5.33       2.5     5.0 44.6 -0.3426E+01  0.4214E+00 -0.3186E+01E
 ACTION:UPD 13-02-28 14:29 OP:RALL STATUS:               ID:20100804041508     I
 2010-08-04-0414-59S.PLUR1_006                                                 6
 STAT SP IPHASW D HRMM SECON CODA AMPLIT PERI AZIMU VELO AIN AR TRES W  DIS CAZ7
 LT9  SZ E         415  9.55                  264.1 19.0     -9        0.61  94 
 LT9  SN IP        415  9.56                             178   -0.2310 0.61  94 
 LT9  SE IS        415 10.22                             178   -0.8110 0.61  94 
 LT9  SZ  AML      415 10.52        27.0 0.32                          0.61  94 
 LA4  SZ E         415 10.99                  170.5  9.8    -22        10.0  14 
 LA4  SN IP        415 10.99                             132    0.4710 10.0  14 
 LA4  SE IS        415 12.86                             132    0.5710 10.0  14 
 LA4  SZ  AML      415 13.43        39.3 0.30                          10.0  14 
                                                                                
