 2010  8 4 0528  3.7 L  21.334 -99.284 10.0  RAL  1 0.1 0.8LRAL                1
 GAP=360        0.41       8.7    36.4  0.0 -0.3150E+03  0.4214E+00 -0.3186E+01E
 ACTION:UPD 13-02-28 14:29 OP:RALL STATUS:               ID:20100804052803     I
 2010-08-04-0527-56S.PLUR1_003                                                 6
 STAT SP IPHASW D HRMM SECON CODA AMPLIT PERI AZIMU VELO AIN AR TRES W  DIS CAZ7
 LZ4  SZ E         528  5.72                  284.5 37.3      0        1.54 104 
 LZ4  SN IP        528  5.72                             172    0.1910 1.54 104 
 LZ4  SE IS        528  6.68                             172   -0.1910 1.54 104 
 LZ4  SZ  AML      528  7.12        33.0 0.42                          1.54 104 
                                                                                
