 2010  8 4 0540 24.4 L  21.326 -99.270 10.0  RAL  1 0.3 0.7LRAL                1
 GAP=360        3.27     894.0   999.9  0.0 -0.2592E+07  0.4214E+00 -0.3186E+01E
 ACTION:UPD 13-02-28 14:29 OP:RALL STATUS:               ID:20100804054024     I
 2010-08-04-0540-17S.PLUR1_003                                                 6
 STAT SP IPHASW D HRMM SECON CODA AMPLIT PERI AZIMU VELO AIN AR TRES W  DIS CAZ7
 LZ4  SZ E         540 26.49                  198.6 22.4     15        0.57   3 
 LZ4  SN IP        540 26.55                             177    0.3010 0.57   3 
 LZ4  SE IS        540 27.29                             177   -0.3010 0.57   3 
 LZ4  SZ  AML      540 27.57        27.5 0.26                          0.57   3 
                                                                                
