 2010  8 4 0319 42.0 L  21.159 -99.212 23.3  RAL  3 0.5 0.2LRAL                1
 GAP=310        6.65       6.4     5.5 47.2  0.3531E+01 -0.6330E+00 -0.2325E+02E
 ACTION:UPD 13-02-28 14:29 OP:RALL STATUS:               ID:20100804031942     I
 2010-08-04-0319-36S.PLUR1_012                                                 6
 STAT SP IPHASW D HRMM SECON CODA AMPLIT PERI AZIMU VELO AIN AR TRES W  DIS CAZ7
 LO8  SN IP        319 47.44                             180    1.5110 0.12 321 
 LO8  SZ E         319 47.55                  143.5  5.8      2        0.12 321 
 LO8  SE IS        319 49.62                             180    0.8310 0.12 321 
 LO8  SZ  AML      319 49.99         4.1 0.20                          0.12 321 
 LD5  SZ E      C  319 46.76                   69.5 16.9    -35        11.6 285 
 LD5  SN IP     D  319 46.76                             152    0.4810 11.6 285 
 LD5  SE IS        319 48.23                             152   -1.1810 11.6 285 
 LD5  SZ  AML      319 49.35         4.5 0.22                          11.6 285 
 LT9  SZ E         319 47.96                  154.4  7.2      0        28.7 336 
 LT9  SN IP        319 48.00                             124    0.0710 28.7 336 
 LT9  SE IS        319 50.55                             124   -1.7110 28.7 336 
 LT9  SZ  AML      319 50.82         2.6 0.44                          28.7 336 
                                                                                
