 2010  8 4 0836 15.7 L  21.326 -99.285 10.0  RAL  1 0.1 0.6LRAL                1
 GAP=360        0.64      14.8    49.2  0.0  0.7250E+03 -0.6770E+00 -0.1598E+02E
 ACTION:UPD 13-02-28 14:29 OP:RALL STATUS:               ID:20100804083615     I
 2010-08-04-0836-08S.PLUR1_003                                                 6
 STAT SP IPHASW D HRMM SECON CODA AMPLIT PERI AZIMU VELO AIN AR TRES W  DIS CAZ7
 LZ4  SZ E         836 17.85                  252.2 22.5      0        1.73  72 
 LZ4  SN IP        836 17.93                             170    0.3810 1.73  72 
 LZ4  SE IS        836 18.52                             170   -0.3810 1.73  72 
 LZ4  SZ  AML      836 18.84        23.4 0.24                          1.73  72 
                                                                                
