 2010  8 4 0215 32.3 L  21.318 -99.271 10.0  RAL  1 0.2 0.9LRAL                1
 GAP=360        0.93     262.6   999.9  0.0 -0.4188E+06 -0.5504E+05  0.1578E+06E
 ACTION:UPD 13-02-28 14:29 OP:RALL STATUS:               ID:20100804021532     I
 2010-08-04-0215-25S.PLUR1_003                                                 6
 STAT SP IPHASW D HRMM SECON CODA AMPLIT PERI AZIMU VELO AIN AR TRES W  DIS CAZ7
 LZ4  SN IP        215 34.52                             172    0.3910 1.44   7 
 LZ4  SZ E         215 34.54                  190.0 21.6      3        1.44   7 
 LZ4  SE IS        215 35.09                             172   -0.3910 1.44   7 
 LZ4  SZ  AML      215 35.23        42.0 0.24                          1.44   7 
                                                                                
