 2010  8 4 0334 30.6 L  21.323 -99.286 10.0  RAL  1 0.2 0.8LRAL                1
 GAP=360        0.93      28.7    61.0  0.0  0.1750E+04 -0.6330E+00 -0.2325E+02E
 ACTION:UPD 13-02-28 14:29 OP:RALL STATUS:               ID:20100804033430     I
 2010-08-04-0334-23S.PLUR1_003                                                 6
 STAT SP IPHASW D HRMM SECON CODA AMPLIT PERI AZIMU VELO AIN AR TRES W  DIS CAZ7
 LZ4  SZ E         334 32.89                  246.1 25.5      3        1.91  63 
 LZ4  SN IP        334 32.91                             170    0.4410 1.91  63 
 LZ4  SE IS        334 33.39                             170   -0.4410 1.91  63 
 LZ4  SZ  AML      334 33.78        33.7 0.36                          1.91  63 
                                                                                
