 2010  8 4 0119 15.8 L  21.353 -99.297 10.0  RAL  1 0.1 2.0LRAL                1
 GAP=360        0.39       9.5    11.6  0.0 -0.1098E+03 -0.5504E+05  0.1578E+06E
 ACTION:UPD 13-02-28 14:29 OP:RALL STATUS:               ID:20100804011915     I
 2010-08-04-0119-08S.PLUR1_003                                                 6
 STAT SP IPHASW D HRMM SECON CODA AMPLIT PERI AZIMU VELO AIN AR TRES W  DIS CAZ7
 LZ4  SZ E         119 17.86                  311.2 13.8      0        3.73 131 
 LZ4  SN IP        119 17.86                             160    0.1810 3.73 131 
 LZ4  SE IS        119 18.92                             160   -0.1810 3.73 131 
 LZ4  SZ  AML      119 19.65       542.2 0.18                          3.73 131 
                                                                                
