 2010  8 4 0942 33.5 L  21.301 -99.112 10.0  RAL  4 1.2 1.4LRAL                1
   58.5700   90.0000   90.0000     0  0.0   0.0                       FOCMEC   F
 GAP=259       20.94      27.4    35.9299.6  0.2547E+03 -0.1582E+04 -0.2072E+04E
 ACTION:UPD 13-02-28 14:29 OP:RALL STATUS:               ID:20100804094233     I
 2010-08-04-0942-27S.PLUR1_015                                                 6
 STAT SP IPHASW D HRMM SECON CODA AMPLIT PERI AZIMU VELO AIN AR TRES W  DIS CAZ7
 LO8  SE IS     D  942 42.47                             118    2.6710 18.9 214 
 LT9  SN IP     D  942 37.16                             109   -0.7310 24.5 295 
 LT9  SE IS        942 38.76                             109   -2.3410 24.5 295 
 LA4  SN IP     C  942 38.77                             107           28.7 315 
 LA4  SE IS     D  942 41.79                                                    
 LD5  SN IP     D  942 37.93                             110   -0.0710 25.1 240 
 LD5  SE IS     C  942 40.10                             110   -1.1910 25.1 240 
 LO8  SN IP     C  942 39.01                             118    1.8710 18.9 214 
 LD5  SZ E         942 37.93                  358.5 11.9     61        25.1 240 
 LD5  SZ  AML      942 42.15        32.7 0.40                          25.1 240 
 LD5  SZ  AMSG     942 42.06       231.5 0.11                                   
 LD5  SR  AMSG     942 41.36       253.2 0.09                                   
 LD5  ST  AMSG     942 41.64       319.6 0.11                                   
 LO8  SZ E         942 39.01                  142.7  6.7    109        18.9 214 
 LO8  SZ  AML      942 43.68        24.6 0.48                          18.9 214 
 LO8  SZ  AMSG     942 43.00       121.8 0.13                                   
 LO8  SR  AMSG     942 43.13       153.1 0.11                                   
 LO8  ST  AMSG     942 43.06       175.3 0.18                                   
 LT9  SZ E         942 37.15                  164.4  6.8     49        24.5 295 
 LT9  SZ  AML      942 39.83        68.1 0.38                          24.5 295 
 LT9  SZ  AMSG     942 39.67       405.7 0.09                                   
 LT9  SR  AMSG     942 39.17       582.4 0.10                                   
 LT9  ST  AMSG     942 39.16       652.8 0.09                                   
 LA4  SZ E         942 38.78                  152.1  6.4     17        28.7 315 
 LA4  SZ  AML      942 43.53       177.5 0.46                          28.7 315 
 LA4  SZ  AMSG     942 42.96      1090.1 0.31                                   
 LA4  SZ  AMPG     942 38.99       154.7 0.10                                   
 LA4  SR  AMSG     942 42.77      1534.8 0.20                                   
 LA4  SR  AMPG     942 39.26       391.6 0.08                                   
 LA4  ST  AMSG     942 42.98      1334.3 0.17                                   
 LA4  ST  AMPG     942 39.29       109.3 0.10                                   
                                                                                
