 2010  8 4 0158 11.1 L  21.368 -99.317 10.0  RAL  1 0.0-0.5LRAL                1
 GAP=360        0.34      13.1     4.6  0.0 -0.5949E+02 -0.5504E+05  0.1578E+06E
 ACTION:UPD 13-02-28 14:29 OP:RALL STATUS:               ID:20100804015811     I
 2010-08-04-0158-04S.PLUR1_003                                                 6
 STAT SP IPHASW D HRMM SECON CODA AMPLIT PERI AZIMU VELO AIN AR TRES W  DIS CAZ7
 LT9  SZ E         158 13.05                  162.0  6.8      0        3.24 342 
 LT9  SN IP        158 13.09                             162    0.1110 3.24 342 
 LT9  SE IS        158 14.22                             162   -0.1110 3.24 342 
 LT9  SZ  AML      158 14.54         1.8 0.34                          3.24 342 
                                                                                
