 2010  8 4 0056 36.1 L  21.326 -99.271 10.0  RAL  2 0.5 0.3LRAL                1
 GAP=182        8.65      17.8    16.3 67.3  0.1720E+03  0.2459E+03  0.3767E+03E
 ACTION:UPD 13-02-28 14:29 OP:RALL STATUS:               ID:20100804005636     I
 2010-08-04-0056-28S.PLUR1_009                                                 6
 STAT SP IPHASW D HRMM SECON CODA AMPLIT PERI AZIMU VELO AIN AR TRES W  DIS CAZ7
 LZ4  SZ E         056 37.96                  218.4 28.2     22        0.52  16 
 LZ4  SN IP        056 37.99                             170    0.0110 0.52  16 
 LZ4  SE IS        056 38.75                             170   -0.5610 0.52  16 
 LZ4  SZ  AML      056 39.60        21.6 0.18                          0.52  16 
 LD5  SN IP        056 40.12                             120    0.7210 16.3 198 
 LD5  SZ E         056 40.12                   53.9 19.0     36        16.3 198 
 LD5  SE IS        056 41.60                             120   -0.1710 16.3 198 
 LD5  SZ  AML      056 41.68         2.6 0.22                          16.3 198 
                                                                                
