 2010  8 4 1439 53.0 L  21.380 -99.332  3.3  RAL  2 0.3-0.3LRAL                1
 GAP=353        5.26       1.9     5.6 32.7 -0.5150E+01  0.1929E+01 -0.1560E+01E
 ACTION:UPD 13-02-28 14:29 OP:RALL STATUS:               ID:20100804143953     I
 2010-08-04-1439-44S.PLUR1_006                                                 6
 STAT SP IPHASW D HRMM SECON CODA AMPLIT PERI AZIMU VELO AIN AR TRES W  DIS CAZ7
 LT9  SZ E        1439 53.53                  204.5 15.6      5        1.75  19 
 LT9  SN IP       1439 53.55                             156   -0.1910 1.75  19 
 LT9  SE IS       1439 54.30                             156    0.0010 1.75  19 
 LT9  SZ  AML     1439 54.59         2.5 0.34                          1.75  19 
 LA4  SZ E        1439 55.01                  166.6  8.9    -24        11.7  12 
 LA4  SN IP       1439 55.05                             111   -0.1110 11.7  12 
 LA4  SE IS       1439 57.05                             111    0.3010 11.7  12 
 LA4  SZ  AML     1439 57.13         6.3 0.52                          11.7  12 
                                                                                
