 2010  8 4 1751 31.7 L  21.326 -99.290 10.0  RAL  1 0.1 0.4LRAL                1
 GAP=360        0.36     999.9   346.7  0.0 -0.4486E+06 -0.1499E+04 -0.1722E+04E
 ACTION:UPD 13-02-28 14:29 OP:RALL STATUS:               ID:20100804175131     I
 2010-08-04-1751-25S.PLUR1_003                                                 6
 STAT SP IPHASW D HRMM SECON CODA AMPLIT PERI AZIMU VELO AIN AR TRES W  DIS CAZ7
 LZ4  SZ E        1751 33.70                  256.9 20.4      0        2.20  77 
 LZ4  SN IP       1751 33.71                             168    0.1410 2.20  77 
 LZ4  SE IS       1751 34.80                             168   -0.1410 2.20  77 
 LZ4  SZ  AML     1751 35.09        13.9 0.20                          2.20  77 
                                                                                
