 2010  8 4 1024 36.8 L  21.235 -99.283 10.0  RAL  1 0.0-0.2LRAL                1
 GAP=360        0.30       5.5     4.3  0.0  0.2389E+02  0.1141E+01 -0.1040E+01E
 ACTION:UPD 13-02-28 14:29 OP:RALL STATUS:               ID:20100804102436     I
 2010-08-04-1024-28S.PLUR1_006                                                 6
 STAT SP IPHASW D HRMM SECON CODA AMPLIT PERI AZIMU VELO AIN AR TRES W  DIS CAZ7
 LD5  SZ E        1024 38.99                   36.0  8.4      0        6.61 216 
 LD5  SN IP     D 1024 39.01                             147    0.0310 6.61 216 
 LD5  SE IS       1024 40.50                             147   -0.0310 6.61 216 
 LD5  SZ  AML     1024 40.90         2.9 0.24                          6.61 216 
                                                                                
