 2010  8 4 1402 27.8 L  21.431 -99.356 10.0  RAL  1 0.0 0.6LRAL                1
 GAP=360        0.30       3.5     3.0  0.0 -0.1025E+02 -0.9262E+03 -0.3135E+03E
 ACTION:UPD 13-02-28 14:29 OP:RALL STATUS:               ID:20100804140227     I
 2010-08-04-1402-22S.PLUR1_003                                                 6
 STAT SP IPHASW D HRMM SECON CODA AMPLIT PERI AZIMU VELO AIN AR TRES W  DIS CAZ7
 LZ4  SN IP       14 2 30.82                             123    0.0110 14.3 141 
 LZ4  SZ E        14 2 30.83                  321.0  8.2      0        14.3 141 
 LZ4  SE IS       14 2 32.97                             123   -0.0110 14.3 141 
 LZ4  SZ  AML     14 2 34.86        14.7 0.24                          14.3 141 
                                                                                
