 2010  8 4 1935  4.5 L  21.276 -99.264 10.0  RAL  1 0.2 0.5LRAL                1
 GAP=360        1.84     405.5   232.8  0.0  0.9429E+05 -0.1499E+04 -0.1722E+04E
 ACTION:UPD 13-02-28 14:29 OP:RALL STATUS:               ID:20100804193504     I
 2010-08-04-1934-57S.PLUR1_003                                                 6
 STAT SP IPHASW D HRMM SECON CODA AMPLIT PERI AZIMU VELO AIN AR TRES W  DIS CAZ7
 LG3  SZ E        1935  6.64                  263.9 29.3     -7        1.20  92 
 LG3  SN IP       1935  6.66                             173    0.3210 1.20  92 
 LG3  SE IS       1935  7.37                             173   -0.3210 1.20  92 
 LG3  SZ  AML     1935  7.50        19.7 0.16                          1.20  92 
                                                                                
