 2010  8 4 1525 17.3 L  21.386 -99.328 10.0  RAL  1 0.1-0.3LRAL                1
 GAP=360        0.62      15.7   587.3  0.0 -0.3935E+03  0.1929E+01 -0.1560E+01E
 ACTION:UPD 13-02-28 14:29 OP:RALL STATUS:               ID:20100804152517     I
 2010-08-04-1525-10S.PLUR1_003                                                 6
 STAT SP IPHASW D HRMM SECON CODA AMPLIT PERI AZIMU VELO AIN AR TRES W  DIS CAZ7
 LT9  SZ E        1525 19.44                  187.2 18.3      0        1.05   8 
 LT9  SN IP       1525 19.45                             174    0.3610 1.05   8 
 LT9  SE IS       1525 20.03                             174   -0.3610 1.05   8 
 LT9  SZ  AML     1525 20.59         3.1 0.38                          1.05   8 
                                                                                
