 2010  8 4 1658 26.3 L  21.277 -99.233 10.0  RAL  1 0.0 0.6LRAL                1
 GAP=360        0.30       5.5     3.8  0.0 -0.2065E+02 -0.1199E+01 -0.1371E+02E
 ACTION:UPD 13-02-28 14:29 OP:RALL STATUS:               ID:20100804165826     I
 2010-08-04-1658-19S.PLUR1_003                                                 6
 STAT SP IPHASW D HRMM SECON CODA AMPLIT PERI AZIMU VELO AIN AR TRES W  DIS CAZ7
 LZ4  SZ E        1658 28.47                  147.6 11.8      0        7.02 328 
 LZ4  SN IP       1658 28.50                             145    0.0310 7.02 328 
 LZ4  SE IS       1658 30.03                             145   -0.0310 7.02 328 
 LZ4  SZ  AML     1658 30.54        17.4 0.22                          7.02 328 
                                                                                
