 2010  8 4 1649 47.8 L  21.415 -99.344 10.0  RAL  1 0.2-0.5LRAL                1
 GAP=360        0.66      23.2    21.0  0.0 -0.4864E+03 -0.1199E+01 -0.1371E+02E
 ACTION:UPD 13-02-28 14:29 OP:RALL STATUS:               ID:20100804164947     I
 2010-08-04-1649-40S.PLUR1_003                                                 6
 STAT SP IPHASW D HRMM SECON CODA AMPLIT PERI AZIMU VELO AIN AR TRES W  DIS CAZ7
 LT9  SZ E        1649 49.96                  319.8 15.9      0        2.84 140 
 LT9  SN IP       1649 50.04                             164    0.4010 2.84 140 
 LT9  SE IS       1649 50.58                             164   -0.4010 2.84 140 
 LT9  SZ  AML     1649 50.76         1.8 0.50                          2.84 140 
                                                                                
