 2010  8 4 1015 19.1 L  21.299 -99.210 10.0  RAL  1 0.0 0.6LRAL                1
 GAP=360        0.31       4.4     8.1  0.0  0.3559E+02  0.1141E+01 -0.1040E+01E
 ACTION:UPD 13-02-28 14:29 OP:RALL STATUS:               ID:20100804101519     I
 2010-08-04-1015-12S.PLUR1_003                                                 6
 STAT SP IPHASW D HRMM SECON CODA AMPLIT PERI AZIMU VELO AIN AR TRES W  DIS CAZ7
 LG3  SZ E        1015 21.12                   59.7 17.4      0        5.11 240 
 LG3  SN IP       1015 21.18                             154    0.0610 5.11 240 
 LG3  SE IS       1015 22.54                             154   -0.0610 5.11 240 
 LG3  SZ  AML     1015 22.69        18.8 0.22                          5.11 240 
                                                                                
