 2010  8 4 1032 35.6 L  21.399 -99.329 10.0  RAL  1 0.3-0.8LRAL                1
 GAP=360        3.40     896.6   999.9  0.0  0.2601E+07  0.1141E+01 -0.1040E+01E
 ACTION:UPD 13-02-28 14:29 OP:RALL STATUS:               ID:20100804103235     I
 2010-08-04-1032-28S.PLUR1_003                                                 6
 STAT SP IPHASW D HRMM SECON CODA AMPLIT PERI AZIMU VELO AIN AR TRES W  DIS CAZ7
 LT9  SN IP     D 1032 37.68                             177    0.3410 0.54 146 
 LT9  SZ E        1032 37.70                  341.5 13.5     16        0.54 146 
 LT9  SE IS       1032 38.30                             177   -0.3410 0.54 146 
 LT9  SZ  AML     1032 38.42         0.8 0.22                          0.54 146 
                                                                                
