 2010  8 4 1738 33.3 L  21.278 -99.105 10.0  RAL  4 1.2 0.9LRAL                1
 GAP=263       19.32      25.3    35.0237.7  0.2987E+03 -0.1499E+04 -0.1722E+04E
 ACTION:UPD 13-02-28 14:29 OP:RALL STATUS:               ID:20100804173833     I
 2010-08-04-1738-27S.PLUR1_015                                                 6
 STAT SP IPHASW D HRMM SECON CODA AMPLIT PERI AZIMU VELO AIN AR TRES W  DIS CAZ7
 LO8  SZ E        1738 39.35                  141.4  7.1    101        17.3 221 
 LO8  SN IP       1738 39.39                             122    2.6310 17.3 221 
 LO8  SE IS       1738 42.58                             122    3.3210 17.3 221 
 LO8  SZ  AML     1738 43.04         6.0 0.40                          17.3 221 
 LD5  SN IP       1738 37.63                             112   -0.1310 24.6 246 
 LD5  SZ E        1738 37.66                   10.4  7.8    -54        24.6 246 
 LD5  SE IS       1738 40.28                             112   -0.7210 24.6 246 
 LD5  SZ  AML     1738 41.96         8.0 0.28                          24.6 246 
 LT9  SN IP       1738 37.18                             109   -0.8210 26.4 299 
 LT9  SZ E        1738 37.19                  157.2  7.7     38        26.4 299 
 LT9  SE IS       1738 38.48                             109   -2.9310 26.4 299 
 LT9  SZ  AML     1738 38.92        19.3 0.24                          26.4 299 
 LA4  SN IP       1738 38.69                             106   -0.0510 31.1 317 
 LA4  SZ E        1738 38.71                  161.6  6.8     25        31.1 317 
 LA4  SE IS       1738 41.41                             106   -1.2810 31.1 317 
 LA4  SZ  AML     1738 41.65       128.3 0.76                          31.1 317 
                                                                                
