 2010  8 4 1559 15.5 L  21.328 -99.284 10.0  RAL  1 0.1 0.7LRAL                1
 GAP=360        0.58     831.8   224.3  0.0 -0.1866E+06  0.1929E+01 -0.1560E+01E
 ACTION:UPD 13-02-28 14:29 OP:RALL STATUS:               ID:20100804155915     I
 2010-08-04-1559-08S.PLUR1_003                                                 6
 STAT SP IPHASW D HRMM SECON CODA AMPLIT PERI AZIMU VELO AIN AR TRES W  DIS CAZ7
 LZ4  SZ E        1559 17.60                  258.0 31.6      0        1.55  79 
 LZ4  SN IP       1559 17.67                             171    0.2910 1.55  79 
 LZ4  SE IS       1559 18.43                             171   -0.2910 1.55  79 
 LZ4  SZ  AML     1559 18.88        28.2 0.18                          1.55  79 
                                                                                
