 2010  8 4 1523 34.6 L  21.343 -99.287 10.0  RAL  1 0.2 1.3LRAL                1
 GAP=360        0.76      27.4    39.1  0.0 -0.1070E+04  0.1929E+01 -0.1560E+01E
 ACTION:UPD 13-02-28 14:29 OP:RALL STATUS:               ID:20100804152334     I
 2010-08-04-1523-27S.PLUR1_003                                                 6
 STAT SP IPHASW D HRMM SECON CODA AMPLIT PERI AZIMU VELO AIN AR TRES W  DIS CAZ7
 LZ4  SZ E        1523 36.98                  306.9 28.7      0        2.21 127 
 LZ4  SN IP       1523 36.98                             168    0.4810 2.21 127 
 LZ4  SE IS       1523 37.39                             168   -0.4810 2.21 127 
 LZ4  SZ  AML     1523 37.57       102.6 0.22                          2.21 127 
                                                                                
