 2010  8 4 1657 44.6 L  21.335 -99.275 10.0  RAL  1 0.6 0.8LRAL                1
 GAP=360        7.96     853.5   999.9  0.0  0.2137E+07 -0.1199E+01 -0.1371E+02E
 ACTION:UPD 13-02-28 14:29 OP:RALL STATUS:               ID:20100804165744     I
 2010-08-04-1657-37S.PLUR1_003                                                 6
 STAT SP IPHASW D HRMM SECON CODA AMPLIT PERI AZIMU VELO AIN AR TRES W  DIS CAZ7
 LZ4  SZ E        1657 46.99                  268.3 27.8    -37        0.74 126 
 LZ4  SN IP       1657 47.01                             176    0.5310 0.74 126 
 LZ4  SE IS       1657 47.28                             176   -0.5310 0.74 126 
 LZ4  SZ  AML     1657 48.00        39.0 0.10                          0.74 126 
                                                                                
