 2010  8 4 1234 31.3 L  21.330 -99.166 10.0  RAL  4 1.3 0.7LRAL                1
 GAP=236       22.24      25.4    28.9336.5 -0.2629E+02 -0.9262E+03 -0.3135E+03E
 ACTION:UPD 13-02-28 14:29 OP:RALL STATUS:               ID:20100804123431     I
 2010-08-04-1234-24S.PLUR1_015                                                 6
 STAT SP IPHASW D HRMM SECON CODA AMPLIT PERI AZIMU VELO AIN AR TRES W  DIS CAZ7
 LT9  SZ E        1234 34.02                  167.0  7.8     54        18.1 293 
 LT9  SN IP     C 1234 34.02                             116   -0.7310 18.1 293 
 LT9  SE IS       1234 35.51                             116   -1.7810 18.1 293 
 LT9  SZ  AML     1234 37.98        13.6 0.24                          18.1 293 
 LO8  SZ E        1234 36.27                  137.0  5.6    123        19.5 194 
 LO8  SN IP       1234 36.31                             115    1.2910 19.5 194 
 LO8  SE IS       1234 40.01                             115    2.2710 19.5 194 
 LO8  SZ  AML     1234 43.47         5.8 0.34                          19.5 194 
 LA4  SZ E        1234 35.61                  161.6  7.2     23        22.5 319 
 LA4  SN IP       1234 35.61                             110    0.1910 22.5 319 
 LA4  SE IS       1234 38.47                             110    0.0210 22.5 319 
 LA4  SZ  AML     1234 40.69        56.0 0.46                          22.5 319 
 LD5  SN IP       1234 35.28                             110   -0.1410 22.6 225 
 LD5  SZ E        1234 35.28                  355.1  9.8     50        22.6 225 
 LD5  SE IS       1234 37.32                             110   -1.1210 22.6 225 
 LD5  SZ  AML     1234 40.07         9.2 0.38                          22.6 225 
                                                                                
