 2010  8 4 1343 43.8 L  21.332 -99.275 10.0  RAL  1 0.2 0.4LRAL                1
 GAP=360        1.75     999.9   795.3  0.0  0.1530E+07 -0.9262E+03 -0.3135E+03E
 ACTION:UPD 13-02-28 14:29 OP:RALL STATUS:               ID:20100804134343     I
 2010-08-04-1343-37S.PLUR1_003                                                 6
 STAT SP IPHASW D HRMM SECON CODA AMPLIT PERI AZIMU VELO AIN AR TRES W  DIS CAZ7
 LZ4  SN IP       1343 45.98                             177    0.3210 0.63 101 
 LZ4  SZ E        1343 45.99                  289.0 28.5      8        0.63 101 
 LZ4  SE IS       1343 46.68                             177   -0.3210 0.63 101 
 LZ4  SZ  AML     1343 46.79        14.4 0.14                          0.63 101 
                                                                                
