 2010  8 4 1651  1.7 L  21.333 -99.285 10.0  RAL  1 0.2 1.7LRAL                1
 GAP=360        1.73      17.5   152.0  0.0 -0.2658E+04 -0.1199E+01 -0.1371E+02E
 ACTION:UPD 13-02-28 14:29 OP:RALL STATUS:               ID:20100804165101     I
 2010-08-04-1650-54S.PLUR1_003                                                 6
 STAT SP IPHASW D HRMM SECON CODA AMPLIT PERI AZIMU VELO AIN AR TRES W  DIS CAZ7
 LZ4  SZ E        1651  3.80                  284.9 42.4      8        1.58  97 
 LZ4  SN IP       1651  3.84                             171    0.3010 1.58  97 
 LZ4  SE IS       1651  4.58                             171   -0.3010 1.58  97 
 LZ4  SZ  AML     1651  4.90       306.1 0.32                          1.58  97 
                                                                                
