 2010  8 4 1724  8.6 L  21.339 -99.289 10.0  RAL  1 0.1 0.3LRAL                1
 GAP=360        0.49     856.9   431.5  0.0  0.3698E+06 -0.1199E+01 -0.1371E+02E
 ACTION:UPD 13-02-28 14:29 OP:RALL STATUS:               ID:20100804172408     I
 2010-08-04-1724-02S.PLUR1_003                                                 6
 STAT SP IPHASW D HRMM SECON CODA AMPLIT PERI AZIMU VELO AIN AR TRES W  DIS CAZ7
 LZ4  SZ E        1724 10.75                  293.4 20.0      0        2.20 113 
 LZ4  SN IP       1724 10.77                             168    0.2610 2.20 113 
 LZ4  SE IS       1724 11.61                             168   -0.2610 2.20 113 
 LZ4  SZ  AML     1724 11.74        11.8 0.32                          2.20 113 
                                                                                
