 2010  8 4 1342 16.5 L                       RAL  1                            1
 ACTION:UPD 13-02-28 14:29 OP:RALL STATUS:               ID:20100804134216     I
 2010-08-04-1342-16S.PLUR1_003                                                 6
 STAT SP IPHASW D HRMM SECON CODA AMPLIT PERI AZIMU VELO AIN AR TRES W  DIS CAZ7
 LZ4  SN IP       1342 24.68                                                    
 LZ4  SZ IS       1342 26.10                                                    
                                                                                
