 2010  8 4 1034 44.3 L  21.346 -99.291 10.0  RAL  1 0.2 0.7LRAL                1
 GAP=360        0.68      20.0    28.2  0.0 -0.5629E+03  0.1141E+01 -0.1040E+01E
 ACTION:UPD 13-02-28 14:29 OP:RALL STATUS:               ID:20100804103444     I
 2010-08-04-1034-37S.PLUR1_003                                                 6
 STAT SP IPHASW D HRMM SECON CODA AMPLIT PERI AZIMU VELO AIN AR TRES W  DIS CAZ7
 LZ4  SZ E        1034 46.52                  307.2 37.0      0        2.74 127 
 LZ4  SN IP       1034 46.57                             165    0.4110 2.74 127 
 LZ4  SE IS       1034 47.12                             165   -0.4110 2.74 127 
 LZ4  SZ  AML     1034 47.42        28.3 0.18                          2.74 127 
                                                                                
