 2010  8 4 1835 24.8 L  21.319 -99.194 10.0  RAL  1 0.0 1.3LRAL                1
 GAP=360        0.30       1.0     6.3  0.0 -0.6168E+01 -0.1499E+04 -0.1722E+04E
 ACTION:UPD 13-02-28 14:29 OP:RALL STATUS:               ID:20100804183524     I
 2010-08-04-1835-18S.PLUR1_003                                                 6
 STAT SP IPHASW D HRMM SECON CODA AMPLIT PERI AZIMU VELO AIN AR TRES W  DIS CAZ7
 LZ4  SZ E        1835 27.03                   99.5 33.9      0        7.98 280 
 LZ4  SN IP       1835 27.05                             141    0.0110 7.98 280 
 LZ4  SE IS       1835 28.68                             141   -0.0110 7.98 280 
 LZ4  SZ  AML     1835 28.91        80.2 0.16                          7.98 280 
                                                                                
