 2010  8 4 1610 19.6 L  21.403 -99.332 10.0  RAL  2 0.7 0.4LRAL                1
 GAP=226       11.00       5.3     9.5 95.9 -0.1017E+02 -0.1199E+01 -0.1371E+02E
 ACTION:UPD 13-02-28 14:29 OP:RALL STATUS:               ID:20100804161019     I
 2010-08-04-1610-11S.PLUR1_006                                                 6
 STAT SP IPHASW D HRMM SECON CODA AMPLIT PERI AZIMU VELO AIN AR TRES W  DIS CAZ7
 LT9  SZ E        1610 21.19                  307.9 18.4    -20        1.03 149 
 LT9  SN IP       1610 21.19                             176   -0.2210 1.03 149 
 LT9  SE IS       1610 21.83                             176   -0.8810 1.03 149 
 LT9  SZ  AML     1610 22.69         5.7 0.20                          1.03 149 
 LA4  SZ E        1610 22.56                  145.4  9.3    -48        9.20  15 
 LA4  SN IP       1610 22.56                             136    0.5410 9.20  15 
 LA4  SE IS       1610 24.33                             136    0.5610 9.20  15 
 LA4  SZ  AML     1610 24.84        25.7 0.24                          9.20  15 
                                                                                
