 2010  8 4 1443 49.7 L  21.352 -99.284 10.0  RAL  1 0.1 1.0LRAL                1
 GAP=360        0.60      24.3    16.3  0.0 -0.3960E+03  0.1929E+01 -0.1560E+01E
 ACTION:UPD 13-02-28 14:29 OP:RALL STATUS:               ID:20100804144349     I
 2010-08-04-1443-42S.PLUR1_003                                                 6
 STAT SP IPHASW D HRMM SECON CODA AMPLIT PERI AZIMU VELO AIN AR TRES W  DIS CAZ7
 LZ4  SZ E        1443 51.82                  328.1 12.7      0        2.76 148 
 LZ4  SN IP       1443 51.93                             165    0.3510 2.76 148 
 LZ4  SE IS       1443 52.61                             165   -0.3510 2.76 148 
 LZ4  SZ  AML     1443 52.75        56.6 0.14                          2.76 148 
                                                                                
