 2010  8 4 1428 32.7 L  21.334 -99.283 10.0  RAL  1 0.1 0.3LRAL                1
 GAP=360        0.50     999.9   999.9  0.0  0.8073E+07 -0.9262E+03 -0.3135E+03E
 ACTION:UPD 13-02-28 14:29 OP:RALL STATUS:               ID:20100804142832     I
 2010-08-04-1428-26S.PLUR1_003                                                 6
 STAT SP IPHASW D HRMM SECON CODA AMPLIT PERI AZIMU VELO AIN AR TRES W  DIS CAZ7
 LZ4  SZ E        1428 34.79                  284.1 16.1      0        1.43 104 
 LZ4  SN IP       1428 34.83                             172    0.2710 1.43 104 
 LZ4  SE IS       1428 35.64                             172   -0.2710 1.43 104 
 LZ4  SZ  AML     1428 35.72        11.9 0.56                          1.43 104 
                                                                                
