 2010  8 4 1506 14.8 L  21.327 -99.301 10.0  RAL  1 0.2 0.8LRAL                1
 GAP=360        0.83       4.4    36.5  0.0  0.1606E+03  0.1929E+01 -0.1560E+01E
 ACTION:UPD 13-02-28 14:29 OP:RALL STATUS:               ID:20100804150614     I
 2010-08-04-1506-08S.PLUR1_003                                                 6
 STAT SP IPHASW D HRMM SECON CODA AMPLIT PERI AZIMU VELO AIN AR TRES W  DIS CAZ7
 LZ4  SZ E        15 6 17.08                  264.5 37.9      2        3.26  83 
 LZ4  SN IP       15 6 17.12                             162    0.4610 3.26  83 
 LZ4  SE IS       15 6 17.60                             162   -0.4610 3.26  83 
 LZ4  SZ  AML     15 6 17.98        34.2 0.16                          3.26  83 
                                                                                
