 2010  8 4 1531 12.4 L  21.331 -99.281 10.0  RAL  1 0.2 0.6LRAL                1
 GAP=360        1.76      61.9   209.1  0.0 -0.1293E+05  0.1929E+01 -0.1560E+01E
 ACTION:UPD 13-02-28 14:29 OP:RALL STATUS:               ID:20100804153112     I
 2010-08-04-1531-05S.PLUR1_003                                                 6
 STAT SP IPHASW D HRMM SECON CODA AMPLIT PERI AZIMU VELO AIN AR TRES W  DIS CAZ7
 LZ4  SZ E        1531 14.68                  263.7 39.9     -7        1.16  91 
 LZ4  SN IP       1531 14.69                             174    0.4210 1.16  91 
 LZ4  SE IS       1531 15.20                             174   -0.4210 1.16  91 
 LZ4  SZ  AML     1531 15.63        21.6 0.48                          1.16  91 
                                                                                
