 2010  8 4 1434 47.3 L  21.311 -99.284 10.0  RAL  1 0.1 0.5LRAL                1
 GAP=360        0.54      22.7    16.3  0.0  0.3690E+03 -0.9262E+03 -0.3135E+03E
 ACTION:UPD 13-02-28 14:29 OP:RALL STATUS:               ID:20100804143447     I
 2010-08-04-1434-40S.PLUR1_003                                                 6
 STAT SP IPHASW D HRMM SECON CODA AMPLIT PERI AZIMU VELO AIN AR TRES W  DIS CAZ7
 LZ4  SZ E        1434 49.42                  213.8 30.6      0        2.63  34 
 LZ4  SN IP       1434 49.45                             166    0.3110 2.63  34 
 LZ4  SE IS       1434 50.21                             166   -0.3110 2.63  34 
 LZ4  SZ  AML     1434 50.70        16.6 0.14                          2.63  34 
                                                                                
