 2010  8 4 1958 52.7 L  21.333 -99.277 10.0  RAL  1 0.1 1.0LRAL                1
 GAP=360        0.44       2.7     0.1237.7 -0.2305E+02 -0.1499E+04 -0.1722E+04E
 ACTION:UPD 13-02-28 14:29 OP:RALL STATUS:               ID:20100804195852     I
 2010-08-04-1958-45S.PLUR1_003                                                 6
 STAT SP IPHASW D HRMM SECON CODA AMPLIT PERI AZIMU VELO AIN AR TRES W  DIS CAZ7
 LZ4  SZ E        1958 54.81                  288.8 21.2      0        0.80 110 
 LZ4  SN IP       1958 54.84                             176    0.3010 0.80 110 
 LZ4  SE IS       1958 55.57                             176   -0.3010 0.80 110 
 LZ4  SZ  AML     1958 55.69        53.4 0.16                          0.80 110 
                                                                                
