 2010  8 4 1957 11.4 L  21.384 -99.330 10.0  RAL  1 0.1-0.8LRAL                1
 GAP=360        0.86     685.4   999.9  0.0 -0.1410E+07 -0.1499E+04 -0.1722E+04E
 ACTION:UPD 13-02-28 14:29 OP:RALL STATUS:               ID:20100804195711     I
 2010-08-04-1957-04S.PLUR1_003                                                 6
 STAT SP IPHASW D HRMM SECON CODA AMPLIT PERI AZIMU VELO AIN AR TRES W  DIS CAZ7
 LT9  SN IP       1957 13.48                             173    0.2910 1.28  17 
 LT9  SZ E        1957 13.56                  200.6 13.7      3        1.28  17 
 LT9  SE IS       1957 14.21                             173   -0.2910 1.28  17 
 LT9  SZ  AML     1957 14.45         0.9 0.32                          1.28  17 
                                                                                
