 2010  8 4 1401  0.0 L  21.340 -99.289 10.0  RAL  1 0.1 1.0LRAL                1
 GAP=360        0.54     875.2   508.4  0.0  0.4450E+06 -0.9262E+03 -0.3135E+03E
 ACTION:UPD 13-02-28 14:29 OP:RALL STATUS:               ID:20100804140100     I
 2010-08-04-1400-44S.PLUR1_006                                                 6
 STAT SP IPHASW D HRMM SECON CODA AMPLIT PERI AZIMU VELO AIN AR TRES W  DIS CAZ7
 LZ4  SZ E        14 1  2.19                  296.6 17.9      0        2.28 117 
 LZ4  SN IP       14 1  2.20                             168    0.3010 2.28 117 
 LZ4  SE IS       14 1  2.96                             168   -0.3010 2.28 117 
 LZ4  SZ  AML     14 1  3.08        56.4 0.18                          2.28 117 
                                                                                
