 2010  8 4 1023  9.7 L  21.333 -99.279 10.0  RAL  1 0.4 1.0LRAL                1
 GAP=360        4.73     971.5   910.1  0.0  0.8839E+06  0.1141E+01 -0.1040E+01E
 ACTION:UPD 13-02-28 14:29 OP:RALL STATUS:               ID:20100804102309     I
 2010-08-04-1023-02S.PLUR1_003                                                 6
 STAT SP IPHASW D HRMM SECON CODA AMPLIT PERI AZIMU VELO AIN AR TRES W  DIS CAZ7
 LZ4  SN IP       1023 11.81                             174    0.2710 1.03 104 
 LZ4  SZ E        1023 11.82                  261.1 22.8    -21        1.03 104 
 LZ4  SE IS       1023 12.61                             174   -0.2710 1.03 104 
 LZ4  SZ  AML     1023 12.71        55.2 0.32                          1.03 104 
                                                                                
