 2010  8 4 1215 54.7 L  21.380 -99.334 10.0  RAL  1 0.2-0.3LRAL                1
 GAP=360        0.77     857.1   999.9  0.0 -0.1768E+07  0.1141E+01 -0.1040E+01E
 ACTION:UPD 13-02-28 14:29 OP:RALL STATUS:               ID:20100804121554     I
 2010-08-04-1215-47S.PLUR1_003                                                 6
 STAT SP IPHASW D HRMM SECON CODA AMPLIT PERI AZIMU VELO AIN AR TRES W  DIS CAZ7
 LT9  SN IP       1215 56.93                             170    0.4810 1.82  25 
 LT9  SZ E        1215 56.94                  205.5 11.6      0        1.82  25 
 LT9  SE IS       1215 57.29                             170   -0.4810 1.82  25 
 LT9  SZ  AML     1215 57.53         2.7 0.38                          1.82  25 
                                                                                
