 2010  8 4 1700 35.5 L  21.429 -99.303 10.0  RAL  1 0.0 1.2LRAL                1
 GAP=360        0.30       4.6     1.6  0.0 -0.7389E+01 -0.1199E+01 -0.1371E+02E
 ACTION:UPD 13-02-28 14:29 OP:RALL STATUS:               ID:20100804170035     I
 2010-08-04-1700-29S.PLUR1_003                                                 6
 STAT SP IPHASW D HRMM SECON CODA AMPLIT PERI AZIMU VELO AIN AR TRES W  DIS CAZ7
 LZ4  SZ E        17 0 38.15                  342.1  7.3      0        11.4 162 
 LZ4  SN IP       17 0 38.18                             130    0.0110 11.4 162 
 LZ4  SE IS       17 0 40.08                             130   -0.0110 11.4 162 
 LZ4  SZ  AML     17 0 43.03        58.3 0.52                          11.4 162 
                                                                                
