 2010  8 4 1312 47.0 L  21.350 -99.282 10.0  RAL  1 0.2 0.4LRAL                1
 GAP=360        0.78      35.2    22.2  0.0 -0.7794E+03 -0.9262E+03 -0.3135E+03E
 ACTION:UPD 13-02-28 14:29 OP:RALL STATUS:               ID:20100804131247     I
 2010-08-04-1312-40S.PLUR1_003                                                 6
 STAT SP IPHASW D HRMM SECON CODA AMPLIT PERI AZIMU VELO AIN AR TRES W  DIS CAZ7
 LZ4  SZ E        1312 49.35                  329.6 20.1      0        2.52 150 
 LZ4  SN IP       1312 49.38                             166    0.4910 2.52 150 
 LZ4  SE IS       1312 49.78                             166   -0.4910 2.52 150 
 LZ4  SZ  AML     1312 50.48        14.4 0.18                          2.52 150 
                                                                                
