 2010  8 4 1605 16.9 L  21.284 -99.257 10.0  RAL  1 0.0 1.0LRAL                1
 GAP=360        0.30       7.8     2.1  0.0 -0.1619E+02  0.1929E+01 -0.1560E+01E
 ACTION:UPD 13-02-28 14:29 OP:RALL STATUS:               ID:20100804160516     I
 2010-08-04-1605-09S.PLUR1_003                                                 6
 STAT SP IPHASW D HRMM SECON CODA AMPLIT PERI AZIMU VELO AIN AR TRES W  DIS CAZ7
 LZ4  SZ E        16 5 18.99                  165.9 11.9      0        5.36 346 
 LZ4  SN IP       16 5 18.99                             152    0.0210 5.36 346 
 LZ4  SE IS       16 5 20.43                             152   -0.0210 5.36 346 
 LZ4  SZ  AML     16 5 21.85        45.9 0.20                          5.36 346 
                                                                                
