 2010  8 4 1552 57.7 L  21.339 -99.289 10.0  RAL  1 0.1 1.3LRAL                1
 GAP=360        0.51      12.5    28.9  0.0 -0.3626E+03  0.1929E+01 -0.1560E+01E
 ACTION:UPD 13-02-28 14:29 OP:RALL STATUS:               ID:20100804155257     I
 2010-08-04-1552-50S.PLUR1_003                                                 6
 STAT SP IPHASW D HRMM SECON CODA AMPLIT PERI AZIMU VELO AIN AR TRES W  DIS CAZ7
 LZ4  SZ E        1552 59.80                  294.9 14.8      0        2.24 115 
 LZ4  SN IP       1552 59.82                             168    0.2810 2.24 115 
 LZ4  SE IS       1553  0.63                             168   -0.2810 2.24 115 
 LZ4  SZ  AML     1553  0.72       109.8 0.16                          2.24 115 
                                                                                
