 2010  8 4 1609  0.4 L  21.325 -99.284 10.0  RAL  1 0.1 0.1LRAL                1
 GAP=360        0.53      15.6    41.0  0.0  0.6382E+03  0.1929E+01 -0.1560E+01E
 ACTION:UPD 13-02-28 14:29 OP:RALL STATUS:               ID:20100804160900     I
 2010-08-04-1608-54S.PLUR1_003                                                 6
 STAT SP IPHASW D HRMM SECON CODA AMPLIT PERI AZIMU VELO AIN AR TRES W  DIS CAZ7
 LZ4  SZ E        16 9  2.42                  247.8 26.9      0        1.67  68 
 LZ4  SN IP       16 9  2.58                             171    0.3010 1.67  68 
 LZ4  SE IS       16 9  3.34                             171   -0.3010 1.67  68 
 LZ4  SZ  AML     16 9  3.61         7.0 0.30                          1.67  68 
                                                                                
