 2010  8 4 1947 58.2 L  21.328 -99.282 10.0  RAL  1 0.1 0.7LRAL                1
 GAP=360        0.52     999.9   999.9  0.0 -0.9305E+07 -0.1499E+04 -0.1722E+04E
 ACTION:UPD 13-02-28 14:29 OP:RALL STATUS:               ID:20100804194758     I
 2010-08-04-1947-51S.PLUR1_003                                                 6
 STAT SP IPHASW D HRMM SECON CODA AMPLIT PERI AZIMU VELO AIN AR TRES W  DIS CAZ7
 LZ4  SZ E        1948  0.33                  257.1 52.4      0        1.31  77 
 LZ4  SN IP       1948  0.37                             173    0.2910 1.31  77 
 LZ4  SE IS       1948  1.14                             173   -0.2910 1.31  77 
 LZ4  SZ  AML     1948  1.24        29.3 0.16                          1.31  77 
                                                                                
