 2010  8 4 1008 46.2 L  21.276 -99.252 12.7  RAL  2 0.3 0.6LRAL                1
 GAP=232        3.45       2.5     4.4 27.8  0.8440E+01  0.1141E+01 -0.1040E+01E
 ACTION:UPD 13-02-28 14:29 OP:RALL STATUS:               ID:20100804100846     I
 2010-08-04-1008-39S.PLUR1_006                                                 6
 STAT SP IPHASW D HRMM SECON CODA AMPLIT PERI AZIMU VELO AIN AR TRES W  DIS CAZ7
 LG3  SZ E        10 8 49.19                   24.2 18.4      2        0.04 202 
 LG3  SN IP       10 8 49.22                             180    0.7410 0.04 202 
 LG3  SE IS       10 8 50.62                             180    0.4810 0.04 202 
 LG3  SZ  AML     10 8 50.78        77.1 0.20                          0.04 202 
 LT9  SN IP       10 8 49.36                             128   -0.1710 15.3 330 
 LT9  SZ E        10 8 49.37                  165.0  7.1     15        15.3 330 
 LT9  SE IS       10 8 50.90                             128   -1.0510 15.3 330 
 LT9  SZ  AML     10 8 51.56         2.2 0.34                          15.3 330 
                                                                                
