 2010  8 4 1453  6.2 L  21.364 -99.297 10.0  RAL  1 0.0 0.0LRAL                1
 GAP=360        0.30       4.5     0.6  0.0 -0.2024E+01  0.1929E+01 -0.1560E+01E
 ACTION:UPD 13-02-28 14:29 OP:RALL STATUS:               ID:20100804145306     I
 2010-08-04-1453-02S.PLUR1_003                                                 6
 STAT SP IPHASW D HRMM SECON CODA AMPLIT PERI AZIMU VELO AIN AR TRES W  DIS CAZ7
 LA4  SN IP       1453  9.10                             126    0.0010 13.4 355 
 LA4  SZ E        1453  9.14                  174.7 14.6      0        13.4 355 
 LA4  SE IS       1453 11.20                             126    0.0010 13.4 355 
 LA4  SZ  AML     1453 11.25         3.6 0.14                          13.4 355 
                                                                                
