 2010  8 4 1618  5.2 L  21.341 -99.291 10.0  RAL  1 0.2 0.6LRAL                1
 GAP=360        0.79     999.9   753.5  0.0  0.9800E+06 -0.1199E+01 -0.1371E+02E
 ACTION:UPD 13-02-28 14:29 OP:RALL STATUS:               ID:20100804161805     I
 2010-08-04-1617-58S.PLUR1_003                                                 6
 STAT SP IPHASW D HRMM SECON CODA AMPLIT PERI AZIMU VELO AIN AR TRES W  DIS CAZ7
 LZ4  SZ E        1618  7.51                  296.7 26.3      0        2.46 117 
 LZ4  SN IP       1618  7.54                             167    0.4910 2.46 117 
 LZ4  SE IS       1618  7.92                             167   -0.4910 2.46 117 
 LZ4  SZ  AML     1618  8.49        22.5 0.16                          2.46 117 
                                                                                
