 2010  8 4 1416 51.7 L  21.300 -99.219 10.0  RAL  1 0.0 0.7LRAL                1
 GAP=360        0.30       3.9     6.4  0.0 -0.2493E+02 -0.9262E+03 -0.3135E+03E
 ACTION:UPD 13-02-28 14:29 OP:RALL STATUS:               ID:20100804141651     I
 2010-08-04-1416-45S.PLUR1_003                                                 6
 STAT SP IPHASW D HRMM SECON CODA AMPLIT PERI AZIMU VELO AIN AR TRES W  DIS CAZ7
 LZ4  SZ E        1416 53.85                  123.1 13.7      0        6.31 303 
 LZ4  SN IP       1416 53.85                             148    0.0410 6.31 303 
 LZ4  SE IS       1416 55.31                             148   -0.0410 6.31 303 
 LZ4  SZ  AML     1416 55.60        26.2 0.40                          6.31 303 
                                                                                
