 2010  8 4 2133 10.9 L  21.298 -99.235 10.0  RAL  1 0.0 1.0LRAL                1
 GAP=360        0.32       6.4     6.8  0.0 -0.4353E+02 -0.1499E+04 -0.1722E+04E
 ACTION:UPD 13-02-28 14:29 OP:RALL STATUS:               ID:20100804213310     I
 2010-08-04-2133-04S.PLUR1_003                                                 6
 STAT SP IPHASW D HRMM SECON CODA AMPLIT PERI AZIMU VELO AIN AR TRES W  DIS CAZ7
 LZ4  SN IP       2133 12.97                             154    0.0910 5.09 315 
 LZ4  SZ E        2133 12.99                  135.3  9.2      0        5.09 315 
 LZ4  SE IS       2133 14.27                             154   -0.0910 5.09 315 
 LZ4  SZ  AML     2133 14.62        45.2 0.22                          5.09 315 
                                                                                
