 2010  8 4 2139 13.4 L  21.386 -99.324 10.0  RAL  1 0.1                        1
 GAP=360        0.70     999.7   999.9  0.0  0.5004E+07 -0.1499E+04 -0.1722E+04E
 ACTION:UPD 13-02-28 14:29 OP:RALL STATUS:               ID:20100804213913     I
 2010-08-04-2139-06S.PLUR1_003                                                 6
 STAT SP IPHASW D HRMM SECON CODA AMPLIT PERI AZIMU VELO AIN AR TRES W  DIS CAZ7
 LT9  SZ E        2139 15.19                  171.9  9.5      3        1.06 349 
 LT9  SN IP       2139 15.21                             174    0.0710 1.06 349 
 LT9  SE IS       2139 16.37                             174   -0.0710 1.06 349 
                                                                                
