 2010  8 4 2136 36.2 L  21.343 -99.290 10.0  RAL  1 0.2 1.2LRAL                1
 GAP=360        0.68      18.4    32.7  0.0 -0.6027E+03 -0.1499E+04 -0.1722E+04E
 ACTION:UPD 13-02-28 14:29 OP:RALL STATUS:               ID:20100804213636     I
 2010-08-04-2136-29S.PLUR1_003                                                 6
 STAT SP IPHASW D HRMM SECON CODA AMPLIT PERI AZIMU VELO AIN AR TRES W  DIS CAZ7
 LZ4  SZ E        2136 38.51                  301.1 32.2      0        2.51 121 
 LZ4  SN IP       2136 38.52                             166    0.4110 2.51 121 
 LZ4  SE IS       2136 39.07                             166   -0.4110 2.51 121 
 LZ4  SZ  AML     2136 39.53        80.4 0.16                          2.51 121 
                                                                                
