 2010  8 4 2249 27.1 L  21.305 -99.263 10.0  RAL  1 0.0 0.9LRAL                1
 GAP=360        0.33      14.3     3.8  0.0 -0.5409E+02 -0.1499E+04 -0.1722E+04E
 ACTION:UPD 13-02-28 14:29 OP:RALL STATUS:               ID:20100804224927     I
 2010-08-04-2249-20S.PLUR1_003                                                 6
 STAT SP IPHASW D HRMM SECON CODA AMPLIT PERI AZIMU VELO AIN AR TRES W  DIS CAZ7
 LZ4  SN IP       2249 29.13                             164    0.0910 2.95 346 
 LZ4  SZ E        2249 29.16                  166.2 12.2      0        2.95 346 
 LZ4  SE IS       2249 30.33                             164   -0.0910 2.95 346 
 LZ4  SZ  AML     2249 30.74        42.5 0.26                          2.95 346 
                                                                                
