 2010  8 4 2129 11.6 L  21.335 -99.259 10.0  RAL  1 0.1 0.6LRAL                1
 GAP=360        1.00     999.9   999.9  0.0 -0.3241E+07 -0.1499E+04 -0.1722E+04E
 ACTION:UPD 13-02-28 14:29 OP:RALL STATUS:               ID:20100804212911     I
 2010-08-04-2129-05S.PLUR1_003                                                 6
 STAT SP IPHASW D HRMM SECON CODA AMPLIT PERI AZIMU VELO AIN AR TRES W  DIS CAZ7
 LZ4  SZ E        2129 13.75                   69.6 74.2      4        1.19 246 
 LZ4  SN IP       2129 13.75                             173    0.3010 1.19 246 
 LZ4  SE IS       2129 14.49                             173   -0.3010 1.19 246 
 LZ4  SZ  AML     2129 14.98        22.8 0.22                          1.19 246 
                                                                                
