 2010  8 4 2217 14.6 L  21.329 -99.274 10.0  RAL  1 0.4 1.1LRAL                1
 GAP=360        5.68     999.9   999.9  0.0 -0.2565E+07 -0.1499E+04 -0.1722E+04E
 ACTION:UPD 13-02-28 14:29 OP:RALL STATUS:               ID:20100804221714     I
 2010-08-04-2217-07S.PLUR1_003                                                 6
 STAT SP IPHASW D HRMM SECON CODA AMPLIT PERI AZIMU VELO AIN AR TRES W  DIS CAZ7
 LZ4  SZ E        2217 16.62                  273.1 20.5     27        0.48  66 
 LZ4  SN IP       2217 16.62                             177    0.1910 0.48  66 
 LZ4  SZ  AML     2217 17.54        69.6 0.44                          0.48  66 
 LZ4  SE IS       2217 17.57                             177   -0.1910 0.48  66 
                                                                                
