 2010  8 5 0405 45.2 L  21.494 -99.340 10.0  RAL  1 0.0-0.1LRAL                1
 GAP=360        0.32       4.5    13.0  0.0 -0.5898E+02 -0.4749E+04  0.2099E+04E
 ACTION:UPD 13-02-28 14:29 OP:RALL STATUS:               ID:20100805040545     I
 2010-08-05-0405-39S.PLUR1_003                                                 6
 STAT SP IPHASW D HRMM SECON CODA AMPLIT PERI AZIMU VELO AIN AR TRES W  DIS CAZ7
 LA4  SN IP        4 5 47.26                             162    0.0910 3.41 110 
 LA4  SZ E         4 5 47.33                  290.5 13.9      0        3.41 110 
 LA4  SE IS        4 5 48.49                             162   -0.0910 3.41 110 
 LA4  SZ  AML      4 5 49.43         4.1 0.44                          3.41 110 
                                                                                
