 2010  8 5 0410 15.2 L  21.541 -99.342 10.0  RAL  1 0.0 0.2LRAL                1
 GAP=360        0.30       5.7     3.2  0.0 -0.1816E+02 -0.4749E+04  0.2099E+04E
 ACTION:UPD 13-02-28 14:29 OP:RALL STATUS:               ID:20100805041015     I
 2010-08-05-0410-09S.PLUR1_003                                                 6
 STAT SP IPHASW D HRMM SECON CODA AMPLIT PERI AZIMU VELO AIN AR TRES W  DIS CAZ7
 LA4  SN IP        410 17.46                             145    0.0210 7.22 152 
 LA4  SZ E         410 17.48                  332.2 10.0      0        7.22 152 
 LA4  SE IS        410 19.03                             145   -0.0210 7.22 152 
 LA4  SZ  AML      410 19.21         8.1 0.22                          7.22 152 
                                                                                
