 2010  8 5 0652 59.1 L  21.329 -99.287 10.0  RAL  1 0.1 1.6LRAL                1
 GAP=360        1.38     999.9   999.9  0.0 -0.1992E+08 -0.1070E+02 -0.7698E+02E
 ACTION:UPD 13-02-28 14:29 OP:RALL STATUS:               ID:20100805065259     I
 2010-08-05-0652-31S.PLUR1_003                                                 6
 STAT SP IPHASW D HRMM SECON CODA AMPLIT PERI AZIMU VELO AIN AR TRES W  DIS CAZ7
 LZ4  SZ E         653  1.15                  270.1 22.8      6        1.81  84 
 LZ4  SN IP        653  1.19                             170    0.2210 1.81  84 
 LZ4  SE IS        653  2.10                             170   -0.2210 1.81  84 
 LZ4  SZ  AML      653  2.75       230.9 0.14                          1.81  84 
                                                                                
