 2010  8 5 0831 16.0 L  21.371 -99.318 10.0  RAL  1 0.0-0.7LRAL                1
 GAP=360        0.34      14.4     5.0  0.0 -0.7114E+02 -0.5844E+02  0.9989E+02E
 ACTION:UPD 13-02-28 14:29 OP:RALL STATUS:               ID:20100805083116     I
 2010-08-05-0831-09S.PLUR1_003                                                 6
 STAT SP IPHASW D HRMM SECON CODA AMPLIT PERI AZIMU VELO AIN AR TRES W  DIS CAZ7
 LT9  SZ E         831 17.87                  162.2  8.0      0        2.89 342 
 LT9  SN IP        831 17.90                             164    0.1110 2.89 342 
 LT9  SE IS        831 19.03                             164   -0.1110 2.89 342 
 LT9  SZ  AML      831 19.12         1.2 0.10                          2.89 342 
                                                                                
