 2010  8 5 0440 15.1 L  21.317 -99.269 10.0  RAL  1 0.2 1.1LRAL                1
 GAP=360        0.66     270.5   999.9  0.0  0.3431E+07 -0.4749E+04  0.2099E+04E
 ACTION:UPD 13-02-28 14:29 OP:RALL STATUS:               ID:20100805044015     I
 2010-08-05-0440-07S.PLUR1_003                                                 6
 STAT SP IPHASW D HRMM SECON CODA AMPLIT PERI AZIMU VELO AIN AR TRES W  DIS CAZ7
 LZ4  SZ E         440 17.20                  178.6 99.9      0        1.57 358 
 LZ4  SN IP        440 17.30                             171    0.3910 1.57 358 
 LZ4  SE IS        440 17.86                             171   -0.3910 1.57 358 
 LZ4  SZ  AML      440 18.27        72.2 0.10                          1.57 358 
                                                                                
