 2010  8 5 0806 57.8 L  21.220 -99.244  5.3  RAL  2 0.4 0.3LRAL                1
 GAP=349        5.30      37.3    16.7 32.5 -0.5217E+03 -0.5844E+02  0.9989E+02E
 ACTION:UPD 13-02-28 14:29 OP:RALL STATUS:               ID:20100805080657     I
 2010-08-05-0806-52S.PLUR1_009                                                 6
 STAT SP IPHASW D HRMM SECON CODA AMPLIT PERI AZIMU VELO AIN AR TRES W  DIS CAZ7
 LT9  SN IP        8 7  1.99                             102    0.3910 21.2 336 
 LT9  SZ E         8 7  2.01                  171.1  7.0     15        21.2 336 
 LT9  SE IS        8 7  3.45                             102   -0.8910 21.2 336 
 LT9  SZ  AML      8 7  3.58         3.2 0.12                          21.2 336 
 LA4  SZ E         8 7  3.63                  146.7  6.8    -19        30.0 347 
 LA4  SN IP        8 7  3.74                              63    0.7510 30.0 347 
 LA4  SE IS        8 7  6.48                              63   -0.2610 30.0 347 
 LA4  SZ  AML      8 7  6.76         8.2 0.10                          30.0 347 
                                                                                
