 2010  8 5 0923 13.9 L  21.334 -99.282 10.0  RAL  1 0.2 1.3LRAL                1
 GAP=360        1.03     253.5   194.5  0.0  0.4931E+05 -0.2883E+05 -0.7856E+04E
 ACTION:UPD 13-02-28 14:29 OP:RALL STATUS:               ID:20100805092313     I
 2010-08-05-0923-06S.PLUR1_003                                                 6
 STAT SP IPHASW D HRMM SECON CODA AMPLIT PERI AZIMU VELO AIN AR TRES W  DIS CAZ7
 LZ4  SZ E         923 16.15                  283.1 21.3     -3        1.34 107 
 LZ4  SN IP        923 16.15                             173    0.4210 1.34 107 
 LZ4  SE IS        923 16.66                             173   -0.4210 1.34 107 
 LZ4  SZ  AML      923 17.05       101.3 0.18                          1.34 107 
                                                                                
