 2010  8 5 0912 26.6 L  21.529 -99.058 10.0  RAL  4 1.6 1.6LRAL                1
 GAP=302       27.72      61.6   105.1629.0  0.4220E+04 -0.2883E+05 -0.7856E+04E
 ACTION:UPD 13-02-28 14:29 OP:RALL STATUS:               ID:20100805091226     I
 2010-08-05-0912-21S.PLUR1_015                                                 6
 STAT SP IPHASW D HRMM SECON CODA AMPLIT PERI AZIMU VELO AIN AR TRES W  DIS CAZ7
 LA4  SZ E         912 32.91                  164.9  9.0     86        26.4 259 
 LA4  SN IP        912 32.92                             107    1.6410 26.4 259 
 LA4  SE IS        912 34.77                             107    0.0510 26.4 259 
 LA4  SZ  AML      912 36.63       306.1 0.44                          26.4 259 
 LT9  SZ E         912 31.49                  317.7 15.2    104        31.4 242 
 LT9  SN IP        912 31.54                             103   -0.4510 31.4 242 
 LT9  SE IS        912 32.08                             103   -3.8810 31.4 242 
 LT9  SZ  AML      912 32.40       259.3 0.52                          31.4 242 
 LO8  SZ E         912 35.97                  138.8  6.0    117        43.9 201 
 LO8  SN IP        912 36.03                              99    2.0810 43.9 201 
 LO8  SE IS        912 40.41                              99    1.0610 43.9 201 
 LO8  SZ  AML      912 41.74        10.6 0.58                          43.9 201 
 LD5  SN IP        912 34.93                              98    0.5910 46.6 216 
 LD5  SZ E         912 34.95                   18.2 13.5    -16        46.6 216 
 LD5  SE IS        912 38.93                              98   -1.0910 46.6 216 
 LD5  SZ  AML      912 39.60        14.8 0.40                          46.6 216 
                                                                                
