 2010  8 5 0315 14.0 L  21.156 -99.207 40.2  RAL  2 1.0 0.7LRAL                1
 GAP=330        5.78      28.7    52.3170.4 -0.1257E+04 -0.4749E+04  0.2099E+04E
 ACTION:UPD 13-02-28 14:29 OP:RALL STATUS:               ID:20100805031514     I
 2010-08-05-0315-11S.PLUR1_009                                                 6
 STAT SP IPHASW D HRMM SECON CODA AMPLIT PERI AZIMU VELO AIN AR TRES W  DIS CAZ7
 LO8  SZ E         315 22.97                  132.0  5.4      7        0.74 305 
 LO8  SN IP        315 22.97                             106    2.8010 0.74 305 
 LO8  SE IS        315 26.11                             106    1.4510 0.74 305 
 LO8  SZ  AML      315 26.38         3.5 0.20                          0.74 305 
 LT9  SN IP        315 21.18                              98   -0.2310 29.3 335 
 LT9  SZ E         315 21.19                  164.9  9.9     10        29.3 335 
 LT9  SE IS        315 22.78                              98   -4.0210 29.3 335 
 LT9  SZ  AML      315 22.99        11.3 0.12                          29.3 335 
                                                                                
