 2010  8 5 0818 16.0 L  21.350 -99.295 10.0  RAL  1 0.1 1.4LRAL                1
 GAP=360        0.45      10.9    15.1  0.0 -0.1655E+03 -0.5844E+02  0.9989E+02E
 ACTION:UPD 13-02-28 14:29 OP:RALL STATUS:               ID:20100805081816     I
 2010-08-05-0818-09S.PLUR1_003                                                 6
 STAT SP IPHASW D HRMM SECON CODA AMPLIT PERI AZIMU VELO AIN AR TRES W  DIS CAZ7
 LZ4  SZ E         818 18.12                  307.8 18.5      0        3.41 128 
 LZ4  SN IP        818 18.16                             162    0.2310 3.41 128 
 LZ4  SE IS     C  818 19.10                             162   -0.2310 3.41 128 
 LZ4  SZ  AML      818 19.83       146.3 0.16                          3.41 128 
                                                                                
