 2010  8 5 0645 25.0 L  21.151 -99.214 10.0  RAL  3 0.8-0.1LRAL                1
 GAP=283       11.23      10.4     6.4 62.6  0.2610E+02 -0.1070E+02 -0.7698E+02E
 ACTION:UPD 13-02-28 14:29 OP:RALL STATUS:               ID:20100805064525     I
 2010-08-05-0645-16S.PLUR1_012                                                 6
 STAT SP IPHASW D HRMM SECON CODA AMPLIT PERI AZIMU VELO AIN AR TRES W  DIS CAZ7
 LO8  SN IP        645 28.28                             178    1.4110 1.01   7 
 LO8  SZ E         645 28.49                  150.9 10.7    -35        1.01   7 
 LO8  SE IS        645 30.18                             178    1.9310 1.01   7 
 LO8  SZ  AML      645 30.67         2.6 0.30                          1.01   7 
 LD5  SZ E         645 27.88                   60.3  9.1    -49        11.7 290 
 LD5  SN IP        645 27.88                             134    0.2510 11.7 290 
 LD5  SE IS        645 29.40                             134   -0.1810 11.7 290 
 LD5  SZ  AML      645 29.55         3.2 0.16                          11.7 290 
 LT9  SZ E         645 28.93                  167.4  9.2     11        29.5 337 
 LT9  SN IP        645 28.99                             107   -1.1210 29.5 337 
 LT9  SE IS        645 31.56                             107   -2.3010 29.5 337 
 LT9  SZ  AML      645 31.75         2.1 0.32                          29.5 337 
                                                                                
