 2010  8 5 0743 34.2 L  21.397 -99.333 10.0  RAL  1 0.2 0.5LRAL                1
 GAP=360        0.94     999.9   743.9  0.0  0.1388E+07 -0.1070E+02 -0.7698E+02E
 ACTION:UPD 13-02-28 14:29 OP:RALL STATUS:               ID:20100805074334     I
 2010-08-05-0743-26S.PLUR1_006                                                 6
 STAT SP IPHASW D HRMM SECON CODA AMPLIT PERI AZIMU VELO AIN AR TRES W  DIS CAZ7
 LT9  SZ E         743 36.36                  288.7 13.2      3        0.74 106 
 LT9  SN IP        743 36.46                             176    0.4410 0.74 106 
 LT9  SE IS        743 36.88                             176   -0.4410 0.74 106 
 LT9  SZ  AML      743 38.12        17.9 0.60                          0.74 106 
                                                                                
