 2010  8 5 0741 53.6 L  21.311 -99.280 10.0  RAL  1 0.1 0.9LRAL                1
 GAP=360        0.71      34.5    17.7  0.0  0.6091E+03 -0.1070E+02 -0.7698E+02E
 ACTION:UPD 13-02-28 14:29 OP:RALL STATUS:               ID:20100805074153     I
 2010-08-05-0741-46S.PLUR1_003                                                 6
 STAT SP IPHASW D HRMM SECON CODA AMPLIT PERI AZIMU VELO AIN AR TRES W  DIS CAZ7
 LZ4  SZ E         741 55.82                  207.2 31.1      2        2.45  26 
 LZ4  SN IP        741 55.88                             167    0.3610 2.45  26 
 LZ4  SE IS        741 56.52                             167   -0.3610 2.45  26 
 LZ4  SZ  AML      741 56.85        48.7 0.16                          2.45  26 
                                                                                
