 2010  8 5 0654 50.7 L  21.190 -99.312 10.0  RAL  1 0.3-0.4LRAL                1
 GAP=360        3.20     999.9   999.9  0.0 -0.1098E+09 -0.1070E+02 -0.7698E+02E
 ACTION:UPD 13-02-28 14:29 OP:RALL STATUS:               ID:20100805065450     I
 2010-08-05-0654-43S.PLUR1_003                                                 6
 STAT SP IPHASW D HRMM SECON CODA AMPLIT PERI AZIMU VELO AIN AR TRES W  DIS CAZ7
 LD5  SZ E         654 52.89                   80.2 11.3     15        0.95 245 
 LD5  SN IP        654 52.90                             175    0.3710 0.95 245 
 LD5  SE IS        654 53.51                             175   -0.3710 0.95 245 
 LD5  SZ  AML      654 53.57         2.1 0.26                          0.95 245 
                                                                                
