 2010  8 5 0320 40.0 L  21.331 -99.313 10.0  RAL  1 0.0-0.6LRAL                1
 GAP=360        0.30       6.1     1.3  0.0 -0.7772E+01 -0.4749E+04  0.2099E+04E
 ACTION:UPD 13-02-28 14:29 OP:RALL STATUS:               ID:20100805032040     I
 2010-08-05-0320-33S.PLUR1_003                                                 6
 STAT SP IPHASW D HRMM SECON CODA AMPLIT PERI AZIMU VELO AIN AR TRES W  DIS CAZ7
 LT9  SN IP        320 42.13                             143    0.0110 7.30 349 
 LT9  SZ E         320 42.23                  168.9 10.7      0        7.30 349 
 LT9  SE IS        320 43.67                             143   -0.0110 7.30 349 
 LT9  SZ  AML      320 43.88         1.3 0.10                          7.30 349 
                                                                                
