 2010  8 5 1813 39.0 L  21.350 -99.298 10.0  RAL  1 0.1 1.2LRAL                1
 GAP=360        0.40       8.7    12.8  0.0 -0.1110E+03 -0.1889E+04 -0.2004E+04E
 ACTION:UPD 13-02-28 14:29 OP:RALL STATUS:               ID:20100805181339     I
 2010-08-05-1813-31S.PLUR1_003                                                 6
 STAT SP IPHASW D HRMM SECON CODA AMPLIT PERI AZIMU VELO AIN AR TRES W  DIS CAZ7
 LZ4  SZ E        1813 41.11                  305.9 86.4      0        3.66 126 
 LZ4  SN EP       1813 41.12                             160    0.1810 3.66 126 
 LZ4  SE IS       1813 42.17                             160   -0.1810 3.66 126 
 LZ4  SZ  AML     1813 42.56        84.7 0.10                          3.66 126 
                                                                                
