 2010  8 5 1558 46.5 L  21.330 -99.279 10.0  RAL  1 0.1 1.7LRAL                1
 GAP=360        0.57     999.9   999.9  0.0 -0.1782E+08 -0.2423E+04  0.2010E+04E
 ACTION:UPD 13-02-28 14:29 OP:RALL STATUS:               ID:20100805155846     I
 2010-08-05-1558-38S.PLUR1_003                                                 6
 STAT SP IPHASW D HRMM SECON CODA AMPLIT PERI AZIMU VELO AIN AR TRES W  DIS CAZ7
 LZ4  SZ E        1558 48.41                  268.3 21.3      2        1.03  86 
 LZ4  SN IP       1558 48.51                             174    0.1610 1.03  86 
 LZ4  SE IS       1558 49.53                             174   -0.1610 1.03  86 
 LZ4  SZ  AML     1558 50.29       287.7 0.44                          1.03  86 
                                                                                
