 2010  8 5 1825 21.4 L  21.327 -99.270 10.0  RAL  1 0.2 0.5LRAL                1
 GAP=360        2.61     196.9   999.9  0.0  0.8191E+06 -0.1889E+04 -0.2004E+04E
 ACTION:UPD 13-02-28 14:29 OP:RALL STATUS:               ID:20100805182521     I
 2010-08-05-1825-14S.PLUR1_003                                                 6
 STAT SP IPHASW D HRMM SECON CODA AMPLIT PERI AZIMU VELO AIN AR TRES W  DIS CAZ7
 LZ4  SZ E        1825 23.16                  177.0 51.6    -11        0.41   9 
 LZ4  SN IP       1825 23.46                             178    0.2710 0.41   9 
 LZ4  SE IS       1825 24.26                             178   -0.2710 0.41   9 
 LZ4  SZ  AML     1825 24.77        16.3 0.34                          0.41   9 
                                                                                
