 2010  8 5 1335 12.6 L  21.382 -99.328 10.0  RAL  1 0.1 0.2LRAL                1
 GAP=360        1.35     191.6   649.4  0.0 -0.1244E+06 -0.2423E+04  0.2010E+04E
 ACTION:UPD 13-02-28 14:29 OP:RALL STATUS:               ID:20100805133512     I
 2010-08-05-1335-04S.PLUR1_003                                                 6
 STAT SP IPHASW D HRMM SECON CODA AMPLIT PERI AZIMU VELO AIN AR TRES W  DIS CAZ7
 LT9  SZ E        1335 14.65                  181.4 11.0     -5        1.51   7 
 LT9  SN IP       1335 14.65                             171    0.3010 1.51   7 
 LT9  SZ  AML     1335 15.11         8.6 0.78                          1.51   7 
 LT9  SE IS       1335 15.36                             171   -0.3010 1.51   7 
                                                                                
