 2010  8 5 1058 43.1 L  21.456 -99.589 10.0  RAL  1 1.3 2.5LRAL                1
 GAP=360        4.81      24.7    52.9  0.0 -0.9840E+03 -0.2423E+04  0.2010E+04E
 ACTION:UPD 13-02-28 14:29 OP:RALL STATUS:               ID:20100805105843     I
 2010-08-05-1058-43S.PLUR1_003                                                 6
 STAT SP IPHASW D HRMM SECON CODA AMPLIT PERI AZIMU VELO AIN AR TRES W  DIS CAZ7
 LZ4  SZ EPG    C 1058 45.71                             101   -3.5110 35.9 113 
 LZ4  SZ E        1058 52.73                  292.7 22.6      0        35.9 113 
 LZ4  SN IP       1058 52.73                             101    3.5110 35.9 113 
 LZ4  SE IS       1058 53.70                             101    0.0010 35.9 113 
 LZ4  SZ  AML     1058 54.31       483.4 0.14                          35.9 113 
                                                                                
