 2010  8 5 1604  7.0 L  21.318 -99.295 10.0  RAL  1 0.1 0.9LRAL                1
 GAP=360        0.47       9.6    19.7  0.0  0.1890E+03 -0.2423E+04  0.2010E+04E
 ACTION:UPD 13-02-28 14:29 OP:RALL STATUS:               ID:20100805160407     I
 2010-08-05-1603-59S.PLUR1_003                                                 6
 STAT SP IPHASW D HRMM SECON CODA AMPLIT PERI AZIMU VELO AIN AR TRES W  DIS CAZ7
 LZ4  SZ E        16 4  8.99                  242.5 28.7      0        3.00  62 
 LZ4  SN IP       16 4  9.12                             164    0.2410 3.00  62 
 LZ4  SE IS       16 4 10.02                             164   -0.2410 3.00  62 
 LZ4  SZ  AML     16 4 10.82        41.7 0.32                          3.00  62 
                                                                                
