 2010  8 5 1017 19.5 L  21.306 -99.260 10.0  RAL  1 0.1 1.3LRAL                1
 GAP=360        0.35      14.9     5.9  0.0 -0.8767E+02 -0.2883E+05 -0.7856E+04E
 ACTION:UPD 13-02-28 14:29 OP:RALL STATUS:               ID:20100805101719     I
 2010-08-05-1017-12S.PLUR1_003                                                 6
 STAT SP IPHASW D HRMM SECON CODA AMPLIT PERI AZIMU VELO AIN AR TRES W  DIS CAZ7
 LZ4  SZ E        1017 21.49                  159.9 28.7      0        2.98 340 
 LZ4  SN IP       1017 21.50                             164    0.1310 2.98 340 
 LZ4  SE IS       1017 22.62                             164   -0.1310 2.98 340 
 LZ4  SZ  AML     1017 22.66       109.0 0.18                          2.98 340 
                                                                                
