 2010  8 5 1936 11.6 L  21.235 -99.253  0.0  RAL  2 0.3 0.6LRAL                1
 GAP=349        2.68      37.5    14.7999.9 -0.5299E+03 -0.1392E+05  0.3674E+05E
 ACTION:UPD 13-02-28 14:29 OP:RALL STATUS:               ID:20100805193611     I
 2010-08-05-1936-06S.PLUR1_006                                                 6
 STAT SP IPHASW D HRMM SECON CODA AMPLIT PERI AZIMU VELO AIN AR TRES W  DIS CAZ7
 LT9  SN IP       1936 15.53                              92    0.5510 19.3 337 
 LT9  SZ E        1936 15.54                  163.2  7.3      6        19.3 337 
 LT9  SE IS       1936 16.64                              92   -0.8110 19.3 337 
 LT9  SZ  AML     1936 16.80         5.7 0.40                          19.3 337 
 LA4  SN IP       1936 17.12                              92    0.5910 28.1 348 
 LA4  SZ E        1936 17.14                  158.4  6.6     -9        28.1 348 
 LA4  SE IS       1936 19.80                              92   -0.3210 28.1 348 
 LA4  SZ  AML     1936 20.09        21.0 0.12                          28.1 348 
                                                                                
