 2010  8 5 1622 59.0 L  21.310 -99.287 10.0  RAL  1 0.1 0.9LRAL                1
 GAP=360        0.58      21.1    17.4  0.0  0.3669E+03 -0.2423E+04  0.2010E+04E
 ACTION:UPD 13-02-28 14:29 OP:RALL STATUS:               ID:20100805162259     I
 2010-08-05-1622-51S.PLUR1_003                                                 6
 STAT SP IPHASW D HRMM SECON CODA AMPLIT PERI AZIMU VELO AIN AR TRES W  DIS CAZ7
 LZ4  SZ E        1623  1.25                  217.5 59.1      0        2.90  38 
 LZ4  SN EP       1623  1.26                             164    0.3410 2.90  38 
 LZ4  SE IS       1623  1.97                             164   -0.3410 2.90  38 
 LZ4  SZ  AML     1623  2.34        42.0 0.34                          2.90  38 
                                                                                
