 2010  8 5 1810 47.9 L  21.314 -99.120 10.0  RAL  3 1.1 0.1LRAL                1
 GAP=277       18.29      29.2    37.0322.0  0.4813E+03 -0.1889E+04 -0.2004E+04E
 ACTION:UPD 13-02-28 14:29 OP:RALL STATUS:               ID:20100805181047     I
 2010-08-05-1810-43S.PLUR1_009                                                 6
 STAT SP IPHASW D HRMM SECON CODA AMPLIT PERI AZIMU VELO AIN AR TRES W  DIS CAZ7
 LO8  SZ E        1810 53.18                  120.9  7.0     91        19.6 210 
 LO8  SN IP       1810 53.78                             116    2.1610 19.6 210 
 LO8  SE IS       1810 56.15                             116    1.7910 19.6 210 
 LO8  SZ  AML     1810 56.92         2.5 0.30                          19.6 210 
 LT9  SN IP       1810 51.54                             109   -0.5410 23.3 293 
 LT9  SZ E        1810 51.57                  148.6  9.1     36        23.3 293 
 LT9  SE IS       1810 53.33                             109   -1.8310 23.3 293 
 LT9  SZ  AML     1810 53.40         3.4 0.18                          23.3 293 
 LD5  SZ E        1810 52.06                   21.1  8.4    -34        25.1 236 
 LD5  SN IP       1810 52.18                             109   -0.2110 25.1 236 
 LD5  SE IS       1810 54.32                             109   -1.3710 25.1 236 
 LD5  SZ  AML     1810 56.00         4.2 0.26                          25.1 236 
                                                                                
