 2010  8 5 2352 40.5 L  21.343 -99.286 10.0  RAL  1 0.2 1.0LRAL                1
 GAP=360        0.71      26.4    35.4  0.0 -0.9346E+03 -0.1392E+05  0.3674E+05E
 ACTION:UPD 13-02-28 14:29 OP:RALL STATUS:               ID:20100805235240     I
 2010-08-05-2352-33S.PLUR1_003                                                 6
 STAT SP IPHASW D HRMM SECON CODA AMPLIT PERI AZIMU VELO AIN AR TRES W  DIS CAZ7
 LZ4  SZ E        2352 42.73                  308.6 15.2      0        2.22 129 
 LZ4  SN IP       2352 42.76                             168    0.4410 2.22 129 
 LZ4  SE IS       2352 43.25                             168   -0.4410 2.22 129 
 LZ4  SZ  AML     2352 43.33        53.6 0.16                          2.22 129 
                                                                                
