 2010  8 5 2155 27.2 L  21.422 -99.314 10.0  RAL  1 0.0 2.0LRAL                1
 GAP=360        0.30       4.5     2.2  0.0 -0.9758E+01 -0.1392E+05  0.3674E+05E
 ACTION:UPD 13-02-28 14:29 OP:RALL STATUS:               ID:20100805215527     I
 2010-08-05-2155-19S.PLUR1_003                                                 6
 STAT SP IPHASW D HRMM SECON CODA AMPLIT PERI AZIMU VELO AIN AR TRES W  DIS CAZ7
 LZ4  SZ E        2155 29.71                  335.7 10.4      0        11.1 156 
 LZ4  SN IP       2155 29.79                             131    0.0210 11.1 156 
 LZ4  SE IS       2155 31.65                             131   -0.0210 11.1 156 
 LZ4  SZ  AML     2155 33.66       427.3 0.28                          11.1 156 
                                                                                
