 2010  8 5 2050  2.2 L  21.362 -99.304 10.0  RAL  1 0.0 1.4LRAL                1
 GAP=360        0.32       6.4     7.1  0.0 -0.4555E+02 -0.1392E+05  0.3674E+05E
 ACTION:UPD 13-02-28 14:29 OP:RALL STATUS:               ID:20100805205002     I
 2010-08-05-2049-54S.PLUR1_003                                                 6
 STAT SP IPHASW D HRMM SECON CODA AMPLIT PERI AZIMU VELO AIN AR TRES W  DIS CAZ7
 LZ4  SZ E        2050  4.20                  313.9 16.0      0        4.97 134 
 LZ4  SN IP       2050  4.26                             154    0.0910 4.97 134 
 LZ4  SE IS       2050  5.55                             154   -0.0910 4.97 134 
 LZ4  SZ  AML     2050  5.90       124.8 0.24                          4.97 134 
                                                                                
