 2010  8 5 2026 39.8 L  21.419 -99.285 10.0  RAL  1 0.0 1.1LRAL                1
 GAP=360        0.30       5.2     1.0  0.0 -0.4817E+01 -0.1392E+05  0.3674E+05E
 ACTION:UPD 13-02-28 14:29 OP:RALL STATUS:               ID:20100805202639     I
 2010-08-05-2026-14S.PLUR1_003                                                 6
 STAT SP IPHASW D HRMM SECON CODA AMPLIT PERI AZIMU VELO AIN AR TRES W  DIS CAZ7
 LZ4  SN IP       2026 42.29                             135    0.0010 9.86 170 
 LZ4  SZ E        2026 42.30                  350.4 12.3      0        9.86 170 
 LZ4  SE IS       2026 44.07                             135    0.0010 9.86 170 
 LZ4  SZ  AML     2026 44.44        54.1 0.18                          9.86 170 
                                                                                
