 2010  8 5 2051 16.6 L  21.353 -99.287 10.0  RAL  1 0.1 0.2LRAL                1
 GAP=360        0.51      18.1    14.6  0.0 -0.2645E+03 -0.1392E+05  0.3674E+05E
 ACTION:UPD 13-02-28 14:29 OP:RALL STATUS:               ID:20100805205116     I
 2010-08-05-2051-10S.PLUR1_003                                                 6
 STAT SP IPHASW D HRMM SECON CODA AMPLIT PERI AZIMU VELO AIN AR TRES W  DIS CAZ7
 LZ4  SN IP       2051 18.77                             164    0.2810 3.03 143 
 LZ4  SZ E        2051 18.79                  323.1 13.2      0        3.03 143 
 LZ4  SE IS       2051 19.59                             164   -0.2810 3.03 143 
 LZ4  SZ  AML     2051 19.94         7.9 0.10                          3.03 143 
                                                                                
