 2010  8 5 2203  1.4 L  21.288 -99.223 10.0  RAL  1 0.0 0.7LRAL                1
 GAP=360        0.30       4.7     5.1  0.0 -0.2434E+02 -0.1392E+05  0.3674E+05E
 ACTION:UPD 13-02-28 14:29 OP:RALL STATUS:               ID:20100805220301     I
 2010-08-05-2202-54S.PLUR1_003                                                 6
 STAT SP IPHASW D HRMM SECON CODA AMPLIT PERI AZIMU VELO AIN AR TRES W  DIS CAZ7
 LZ4  SZ E        22 3  3.59                  134.7 20.5      0        6.82 315 
 LZ4  SN IP       22 3  3.60                             146    0.0410 6.82 315 
 LZ4  SE IS       22 3  5.09                             146   -0.0410 6.82 315 
 LZ4  SZ  AML     22 3  5.39        23.9 0.30                          6.82 315 
                                                                                
