 2010  8 6 0905 27.0 L  21.314 -99.289 10.0  RAL  1 0.2 1.4LRAL                1
 GAP=360        0.73      24.6    27.4  0.0  0.6739E+03 -0.3281E+02  0.1145E+01E
 ACTION:UPD 13-02-28 14:29 OP:RALL STATUS:               ID:20100806090527     I
 2010-08-06-0905-20S.PLUR1_003                                                 6
 STAT SP IPHASW D HRMM SECON CODA AMPLIT PERI AZIMU VELO AIN AR TRES W  DIS CAZ7
 LZ4  SN IP        9 5 29.30                             165    0.4510 2.75  46 
 LZ4  SZ E         9 5 29.31                  226.1 40.0      0        2.75  46 
 LZ4  SE IS        9 5 29.77                             165   -0.4510 2.75  46 
 LZ4  SZ  AML      9 5 30.41       145.5 0.10                          2.75  46 
                                                                                
