 2010  8 6 0705  4.0 L  21.152 -99.151 36.5  RAL  3 0.7 0.2LRAL                1
 GAP=312        5.65       4.4    21.8 51.9 -0.6942E+02 -0.3281E+02  0.1145E+01E
 ACTION:UPD 13-02-28 14:29 OP:RALL STATUS:               ID:20100806070504     I
 2010-08-06-0704-46S.PLUR1_012                                                 6
 STAT SP IPHASW D HRMM SECON CODA AMPLIT PERI AZIMU VELO AIN AR TRES W  DIS CAZ7
 LO8  SZ E         7 5 11.84                  111.9 10.5     14        6.52 278 
 LO8  SN IP        7 5 11.95                             168    2.1610 6.52 278 
 LO8  SE IS        7 5 14.62                             168    0.6110 6.52 278 
 LO8  SZ  AML      7 5 14.69         1.8 0.18                          6.52 278 
 LD5  SZ E         7 5 11.71                   85.5 12.9    -16        18.0 282 
 LD5  SN IP        7 5 11.75                             148    1.4910 18.0 282 
 LD5  SE IS        7 5 14.17                             148   -0.6410 18.0 282 
 LD5  SZ  AML      7 5 16.69         2.2 0.26                          18.0 282 
 LT9  SZ E         7 5 11.29                  137.3  9.6     -8        32.5 326 
 LT9  SN IP        7 5 11.31                             128   -0.0910 32.5 326 
 LT9  SE IS        7 5 13.24                             128   -3.5410 32.5 326 
 LT9  SZ  AML      7 5 13.50         3.6 0.18                          32.5 326 
                                                                                
