 2010  8 6 0555 56.7 L  21.562 -99.327 10.0  RAL  1 0.0 0.8LRAL                1
 GAP=360        0.30       5.5     1.3  0.0 -0.6777E+01 -0.1392E+05  0.3674E+05E
 ACTION:UPD 13-02-28 14:29 OP:RALL STATUS:               ID:20100806055556     I
 2010-08-06-0555-51S.PLUR1_003                                                 6
 STAT SP IPHASW D HRMM SECON CODA AMPLIT PERI AZIMU VELO AIN AR TRES W  DIS CAZ7
 LA4  SN IP        555 59.09                             139    0.0110 8.84 168 
 LA4  SZ E         555 59.13                  348.1  9.2      0        8.84 168 
 LA4  SE IS        556  0.79                             139   -0.0110 8.84 168 
 LA4  SZ  AML      556  1.35        28.2 0.26                          8.84 168 
                                                                                
