 2010  8 6 0142 26.9 L  21.323 -99.270 10.0  RAL  1 0.3 0.8LRAL                1
 GAP=360        2.88     559.9   999.9  0.0 -0.8957E+06 -0.1392E+05  0.3674E+05E
 ACTION:UPD 13-02-28 14:29 OP:RALL STATUS:               ID:20100806014226     I
 2010-08-06-0142-19S.PLUR1_003                                                 6
 STAT SP IPHASW D HRMM SECON CODA AMPLIT PERI AZIMU VELO AIN AR TRES W  DIS CAZ7
 LZ4  SZ E         142 29.02                  170.5 26.4    -12        0.82   4 
 LZ4  SN IP        142 29.09                             175    0.3510 0.82   4 
 LZ4  SE IS        142 29.72                             175   -0.3510 0.82   4 
 LZ4  SZ  AML      142 30.19        35.3 0.18                          0.82   4 
                                                                                
