 2010  8 6 0045 45.1 L  21.605 -99.366 10.0  RAL  1 0.0 0.6LRAL                1
 GAP=360        0.30       4.0     1.9  0.0 -0.7558E+01 -0.1392E+05  0.3674E+05E
 ACTION:UPD 13-02-28 14:29 OP:RALL STATUS:               ID:20100806004545     I
 2010-08-06-0045-40S.PLUR1_003                                                 6
 STAT SP IPHASW D HRMM SECON CODA AMPLIT PERI AZIMU VELO AIN AR TRES W  DIS CAZ7
 LA4  SN IP        045 48.17                             123    0.0110 14.6 156 
 LA4  SZ E         045 48.20                  336.4 15.7      0        14.6 156 
 LA4  SE IS        045 50.38                             123   -0.0110 14.6 156 
 LA4  SZ  AML      045 50.45        13.7 0.24                          14.6 156 
                                                                                
