 2010  8 6 0925 37.8 L  21.323 -99.292 10.0  RAL  1 0.2 0.8LRAL                1
 GAP=360        1.70      31.9    92.1  0.0  0.2935E+04 -0.3281E+02  0.1145E+01E
 ACTION:UPD 13-02-28 14:29 OP:RALL STATUS:               ID:20100806092537     I
 2010-08-06-0925-31S.PLUR1_003                                                 6
 STAT SP IPHASW D HRMM SECON CODA AMPLIT PERI AZIMU VELO AIN AR TRES W  DIS CAZ7
 LZ4  SN IP        925 40.07                             167    0.4410 2.45  70 
 LZ4  SZ E         925 40.08                  257.0 31.2      7        2.45  70 
 LZ4  SE IS        925 40.55                             167   -0.4410 2.45  70 
 LZ4  SZ  AML      925 40.73        31.7 0.12                          2.45  70 
                                                                                
