 2010  8 6 0134 25.9 L  21.345 -99.286 10.0  RAL  1 0.2 1.9LRAL                1
 GAP=360        0.84      31.9    37.8  0.0 -0.1206E+04 -0.1392E+05  0.3674E+05E
 ACTION:UPD 13-02-28 14:29 OP:RALL STATUS:               ID:20100806013425     I
 2010-08-06-0134-19S.PLUR1_003                                                 6
 STAT SP IPHASW D HRMM SECON CODA AMPLIT PERI AZIMU VELO AIN AR TRES W  DIS CAZ7
 LZ4  SZ E         134 28.31                  312.2 12.0      0        2.34 132 
 LZ4  SN IP        134 28.32                             167    0.5310 2.34 132 
 LZ4  SE IS        134 28.62                             167   -0.5310 2.34 132 
 LZ4  SZ  AML      134 28.72       405.4 0.16                          2.34 132 
                                                                                
