 2010  8 6 0456 58.5 L  21.354 -99.279 10.0  RAL  1 0.1 0.8LRAL                1
 GAP=360        0.42      19.2     7.8  0.0 -0.1487E+03 -0.1392E+05  0.3674E+05E
 ACTION:UPD 13-02-28 14:29 OP:RALL STATUS:               ID:20100806045658     I
 2010-08-06-0456-51S.PLUR1_003                                                 6
 STAT SP IPHASW D HRMM SECON CODA AMPLIT PERI AZIMU VELO AIN AR TRES W  DIS CAZ7
 LZ4  SZ E         457  0.52                  339.4 85.4      0        2.74 159 
 LZ4  SN IP        457  0.56                             165    0.2010 2.74 159 
 LZ4  SE IS        457  1.53                             165   -0.2010 2.74 159 
 LZ4  SZ  AML      457  1.87        37.1 0.20                          2.74 159 
                                                                                
