 2010  8 6 0135 21.7 L  21.383 -99.325 10.0  RAL  1 0.0-0.5LRAL                1
 GAP=360        0.32      28.2     3.7  0.0 -0.1038E+03 -0.1392E+05  0.3674E+05E
 ACTION:UPD 13-02-28 14:29 OP:RALL STATUS:               ID:20100806013521     I
 2010-08-06-0135-14S.PLUR1_003                                                 6
 STAT SP IPHASW D HRMM SECON CODA AMPLIT PERI AZIMU VELO AIN AR TRES W  DIS CAZ7
 LT9  SN IP        135 23.53                             172    0.0710 1.41 353 
 LT9  SZ E         135 23.54                  173.1  8.3      0        1.41 353 
 LT9  SE IS        135 24.69                             172   -0.0710 1.41 353 
 LT9  SZ  AML      135 24.85         1.7 0.24                          1.41 353 
                                                                                
