 2010  8 6 1235 55.2 L  21.312 -99.303 10.0  RAL  1 0.1 0.9LRAL                1
 GAP=360        0.38       6.7    11.7  0.0  0.7784E+02 -0.3281E+02  0.1145E+01E
 ACTION:UPD 13-02-28 14:29 OP:RALL STATUS:               ID:20100806123555     I
 2010-08-06-1235-47S.PLUR1_003                                                 6
 STAT SP IPHASW D HRMM SECON CODA AMPLIT PERI AZIMU VELO AIN AR TRES W  DIS CAZ7
 LZ4  SZ E        1235 57.26                  238.5 53.3      0        4.05  58 
 LZ4  SN IP       1235 57.27                             158    0.1610 4.05  58 
 LZ4  SE IS       1235 58.38                             158   -0.1610 4.05  58 
 LZ4  SZ  AML     1235 58.82        38.2 0.26                          4.05  58 
                                                                                
