 2010  8 6 1154 11.4 L  21.499 -99.328 10.0  RAL  1 0.2 1.2LRAL                1
 GAP=360        0.77      24.9    32.4  0.0 -0.8078E+03 -0.3281E+02  0.1145E+01E
 ACTION:UPD 13-02-28 14:29 OP:RALL STATUS:               ID:20100806115411     I
 2010-08-06-1154-04S.PLUR1_003                                                 6
 STAT SP IPHASW D HRMM SECON CODA AMPLIT PERI AZIMU VELO AIN AR TRES W  DIS CAZ7
 LA4  SZ E        1154 13.74                  309.5 16.0      0        2.61 129 
 LA4  SN IP       1154 13.78                             166    0.4810 2.61 129 
 LA4  SE IS       1154 14.21                             166   -0.4810 2.61 129 
 LA4  SZ  AML     1154 14.32        84.6 0.46                          2.61 129 
                                                                                
