 2010  8 6 2314 46.7 L  21.291 -99.240 10.0  RAL  1 0.0 0.8LRAL                1
 GAP=360        0.31       6.8     5.1  0.0 -0.3474E+02 -0.3281E+02  0.1145E+01E
 ACTION:UPD 13-02-28 14:29 OP:RALL STATUS:               ID:20100806231446     I
 2010-08-06-2314-39S.PLUR1_003                                                 6
 STAT SP IPHASW D HRMM SECON CODA AMPLIT PERI AZIMU VELO AIN AR TRES W  DIS CAZ7
 LZ4  SN IP       2314 48.80                             152    0.0610 5.38 325 
 LZ4  SZ E        2314 48.81                  145.0 13.5      0        5.38 325 
 LZ4  SE IS       2314 50.16                             152   -0.0610 5.38 325 
 LZ4  SZ  AML     2314 50.86        33.4 0.10                          5.38 325 
                                                                                
