 2010  8 7 0846 39.0 L  21.348 -99.279 10.0  RAL  1 0.2 0.9LRAL                1
 GAP=360        0.75      40.0    22.6  0.0 -0.9070E+03 -0.1227E+04 -0.4475E+03E
 ACTION:UPD 13-02-28 14:29 OP:RALL STATUS:               ID:20100807084639     I
 2010-08-07-0846-31S.PLUR1_003                                                 6
 STAT SP IPHASW D HRMM SECON CODA AMPLIT PERI AZIMU VELO AIN AR TRES W  DIS CAZ7
 LZ4  SN IP        846 41.33                             168    0.4710 2.18 152 
 LZ4  SZ E         846 41.36                  332.2 11.1      0        2.18 152 
 LZ4  SE IS        846 41.76                             168   -0.4710 2.18 152 
 LZ4  SZ  AML      846 41.86        44.7 0.16                          2.18 152 
                                                                                
