 2010  8 7 0553 41.6 L  21.264 -99.117 29.3  RAL  4 1.2 0.7LRAL                1
 GAP=260       17.49      21.4    46.4145.2  0.2988E+03 -0.1227E+04 -0.4475E+03E
 ACTION:UPD 13-02-28 14:29 OP:RALL STATUS:               ID:20100807055341     I
 2010-08-07-0553-37S.PLUR1_015                                                 6
 STAT SP IPHASW D HRMM SECON CODA AMPLIT PERI AZIMU VELO AIN AR TRES W  DIS CAZ7
 LO8  SN IP        553 49.61                             149    2.6910 15.2 221 
 LO8  SZ E         553 50.12                  136.2  9.8     96        15.2 221 
 LO8  SE IS        553 52.84                             149    2.0110 15.2 221 
 LO8  SZ  AML      553 53.12         4.3 0.20                          15.2 221 
 LD5  SZ E         553 48.88                   25.4  8.0    -41        22.7 248 
 LD5  SN IP        553 48.90                             135    1.4210 22.7 248 
 LD5  SE IS        553 52.07                             135    0.2710 22.7 248 
 LD5  SZ  AML      553 52.56         2.5 0.26                          22.7 248 
 LT9  SN IP        553 47.17                             128   -0.6010 26.1 304 
 LT9  SZ E         553 47.20                  157.8  8.4     34        26.1 304 
 LT9  SE IS        553 48.43                             128   -3.8610 26.1 304 
 LT9  SZ  AML      553 48.57         6.1 0.34                          26.1 304 
 LA4  SN IP        553 48.58                             123    0.1910 31.4 321 
 LA4  SZ E         553 48.80                  154.7  7.1     14        31.4 321 
 LA4  SE IS        553 51.25                             123   -2.1210 31.4 321 
 LA4  SZ  AML      553 51.60        39.3 0.32                          31.4 321 
                                                                                
