 2010  8 7 0709 42.5 L  21.336 -99.286 10.0  RAL  1 0.2 0.3LRAL                1
 GAP=360        1.92     321.0   287.1  0.0  0.9214E+05 -0.1227E+04 -0.4475E+03E
 ACTION:UPD 13-02-28 14:29 OP:RALL STATUS:               ID:20100807070942     I
 2010-08-07-0709-36S.PLUR1_003                                                 6
 STAT SP IPHASW D HRMM SECON CODA AMPLIT PERI AZIMU VELO AIN AR TRES W  DIS CAZ7
 LZ4  SZ E         7 9 44.56                  281.2 41.0     -8        1.77 110 
 LZ4  SN IP        7 9 44.61                             170    0.2810 1.77 110 
 LZ4  SE IS        7 9 45.41                             170   -0.2810 1.77 110 
 LZ4  SZ  AML      7 9 46.75        11.3 0.48                          1.77 110 
                                                                                
