 2010  8 7 0614 26.4 L  21.345 -99.296 10.0  RAL  1 0.1 0.9LRAL                1
 GAP=360        0.40       8.6    15.8  0.0 -0.1353E+03 -0.1227E+04 -0.4475E+03E
 ACTION:UPD 13-02-28 14:29 OP:RALL STATUS:               ID:20100807061426     I
 2010-08-07-0614-19S.PLUR1_003                                                 6
 STAT SP IPHASW D HRMM SECON CODA AMPLIT PERI AZIMU VELO AIN AR TRES W  DIS CAZ7
 LZ4  SZ E         614 28.43                  300.2 17.7      0        3.13 120 
 LZ4  SN IP        614 28.49                             163    0.1810 3.13 120 
 LZ4  SE IS        614 29.52                             163   -0.1810 3.13 120 
 LZ4  SZ  AML      614 29.86        41.0 0.10                          3.13 120 
                                                                                
