 2010  8 7 0507 29.4 L  21.328 -99.273 10.0  RAL  1 0.4 0.9LRAL                1
 GAP=360        4.74     999.9   999.9  0.0 -0.4472E+07 -0.3281E+02  0.1145E+01E
 ACTION:UPD 13-02-28 14:29 OP:RALL STATUS:               ID:20100807050729     I
 2010-08-07-0507-22S.PLUR1_003                                                 6
 STAT SP IPHASW D HRMM SECON CODA AMPLIT PERI AZIMU VELO AIN AR TRES W  DIS CAZ7
 LZ4  SZ E         5 7 31.67                  252.5 32.5     22        0.49  50 
 LZ4  SN IP        5 7 31.67                             177    0.3910 0.49  50 
 LZ4  SE IS        5 7 32.22                             177   -0.3910 0.49  50 
 LZ4  SZ  AML      5 7 32.46        49.4 0.22                          0.49  50 
                                                                                
