 2010  8 7 1626  7.5 L  21.325 -99.288 10.0  RAL  1 0.2 1.2LRAL                1
 GAP=360        0.70     999.9   999.9  0.0 -0.1454E+08 -0.3669E+04  0.5660E+04E
 ACTION:UPD 13-02-28 14:29 OP:RALL STATUS:               ID:20100807162607     I
 2010-08-07-1626-00S.PLUR1_003                                                 6
 STAT SP IPHASW D HRMM SECON CODA AMPLIT PERI AZIMU VELO AIN AR TRES W  DIS CAZ7
 LZ4  SZ E        1626  9.77                  253.1 18.5      0        2.03  73 
 LZ4  SN IP       1626  9.78                             169    0.4310 2.03  73 
 LZ4  SE IS       1626 10.28                             169   -0.4310 2.03  73 
 LZ4  SZ  AML     1626 10.44        93.3 0.14                          2.03  73 
                                                                                
