 2010  8 7 1350 25.4 L  21.312 -99.280 10.0  RAL  1 0.1 0.9LRAL                1
 GAP=360        0.58     541.6   999.9  0.0 -0.6302E+06 -0.3669E+04  0.5660E+04E
 ACTION:UPD 13-02-28 14:29 OP:RALL STATUS:               ID:20100807135025     I
 2010-08-07-1350-18S.PLUR1_003                                                 6
 STAT SP IPHASW D HRMM SECON CODA AMPLIT PERI AZIMU VELO AIN AR TRES W  DIS CAZ7
 LZ4  SZ E        1350 27.55                  208.0 61.2      0        2.37  28 
 LZ4  SN IP       1350 27.62                             167    0.3410 2.37  28 
 LZ4  SE IS       1350 28.31                             167   -0.3410 2.37  28 
 LZ4  SZ  AML     1350 28.83        46.8 0.16                          2.37  28 
                                                                                
