 2010  8 7 1225 15.7 L  21.315 -99.266 10.0  RAL  1 0.1 1.5LRAL                1
 GAP=360        0.38     621.4   999.9  0.0  0.2344E+07 -0.6412E+00 -0.6425E+01E
 ACTION:UPD 13-02-28 14:29 OP:RALL STATUS:               ID:20100807122515     I
 2010-08-07-1225-08S.PLUR1_003                                                 6
 STAT SP IPHASW D HRMM SECON CODA AMPLIT PERI AZIMU VELO AIN AR TRES W  DIS CAZ7
 LZ4  SZ E        1225 17.66                  169.5 45.0      0        1.79 350 
 LZ4  SN IP       1225 17.68                             170    0.1610 1.79 350 
 LZ4  SE IS       1225 18.72                             170   -0.1610 1.79 350 
 LZ4  SZ  AML     1225 18.97       161.1 0.36                          1.79 350 
                                                                                
