 2010  8 7 1420 17.9 L  21.311 -99.266 10.0  RAL  1 0.0 0.6LRAL                1
 GAP=360        0.35     285.8   999.9  0.0  0.5258E+06 -0.3669E+04  0.5660E+04E
 ACTION:UPD 13-02-28 14:29 OP:RALL STATUS:               ID:20100807142017     I
 2010-08-07-1420-11S.PLUR1_003                                                 6
 STAT SP IPHASW D HRMM SECON CODA AMPLIT PERI AZIMU VELO AIN AR TRES W  DIS CAZ7
 LZ4  SZ E        1420 19.84                  169.9 31.2      0        2.27 350 
 LZ4  SN IP       1420 19.89                             168    0.1210 2.27 350 
 LZ4  SE IS       1420 21.01                             168   -0.1210 2.27 350 
 LZ4  SZ  AML     1420 21.53        22.9 0.10                          2.27 350 
                                                                                
