 2010  8 7 1416 52.7 L  21.300 -99.250 10.0  RAL  1 0.0 0.8LRAL                1
 GAP=360        0.35      10.4     6.6  0.0 -0.6845E+02 -0.3669E+04  0.5660E+04E
 ACTION:UPD 13-02-28 14:29 OP:RALL STATUS:               ID:20100807141652     I
 2010-08-07-1416-46S.PLUR1_003                                                 6
 STAT SP IPHASW D HRMM SECON CODA AMPLIT PERI AZIMU VELO AIN AR TRES W  DIS CAZ7
 LZ4  SN IP       1416 54.73                             159    0.1210 3.96 330 
 LZ4  SZ E        1416 54.77                  149.6 94.6      0        3.96 330 
 LZ4  SE IS       1416 55.90                             159   -0.1210 3.96 330 
 LZ4  SZ  AML     1416 56.41        31.5 0.10                          3.96 330 
                                                                                
