 2010  8 7 1011 12.8 L  21.311 -99.290 10.0  RAL  1 0.2 1.9LRAL                1
 GAP=360        0.70      22.5    23.1  0.0  0.5184E+03 -0.6412E+00 -0.6425E+01E
 ACTION:UPD 13-02-28 14:29 OP:RALL STATUS:               ID:20100807101112     I
 2010-08-07-1011-05S.PLUR1_003                                                 6
 STAT SP IPHASW D HRMM SECON CODA AMPLIT PERI AZIMU VELO AIN AR TRES W  DIS CAZ7
 LZ4  SZ E        1011 15.09                  223.8 24.8      0        3.00  44 
 LZ4  SN IP       1011 15.12                             164    0.4310 3.00  44 
 LZ4  SE IS       1011 15.65                             164   -0.4310 3.00  44 
 LZ4  SZ  AML     1011 16.04       387.2 0.18                          3.00  44 
                                                                                
