 2010  8 7 1832 48.9 L  21.335 -99.282 10.0  RAL  1 0.2 2.4LRAL                1
 GAP=360        0.70     999.9   999.9  0.0  0.7989E+07 -0.3669E+04  0.5660E+04E
 ACTION:UPD 13-02-28 14:29 OP:RALL STATUS:               ID:20100807183248     I
 2010-08-07-1832-41S.PLUR1_003                                                 6
 STAT SP IPHASW D HRMM SECON CODA AMPLIT PERI AZIMU VELO AIN AR TRES W  DIS CAZ7
 LZ4  SZ E        1832 51.11                  290.1 14.5      0        1.37 111 
 LZ4  SN IP       1832 51.14                             172    0.4110 1.37 111 
 LZ4  SE IS       1832 51.66                             172   -0.4110 1.37 111 
 LZ4  SZ  AML     1832 52.01      1460.5 0.18                          1.37 111 
                                                                                
