 2010  8 7 1440 11.3 L  21.314 -99.268 10.0  RAL  1 0.1 0.6LRAL                1
 GAP=360        0.79     229.3   999.9  0.0  0.4805E+06 -0.3669E+04  0.5660E+04E
 ACTION:UPD 13-02-28 14:29 OP:RALL STATUS:               ID:20100807144011     I
 2010-08-07-1440-04S.PLUR1_003                                                 6
 STAT SP IPHASW D HRMM SECON CODA AMPLIT PERI AZIMU VELO AIN AR TRES W  DIS CAZ7
 LZ4  SZ E        1440 13.51                  172.5 20.1     -1        1.84 355 
 LZ4  SN IP       1440 13.53                             170    0.3610 1.84 355 
 LZ4  SE IS       1440 14.17                             170   -0.3610 1.84 355 
 LZ4  SZ  AML     1440 14.83        21.1 0.26                          1.84 355 
                                                                                
