 2010  8 7 1016 31.6 L  21.329 -99.290 10.0  RAL  1 0.2 0.9LRAL                1
 GAP=360        1.64      11.4   109.1  0.0  0.1245E+04 -0.6412E+00 -0.6425E+01E
 ACTION:UPD 13-02-28 14:29 OP:RALL STATUS:               ID:20100807101631     I
 2010-08-07-1016-24S.PLUR1_003                                                 6
 STAT SP IPHASW D HRMM SECON CODA AMPLIT PERI AZIMU VELO AIN AR TRES W  DIS CAZ7
 LZ4  SZ E        1016 33.87                  270.7 26.2      7        2.11  84 
 LZ4  SN IP       1016 33.91                             168    0.4310 2.11  84 
 LZ4  SE IS       1016 34.41                             168   -0.4310 2.11  84 
 LZ4  SZ  AML     1016 34.80        45.9 0.20                          2.11  84 
                                                                                
