 2010  8 7 1344 12.4 L  21.324 -99.258 10.0  RAL  1 0.3 0.9LRAL                1
 GAP=360        3.77     999.9   306.2  0.0  0.3624E+06 -0.3669E+04  0.5660E+04E
 ACTION:UPD 13-02-28 14:29 OP:RALL STATUS:               ID:20100807134412     I
 2010-08-07-1344-04S.PLUR1_003                                                 6
 STAT SP IPHASW D HRMM SECON CODA AMPLIT PERI AZIMU VELO AIN AR TRES W  DIS CAZ7
 LZ4  SZ E        1344 14.45                  102.6 99.9    -17        1.39 300 
 LZ4  SN IP       1344 14.54                             172    0.3410 1.39 300 
 LZ4  SE IS       1344 15.20                             172   -0.3410 1.39 300 
 LZ4  SZ  AML     1344 15.75        49.0 0.16                          1.39 300 
                                                                                
