 2010  8 7 1228 16.4 L  21.281 -99.235  0.0  RAL  2 0.2 0.5LRAL                1
 GAP=342        2.24      15.3    10.2527.1 -0.1476E+03 -0.3669E+04  0.5660E+04E
 ACTION:UPD 13-02-28 14:29 OP:RALL STATUS:               ID:20100807122816     I
 2010-08-07-1228-10S.PLUR1_009                                                 6
 STAT SP IPHASW D HRMM SECON CODA AMPLIT PERI AZIMU VELO AIN AR TRES W  DIS CAZ7
 LT9  SZ E        1228 19.38                  148.1  8.0      5        15.8 323 
 LT9  SN IP       1228 19.38                              93    0.2210 15.8 323 
 LT9  SE IS       1228 20.70                              93   -0.4710 15.8 323 
 LT9  SZ  AML     1228 20.80         5.7 0.30                          15.8 323 
 LA4  SZ E        1228 20.88                  152.0  7.0     -8        23.7 341 
 LA4  SN IP       1228 20.92                              93    0.3810 23.7 341 
 LA4  SE IS       1228 23.44                              93   -0.1310 23.7 341 
 LA4  SZ  AML     1228 24.42        14.4 0.16                          23.7 341 
                                                                                
