 2010  8 7 1005  2.9 L  21.400 -99.329 10.0  RAL  2 0.5-0.1LRAL                1
 GAP=221        7.75       3.7     6.9 66.7 -0.5511E+01 -0.6412E+00 -0.6425E+01E
 ACTION:UPD 13-02-28 14:29 OP:RALL STATUS:               ID:20100807100502     I
 2010-08-07-1004-55S.PLUR1_006                                                 6
 STAT SP IPHASW D HRMM SECON CODA AMPLIT PERI AZIMU VELO AIN AR TRES W  DIS CAZ7
 LT9  SZ E        10 5  4.42                  309.1 13.9    -21        0.53 151 
 LT9  SN IP       10 5  4.46                             178   -0.1710 0.53 151 
 LT9  SE IS       10 5  4.89                             178   -1.0410 0.53 151 
 LT9  SZ  AML     10 5  5.79         2.1 0.76                          0.53 151 
 LA4  SZ E        10 5  5.92                  162.5 11.0    -29        9.54  12 
 LA4  SN IP       10 5  5.95                             135    0.6710 9.54  12 
 LA4  SE IS       10 5  7.60                             135    0.5410 9.54  12 
 LA4  SZ  AML     10 5  7.77         7.2 0.28                          9.54  12 
                                                                                
