 2010  8 7 1226 27.0 L  21.330 -99.282 10.0  RAL  1 0.1 0.8LRAL                1
 GAP=360        0.57     999.9    36.4  0.0 -0.3427E+05 -0.6412E+00 -0.6425E+01E
 ACTION:UPD 13-02-28 14:29 OP:RALL STATUS:               ID:20100807122627     I
 2010-08-07-1226-19S.PLUR1_003                                                 6
 STAT SP IPHASW D HRMM SECON CODA AMPLIT PERI AZIMU VELO AIN AR TRES W  DIS CAZ7
 LZ4  SZ E        1226 29.13                  266.8 38.5      0        1.32  87 
 LZ4  SN IP       1226 29.19                             173    0.3310 1.32  87 
 LZ4  SE IS       1226 29.88                             173   -0.3310 1.32  87 
 LZ4  SZ  AML     1226 30.24        34.0 0.36                          1.32  87 
                                                                                
