 2010  8 7 2252 18.4 L  21.216 -99.128 10.0  RAL  1 0.0 1.0LRAL                1
 GAP=360        0.30       2.7     3.3  0.0 -0.8583E+01 -0.1452E+02  0.3888E+02E
 ACTION:UPD 13-02-28 14:29 OP:RALL STATUS:               ID:20100807225218     I
 2010-08-07-2252-15S.PLUR1_003                                                 6
 STAT SP IPHASW D HRMM SECON CODA AMPLIT PERI AZIMU VELO AIN AR TRES W  DIS CAZ7
 LZ4  SZ E        2252 21.39                  130.8 24.9      0        19.4 311 
 LZ4  SN IP       2252 22.11                             114    0.0110 19.4 311 
 LZ4  SE IS       2252 24.79                             114   -0.0110 19.4 311 
 LZ4  SZ  AML     2252 25.48        24.9 0.22                          19.4 311 
                                                                                
