 2010  8 7 2243 46.2 L  21.418 -99.315 10.0  RAL  1 0.0 0.4LRAL                1
 GAP=360        0.30       4.5     2.4  0.0 -0.1074E+02 -0.1452E+02  0.3888E+02E
 ACTION:UPD 13-02-28 14:29 OP:RALL STATUS:               ID:20100807224346     I
 2010-08-07-2243-41S.PLUR1_003                                                 6
 STAT SP IPHASW D HRMM SECON CODA AMPLIT PERI AZIMU VELO AIN AR TRES W  DIS CAZ7
 LZ4  SN IP       2243 48.80                             132    0.0210 10.7 154 
 LZ4  SZ E        2243 48.83                  333.7 14.7      0        10.7 154 
 LZ4  SE IS       2243 50.62                             132   -0.0210 10.7 154 
 LZ4  SZ  AML     2243 51.01        10.8 0.20                          10.7 154 
                                                                                
