 2010  8 7 2139  4.6 L  21.345 -99.292 10.0  RAL  1 0.1 0.4LRAL                1
 GAP=360        0.55      14.3    23.5  0.0 -0.3365E+03 -0.1452E+02  0.3888E+02E
 ACTION:UPD 13-02-28 14:29 OP:RALL STATUS:               ID:20100807213904     I
 2010-08-07-2138-58S.PLUR1_003                                                 6
 STAT SP IPHASW D HRMM SECON CODA AMPLIT PERI AZIMU VELO AIN AR TRES W  DIS CAZ7
 LZ4  SZ E        2139  6.80                  303.1 25.8      0        2.81 123 
 LZ4  SN IP       2139  6.82                             165    0.3110 2.81 123 
 LZ4  SE IS       2139  7.57                             165   -0.3110 2.81 123 
 LZ4  SZ  AML     2139  7.97        15.2 0.14                          2.81 123 
                                                                                
