 2010  8 7 2133 30.5 L  21.313 -99.264 10.0  RAL  2 0.3-0.1LRAL                1
 GAP=238        3.19       4.8     3.3 51.0 -0.4310E+01 -0.1452E+02  0.3888E+02E
 ACTION:UPD 13-02-28 14:29 OP:RALL STATUS:               ID:20100807213330     I
 2010-08-07-2133-24S.PLUR1_009                                                 6
 STAT SP IPHASW D HRMM SECON CODA AMPLIT PERI AZIMU VELO AIN AR TRES W  DIS CAZ7
 LT9  SN IP       2133 32.75                             125   -0.2810 11.1 324 
 LT9  SZ E        2133 32.78                  156.4  7.7     12        11.1 324 
 LT9  SE IS       2133 34.26                             125   -0.6410 11.1 324 
 LT9  SZ  AML     2133 34.28         4.7 0.10                          11.1 324 
 LD5  SZ E        2133 33.88                   31.2 11.6      9        15.2 203 
 LD5  SN IP       2133 33.97                             119    0.3810 15.2 203 
 LD5  SE IS       2133 36.40                             119    0.5410 15.2 203 
 LD5  SZ  AML     2133 39.02         1.4 0.24                          15.2 203 
                                                                                
