 2010  8 8 0340 59.8 L  21.345 -99.267 10.0  RAL  1 0.2 0.8LRAL                1
 GAP=360        0.66     323.1   999.9  0.0 -0.9440E+06 -0.1452E+02  0.3888E+02E
 ACTION:UPD 13-02-28 14:29 OP:RALL STATUS:               ID:20100808034059     I
 2010-08-08-0340-52S.PLUR1_003                                                 6
 STAT SP IPHASW D HRMM SECON CODA AMPLIT PERI AZIMU VELO AIN AR TRES W  DIS CAZ7
 LZ4  SZ E         341  2.01                    7.7 12.9      0        1.55 188 
 LZ4  SN IP        341  2.04                             171    0.4010 1.55 188 
 LZ4  SE IS        341  2.59                             171   -0.4010 1.55 188 
 LZ4  SZ  AML      341  2.82        35.3 0.16                          1.55 188 
                                                                                
