 2010  8 8 1458 16.3 L  21.510 -99.324 10.0  RAL  1 0.1 0.3LRAL                1
 GAP=360        0.37      13.6     7.7  0.0 -0.1040E+03 -0.1452E+02  0.3888E+02E
 ACTION:UPD 13-02-28 14:29 OP:RALL STATUS:               ID:20100808145816     I
 2010-08-08-1458-10S.PLUR1_003                                                 6
 STAT SP IPHASW D HRMM SECON CODA AMPLIT PERI AZIMU VELO AIN AR TRES W  DIS CAZ7
 LA4  SN IP       1458 18.35                             163    0.1510 3.24 152 
 LA4  SZ E        1458 18.88                  332.2  8.3      0        3.24 152 
 LA4  SE IS       1458 19.46                             163   -0.1510 3.24 152 
 LA4  SZ  AML     1458 19.58        11.5 0.22                          3.24 152 
                                                                                
