 2010  8 8 1830 33.7 L  21.382 -99.333 10.0  RAL  1 0.1-0.4LRAL                1
 GAP=360        0.64      44.1    21.9  0.0  0.9664E+03 -0.1452E+02  0.3888E+02E
 ACTION:UPD 13-02-28 14:29 OP:RALL STATUS:               ID:20100808183033     I
 2010-08-08-1830-26S.PLUR1_003                                                 6
 STAT SP IPHASW D HRMM SECON CODA AMPLIT PERI AZIMU VELO AIN AR TRES W  DIS CAZ7
 LT9  SN IP       1830 35.90                             171    0.3910 1.68  25 
 LT9  SZ E        1830 35.91                  204.9 13.5      0        1.68  25 
 LT9  SE IS       1830 36.44                             171   -0.3910 1.68  25 
 LT9  SZ  AML     1830 36.94         2.0 0.62                          1.68  25 
                                                                                
