 2010  8 8 1121 45.2 L  21.349 -99.296 10.0  RAL  1 0.1 1.7LRAL                1
 GAP=360        0.56      13.3    19.1  0.0 -0.2540E+03 -0.1452E+02  0.3888E+02E
 ACTION:UPD 13-02-28 14:29 OP:RALL STATUS:               ID:20100808112145     I
 2010-08-08-1121-26S.PLUR1_003                                                 6
 STAT SP IPHASW D HRMM SECON CODA AMPLIT PERI AZIMU VELO AIN AR TRES W  DIS CAZ7
 LZ4  SZ E        1121 47.40                  306.9 12.0      0        3.39 127 
 LZ4  SN IP       1121 47.43                             162    0.3210 3.39 127 
 LZ4  SE IS       1121 48.19                             162   -0.3210 3.39 127 
 LZ4  SZ  AML     1121 48.72       248.8 0.30                          3.39 127 
                                                                                
