 2010  8 8 1245  0.0 L  21.413 -99.346 10.0  RAL  1 0.1-0.1LRAL                1
 GAP=360        0.57      18.1    20.9  0.0 -0.3765E+03 -0.1452E+02  0.3888E+02E
 ACTION:UPD 13-02-28 14:29 OP:RALL STATUS:               ID:20100808124500     I
 2010-08-08-1244-53S.PLUR1_003                                                 6
 STAT SP IPHASW D HRMM SECON CODA AMPLIT PERI AZIMU VELO AIN AR TRES W  DIS CAZ7
 LT9  SZ E        1245  2.12                  312.9 18.0      0        2.79 133 
 LT9  SN IP       1245  2.18                             164    0.3310 2.79 133 
 LT9  SE IS       1245  2.86                             164   -0.3310 2.79 133 
 LT9  SZ  AML     1245  3.07         4.0 0.36                          2.79 133 
                                                                                
