 2010  8 8 1245 51.1 L  21.388 -99.342 10.0  RAL  1 0.1-0.7LRAL                1
 GAP=360        0.54      15.6    36.8  0.0  0.5730E+03 -0.1452E+02  0.3888E+02E
 ACTION:UPD 13-02-28 14:29 OP:RALL STATUS:               ID:20100808124551     I
 2010-08-08-1245-44S.PLUR1_003                                                 6
 STAT SP IPHASW D HRMM SECON CODA AMPLIT PERI AZIMU VELO AIN AR TRES W  DIS CAZ7
 LT9  SZ E        1245 53.18                  245.6 17.8      0        1.83  66 
 LT9  SN IP       1245 53.23                             170    0.3110 1.83  66 
 LT9  SE IS       1245 53.93                             170   -0.3110 1.83  66 
 LT9  SZ  AML     1245 54.09         1.0 0.32                          1.83  66 
                                                                                
