 2010  8 8 1147 35.0 L  21.343 -99.291 10.0  RAL  1 0.2 1.7LRAL                1
 GAP=360        0.75      19.4    33.9  0.0 -0.6585E+03 -0.1452E+02  0.3888E+02E
 ACTION:UPD 13-02-28 14:29 OP:RALL STATUS:               ID:20100808114735     I
 2010-08-08-1147-17S.PLUR1_003                                                 6
 STAT SP IPHASW D HRMM SECON CODA AMPLIT PERI AZIMU VELO AIN AR TRES W  DIS CAZ7
 LZ4  SZ E        1147 37.30                  301.6 18.8      0        2.67 122 
 LZ4  SN IP       1147 37.30                             165    0.4610 2.67 122 
 LZ4  SE IS       1147 37.75                             165   -0.4610 2.67 122 
 LZ4  SZ  AML     1147 37.84       288.4 0.14                          2.67 122 
                                                                                
