 2010  8 8 1242 27.0 L  21.411 -99.348 10.0  RAL  1 0.1 0.7LRAL                1
 GAP=360        0.62      17.8    23.9  0.0 -0.4242E+03 -0.1452E+02  0.3888E+02E
 ACTION:UPD 13-02-28 14:29 OP:RALL STATUS:               ID:20100808124227     I
 2010-08-08-1241-53S.PLUR1_003                                                 6
 STAT SP IPHASW D HRMM SECON CODA AMPLIT PERI AZIMU VELO AIN AR TRES W  DIS CAZ7
 LT9  SZ E        1242 29.16                  308.6 11.4      0        2.84 129 
 LT9  SN IP       1242 29.19                             164    0.3710 2.84 129 
 LT9  SE IS       1242 29.79                             164   -0.3710 2.84 129 
 LT9  SZ  AML     1242 30.00        29.8 0.20                          2.84 129 
                                                                                
