 2010  8 8 1228 36.7 L  21.230 -99.281 10.0  RAL  1 0.0-0.3LRAL                1
 GAP=360        0.30       5.5     4.9  0.0  0.2690E+02 -0.1452E+02  0.3888E+02E
 ACTION:UPD 13-02-28 14:29 OP:RALL STATUS:               ID:20100808122836     I
 2010-08-08-1228-28S.PLUR1_006                                                 6
 STAT SP IPHASW D HRMM SECON CODA AMPLIT PERI AZIMU VELO AIN AR TRES W  DIS CAZ7
 LD5  SN IP       1228 38.81                             148    0.0510 6.35 220 
 LD5  SZ E        1228 38.82                   40.1  9.8      0        6.35 220 
 LD5  SE IS       1228 40.26                             148   -0.0510 6.35 220 
 LD5  SZ  AML     1228 40.36         2.5 0.22                          6.35 220 
                                                                                
