 2010  8 8 2246 13.5 L  21.370 -99.320 10.0  RAL  1 0.0 0.1LRAL                1
 GAP=360        0.32      14.0     3.4  0.0 -0.4805E+02 -0.3512E+02 -0.8759E+01E
 ACTION:UPD 13-02-28 14:29 OP:RALL STATUS:               ID:20100808224613     I
 2010-08-08-2246-06S.PLUR1_006                                                 6
 STAT SP IPHASW D HRMM SECON CODA AMPLIT PERI AZIMU VELO AIN AR TRES W  DIS CAZ7
 LT9  SZ E        2246 15.44                  167.2  7.2      0        2.89 347 
 LT9  SN IP       2246 15.45                             164    0.0810 2.89 347 
 LT9  SE IS       2246 16.63                             164   -0.0810 2.89 347 
 LT9  SZ  AML     2246 16.92         7.4 0.30                          2.89 347 
                                                                                
