 2010  8 8 2151 37.7 L  21.159 -99.185 24.4  RAL  3 1.0 0.3LRAL                1
 GAP=301       16.34       4.6    47.2119.1 -0.7667E+02 -0.3512E+02 -0.8759E+01E
 ACTION:UPD 13-02-28 14:29 OP:RALL STATUS:               ID:20100808215137     I
 2010-08-08-2151-32S.PLUR1_012                                                 6
 STAT SP IPHASW D HRMM SECON CODA AMPLIT PERI AZIMU VELO AIN AR TRES W  DIS CAZ7
 LO8  SN IP       2151 43.41                             173    1.6410 2.94 271 
 LO8  SZ E        2151 43.45                  128.7  7.8     37        2.94 271 
 LO8  SE IS       2151 45.54                             173    0.7710 2.94 271 
 LO8  SZ  AML     2151 45.89         3.5 0.20                          2.94 271 
 LD5  SZ E        2151 42.72                   17.3 10.4    -84        14.4 282 
 LD5  SN IP       2151 42.74                             148    0.4610 14.4 282 
 LD5  SE IS       2151 44.16                             148   -1.4910 14.4 282 
 LD5  SZ  AML     2151 44.66         7.4 0.26                          14.4 282 
 LT9  SZ E        2151 44.04                  160.8  7.9     10        30.0 331 
 LT9  SN IP       2151 44.05                             125    0.2210 30.0 331 
 LT9  SE IS       2151 46.73                             125   -1.6010 30.0 331 
 LT9  SZ  AML     2151 47.19         2.5 0.36                          30.0 331 
                                                                                
