 2010  8 8 2154 42.5 L  21.339 -99.290 10.0  RAL  1 0.1 1.7LRAL                1
 GAP=360        0.46       9.8    26.2  0.0 -0.2573E+03 -0.3512E+02 -0.8759E+01E
 ACTION:UPD 13-02-28 14:29 OP:RALL STATUS:               ID:20100808215442     I
 2010-08-08-2154-34S.PLUR1_003                                                 6
 STAT SP IPHASW D HRMM SECON CODA AMPLIT PERI AZIMU VELO AIN AR TRES W  DIS CAZ7
 LZ4  SN IP       2154 44.57                             167    0.2410 2.30 112 
 LZ4  SZ E        2154 44.59                  291.9 30.6      0        2.30 112 
 LZ4  SE IS       2154 45.46                             167   -0.2410 2.30 112 
 LZ4  SZ  AML     2154 45.78       297.0 0.14                          2.30 112 
                                                                                
