 2010  8 9 0949 17.5 L  21.381 -99.309 10.0  RAL  1 0.2-0.5LRAL                1
 GAP=360        0.77      28.4    33.0  0.0 -0.9378E+03 -0.3512E+02 -0.8759E+01E
 ACTION:UPD 13-02-28 14:29 OP:RALL STATUS:               ID:20100809094917     I
 2010-08-09-0949-10S.PLUR1_003                                                 6
 STAT SP IPHASW D HRMM SECON CODA AMPLIT PERI AZIMU VELO AIN AR TRES W  DIS CAZ7
 LT9  SZ E         949 19.77                  132.7 19.9      0        2.38 313 
 LT9  SN IP        949 19.78                             167    0.4810 2.38 313 
 LT9  SE IS        949 20.14                             167   -0.4810 2.38 313 
 LT9  SZ  AML      949 20.27         1.8 0.38                          2.38 313 
                                                                                
