 2010  8 9 0516 10.8 L  21.275 -99.263 10.0  RAL  1 0.2 0.5LRAL                1
 GAP=360        1.14      22.0   147.5  0.0 -0.3238E+04 -0.3512E+02 -0.8759E+01E
 ACTION:UPD 13-02-28 14:29 OP:RALL STATUS:               ID:20100809051610     I
 2010-08-09-0516-03S.PLUR1_003                                                 6
 STAT SP IPHASW D HRMM SECON CODA AMPLIT PERI AZIMU VELO AIN AR TRES W  DIS CAZ7
 LG3  SN IP        516 13.17                             174    0.4710 1.09  87 
 LG3  SZ E         516 13.18                  263.2 42.0     -3        1.09  87 
 LG3  SZ  AML      516 13.58        19.8 0.44                          1.09  87 
 LG3  SE IS        516 13.58                             174   -0.4710 1.09  87 
                                                                                
