 2010  8 9 0239 12.2 L  21.332 -99.274 10.0  RAL  1 0.2 1.5LRAL                1
 GAP=360        2.08     256.1   649.4  0.0  0.1662E+06 -0.3512E+02 -0.8759E+01E
 ACTION:UPD 13-02-28 14:29 OP:RALL STATUS:               ID:20100809023912     I
 2010-08-09-0239-04S.PLUR1_003                                                 6
 STAT SP IPHASW D HRMM SECON CODA AMPLIT PERI AZIMU VELO AIN AR TRES W  DIS CAZ7
 LZ4  SZ E         239 14.35                  279.4 20.5     -8        0.55 109 
 LZ4  SN IP        239 14.43                             177    0.3710 0.55 109 
 LZ4  SE IS        239 15.03                             177   -0.3710 0.55 109 
 LZ4  SZ  AML      239 15.13       188.9 0.16                          0.55 109 
                                                                                
