 2010  8 9 0645  8.8 L  21.318 -99.269 10.0  RAL  1 0.2 1.0LRAL                1
 GAP=360        1.52     999.9   999.9  0.0  0.1109E+09 -0.3512E+02 -0.8759E+01E
 ACTION:UPD 13-02-28 14:29 OP:RALL STATUS:               ID:20100809064508     I
 2010-08-09-0645-01S.PLUR1_003                                                 6
 STAT SP IPHASW D HRMM SECON CODA AMPLIT PERI AZIMU VELO AIN AR TRES W  DIS CAZ7
 LZ4  SZ E         645 11.12                  183.8 32.6      6        1.39 358 
 LZ4  SN IP        645 11.15                             172    0.5210 1.39 358 
 LZ4  SE IS        645 11.45                             172   -0.5210 1.39 358 
 LZ4  SZ  AML      645 12.41        55.7 0.16                          1.39 358 
                                                                                
