 2010  8 9 0112 18.0 L  21.301 -99.258 10.0  RAL  1 0.0 1.6LRAL                1
 GAP=360        0.32      11.6     4.3  0.0 -0.4984E+02 -0.3512E+02 -0.8759E+01E
 ACTION:UPD 13-02-28 14:29 OP:RALL STATUS:               ID:20100809011218     I
 2010-08-09-0112-10S.PLUR1_003                                                 6
 STAT SP IPHASW D HRMM SECON CODA AMPLIT PERI AZIMU VELO AIN AR TRES W  DIS CAZ7
 LZ4  SN IP        112 20.05                             161    0.0810 3.53 341 
 LZ4  SZ E         112 20.08                  160.9 10.4      0        3.53 341 
 LZ4  SE IS        112 21.29                             161   -0.0810 3.53 341 
 LZ4  SZ  AML      112 21.71       200.9 0.22                          3.53 341 
                                                                                
