 2010  8 9 0303  0.8 L  21.325 -99.283 10.0  RAL  1 0.1 1.0LRAL                1
 GAP=360        0.79     999.9   999.9  0.0 -0.1516E+08 -0.3512E+02 -0.8759E+01E
 ACTION:UPD 13-02-28 14:29 OP:RALL STATUS:               ID:20100809030300     I
 2010-08-09-0302-53S.PLUR1_003                                                 6
 STAT SP IPHASW D HRMM SECON CODA AMPLIT PERI AZIMU VELO AIN AR TRES W  DIS CAZ7
 LZ4  SZ E         3 3  2.97                  246.7 20.0      2        1.54  64 
 LZ4  SN IP        3 3  3.02                             172    0.3610 1.54  64 
 LZ4  SE IS        3 3  3.64                             172   -0.3610 1.54  64 
 LZ4  SZ  AML      3 3  3.96        51.1 0.34                          1.54  64 
                                                                                
