 2010  8 9 0543  3.6 L  21.347 -99.292 10.0  RAL  1 0.2 1.5LRAL                1
 GAP=360        0.67      18.5    26.4  0.0 -0.4881E+03 -0.3512E+02 -0.8759E+01E
 ACTION:UPD 13-02-28 14:29 OP:RALL STATUS:               ID:20100809054303     I
 2010-08-09-0542-56S.PLUR1_003                                                 6
 STAT SP IPHASW D HRMM SECON CODA AMPLIT PERI AZIMU VELO AIN AR TRES W  DIS CAZ7
 LZ4  SZ E         543  5.83                  307.0 23.1      0        2.91 127 
 LZ4  SN IP        543  5.85                             164    0.4110 2.91 127 
 LZ4  SE IS        543  6.42                             164   -0.4110 2.91 127 
 LZ4  SZ  AML      543  6.53       156.9 0.16                          2.91 127 
                                                                                
