 2010  8 9 1937 15.6 L  21.275 -99.228 10.0  RAL  1 0.0 0.5LRAL                1
 GAP=360        0.30       5.1     3.8  0.0 -0.1928E+02 -0.4655E+03 -0.1265E+04E
 ACTION:UPD 13-02-28 14:29 OP:RALL STATUS:               ID:20100809193715     I
 2010-08-09-1937-09S.PLUR1_003                                                 6
 STAT SP IPHASW D HRMM SECON CODA AMPLIT PERI AZIMU VELO AIN AR TRES W  DIS CAZ7
 LZ4  SN IP       1937 17.80                             143    0.0210 7.53 326 
 LZ4  SZ E        1937 17.83                  145.5 12.5      0        7.53 326 
 LZ4  SE IS       1937 19.37                             143   -0.0210 7.53 326 
 LZ4  SZ  AML     1937 20.71        14.7 0.28                          7.53 326 
                                                                                
