 2010  8 9 1404 55.6 L  21.177 -99.145  1.7  RAL  2 0.6 0.3LRAL                1
 GAP=349        7.45      48.3    36.2 55.4 -0.1467E+04 -0.1506E+03  0.6807E+02E
 ACTION:UPD 13-02-28 14:29 OP:RALL STATUS:               ID:20100809140455     I
 2010-08-09-1404-53S.PLUR1_006                                                 6
 STAT SP IPHASW D HRMM SECON CODA AMPLIT PERI AZIMU VELO AIN AR TRES W  DIS CAZ7
 LT9  SZ E        14 5  2.07                  163.4  8.6     21        30.6 322 
 LT9  SN IP       14 5  2.12                              95    1.1410 30.6 322 
 LT9  SE IS       14 5  3.34                              95   -1.5610 30.6 322 
 LT9  SZ  AML     14 5  3.46         1.8 0.28                          30.6 322 
 LA4  SZ E        14 5  3.60                  126.7 10.0    -26        38.0 333 
 LA4  SN IP       14 5  3.64                              63    1.3810 38.0 333 
 LA4  SE IS       14 5  6.16                              63   -0.9610 38.0 333 
 LA4  SZ  AML     14 5  6.52         7.8 0.36                          38.0 333 
                                                                                
