 2010  8 9 1315 33.6 L  21.329 -99.282 10.0  RAL  1 0.2 0.6LRAL                1
 GAP=360        1.10     999.9   999.9  0.0 -0.1387E+08 -0.3512E+02 -0.8759E+01E
 ACTION:UPD 13-02-28 14:29 OP:RALL STATUS:               ID:20100809131533     I
 2010-08-09-1315-26S.PLUR1_003                                                 6
 STAT SP IPHASW D HRMM SECON CODA AMPLIT PERI AZIMU VELO AIN AR TRES W  DIS CAZ7
 LZ4  SZ E        1315 35.84                  263.7 18.6      4        1.32  80 
 LZ4  SN IP       1315 35.88                             173    0.4210 1.32  80 
 LZ4  SE IS       1315 36.38                             173   -0.4210 1.32  80 
 LZ4  SZ  AML     1315 36.79        23.5 0.28                          1.32  80 
                                                                                
