 2010  8 9 1212 28.0 L  21.345 -99.271 10.0  RAL  1 0.1 0.6LRAL                1
 GAP=360        0.48     144.0   999.9  0.0  0.2226E+06 -0.3512E+02 -0.8759E+01E
 ACTION:UPD 13-02-28 14:29 OP:RALL STATUS:               ID:20100809121228     I
 2010-08-09-1212-20S.PLUR1_003                                                 6
 STAT SP IPHASW D HRMM SECON CODA AMPLIT PERI AZIMU VELO AIN AR TRES W  DIS CAZ7
 LZ4  SZ E        1212 29.97                  354.1 22.2      1        1.53 173 
 LZ4  SN IP       1212 29.99                             172    0.1610 1.53 173 
 LZ4  SE IS       1212 31.02                             172   -0.1610 1.53 173 
 LZ4  SZ  AML     1212 31.87        23.5 0.18                          1.53 173 
                                                                                
