 2010  8 9 1028 24.5 L  21.327 -99.289 10.0  RAL  1 0.2 1.4LRAL                1
 GAP=360        2.57      33.4   174.7  0.0  0.5837E+04 -0.3512E+02 -0.8759E+01E
 ACTION:UPD 13-02-28 14:29 OP:RALL STATUS:               ID:20100809102824     I
 2010-08-09-1028-17S.PLUR1_003                                                 6
 STAT SP IPHASW D HRMM SECON CODA AMPLIT PERI AZIMU VELO AIN AR TRES W  DIS CAZ7
 LZ4  SZ E        1028 26.66                  270.4 40.0     12        2.03  78 
 LZ4  SN IP       1028 26.67                             169    0.3310 2.03  78 
 LZ4  SE IS       1028 27.36                             169   -0.3310 2.03  78 
 LZ4  SZ  AML     1028 27.75       154.2 0.18                          2.03  78 
                                                                                
