 2010  8 9 1943 57.1 L  21.346 -99.275 10.0  RAL  1 0.1 0.4LRAL                1
 GAP=360        0.48     474.0   999.9  0.0  0.7225E+06 -0.4655E+03 -0.1265E+04E
 ACTION:UPD 13-02-28 14:29 OP:RALL STATUS:               ID:20100809194357     I
 2010-08-09-1943-50S.PLUR1_003                                                 6
 STAT SP IPHASW D HRMM SECON CODA AMPLIT PERI AZIMU VELO AIN AR TRES W  DIS CAZ7
 LZ4  SZ E        1943 59.17                  340.6 16.0      0        1.73 160 
 LZ4  SN IP       1943 59.20                             170    0.2510 1.73 160 
 LZ4  SE IS       1944  0.05                             170   -0.2510 1.73 160 
 LZ4  SZ  AML     1944  0.28        14.4 0.34                          1.73 160 
                                                                                
