 2010  8 9 1601 31.4 L  21.324 -99.266 10.0  RAL  1 0.3 0.4LRAL                1
 GAP=360        3.63     273.3   999.9  0.0  0.5731E+06 -0.4655E+03 -0.1265E+04E
 ACTION:UPD 13-02-28 14:29 OP:RALL STATUS:               ID:20100809160131     I
 2010-08-09-1601-24S.PLUR1_003                                                 6
 STAT SP IPHASW D HRMM SECON CODA AMPLIT PERI AZIMU VELO AIN AR TRES W  DIS CAZ7
 LZ4  SN IP       16 1 33.56                             175    0.3110 0.82 335 
 LZ4  SZ E        16 1 33.57                  172.4 20.1     17        0.82 335 
 LZ4  SE IS       16 1 34.27                             175   -0.3110 0.82 335 
 LZ4  SZ  AML     16 1 34.74        15.7 0.12                          0.82 335 
                                                                                
