 2010  8 9 1323  0.4 L  21.401 -99.331  5.6  RAL  2 0.4 0.7LRAL                1
 GAP=234        7.28       2.9     6.2 49.7 -0.6541E+01  0.3221E+01 -0.8120E+01E
 ACTION:UPD 13-02-28 14:29 OP:RALL STATUS:               ID:20100809132300     I
 2010-08-09-1322-51S.PLUR1_006                                                 6
 STAT SP IPHASW D HRMM SECON CODA AMPLIT PERI AZIMU VELO AIN AR TRES W  DIS CAZ7
 LT9  SZ E        1323  1.40                  314.4 10.8     -4        0.75 140 
 LT9  SN IP       1323  1.40                             172   -0.1410 0.75 140 
 LT9  SE IS       1323  2.02                             172   -0.3210 0.75 140 
 LT9  SZ  AML     1323  2.23        19.4 0.18                          0.75 140 
 LA4  SZ E        1323  2.57                  158.8  9.6    -34        9.48  14 
 LA4  SN IP       1323  2.59                             116    0.1510 9.48  14 
 LA4  SE IS       1323  4.22                             116    0.3110 9.48  14 
 LA4  SZ  AML     1323  4.39        56.2 0.20                          9.48  14 
                                                                                
