 2010  8 9 1620 26.1 L  21.339 -99.295 10.0  RAL  1 0.0 0.7LRAL                1
 GAP=360        0.34       5.2    16.8  0.0 -0.8764E+02 -0.4655E+03 -0.1265E+04E
 ACTION:UPD 13-02-28 14:29 OP:RALL STATUS:               ID:20100809162026     I
 2010-08-09-1620-19S.PLUR1_003                                                 6
 STAT SP IPHASW D HRMM SECON CODA AMPLIT PERI AZIMU VELO AIN AR TRES W  DIS CAZ7
 LZ4  SZ E        1620 28.01                  288.4 22.2      0        2.74 108 
 LZ4  SN IP       1620 28.05                             165    0.1110 2.74 108 
 LZ4  SE IS       1620 29.20                             165   -0.1110 2.74 108 
 LZ4  SZ  AML     1620 29.35        28.9 0.14                          2.74 108 
                                                                                
