 2010  8 9 1557 19.6 L  21.311 -99.163 10.0  RAL  4 1.1 0.9LRAL                1
 GAP=235       19.76      23.7    24.7275.9  0.4839E+02 -0.4655E+03 -0.1265E+04E
 ACTION:UPD 13-02-28 14:29 OP:RALL STATUS:               ID:20100809155719     I
 2010-08-09-1557-13S.PLUR1_015                                                 6
 STAT SP IPHASW D HRMM SECON CODA AMPLIT PERI AZIMU VELO AIN AR TRES W  DIS CAZ7
 LO8  SZ E        1557 24.42                  117.0  7.2    100        17.5 197 
 LO8  SN IP       1557 24.42                             119    1.3510 17.5 197 
 LO8  SE IS       1557 27.54                             119    1.9410 17.5 197 
 LO8  SZ  AML     1557 28.45        11.0 0.28                          17.5 197 
 LT9  SN IP       1557 22.67                             114   -0.5710 19.3 299 
 LT9  SZ E        1557 22.71                  176.0 12.1     57        19.3 299 
 LT9  SE IS       1557 24.35                             114   -1.5510 19.3 299 
 LT9  SZ  AML     1557 24.85        18.4 0.32                          19.3 299 
 LD5  SN IP       1557 23.28                             112   -0.2910 21.3 230 
 LD5  SZ E        1557 23.31                  353.6  8.8     56        21.3 230 
 LD5  SE IS       1557 25.18                             112   -1.2810 21.3 230 
 LD5  SZ  AML     1557 26.57        14.5 0.62                          21.3 230 
 LA4  SN IP       1557 24.33                             109    0.3210 24.3 322 
 LA4  SZ E        1557 24.34                  150.7  6.8      9        24.3 322 
 LA4  SE IS       1557 27.31                             109    0.0810 24.3 322 
 LA4  SZ  AML     1557 28.17        95.8 0.22                          24.3 322 
                                                                                
