 2010  8 9 2154 53.0 L  21.382 -99.324 10.0  RAL  1 0.0-0.4LRAL                1
 GAP=360        0.34      28.6     4.7  0.0 -0.1333E+03 -0.4655E+03 -0.1265E+04E
 ACTION:UPD 13-02-28 14:29 OP:RALL STATUS:               ID:20100809215453     I
 2010-08-09-2154-46S.PLUR1_006                                                 6
 STAT SP IPHASW D HRMM SECON CODA AMPLIT PERI AZIMU VELO AIN AR TRES W  DIS CAZ7
 LT9  SZ E        2154 54.86                  171.4  8.2      0        1.48 351 
 LT9  SN IP       2154 54.95                             172    0.1110 1.48 351 
 LT9  SE IS       2154 56.04                             172   -0.1110 1.48 351 
 LT9  SZ  AML     2154 56.22         2.4 0.26                          1.48 351 
                                                                                
