 2010  810 0543 10.3 L  21.273 -98.976 10.0  RAL  3 1.3 0.6LRAL                1
 GAP=312       18.65      38.1    93.5542.6  0.1837E+04 -0.2231E+05 -0.7464E+04E
 ACTION:UPD 13-02-28 14:29 OP:RALL STATUS:               ID:20100810054310     I
 2010-08-10-0543-06S.PLUR1_012                                                 6
 STAT SP IPHASW D HRMM SECON CODA AMPLIT PERI AZIMU VELO AIN AR TRES W  DIS CAZ7
 LO8  SN IP        543 18.07                             106    2.8210 27.6 243 
 LO8  SZ E         543 18.16                  140.4  7.6     77        27.6 243 
 LO8  SE IS        543 21.22                             106    2.3810 27.6 243 
 LO8  SZ  AML      543 21.67         9.4 0.24                          27.6 243 
 LD5  SN IP        543 17.35                             101    0.7110 37.0 255 
 LD5  SZ E         543 17.36                   21.9  7.8    -52        37.0 255 
 LD5  SE IS        543 19.82                             101   -1.4210 37.0 255 
 LD5  SZ  AML      543 20.26         8.3 0.40                          37.0 255 
 LT9  SN IP        543 16.26                             100   -0.6210 38.8 290 
 LT9  SZ E         543 16.27                  155.1  7.8     45        38.8 290 
 LT9  SE IS        543 17.79                             100   -3.8710 38.8 290 
 LT9  SZ  AML      543 19.03         4.7 0.42                          38.8 290 
                                                                                
