 2010  810 0609 26.1 L  21.333 -99.275 10.0  RAL  1 0.4 1.4LRAL                1
 GAP=360        4.42     999.9   999.9  0.0  0.5677E+09 -0.2231E+05 -0.7464E+04E
 ACTION:UPD 13-02-28 14:29 OP:RALL STATUS:               ID:20100810060926     I
 2010-08-10-0609-18S.PLUR1_003                                                 6
 STAT SP IPHASW D HRMM SECON CODA AMPLIT PERI AZIMU VELO AIN AR TRES W  DIS CAZ7
 LZ4  SZ E         6 9 28.26                  271.8 41.4    -20        0.60 113 
 LZ4  SN IP        6 9 28.27                             177    0.3710 0.60 113 
 LZ4  SE IS        6 9 28.86                             177   -0.3710 0.60 113 
 LZ4  SZ  AML      6 9 29.21       130.2 0.16                          0.60 113 
                                                                                
