 2010  810 0043 43.3 L  21.502 -99.320 10.0  RAL  1 0.1 0.6LRAL                1
 GAP=360        0.60      30.7    18.3  0.0 -0.5612E+03 -0.4655E+03 -0.1265E+04E
 ACTION:UPD 13-02-28 14:29 OP:RALL STATUS:               ID:20100810004343     I
 2010-08-10-0043-35S.PLUR1_003                                                 6
 STAT SP IPHASW D HRMM SECON CODA AMPLIT PERI AZIMU VELO AIN AR TRES W  DIS CAZ7
 LA4  SZ E         043 45.52                  331.0 10.1      0        2.27 151 
 LA4  SN IP        043 45.57                             168    0.3510 2.27 151 
 LA4  SE IS        043 46.24                             168   -0.3510 2.27 151 
 LA4  SZ  AML      043 46.42        21.3 0.26                          2.27 151 
                                                                                
