 2010  810 0512 19.4 L  21.396 -99.268 10.0  RAL  1 0.0 1.0LRAL                1
 GAP=360        0.30       6.3     0.2  0.0  0.8269E+00 -0.4655E+03 -0.1265E+04E
 ACTION:UPD 13-02-28 14:29 OP:RALL STATUS:               ID:20100810051219     I
 2010-08-10-0512-12S.PLUR1_003                                                 6
 STAT SP IPHASW D HRMM SECON CODA AMPLIT PERI AZIMU VELO AIN AR TRES W  DIS CAZ7
 LZ4  SZ E         512 21.53                    1.1 14.7      0        7.23 181 
 LZ4  SN IP        512 21.55                             144    0.0010 7.23 181 
 LZ4  SE IS        512 23.14                             144    0.0010 7.23 181 
 LZ4  SZ  AML      512 23.23        46.0 0.14                          7.23 181 
                                                                                
