 2010  810 0807 40.1 L  21.321 -99.295 10.0  RAL  1 0.1 1.1LRAL                1
 GAP=360        0.37       6.4    16.9  0.0  0.1080E+03 -0.2231E+05 -0.7464E+04E
 ACTION:UPD 13-02-28 14:29 OP:RALL STATUS:               ID:20100810080740     I
 2010-08-10-0807-32S.PLUR1_003                                                 6
 STAT SP IPHASW D HRMM SECON CODA AMPLIT PERI AZIMU VELO AIN AR TRES W  DIS CAZ7
 LZ4  SZ E         8 7 42.08                  248.0 21.8      0        2.91  68 
 LZ4  SN IP        8 7 42.12                             164    0.1510 2.91  68 
 LZ4  SE IS        8 7 43.20                             164   -0.1510 2.91  68 
 LZ4  SZ  AML      8 7 43.38        71.1 0.38                          2.91  68 
                                                                                
