 2010  810 1728 33.5 L  21.327 -99.270 10.0  RAL  1 1.7 1.5LRAL                1
 GAP=360       22.11     999.9   999.9  0.0  0.6211E+09  0.1360E+05  0.7283E+06E
 ACTION:UPD 13-02-28 14:29 OP:RALL STATUS:               ID:20100810172833     I
 2010-08-10-1728-26S.PLUR1_003                                                 6
 STAT SP IPHASW D HRMM SECON CODA AMPLIT PERI AZIMU VELO AIN AR TRES W  DIS CAZ7
 LZ4  SZ E        1728 35.72                  285.9 29.3    105        0.38   0 
 LZ4  SN IP       1728 35.75                             178    0.4310 0.38   0 
 LZ4  SE IS       1728 36.22                             178   -0.4310 0.38   0 
 LZ4  SZ  AML     1728 36.82       179.4 0.22                          0.38   0 
                                                                                
