 2010  810 1441 45.8 L  21.479 -99.411 10.0  RAL  1 0.0 1.5LRAL                1
 GAP=360        0.30       3.0     2.9  0.0 -0.8186E+01 -0.2231E+05 -0.7464E+04E
 ACTION:UPD 13-02-28 14:29 OP:RALL STATUS:               ID:20100810144145     I
 2010-08-10-1441-40S.PLUR1_003                                                 6
 STAT SP IPHASW D HRMM SECON CODA AMPLIT PERI AZIMU VELO AIN AR TRES W  DIS CAZ7
 LZ4  SZ E        1441 49.86                  318.3  9.4      0        22.0 138 
 LZ4  SN IP       1441 49.87                             111    0.0010 22.0 138 
 LZ4  SE IS       1441 52.82                             111    0.0010 22.0 138 
 LZ4  SZ  AML     1441 55.55        72.7 0.32                          22.0 138 
                                                                                
