 2010  810 1225 20.9 L  21.333 -99.295 10.0  RAL  1 0.0-0.2LRAL                1
 GAP=360        0.30       5.4     2.8  0.0 -0.1507E+02 -0.2231E+05 -0.7464E+04E
 ACTION:UPD 13-02-28 14:29 OP:RALL STATUS:               ID:20100810122520     I
 2010-08-10-1225-14S.PLUR1_003                                                 6
 STAT SP IPHASW D HRMM SECON CODA AMPLIT PERI AZIMU VELO AIN AR TRES W  DIS CAZ7
 LT9  SN IP       1225 23.11                             142    0.0210 7.65 335 
 LT9  SZ E        1225 23.11                  154.6  7.6      0        7.65 335 
 LT9  SE IS       1225 24.66                             142   -0.0210 7.65 335 
 LT9  SZ  AML     1225 25.75         2.8 0.30                          7.65 335 
                                                                                
