 2010  810 1735 36.2 L  21.332 -99.280 10.0  RAL  1 0.1 0.9LRAL                1
 GAP=360        1.19      53.8   149.3  0.0 -0.7998E+04  0.1360E+05  0.7283E+06E
 ACTION:UPD 13-02-28 14:29 OP:RALL STATUS:               ID:20100810173536     I
 2010-08-10-1735-29S.PLUR1_003                                                 6
 STAT SP IPHASW D HRMM SECON CODA AMPLIT PERI AZIMU VELO AIN AR TRES W  DIS CAZ7
 LZ4  SZ E        1735 38.32                  282.6 37.2      5        1.07  98 
 LZ4  SN IP       1735 38.34                             174    0.3110 1.07  98 
 LZ4  SE IS       1735 39.06                             174   -0.3110 1.07  98 
 LZ4  SZ  AML     1735 39.47        44.1 0.18                          1.07  98 
                                                                                
