 2010  810 1109 32.8 L  21.335 -99.279 10.0  RAL  1 0.2 1.8LRAL                1
 GAP=360        0.67     999.9   999.9  0.0  0.2129E+07 -0.2231E+05 -0.7464E+04E
 ACTION:UPD 13-02-28 14:29 OP:RALL STATUS:               ID:20100810110932     I
 2010-08-10-1109-25S.PLUR1_003                                                 6
 STAT SP IPHASW D HRMM SECON CODA AMPLIT PERI AZIMU VELO AIN AR TRES W  DIS CAZ7
 LZ4  SZ E        11 9 35.01                  292.1 20.3      0        1.10 112 
 LZ4  SN IP       11 9 35.04                             174    0.4010 1.10 112 
 LZ4  SE IS       11 9 35.58                             174   -0.4010 1.10 112 
 LZ4  SZ  AML     11 9 35.90       372.8 0.16                          1.10 112 
                                                                                
