 2010  810 1640 24.0 L  21.384 -99.331  9.3  RAL  2 0.5 0.1LRAL                1
 GAP=352        8.51     198.2     9.9999.9  0.7331E+03  0.1360E+05  0.7283E+06E
 ACTION:UPD 13-02-28 14:29 OP:RALL STATUS:               ID:20100810164024     I
 2010-08-10-1640-15S.PLUR1_006                                                 6
 STAT SP IPHASW D HRMM SECON CODA AMPLIT PERI AZIMU VELO AIN AR TRES W  DIS CAZ7
 LT9  SZ E        1640 25.49                  211.8 13.8     12        1.36  19 
 LT9  SN IP       1640 25.51                              93   -0.1710 1.36  19 
 LT9  SE IS       1640 25.87                              93   -1.0310 1.36  19 
 LT9  SZ  AML     1640 25.93         4.2 0.14                          1.36  19 
 LA4  SN IP       1640 27.15                              93    0.6010 11.3  11 
 LA4  SZ E        1640 27.17                  152.3  9.3    -38        11.3  11 
 LA4  SE IS       1640 29.02                              93    0.6010 11.3  11 
 LA4  SZ  AML     1640 29.70         9.3 0.26                          11.3  11 
                                                                                
