 2010  810 1815 14.4 L  21.331 -99.277 10.0  RAL  1 0.2 0.7LRAL                1
 GAP=360        1.01     202.9   183.2  0.0 -0.3716E+05  0.1360E+05  0.7283E+06E
 ACTION:UPD 13-02-28 14:29 OP:RALL STATUS:               ID:20100810181514     I
 2010-08-10-1815-07S.PLUR1_003                                                 6
 STAT SP IPHASW D HRMM SECON CODA AMPLIT PERI AZIMU VELO AIN AR TRES W  DIS CAZ7
 LZ4  SZ E        1815 16.55                  268.3 42.3     -3        0.73  92 
 LZ4  SN IP       1815 16.60                             176    0.3810 0.73  92 
 LZ4  SE IS       1815 17.17                             176   -0.3810 0.73  92 
 LZ4  SZ  AML     1815 17.85        30.8 0.14                          0.73  92 
                                                                                
