 2010  810 1212 18.3 L  21.325 -99.284 10.0  RAL  1 0.1 0.9LRAL                1
 GAP=360        0.58     999.9   705.4  0.0 -0.9898E+06 -0.2231E+05 -0.7464E+04E
 ACTION:UPD 13-02-28 14:29 OP:RALL STATUS:               ID:20100810121218     I
 2010-08-10-1212-11S.PLUR1_003                                                 6
 STAT SP IPHASW D HRMM SECON CODA AMPLIT PERI AZIMU VELO AIN AR TRES W  DIS CAZ7
 LZ4  SZ E        1212 20.39                  246.6 39.7      0        1.61  67 
 LZ4  SN IP       1212 20.47                             171    0.3410 1.61  67 
 LZ4  SE IS       1212 21.14                             171   -0.3410 1.61  67 
 LZ4  SZ  AML     1212 21.31        43.2 0.16                          1.61  67 
                                                                                
