 2010  810 2212 12.6 L  21.336 -99.278 10.0  RAL  1 0.5 0.9LRAL                1
 GAP=360        5.81     792.4   999.9  0.0  0.1211E+07  0.1360E+05  0.7283E+06E
 ACTION:UPD 13-02-28 14:29 OP:RALL STATUS:               ID:20100810221212     I
 2010-08-10-2212-05S.PLUR1_003                                                 6
 STAT SP IPHASW D HRMM SECON CODA AMPLIT PERI AZIMU VELO AIN AR TRES W  DIS CAZ7
 LZ4  SZ E        2212 14.78                  276.2 24.6    -27        1.01 124 
 LZ4  SN IP       2212 14.82                             174    0.3710 1.01 124 
 LZ4  SE IS       2212 15.43                             174   -0.3710 1.01 124 
 LZ4  SZ  AML     2212 15.53        46.4 0.16                          1.01 124 
                                                                                
