 2010  811 0230 33.3 L  21.356 -99.293 10.0  RAL  1 0.1 1.1LRAL                1
 GAP=360        0.44      12.4    11.3  0.0 -0.1395E+03  0.1360E+05  0.7283E+06E
 ACTION:UPD 13-02-28 14:29 OP:RALL STATUS:               ID:20100811023033     I
 2010-08-11-0230-26S.PLUR1_003                                                 6
 STAT SP IPHASW D HRMM SECON CODA AMPLIT PERI AZIMU VELO AIN AR TRES W  DIS CAZ7
 LZ4  SZ E         230 35.45                  319.6 24.1      0        3.68 140 
 LZ4  SN IP        230 35.47                             160    0.2210 3.68 140 
 LZ4  SE IS        230 36.44                             160   -0.2210 3.68 140 
 LZ4  SZ  AML      230 36.76        64.8 0.10                          3.68 140 
                                                                                
