 2010  811 0411  9.4 L  21.384 -99.304 10.0  RAL  1 0.0 1.2LRAL                1
 GAP=360        0.30       5.7     3.7  0.0 -0.2083E+02  0.1360E+05  0.7283E+06E
 ACTION:UPD 13-02-28 14:29 OP:RALL STATUS:               ID:20100811041109     I
 2010-08-11-0411-01S.PLUR1_003                                                 6
 STAT SP IPHASW D HRMM SECON CODA AMPLIT PERI AZIMU VELO AIN AR TRES W  DIS CAZ7
 LZ4  SZ E         411 11.60                  328.7  7.6      0        6.90 149 
 LZ4  SN IP        411 11.60                             146    0.0310 6.90 149 
 LZ4  SE IS        411 13.12                             146   -0.0310 6.90 149 
 LZ4  SZ  AML      411 14.31        73.3 0.32                          6.90 149 
                                                                                
