 2010  811 1634 12.7 L  21.351 -99.289 10.0  RAL  1 0.2 1.4LRAL                1
 GAP=360        0.72      24.1    22.9  0.0 -0.5516E+03  0.3877E+01 -0.8179E+00E
 ACTION:UPD 13-02-28 14:29 OP:RALL STATUS:               ID:20100811163412     I
 2010-08-11-1634-06S.PLUR1_003                                                 6
 STAT SP IPHASW D HRMM SECON CODA AMPLIT PERI AZIMU VELO AIN AR TRES W  DIS CAZ7
 LZ4  SZ E        1634 15.02                  318.4 14.7      0        2.98 138 
 LZ4  SN IP       1634 15.02                             164    0.4410 2.98 138 
 LZ4  SE IS       1634 15.52                             164   -0.4410 2.98 138 
 LZ4  SZ  AML     1634 15.65       152.5 0.14                          2.98 138 
                                                                                
