 2010  811 1541 15.4 L  21.387 -99.331  0.1  RAL  2 0.2 0.3LRAL                1
 GAP=343        3.02       1.0     3.0 23.2 -0.1506E+01  0.3877E+01 -0.8179E+00E
 ACTION:UPD 13-02-28 14:29 OP:RALL STATUS:               ID:20100811154115     I
 2010-08-11-1541-05S.PLUR1_006                                                 6
 STAT SP IPHASW D HRMM SECON CODA AMPLIT PERI AZIMU VELO AIN AR TRES W  DIS CAZ7
 LT9  SZ E        1541 15.31                  211.7  7.6      2        1.04  29 
 LT9  SN IP       1541 15.34                             127   -0.2510 1.04  29 
 LT9  SE IS       1541 15.80                             127    0.0410 1.04  29 
 LT9  SZ  AML     1541 15.99        25.3 0.24                          1.04  29 
 LA4  SZ E        1541 17.07                  177.8  7.5    -13        10.9  12 
 LA4  SN IP       1541 17.15                              96   -0.1310 10.9  12 
 LA4  SE IS       1541 19.03                              96    0.3410 10.9  12 
 LA4  SZ  AML     1541 19.13        31.2 0.30                          10.9  12 
                                                                                
