 2010  811 1008 55.3 L  21.368 -99.318 10.0  RAL  1 0.0-0.2LRAL                1
 GAP=360        0.33      13.1     4.1  0.0 -0.5380E+02  0.1360E+05  0.7283E+06E
 ACTION:UPD 13-02-28 14:29 OP:RALL STATUS:               ID:20100811100855     I
 2010-08-11-1008-48S.PLUR1_003                                                 6
 STAT SP IPHASW D HRMM SECON CODA AMPLIT PERI AZIMU VELO AIN AR TRES W  DIS CAZ7
 LT9  SN IP       10 8 57.25                             162    0.1010 3.19 344 
 LT9  SZ E        10 8 57.28                  163.7  7.2      0        3.19 344 
 LT9  SE IS       10 8 58.40                             162   -0.1010 3.19 344 
 LT9  SZ  AML     10 8 58.54         3.7 0.18                          3.19 344 
                                                                                
