 2010  811 2239 18.9 L  21.340 -99.293 10.0  RAL  1 0.1 1.3LRAL                1
 GAP=360        0.43       8.2    21.9  0.0 -0.1805E+03  0.3877E+01 -0.8179E+00E
 ACTION:UPD 13-02-28 14:29 OP:RALL STATUS:               ID:20100811223918     I
 2010-08-11-2239-11S.PLUR1_003                                                 6
 STAT SP IPHASW D HRMM SECON CODA AMPLIT PERI AZIMU VELO AIN AR TRES W  DIS CAZ7
 LZ4  SZ E        2239 20.92                  292.0 18.6      0        2.59 112 
 LZ4  SN IP       2239 20.98                             166    0.2110 2.59 112 
 LZ4  SE IS       2239 21.93                             166   -0.2110 2.59 112 
 LZ4  SZ  AML     2239 22.01       112.3 0.10                          2.59 112 
                                                                                
