 2010  811 2040 10.5 L  21.336 -99.281 10.0  RAL  1 0.3 1.2LRAL                1
 GAP=360        3.02     999.9   973.8  0.0  0.1192E+07  0.3877E+01 -0.8179E+00E
 ACTION:UPD 13-02-28 14:29 OP:RALL STATUS:               ID:20100811204010     I
 2010-08-11-2040-03S.PLUR1_003                                                 6
 STAT SP IPHASW D HRMM SECON CODA AMPLIT PERI AZIMU VELO AIN AR TRES W  DIS CAZ7
 LZ4  SZ E        2040 12.71                  281.3 46.0    -13        1.33 115 
 LZ4  SN IP       2040 12.73                             173    0.4010 1.33 115 
 LZ4  SE IS       2040 13.28                             173   -0.4010 1.33 115 
 LZ4  SZ  AML     2040 13.40        85.9 0.18                          1.33 115 
                                                                                
