 2010  812 1335  2.6 L  21.242 -99.234 10.0  RAL  1 0.0 1.3LRAL                1
 GAP=360        0.30       4.7     1.9  0.0 -0.9137E+01  0.3877E+01 -0.8179E+00E
 ACTION:UPD 13-02-28 14:29 OP:RALL STATUS:               ID:20100812133502     I
 2010-08-12-1334-55S.PLUR1_003                                                 6
 STAT SP IPHASW D HRMM SECON CODA AMPLIT PERI AZIMU VELO AIN AR TRES W  DIS CAZ7
 LZ4  SZ E        1335  5.07                  159.2 89.3      0        10.5 339 
 LZ4  SN IP       1335  5.12                             133    0.0110 10.5 339 
 LZ4  SE IS       1335  6.93                             133   -0.0110 10.5 339 
 LZ4  SZ  AML     1335  7.35        83.4 0.22                          10.5 339 
                                                                                
