 2010  812 1647  4.9 L  21.597 -99.326 10.0  RAL  1 0.0 1.3LRAL                1
 GAP=360        0.30       4.6     0.8  0.0 -0.3130E+01  0.3877E+01 -0.8179E+00E
 ACTION:UPD 13-02-28 14:29 OP:RALL STATUS:               ID:20100812164704     I
 2010-08-12-1646-57S.PLUR1_003                                                 6
 STAT SP IPHASW D HRMM SECON CODA AMPLIT PERI AZIMU VELO AIN AR TRES W  DIS CAZ7
 LA4  SN IP       1647  7.71                             127    0.0010 12.7 172 
 LA4  SZ E        1647  7.72                  352.1  8.9      0        12.7 172 
 LA4  SE IS       1647  9.75                             127    0.0010 12.7 172 
 LA4  SZ  AML     1647  9.82        67.9 0.38                          12.7 172 
                                                                                
