 2010  812 1705 19.7 L  21.311 -99.284 10.0  RAL  1 0.1 0.8LRAL                1
 GAP=360        0.62      25.2    18.9  0.0  0.4759E+03  0.3877E+01 -0.8179E+00E
 ACTION:UPD 13-02-28 14:29 OP:RALL STATUS:               ID:20100812170519     I
 2010-08-12-1705-12S.PLUR1_003                                                 6
 STAT SP IPHASW D HRMM SECON CODA AMPLIT PERI AZIMU VELO AIN AR TRES W  DIS CAZ7
 LZ4  SZ E        17 5 21.91                  215.0 32.9      0        2.68  35 
 LZ4  SN IP       17 5 21.98                             165    0.3710 2.68  35 
 LZ4  SE IS       17 5 22.62                             165   -0.3710 2.68  35 
 LZ4  SZ  AML     17 5 23.16        35.6 0.18                          2.68  35 
                                                                                
