 2010  812 1755 35.2 L  21.302 -99.234 10.0  RAL  1 0.0 0.2LRAL                1
 GAP=360        0.32       6.1     7.6  0.0 -0.4692E+02  0.3877E+01 -0.8179E+00E
 ACTION:UPD 13-02-28 14:29 OP:RALL STATUS:               ID:20100812175535     I
 2010-08-12-1755-29S.PLUR1_003                                                 6
 STAT SP IPHASW D HRMM SECON CODA AMPLIT PERI AZIMU VELO AIN AR TRES W  DIS CAZ7
 LZ4  SZ E        1755 37.26                  130.7 24.8      0        4.89 311 
 LZ4  SN IP       1755 37.33                             154    0.0910 4.89 311 
 LZ4  SE IS       1755 38.61                             154   -0.0910 4.89 311 
 LZ4  SZ  AML     1755 39.38         9.0 0.20                          4.89 311 
                                                                                
