 2010  812 1043 34.3 L  21.318 -99.298 10.0  RAL  1 0.1 0.9LRAL                1
 GAP=360        0.40       7.3    16.2  0.0  0.1182E+03  0.3877E+01 -0.8179E+00E
 ACTION:UPD 13-02-28 14:29 OP:RALL STATUS:               ID:20100812104334     I
 2010-08-12-1043-26S.PLUR1_003                                                 6
 STAT SP IPHASW D HRMM SECON CODA AMPLIT PERI AZIMU VELO AIN AR TRES W  DIS CAZ7
 LZ4  SZ E        1043 36.34                  244.3 36.2      0        3.24  64 
 LZ4  SN IP       1043 36.38                             162    0.1910 3.24  64 
 LZ4  SE IS       1043 37.40                             162   -0.1910 3.24  64 
 LZ4  SZ  AML     1043 38.11        45.7 0.24                          3.24  64 
                                                                                
