 2010  812 1207 26.3 L  21.368 -99.285 10.0  RAL  1 0.0 1.1LRAL                1
 GAP=360        0.31       9.1     4.0  0.0 -0.3596E+02  0.3877E+01 -0.8179E+00E
 ACTION:UPD 13-02-28 14:29 OP:RALL STATUS:               ID:20100812120726     I
 2010-08-12-1207-19S.PLUR1_003                                                 6
 STAT SP IPHASW D HRMM SECON CODA AMPLIT PERI AZIMU VELO AIN AR TRES W  DIS CAZ7
 LZ4  SZ E        12 7 28.31                  337.8  9.8      0        4.39 158 
 LZ4  SN IP       12 7 28.34                             157    0.0610 4.39 158 
 LZ4  SE IS       12 7 29.66                             157   -0.0610 4.39 158 
 LZ4  SZ  AML     12 7 30.24        65.4 0.14                          4.39 158 
                                                                                
