 2010  812 1446 41.4 L  21.252 -99.287 10.0  RAL  1 0.0 0.5LRAL                1
 GAP=360        0.30       5.4     1.2  0.0  0.6553E+01  0.3877E+01 -0.8179E+00E
 ACTION:UPD 13-02-28 14:29 OP:RALL STATUS:               ID:20100812144641     I
 2010-08-12-1446-34S.PLUR1_003                                                 6
 STAT SP IPHASW D HRMM SECON CODA AMPLIT PERI AZIMU VELO AIN AR TRES W  DIS CAZ7
 LZ4  SZ E        1446 43.69                  191.8 39.7      0        8.94  12 
 LZ4  SN IP       1446 43.78                             138    0.0110 8.94  12 
 LZ4  SE IS       1446 45.48                             138   -0.0110 8.94  12 
 LZ4  SZ  AML     1446 46.11        12.7 0.22                          8.94  12 
                                                                                
