 2010  812 2101 50.8 L  21.303 -99.259 10.0  RAL  1 0.0 0.3LRAL                1
 GAP=360        0.34      13.5     4.9  0.0 -0.6624E+02  0.3877E+01 -0.8179E+00E
 ACTION:UPD 13-02-28 14:29 OP:RALL STATUS:               ID:20100812210150     I
 2010-08-12-2101-43S.PLUR1_003                                                 6
 STAT SP IPHASW D HRMM SECON CODA AMPLIT PERI AZIMU VELO AIN AR TRES W  DIS CAZ7
 LZ4  SZ E        21 1 52.84                  161.2 13.2      0        3.24 341 
 LZ4  SN IP       21 1 52.86                             163    0.1210 3.24 341 
 LZ4  SZ  AML     21 1 53.98        11.1 0.48                          3.24 341 
 LZ4  SE IS       21 1 54.02                             163   -0.1210 3.24 341 
                                                                                
