 2010  812 2035 19.2 L  21.345 -99.296 10.0  RAL  1 0.1 0.0LRAL                1
 GAP=360        0.47       9.7    18.8  0.0 -0.1822E+03  0.3877E+01 -0.8179E+00E
 ACTION:UPD 13-02-28 14:29 OP:RALL STATUS:               ID:20100812203519     I
 2010-08-12-2035-12S.PLUR1_003                                                 6
 STAT SP IPHASW D HRMM SECON CODA AMPLIT PERI AZIMU VELO AIN AR TRES W  DIS CAZ7
 LZ4  SZ E        2035 21.32                  299.0 20.9      0        3.18 119 
 LZ4  SN IP       2035 21.34                             163    0.2510 3.18 119 
 LZ4  SE IS       2035 22.23                             163   -0.2510 3.18 119 
 LZ4  SZ  AML     2035 22.38         5.8 0.14                          3.18 119 
                                                                                
