 2010  812 2147 21.4 L  21.327 -99.275 10.0  RAL  1 0.6 0.9LRAL                1
 GAP=360        7.89     999.9   999.9  0.0 -0.8638E+09  0.3877E+01 -0.8179E+00E
 ACTION:UPD 13-02-28 14:29 OP:RALL STATUS:               ID:20100812214721     I
 2010-08-12-2147-14S.PLUR1_003                                                 6
 STAT SP IPHASW D HRMM SECON CODA AMPLIT PERI AZIMU VELO AIN AR TRES W  DIS CAZ7
 LZ4  SZ E        2147 23.40                  270.4 29.1     38        0.73  53 
 LZ4  SN IP       2147 23.45                             176    0.2110 0.73  53 
 LZ4  SE IS       2147 24.37                             176   -0.2110 0.73  53 
 LZ4  SZ  AML     2147 24.72        47.0 0.30                          0.73  53 
                                                                                
