 2010  812 2042 54.7 L  21.309 -99.303 10.0  RAL  1 0.1 0.7LRAL                1
 GAP=360        0.38       7.2    11.1  0.0  0.8026E+02  0.3877E+01 -0.8179E+00E
 ACTION:UPD 13-02-28 14:29 OP:RALL STATUS:               ID:20100812204254     I
 2010-08-12-2042-47S.PLUR1_003                                                 6
 STAT SP IPHASW D HRMM SECON CODA AMPLIT PERI AZIMU VELO AIN AR TRES W  DIS CAZ7
 LZ4  SZ E        2042 56.79                  235.2 36.6      0        4.19  55 
 LZ4  SN IP       2042 56.81                             158    0.1610 4.19  55 
 LZ4  SE IS       2042 57.91                             158   -0.1610 4.19  55 
 LZ4  SZ  AML     2042 59.58        27.8 0.18                          4.19  55 
                                                                                
