 2010  813 0149 18.6 L  21.350 -99.299 10.0  RAL  1 0.1 0.5LRAL                1
 GAP=360        0.41       8.7    13.5  0.0 -0.1177E+03  0.3877E+01 -0.8179E+00E
 ACTION:UPD 13-02-28 14:29 OP:RALL STATUS:               ID:20100813014918     I
 2010-08-13-0149-12S.PLUR1_003                                                 6
 STAT SP IPHASW D HRMM SECON CODA AMPLIT PERI AZIMU VELO AIN AR TRES W  DIS CAZ7
 LZ4  SN IP        149 20.71                             160    0.1910 3.66 125 
 LZ4  SZ E         149 20.74                  304.6 16.0      0        3.66 125 
 LZ4  SE IS        149 21.73                             160   -0.1910 3.66 125 
 LZ4  SZ  AML      149 22.04        15.0 0.28                          3.66 125 
                                                                                
