 2010  813 0323 56.3 L  21.327 -99.278 10.0  RAL  1 0.3 1.6LRAL                1
 GAP=360        4.45     999.9   211.6  0.0 -0.3337E+06  0.3877E+01 -0.8179E+00E
 ACTION:UPD 13-02-28 14:29 OP:RALL STATUS:               ID:20100813032356     I
 2010-08-13-0323-48S.PLUR1_003                                                 6
 STAT SP IPHASW D HRMM SECON CODA AMPLIT PERI AZIMU VELO AIN AR TRES W  DIS CAZ7
 LZ4  SZ E         323 58.25                  263.3 23.7     21        1.02  62 
 LZ4  SN IP     C  323 58.31                             174    0.1510 1.02  62 
 LZ4  SE IS     C  323 59.35                             174   -0.1510 1.02  62 
 LZ4  SZ  AML      323 59.50       221.9 0.14                          1.02  62 
                                                                                
