 2010  813 0643 13.4 L  21.347 -99.302 10.0  RAL  1 0.0-0.5LRAL                1
 GAP=360        0.30       6.5     3.3  0.0 -0.2139E+02  0.3877E+01 -0.8179E+00E
 ACTION:UPD 13-02-28 14:29 OP:RALL STATUS:               ID:20100813064313     I
 2010-08-13-0643-06S.PLUR1_006                                                 6
 STAT SP IPHASW D HRMM SECON CODA AMPLIT PERI AZIMU VELO AIN AR TRES W  DIS CAZ7
 LT9  SN IP        643 15.44                             149    0.0310 5.96 335 
 LT9  SZ E         643 15.45                  155.0  9.2      0        5.96 335 
 LT9  SE IS        643 16.87                             149   -0.0310 5.96 335 
 LT9  SZ  AML      643 18.89         1.4 0.30                          5.96 335 
                                                                                
