 2010  813 0820 44.2 L  21.398 -99.413 10.0  RAL  1 0.0 1.2LRAL                1
 GAP=360        0.30       1.9     4.0  0.0 -0.7550E+01  0.3877E+01 -0.8179E+00E
 ACTION:UPD 13-02-28 14:29 OP:RALL STATUS:               ID:20100813082044     I
 2010-08-13-0820-38S.PLUR1_003                                                 6
 STAT SP IPHASW D HRMM SECON CODA AMPLIT PERI AZIMU VELO AIN AR TRES W  DIS CAZ7
 LZ4  SZ E         820 47.52                  296.7 20.0      0        16.7 117 
 LZ4  SN IP        820 47.55                             119    0.0110 16.7 117 
 LZ4  SE IS        820 49.95                             119   -0.0110 16.7 117 
 LZ4  SZ  AML      820 50.37        49.7 0.14                          16.7 117 
                                                                                
