 2010  813 0449 44.4 L  21.319 -99.287 10.0  RAL  1 0.2 1.0LRAL                1
 GAP=360        0.74      25.6    37.8  0.0  0.9672E+03  0.3877E+01 -0.8179E+00E
 ACTION:UPD 13-02-28 14:29 OP:RALL STATUS:               ID:20100813044944     I
 2010-08-13-0449-37S.PLUR1_003                                                 6
 STAT SP IPHASW D HRMM SECON CODA AMPLIT PERI AZIMU VELO AIN AR TRES W  DIS CAZ7
 LZ4  SN IP        449 46.72                             168    0.4610 2.23  54 
 LZ4  SZ E         449 46.74                  234.0 29.9      0        2.23  54 
 LZ4  SE IS        449 47.17                             168   -0.4610 2.23  54 
 LZ4  SZ  AML      449 47.70        50.8 0.14                          2.23  54 
                                                                                
