 2010  813 0125  4.9 L  21.384 -99.325 10.0  RAL  1 0.0-0.5LRAL                1
 GAP=360        0.33      32.9     4.7  0.0 -0.1559E+03  0.3877E+01 -0.8179E+00E
 ACTION:UPD 13-02-28 14:29 OP:RALL STATUS:               ID:20100813012504     I
 2010-08-13-0124-58S.PLUR1_003                                                 6
 STAT SP IPHASW D HRMM SECON CODA AMPLIT PERI AZIMU VELO AIN AR TRES W  DIS CAZ7
 LT9  SN IP        125  6.80                             173    0.1010 1.27 352 
 LT9  SZ E         125  6.83                  172.4  8.3      0        1.27 352 
 LT9  SE IS        125  7.90                             173   -0.1010 1.27 352 
 LT9  SZ  AML      125  8.04         1.6 0.50                          1.27 352 
                                                                                
