 2010  813 0837 51.5 L  21.270 -99.351 10.0  RAL  1 0.0 1.5LRAL                1
 GAP=360        0.30       3.1     4.2  0.0  0.1292E+02  0.3877E+01 -0.8179E+00E
 ACTION:UPD 13-02-28 14:29 OP:RALL STATUS:               ID:20100813083751     I
 2010-08-13-0837-44S.PLUR1_003                                                 6
 STAT SP IPHASW D HRMM SECON CODA AMPLIT PERI AZIMU VELO AIN AR TRES W  DIS CAZ7
 LZ4  SZ E         837 54.03                  231.6 32.4      0        10.8  52 
 LZ4  SN IP     D  837 54.07                             132    0.0110 10.8  52 
 LZ4  SE IS     C  837 55.92                             132   -0.0110 10.8  52 
 LZ4  SZ  AML      837 56.44       117.1 0.20                          10.8  52 
                                                                                
