 2010  813 1909 44.9 L  21.335 -99.280 10.0  RAL  1 0.1 1.4LRAL                1
 GAP=360        0.60     999.9   577.5  0.0  0.7098E+06  0.3877E+01 -0.8179E+00E
 ACTION:UPD 13-02-28 14:29 OP:RALL STATUS:               ID:20100813190944     I
 2010-08-13-1909-37S.PLUR1_003                                                 6
 STAT SP IPHASW D HRMM SECON CODA AMPLIT PERI AZIMU VELO AIN AR TRES W  DIS CAZ7
 LZ4  SZ E        19 9 47.09                  291.8 87.0      1        1.16 111 
 LZ4  SN IP     D 19 9 47.10                             174    0.3210 1.16 111 
 LZ4  SE IS       19 9 47.80                             174   -0.3210 1.16 111 
 LZ4  SZ  AML     19 9 48.70       129.9 0.28                          1.16 111 
                                                                                
