 2010  813 1403 33.4 L  21.332 -99.272 10.0  RAL  1 0.1 1.4LRAL                1
 GAP=360        0.55       2.7     0.2 23.2 -0.2395E+02  0.3877E+01 -0.8179E+00E
 ACTION:UPD 13-02-28 14:29 OP:RALL STATUS:               ID:20100813140333     I
 2010-08-13-1403-25S.PLUR1_003                                                 6
 STAT SP IPHASW D HRMM SECON CODA AMPLIT PERI AZIMU VELO AIN AR TRES W  DIS CAZ7
 LZ4  SZ E        14 3 35.55                  288.0 42.8     -1        0.28 110 
 LZ4  SN IP     D 14 3 35.58                             178    0.3110 0.28 110 
 LZ4  SE IS       14 3 36.29                             178   -0.3110 0.28 110 
 LZ4  SZ  AML     14 3 36.66       130.6 0.20                          0.28 110 
                                                                                
