 2010  813 1352  4.3 L  21.351 -99.282 10.0  RAL  1 0.1 1.0LRAL                1
 GAP=360        0.54      24.3    14.9  0.0 -0.3633E+03  0.3877E+01 -0.8179E+00E
 ACTION:UPD 13-02-28 14:29 OP:RALL STATUS:               ID:20100813135204     I
 2010-08-13-1351-56S.PLUR1_003                                                 6
 STAT SP IPHASW D HRMM SECON CODA AMPLIT PERI AZIMU VELO AIN AR TRES W  DIS CAZ7
 LZ4  SZ E        1352  6.53                  330.2 21.9      0        2.56 150 
 LZ4  SN IP       1352  6.53                             166    0.3110 2.56 150 
 LZ4  SE IS       1352  7.29                             166   -0.3110 2.56 150 
 LZ4  SZ  AML     1352  7.60        56.4 0.12                          2.56 150 
                                                                                
