 2010  813 1458  7.0 L  21.380 -99.323 10.0  RAL  1 0.0 0.1LRAL                1
 GAP=360        0.33      23.8     5.0  0.0 -0.1188E+03  0.3877E+01 -0.8179E+00E
 ACTION:UPD 13-02-28 14:29 OP:RALL STATUS:               ID:20100813145807     I
 2010-08-13-1457-58S.PLUR1_003                                                 6
 STAT SP IPHASW D HRMM SECON CODA AMPLIT PERI AZIMU VELO AIN AR TRES W  DIS CAZ7
 LT9  SZ E        1458  8.84                  168.9  7.1      0        1.72 349 
 LT9  SN IP     C 1458  8.85                             170    0.1010 1.72 349 
 LT9  SE IS       1458  9.97                             170   -0.1010 1.72 349 
 LT9  SZ  AML     1458 10.21         6.6 0.18                          1.72 349 
                                                                                
