 2010  813 1955 20.7 L  21.330 -99.413 10.0  RAL  1 0.0-0.9LRAL                1
 GAP=360        0.28       2.4     3.2  0.0  0.7740E+01  0.3877E+01 -0.8179E+00E
 ACTION:UPD 13-02-28 14:29 OP:RALL STATUS:               ID:20100813195520     I
 2010-08-13-1955-16S.PLUR1_003                                                 6
 STAT SP IPHASW D HRMM SECON CODA AMPLIT PERI AZIMU VELO AIN AR TRES W  DIS CAZ7
 LT9  SZ E        1955 23.27                  231.1 16.2      0        11.5  51 
 LT9  SZ IP       1955 23.31                             129   -0.0110 11.5  51 
 LT9  SN IP       1955 23.35                             129    0.0310 11.5  51 
 LT9  SE IS       1955 25.21                             129   -0.0110 11.5  51 
 LT9  SZ  AML     1955 25.42         0.5 0.32                          11.5  51 
                                                                                
