 2010  813 1044  7.8 L  21.291 -99.247 10.0  RAL  1 0.0 1.0LRAL                1
 GAP=360        0.31       7.8     4.4  0.0 -0.3474E+02  0.3877E+01 -0.8179E+00E
 ACTION:UPD 13-02-28 14:29 OP:RALL STATUS:               ID:20100813104407     I
 2010-08-13-1044-00S.PLUR1_003                                                 6
 STAT SP IPHASW D HRMM SECON CODA AMPLIT PERI AZIMU VELO AIN AR TRES W  DIS CAZ7
 LZ4  SN IP       1044  9.82                             154    0.0610 4.96 332 
 LZ4  SZ E        1044  9.84                  152.2 13.1      0        4.96 332 
 LZ4  SE IS       1044 11.16                             154   -0.0610 4.96 332 
 LZ4  SZ  AML     1044 11.69        49.6 0.44                          4.96 332 
                                                                                
