 2010  813 2023 50.2 L  21.352 -99.295 10.0  RAL  1 0.1 1.1LRAL                1
 GAP=360        0.41      10.2    12.5  0.0 -0.1265E+03  0.3877E+01 -0.8179E+00E
 ACTION:UPD 13-02-28 14:29 OP:RALL STATUS:               ID:20100813202350     I
 2010-08-13-2023-42S.PLUR1_003                                                 6
 STAT SP IPHASW D HRMM SECON CODA AMPLIT PERI AZIMU VELO AIN AR TRES W  DIS CAZ7
 LZ4  SN IP       2023 52.27                             161    0.1910 3.57 131 
 LZ4  SZ E        2023 52.28                  311.2 13.6      0        3.57 131 
 LZ4  SE IS       2023 53.30                             161   -0.1910 3.57 131 
 LZ4  SZ  AML     2023 53.65        64.5 0.10                          3.57 131 
                                                                                
