 2010  813 2314 42.8 L  21.305 -99.260 10.0  RAL  1 0.1 0.7LRAL                1
 GAP=360        0.39      16.3     5.9  0.0 -0.9622E+02  0.3877E+01 -0.8179E+00E
 ACTION:UPD 13-02-28 14:29 OP:RALL STATUS:               ID:20100813231442     I
 2010-08-13-2314-36S.PLUR1_003                                                 6
 STAT SP IPHASW D HRMM SECON CODA AMPLIT PERI AZIMU VELO AIN AR TRES W  DIS CAZ7
 LZ4  SN IP       2314 44.83                             164    0.1710 3.01 341 
 LZ4  SZ E        2314 44.88                  161.3 41.3      0        3.01 341 
 LZ4  SE IS       2314 45.88                             164   -0.1710 3.01 341 
 LZ4  SZ  AML     2314 46.44        26.5 0.10                          3.01 341 
                                                                                
