 2010  813 2211  2.7 L  21.337 -99.298 10.0  RAL  1 0.1 0.7LRAL                1
 GAP=360        0.36       3.8    16.9  0.0 -0.6444E+02  0.3877E+01 -0.8179E+00E
 ACTION:UPD 13-02-28 14:29 OP:RALL STATUS:               ID:20100813221102     I
 2010-08-13-2210-55S.PLUR1_003                                                 6
 STAT SP IPHASW D HRMM SECON CODA AMPLIT PERI AZIMU VELO AIN AR TRES W  DIS CAZ7
 LZ4  SZ E        2211  4.74                  283.5 18.7      0        2.99 104 
 LZ4  SN IP       2211  4.74                             164    0.1410 2.99 104 
 LZ4  SE IS       2211  5.84                             164   -0.1410 2.99 104 
 LZ4  SZ  AML     2211  6.24        30.4 0.26                          2.99 104 
                                                                                
