 2010  814 1555 28.2 L  21.643 -99.350 10.0  RAL  1 0.0 1.6LRAL                1
 GAP=360        0.30       4.0     1.1  0.0 -0.4151E+01  0.3877E+01 -0.8179E+00E
 ACTION:UPD 13-02-28 14:29 OP:RALL STATUS:               ID:20100814155528     I
 2010-08-14-1555-22S.PLUR1_003                                                 6
 STAT SP IPHASW D HRMM SECON CODA AMPLIT PERI AZIMU VELO AIN AR TRES W  DIS CAZ7
 LA4  SN IP       1555 31.74                             116    0.0310 18.1 167 
 LA4  SZ E        1555 31.75                  346.6  8.2      0        18.1 167 
 LA4  SE IS       1555 34.25                             116   -0.0310 18.1 167 
 LA4  SZ  AML     1555 34.72       107.6 0.30                          18.1 167 
                                                                                
