 2010  814 1204 34.0 L  21.337 -99.301 10.0  RAL  1 0.0-0.4LRAL                1
 GAP=360        0.30       6.0     2.6  0.0 -0.1555E+02  0.3877E+01 -0.8179E+00E
 ACTION:UPD 13-02-28 14:29 OP:RALL STATUS:               ID:20100814120434     I
 2010-08-14-1204-27S.PLUR1_003                                                 6
 STAT SP IPHASW D HRMM SECON CODA AMPLIT PERI AZIMU VELO AIN AR TRES W  DIS CAZ7
 LT9  SN IP       12 4 36.11                             145    0.0210 6.94 338 
 LT9  SZ E        12 4 36.15                  157.8  8.3      0        6.94 338 
 LT9  SE IS       12 4 37.61                             145   -0.0210 6.94 338 
 LT9  SZ  AML     12 4 37.89         1.8 0.30                          6.94 338 
                                                                                
