 2010  814 1042  4.7 L  21.381 -99.325 10.0  RAL  1 0.0 0.2LRAL                1
 GAP=360        0.31     278.1   999.9  0.0  0.8017E+06  0.3877E+01 -0.8179E+00E
 ACTION:UPD 13-02-28 14:29 OP:RALL STATUS:               ID:20100814104204     I
 2010-08-14-1041-57S.PLUR1_006                                                 6
 STAT SP IPHASW D HRMM SECON CODA AMPLIT PERI AZIMU VELO AIN AR TRES W  DIS CAZ7
 LT9  SN IP       1042  6.51                             171    0.0510 1.60 354 
 LT9  SZ E        1042  6.52                  173.6  9.2      0        1.60 354 
 LT9  SE IS       1042  7.71                             171   -0.0510 1.60 354 
 LT9  SZ  AML     1042  7.92         8.9 0.34                          1.60 354 
                                                                                
