 2010  815 0716 20.8 L  21.268 -99.097 10.5  RAL  3 1.4 1.8LRAL                1
 GAP=268       18.69      28.8    35.2255.9  0.2748E+03 -0.1373E+04 -0.2559E+04E
 ACTION:UPD 13-02-28 14:29 OP:RALL STATUS:               ID:20100815071620     I
 2010-08-15-0716-14S.PLUR1_012                                                 6
 STAT SP IPHASW D HRMM SECON CODA AMPLIT PERI AZIMU VELO AIN AR TRES W  DIS CAZ7
 LO8  SN IP        716 26.93                             120    2.6910 17.0 225 
 LO8  SZ E         716 27.03                  141.5  7.3     97        17.0 225 
 LO8  SE IS        716 30.44                             120    3.7010 17.0 225 
 LO8  SZ  AML      716 30.94        31.7 0.10                          17.0 225 
 LT9  SN IP        716 24.70                             107   -1.0010 27.6 301 
 LT9  SZ E         716 24.71                  154.8  7.7     34        27.6 301 
 LT9  SE IS        716 25.93                             107   -3.3310 27.6 301 
 LT9  SZ  AML      716 26.24       170.9 0.38                          27.6 301 
 LA4  SN IP        716 26.18                             104   -0.2710 32.4 317 
 LA4  SZ E         716 26.23                  153.4  8.1     16        32.4 317 
 LA4  SE IS        716 28.78                             104   -1.7910 32.4 317 
 LA4  SZ  AML      716 29.25       473.6 0.28                          32.4 317 
                                                                                
