 2010  815 1115 31.9 L  21.360 -99.301 10.0  RAL  1 0.0-0.5LRAL                1
 GAP=360        0.32       7.8     5.7  0.0 -0.4474E+02 -0.1373E+04 -0.2559E+04E
 ACTION:UPD 13-02-28 14:29 OP:RALL STATUS:               ID:20100815111531     I
 2010-08-15-1115-25S.PLUR1_003                                                 6
 STAT SP IPHASW D HRMM SECON CODA AMPLIT PERI AZIMU VELO AIN AR TRES W  DIS CAZ7
 LT9  SZ E        1115 33.93                  145.8 11.1      0        4.67 326 
 LT9  SN IP       1115 33.97                             155    0.0910 4.67 326 
 LT9  SE IS       1115 35.21                             155   -0.0910 4.67 326 
 LT9  SZ  AML     1115 35.27         1.6 0.10                          4.67 326 
                                                                                
