 2010  815 1215 22.3 L  21.360 -99.301 10.0  RAL  1 0.0 0.1LRAL                1
 GAP=360        0.32       7.8     5.6  0.0 -0.4350E+02 -0.1373E+04 -0.2559E+04E
 ACTION:UPD 13-02-28 14:29 OP:RALL STATUS:               ID:20100815121522     I
 2010-08-15-1215-15S.PLUR1_006                                                 6
 STAT SP IPHASW D HRMM SECON CODA AMPLIT PERI AZIMU VELO AIN AR TRES W  DIS CAZ7
 LT9  SN IP       1215 24.31                             155    0.0810 4.69 326 
 LT9  SZ E        1215 24.32                  146.2  7.2      0        4.69 326 
 LT9  SE IS       1215 25.56                             155   -0.0810 4.69 326 
 LT9  SZ  AML     1215 25.63         7.1 0.10                          4.69 326 
                                                                                
