 2010  815 1918  4.6 L  21.361 -99.308 10.0  RAL  1 0.0-0.4LRAL                1
 GAP=360        0.32       9.1     4.9  0.0 -0.4479E+02 -0.1373E+04 -0.2559E+04E
 ACTION:UPD 13-02-28 14:29 OP:RALL STATUS:               ID:20100815191804     I
 2010-08-15-1917-57S.PLUR1_003                                                 6
 STAT SP IPHASW D HRMM SECON CODA AMPLIT PERI AZIMU VELO AIN AR TRES W  DIS CAZ7
 LT9  SZ E        1918  6.57                  153.1  9.8      0        4.25 333 
 LT9  SN IP       1918  6.57                             157    0.0810 4.25 333 
 LT9  SE IS       1918  7.80                             157   -0.0810 4.25 333 
 LT9  SZ  AML     1918  7.86         2.0 0.10                          4.25 333 
                                                                                
