 2010  815 2356  7.0 L  21.156 -99.210 40.4  RAL  2 1.0 0.8LRAL                1
 GAP=346        5.32      10.9    18.5133.6  0.1002E+03 -0.6968E+03 -0.5483E+03E
 ACTION:UPD 13-02-28 14:29 OP:RALL STATUS:               ID:20100815235607     I
 2010-08-15-2356-04S.PLUR1_009                                                 6
 STAT SP IPHASW D HRMM SECON CODA AMPLIT PERI AZIMU VELO AIN AR TRES W  DIS CAZ7
 LO8  SZ E        2356 15.81                  142.4  7.0      1        0.47 322 
 LO8  SN IP       2356 16.06                             109    2.8810 0.47 322 
 LO8  SE IS       2356 19.09                             109    1.4010 0.47 322 
 LO8  SZ  AML     2356 19.31         5.2 0.18                          0.47 322 
 LT9  SN IP       2356 14.19                             100   -0.2110 29.1 336 
 LT9  SZ E        2356 14.20                  153.0  7.6     -1        29.1 336 
 LT9  SE IS       2356 15.73                             100   -4.0710 29.1 336 
 LT9  SZ  AML     2356 16.25        11.6 0.14                          29.1 336 
                                                                                
