 2010  816 0819  3.3 L  21.223 -99.234  0.0  RAL  2 0.3 0.8LRAL                1
 GAP=348        3.85      53.2    24.5999.9 -0.1251E+04 -0.3554E+05  0.7984E+05E
 ACTION:UPD 13-02-28 14:29 OP:RALL STATUS:               ID:20100816081903     I
 2010-08-16-0818-58S.PLUR1_009                                                 6
 STAT SP IPHASW D HRMM SECON CODA AMPLIT PERI AZIMU VELO AIN AR TRES W  DIS CAZ7
 LT9  SZ E         819  7.74                  162.8 10.0      9        21.4 333 
 LT9  SN IP        819  7.74                              92    0.7110 21.4 333 
 LT9  SE IS        819  8.80                              92   -0.9610 21.4 333 
 LT9  SZ  AML      819  9.18         6.2 0.28                          21.4 333 
 LA4  SN IP        819  9.19                              92    0.6710 29.9 345 
 LA4  SZ E         819  9.34                  150.3  7.1    -14        29.9 345 
 LA4  SE IS        819 11.93                              92   -0.4210 29.9 345 
 LA4  SZ  AML      819 12.26        28.8 0.36                          29.9 345 
                                                                                
