 2010  816 1449 52.4 L  21.246 -99.062 13.1  RAL  3 1.5 0.7LRAL                1
 GAP=298       21.65      26.2    60.7256.2  0.3604E+03 -0.3320E+04 -0.1138E+04E
 ACTION:UPD 13-02-28 14:29 OP:RALL STATUS:               ID:20100816144952     I
 2010-08-16-1449-47S.PLUR1_009                                                 6
 STAT SP IPHASW D HRMM SECON CODA AMPLIT PERI AZIMU VELO AIN AR TRES W  DIS CAZ7
 LO8  SN IP       1449 58.61                             125    2.3710 18.4 239 
 LO8  SZ E        1449 58.67                  137.7  5.9     79        18.4 239 
 LO8  SE IS       1450  2.29                             125    3.2610 18.4 239 
 LO8  SZ  AML     1450  2.98         2.7 0.22                          18.4 239 
 LG3  SZ E        1449 56.85                   28.8 17.4    -69        20.1 279 
 LG3  SN IP       1449 56.89                             122    0.4610 20.1 279 
 LG3  SE IS       1449 58.29                             122   -1.0710 20.1 279 
 LG3  SZ  AML     1449 59.57        88.7 0.18                          20.1 279 
 LT9  SN IP       1449 56.89                             109   -1.1710 32.0 301 
 LT9  SZ E        1449 56.94                  180.7  8.5     60        32.0 301 
 LT9  SE IS       1449 58.34                             109   -3.8510 32.0 301 
 LT9  SZ  AML     1449 59.71         5.6 0.16                          32.0 301 
                                                                                
