 2010  817 2159 35.2 L  21.603 -99.312 10.0  RAL  1 0.0 1.2LRAL                1
 GAP=360        0.30       4.6     0.4  0.0 -0.5038E+00 -0.3320E+04 -0.1138E+04E
 ACTION:UPD 13-02-28 14:29 OP:RALL STATUS:               ID:20100817215935     I
 2010-08-17-2159-30S.PLUR1_003                                                 6
 STAT SP IPHASW D HRMM SECON CODA AMPLIT PERI AZIMU VELO AIN AR TRES W  DIS CAZ7
 LA4  SZ E        2159 38.03                  358.7  7.1      0        13.2 179 
 LA4  SN IP     D 2159 38.08                             126    0.0010 13.2 179 
 LA4  SE IS     D 2159 40.17                             126    0.0010 13.2 179 
 LA4  SZ  AML     2159 40.30        50.9 0.10                          13.2 179 
                                                                                
