 2010  817 2014 30.8 L  21.363 -99.313 10.0  RAL  1 0.0 0.0LRAL                1
 GAP=360        0.31      10.1     4.2  0.0 -0.4234E+02 -0.3320E+04 -0.1138E+04E
 ACTION:UPD 13-02-28 14:29 OP:RALL STATUS:               ID:20100817201430     I
 2010-08-17-2014-24S.PLUR1_003                                                 6
 STAT SP IPHASW D HRMM SECON CODA AMPLIT PERI AZIMU VELO AIN AR TRES W  DIS CAZ7
 LT9  SZ E        2014 32.75                  158.7  8.2      0        3.87 339 
 LT9  SN IP     C 2014 32.78                             159    0.0710 3.87 339 
 LT9  SE IS       2014 34.02                             159   -0.0710 3.87 339 
 LT9  SZ  AML     2014 34.16         5.7 0.28                          3.87 339 
                                                                                
