 2010  818 0228 18.8 L  21.155 -99.207 13.3  RAL  2 0.7 0.8LRAL                1
 GAP=337        7.18       7.0    18.3 49.9  0.1151E+03  0.2315E+02  0.3789E+00E
 ACTION:UPD 13-02-28 14:29 OP:RALL STATUS:               ID:20100818022818     I
 2010-08-18-0228-12S.PLUR1_009                                                 6
 STAT SP IPHASW D HRMM SECON CODA AMPLIT PERI AZIMU VELO AIN AR TRES W  DIS CAZ7
 LO8  SZ E         228 22.04                  116.3  8.7    -15        0.82 312 
 LO8  SN IP     D  228 22.07                             179    0.8710 0.82 312 
 LO8  SE IS        228 25.10                             179    2.1410 0.82 312 
 LO8  SZ  AML      228 27.60        22.7 0.50                          0.82 312 
 LT9  SN IP        228 22.78                             117   -1.3010 29.4 335 
 LT9  SZ E         228 22.80                  182.2  9.0     27        29.4 335 
 LT9  SE IS        228 26.22                             117   -1.7110 29.4 335 
 LT9  SZ  AML      228 27.13        14.9 0.52                          29.4 335 
                                                                                
