 2010  818 0646 58.8 L  21.312 -99.279 10.0  RAL  1 0.0-0.3LRAL                1
 GAP=360        0.30       4.4     2.5  0.0 -0.1124E+02  0.2315E+02  0.3789E+00E
 ACTION:UPD 13-02-28 14:29 OP:RALL STATUS:               ID:20100818064658     I
 2010-08-18-0646-50S.PLUR1_009                                                 6
 STAT SP IPHASW D HRMM SECON CODA AMPLIT PERI AZIMU VELO AIN AR TRES W  DIS CAZ7
 LT9  SN IP        647  1.34                             132    0.0210 10.4 332 
 LT9  SZ E         647  1.35                  152.0  9.0      0        10.4 332 
 LT9  SE IS        647  3.10                             132   -0.0210 10.4 332 
 LT9  SZ  AML      647  3.55         2.1 0.14                          10.4 332 
                                                                                
