 2010  818 2000 49.9 L  21.339 -99.290 10.0  RAL  1 0.0-0.3LRAL                1
 GAP=360        0.30       5.3     3.5  0.0 -0.1827E+02  0.2315E+02  0.3789E+00E
 ACTION:UPD 13-02-28 14:29 OP:RALL STATUS:               ID:20100818200049     I
 2010-08-18-2000-43S.PLUR1_006                                                 6
 STAT SP IPHASW D HRMM SECON CODA AMPLIT PERI AZIMU VELO AIN AR TRES W  DIS CAZ7
 LT9  SN IP     D 20 0 52.05                             143    0.0210 7.31 329 
 LT9  SZ E        20 0 52.10                  148.8  8.8      0        7.31 329 
 LT9  SE IS       20 0 53.58                             143   -0.0210 7.31 329 
 LT9  SZ  AML     20 0 54.12         2.1 0.18                          7.31 329 
                                                                                
