 2010  819 0523 13.6 L  21.282 -99.268 10.0  RAL  1 0.1 0.6LRAL                1
 GAP=360        0.58      17.4    41.3  0.0 -0.7194E+03  0.1535E+01 -0.3493E+01E
 ACTION:UPD 13-02-28 14:29 OP:RALL STATUS:               ID:20100819052313     I
 2010-08-19-0523-06S.PLUR1_003                                                 6
 STAT SP IPHASW D HRMM SECON CODA AMPLIT PERI AZIMU VELO AIN AR TRES W  DIS CAZ7
 LG3  SZ E         523 15.84                  294.4 14.4      0        1.80 114 
 LG3  SN IP        523 15.85                             170    0.3310 1.80 114 
 LG3  SE IS        523 16.55                             170   -0.3310 1.80 114 
 LG3  SZ  AML      523 17.12        20.1 0.10                          1.80 114 
                                                                                
