 2010  819 0953 31.1 L  21.358 -99.318 10.0  RAL  1 0.0-0.6LRAL                1
 GAP=360        0.30       9.2     2.1  0.0 -0.1930E+02 -0.8338E+04 -0.1529E+03E
 ACTION:UPD 13-02-28 14:29 OP:RALL STATUS:               ID:20100819095331     I
 2010-08-19-0953-24S.PLUR1_006                                                 6
 STAT SP IPHASW D HRMM SECON CODA AMPLIT PERI AZIMU VELO AIN AR TRES W  DIS CAZ7
 LT9  SN IP        953 33.06                             157    0.0310 4.28 348 
 LT9  SZ E         953 33.10                  168.1  7.7      0        4.28 348 
 LT9  SE IS        953 34.40                             157   -0.0310 4.28 348 
 LT9  SZ  AML      953 34.51         1.4 0.12                          4.28 348 
                                                                                
