 2010  819 0435 45.3 L  21.157 -99.210 38.3  RAL  3 0.9 1.5LRAL                1
 GAP=321        5.29       3.7    11.1 47.6  0.2780E+02  0.1535E+01 -0.3493E+01E
 ACTION:UPD 13-02-28 14:29 OP:RALL STATUS:               ID:20100819043545     I
 2010-08-19-0435-42S.PLUR1_012                                                 6
 STAT SP IPHASW D HRMM SECON CODA AMPLIT PERI AZIMU VELO AIN AR TRES W  DIS CAZ7
 LO8  SN IP        435 54.33                             179    3.0810 0.43 305 
 LO8  SZ E         435 54.42                  122.6  5.9     -1        0.43 305 
 LO8  SE IS        435 57.13                             179    1.5710 0.43 305 
 LO8  SZ  AML      435 59.77        13.7 0.28                          0.43 305 
 LT9  SN IP        435 52.61                             135    0.0810 29.0 335 
 LT9  SZ E         435 52.62                  163.6  8.2      8        29.0 335 
 LT9  SE IS        435 54.25                             135   -3.5410 29.0 335 
 LT9  SZ  AML      435 55.04        37.1 0.30                          29.0 335 
 LA4  SN IP     C  435 54.21                             125    0.8210 37.6 344 
 LA4  SZ E         435 54.26                  152.6  6.5    -10        37.6 344 
 LA4  SE IS        435 57.27                             125   -2.0010 37.6 344 
 LA4  SZ  AML      435 57.89       121.3 0.30                          37.6 344 
                                                                                
