 2010  819 0440 42.6 L  21.352 -99.321 10.0  RAL  1 0.0-0.3LRAL                1
 GAP=360        0.30       8.5     1.1  0.0 -0.9591E+01  0.1535E+01 -0.3493E+01E
 ACTION:UPD 13-02-28 14:29 OP:RALL STATUS:               ID:20100819044042     I
 2010-08-19-0440-34S.PLUR1_006                                                 6
 STAT SP IPHASW D HRMM SECON CODA AMPLIT PERI AZIMU VELO AIN AR TRES W  DIS CAZ7
 LT9  SZ E         440 44.44                  172.9  8.8      0        4.80 353 
 LT9  SN IP        440 44.55                             154    0.0210 4.80 353 
 LT9  SE IS        440 45.93                             154   -0.0210 4.80 353 
 LT9  SZ  AML      440 47.04         2.4 0.16                          4.80 353 
                                                                                
