 2010  819 0554 26.8 L  21.180 -98.919 14.3  RAL  3 1.3 2.1LRAL                1
 GAP=316       13.15      28.8    75.6254.5 -0.6546E+03 -0.8338E+04 -0.1529E+03E
 ACTION:UPD 13-02-28 14:29 OP:RALL STATUS:               ID:20100819055426     I
 2010-08-19-0554-24S.PLUR1_012                                                 6
 STAT SP IPHASW D HRMM SECON CODA AMPLIT PERI AZIMU VELO AIN AR TRES W  DIS CAZ7
 LO8  SZ E         554 36.37                  131.8  5.9     46        30.7 266 
 LO8  SN IP        554 36.42                             113    3.9810 30.7 266 
 LO8  SE IS        554 39.61                             113    3.0910 30.7 266 
 LO8  SZ  AML      554 42.43        85.9 0.48                          30.7 266 
 LT9  SZ E         554 34.63                  160.9  7.0     42        48.6 299 
 LT9  SN IP        554 34.66                             104   -0.3610 48.6 299 
 LT9  SE IS        554 36.56                             104   -4.4310 48.6 299 
 LT9  SZ  AML      554 37.03       142.3 0.56                          48.6 299 
 LA4  SZ E         554 36.25                  153.4  7.5     24        52.6 310 
 LA4  SN IP        554 36.29                             103    0.6210 52.6 310 
 LA4  SE IS        554 39.21                             103   -2.9010 52.6 310 
 LA4  SZ  AML      554 43.16       514.3 0.48                          52.6 310 
                                                                                
