 2010  819 1016  0.7 L  21.111 -99.211 50.7  RAL  2 1.4 0.6LRAL                1
 GAP=341       10.41      52.8    93.8198.1 -0.4221E+04 -0.9257E+04  0.4309E+04E
 ACTION:UPD 13-02-28 14:29 OP:RALL STATUS:               ID:20100819101600     I
 2010-08-19-1015-59S.PLUR1_009                                                 6
 STAT SP IPHASW D HRMM SECON CODA AMPLIT PERI AZIMU VELO AIN AR TRES W  DIS CAZ7
 LO8  SZ E        1016 11.79                  140.1  7.8    -37        5.37 358 
 LO8  SN IP       1016 11.94                             117    3.7610 5.37 358 
 LO8  SE IS       1016 15.30                             117    1.6710 5.37 358 
 LO8  SZ  AML     1016 15.63         3.5 0.20                          5.37 358 
 LT9  SZ E        1016  9.32                  161.9  8.2      3        33.6 339 
 LT9  SN IP       1016  9.32                             104   -0.1110 33.6 339 
 LT9  SE IS       1016 10.46                             104   -5.3210 33.6 339 
 LT9  SZ  AML     1016 10.73         6.1 0.38                          33.6 339 
                                                                                
