 2010  819 2224 15.1 L  21.388 -99.326 10.0  RAL  1 0.0-0.5LRAL                1
 GAP=360        0.31      48.5     4.6  0.0 -0.2240E+03 -0.9257E+04  0.4309E+04E
 ACTION:UPD 13-02-28 14:29 OP:RALL STATUS:               ID:20100819222415     I
 2010-08-19-2224-08S.PLUR1_003                                                 6
 STAT SP IPHASW D HRMM SECON CODA AMPLIT PERI AZIMU VELO AIN AR TRES W  DIS CAZ7
 LT9  SN IP       2224 16.96                             175    0.0610 0.81 355 
 LT9  SZ E        2224 17.03                  175.1  9.6      0        0.81 355 
 LT9  SE IS       2224 18.14                             175   -0.0610 0.81 355 
 LT9  SZ  AML     2224 18.23         1.6 0.10                          0.81 355 
                                                                                
