 2010  821  420 12.6 L                       RAL  1                            1
 ACTION:UPD 13-02-28 14:29 OP:RALL STATUS:               ID:20100821042012     I
 2010-08-21-0420-12S.PLUR1_003                                                 6
 STAT SP IPHASW D HRMM SECON CODA AMPLIT PERI AZIMU VELO AIN AR TRES W  DIS CAZ7
 LT9  SN IP     D  420 21.29                                                    
 LT9  SZ E         420 21.31                                                    
 LT9  SE IS     D  420 22.49                                                    
 LT9  SZ  AML      420 22.58         1.6 0.38                                   
                                                                                
