 2010  821 1100  3.8 L  21.271 -99.237 10.0  RAL  2 0.3-0.1LRAL                1
 GAP=203        4.49      11.1     5.7 70.0 -0.3940E+02  0.1099E+03 -0.3028E+03E
 ACTION:UPD 13-02-28 14:29 OP:RALL STATUS:               ID:20100821110003     I
 2010-08-21-1059-54S.PLUR1_009                                                 6
 STAT SP IPHASW D HRMM SECON CODA AMPLIT PERI AZIMU VELO AIN AR TRES W  DIS CAZ7
 LO8  SN IP       11 0  6.52                             128   -0.1110 12.6 169 
 LO8  SZ E        11 0  6.61                    0.4 11.2     12        12.6 169 
 LO8  SE IS       11 0  9.54                             128    0.8610 12.6 169 
 LO8  SZ  AML     11 0 10.29         2.3 0.18                          12.6 169 
 LT9  SZ E        11 0  6.67                  163.8  9.8     18        16.6 326 
 LT9  SN IP       11 0  6.69                             118   -0.3910 16.6 326 
 LT9  SE IS       11 0  9.10                             118   -0.3610 16.6 326 
 LT9  SZ  AML     11 0  9.27         2.6 0.26                          16.6 326 
                                                                                
