 2010  821 1852 34.6 L  21.157 -99.210 39.6  RAL  2 0.9 0.5LRAL                1
 GAP=338        5.60      21.2    24.0 63.1 -0.5068E+03  0.2641E+03 -0.2341E+03E
 ACTION:UPD 13-02-28 14:29 OP:RALL STATUS:               ID:20100821185234     I
 2010-08-21-1852-31S.PLUR1_009                                                 6
 STAT SP IPHASW D HRMM SECON CODA AMPLIT PERI AZIMU VELO AIN AR TRES W  DIS CAZ7
 LO8  SZ E        1852 43.03                  136.5  7.8      3        0.49 313 
 LO8  SN IP       1852 43.18                             179    2.5610 0.49 313 
 LO8  SE IS       1852 46.14                             179    1.0910 0.49 313 
 LO8  SZ  AML     1852 47.08         3.6 0.16                          0.49 313 
 LT9  SN IP     D 1852 41.75                             136   -0.1210 29.1 335 
 LT9  SZ E        1852 41.81                  170.8 10.3     15        29.1 335 
 LT9  SE IS       1852 43.69                             136   -3.5210 29.1 335 
 LT9  SZ  AML     1852 43.90         6.3 0.12                          29.1 335 
                                                                                
