 2010  821 1057 38.1 L  21.328 -99.299 10.0  RAL  1 0.0-0.8LRAL                1
 GAP=360        0.30       5.5     2.2  0.0 -0.1210E+02 -0.9257E+04  0.4309E+04E
 ACTION:UPD 13-02-28 14:29 OP:RALL STATUS:               ID:20100821105738     I
 2010-08-21-1057-32S.PLUR1_003                                                 6
 STAT SP IPHASW D HRMM SECON CODA AMPLIT PERI AZIMU VELO AIN AR TRES W  DIS CAZ7
 LT9  SZ E        1057 40.31                  159.3  8.1      0        7.97 339 
 LT9  SN IP       1057 40.35                             141    0.0110 7.97 339 
 LT9  SE IS       1057 41.94                             141   -0.0110 7.97 339 
 LT9  SZ  AML     1057 42.05         0.7 0.10                          7.97 339 
                                                                                
