 2010  822 0814 31.1 L  21.362 -99.319  9.0  RAL  1 0.0-0.2LRAL                1
 GAP=360        0.29       9.0     1.9  0.0 -0.1705E+02  0.1245E-01 -0.2197E-01E
 ACTION:UPD 13-02-28 14:29 OP:RALL STATUS:               ID:20100822081431     I
 2010-08-22-0814-24S.PLUR1_006                                                 6
 STAT SP IPHASW D HRMM SECON CODA AMPLIT PERI AZIMU VELO AIN AR TRES W  DIS CAZ7
 LT9  SZ E         814 32.82                  168.7  9.3      0        3.77 349 
 LT9  SN IP        814 32.87                             157   -0.0110 3.77 349 
 LT9  SE E         814 32.89                  169.3  9.5      0        3.77 349 
 LT9  SN IS        814 34.15                             157    0.0110 3.77 349 
 LT9  SE  AML      814 34.16         3.9 0.16                          3.77 349 
 LT9  SZ  AML      814 34.27         3.3 0.32                          3.77 349 
                                                                                
