 2010  822 1922 47.3 L  21.156 -99.212 36.7  RAL  2 0.7 0.2LRAL                1
 GAP=355        4.82       4.9    12.1 35.3  0.5410E+02  0.4902E+01 -0.1027E+01E
 ACTION:UPD 13-02-28 14:29 OP:RALL STATUS:               ID:20100822192247     I
 2010-08-22-1922-43S.PLUR1_009                                                 6
 STAT SP IPHASW D HRMM SECON CODA AMPLIT PERI AZIMU VELO AIN AR TRES W  DIS CAZ7
 LO8  SN IP       1922 55.10                             179    2.1210 0.45 340 
 LO8  SZ E        1922 55.11                  162.7  7.7      2        0.45 340 
 LO8  SE IS       1922 57.49                             179    0.3410 0.45 340 
 LO8  SZ  AML     1922 58.29         2.0 0.20                          0.45 340 
 LT9  SN IP       1922 54.51                             121    0.1810 29.1 336 
 LT9  SZ E        1922 54.64                  139.7  8.5    -15        29.1 336 
 LT9  SE IS       1922 56.84                             121   -2.6510 29.1 336 
 LT9  SZ  AML     1922 57.28         2.5 0.24                          29.1 336 
                                                                                
