 2010  822 2336 46.3 L  21.412 -99.344 10.0  RAL  1 0.2-0.3LRAL                1
 GAP=360        0.76      27.3    29.4  0.0 -0.8005E+03  0.4902E+01 -0.1027E+01E
 ACTION:UPD 13-02-28 14:29 OP:RALL STATUS:               ID:20100822233646     I
 2010-08-22-2336-39S.PLUR1_006                                                 6
 STAT SP IPHASW D HRMM SECON CODA AMPLIT PERI AZIMU VELO AIN AR TRES W  DIS CAZ7
 LT9  SZ E        2336 48.61                  314.9  5.9      0        2.55 135 
 LT9  SN IP       2336 48.61                             166    0.4810 2.55 135 
 LT9  SE IS       2336 48.99                             166   -0.4810 2.55 135 
 LT9  SZ  AML     2336 49.13         2.7 0.18                          2.55 135 
                                                                                
