 2010  823 0541 50.3 L  21.346 -99.302 10.0  RAL  1 0.0-0.4LRAL                1
 GAP=360        0.30       6.5     3.2  0.0 -0.2101E+02  0.4902E+01 -0.1027E+01E
 ACTION:UPD 13-02-28 14:29 OP:RALL STATUS:               ID:20100823054150     I
 2010-08-23-0541-44S.PLUR1_003                                                 6
 STAT SP IPHASW D HRMM SECON CODA AMPLIT PERI AZIMU VELO AIN AR TRES W  DIS CAZ7
 LT9  SZ E         541 52.34                  155.4  8.7      0        5.99 335 
 LT9  SN IP        541 52.36                             149    0.0310 5.99 335 
 LT9  SE IS        541 53.79                             149   -0.0310 5.99 335 
 LT9  SZ  AML      541 54.74         2.1 0.48                          5.99 335 
                                                                                
