 2010  823 0720 42.2 L  21.159 -99.213 24.1  RAL  2 0.4 0.6LRAL                1
 GAP=350        2.05       2.0     5.2 17.0  0.9133E+01  0.1445E+01 -0.8991E-01E
 ACTION:UPD 13-02-28 14:29 OP:RALL STATUS:               ID:20100823072042     I
 2010-08-23-0720-36S.PLUR1_009                                                 6
 STAT SP IPHASW D HRMM SECON CODA AMPLIT PERI AZIMU VELO AIN AR TRES W  DIS CAZ7
 LO8  SZ E         720 47.32                  149.2  6.4      4        0.05 325 
 LO8  SN IP        720 47.36                             180    1.1410 0.05 325 
 LO8  SE IS        720 49.29                             180    0.1210 0.05 325 
 LO8  SZ  AML      720 49.31        12.6 0.34                          0.05 325 
 LT9  SZ E         720 48.35                  154.1  8.9     -1        28.7 336 
 LT9  SN IP        720 48.35                             126    0.1810 28.7 336 
 LT9  SE IS        720 51.11                             126   -1.4310 28.7 336 
 LT9  SZ  AML      720 51.54         5.0 0.34                          28.7 336 
                                                                                
