 2010  823 1815 58.3 L  21.503 -99.330 10.0  RAL  1 0.1 0.3LRAL                1
 GAP=360        0.61      18.7    20.8  0.0 -0.3891E+03 -0.3359E+02 -0.4749E+02E
 ACTION:UPD 13-02-28 14:29 OP:RALL STATUS:               ID:20100823181558     I
 2010-08-23-1815-51S.PLUR1_003                                                 6
 STAT SP IPHASW D HRMM SECON CODA AMPLIT PERI AZIMU VELO AIN AR TRES W  DIS CAZ7
 LA4  SN IP       1816  0.61                             163    0.3610 3.08 134 
 LA4  SZ E        1816  0.67                  314.0  9.4      0        3.08 134 
 LA4  SE IS       1816  1.28                             163   -0.3610 3.08 134 
 LA4  SZ  AML     1816  1.43        11.0 0.22                          3.08 134 
                                                                                
