 2010  823 1713 54.5 L  21.181 -99.198 23.7  RAL  2 0.4 0.1LRAL                1
 GAP=243        4.24       9.7     7.0 36.6  0.6673E+02 -0.3359E+02 -0.4749E+02E
 ACTION:UPD 13-02-28 14:29 OP:RALL STATUS:               ID:20100823171354     I
 2010-08-23-1713-48S.PLUR1_009                                                 6
 STAT SP IPHASW D HRMM SECON CODA AMPLIT PERI AZIMU VELO AIN AR TRES W  DIS CAZ7
 LO8  SN IP       1713 59.71                             177    1.2110 2.82 214 
 LO8  SZ E        1714  0.09                   34.3 15.0      1        2.82 214 
 LO8  SE IS       1714  1.68                             177    0.2510 2.82 214 
 LO8  SZ  AML     1714  3.06         2.5 0.28                          2.82 214 
 LT9  SN IP       1714  0.36                             128    0.0810 27.2 331 
 LT9  SZ E        1714  0.43                  168.9 11.0     18        27.2 331 
 LT9  SE IS       1714  2.96                             128   -1.5410 27.2 331 
 LT9  SZ  AML     1714  3.60         2.4 0.36                          27.2 331 
                                                                                
