 2010  823 1638 29.5 L  21.334 -99.289 10.0  RAL  1 0.0-0.3LRAL                1
 GAP=360        0.30       5.2     3.2  0.0 -0.1635E+02  0.1445E+01 -0.8991E-01E
 ACTION:UPD 13-02-28 14:29 OP:RALL STATUS:               ID:20100823163829     I
 2010-08-23-1638-23S.PLUR1_003                                                 6
 STAT SP IPHASW D HRMM SECON CODA AMPLIT PERI AZIMU VELO AIN AR TRES W  DIS CAZ7
 LT9  SZ E        1638 31.70                  150.6 10.9      0        7.78 331 
 LT9  SN IP       1638 31.72                             141    0.0210 7.78 331 
 LT9  SE IS       1638 33.27                             141   -0.0210 7.78 331 
 LT9  SZ  AML     1638 33.39         2.3 0.30                          7.78 331 
                                                                                
