 2010  824 0452 37.7 L  21.512 -99.318 10.0  RAL  1 0.0 0.1LRAL                1
 GAP=360        0.33      12.9     4.3  0.0 -0.5580E+02 -0.3359E+02 -0.4749E+02E
 ACTION:UPD 13-02-28 14:29 OP:RALL STATUS:               ID:20100824045237     I
 2010-08-24-0452-31S.PLUR1_003                                                 6
 STAT SP IPHASW D HRMM SECON CODA AMPLIT PERI AZIMU VELO AIN AR TRES W  DIS CAZ7
 LA4  SN IP        452 39.75                             163    0.0910 3.26 163 
 LA4  SZ E         452 39.77                  342.7  9.0      0        3.26 163 
 LA4  SE IS        452 40.97                             163   -0.0910 3.26 163 
 LA4  SZ  AML      452 41.07         7.2 0.10                          3.26 163 
                                                                                
