 2010  824 2153 15.0 L  21.261 -99.268 10.0  RAL  1 0.0-0.2LRAL                1
 GAP=360        0.30       3.9     1.8  0.0 -0.6643E+01 -0.3359E+02 -0.4749E+02E
 ACTION:UPD 13-02-28 14:29 OP:RALL STATUS:               ID:20100824215315     I
 2010-08-24-2153-06S.PLUR1_006                                                 6
 STAT SP IPHASW D HRMM SECON CODA AMPLIT PERI AZIMU VELO AIN AR TRES W  DIS CAZ7
 LT9  SN IP       2153 18.22                             119    0.0010 16.1 338 
 LT9  SZ E        2153 18.27                  157.7  8.6      0        16.1 338 
 LT9  SE IS       2153 20.54                             119    0.0010 16.1 338 
 LT9  SZ  AML     2153 20.74         2.1 0.30                          16.1 338 
                                                                                
