 2010  825 0446  9.1 L  21.262 -99.267  0.0  RAL  2 0.1 1.2LRAL                1
 GAP=347        1.11      12.4     4.8345.0 -0.5612E+02 -0.1312E+04  0.3559E+04E
 ACTION:UPD 13-02-28 14:29 OP:RALL STATUS:               ID:20100825044609     I
 2010-08-25-0446-02S.PLUR1_009                                                 6
 STAT SP IPHASW D HRMM SECON CODA AMPLIT PERI AZIMU VELO AIN AR TRES W  DIS CAZ7
 LT9  SZ E         446 12.10                  159.5  8.8      2        16.0 337 
 LT9  SN IP        446 12.18                              93    0.3010 16.0 337 
 LT9  SE IS        446 13.56                              93   -0.3710 16.0 337 
 LT9  SZ  AML      446 14.09        20.1 0.54                          16.0 337 
 LA4  SZ E         446 13.64                  166.0  9.6     -3        24.9 350 
 LA4  SN IP        446 13.67                              93    0.2210 24.9 350 
 LA4  SE IS        446 16.49                              93   -0.1510 24.9 350 
 LA4  SZ  AML      446 18.19       109.7 0.58                          24.9 350 
                                                                                
