 2010  826 0103 38.6 L  21.462 -99.340 10.0  RAL  1 0.1 0.7LRAL                1
 GAP=360        0.35       7.2    10.4  0.0  0.7512E+02 -0.1312E+04  0.3559E+04E
 ACTION:UPD 13-02-28 14:29 OP:RALL STATUS:               ID:20100826010338     I
 2010-08-26-0103-32S.PLUR1_003                                                 6
 STAT SP IPHASW D HRMM SECON CODA AMPLIT PERI AZIMU VELO AIN AR TRES W  DIS CAZ7
 LA4  SN IP        1 3 40.72                             159    0.1310 4.06  53 
 LA4  SZ E         1 3 40.99                  233.4 23.3      0        4.06  53 
 LA4  SE IS        1 3 41.89                             159   -0.1310 4.06  53 
 LA4  SZ  AML      1 3 43.21        25.2 0.30                          4.06  53 
                                                                                
