 2010  826 2322 30.5 L  21.367 -99.317 10.0  RAL  1 0.0-0.4LRAL                1
 GAP=360        0.31      11.9     4.1  0.0 -0.4902E+02 -0.1312E+04  0.3559E+04E
 ACTION:UPD 13-02-28 14:29 OP:RALL STATUS:               ID:20100826232230     I
 2010-08-26-2322-23S.PLUR1_003                                                 6
 STAT SP IPHASW D HRMM SECON CODA AMPLIT PERI AZIMU VELO AIN AR TRES W  DIS CAZ7
 LT9  SN IP       2322 32.47                             162    0.0710 3.27 342 
 LT9  SZ E        2322 32.51                  162.2 10.0      0        3.27 342 
 LT9  SE IS       2322 33.69                             162   -0.0710 3.27 342 
 LT9  SZ  AML     2322 33.82         2.3 0.20                          3.27 342 
                                                                                
