 2010  826 2201 27.7 L  21.302 -99.302 10.0  RAL  1 0.0-0.4LRAL                1
 GAP=360        0.30       4.8     1.3  0.0 -0.6086E+01 -0.1312E+04  0.3559E+04E
 ACTION:UPD 13-02-28 14:29 OP:RALL STATUS:               ID:20100826220127     I
 2010-08-26-2201-20S.PLUR1_006                                                 6
 STAT SP IPHASW D HRMM SECON CODA AMPLIT PERI AZIMU VELO AIN AR TRES W  DIS CAZ7
 LT9  SZ E        22 1 30.14                  166.2  9.7      0        10.6 346 
 LT9  SN IP       22 1 30.18                             132    0.0110 10.6 346 
 LT9  SE IS       22 1 31.99                             132   -0.0110 10.6 346 
 LT9  SZ  AML     22 1 32.11         1.5 0.20                          10.6 346 
                                                                                
