 2010  827 0208 43.5 L  21.189 -99.252 10.0  RAL  1 0.0-0.1LRAL                1
 GAP=360        0.30       3.7     1.5  0.0 -0.4825E+01 -0.1312E+04  0.3559E+04E
 ACTION:UPD 13-02-28 14:29 OP:RALL STATUS:               ID:20100827020843     I
 2010-08-27-0208-37S.PLUR1_006                                                 6
 STAT SP IPHASW D HRMM SECON CODA AMPLIT PERI AZIMU VELO AIN AR TRES W  DIS CAZ7
 LT9  SN IP        2 8 47.91                             108    0.0210 24.1 341 
 LT9  SZ E         2 8 48.40                  161.4  9.5      0        24.1 341 
 LT9  SE IS        2 8 51.04                             108   -0.0210 24.1 341 
 LT9  SZ  AML      2 8 51.38         1.7 0.58                          24.1 341 
                                                                                
