 2010  828 0957 48.8 L  21.386 -99.330 10.0  RAL  1 0.1 0.2LRAL                1
 GAP=360        0.63     999.9   999.9  0.0 -0.5948E+07 -0.1312E+04  0.3559E+04E
 ACTION:UPD 13-02-28 14:29 OP:RALL STATUS:               ID:20100828095748     I
 2010-08-28-0957-41S.PLUR1_003                                                 6
 STAT SP IPHASW D HRMM SECON CODA AMPLIT PERI AZIMU VELO AIN AR TRES W  DIS CAZ7
 LT9  SZ E         957 50.93                  201.4 10.3      0        1.16  21 
 LT9  SN IP        957 50.99                             173    0.3710 1.16  21 
 LT9  SE IS        957 51.55                             173   -0.3710 1.16  21 
 LT9  SZ  AML      957 51.70         9.8 0.32                          1.16  21 
                                                                                
