 2010  830 2334 32.9 L  21.726 -99.454  5.1  RAL  2 0.4 1.0LRAL                1
 GAP=351        5.23     124.6    65.4280.7 -0.7979E+04 -0.1716E+05  0.3314E+05E
 ACTION:UPD 13-02-28 14:29 OP:RALL STATUS:               ID:20100830233432     I
 2010-08-30-2334-28S.PLUR1_006                                                 6
 STAT SP IPHASW D HRMM SECON CODA AMPLIT PERI AZIMU VELO AIN AR TRES W  DIS CAZ7
 LA4  SZ E        2334 38.57                  347.3  7.7     17        30.7 151 
 LA4  SN IP       2334 38.60                              63    0.7510 30.7 151 
 LA4  SE IS       2334 41.12                              63   -0.3210 30.7 151 
 LA4  SZ  AML     2334 41.36       138.1 0.34                          30.7 151 
 LT9  SN IP       2334 39.52                              63    0.4410 38.9 160 
 LT9  SZ E        2334 39.61                  321.7  8.1    -17        38.9 160 
 LT9  SE IS       2334 42.71                              63   -0.8710 38.9 160 
 LT9  SZ  AML     2334 43.79         2.6 0.28                          38.9 160 
                                                                                
