 2009  7 1 2248 10.9 L  21.337 -99.256 10.0  RAL  1 0.3                        1
 GAP=360        3.42     999.9   999.9  0.0 -0.4573E+08 -0.2651E+02  0.1824E+02E
 ACTION:UPD 12-06-08 11:37 OP:RALL STATUS:               ID:20090701224810     I
 2009-07-01-2248-03S.PLUR1_003                                                 6
 STAT SP IPHASW D HRMM SECON CODA AMPLIT PERI AZIMU VELO AIN AR TRES W  DIS CAZ7
 LZ4  SN IP       2248 13.24                             171    0.4710 1.55 244 
 LZ4  SZ E        2248 13.24                   80.0 29.6     16        1.55 244 
 LZ4  SE IS       2248 13.65                             171   -0.4710 1.55 244 
                                                                                
