 2009  7 1 2336 52.1 L  21.461 -99.475 10.0  RAL  1 0.0 0.9LRAL                1
 GAP=360        0.30       2.2     3.5  0.0 -0.7233E+01 -0.2651E+02  0.1824E+02E
 ACTION:UPD 12-06-08 11:37 OP:RALL STATUS:               ID:20090701233652     I
 2009-07-01-2336-50S.PLUR1_003                                                 6
 STAT SP IPHASW D HRMM SECON CODA AMPLIT PERI AZIMU VELO AIN AR TRES W  DIS CAZ7
 LZ4  SZ E        2336 56.74                  304.1 12.8      0        25.7 124 
 LZ4  SN IP       2336 56.76                             107    0.0010 25.7 124 
 LZ4  SE IS       2337  0.12                             107    0.0010 25.7 124 
 LZ4  SZ  AML     2337  0.82        17.9 0.66                          25.7 124 
                                                                                
