 2009  7 1 2148 35.1 R  20.356 -98.983 10.0  RAL  1 0.0 2.0LRAL                1
 GAP=360        0.30       3.6     3.2  0.0 -0.1453E+01 -0.2651E+02  0.1824E+02E
 ACTION:UPD 12-06-08 11:37 OP:RALL STATUS:               ID:20090701214835     I
 2009-07-01-2148-44S.PLUR1_003                                                 6
 STAT SP IPHASW D HRMM SECON CODA AMPLIT PERI AZIMU VELO AIN AR TRES W  DIS CAZ7
 LZ4  SZ E        2148 52.90                  164.5 17.1      0         112 345 
 LZ4  SN IP       2148 52.97                              93    0.0010  112 345 
 LZ4  SE IS       2149  6.03                              93    0.0010  112 345 
 LZ4  SZ  AML     2149  7.44        48.4 0.20                           112 345 
                                                                                
