 2009  7 1 2218 27.9 L  21.758 -99.521 10.0  RAL  1 0.0 1.2LRAL                1
 GAP=360        0.30       3.3     2.3  0.0 -0.5430E+01 -0.2651E+02  0.1824E+02E
 ACTION:UPD 12-06-08 11:37 OP:RALL STATUS:               ID:20090701221827     I
 2009-07-01-2218-34S.PLUR1_003                                                 6
 STAT SP IPHASW D HRMM SECON CODA AMPLIT PERI AZIMU VELO AIN AR TRES W  DIS CAZ7
 LZ4  SZ E        2218 36.82                  331.2 17.4      0        54.0 151 
 LZ4  SN IP       2218 36.85                              97    0.0110 54.0 151 
 LZ4  SE IS       2218 43.34                              97   -0.0110 54.0 151 
 LZ4  SZ  AML     2218 44.91        17.8 0.76                          54.0 151 
                                                                                
