 2009  7 2 0717  2.0 L  21.251 -99.270 10.0  RAL  1 0.1 0.4LRAL                1
 GAP=360        0.53      18.4    13.2  0.0  0.2418E+03 -0.2651E+02  0.1824E+02E
 ACTION:UPD 12-06-08 11:37 OP:RALL STATUS:               ID:20090702071702     I
 2009-07-02-0716-55S.PLUR1_003                                                 6
 STAT SP IPHASW D HRMM SECON CODA AMPLIT PERI AZIMU VELO AIN AR TRES W  DIS CAZ7
 LG3  SN IP        717  4.23                             163    0.2910 3.23  34 
 LG3  SZ E         717  4.24                  213.8 12.0      0        3.23  34 
 LG3  SE IS        717  5.05                             163   -0.2910 3.23  34 
 LG3  SZ  AML      717  5.58        13.3 0.22                          3.23  34 
                                                                                
