 2009  7 2 0344 12.6 L  21.314 -99.252 10.0  RAL  1 0.2 1.3LRAL                1
 GAP=360        0.76      28.3    28.8  0.0 -0.8135E+03 -0.2651E+02  0.1824E+02E
 ACTION:UPD 12-06-08 11:37 OP:RALL STATUS:               ID:20090702034412     I
 2009-07-02-0344-05S.PLUR1_003                                                 6
 STAT SP IPHASW D HRMM SECON CODA AMPLIT PERI AZIMU VELO AIN AR TRES W  DIS CAZ7
 LZ4  SN IP        344 14.98                             166    0.4810 2.60 317 
 LZ4  SZ E         344 15.00                  136.5 17.7      0        2.60 317 
 LZ4  SE IS        344 15.40                             166   -0.4810 2.60 317 
 LZ4  SZ  AML      344 15.50       108.4 0.10                          2.60 317 
                                                                                
