 2009  7 2 0711 58.8 L  21.339 -99.292 10.0  RAL  1 0.1-0.1LRAL                1
 GAP=360        0.42       7.7    22.6  0.0 -0.1730E+03 -0.2651E+02  0.1824E+02E
 ACTION:UPD 12-06-08 11:37 OP:RALL STATUS:               ID:20090702071158     I
 2009-07-02-0711-52S.PLUR1_003                                                 6
 STAT SP IPHASW D HRMM SECON CODA AMPLIT PERI AZIMU VELO AIN AR TRES W  DIS CAZ7
 LZ4  SZ E         712  0.83                  290.0 23.8      0        2.51 110 
 LZ4  SN IP        712  0.84                             166    0.2010 2.51 110 
 LZ4  SE IS        712  1.80                             166   -0.2010 2.51 110 
 LZ4  SZ  AML      712  3.56         4.1 0.40                          2.51 110 
                                                                                
