 2009  7 2 0000 48.0 L  21.443 -98.935 10.0  RAL  1 0.0 1.0LRAL                1
 GAP=360        0.30       1.6     3.8  0.0  0.4535E+01 -0.2651E+02  0.1824E+02E
 ACTION:UPD 12-06-08 11:37 OP:RALL STATUS:               ID:20090702000048     I
 2009-07-02-0000-49S.PLUR1_003                                                 6
 STAT SP IPHASW D HRMM SECON CODA AMPLIT PERI AZIMU VELO AIN AR TRES W  DIS CAZ7
 LZ4  SZ E         0 0 54.33                   70.2 22.4      0        36.8 250 
 LZ4  SN IP        0 0 54.34                             101    0.0110 36.8 250 
 LZ4  SE IS        0 0 58.90                             101   -0.0110 36.8 250 
 LZ4  SZ  AML      0 1  0.53        14.4 0.76                          36.8 250 
                                                                                
