 2009  7 3 0743 19.6 L  21.558 -99.426 10.0  RAL  1 0.0 0.4LRAL                1
 GAP=360        0.30       3.3     2.3  0.0 -0.6906E+01 -0.2651E+02  0.1824E+02E
 ACTION:UPD 12-06-08 11:37 OP:RALL STATUS:               ID:20090703074319     I
 2009-07-03-0743-19S.PLUR1_003                                                 6
 STAT SP IPHASW D HRMM SECON CODA AMPLIT PERI AZIMU VELO AIN AR TRES W  DIS CAZ7
 LZ4  SZ E         743 24.42                  327.3 12.4      0        29.9 147 
 LZ4  SN IP        743 24.84                             104    0.0210 29.9 147 
 LZ4  SE IS        743 28.61                             104   -0.0210 29.9 147 
 LZ4  SZ  AML      743 32.34         4.9 0.32                          29.9 147 
                                                                                
