 2009  7 3 1759 58.5 R  20.320 -99.284 10.0  RAL  1 0.0 2.1LRAL                1
 GAP=360        0.30       3.7     3.1  0.0  0.7869E-01 -0.2651E+02  0.1824E+02E
 ACTION:UPD 12-06-08 11:37 OP:RALL STATUS:               ID:20090703175958     I
 2009-07-03-1800-07S.PLUR1_003                                                 6
 STAT SP IPHASW D HRMM SECON CODA AMPLIT PERI AZIMU VELO AIN AR TRES W  DIS CAZ7
 LZ4  SZ E        18 0 16.28                  180.8 13.7      0         112   1 
 LZ4  SN IP       18 0 16.40                              93    0.0010  112   1 
 LZ4  SE IS       18 0 29.46                              93    0.0010  112   1 
 LZ4  SZ  AML     18 0 31.09        59.9 0.18                           112   1 
                                                                                
