 2009  7 3 1841  7.8 L  21.348 -99.295 10.0  RAL  1 0.1 0.5LRAL                1
 GAP=360        0.45      10.9    16.3  0.0 -0.1781E+03 -0.2651E+02  0.1824E+02E
 ACTION:UPD 12-06-08 11:37 OP:RALL STATUS:               ID:20090703184107     I
 2009-07-03-1841-01S.PLUR1_003                                                 6
 STAT SP IPHASW D HRMM SECON CODA AMPLIT PERI AZIMU VELO AIN AR TRES W  DIS CAZ7
 LZ4  SZ E        1841  9.86                  305.6 19.4      0        3.25 126 
 LZ4  SN IP       1841  9.89                             162    0.2310 3.25 126 
 LZ4  SE IS       1841 10.82                             162   -0.2310 3.25 126 
 LZ4  SZ  AML     1841 11.11        17.3 0.24                          3.25 126 
                                                                                
