 2009  7 4 1704 46.8 L  21.261 -99.422 10.0  RAL  1 0.0 0.8LRAL                1
 GAP=360        0.30       1.9     4.0  0.0  0.7187E+01 -0.2651E+02  0.1824E+02E
 ACTION:UPD 12-06-08 11:37 OP:RALL STATUS:               ID:20090704170446     I
 2009-07-04-1704-41S.PLUR1_003                                                 6
 STAT SP IPHASW D HRMM SECON CODA AMPLIT PERI AZIMU VELO AIN AR TRES W  DIS CAZ7
 LZ4  SZ E        17 4 50.14                  244.0 35.6      0        17.6  64 
 LZ4  SN IP       17 4 50.28                             117    0.0010 17.6  64 
 LZ4  SE IS       17 4 52.78                             117    0.0010 17.6  64 
 LZ4  SZ  AML     17 4 53.24        19.1 0.32                          17.6  64 
                                                                                
