 2009  7 4 2357 24.9 L  21.334 -99.271 10.0  RAL  1 0.8 0.5LRAL                1
 GAP=360       10.73     999.9   999.9  0.0  0.6292E+08 -0.2651E+02  0.1824E+02E
 ACTION:UPD 12-06-08 11:37 OP:RALL STATUS:               ID:20090704235724     I
 2009-07-04-2357-18S.PLUR1_003                                                 6
 STAT SP IPHASW D HRMM SECON CODA AMPLIT PERI AZIMU VELO AIN AR TRES W  DIS CAZ7
 LZ4  SZ E        2357 27.06                  278.6 93.0    -50        0.38 150 
 LZ4  SN IP       2357 27.16                             178    0.3910 0.38 150 
 LZ4  SE IS       2357 27.72                             178   -0.3910 0.38 150 
 LZ4  SZ  AML     2357 28.16        17.4 0.14                          0.38 150 
                                                                                
