 2009  7 5 0808 30.3 L  21.306 -99.232 10.0  RAL  1 0.0 0.0LRAL                1
 GAP=360        0.33       5.6     8.4  0.0 -0.4735E+02 -0.2651E+02  0.1824E+02E
 ACTION:UPD 12-06-08 11:37 OP:RALL STATUS:               ID:20090705080830     I
 2009-07-05-0808-24S.PLUR1_003                                                 6
 STAT SP IPHASW D HRMM SECON CODA AMPLIT PERI AZIMU VELO AIN AR TRES W  DIS CAZ7
 LZ4  SZ E         8 8 32.40                  125.4 17.2      0        4.75 305 
 LZ4  SN IP        8 8 32.41                             155    0.0910 4.75 305 
 LZ4  SE IS        8 8 33.68                             155   -0.0910 4.75 305 
 LZ4  SZ  AML      8 8 34.23         5.3 0.24                          4.75 305 
                                                                                
