 2009  7 5 1612 11.4 L  21.511-100.189 10.0  RAL  1 0.0 2.6LRAL                1
 GAP=360        0.30       2.6     3.9  0.0 -0.1567E+01 -0.2651E+02  0.1824E+02E
 ACTION:UPD 12-06-08 11:37 OP:RALL STATUS:               ID:20090705161211     I
 2009-07-05-1612-17S.PLUR1_003                                                 6
 STAT SP IPHASW D HRMM SECON CODA AMPLIT PERI AZIMU VELO AIN AR TRES W  DIS CAZ7
 LZ4  SZ E        1612 26.90                  282.0 14.8      0        97.4 102 
 LZ4  SN IP       1612 27.03                              93    0.0010 97.4 102 
 LZ4  SE IS       1612 38.45                              93    0.0010 97.4 102 
 LZ4  SZ  AML     1612 43.57       240.1 0.46                          97.4 102 
                                                                                
