 2009  7 5 1456 41.7 L  21.728 -99.144 10.0  RAL  1 0.0 2.0LRAL                1
 GAP=360        0.30       3.6     1.7  0.0  0.3693E+01 -0.2651E+02  0.1824E+02E
 ACTION:UPD 12-06-08 11:37 OP:RALL STATUS:               ID:20090705145641     I
 2009-07-05-1456-40S.PLUR1_003                                                 6
 STAT SP IPHASW D HRMM SECON CODA AMPLIT PERI AZIMU VELO AIN AR TRES W  DIS CAZ7
 LZ4  SN IP       1456 49.40                              98    0.0110 45.8 197 
 LZ4  SZ E        1456 49.57                   16.5 12.2      0        45.8 197 
 LZ4  SE IS       1456 54.97                              98   -0.0110 45.8 197 
 LZ4  SZ  AML     1456 57.28       121.1 0.18                          45.8 197 
                                                                                
