 2009  7 5 1952 20.3 L  20.981 -98.858100.0  RAL  2 0.2 2.4LRAL                1
 GAP=350        2.64      40.3    67.7 50.7 -0.2659E+04 -0.2506E+04  0.1474E+04E
 ACTION:UPD 12-06-08 11:37 OP:RALL STATUS:               ID:20090705195220     I
 2009-07-05-1952-25S.PLUR1_006                                                 6
 STAT SP IPHASW D HRMM SECON CODA AMPLIT PERI AZIMU VELO AIN AR TRES W  DIS CAZ7
 LO8  SN IP       1952 34.80                             155    0.0610 41.9 298 
 LO8  SZ E        1952 34.83                  109.9  7.7     -7        41.9 298 
 LO8  SE IS       1952 45.47                             155    0.2010 41.9 298 
 LG3  SZ E        1952 34.83                  138.1 16.8     10        52.4 309 
 LG3  SN IP       1952 34.95                             150   -0.3310 52.4 309 
 LG3  SE IS       1952 46.26                             150    0.0710 52.4 309 
 LG3  SZ  AML     1952 52.20       115.3 0.32                          52.4 309 
                                                                                
