 2009  7 5 2044 31.4 L  21.521 -99.288 10.0  RAL  1 0.0 0.3LRAL                1
 GAP=360        0.30       4.0     0.7  0.0 -0.1495E+01 -0.2506E+04  0.1474E+04E
 ACTION:UPD 12-06-08 11:37 OP:RALL STATUS:               ID:20090705204431     I
 2009-07-05-2044-29S.PLUR1_003                                                 6
 STAT SP IPHASW D HRMM SECON CODA AMPLIT PERI AZIMU VELO AIN AR TRES W  DIS CAZ7
 LZ4  SZ E        2044 35.23                  354.9 18.0      0        21.1 175 
 LZ4  SN IP       2044 35.32                             112    0.0110 21.1 175 
 LZ4  SE IS       2044 38.16                             112   -0.0110 21.1 175 
 LZ4  SZ  AML     2044 38.99         5.2 0.46                          21.1 175 
                                                                                
