 2009  7 6 0452 25.3 L  21.706 -99.291 10.0  RAL  1 0.0 1.1LRAL                1
 GAP=360        0.30       3.7     1.2  0.0 -0.7508E+00 -0.2506E+04  0.1474E+04E
 ACTION:UPD 12-06-08 11:37 OP:RALL STATUS:               ID:20090706045225     I
 2009-07-06-0452-28S.PLUR1_003                                                 6
 STAT SP IPHASW D HRMM SECON CODA AMPLIT PERI AZIMU VELO AIN AR TRES W  DIS CAZ7
 LZ4  SZ E         452 32.25                  356.9 14.9      0        41.6 177 
 LZ4  SN IP        452 32.27                              99    0.0110 41.6 177 
 LZ4  SE IS        452 37.37                              99   -0.0110 41.6 177 
 LZ4  SZ  AML      452 38.37        18.7 0.68                          41.6 177 
                                                                                
