 2009  7 6 1312 36.1 L  21.354 -99.293 10.0  RAL  1 0.1 0.3LRAL                1
 GAP=360        0.44      12.2    12.4  0.0 -0.1504E+03 -0.2506E+04  0.1474E+04E
 ACTION:UPD 12-06-08 11:37 OP:RALL STATUS:               ID:20090706131236     I
 2009-07-06-1312-30S.PLUR1_003                                                 6
 STAT SP IPHASW D HRMM SECON CODA AMPLIT PERI AZIMU VELO AIN AR TRES W  DIS CAZ7
 LZ4  SZ E        1312 38.26                  316.5 15.6      0        3.58 136 
 LZ4  SN IP       1312 38.28                             161    0.2210 3.58 136 
 LZ4  SE IS       1312 39.24                             161   -0.2210 3.58 136 
 LZ4  SZ  AML     1312 39.58        10.0 0.20                          3.58 136 
                                                                                
