 2009  7 6 1555 27.7 L  21.292 -99.195 10.0  RAL  1 0.0 0.6LRAL                1
 GAP=360        0.30       2.7     5.2  0.0 -0.1406E+02 -0.2506E+04  0.1474E+04E
 ACTION:UPD 12-06-08 11:37 OP:RALL STATUS:               ID:20090706155527     I
 2009-07-06-1555-22S.PLUR1_003                                                 6
 STAT SP IPHASW D HRMM SECON CODA AMPLIT PERI AZIMU VELO AIN AR TRES W  DIS CAZ7
 LZ4  SN IP       1555 30.04                             138    0.0210 8.88 299 
 LZ4  SZ E        1555 30.05                  118.9 66.4      0        8.88 299 
 LZ4  SE IS       1555 31.72                             138   -0.0210 8.88 299 
 LZ4  SZ  AML     1555 32.98        16.6 0.22                          8.88 299 
                                                                                
