 2009  7 6 1136 25.9 L  21.502 -99.366 10.0  RAL  1 0.0 1.3LRAL                1
 GAP=360        0.30       3.5     2.1  0.0 -0.6850E+01 -0.2506E+04  0.1474E+04E
 ACTION:UPD 12-06-08 11:37 OP:RALL STATUS:               ID:20090706113625     I
 2009-07-06-1136-20S.PLUR1_003                                                 6
 STAT SP IPHASW D HRMM SECON CODA AMPLIT PERI AZIMU VELO AIN AR TRES W  DIS CAZ7
 LZ4  SZ E        1136 29.92                  332.3  9.8      0        21.5 152 
 LZ4  SN IP       1136 29.92                             112    0.0010 21.5 152 
 LZ4  SE IS       1136 32.82                             112    0.0010 21.5 152 
 LZ4  SZ  AML     1136 33.90        45.2 0.18                          21.5 152 
                                                                                
