 2009  7 6 2049 54.1 R  21.297 -98.526 10.0  RAL  1 0.0 2.1LRAL                1
 GAP=360        0.30       2.0     4.0  0.0 -0.5399E+00 -0.2506E+04  0.1474E+04E
 ACTION:UPD 12-06-08 11:37 OP:RALL STATUS:               ID:20090706204954     I
 2009-07-06-2049-59S.PLUR1_003                                                 6
 STAT SP IPHASW D HRMM SECON CODA AMPLIT PERI AZIMU VELO AIN AR TRES W  DIS CAZ7
 LZ4  SN IP       2050  6.59                              94    0.0110 77.2 273 
 LZ4  SZ E        2050  6.64                   92.7 42.0      0        77.2 273 
 LZ4  SE IS       2050 15.70                              94   -0.0110 77.2 273 
 LZ4  SZ  AML     2050 16.23       101.7 0.22                          77.2 273 
                                                                                
