 2009  7 6 2243 59.3 L  21.249 -99.223 10.0  RAL  1 0.0 0.2LRAL                1
 GAP=360        0.30       4.6     2.6  0.0 -0.1177E+02 -0.2506E+04  0.1474E+04E
 ACTION:UPD 12-06-08 11:37 OP:RALL STATUS:               ID:20090706224359     I
 2009-07-06-2243-54S.PLUR1_003                                                 6
 STAT SP IPHASW D HRMM SECON CODA AMPLIT PERI AZIMU VELO AIN AR TRES W  DIS CAZ7
 LZ4  SN IP       2244  1.87                             134    0.0310 10.2 332 
 LZ4  SZ E        2244  1.94                  152.1 13.5      0        10.2 332 
 LZ4  SE IS       2244  3.64                             134   -0.0310 10.2 332 
 LZ4  SZ  AML     2244  5.79         6.8 0.44                          10.2 332 
                                                                                
