 2009  7 7 0718 13.6 R  20.797 -98.343 10.0  RAL  1 0.0 1.6LRAL                1
 GAP=360        0.30       3.2     3.7  0.0 -0.2470E+01 -0.2506E+04  0.1474E+04E
 ACTION:UPD 12-06-08 11:37 OP:RALL STATUS:               ID:20090707071813     I
 2009-07-07-0718-23S.PLUR1_003                                                 6
 STAT SP IPHASW D HRMM SECON CODA AMPLIT PERI AZIMU VELO AIN AR TRES W  DIS CAZ7
 LZ4  SZ E         718 31.54                  121.4 38.1      0         113 302 
 LZ4  SN IP        718 31.61                              93    0.0010  113 302 
 LZ4  SE IS        718 44.79                              93    0.0010  113 302 
 LZ4  SZ  AML      718 46.16        21.0 0.38                           113 302 
                                                                                
