 2009  7 7 0308 25.0 L  21.315 -99.255 10.0  RAL  1 0.2 0.7LRAL                1
 GAP=360        0.77      32.7    30.5  0.0 -0.9957E+03 -0.2506E+04  0.1474E+04E
 ACTION:UPD 12-06-08 11:37 OP:RALL STATUS:               ID:20090707030825     I
 2009-07-07-0308-18S.PLUR1_003                                                 6
 STAT SP IPHASW D HRMM SECON CODA AMPLIT PERI AZIMU VELO AIN AR TRES W  DIS CAZ7
 LZ4  SZ E         3 8 27.31                  139.0 21.3      0        2.33 319 
 LZ4  SN IP        3 8 27.31                             167    0.4810 2.33 319 
 LZ4  SE IS        3 8 27.72                             167   -0.4810 2.33 319 
 LZ4  SZ  AML      3 8 27.82        27.6 0.22                          2.33 319 
                                                                                
