 2009  7 7 1101 45.0 R  21.106 -98.233 10.0  RAL  1 0.0 1.4LRAL                1
 GAP=360        0.30       2.8     3.9  0.0 -0.1122E+01 -0.2506E+04  0.1474E+04E
 ACTION:UPD 12-06-08 11:37 OP:RALL STATUS:               ID:20090707110145     I
 2009-07-07-1101-56S.PLUR1_003                                                 6
 STAT SP IPHASW D HRMM SECON CODA AMPLIT PERI AZIMU VELO AIN AR TRES W  DIS CAZ7
 LG3  SN IP       11 2  2.24                              93    0.0010  108 280 
 LG3  SZ E        11 2  2.33                   99.9 13.6      0         108 280 
 LG3  SE IS       11 2 14.81                              93    0.0010  108 280 
 LG3  SZ  AML     11 2 19.56        12.2 0.40                           108 280 
                                                                                
