 2009  7 7 1645 14.4 L  21.351 -99.285 10.0  RAL  1 0.2 1.3LRAL                1
 GAP=360        0.69      27.3    20.9  0.0 -0.5725E+03 -0.2506E+04  0.1474E+04E
 ACTION:UPD 12-06-08 11:37 OP:RALL STATUS:               ID:20090707164514     I
 2009-07-07-1645-07S.PLUR1_003                                                 6
 STAT SP IPHASW D HRMM SECON CODA AMPLIT PERI AZIMU VELO AIN AR TRES W  DIS CAZ7
 LZ4  SZ E        1645 16.66                  324.5  8.7      0        2.74 144 
 LZ4  SN IP       1645 16.68                             165    0.4210 2.74 144 
 LZ4  SE IS       1645 17.21                             165   -0.4210 2.74 144 
 LZ4  SZ  AML     1645 17.24       100.2 0.16                          2.74 144 
                                                                                
