 2009  7 7 2352  7.1 L  21.256 -99.238 10.0  RAL  1 0.0 0.0LRAL                1
 GAP=360        0.30       5.2     2.2  0.0 -0.1154E+02 -0.2506E+04  0.1474E+04E
 ACTION:UPD 12-06-08 11:37 OP:RALL STATUS:               ID:20090707235207     I
 2009-07-07-2352-01S.PLUR1_003                                                 6
 STAT SP IPHASW D HRMM SECON CODA AMPLIT PERI AZIMU VELO AIN AR TRES W  DIS CAZ7
 LZ4  SN IP       2352  9.43                             138    0.0310 8.86 338 
 LZ4  SZ E        2352  9.45                  158.3 14.9      0        8.86 338 
 LZ4  SE IS       2352 11.09                             138   -0.0310 8.86 338 
 LZ4  SZ  AML     2352 12.62         4.2 0.22                          8.86 338 
                                                                                
