 2009  7 8 0527 44.3 L  21.679 -99.373 10.0  RAL  1 0.0 0.9LRAL                1
 GAP=360        0.30       3.6     1.5  0.0 -0.3616E+01 -0.2506E+04  0.1474E+04E
 ACTION:UPD 12-06-08 11:37 OP:RALL STATUS:               ID:20090708052744     I
 2009-07-08-0527-47S.PLUR1_003                                                 6
 STAT SP IPHASW D HRMM SECON CODA AMPLIT PERI AZIMU VELO AIN AR TRES W  DIS CAZ7
 LZ4  SZ E         527 50.90                  344.5 11.3      0        40.0 164 
 LZ4  SN IP        527 51.11                             100    0.0110 40.0 164 
 LZ4  SE IS        527 56.03                             100   -0.0110 40.0 164 
 LZ4  SZ  AML      527 57.59        12.1 0.24                          40.0 164 
                                                                                
