 2009  7 8 0637  9.7 L  21.418 -99.222 10.0  RAL  1 0.0 0.5LRAL                1
 GAP=360        0.30       4.5     2.4  0.0  0.1073E+02 -0.2506E+04  0.1474E+04E
 ACTION:UPD 12-06-08 11:37 OP:RALL STATUS:               ID:20090708063709     I
 2009-07-08-0637-04S.PLUR1_003                                                 6
 STAT SP IPHASW D HRMM SECON CODA AMPLIT PERI AZIMU VELO AIN AR TRES W  DIS CAZ7
 LZ4  SZ E         637 12.26                   26.7 26.2      0        10.8 207 
 LZ4  SN IP        637 12.30                             132    0.0210 10.8 207 
 LZ4  SE IS        637 14.13                             132   -0.0210 10.8 207 
 LZ4  SZ  AML      637 14.87        13.4 0.32                          10.8 207 
                                                                                
