 2009  7 8 1825  1.0 L  21.689 -99.411 10.0  RAL  1 0.0 1.3LRAL                1
 GAP=360        0.30       3.6     1.9  0.0 -0.6104E+01 -0.2506E+04  0.1474E+04E
 ACTION:UPD 12-06-08 11:37 OP:RALL STATUS:               ID:20090708182501     I
 2009-07-08-1824-52S.PLUR1_003                                                 6
 STAT SP IPHASW D HRMM SECON CODA AMPLIT PERI AZIMU VELO AIN AR TRES W  DIS CAZ7
 LA4  SZ E        1825  5.53                  335.2  7.7      0        25.1 155 
 LA4  SN IP       1825  5.57                             108    0.0210 25.1 155 
 LA4  SE IS       1825  8.82                             108   -0.0210 25.1 155 
 LA4  SZ  AML     1825 10.67        39.8 0.64                          25.1 155 
                                                                                
