 2009  7 8 1701 15.8 L  21.720 -99.349 10.0  RAL  1 0.0 2.0LRAL                1
 GAP=360        0.30       3.8     1.0  0.0 -0.2415E+01 -0.2506E+04  0.1474E+04E
 ACTION:UPD 12-06-08 11:37 OP:RALL STATUS:               ID:20090708170115     I
 2009-07-08-1701-06S.PLUR1_003                                                 6
 STAT SP IPHASW D HRMM SECON CODA AMPLIT PERI AZIMU VELO AIN AR TRES W  DIS CAZ7
 LA4  SN IP       17 1 20.54                             107    0.0110 26.4 171 
 LA4  SZ E        17 1 20.62                  351.0  9.3      0        26.4 171 
 LA4  SE IS       17 1 23.96                             107   -0.0110 26.4 171 
 LA4  SZ  AML     17 1 26.04       228.9 0.64                          26.4 171 
                                                                                
