 2009  7 8 1427 23.8 L  21.914 -99.602 10.0  RAL  1 0.0 1.3LRAL                1
 GAP=360        0.30       3.2     2.5  0.0 -0.5727E+01 -0.2506E+04  0.1474E+04E
 ACTION:UPD 12-06-08 11:37 OP:RALL STATUS:               ID:20090708142723     I
 2009-07-08-1427-20S.PLUR1_003                                                 6
 STAT SP IPHASW D HRMM SECON CODA AMPLIT PERI AZIMU VELO AIN AR TRES W  DIS CAZ7
 LA4  SN IP       1427 33.09                              96    0.0110 56.5 147 
 LA4  SZ E        1427 33.17                  327.6  8.3      0        56.5 147 
 LA4  SE IS       1427 39.86                              96   -0.0110 56.5 147 
 LA4  SZ  AML     1427 43.97        22.6 0.16                          56.5 147 
                                                                                
