 2009  7 8 1041 31.1 R  21.530 -99.937 10.0  RAL  1 0.0 1.6LRAL                1
 GAP=360        0.30       2.1     3.8  0.0 -0.3171E+01 -0.2506E+04  0.1474E+04E
 ACTION:UPD 12-06-08 11:37 OP:RALL STATUS:               ID:20090708104131     I
 2009-07-08-1041-34S.PLUR1_003                                                 6
 STAT SP IPHASW D HRMM SECON CODA AMPLIT PERI AZIMU VELO AIN AR TRES W  DIS CAZ7
 LZ4  SN IP       1041 42.89                              95    0.0110 72.6 108 
 LZ4  SZ E        1041 43.24                  287.8 16.1      0        72.6 108 
 LZ4  SE IS       1041 51.48                              95   -0.0110 72.6 108 
 LZ4  SZ  AML     1041 57.20        29.2 0.34                          72.6 108 
                                                                                
