 2009  7 8 1907 16.3 L  21.875 -98.946  8.7  RAL  2 1.9 2.3LRAL                1
 GAP=338       30.63     636.8   490.1999.9  0.2933E+06  0.6971E+06  0.9278E+06E
 ACTION:UPD 12-06-08 11:37 OP:RALL STATUS:               ID:20090708190716     I
 2009-07-08-1907-10S.PLUR1_006                                                 6
 STAT SP IPHASW D HRMM SECON CODA AMPLIT PERI AZIMU VELO AIN AR TRES W  DIS CAZ7
 LA4  SN IP       19 7 25.62                              63   -0.0810 57.4 221 
 LA4  SZ E        19 7 25.63                  335.1  7.5     66        57.4 221 
 LA4  SE IS       19 7 29.46                              63   -3.1210 57.4 221 
 LA4  SZ  AML     19 7 31.11      1519.2 0.64                          57.4 221 
 LO8  SN IP       19 7 32.27                              63    2.4410 83.9 199 
 LO8  SZ E        19 7 32.31                  152.5  6.5    133        83.9 199 
 LO8  SE IS       19 7 40.49                              63    0.7610 83.9 199 
 LO8  SZ  AML     19 7 40.88        22.9 0.44                          83.9 199 
                                                                                
