 2009  7 8 1315  8.2 L  21.769 -99.149 10.0  RAL  1 0.0 2.0LRAL                1
 GAP=360        0.30       3.6     1.7  0.0  0.3180E+01 -0.2506E+04  0.1474E+04E
 ACTION:UPD 12-06-08 11:37 OP:RALL STATUS:               ID:20090708131508     I
 2009-07-08-1315-07S.PLUR1_003                                                 6
 STAT SP IPHASW D HRMM SECON CODA AMPLIT PERI AZIMU VELO AIN AR TRES W  DIS CAZ7
 LZ4  SN IP       1315 16.50                              97    0.0110 50.1 194 
 LZ4  SZ E        1315 16.89                   14.4  8.6      0        50.1 194 
 LZ4  SE IS       1315 22.55                              97   -0.0110 50.1 194 
 LZ4  SZ  AML     1315 23.56       111.6 0.30                          50.1 194 
                                                                                
