 2009  7 8 1521  2.3 L  21.756 -99.409 10.0  RAL  1 0.0 2.8LRAL                1
 GAP=360        0.30       3.6     1.8  0.0 -0.3710E+01 -0.2506E+04  0.1474E+04E
 ACTION:UPD 12-06-08 11:37 OP:RALL STATUS:               ID:20090708152102     I
 2009-07-08-1521-01S.PLUR1_003                                                 6
 STAT SP IPHASW D HRMM SECON CODA AMPLIT PERI AZIMU VELO AIN AR TRES W  DIS CAZ7
 LZ4  SN IP       1521 10.45                              97    0.0110 49.3 163 
 LZ4  SZ E        1521 10.53                  343.0  6.3      0        49.3 163 
 LZ4  SE IS       1521 16.41                              97   -0.0110 49.3 163 
 LZ4  SZ  AML     1521 17.69       711.6 0.38                          49.3 163 
                                                                                
