 2009  7 8 2323 43.3 L  21.675 -99.299 10.0  RAL  1 0.0 0.6LRAL                1
 GAP=360        0.30       4.0     0.6  0.0  0.8238E+00  0.6971E+06  0.9278E+06E
 ACTION:UPD 12-06-08 11:37 OP:RALL STATUS:               ID:20090708232343     I
 2009-07-08-2323-36S.PLUR1_003                                                 6
 STAT SP IPHASW D HRMM SECON CODA AMPLIT PERI AZIMU VELO AIN AR TRES W  DIS CAZ7
 LA4  SN IP       2323 47.32                             112    0.0110 21.2 183 
 LA4  SZ E        2323 47.34                    2.8  7.5      0        21.2 183 
 LA4  SE IS       2323 50.18                             112   -0.0110 21.2 183 
 LA4  SZ  AML     2323 51.55        10.2 0.32                          21.2 183 
                                                                                
