 2009  7 9 0455 37.7 L  20.804 -98.245 10.0  RAL  1 0.0 2.4LRAL                1
 GAP=360        0.30       3.3     3.8  0.0 -0.1740E+01  0.6971E+06  0.9278E+06E
 ACTION:UPD 12-06-08 11:37 OP:RALL STATUS:               ID:20090709045537     I
 2009-07-09-0455-49S.PLUR1_003                                                 6
 STAT SP IPHASW D HRMM SECON CODA AMPLIT PERI AZIMU VELO AIN AR TRES W  DIS CAZ7
 LZ4  SN IP        455 57.03                              93    0.0010  121 299 
 LZ4  SZ E         455 57.61                  118.5 25.2      0         121 299 
 LZ4  SE IS        456 11.16                              93    0.0010  121 299 
 LZ4  SZ  AML      456 18.24       129.1 0.82                           121 299 
                                                                                
