 2009  7 9 0047 32.5 L  21.672 -99.307 10.0  RAL  1 0.0 0.5LRAL                1
 GAP=360        0.30       4.0     0.6  0.0  0.1780E+00  0.6971E+06  0.9278E+06E
 ACTION:UPD 12-06-08 11:37 OP:RALL STATUS:               ID:20090709004732     I
 2009-07-09-0047-25S.PLUR1_003                                                 6
 STAT SP IPHASW D HRMM SECON CODA AMPLIT PERI AZIMU VELO AIN AR TRES W  DIS CAZ7
 LA4  SZ E         047 36.45                    0.6  8.1      0        20.9 181 
 LA4  SN IP        047 36.45                             112    0.0110 20.9 181 
 LA4  SE IS        047 39.27                             112   -0.0110 20.9 181 
 LA4  SZ  AML      047 40.72         8.4 0.38                          20.9 181 
                                                                                
