 2009  7 9 0016 28.7 L  21.576 -99.686 10.0  RAL  1 0.0 1.7LRAL                1
 GAP=360        0.30       2.3     3.5  0.0 -0.5894E+01  0.6971E+06  0.9278E+06E
 ACTION:UPD 12-06-08 11:37 OP:RALL STATUS:               ID:20090709001628     I
 2009-07-09-0016-28S.PLUR1_003                                                 6
 STAT SP IPHASW D HRMM SECON CODA AMPLIT PERI AZIMU VELO AIN AR TRES W  DIS CAZ7
 LZ4  SZ E         016 37.15                  302.2  8.7      0        50.9 122 
 LZ4  SN IP        016 37.15                              97    0.0110 50.9 122 
 LZ4  SE IS        016 43.29                              97   -0.0110 50.9 122 
 LZ4  SZ  AML      016 44.66        60.8 0.20                          50.9 122 
                                                                                
