 2009  7 9 2213 35.3 L  21.719 -99.297 10.0  RAL  1 0.0 0.8LRAL                1
 GAP=360        0.30       3.9     0.8  0.0  0.7642E+00  0.6971E+06  0.9278E+06E
 ACTION:UPD 12-06-08 11:37 OP:RALL STATUS:               ID:20090709221335     I
 2009-07-09-2213-29S.PLUR1_003                                                 6
 STAT SP IPHASW D HRMM SECON CODA AMPLIT PERI AZIMU VELO AIN AR TRES W  DIS CAZ7
 LA4  SN IP       2213 39.94                             107    0.0110 26.1 183 
 LA4  SZ E        2213 40.43                    2.8 11.7      0        26.1 183 
 LA4  SE IS       2213 43.33                             107   -0.0110 26.1 183 
 LA4  SZ  AML     2213 44.76        12.9 0.38                          26.1 183 
                                                                                
