 2009  710 0948 14.5 L  21.311 -99.255 10.0  RAL  1 0.1 0.5LRAL                1
 GAP=360        0.63      26.4    19.0  0.0 -0.5006E+03  0.6971E+06  0.9278E+06E
 ACTION:UPD 12-06-08 11:37 OP:RALL STATUS:               ID:20090710094814     I
 2009-07-10-0948-07S.PLUR1_003                                                 6
 STAT SP IPHASW D HRMM SECON CODA AMPLIT PERI AZIMU VELO AIN AR TRES W  DIS CAZ7
 LZ4  SN IP        948 16.71                             166    0.3810 2.63 326 
 LZ4  SZ E         948 16.71                  146.2 14.9      0        2.63 326 
 LZ4  SE IS        948 17.33                             166   -0.3810 2.63 326 
 LZ4  SZ  AML      948 17.65        17.1 0.88                          2.63 326 
                                                                                
