 2009  710 0622 46.1 L  21.354 -99.278 10.0  RAL  1 0.1 0.3LRAL                1
 GAP=360        0.54      25.5     9.5  0.0 -0.2421E+03  0.6971E+06  0.9278E+06E
 ACTION:UPD 12-06-08 11:37 OP:RALL STATUS:               ID:20090710062246     I
 2009-07-10-0622-40S.PLUR1_003                                                 6
 STAT SP IPHASW D HRMM SECON CODA AMPLIT PERI AZIMU VELO AIN AR TRES W  DIS CAZ7
 LZ4  SZ E         622 48.27                  341.9 26.0      1        2.67 161 
 LZ4  SN IP        622 48.28                             165    0.2710 2.67 161 
 LZ4  SE IS        622 49.11                             165   -0.2710 2.67 161 
 LZ4  SZ  AML      622 51.09        11.5 0.70                          2.67 161 
                                                                                
