 2009  710 1654 47.4 L  21.392 -99.407 10.0  RAL  1 0.0 0.9LRAL                1
 GAP=360        0.30       1.9     4.2  0.0 -0.7543E+01  0.6971E+06  0.9278E+06E
 ACTION:UPD 12-06-08 11:37 OP:RALL STATUS:               ID:20090710165447     I
 2009-07-10-1654-42S.PLUR1_003                                                 6
 STAT SP IPHASW D HRMM SECON CODA AMPLIT PERI AZIMU VELO AIN AR TRES W  DIS CAZ7
 LZ4  SN IP       1654 50.59                             120    0.0110 15.8 115 
 LZ4  SZ E        1654 50.68                  295.4 23.7      0        15.8 115 
 LZ4  SE IS       1654 52.90                             120   -0.0110 15.8 115 
 LZ4  SZ  AML     1654 53.12        26.6 0.18                          15.8 115 
                                                                                
