 2009  710 1649 56.7 L  21.613 -99.385 10.0  RAL  1 0.0 0.4LRAL                1
 GAP=360        0.30       3.7     2.2  0.0 -0.8135E+01  0.6971E+06  0.9278E+06E
 ACTION:UPD 12-06-08 11:37 OP:RALL STATUS:               ID:20090710164956     I
 2009-07-10-1649-47S.PLUR1_003                                                 6
 STAT SP IPHASW D HRMM SECON CODA AMPLIT PERI AZIMU VELO AIN AR TRES W  DIS CAZ7
 LA4  SN IP       1649 59.96                             119    0.0110 16.3 151 
 LA4  SZ E        1649 59.98                  331.0  9.4      0        16.3 151 
 LA4  SE IS       1650  2.33                             119   -0.0110 16.3 151 
 LA4  SZ  AML     1650  2.91         8.3 0.22                          16.3 151 
                                                                                
