 2009  710 1707 42.0 L  21.287 -99.232 10.0  RAL  1 0.2 0.9LRAL                1
 GAP=360        0.81      21.7    40.6  0.0  0.8794E+03  0.6971E+06  0.9278E+06E
 ACTION:UPD 12-06-08 11:37 OP:RALL STATUS:               ID:20090710170742     I
 2009-07-10-1707-35S.PLUR1_003                                                 6
 STAT SP IPHASW D HRMM SECON CODA AMPLIT PERI AZIMU VELO AIN AR TRES W  DIS CAZ7
 LG3  SZ E        17 7 44.23                   60.2 40.2      0        2.49 240 
 LG3  SN IP       17 7 44.42                             167    0.5110 2.49 240 
 LG3  SE IS       17 7 44.78                             167   -0.5110 2.49 240 
 LG3  SZ  AML     17 7 44.90        48.2 0.36                          2.49 240 
                                                                                
