 2009  710 1006 37.5 L  21.312 -99.069 10.0  RAL  1 0.0-0.1LRAL                1
 GAP=360        0.30       1.0     4.3  0.0  0.3573E+01  0.6971E+06  0.9278E+06E
 ACTION:UPD 12-06-08 11:37 OP:RALL STATUS:               ID:20090710100637     I
 2009-07-10-1006-35S.PLUR1_003                                                 6
 STAT SP IPHASW D HRMM SECON CODA AMPLIT PERI AZIMU VELO AIN AR TRES W  DIS CAZ7
 LG3  SN IP       10 6 41.24                             114    0.0210 19.4 258 
 LG3  SZ E        10 6 41.42                   78.0 17.1      0        19.4 258 
 LG3  SE IS       10 6 43.90                             114   -0.0210 19.4 258 
 LG3  SZ  AML     10 6 44.14         2.1 0.18                          19.4 258 
                                                                                
