 2009  710 2208 37.4 L  21.694 -98.913 10.0  RAL  1 0.0 0.4LRAL                1
 GAP=360        0.30       2.1     3.6  0.0  0.5755E+01  0.6971E+06  0.9278E+06E
 ACTION:UPD 12-06-08 11:37 OP:RALL STATUS:               ID:20090710220837     I
 2009-07-10-2208-36S.PLUR1_003                                                 6
 STAT SP IPHASW D HRMM SECON CODA AMPLIT PERI AZIMU VELO AIN AR TRES W  DIS CAZ7
 LA4  SN IP       22 8 45.31                              98    0.0110 47.2 241 
 LA4  SZ E        22 8 45.57                   60.4 12.3      0        47.2 241 
 LA4  SE IS       22 8 51.03                              98   -0.0110 47.2 241 
 LA4  SZ  AML     22 8 52.86         3.0 0.38                          47.2 241 
                                                                                
