 2009  710 2045 23.7 L  21.274 -99.237 10.0  RAL  1 0.0 0.5LRAL                1
 GAP=360        0.30       3.7     1.4  0.0 -0.4670E+01  0.6971E+06  0.9278E+06E
 ACTION:UPD 12-06-08 11:37 OP:RALL STATUS:               ID:20090710204523     I
 2009-07-10-2045-17S.PLUR1_003                                                 6
 STAT SP IPHASW D HRMM SECON CODA AMPLIT PERI AZIMU VELO AIN AR TRES W  DIS CAZ7
 LA4  SN IP       2045 28.15                             109    0.0210 24.4 342 
 LA4  SZ E        2045 28.27                  162.2  7.7      0        24.4 342 
 LA4  SE IS       2045 31.33                             109   -0.0210 24.4 342 
 LA4  SZ  AML     2045 32.23         6.9 0.26                          24.4 342 
                                                                                
