 2009  711 0345 31.7 L  21.286 -99.231 10.0  RAL  1 0.0 0.9LRAL                1
 GAP=360        0.30       5.5     4.8  0.0 -0.2672E+02  0.6971E+06  0.9278E+06E
 ACTION:UPD 12-06-08 11:37 OP:RALL STATUS:               ID:20090711034531     I
 2009-07-11-0345-24S.PLUR1_003                                                 6
 STAT SP IPHASW D HRMM SECON CODA AMPLIT PERI AZIMU VELO AIN AR TRES W  DIS CAZ7
 LZ4  SZ E         345 33.82                  140.8 14.2      0        6.36 321 
 LZ4  SN IP        345 33.83                             148    0.0510 6.36 321 
 LZ4  SE IS        345 35.28                             148   -0.0510 6.36 321 
 LZ4  SZ  AML      345 35.39        40.1 0.16                          6.36 321 
                                                                                
