 2009  711 0201 16.9 L  21.327 -99.499 10.0  RAL  1 0.0                        1
 GAP=360        0.30       2.6     3.2  0.0  0.7688E+01  0.6971E+06  0.9278E+06E
 ACTION:UPD 12-06-08 11:37 OP:RALL STATUS:               ID:20090711020116     I
 2009-07-11-0201-06S.PLUR1_003                                                 6
 STAT SP IPHASW D HRMM SECON CODA AMPLIT PERI AZIMU VELO AIN AR TRES W  DIS CAZ7
 LA4  SZ E         2 1 21.63                  228.8 10.2      0        26.3  49 
 LA4  SN IP        2 1 21.64                             107    0.0010 26.3  49 
 LA4  SE IS        2 1 25.06                             107    0.0010 26.3  49 
                                                                                
