 2009  711 0737  3.4 L  21.271 -99.236 10.0  RAL  1 0.2 1.0LRAL                1
 GAP=360        1.67      37.5   126.1  0.0 -0.4733E+04  0.6971E+06  0.9278E+06E
 ACTION:UPD 12-06-08 11:37 OP:RALL STATUS:               ID:20090711073703     I
 2009-07-11-0736-56S.PLUR1_003                                                 6
 STAT SP IPHASW D HRMM SECON CODA AMPLIT PERI AZIMU VELO AIN AR TRES W  DIS CAZ7
 LG3  SZ E         737  5.54                  100.1 30.2     -7        1.79 288 
 LG3  SN IP        737  5.59                             170    0.2910 1.79 288 
 LG3  SE IS        737  6.38                             170   -0.2910 1.79 288 
 LG3  SZ  AML      737  6.46        50.5 0.10                          1.79 288 
                                                                                
