 2009  715 0007 42.9 L  21.595 -99.294 10.0  RAL  1 0.0 0.7LRAL                1
 GAP=360        0.30       3.8     0.9  0.0 -0.1287E+01  0.6971E+06  0.9278E+06E
 ACTION:UPD 12-06-08 11:37 OP:RALL STATUS:               ID:20090715000742     I
 2009-07-15-0007-43S.PLUR1_003                                                 6
 STAT SP IPHASW D HRMM SECON CODA AMPLIT PERI AZIMU VELO AIN AR TRES W  DIS CAZ7
 LZ4  SN IP        0 7 48.05                             105    0.0110 29.4 175 
 LZ4  SZ E         0 7 48.06                  355.1 47.1      0        29.4 175 
 LZ4  SE IS        0 7 51.79                             105   -0.0110 29.4 175 
 LZ4  SZ  AML      0 7 52.66        10.6 0.20                          29.4 175 
                                                                                
