 2009  715 0210  0.7 L  21.714 -99.300 10.0  RAL  1 0.0 1.2LRAL                1
 GAP=360        0.30       3.9     0.7  0.0  0.5777E+00  0.6971E+06  0.9278E+06E
 ACTION:UPD 12-06-08 11:37 OP:RALL STATUS:               ID:20090715021000     I
 2009-07-15-0209-53S.PLUR1_003                                                 6
 STAT SP IPHASW D HRMM SECON CODA AMPLIT PERI AZIMU VELO AIN AR TRES W  DIS CAZ7
 LA4  SZ E         210  5.08                    2.1  8.3      0        25.5 182 
 LA4  SN IP        210  5.28                             108    0.0110 25.5 182 
 LA4  SE IS        210  8.60                             108   -0.0110 25.5 182 
 LA4  SZ  AML      210  9.76        31.8 0.30                          25.5 182 
                                                                                
