 2009  715 0715  2.2 L  21.979 -98.926 10.0  RAL  1 0.0 1.5LRAL                1
 GAP=360        0.30       3.4     2.7  0.0  0.4062E+01  0.6971E+06  0.9278E+06E
 ACTION:UPD 12-06-08 11:37 OP:RALL STATUS:               ID:20090715071502     I
 2009-07-15-0715-07S.PLUR1_003                                                 6
 STAT SP IPHASW D HRMM SECON CODA AMPLIT PERI AZIMU VELO AIN AR TRES W  DIS CAZ7
 LZ4  SZ E         715 15.10                   26.3 24.0      0        80.1 206 
 LZ4  SN IP        715 15.20                              94    0.0110 80.1 206 
 LZ4  SE IS        715 24.64                              94   -0.0110 80.1 206 
 LZ4  SZ  AML      715 25.96        23.2 0.48                          80.1 206 
                                                                                
