 2009  715 0249  7.8 L  21.320 -99.250 10.0  RAL  1 0.2 1.1LRAL                1
 GAP=360        0.89      25.0    45.1  0.0 -0.1129E+04  0.6971E+06  0.9278E+06E
 ACTION:UPD 12-06-08 11:37 OP:RALL STATUS:               ID:20090715024907     I
 2009-07-15-0249-00S.PLUR1_003                                                 6
 STAT SP IPHASW D HRMM SECON CODA AMPLIT PERI AZIMU VELO AIN AR TRES W  DIS CAZ7
 LZ4  SN IP        249 10.26                             167    0.5610 2.39 301 
 LZ4  SZ E         249 10.28                  120.8 17.8      0        2.39 301 
 LZ4  SE IS        249 10.50                             167   -0.5610 2.39 301 
 LZ4  SZ  AML      249 10.67        67.7 0.16                          2.39 301 
                                                                                
