 2009  715 0147 18.9 L  21.320 -99.270 10.0  RAL  1 0.1 0.5LRAL                1
 GAP=360        1.20     999.9   999.9  0.0 -0.5945E+08  0.6971E+06  0.9278E+06E
 ACTION:UPD 12-06-08 11:37 OP:RALL STATUS:               ID:20090715014718     I
 2009-07-15-0147-12S.PLUR1_003                                                 6
 STAT SP IPHASW D HRMM SECON CODA AMPLIT PERI AZIMU VELO AIN AR TRES W  DIS CAZ7
 LZ4  SN IP        147 20.82                             173    0.0410 1.22   3 
 LZ4  SZ E         147 20.84                  177.9 15.7     -5        1.22   3 
 LZ4  SE IS        147 22.09                             173   -0.0410 1.22   3 
 LZ4  SZ  AML      147 22.30        17.6 0.20                          1.22   3 
                                                                                
