 2009  715 1746  5.6 L  21.484 -99.313 10.0  RAL  1 0.2                        1
 GAP=360        0.77     999.9   999.9  0.0  0.7135E+07  0.6971E+06  0.9278E+06E
 ACTION:UPD 12-06-08 11:37 OP:RALL STATUS:               ID:20090715174605     I
 2009-07-15-1745-53S.PLUR1_003                                                 6
 STAT SP IPHASW D HRMM SECON CODA AMPLIT PERI AZIMU VELO AIN AR TRES W  DIS CAZ7
 LA4  SZ E        1746  7.91                  281.4 21.4      1        0.46 100 
 LA4  SN IP       1746  7.92                             177    0.4610 0.46 100 
 LA4  SE IS       1746  8.35                             177   -0.4610 0.46 100 
                                                                                
