 2009  716 0630  1.4 R  20.219-100.699 10.0  RAL  1 0.0 2.3LRAL                1
 GAP=360        0.30       4.8     5.1  0.0 -0.1078E+01  0.6971E+06  0.9278E+06E
 ACTION:UPD 12-06-08 11:37 OP:RALL STATUS:               ID:20090716063001     I
 2009-07-16-0630-20S.PLUR1_003                                                 6
 STAT SP IPHASW D HRMM SECON CODA AMPLIT PERI AZIMU VELO AIN AR TRES W  DIS CAZ7
 LG3  SN IP        630 29.41                              52    0.0110  191  52 
 LG3  SZ E         630 29.44                  232.4 10.0      0         191  52 
 LG3  SE IS        630 49.85                              52   -0.0110  191  52 
 LG3  SZ  AML      630 51.22        56.4 0.36                           191  52 
                                                                                
