 2009  716 0235  2.6 R  22.497-100.665 10.0  RAL  1 0.0 2.5LRAL                1
 GAP=360        0.30       4.9     5.2  0.0  0.1504E+01  0.6971E+06  0.9278E+06E
 ACTION:UPD 12-06-08 11:37 OP:RALL STATUS:               ID:20090716023502     I
 2009-07-16-0235-23S.PLUR1_003                                                 6
 STAT SP IPHASW D HRMM SECON CODA AMPLIT PERI AZIMU VELO AIN AR TRES W  DIS CAZ7
 LZ4  SN IP        235 30.94                              52    0.0110  194 132 
 LZ4  SZ E         235 30.98                  312.1 22.9      0         194 132 
 LZ4  SE IS        235 51.62                              52   -0.0110  194 132 
 LZ4  SZ  AML      235 54.01        92.5 0.54                           194 132 
                                                                                
