 2009  716 1541 52.4 L  21.961 -99.066 10.0  RAL  1 0.0 1.6LRAL                1
 GAP=360        0.30       3.6     2.3  0.0  0.3059E+01  0.6971E+06  0.9278E+06E
 ACTION:UPD 12-06-08 11:37 OP:RALL STATUS:               ID:20090716154152     I
 2009-07-16-1541-56S.PLUR1_003                                                 6
 STAT SP IPHASW D HRMM SECON CODA AMPLIT PERI AZIMU VELO AIN AR TRES W  DIS CAZ7
 LZ4  SZ E        1542  4.18                   16.8 21.5      0        72.9 197 
 LZ4  SN IP       1542  4.23                              95    0.0110 72.9 197 
 LZ4  SE IS       1542 12.85                              95   -0.0110 72.9 197 
 LZ4  SN  AML     1542 16.51        34.2 0.32                          72.9 197 
                                                                                
