 2009  716 1944 51.8 L  21.895 -99.441 10.0  RAL  1 0.0 1.4LRAL                1
 GAP=360        0.30       3.6     1.7  0.0 -0.3677E+01  0.6971E+06  0.9278E+06E
 ACTION:UPD 12-06-08 11:37 OP:RALL STATUS:               ID:20090716194451     I
 2009-07-16-1944-48S.PLUR1_003                                                 6
 STAT SP IPHASW D HRMM SECON CODA AMPLIT PERI AZIMU VELO AIN AR TRES W  DIS CAZ7
 LA4  SN IP       1944 59.69                              98    0.0110 47.5 163 
 LA4  SZ E        1944 59.72                  343.4  8.5      0        47.5 163 
 LA4  SE IS       1945  5.46                              98   -0.0110 47.5 163 
 LA4  SZ  AML     1945 10.73        31.4 0.52                          47.5 163 
                                                                                
