 2009  716 2326 22.3 L  21.327 -99.281 10.0  RAL  1 0.2 1.0LRAL                1
 GAP=360        2.44     999.9   181.7  0.0 -0.2224E+06  0.6971E+06  0.9278E+06E
 ACTION:UPD 12-06-08 11:37 OP:RALL STATUS:               ID:20090716232622     I
 2009-07-16-2326-15S.PLUR1_003                                                 6
 STAT SP IPHASW D HRMM SECON CODA AMPLIT PERI AZIMU VELO AIN AR TRES W  DIS CAZ7
 LZ4  SZ E        2326 24.50                  262.1 10.3     11        1.31  71 
 LZ4  SN IP       2326 24.54                             173    0.3710 1.31  71 
 LZ4  SE IS       2326 25.14                             173   -0.3710 1.31  71 
 LZ4  SZ  AML     2326 25.21        53.2 0.24                          1.31  71 
                                                                                
