 2009  717 0509  5.6 L  21.253 -99.232 10.0  RAL  1 0.1 0.8LRAL                1
 GAP=360        0.55      17.4    15.5  0.0 -0.2696E+03  0.6971E+06  0.9278E+06E
 ACTION:UPD 12-06-08 11:37 OP:RALL STATUS:               ID:20090717050905     I
 2009-07-17-0509-01S.PLUR1_003                                                 6
 STAT SP IPHASW D HRMM SECON CODA AMPLIT PERI AZIMU VELO AIN AR TRES W  DIS CAZ7
 LG3  SN IP        5 9  7.81                             163    0.3110 3.27 320 
 LG3  SZ E         5 9  7.81                  140.3  8.0      0        3.27 320 
 LG3  SE IS        5 9  8.60                             163   -0.3110 3.27 320 
 LG3  SZ  AML      5 9  8.84        36.5 0.16                          3.27 320 
                                                                                
