 2009  717 0105 16.8 L  21.474 -99.144 10.0  RAL  1 0.0 1.6LRAL                1
 GAP=360        0.30       3.1     2.8  0.0  0.8304E+01  0.6971E+06  0.9278E+06E
 ACTION:UPD 12-06-08 11:37 OP:RALL STATUS:               ID:20090717010516     I
 2009-07-17-0105-11S.PLUR1_003                                                 6
 STAT SP IPHASW D HRMM SECON CODA AMPLIT PERI AZIMU VELO AIN AR TRES W  DIS CAZ7
 LZ4  SN IP        1 5 20.64                             113    0.0010 20.5 219 
 LZ4  SZ E         1 5 21.03                   39.3 19.0      0        20.5 219 
 LZ4  SE IS        1 5 23.44                             113    0.0010 20.5 219 
 LZ4  SZ  AML      1 5 24.36       103.6 0.16                          20.5 219 
                                                                                
