 2009  717 0526 16.1 L  21.333 -99.275 10.0  RAL  1 0.5 0.2LRAL                1
 GAP=360        6.17     677.0   999.9  0.0  0.1276E+07  0.6971E+06  0.9278E+06E
 ACTION:UPD 12-06-08 11:37 OP:RALL STATUS:               ID:20090717052616     I
 2009-07-17-0526-09S.PLUR1_003                                                 6
 STAT SP IPHASW D HRMM SECON CODA AMPLIT PERI AZIMU VELO AIN AR TRES W  DIS CAZ7
 LZ4  SZ E         526 18.31                  267.9 32.9    -28        0.64 117 
 LZ4  SN IP        526 18.33                             176    0.3710 0.64 117 
 LZ4  SE IS        526 18.93                             176   -0.3710 0.64 117 
 LZ4  SZ  AML      526 19.88         9.4 0.20                          0.64 117 
                                                                                
