 2009  717 0005 39.1 L  21.253 -99.380 10.0  RAL  1 0.0 2.9LRAL                1
 GAP=360        0.30       2.7     3.8  0.0  0.1003E+02  0.6971E+06  0.9278E+06E
 ACTION:UPD 12-06-08 11:37 OP:RALL STATUS:               ID:20090717000539     I
 2009-07-17-0005-32S.PLUR1_003                                                 6
 STAT SP IPHASW D HRMM SECON CODA AMPLIT PERI AZIMU VELO AIN AR TRES W  DIS CAZ7
 LZ4  SZ E         0 5 42.12                  233.0 11.8      0        14.4  53 
 LZ4  SN IP        0 5 42.13                             123   -0.0110 14.4  53 
 LZ4  SE IS        0 5 44.34                             123    0.0110 14.4  53 
 LZ4  SZ  AML      0 5 45.26      2746.1 0.16                          14.4  53 
                                                                                
