 2009  718 0551  1.4 L  21.543 -99.357 10.0  RAL  1 0.0 1.1LRAL                1
 GAP=360        0.30       3.6     1.6  0.0 -0.5329E+01  0.6971E+06  0.9278E+06E
 ACTION:UPD 12-06-08 11:37 OP:RALL STATUS:               ID:20090718055101     I
 2009-07-18-0550-58S.PLUR1_003                                                 6
 STAT SP IPHASW D HRMM SECON CODA AMPLIT PERI AZIMU VELO AIN AR TRES W  DIS CAZ7
 LZ4  SZ E         551  5.75                  339.0 12.6      0        25.2 159 
 LZ4  SN IP        551  5.98                             108    0.0210 25.2 159 
 LZ4  SE IS        551  9.24                             108   -0.0210 25.2 159 
 LZ4  SZ  AML      551  9.70        30.6 0.12                          25.2 159 
                                                                                
