 2009  718 0729  4.0 L  21.217 -99.296 10.0  RAL  1 0.0 1.2LRAL                1
 GAP=360        0.30       4.5     1.1  0.0  0.4636E+01  0.6971E+06  0.9278E+06E
 ACTION:UPD 12-06-08 11:37 OP:RALL STATUS:               ID:20090718072904     I
 2009-07-18-0728-57S.PLUR1_003                                                 6
 STAT SP IPHASW D HRMM SECON CODA AMPLIT PERI AZIMU VELO AIN AR TRES W  DIS CAZ7
 LZ4  SZ E         729  6.75                  192.2 10.6      0        12.9  12 
 LZ4  SN IP        729  6.77                             126    0.0010 12.9  12 
 LZ4  SE IS        729  8.82                             126    0.0010 12.9  12 
 LZ4  SZ  AML      729  9.91        55.0 0.16                          12.9  12 
                                                                                
