 2009  718 1135 29.4 L  21.185 -99.200 10.0  RAL  1 0.0 0.8LRAL                1
 GAP=360        0.30       4.3     2.5  0.0 -0.1071E+02  0.6971E+06  0.9278E+06E
 ACTION:UPD 12-06-08 11:37 OP:RALL STATUS:               ID:20090718113529     I
 2009-07-18-1135-24S.PLUR1_003                                                 6
 STAT SP IPHASW D HRMM SECON CODA AMPLIT PERI AZIMU VELO AIN AR TRES W  DIS CAZ7
 LG3  SZ E        1135 32.08                  151.6 12.1      0        11.4 332 
 LG3  SN IP       1135 32.08                             131    0.0210 11.4 332 
 LG3  SE IS       1135 33.97                             131   -0.0210 11.4 332 
 LG3  SZ  AML     1135 35.05        26.6 0.38                          11.4 332 
                                                                                
