 2009  718 1530 26.0 L  21.287 -99.155 10.0  RAL  1 0.0 0.6LRAL                1
 GAP=360        0.30       1.7     4.6  0.0 -0.7848E+01  0.6971E+06  0.9278E+06E
 ACTION:UPD 12-06-08 11:37 OP:RALL STATUS:               ID:20090718153026     I
 2009-07-18-1530-21S.PLUR1_003                                                 6
 STAT SP IPHASW D HRMM SECON CODA AMPLIT PERI AZIMU VELO AIN AR TRES W  DIS CAZ7
 LZ4  SZ E        1530 28.76                  111.9 26.7      0        12.8 292 
 LZ4  SN IP       1530 28.79                             127    0.0110 12.8 292 
 LZ4  SE IS       1530 30.82                             127   -0.0110 12.8 292 
 LZ4  SZ  AML     1530 31.88        13.8 0.14                          12.8 292 
                                                                                
