 2009  718 1654 13.3 L  21.352 -99.300 10.0  RAL  1 0.1 0.3LRAL                1
 GAP=360        0.40       8.5    12.0  0.0 -0.1022E+03  0.6971E+06  0.9278E+06E
 ACTION:UPD 12-06-08 11:37 OP:RALL STATUS:               ID:20090718165413     I
 2009-07-18-1654-06S.PLUR1_003                                                 6
 STAT SP IPHASW D HRMM SECON CODA AMPLIT PERI AZIMU VELO AIN AR TRES W  DIS CAZ7
 LZ4  SZ E        1654 15.42                  307.3 23.4      0        3.92 127 
 LZ4  SN IP       1654 15.42                             159    0.1810 3.92 127 
 LZ4  SE IS       1654 16.47                             159   -0.1810 3.92 127 
 LZ4  SZ  AML     1654 16.95        10.4 0.38                          3.92 127 
                                                                                
