 2009  719 0702 11.7 L  21.601 -99.486 10.0  RAL  1 0.0 1.9LRAL                1
 GAP=360        0.30       3.1     2.6  0.0 -0.6871E+01  0.6971E+06  0.9278E+06E
 ACTION:UPD 12-06-08 11:37 OP:RALL STATUS:               ID:20090719070211     I
 2009-07-19-0702-08S.PLUR1_003                                                 6
 STAT SP IPHASW D HRMM SECON CODA AMPLIT PERI AZIMU VELO AIN AR TRES W  DIS CAZ7
 LZ4  SN IP        7 2 18.10                             101    0.0210 37.4 143 
 LZ4  SZ E         7 2 18.11                  323.2 11.6      0        37.4 143 
 LZ4  SE IS        7 2 22.71                             101   -0.0210 37.4 143 
 LZ4  SZ  AML      7 2 22.97       128.7 0.26                          37.4 143 
                                                                                
