 2009  719 0140 26.7 L  21.337 -99.283 10.0  RAL  1 0.1 0.5LRAL                1
 GAP=360        0.64     999.9   999.9  0.0  0.2693E+07  0.6971E+06  0.9278E+06E
 ACTION:UPD 12-06-08 11:37 OP:RALL STATUS:               ID:20090719014026     I
 2009-07-19-0140-19S.PLUR1_003                                                 6
 STAT SP IPHASW D HRMM SECON CODA AMPLIT PERI AZIMU VELO AIN AR TRES W  DIS CAZ7
 LZ4  SZ E         140 28.94                  294.5 22.2      0        1.52 115 
 LZ4  SN IP        140 28.95                             172    0.3710 1.52 115 
 LZ4  SE IS        140 29.55                             172   -0.3710 1.52 115 
 LZ4  SZ  AML      140 29.64        18.8 0.14                          1.52 115 
                                                                                
