 2009  719 0441 23.1 L  21.310 -99.260 10.0  RAL  1 0.2 0.3LRAL                1
 GAP=360        1.32      62.6    29.4  0.0 -0.1842E+04  0.6971E+06  0.9278E+06E
 ACTION:UPD 12-06-08 11:37 OP:RALL STATUS:               ID:20090719044123     I
 2009-07-19-0441-16S.PLUR1_003                                                 6
 STAT SP IPHASW D HRMM SECON CODA AMPLIT PERI AZIMU VELO AIN AR TRES W  DIS CAZ7
 LZ4  SN IP        441 25.32                             166    0.3810 2.56 336 
 LZ4  SZ E         441 25.35                  150.8 27.6     -5        2.56 336 
 LZ4  SE IS        441 25.94                             166   -0.3810 2.56 336 
 LZ4  SZ  AML      441 26.04        11.3 0.28                          2.56 336 
                                                                                
