 2009  719 0745 45.6 L  21.467 -99.503 10.0  RAL  1 0.0 1.1LRAL                1
 GAP=360        0.30       2.1     3.5  0.0 -0.6896E+01  0.6971E+06  0.9278E+06E
 ACTION:UPD 12-06-08 11:37 OP:RALL STATUS:               ID:20090719074545     I
 2009-07-19-0745-41S.PLUR1_003                                                 6
 STAT SP IPHASW D HRMM SECON CODA AMPLIT PERI AZIMU VELO AIN AR TRES W  DIS CAZ7
 LZ4  SN IP        745 50.60                             105    0.0210 28.5 122 
 LZ4  SZ E         745 50.64                  301.9 12.2      0        28.5 122 
 LZ4  SE IS        745 54.21                             105   -0.0210 28.5 122 
 LZ4  SZ  AML      745 55.56        27.7 0.28                          28.5 122 
                                                                                
