 2009  719 0247 52.0 L  21.460 -99.350 10.0  RAL  1 0.0 0.1LRAL                1
 GAP=360        0.32       4.8     8.2  0.0  0.3909E+02  0.6971E+06  0.9278E+06E
 ACTION:UPD 12-06-08 11:37 OP:RALL STATUS:               ID:20090719024752     I
 2009-07-19-0247-41S.PLUR1_003                                                 6
 STAT SP IPHASW D HRMM SECON CODA AMPLIT PERI AZIMU VELO AIN AR TRES W  DIS CAZ7
 LA4  SZ E         247 54.04                  238.0 32.2      0        5.01  58 
 LA4  SN IP        247 54.05                             154    0.0710 5.01  58 
 LA4  SE IS        247 55.38                             154   -0.0710 5.01  58 
 LA4  SZ  AML      247 56.40         7.0 0.38                          5.01  58 
                                                                                
