 2009  719 1044 31.6 L  21.341 -99.285 10.0  RAL  1 0.3 1.9LRAL                1
 GAP=360        2.18      81.8   129.0  0.0 -0.1055E+05  0.6971E+06  0.9278E+06E
 ACTION:UPD 12-06-08 11:37 OP:RALL STATUS:               ID:20090719104431     I
 2009-07-19-1044-24S.PLUR1_003                                                 6
 STAT SP IPHASW D HRMM SECON CODA AMPLIT PERI AZIMU VELO AIN AR TRES W  DIS CAZ7
 LZ4  SZ E        1044 34.04                  294.7 16.5     -9        1.96 124 
 LZ4  SN IP       1044 34.04                             169    0.5510 1.96 124 
 LZ4  SE IS       1044 34.29                             169   -0.5510 1.96 124 
 LZ4  SZ  AML     1044 34.38       406.8 0.14                          1.96 124 
                                                                                
