 2009  723 0507 49.1 L  21.206 -99.100 10.0  RAL  1 0.0 1.0LRAL                1
 GAP=360        0.30       1.9     4.0  0.0 -0.7214E+01  0.6971E+06  0.9278E+06E
 ACTION:UPD 12-06-08 11:37 OP:RALL STATUS:               ID:20090723050749     I
 2009-07-23-0507-43S.PLUR1_003                                                 6
 STAT SP IPHASW D HRMM SECON CODA AMPLIT PERI AZIMU VELO AIN AR TRES W  DIS CAZ7
 LG3  SZ E         5 7 52.50                  116.0 14.7      0        17.6 296 
 LG3  SN IP        5 7 52.52                             117    0.0010 17.6 296 
 LG3  SE IS        5 7 55.03                             117    0.0010 17.6 296 
 LG3  SZ  AML      5 7 57.26        28.9 0.30                          17.6 296 
                                                                                
