 2009  724 0028 17.8 L  21.256 -99.274 10.0  RAL  1 0.2 1.4LRAL                1
 GAP=360        0.70      20.9    23.6  0.0  0.4932E+03  0.6971E+06  0.9278E+06E
 ACTION:UPD 12-06-08 11:37 OP:RALL STATUS:               ID:20090724002817     I
 2009-07-24-0028-10S.PLUR1_003                                                 6
 STAT SP IPHASW D HRMM SECON CODA AMPLIT PERI AZIMU VELO AIN AR TRES W  DIS CAZ7
 LG3  SZ E         028 20.16                  226.5 19.6      0        3.11  46 
 LG3  SN IP        028 20.17                             163    0.4310 3.11  46 
 LG3  SE IS        028 20.72                             163   -0.4310 3.11  46 
 LG3  SZ  AML      028 20.87       134.5 0.26                          3.11  46 
                                                                                
