 2009  724 0404 21.3 L  21.379 -99.133 10.0  RAL  1 0.0 0.4LRAL                1
 GAP=360        0.30       2.9     3.3  0.0  0.9387E+01  0.6971E+06  0.9278E+06E
 ACTION:UPD 12-06-08 11:37 OP:RALL STATUS:               ID:20090724040421     I
 2009-07-24-0404-17S.PLUR1_003                                                 6
 STAT SP IPHASW D HRMM SECON CODA AMPLIT PERI AZIMU VELO AIN AR TRES W  DIS CAZ7
 LG3  SN IP        4 4 24.68                             119    0.0110 16.8 227 
 LG3  SZ E         4 4 24.69                   47.2 13.8      0        16.8 227 
 LG3  SE IS        4 4 27.10                             119   -0.0110 16.8 227 
 LG3  SZ  AML      4 4 29.41         7.2 0.30                          16.8 227 
                                                                                
