 2009  724 0904  8.9 L  21.192 -99.326 10.0  RAL  1 0.5-0.3LRAL                1
 GAP=360        6.35     999.9   999.9  0.0  0.3882E+07  0.6971E+06  0.9278E+06E
 ACTION:UPD 12-06-08 11:37 OP:RALL STATUS:               ID:20090724090408     I
 2009-07-24-0904-07S.PLUR1_003                                                 6
 STAT SP IPHASW D HRMM SECON CODA AMPLIT PERI AZIMU VELO AIN AR TRES W  DIS CAZ7
 LD5  SZ E         9 4 10.93                  286.9 11.5    -29        0.82 137 
 LD5  SN IP        9 4 11.01                             175    0.2810 0.82 137 
 LD5  SE IS        9 4 11.78                             175   -0.2810 0.82 137 
 LD5  SZ  AML      9 4 12.68         2.9 0.44                          0.82 137 
                                                                                
