 2009  724 1746 60.0 L  21.193 -99.344 10.0  RAL  1 0.0-0.3LRAL                1
 GAP=360        0.35       4.9    18.8  0.0 -0.9171E+02  0.6971E+06  0.9278E+06E
 ACTION:UPD 12-06-08 11:37 OP:RALL STATUS:               ID:20090724174660     I
 2009-07-24-1746-58S.PLUR1_003                                                 6
 STAT SP IPHASW D HRMM SECON CODA AMPLIT PERI AZIMU VELO AIN AR TRES W  DIS CAZ7
 LD5  SZ E        1747  1.92                  285.6 11.4      0        2.55 106 
 LD5  SN IP       1747  1.96                             166    0.1310 2.55 106 
 LD5  SE IS       1747  3.08                             166   -0.1310 2.55 106 
 LD5  SZ  AML     1747  4.29         2.8 0.24                          2.55 106 
                                                                                
