 2009  724 1247 12.0 L  21.149 -99.089 10.0  RAL  1 0.0 0.7LRAL                1
 GAP=360        0.30       2.6     3.3  0.0 -0.8095E+01  0.6971E+06  0.9278E+06E
 ACTION:UPD 12-06-08 11:37 OP:RALL STATUS:               ID:20090724124712     I
 2009-07-24-1247-09S.PLUR1_003                                                 6
 STAT SP IPHASW D HRMM SECON CODA AMPLIT PERI AZIMU VELO AIN AR TRES W  DIS CAZ7
 LG3  SN IP       1247 16.05                             111    0.0010 22.0 310 
 LG3  SZ E        1247 16.07                  129.5 10.5      0        22.0 310 
 LG3  SE IS       1247 19.01                             111    0.0010 22.0 310 
 LG3  SZ  AML     1247 22.49        11.1 0.34                          22.0 310 
                                                                                
