 2009  726 1847 24.1 L  21.995 -99.284  5.7  RAL  2 0.2 1.7LRAL                1
 GAP=359        1.63      37.8     6.9999.9  0.7874E+02 -0.4858E+04 -0.8635E+05E
 ACTION:UPD 12-06-08 11:37 OP:RALL STATUS:               ID:20090726184724     I
 2009-07-26-1847-28S.PLUR1_012                                                 6
 STAT SP IPHASW D HRMM SECON CODA AMPLIT PERI AZIMU VELO AIN AR TRES W  DIS CAZ7
 LA4  SZ E        1847 33.08                    7.1  6.8      4        56.7 183 
 LA4  SN IP       1847 33.09                              91   -0.3010 56.7 183 
 LA4  SE IS       1847 39.74                              91   -0.4310 56.7 183 
 LA4  SZ  AML     1847 43.30       206.6 0.42                          56.7 183 
 LT7  SN IP       1847 35.19                              91    0.3010 66.5 184 
 LT7  SZ E        1847 35.21                  358.5  9.6      5        66.5 184 
 LT7  SE IS       1847 43.20                              91    0.4310 66.5 184 
 LT7  SZ  AML     1847 47.29         9.2 0.46                          66.5 184 
                                                                                
