 2009  726 1347 37.3 L  20.674 -99.700 10.0  RAL  1 0.0 2.1LRAL                1
 GAP=360        0.30       3.3     2.9  0.0  0.4682E+01  0.6971E+06  0.9278E+06E
 ACTION:UPD 12-06-08 11:37 OP:RALL STATUS:               ID:20090726134737     I
 2009-07-26-1347-41S.PLUR1_003                                                 6
 STAT SP IPHASW D HRMM SECON CODA AMPLIT PERI AZIMU VELO AIN AR TRES W  DIS CAZ7
 LG3  SZ E        1347 50.30                  215.0 11.4      0        81.2  35 
 LG3  SN IP       1347 50.45                              94    0.0110 81.2  35 
 LG3  SE IS       1348  0.02                              94   -0.0110 81.2  35 
 LG3  SZ  AML     1348  7.22        95.4 0.54                          81.2  35 
                                                                                
