 2009  727 2347 39.6 L  21.293 -99.341 10.0  RAL  2 0.2 0.3LRAL                1
 GAP=198        3.05       8.4     2.5 37.4 -0.4995E+01  0.4398E+01 -0.5016E+02E
 ACTION:UPD 12-06-08 11:37 OP:RALL STATUS:               ID:20090727234739     I
 2009-07-27-2347-36S.PLUR1_006                                                 6
 STAT SP IPHASW D HRMM SECON CODA AMPLIT PERI AZIMU VELO AIN AR TRES W  DIS CAZ7
 LT7  SZ E        2347 41.75                  176.4  9.9    -10        11.5   8 
 LT7  SN IP       2347 41.75                             132   -0.4210 11.5   8 
 LT7  SE IS       2347 43.70                             132   -0.3610 11.5   8 
 LT7  SZ  AML     2347 43.95        14.5 0.28                          11.5   8 
 LD5  SZ E        2347 42.46                  340.8 38.3     -8        11.9 170 
 LD5  SN IP       2347 42.47                             139    0.2010 11.9 170 
 LD5  SE IS       2347 44.82                             139    0.5810 11.9 170 
 LD5  SZ  AML     2347 45.87         4.8 0.32                          11.9 170 
                                                                                
