 2009  729 0017 27.4 L  20.984 -99.641 10.0  RAL  1 0.0 1.5LRAL                1
 GAP=360        0.30       2.6     3.2  0.0  0.6342E+01  0.4398E+01 -0.5016E+02E
 ACTION:UPD 12-06-08 11:37 OP:RALL STATUS:               ID:20090729001727     I
 2009-07-29-0017-26S.PLUR1_003                                                 6
 STAT SP IPHASW D HRMM SECON CODA AMPLIT PERI AZIMU VELO AIN AR TRES W  DIS CAZ7
 LG3  SZ E         017 35.87                  231.4 11.6      0        51.7  51 
 LG3  SN IP        017 35.95                              97    0.0110 51.7  51 
 LG3  SE IS        017 42.18                              97   -0.0110 51.7  51 
 LG3  SZ  AML      017 42.45        35.4 0.40                          51.7  51 
                                                                                
