 2009  730 0313 18.3 L  21.262 -99.278 10.0  RAL  1 0.1 0.5LRAL                1
 GAP=360        0.49      10.6    19.9  0.0  0.2112E+03  0.4398E+01 -0.5016E+02E
 ACTION:UPD 12-06-08 11:37 OP:RALL STATUS:               ID:20090730031318     I
 2009-07-30-0313-11S.PLUR1_003                                                 6
 STAT SP IPHASW D HRMM SECON CODA AMPLIT PERI AZIMU VELO AIN AR TRES W  DIS CAZ7
 LG3  SZ E         313 20.43                  240.2 26.7      0        3.08  60 
 LG3  SN IP        313 20.46                             163    0.2610 3.08  60 
 LG3  SE IS        313 21.34                             163   -0.2610 3.08  60 
 LG3  SZ  AML      313 21.86        17.5 0.16                          3.08  60 
                                                                                
