 2009  730 0001 26.0 L  21.058 -99.705 10.0  RAL  1 0.0 1.4LRAL                1
 GAP=360        0.30       2.1     3.6  0.0  0.5234E+01  0.4398E+01 -0.5016E+02E
 ACTION:UPD 12-06-08 11:37 OP:RALL STATUS:               ID:20090730000126     I
 2009-07-30-0001-26S.PLUR1_003                                                 6
 STAT SP IPHASW D HRMM SECON CODA AMPLIT PERI AZIMU VELO AIN AR TRES W  DIS CAZ7
 LG3  SZ E         0 1 34.78                  243.0 13.1      0        52.8  63 
 LG3  SN IP        0 1 34.78                              97    0.0110 52.8  63 
 LG3  SE IS        0 1 41.14                              97   -0.0110 52.8  63 
 LG3  SZ  AML      0 1 44.00        25.9 0.72                          52.8  63 
                                                                                
