 2007 1110 2054 28.1 L  21.464 -99.462 10.0  RAL  3 0.7 1.7LRAL                1
 GAP=319        7.47      40.5    23.1 54.7 -0.5958E+03 -0.7079E+03  0.1643E+04E
 2007-11-10-2054-22S.PLUR1_009                                                 6
 ACTION:UPD 12-06-08 11:37 OP:RALL STATUS:               ID:20071110205428     I
 STAT SP IPHASW D HRMM SECON CODA AMPLIT PERI AZIMU VELO AIN AR TRES W  DIS CAZ7
 LD3  SN IP     D 2054 32.33                             178    2.3610 0.99 119 
 LD3  SZ E        2054 32.36                  289.2 31.3     -9        0.99 119 
 LD3  SE IS     D 2054 33.00                             178    1.6710 0.99 119 
 LD3  SZ  AML     2054 33.20       443.1 0.14                          0.99 119 
 LD5  SZ E        2054 33.66                    3.9 12.1     30        34.0 154 
 LD5  SN IP     D 2054 33.68                             103   -0.2810 34.0 154 
 LD5  SE IS       2054 35.55                             103   -2.6810 34.0 154 
 LD5  SZ  AML     2054 36.50        80.0 0.42                          34.0 154 
 LD2  SZ E        2054 34.36                    1.7  9.9     21        34.9 161 
 LD2  SN IP     C 2054 34.42                             103    0.3110 34.9 161 
 LD2  SE IS     D 2054 37.11                             103   -1.3810 34.9 161 
 LD2  SZ  AML     2054 37.69        65.5 0.20                          34.9 161 
                                                                                
 2007 1111 0404 38.9 L  21.189 -99.309 20.8  RAL  3 0.7 0.8LRAL                1
 GAP=266        9.40       9.8    17.9 55.9  0.1680E+03 -0.7468E+02 -0.4657E+02E
 ACTION:UPD 12-06-08 11:37 OP:RALL STATUS:               ID:20071111040438     I
 2007-11-11-0404-33S.PLUR1_009                                                 6
 STAT SP IPHASW D HRMM SECON CODA AMPLIT PERI AZIMU VELO AIN AR TRES W  DIS CAZ7
 LD5  SZ E         4 4 43.66                   97.9 10.7     21        1.14 257 
 LD5  SN IP     D  4 4 43.69                             179    1.2910 1.14 257 
 LD5  SE IS     D  4 4 44.22                             179   -0.7310 1.14 257 
 LD5  SZ  AML      4 4 44.28        23.1 0.14                          1.14 257 
 LD2  SZ E         4 4 44.22                   22.5 17.5    -36        4.96 239 
 LD2  SN IP     C  4 4 44.30                             168    1.7910 4.96 239 
 LD2  SE IS     C  4 4 45.37                             168    0.2310 4.96 239 
 LD2  SZ  AML      4 4 45.58        36.0 0.18                          4.96 239 
 LD3  SN IP        4 4 45.32                             116    0.0110 33.5 333 
 LD3  SZ E         4 4 45.32                  182.9 18.5     30        33.5 333 
 LD3  SE IS     C  4 4 47.38                             116   -2.6010 33.5 333 
 LD3  SZ  AML      4 4 47.47         4.3 0.18                          33.5 333 
                                                                                
 2007 1114 1122 27.7 L  21.469 -99.460100.0  RAL  3 0.7 2.0LRAL                1
 GAP=350        4.02      49.5    23.0 40.6 -0.1025E+04  0.1905E+03 -0.4422E+03E
 ACTION:UPD 12-06-08 11:37 OP:RALL STATUS:               ID:20071114112227     I
 2007-11-14-1122-32S.PLUR1_009                                                 6
 STAT SP IPHASW D HRMM SECON CODA AMPLIT PERI AZIMU VELO AIN AR TRES W  DIS CAZ7
 LD3  SN IP     D 1122 41.85                             179    0.8010 1.20 151 
 LD3  SZ E        1122 41.88                  328.6 12.5     -1        1.20 151 
 LD3  SE IS       1122 48.03                             179   -2.7310 1.20 151 
 LD3  SZ  AML     1122 52.71        58.0 0.52                          1.20 151 
 LD5  SN IP       1122 43.39                             159    1.6310 34.4 155 
 LD5  SZ E        1122 43.41                  341.1  8.5      6        34.4 155 
 LD5  SE IS       1122 50.64                             159   -1.3610 34.4 155 
 LD5  SZ  AML     1122 51.77        52.8 0.42                          34.4 155 
 LD2  SN IP     C 1122 43.90                             159    2.0810 35.4 161 
 LD2  SZ E        1122 44.01                  349.6 15.2      8        35.4 161 
 LD2  SE IS       1122 51.68                             159   -0.4210 35.4 161 
 LD2  SZ  AML     1122 54.34        48.6 0.28                          35.4 161 
                                                                                
 2007 1117 1549 51.3 L  21.409 -99.760 10.0  RAL  3 1.5 1.2LRAL                1
 GAP=318       23.33      52.0   138.7999.9 -0.1212E+04  0.7759E+05  0.5740E+04E
 ACTION:UP  12-06-08 11:37 OP:RALL STATUS:               ID:20071117154951     I
 2007-11-17-1549-49S.PLUR1_009                                                 6
 STAT SP IPHASW D HRMM SECON CODA AMPLIT PERI AZIMU VELO AIN AR TRES W  DIS CAZ7
 LD3  SZ E        1549 58.92                  317.6 15.0     58        32.2  80 
 LD3  SN IP       1549 59.08                              99    2.1910 32.2  80 
 LD3  SZ  AML     1550  0.76        48.7 0.20                          32.2  80 
 LD3  SE IS       1550  0.76                              99   -0.2210 32.2  80 
 LD2  SZ IP       1550  0.82                              95    1.1610 50.3 122 
 LD2  SZ E        1550  0.82                  205.4 10.5    -96        50.3 122 
 LD2  SN IP       1550  1.17                              95    1.5110 50.3 122 
 LD2  SE IS       1550  4.02                              95   -1.7410 50.3 122 
 LD2  SZ  AML     1550  5.81        14.9 0.28                          50.3 122 
 LD5  SZ E        1550  0.23                   19.7  9.8     81        51.9 118 
 LD5  SN IP       1550  0.30                              95    0.4110 51.9 118 
 LD5  SE IS       1550  2.86                              95   -3.3010 51.9 118 
 LD5  SZ  AML     1550  3.80        11.1 0.48                          51.9 118 
                                                                                
 2007 1117 1738 30.9 L  21.467 -99.495 10.0  RAL  1 0.0-0.2LRAL                1
 GAP=360        0.30       2.0    10.2  0.0 -0.2026E+02  0.7759E+05  0.5740E+04E
 ACTION:UPD 12-06-08 11:37 OP:RALL STATUS:               ID:20071117173830     I
 2007-11-17-1738-24S.PLUR1_006                                                 6
 STAT SP IPHASW D HRMM SECON CODA AMPLIT PERI AZIMU VELO AIN AR TRES W  DIS CAZ7
 LD3  SZ E        1738 32.86                  281.8 16.9      0        4.31 102 
 LD3  SN IP       1738 32.92                             157    0.0310 4.31 102 
 LD3  SE IS       1738 34.32                             157   -0.0310 4.31 102 
 LD3  SZ  AML     1738 34.39         3.0 0.40                          4.31 102 
                                                                                
 2007 1117 2114 16.4 L  21.380 -99.711 10.0  RAL  3 1.3 1.1LRAL                1
 GAP=309       23.54      45.3   106.6638.0  0.2431E+03  0.2389E+05  0.7262E+04E
 ACTION:UPD 12-06-08 11:37 OP:RALL STATUS:               ID:20071117211416     I
 2007-11-17-2114-13S.PLUR1_009                                                 6
 STAT SP IPHASW D HRMM SECON CODA AMPLIT PERI AZIMU VELO AIN AR TRES W  DIS CAZ7
 LD3  SZ E        2114 23.05                  320.8 15.7     69        28.0  72 
 LD3  SN IP       2114 23.05                             106    1.7110 28.0  72 
 LD3  SE IS       2114 24.74                             106   -0.2210 28.0  72 
 LD3  SZ  AML     2114 24.89        35.8 0.20                          28.0  72 
 LD2  SN IP       2114 24.94                              99    1.1310 44.3 122 
 LD2  SZ E        2114 24.95                  203.6  6.4    -98        44.3 122 
 LD2  SE IS       2114 28.60                              99   -0.6410 44.3 122 
 LD2  SZ  AML     2114 29.00        17.1 0.28                          44.3 122 
 LD5  SZ E        2114 24.27                  359.0 13.1     61        45.9 118 
 LD5  SN IP       2114 24.29                              98    0.2510 45.9 118 
 LD5  SE IS       2114 27.40                              98   -2.2310 45.9 118 
 LD5  SZ  AML     2114 27.70        10.7 0.44                          45.9 118 
                                                                                
 2007 1118 0454 37.4 L  21.462 -99.465 45.7  RAL  3 0.5 1.1LRAL                1
 GAP=306        4.29       4.2     9.2 41.5  0.2999E+02  0.2908E+00  0.1267E+01E
 ACTION:UPD 12-06-08 11:37 OP:RALL STATUS:               ID:20071118045437     I
 2007-11-18-0454-36S.PLUR1_009                                                 6
 STAT SP IPHASW D HRMM SECON CODA AMPLIT PERI AZIMU VELO AIN AR TRES W  DIS CAZ7
 LD3  SZ E         454 45.78                  301.5 13.9     15        1.24 106 
 LD3  SN IP        454 45.99                             178    1.8010 1.24 106 
 LD3  SE IS        454 50.26                             178    1.1210 1.24 106 
 LD3  SZ  AML      454 50.75        10.7 0.22                          1.24 106 
 LD5  SN IP        454 45.76                             139    0.0310 34.1 154 
 LD5  SZ E         454 45.81                  323.2  9.1    -10        34.1 154 
 LD5  SE IS        454 50.62                             139   -1.1910 34.1 154 
 LD5  SZ  AML      454 51.79        10.2 0.76                          34.1 154 
 LD2  SZ E         454 45.66                  346.8  5.8      7        34.9 160 
 LD2  SN IP        454 45.75                             138   -0.0710 34.9 160 
 LD2  SE IS        454 50.28                             138   -1.6910 34.9 160 
 LD2  SZ  AML      454 52.39        22.1 0.26                          34.9 160 
                                                                                
 2007 1118 1102 52.7 L  21.234 -98.700 10.0  RAL  1 0.0                        1
 GAP=360        0.30       1.8     4.0  0.0  0.1247E+01  0.2908E+00  0.1267E+01E
 ACTION:UP  12-06-08 11:37 OP:RALL STATUS:               ID:20071118110252     I
 2007-11-18-1103-00S.PLUR1_009                                                 6
 STAT SP IPHASW D HRMM SECON CODA AMPLIT PERI AZIMU VELO AIN AR TRES W  DIS CAZ7
 LD2  SN IP       11 3  3.77                              95    0.0110 68.0 264 
 LD2  SZ E        11 3  4.43                   83.5 20.1      0        68.0 264 
 LD2  SE IS     C 11 3 11.85                              95   -0.0110 68.0 264 
                                                                                
 2007 1119 1552 28.2 L  21.462 -99.462 27.3  RAL  2 0.6 0.5LRAL                1
 GAP=318        4.84       7.5    19.2 41.2 -0.1431E+03 -0.1910E+03  0.7455E+02E
 ACTION:UPD 12-06-08 11:37 OP:RALL STATUS:               ID:20071119155228     I
 2007-11-19-1552-24S.PLUR1_006                                                 6
 STAT SP IPHASW D HRMM SECON CODA AMPLIT PERI AZIMU VELO AIN AR TRES W  DIS CAZ7
 LD3  SZ E        1552 34.41                  289.4 15.9     -2        0.90 113 
 LD3  SN IP       1552 34.42                             178    1.7910 0.90 113 
 LD3  SE IS       1552 36.18                             178    0.2910 0.90 113 
 LD3  SZ  AML     1552 36.65        10.2 0.18                          0.90 113 
 LD5  SZ E        1552 35.28                  352.6 11.4     18        33.9 154 
 LD5  SN IP       1552 35.30                             125    0.2210 33.9 154 
 LD5  SE IS       1552 37.83                             125   -2.3010 33.9 154 
 LD5  SZ  AML     1552 38.69         2.6 0.38                          33.9 154 
                                                                                
 2007 1123 1814  2.0 L  21.462 -99.458 23.6  RAL  2 0.8 1.1LRAL                1
 GAP=331       10.38      65.1    43.5 99.0 -0.1648E+04 -0.1869E+04  0.3781E+04E
 ACTION:UPD 12-06-08 11:37 OP:RALL STATUS:               ID:20071123181402     I
 2007-11-23-1813-57S.PLUR1_006                                                 6
 STAT SP IPHASW D HRMM SECON CODA AMPLIT PERI AZIMU VELO AIN AR TRES W  DIS CAZ7
 LD3  SN IP       1814  7.64                             179    1.7210 0.53 126 
 LD3  SZ E        1814  7.67                  301.8 22.8     -4        0.53 126 
 LD3  SE IS       1814  8.68                             179   -0.1110 0.53 126 
 LD3  SZ  AML     1814  8.84        79.9 0.20                          0.53 126 
 LD5  SZ E        1814  9.02                   23.7  7.1     49        33.7 155 
 LD5  SN IP       1814  9.03                             120    0.4310 33.7 155 
 LD5  SN IS       1814 11.38                             120   -2.0410 33.7 155 
 LD5  SE IS       1814 11.40                                           33.7 155 
 LD5  SZ  AML     1814 12.37         9.0 0.24                          33.7 155 
                                                                                
 2007 1123 2014 50.3 L  21.307 -99.441 43.3  RAL  2 0.1 0.7LRAL                1
 GAP=219        0.56       3.1     3.2  7.0 -0.9152E+01  0.3789E+00 -0.1811E+00E
 ACTION:UPD 12-06-08 11:37 OP:RALL STATUS:               ID:20071123201450     I
 2007-11-23-2014-52S.PLUR1_006                                                 6
 STAT SP IPHASW D HRMM SECON CODA AMPLIT PERI AZIMU VELO AIN AR TRES W  DIS CAZ7
 LD3  SN IP       2014 57.49                             155    0.2610 17.0 355 
 LD3  SZ E        2014 57.51                                           17.0 355 
 LD3  SE IS       2015  2.14                             155   -0.1510 17.0 355 
 LD3  SZ  AML     2015  2.83        10.9 0.24                          17.0 355 
 LD5  SN IP       2014 57.01                             153   -0.2610 18.3 137 
 LD5  SZ E        2014 57.37                  316.7 10.7      0        18.3 137 
 LD5  SE IS       2015  2.52                             153    0.1510 18.3 137 
 LD5  SZ  AML     2015  4.03         4.4 0.28                          18.3 137 
                                                                                
 2007 1125 0626  8.4 L  21.466 -99.459 66.9  RAL  2 0.3 1.6LRAL                1
 GAP=350        3.95       5.2    11.9 45.8  0.4572E+02  0.3832E+00  0.1144E+00E
 ACTION:UPD 12-06-08 11:37 OP:RALL STATUS:               ID:20071125062608     I
 2007-11-25-0626-10S.PLUR1_006                                                 6
 STAT SP IPHASW D HRMM SECON CODA AMPLIT PERI AZIMU VELO AIN AR TRES W  DIS CAZ7
 LD3  SZ E         626 18.06                  312.7 11.6    -12        0.92 145 
 LD3  SN IP        626 18.08                             179    0.3610 0.92 145 
 LD3  SE IS        626 24.72                             179    0.1610 0.92 145 
 LD3  SZ  AML      626 27.21        45.2 0.52                          0.92 145 
 LD5  SZ E         626 18.83                  349.1 10.8     14        34.1 155 
 LD5  SN IP        626 18.90                             150    0.1110 34.1 155 
 LD5  SE IS        626 25.77                             150   -0.6310 34.1 155 
 LD5  SZ  AML      626 28.21        20.4 0.50                          34.1 155 
                                                                                
 2007 1125 0841 56.6 L  21.331 -99.358  0.0  RAL  2 1.1 0.0LRAL                1
 GAP=201       19.55      36.0    26.2999.9 -0.4100E+03 -0.5922E+04  0.9636E+04E
 ACTION:UP  12-06-08 11:37 OP:RALL STATUS:               ID:20071125084156     I
 2007-11-25-0841-50S.PLUR1_006                                                 6
 STAT SP IPHASW D HRMM SECON CODA AMPLIT PERI AZIMU VELO AIN AR TRES W  DIS CAZ7
 LD5  SZ E         842  0.33                   63.3 10.0     77        16.4 166 
 LD5  SN IP        842  0.38                              94    0.8910 16.4 166 
 LD5  SE IS        842  1.79                              94    0.2010 16.4 166 
 LD5  SZ  AML      842  1.84         1.6 0.18                          16.4 166 
 LD3  SZ E         841 59.80                  201.2 13.4     56        17.4 325 
 LD3  SN IP        841 59.81                              94    0.1610 17.4 325 
 LD3  SE IS        842  0.61                              94   -1.2610 17.4 325 
 LD3  SZ  AML      842  0.73         6.1 0.14                          17.4 325 
                                                                                
 2007 1125 1821 52.8 L  21.512 -99.503 65.2  RAL  2 0.1 1.4LRAL                1
 GAP=347        0.94       6.0     5.9 10.9 -0.3498E+02  0.2445E+00 -0.2457E+00E
 ACTION:UPD 12-06-08 11:37 OP:RALL STATUS:               ID:20071125182152     I
 2007-11-25-1821-56S.PLUR1_006                                                 6
 STAT SP IPHASW D HRMM SECON CODA AMPLIT PERI AZIMU VELO AIN AR TRES W  DIS CAZ7
 LD3  SZ E        1822  2.29                  317.3 14.5     -1        7.78 139 
 LD3  SN IP       1822  2.29                             176    0.2910 7.78 139 
 LD3  SE IS       1822  8.48                             176   -0.2410 7.78 139 
 LD3  SZ  AML     1822 11.10        22.3 0.68                          7.78 139 
 LD5  SZ E        1822  3.14                  335.4  9.1      3        40.8 152 
 LD5  SN IP       1822  3.19                             147   -0.2810 40.8 152 
 LD5  SE IS       1822 11.49                             147    0.2210 40.8 152 
 LD5  SZ IS       1822 12.15                             145           40.8 152 
                                                                                
 2007 1127 0802 13.7 L  21.730 -99.906 10.0  RAL  1 0.0 0.7LRAL                1
 GAP=360        0.30       2.3     3.5  0.0 -0.5764E+01  0.2445E+00 -0.2457E+00E
 ACTION:UPD 12-06-08 11:37 OP:RALL STATUS:               ID:20071127080213     I
 2007-11-27-0802-19S.PLUR1_006                                                 6
 STAT SP IPHASW D HRMM SECON CODA AMPLIT PERI AZIMU VELO AIN AR TRES W  DIS CAZ7
 LD3  SZ E         8 2 22.68                  302.7 13.1      0        55.6 123 
 LD3  SN IP        8 2 22.88                              96    0.0110 55.6 123 
 LD3  SZ  AML      8 2 29.48         5.4 0.30                          55.6 123 
 LD3  SE IS        8 2 29.55                              96   -0.0110 55.6 123 
                                                                                
