 2007 1222 1304 57.0 L  21.476 -99.753  5.3  RAL  3 1.2 1.3LRAL                1
 GAP=324       20.13      49.9   124.1999.9 -0.2872E+04  0.4530E+06 -0.2526E+05E
 ACTION:UPD 12-06-08 11:37 OP:RALL STATUS:               ID:20071222130457     I
 2007-12-22-1304-54S.PLUR1_009                                                 6
 STAT SP IPHASW D HRMM SECON CODA AMPLIT PERI AZIMU VELO AIN AR TRES W  DIS CAZ7
 LD3  SN IP       13 5  3.84                              91    1.4910 31.1  93 
 LD3  SZ E        13 5  4.06                  317.0 13.6     44        31.1  93 
 LD3  SE IS       13 5  7.84                              91    1.6010 31.1  93 
 LD3  SZ  AML     13 5  9.68        57.9 0.34                          31.1  93 
 LD2  SZ E        13 5  5.89                  220.5 14.6    -88        54.1 129 
 LD2  SN IP       13 5  6.02                              90    0.0910 54.1 129 
 LD2  SE IS       13 5 12.13                              90   -0.2910 54.1 129 
 LD2  SZ  AML     13 5 14.90        19.2 0.24                          54.1 129 
 LD5  SN IP       13 5  5.54                              90   -0.5510 55.2 125 
 LD5  SZ E        13 5  5.55                    4.3 10.3     59        55.2 125 
 LD5  SE IS       13 5 10.36                              90   -2.3410 55.2 125 
 LD5  SZ  AML     13 5 16.66        19.2 0.88                          55.2 125 
                                                                                
 2007 1222 1326 58.0 L  21.611 -99.769 42.9  RAL  3 1.3 1.9LRAL                1
 GAP=339       21.01     112.4   170.7285.5 -0.1584E+05  0.1523E+05 -0.7726E+04E
 ACTION:UPD 12-06-08 11:37 OP:RALL STATUS:               ID:20071222132658     I
 2007-12-22-1326-58S.PLUR1_009                                                 6
 STAT SP IPHASW D HRMM SECON CODA AMPLIT PERI AZIMU VELO AIN AR TRES W  DIS CAZ7
 LD3  SZ E        1327  8.17                  309.3 13.9     12        36.7 117 
 LD3  SN IP       1327  8.28                             131    1.9210 36.7 117 
 LD3  SE IS       1327 13.19                             131    0.7410 36.7 117 
 LD3  SZ  AML     1327 14.49        86.9 0.28                          36.7 117 
 LD2  SZ E        1327 10.26                  226.8 99.9    -91        65.7 139 
 LD2  SN IP       1327 10.36                             111    0.9810 65.7 139 
 LD2  SE IS       1327 15.92                             111   -1.7510 65.7 139 
 LD2  SZ  AML     1327 20.36        55.4 0.44                          65.7 139 
 LD5  SZ E        1327  9.85                   31.5  9.5     76        66.2 135 
 LD5  SN IP       1327  9.87                             111    0.4610 66.2 135 
 LD5  SE IS       1327 15.38                             111   -2.3510 66.2 135 
 LD5  SZ  AML     1327 21.09        45.3 0.88                          66.2 135 
                                                                                
 2007 1227  422 25.7 L                       RAL  1                            1
 ACTION:UPD 12-06-08 11:37 OP:RALL STATUS:               ID:20071227042225     I
 2007-12-27-0422-25S.PLUR1_009                                                 6
 STAT SP IPHASW D HRMM SECON CODA AMPLIT PERI AZIMU VELO AIN AR TRES W  DIS CAZ7
 LD2  SZ E         422 30.44                  194.5  6.8                        
 LD2  SZ  AML      422 37.92         6.5 0.24                                   
                                                                                
 2007 1227  730 25.0 L                       RAL  0                            1
 ACTION:UPD 12-06-08 11:37 OP:RALL STATUS:               ID:20071227073025     I
 2007-12-27-0730-24S.PLUR1_006                                                 6
 STAT SP IPHASW D HRMM SECON CODA AMPLIT PERI AZIMU VELO AIN AR TRES W  DIS CAZ7
                                                                                
 2007 1230 0943 44.8 L  21.186 -99.311 10.0  RAL  1 0.2-0.6LRAL                1
 GAP=360        2.08     458.2   348.2  0.0  0.1595E+06  0.1523E+05 -0.7726E+04E
 ACTION:UPD 12-06-08 11:37 OP:RALL STATUS:               ID:20071230094344     I
 2007-12-30-0943-37S.PLUR1_003                                                 6
 STAT SP IPHASW D HRMM SECON CODA AMPLIT PERI AZIMU VELO AIN AR TRES W  DIS CAZ7
 LD5  SZ E         943 46.78                   84.0  7.1     -9        0.91 274 
 LD5  SN IP        943 46.81                             175    0.2110 0.91 274 
 LD5  SE IS        943 47.73                             175   -0.2110 0.91 274 
 LD5  SZ  AML      943 48.43         1.5 0.22                          0.91 274 
                                                                                
 2007 1231 0956 53.0 L  20.656 -99.446 10.0  RAL  1 0.0 0.7LRAL                1
 GAP=360        0.30       3.7     1.7  0.0  0.2123E+01  0.1523E+05 -0.7726E+04E
 ACTION:UPD 12-06-08 11:37 OP:RALL STATUS:               ID:20071231095653     I
 2007-12-31-0957-00S.PLUR1_003                                                 6
 STAT SP IPHASW D HRMM SECON CODA AMPLIT PERI AZIMU VELO AIN AR TRES W  DIS CAZ7
 LD2  SN IP        957  2.45                              96    0.0110 57.3  10 
 LD2  SZ E         957  2.83                  190.0  7.4      0        57.3  10 
 LD2  SE IS        957  9.32                              96   -0.0110 57.3  10 
 LD2  SZ  AML      957 14.71         5.3 0.28                          57.3  10 
                                                                                
