 2007 12 4 0812 20.2 L  21.460 -99.454 10.0  RAL  2 1.1 0.2LRAL                1
 GAP=323       12.75      84.5    51.1115.3 -0.2570E+04 -0.3399E+04  0.7457E+04E
 ACTION:UPD 12-06-08 11:37 OP:RALL STATUS:               ID:20071204081220     I
 2007-12-04-0812-15S.PLUR1_006                                                 6
 STAT SP IPHASW D HRMM SECON CODA AMPLIT PERI AZIMU VELO AIN AR TRES W  DIS CAZ7
 LD3  SN IP        812 24.17                             177    2.0910 0.06 193 
 LD3  SZ E         812 24.19                  319.0 15.8     54        0.06 193 
 LD3  SE IS        812 25.40                             177    1.9610 0.06 193 
 LD3  SZ  AML      812 26.20        10.3 0.26                          0.06 193 
 LD5  SZ E         812 25.03                  358.3 20.6     23        33.3 155 
 LD5  SN IP        812 25.04                             105   -0.9310 33.3 155 
 LD5  SE IS        812 27.04                             105   -3.1210 33.3 155 
 LD5  SZ  AML      812 27.89         2.6 0.44                          33.3 155 
                                                                                
 2007 12 5 1807 19.1 L  21.460 -99.457 28.5  RAL  2 0.7 0.6LRAL                1
 GAP=311        4.24      26.5    17.8 41.0 -0.2771E+03 -0.2569E+03  0.5155E+03E
 ACTION:UPD 12-06-08 11:37 OP:RALL STATUS:               ID:20071205180719     I
 2007-12-05-1807-16S.PLUR1_006                                                 6
 STAT SP IPHASW D HRMM SECON CODA AMPLIT PERI AZIMU VELO AIN AR TRES W  DIS CAZ7
 LD3  SN IP       18 7 26.01                             179    2.2210 0.30 106 
 LD3  SZ E        18 7 26.06                  295.9 21.7     10        0.30 106 
 LD3  SE IS       18 7 27.40                             179    0.2210 0.30 106 
 LD3  SZ  AML     18 7 27.74        13.1 0.20                          0.30 106 
 LD5  SN IP       18 7 26.38                             127    0.2710 33.4 155 
 LD5  SZ E        18 7 26.42                  339.7 10.0      5        33.4 155 
 LD5  SE IS       18 7 28.48                             127   -2.7110 33.4 155 
 LD5  SZ  AML     18 7 28.90         3.3 0.64                          33.4 155 
                                                                                
 2007 12 6 0131  8.7 L  21.479 -99.486 10.0  RAL  1 0.0 0.4LRAL                1
 GAP=360        0.35       6.8    10.8  0.0 -0.7351E+02 -0.2569E+03  0.5155E+03E
 ACTION:UPD 12-06-08 11:37 OP:RALL STATUS:               ID:20071206013108     I
 2007-12-06-0131-01S.PLUR1_006                                                 6
 STAT SP IPHASW D HRMM SECON CODA AMPLIT PERI AZIMU VELO AIN AR TRES W  DIS CAZ7
 LD3  SN IP        131 10.84                             159    0.1210 3.97 124 
 LD3  SZ E         131 10.85                  304.1 18.3      0        3.97 124 
 LD3  SE IS        131 12.03                             159   -0.1210 3.97 124 
 LD3  SZ  AML      131 12.13        14.0 0.10                          3.97 124 
                                                                                
 2007 12 7 1727 39.8 L                       RAL  0                            1
 ACTION:UPD 12-06-08 11:37 OP:RALL STATUS:               ID:20071207172739     I
 2007-12-07-1727-39S.PLUR1_006                                                 6
 STAT SP IPHASW D HRMM SECON CODA AMPLIT PERI AZIMU VELO AIN AR TRES W  DIS CAZ7
                                                                                
 2007 12 8 0630 17.5 L  21.184 -99.316 13.7  RAL  2 0.8 0.2LRAL                1
 GAP=327        8.92      10.4    25.8 56.1  0.2522E+03  0.2709E+02 -0.1749E+00E
 ACTION:UPD 12-06-08 11:37 OP:RALL STATUS:               ID:20071208063017     I
 2007-12-08-0630-12S.PLUR1_006                                                 6
 STAT SP IPHASW D HRMM SECON CODA AMPLIT PERI AZIMU VELO AIN AR TRES W  DIS CAZ7
 LD5  SZ E         630 21.74                   99.1 10.4    -22        0.53 302 
 LD5  SN IP        630 21.90                             179    1.9610 0.53 302 
 LD5  SE IS        630 22.82                             179    1.1210 0.53 302 
 LD5  SZ  AML      630 22.89         4.1 0.14                          0.53 302 
 LD3  SZ E         630 23.04                  187.8 10.3     33        33.7 335 
 LD3  SN IP        630 23.07                             111   -0.4310 33.7 335 
 LD3  SE IS        630 25.21                             111   -2.6510 33.7 335 
 LD3  SZ  AML      630 25.36         4.5 0.30                          33.7 335 
                                                                                
 2007 12 9 0515 36.7 L  20.968 -99.255  0.0  RAL  2 0.8 0.3LRAL                1
 GAP=351       10.84     163.1    67.0999.9 -0.1048E+05 -0.2234E+06  0.5602E+06E
 ACTION:UPD 12-06-08 11:37 OP:RALL STATUS:               ID:20071209051536     I
 2007-12-09-0515-32S.PLUR1_006                                                 6
 STAT SP IPHASW D HRMM SECON CODA AMPLIT PERI AZIMU VELO AIN AR TRES W  DIS CAZ7
 LD2  SZ E         515 42.40                  200.2  8.5     45        24.1 336 
 LD2  SN IP        515 42.61                              93    1.6710 24.1 336 
 LD2  SE IS        515 43.34                              93   -0.6810 24.1 336 
 LD2  SZ  AML      515 43.71         4.0 0.24                          24.1 336 
 LD5  SZ E         515 42.03                  139.2 19.7    -24        25.2 344 
 LD5  SN IP        515 42.05                              92    0.9210 25.2 344 
 LD5  SE IS        515 42.44                              92   -1.9110 25.2 344 
 LD5  SZ  AML      515 42.53         6.0 0.18                          25.2 344 
                                                                                
 2007 1210 0226 13.6 L  21.201 -99.283 17.0  RAL  3 0.9 0.9LRAL                1
 GAP=273       12.89      23.4    11.9999.9  0.2635E+02 -0.2532E+03 -0.1284E+05E
 ACTION:UPD 12-06-08 11:37 OP:RALL STATUS:               ID:20071210022613     I
 2007-12-10-0225-50S.PLUR1_009                                                 6
 STAT SP IPHASW D HRMM SECON CODA AMPLIT PERI AZIMU VELO AIN AR TRES W  DIS CAZ7
 LD5  SZ E         226 17.81                  102.9 16.0     35        4.15 247 
 LD5  SN IP        226 17.84                              95    1.2710 4.15 247 
 LD5  SE IS        226 18.28                              95   -0.4710 4.15 247 
 LD5  SZ  AML      226 18.37        45.9 0.32                          4.15 247 
 LD2  SZ E         226 18.34                   10.9 32.6    -49        7.99 241 
 LD2  SN IP        226 18.41                              94    1.6210 7.99 241 
 LD2  SE IS        226 19.37                              94    0.2410 7.99 241 
 LD2  SZ  AML      226 19.57        35.3 0.28                          7.99 241 
 LD3  SZ E         226 19.57                  187.1 13.4     39        33.6 328 
 LD3  SN IP        226 19.63                              93   -0.1110 33.6 328 
 LD3  SE IS        226 21.70                              93   -2.5410 33.6 328 
 LD3  SZ  AML      226 22.51         6.5 0.18                          33.6 328 
                                                                                
 2007 1212 0440  3.4 L  21.187 -99.319 11.3  RAL  3 0.9 1.4LRAL                1
 GAP=259       13.54      12.7    34.8 77.9  0.4317E+03 -0.3189E+02 -0.1588E+02E
 ACTION:UPD 12-06-08 11:37 OP:RALL STATUS:               ID:20071212044003     I
 2007-12-12-0439-56S.PLUR1_009                                                 6
 STAT SP IPHASW D HRMM SECON CODA AMPLIT PERI AZIMU VELO AIN AR TRES W  DIS CAZ7
 LD5  SZ E         440  6.57                  119.0 15.2     37        0.09 262 
 LD5  SN IP        440  6.61                             175    1.1810 0.09 262 
 LD5  SZ  AML      440  6.99       151.0 0.28                          0.09 262 
 LD5  SE IS        440  7.03                             175    0.1110 0.09 262 
 LD2  SZ E         440  7.08                    0.2 21.3    -53        3.98 235 
 LD2  SN IP        440  7.16                             173    1.6010 3.98 235 
 LD2  SE IS        440  8.05                             173    0.9110 3.98 235 
 LD2  SZ  AML      440  8.34       150.1 0.28                          3.98 235 
 LD3  SN IP        440  8.38                             118   -0.8110 33.3 335 
 LD3  SZ E         440  8.38                  192.7 11.6     38        33.3 335 
 LD3  SE IS        440 10.44                             118   -2.9910 33.3 335 
 LD3  SZ  AML      440 10.73        21.7 0.40                          33.3 335 
                                                                                
 2007 1212 1854  7.5 L  21.192 -99.310 25.3  RAL  3 0.9 1.0LRAL                1
 GAP=262       12.83      15.0    28.5 85.2  0.4075E+03 -0.1762E+03 -0.1042E+03E
 ACTION:UPD 12-06-08 11:37 OP:RALL STATUS:               ID:20071212185407     I
 2007-12-12-1854-03S.PLUR1_009                                                 6
 STAT SP IPHASW D HRMM SECON CODA AMPLIT PERI AZIMU VELO AIN AR TRES W  DIS CAZ7
 LD5  SZ E        1854 13.04                   83.8  8.1     23        1.19 241 
 LD5  SN IP       1854 13.07                             177    1.4210 1.19 241 
 LD5  SE IS       1854 14.00                             177   -0.6910 1.19 241 
 LD5  SZ  AML     1854 14.09        16.2 0.26                          1.19 241 
 LD2  SZ E        1854 13.65                    3.4 17.1    -51        5.08 236 
 LD2  SN IP       1854 13.73                             168    1.9810 5.08 236 
 LD2  SE IS       1854 15.36                             168    0.5010 5.08 236 
 LD2  SZ  AML     1854 15.69        19.9 0.28                          5.08 236 
 LD3  SN IP       1854 14.07                             124   -0.1110 33.2 333 
 LD3  SZ E        1854 14.08                  196.1 14.0     43        33.2 333 
 LD3  SE IS       1854 15.96                             124   -3.1010 33.2 333 
 LD3  SZ  AML     1854 16.10        20.0 0.28                          33.2 333 
                                                                                
 2007 1212 2206 54.3 L  21.180 -99.320 10.0  RAL  2 0.3 0.2LRAL                1
 GAP=244        4.98       2.9     5.0 44.9  0.1109E+02 -0.1940E+01 -0.8621E+00E
 ACTION:UPD 12-06-08 11:37 OP:RALL STATUS:               ID:20071212220654     I
 2007-12-12-2206-47S.PLUR1_006                                                 6
 STAT SP IPHASW D HRMM SECON CODA AMPLIT PERI AZIMU VELO AIN AR TRES W  DIS CAZ7
 LD5  SZ E        22 6 56.50                  165.0 17.9    -13        0.67 359 
 LD5  SN IP       22 6 56.50                             176    0.4110 0.67 359 
 LD5  SE IS       22 6 57.13                             176   -0.3010 0.67 359 
 LD5  SZ  AML     22 6 57.44         5.3 0.20                          0.67 359 
 LD2  SZ E        22 6 56.38                   43.2 27.4    -19        3.55 243 
 LD2  SN IP       22 6 56.47                             161    0.2710 3.55 243 
 LD2  SE IS       22 6 57.23                             161   -0.3910 3.55 243 
 LD2  SZ  AML     22 6 57.37        12.2 0.16                          3.55 243 
                                                                                
 2007 1213  033 35.8 L                       RAL  0                            1
 ACTION:UPD 12-06-08 11:37 OP:RALL STATUS:               ID:20071213003335     I
 2007-12-13-0033-35S.PLUR1_003                                                 6
 STAT SP IPHASW D HRMM SECON CODA AMPLIT PERI AZIMU VELO AIN AR TRES W  DIS CAZ7
                                                                                
 2007 1213 1452 35.2 L  21.175 -99.301 10.0  RAL  1 0.2 0.9LRAL                1
 GAP=360        0.77      22.7    38.5  0.0 -0.8733E+03 -0.1940E+01 -0.8621E+00E
 ACTION:UPD 12-06-08 11:37 OP:RALL STATUS:               ID:20071213145235     I
 2007-12-13-1452-02S.PLUR1_009                                                 6
 STAT SP IPHASW D HRMM SECON CODA AMPLIT PERI AZIMU VELO AIN AR TRES W  DIS CAZ7
 LD5  SZ E        1452 37.51                  122.3 14.7      0        2.39 302 
 LD5  SN IP       1452 37.59                             167    0.4810 2.39 302 
 LD5  SE IS     D 1452 38.00                             167   -0.4810 2.39 302 
 LD5  SZ  AML     1452 38.08        43.9 0.26                          2.39 302 
                                                                                
 2007 1214 0915 57.2 L  20.963 -99.398  8.1  RAL  2 1.0-0.1LRAL                1
 GAP=354       16.17     299.6    88.0999.9  0.2509E+05  0.9977E+05  0.3550E+06E
 ACTION:UPD 12-06-08 11:37 OP:RALL STATUS:               ID:20071214091557     I
 2007-12-14-0915-52S.PLUR1_006                                                 6
 STAT SP IPHASW D HRMM SECON CODA AMPLIT PERI AZIMU VELO AIN AR TRES W  DIS CAZ7
 LD2  SN IP        916  2.98                             104    1.6910 23.0  12 
 LD2  SZ E         916  3.04                  232.0 24.4     40        23.0  12 
 LD2  SE IS     D  916  4.08                             104   -0.2210 23.0  12 
 LD2  SZ  AML      916  4.10         1.3 0.20                          23.0  12 
 LD5  SN IP        916  2.44                             102    0.7010 26.0  18 
 LD5  SZ E         916  2.46                  131.0 13.7    -66        26.0  18 
 LD5  SE IS        916  2.90                             102   -2.1810 26.0  18 
 LD5  SZ  AML      916  2.96         2.1 0.24                          26.0  18 
                                                                                
 2007 1218 1337  8.3 L                       RAL  0                            1
 ACTION:UPD 12-06-08 11:37 OP:RALL STATUS:               ID:20071218133708     I
 2007-12-18-1337-08S.PLUR1_009                                                 6
 STAT SP IPHASW D HRMM SECON CODA AMPLIT PERI AZIMU VELO AIN AR TRES W  DIS CAZ7
                                                                                
 2007 1219 0630 36.4 L  21.473-100.093  6.6  RAL  3 1.4 0.9LRAL                1
 GAP=337       23.74      96.3   311.1999.9 -0.1115E+05  0.2861E+07 -0.3009E+06E
 ACTION:UPD 12-06-08 11:37 OP:RALL STATUS:               ID:20071219063036     I
 2007-12-19-0630-45S.PLUR1_009                                                 6
 STAT SP IPHASW D HRMM SECON CODA AMPLIT PERI AZIMU VELO AIN AR TRES W  DIS CAZ7
 LD3  SZ E         630 49.25                  304.9 15.1     34        66.3  91 
 LD3  SN IP        630 49.68                              92    2.4910 66.3  91 
 LD3  SE IS        630 54.57                              92   -0.5010 66.3  91 
 LD3  SZ  AML      630 56.00         6.7 0.22                          66.3  91 
 LD2  SN IP        630 50.96                              91    0.9910 84.2 114 
 LD2  SZ E         630 53.51                  183.8  9.4    -99        84.2 114 
 LD2  SE IS        630 58.72                              91   -1.1610 84.2 114 
 LD2  SZ  AML      631  1.56         5.6 0.24                          84.2 114 
 LD5  SN IP        630 50.81                              91    0.5310 86.2 111 
 LD5  SZ E         630 50.92                    3.8 12.8     72        86.2 111 
 LD5  SE IS        630 58.06                              91   -2.3510 86.2 111 
 LD5  SZ  AML      630 59.19         5.8 0.46                          86.2 111 
                                                                                
 2007 1219 1518 53.3 L  21.185 -99.317  3.9  RAL  2 0.4-0.2LRAL                1
 GAP=299        8.01       3.2     4.1 63.8  0.2528E+01  0.2382E+01  0.1954E+01E
 ACTION:UPD 12-06-08 11:37 OP:RALL STATUS:               ID:20071219151853     I
 2007-12-19-1518-44S.PLUR1_006                                                 6
 STAT SP IPHASW D HRMM SECON CODA AMPLIT PERI AZIMU VELO AIN AR TRES W  DIS CAZ7
 LD5  SZ E        1518 54.10                  150.5 17.3     32        0.32 299 
 LD5  SN IP       1518 54.13                             176   -0.0510 0.32 299 
 LD5  SE IS     D 1518 54.59                             176   -0.2210 0.32 299 
 LD5  SZ  AML     1518 54.88         7.6 0.18                          0.32 299 
 LD2  SZ E        1518 54.52                   35.4 26.4    -22        4.04 238 
 LD2  SN IP       1518 54.58                             142    0.1310 4.04 238 
 LD2  SE IS       1518 55.42                             142    0.1410 4.04 238 
 LD2  SZ  AML     1518 56.76         5.5 0.20                          4.04 238 
                                                                                
 2007 1219 1922 34.9 L  21.160 -99.352 16.3  RAL  2 0.2 0.1LRAL                1
 GAP=325        2.30       2.1     2.5 20.6  0.4275E+01  0.8215E+00  0.6907E+00E
 ACTION:UPD 12-06-08 11:37 OP:RALL STATUS:               ID:20071219192234     I
 2007-12-19-1922-27S.PLUR1_009                                                 6
 STAT SP IPHASW D HRMM SECON CODA AMPLIT PERI AZIMU VELO AIN AR TRES W  DIS CAZ7
 LD2  SZ E        1922 37.34                  185.6 13.4     -7        0.63  13 
 LD2  SN IP       1922 37.43                             178   -0.3010 0.63  13 
 LD2  SE IS       1922 39.58                             178   -0.2210 0.63  13 
 LD2  SZ  AML     1922 40.08        10.6 0.40                          0.63  13 
 LD5  SZ E        1922 37.60                  235.7 20.2      7        4.39  49 
 LD5  SN IP       1922 37.71                             165   -0.0910 4.39  49 
 LD5  SE IS       1922 40.52                             165    0.6110 4.39  49 
 LD5  SZ  AML     1922 40.87         2.1 0.18                          4.39  49 
                                                                                
 2007 1222 0307 35.3 L  21.045 -99.377 10.0  RAL  1 0.4 0.3LRAL                1
 GAP=360        5.90      76.3    17.5  0.0  0.1268E+04 -0.1890E+03 -0.3198E+03E
 ACTION:UPD 12-06-08 11:37 OP:RALL STATUS:               ID:20071222030735     I
 2007-12-22-0307-31S.PLUR1_009                                                 6
 STAT SP IPHASW D HRMM SECON CODA AMPLIT PERI AZIMU VELO AIN AR TRES W  DIS CAZ7
 LD2  SZ E         3 7 38.14                  168.5 24.3    -22        13.6  12 
 LD2  SZ EP        3 7 38.15                  214.6 14.7 125 23-0.0610 13.6  12 
 LD2  SN IP        3 7 38.27                             125    0.0610 13.6  12 
 LD2  SE IS        3 7 40.34                             125    0.0010 13.6  12 
 LD2  SZ  AML      3 7 41.10         6.3 0.24                          13.6  12 
                                                                                
