 2008  2 3 0318 17.3 L  21.432 -99.810 10.0  RAL  3 1.6 1.1LRAL                1
 GAP=324       26.44      68.5   187.5999.9 -0.4047E+04  0.2776E+06 -0.4896E+04E
 ACTION:UPD 12-06-08 11:37 OP:RALL STATUS:               ID:20080203031817     I
 2008-02-03-0318-16S.PLUR1_009                                                 6
 STAT SP IPHASW D HRMM SECON CODA AMPLIT PERI AZIMU VELO AIN AR TRES W  DIS CAZ7
 LD3  SZ E         318 26.20                  344.3 14.7     79        37.0  85 
 LD3  SN IP        318 26.23                              95    2.5710 37.0  85 
 LD3  SE IS        318 27.60                              95   -0.6710 37.0  85 
 LD3  SZ  AML      318 28.56        35.1 0.10                          37.0  85 
 LD2  SN IP        318 28.38                              93    1.8010 56.0 122 
 LD2  SZ E         318 28.40                  200.6  9.9    -99        56.0 122 
 LD2  SZ  AML      318 32.03        11.5 0.32                          56.0 122 
 LD2  SE IS        318 32.47                              93   -0.8610 56.0 122 
 LD5  SN IP        318 27.60                              93    0.7810 57.6 118 
 LD5  SZ E         318 27.62                   17.2 10.3     79        57.6 118 
 LD5  SE IS        318 30.12                              93   -3.6110 57.6 118 
 LD5  SZ  AML      318 30.71        11.1 0.16                          57.6 118 
                                                                                
 2008  2 3 0509 15.3 L  21.346 -99.584 10.0  RAL  3 1.2 1.5LRAL                1
 GAP=278       20.08      32.3    42.2316.1  0.3654E+03  0.2082E+04  0.3595E+04E
 ACTION:UPD 12-06-08 11:37 OP:RALL STATUS:               ID:20080203050915     I
 2008-02-03-0509-10S.PLUR1_009                                                 6
 STAT SP IPHASW D HRMM SECON CODA AMPLIT PERI AZIMU VELO AIN AR TRES W  DIS CAZ7
 LD3  SN IP        5 9 20.65                             116    1.7510 18.4  47 
 LD3  SZ E         5 9 20.65                  228.0 15.8      1        18.4  47 
 LD3  SE IS        5 9 21.55                             116    0.0610 18.4  47 
 LD3  SZ  AML      5 9 21.80       183.8 0.32                          18.4  47 
 LD2  SZ E         5 9 21.95                  230.3 12.6    -78        31.4 130 
 LD2  SN IP        5 9 22.01                             103    1.2010 31.4 130 
 LD2  SE IS        5 9 24.29                             103   -0.5110 31.4 130 
 LD2  SZ  AML      5 9 24.43        27.2 0.64                          31.4 130 
 LD5  SZ E         5 9 21.14                   25.9  8.7     83        32.6 123 
 LD5  SN IP        5 9 21.15                             103    0.1710 32.6 123 
 LD5  SE IS        5 9 22.42                             103   -2.6710 32.6 123 
 LD5  SZ  AML      5 9 22.79        62.6 0.42                          32.6 123 
                                                                                
 2008  2 5 1747 15.1 L  21.065 -99.642  5.4  RAL  3 0.9 1.2LRAL                1
 GAP=314       10.46      29.2    46.5 79.2  0.8483E+03  0.1211E+04 -0.1639E+02E
 ACTION:UPD 12-06-08 11:37 OP:RALL STATUS:               ID:20080205174715     I
 2008-02-05-1746-53S.PLUR1_009                                                 6
 STAT SP IPHASW D HRMM SECON CODA AMPLIT PERI AZIMU VELO AIN AR TRES W  DIS CAZ7
 LD2  SN IP       1747 23.06                              93    2.4710 32.3  70 
 LD2  SZ E        1747 23.11                  207.8 10.8    -41        32.3  70 
 LD2  SE IS       1747 23.80                              93   -0.8110 32.3  70 
 LD2  SZ  AML     1747 24.30        36.8 0.32                          32.3  70 
 LD5  SZ E        1747 22.71                  280.5 11.1     32        36.1  68 
 LD5  SN IP       1747 22.73                              93    1.5710 36.1  68 
 LD5  SE IS       1747 23.22                              93   -2.3910 36.1  68 
 LD5  SZ  AML     1747 23.33        78.0 0.16                          36.1  68 
 LD3  SZ E        1747 24.42                  221.0 10.1     17        47.8  24 
 LD3  SN IP       1747 24.44                              63    1.4410 47.8  24 
 LD3  SE IS       1747 26.50                              63   -2.2810 47.8  24 
 LD3  SZ  AML     1747 27.11         5.9 0.18                          47.8  24 
                                                                                
 2008  2 9 1251 40.7 L                       RAL  0                            1
 ACTION:UPD 12-06-08 11:37 OP:RALL STATUS:               ID:20080209125140     I
 2008-02-09-1251-40S.PLUR1_015                                                 6
 STAT SP IPHASW D HRMM SECON CODA AMPLIT PERI AZIMU VELO AIN AR TRES W  DIS CAZ7
                                                                                
 2008  211 1716 12.7 L  20.829 -99.190 10.0  RAL  1 0.0 1.0LRAL                1
 GAP=360        0.30       3.5     1.9  0.0 -0.5171E+01  0.1211E+04 -0.1639E+02E
 ACTION:UPD 12-06-08 11:37 OP:RALL STATUS:               ID:20080211171612     I
 2008-02-11-1716-11S.PLUR1_009                                                 6
 STAT SP IPHASW D HRMM SECON CODA AMPLIT PERI AZIMU VELO AIN AR TRES W  DIS CAZ7
 LD2  SZ E        1716 19.54                  155.9  8.0      0        40.8 336 
 LD2  SN IP       1716 19.60                             100    0.0110 40.8 336 
 LD2  SE IS       1716 24.61                             100   -0.0110 40.8 336 
 LD2  SZ  AML     1716 26.45        14.7 0.40                          40.8 336 
                                                                                
 2008  223 0518 16.4 L  21.185 -99.316 10.0  RAL  2 0.8 0.0LRAL                1
 GAP=319        5.41       6.5    15.6 29.2  0.9682E+02 -0.2420E+00 -0.3420E+01E
 ACTION:UPD 12-06-08 11:37 OP:RALL STATUS:               ID:20080223051816     I
 2008-02-23-0518-11S.PLUR1_006                                                 6
 STAT SP IPHASW D HRMM SECON CODA AMPLIT PERI AZIMU VELO AIN AR TRES W  DIS CAZ7
 LD5  SZ E         518 20.09                  105.6  9.8     -7        0.46 294 
 LD5  SN IP        518 20.09                             177    1.9010 0.46 294 
 LD5  SE IS        518 21.15                             177    1.6310 0.46 294 
 LD5  SZ  AML      518 21.95         2.7 0.40                          0.46 294 
 LD3  SZ E         518 21.32                  171.3 13.8     17        33.6 335 
 LD3  SN IP        518 21.33                             102   -0.8210 33.6 335 
 LD3  SE IS        518 23.68                             102   -2.7110 33.6 335 
 LD3  SZ  AML      518 23.75         3.0 0.18                          33.6 335 
                                                                                
 2008  224 1501 22.4 L  21.386-100.226  5.0  RAL  3 1.5 1.3LRAL                1
 GAP=339       25.68     127.0   722.2999.9 -0.4648E+05 -0.9308E+06  0.8587E+05E
 ACTION:UPD 12-06-08 11:37 OP:RALL STATUS:               ID:20080224150122     I
 2008-02-24-1501-29S.PLUR1_009                                                 6
 STAT SP IPHASW D HRMM SECON CODA AMPLIT PERI AZIMU VELO AIN AR TRES W  DIS CAZ7
 LD3  SZ E        15 1 37.55                  328.7 14.9     64        80.4  84 
 LD3  SN IP       15 1 37.99                              63    2.9110 80.4  84 
 LD3  SE IS       15 1 43.72                              63   -0.5910 80.4  84 
 LD3  SZ  AML     15 1 47.74        14.5 0.18                          80.4  84 
 LD2  SN IP       15 1 38.31                              63    1.1210 94.1 105 
 LD2  SZ E        15 1 38.79                  164.6  7.8    -99        94.1 105 
 LD2  SE IS       15 1 46.51                              63   -1.4610 94.1 105 
 LD2  SZ  AML     15 1 47.95        13.7 0.64                          94.1 105 
 LD5  SZ E        15 1 38.50                  336.1 13.2     53        96.5 103 
 LD5  SN IP       15 1 38.56                              63    0.9910 96.5 103 
 LD5  SE IS       15 1 45.65                              63   -2.9710 96.5 103 
 LD5  SZ  AML     15 1 48.30        12.2 0.38                          96.5 103 
                                                                                
 2008  226 1219 48.1 L  21.043 -99.255 25.7  RAL  3 1.2 1.0LRAL                1
 GAP=347       15.95     124.8    62.7135.9 -0.7114E+04  0.4444E+03 -0.9805E+03E
 ACTION:UPD 12-06-08 11:37 OP:RALL STATUS:               ID:20080226121948     I
 2008-02-26-1219-45S.PLUR1_009                                                 6
 STAT SP IPHASW D HRMM SECON CODA AMPLIT PERI AZIMU VELO AIN AR TRES W  DIS CAZ7
 LD2  SZ E        1219 55.03                  177.5 14.1     34        16.9 324 
 LD2  SN IP       1219 55.89                             140    2.7610 16.9 324 
 LD2  SN  AML     1219 57.19        28.5 0.40                          16.9 324 
 LD2  SZ  AML     1219 57.59        18.5 0.56                          16.9 324 
 LD2  SE IS       1219 57.59                             140    0.8110 16.9 324 
 LD5  SN IP       1219 54.91                             138    1.7710 17.3 337 
 LD5  SZ E        1219 54.93                  107.8  8.3    -48        17.3 337 
 LD5  SE IS       1219 55.63                             138   -1.1810 17.3 337 
 LD5  SZ  AML     1219 56.33        31.4 0.40                          17.3 337 
 LD3  SZ E        1219 56.59                  221.3 11.0     65        50.5 336 
 LD3  SN IP       1219 56.61                             105   -0.4910 50.5 336 
 LD3  SZ  AML     1219 59.35         3.2 0.20                          50.5 336 
 LD3  SE IS       1219 59.98                             105   -3.6810 50.5 336 
                                                                                
 2008  229 0456 49.2 L  21.616 -98.991  5.0  RAL  3 1.7 0.9LRAL                1
 GAP=326       28.38     189.3   239.3655.7  0.3876E+05  0.1217E+06  0.9444E+05E
 ACTION:UPD 12-06-08 11:37 OP:RALL STATUS:               ID:20080229045649     I
 2008-02-29-0456-49S.PLUR1_009                                                 6
 STAT SP IPHASW D HRMM SECON CODA AMPLIT PERI AZIMU VELO AIN AR TRES W  DIS CAZ7
 LD3  SZ E         456 58.85                  334.9 22.8     95        51.0 250 
 LD3  SN IP        456 58.87                              63    1.6310 51.0 250 
 LD3  SE IS        457  0.34                              63   -2.8010 51.0 250 
 LD3  SZ  AML      457  2.00        31.2 0.42                          51.0 250 
 LD5  SZ E         457  0.42                   18.8  8.3    -16        58.6 216 
 LD5  SN IP        457  0.43                              63    2.0310 58.6 216 
 LD5  SE IS        457  3.72                              63   -1.4310 58.6 216 
 LD5  SZ  AML      457  4.00         5.9 0.62                          58.6 216 
 LD2  SN IP        457  1.13                              63    2.1510 62.3 217 
 LD2  SZ E         457  1.39                  167.0  8.8    130        62.3 217 
 LD2  SE IS        457  4.57                              63   -1.5910 62.3 217 
 LD2  SZ  AML      457  6.38         2.8 0.32                          62.3 217 
                                                                                
