 2008 1115 0255 15.6 L  21.337 -99.291 10.0  RAL  1 0.1 0.0LRAL                1
 GAP=360        0.41     906.9   318.3  0.0  0.2887E+06  0.6290E+01  0.1129E+01E
 ACTION:UPD 12-06-08 11:37 OP:RALL STATUS:               ID:20081115025515     I
 2008-11-15-0255-03S.PLUR1_003                                                 6
 STAT SP IPHASW D HRMM SECON CODA AMPLIT PERI AZIMU VELO AIN AR TRES W  DIS CAZ7
 LZ4  SZ E         255 17.61                  286.7  7.4      0        2.28 107 
 LZ4  SN IP        255 17.63                             168    0.1910 2.28 107 
 LZ4  SE IS        255 18.62                             168   -0.1910 2.28 107 
 LZ4  SZ  AML      255 18.74         5.9 0.20                          2.28 107 
                                                                                
 2008 1115 0407 50.1 L  21.651 -99.335  1.6  RAL  2 0.3 1.9LRAL                1
 GAP=357        5.45      53.1    12.1305.2 -0.4506E+03  0.1580E+04 -0.9792E+04E
 ACTION:UPD 12-06-08 11:37 OP:RALL STATUS:               ID:20081115040750     I
 2008-11-15-0407-38S.PLUR1_006                                                 6
 STAT SP IPHASW D HRMM SECON CODA AMPLIT PERI AZIMU VELO AIN AR TRES W  DIS CAZ7
 LA4  SN IP        4 7 53.34                              98   -0.0210 18.7 172 
 LA4  SZ E         4 7 53.42                    4.6  8.1     13        18.7 172 
 LA4  SE IS        4 7 55.59                              98   -0.1810 18.7 172 
 LA4  SZ  AML      4 7 55.69       409.4 0.28                          18.7 172 
 LZ4  SN IP        4 7 56.32                              94   -0.0610 36.0 169 
 LZ4  SZ E         4 7 56.44                  325.9  7.3    -22        36.0 169 
 LZ4  SE IS        4 8  1.25                              94    0.2610 36.0 169 
 LZ4  SZ  AML      4 8  1.84        77.3 0.28                          36.0 169 
                                                                                
 2008 1115 0446  4.2 L  21.330 -99.277 10.0  RAL  1 0.3 0.6LRAL                1
 GAP=360        3.26     126.6   592.5  0.0  0.7490E+05  0.1580E+04 -0.9792E+04E
 ACTION:UPD 12-06-08 11:37 OP:RALL STATUS:               ID:20081115044604     I
 2008-11-15-0445-52S.PLUR1_003                                                 6
 STAT SP IPHASW D HRMM SECON CODA AMPLIT PERI AZIMU VELO AIN AR TRES W  DIS CAZ7
 LZ4  SZ E         446  6.37                  281.1 22.6     15        0.75  86 
 LZ4  SN IP        446  6.40                             176    0.3210 0.75  86 
 LZ4  SE IS        446  7.10                             176   -0.3210 0.75  86 
 LZ4  SZ  AML      446  7.26        23.6 0.20                          0.75  86 
                                                                                
 2008 1115 0609 46.6 L  21.340 -99.268 10.0  RAL  1 0.2 1.6LRAL                1
 GAP=360        0.73     999.9   999.9  0.0 -0.1319E+08  0.1580E+04 -0.9792E+04E
 ACTION:UPD 12-06-08 11:37 OP:RALL STATUS:               ID:20081115060946     I
 2008-11-15-0609-34S.PLUR1_003                                                 6
 STAT SP IPHASW D HRMM SECON CODA AMPLIT PERI AZIMU VELO AIN AR TRES W  DIS CAZ7
 LZ4  SN IP        6 9 48.93                             174    0.4510 1.08 187 
 LZ4  SZ E         6 9 48.95                    7.2  9.4      0        1.08 187 
 LZ4  SE IS        6 9 49.37                             174   -0.4510 1.08 187 
 LZ4  SZ  AML      6 9 49.57       221.2 0.28                          1.08 187 
                                                                                
 2008 1115 0619 42.0 L  21.315 -99.295  7.1  RAL  3 0.3 0.6LRAL                1
 GAP=165        3.11       2.3     3.4 15.8  0.7666E+01  0.5793E+01  0.3772E+01E
 ACTION:UPD 12-06-08 11:37 OP:RALL STATUS:               ID:20081115061942     I
 2008-11-15-0619-29S.PLUR1_009                                                 6
 STAT SP IPHASW D HRMM SECON CODA AMPLIT PERI AZIMU VELO AIN AR TRES W  DIS CAZ7
 LZ4  SZ E         619 43.43                  238.6 11.1      2        3.14  56 
 LZ4  SN IP        619 43.45                             162   -0.0710 3.14  56 
 LZ4  SE IS        619 44.53                             162   -0.0810 3.14  56 
 LZ4  SZ  AML      619 46.29        99.1 0.40                          3.14  56 
 LD5  SZ E         619 44.03                   10.4  9.6      0        14.5 191 
 LD5  SN IP        619 44.14                             104   -0.7010 14.5 191 
 LD5  SE IS        619 45.95                             104   -0.9410 14.5 191 
 LD5  SZ  AML      619 47.99         4.2 0.50                          14.5 191 
 LA4  SN IP        619 45.86                             100    0.3810 18.7 355 
 LA4  SZ E         619 45.90                  160.4  9.8    -14        18.7 355 
 LA4  SE IS        619 49.41                             100    1.4110 18.7 355 
 LA4  SZ  AML      619 49.83        15.8 0.24                          18.7 355 
                                                                                
 2008 1115 0706 36.5 L  21.662 -99.311 10.0  RAL  1 0.0 1.0LRAL                1
 GAP=360        0.30       4.1     0.6  0.0 -0.1825E+00  0.5793E+01  0.3772E+01E
 ACTION:UPD 12-06-08 11:37 OP:RALL STATUS:               ID:20081115070636     I
 2008-11-15-0706-28S.PLUR1_003                                                 6
 STAT SP IPHASW D HRMM SECON CODA AMPLIT PERI AZIMU VELO AIN AR TRES W  DIS CAZ7
 LA4  SZ E         7 6 40.24                  359.4  8.1      0        19.7 179 
 LA4  SN IP        7 6 40.26                             114    0.0210 19.7 179 
 LA4  SE IS        7 6 42.96                             114   -0.0210 19.7 179 
 LA4  SZ  AML      7 6 45.12        27.8 0.48                          19.7 179 
                                                                                
 2008 1115 0715 24.2 L  21.344 -99.337  3.4  RAL  3 0.3 0.6LRAL                1
 GAP=196        2.06       1.3     2.3 22.4 -0.7970E+00  0.1002E+02 -0.1653E+01E
 ACTION:UPD 12-06-08 11:37 OP:RALL STATUS:               ID:20081115071524     I
 2008-11-15-0715-10S.PLUR1_009                                                 6
 STAT SP IPHASW D HRMM SECON CODA AMPLIT PERI AZIMU VELO AIN AR TRES W  DIS CAZ7
 LZ4  SZ E         715 25.36                  284.4  8.2      3        7.13 102 
 LZ4  SN IP        715 25.36                             122   -0.2610 7.13 102 
 LZ4  SE IS        715 26.47                             122   -0.2210 7.13 102 
 LZ4  SZ  AML      715 26.68       185.6 0.40                          7.13 102 
 LA4  SN IP        715 27.77                             106    0.7610 15.7  11 
 LA4  SZ E         715 27.86                  193.9  9.1      3        15.7  11 
 LA4  SE IS        715 30.64                             106    1.5410 15.7  11 
 LA4  SZ  AML      715 32.01        16.9 0.24                          15.7  11 
 LD5  SN IP        715 26.39                             104   -0.9210 17.5 174 
 LD5  SZ E         715 26.41                  356.4 12.2      2        17.5 174 
 LD5  SE IS        715 28.71                             104   -0.9010 17.5 174 
 LD5  SZ  AML      715 31.03         2.1 0.12                          17.5 174 
                                                                                
 2008 1115 0800 36.7 L  21.339 -99.322 10.0  RAL  1 0.0 0.8LRAL                1
 GAP=360        0.30       1.2     8.2  0.0 -0.1022E+02  0.1002E+02 -0.1653E+01E
 ACTION:UPD 12-06-08 11:37 OP:RALL STATUS:               ID:20081115080036     I
 2008-11-15-0800-23S.PLUR1_003                                                 6
 STAT SP IPHASW D HRMM SECON CODA AMPLIT PERI AZIMU VELO AIN AR TRES W  DIS CAZ7
 LZ4  SZ E         8 0 38.53                  279.2  7.9      0        5.55  99 
 LZ4  SN IP        8 0 38.73                             151    0.0210 5.55  99 
 LZ4  SE IS        8 0 40.18                             151   -0.0210 5.55  99 
 LZ4  SZ  AML      8 0 40.72        33.2 0.16                          5.55  99 
                                                                                
 2008 1115 1249 36.0 L  21.340 -99.330 10.0  RAL  1 0.0 1.0LRAL                1
 GAP=360        0.30       1.1     7.4  0.0 -0.8218E+01  0.1002E+02 -0.1653E+01E
 ACTION:UPD 12-06-08 11:37 OP:RALL STATUS:               ID:20081115124936     I
 2008-11-15-1249-23S.PLUR1_003                                                 6
 STAT SP IPHASW D HRMM SECON CODA AMPLIT PERI AZIMU VELO AIN AR TRES W  DIS CAZ7
 LZ4  SZ E        1249 38.12                  279.2  7.8      0        6.36  99 
 LZ4  SN IP       1249 38.17                             148    0.0210 6.36  99 
 LZ4  SZ  AML     1249 39.46        52.1 0.44                          6.36  99 
 LZ4  SE IS       1249 39.68                             148   -0.0210 6.36  99 
                                                                                
 2008 1115 1806 28.5 L  21.338 -99.298 10.0  RAL  1 0.0 0.6LRAL                1
 GAP=360        0.31       3.5    14.2  0.0 -0.5033E+02  0.1002E+02 -0.1653E+01E
 ACTION:UPD 12-06-08 11:37 OP:RALL STATUS:               ID:20081115180628     I
 2008-11-15-1806-15S.PLUR1_003                                                 6
 STAT SP IPHASW D HRMM SECON CODA AMPLIT PERI AZIMU VELO AIN AR TRES W  DIS CAZ7
 LZ4  SZ E        18 6 30.45                  285.0  8.0      0        3.06 105 
 LZ4  SN IP       18 6 30.48                             163    0.0710 3.06 105 
 LZ4  SE IS       18 6 31.73                             163   -0.0710 3.06 105 
 LZ4  SZ  AML     18 6 32.08        24.0 0.24                          3.06 105 
                                                                                
 2008 1115 1946 42.2 L  21.331 -99.270  5.4  RAL  2 0.1 0.7LRAL                1
 GAP=286        2.10       1.1     3.2  9.9 -0.2713E+01  0.4636E+00  0.3130E+00E
 ACTION:UPD 12-06-08 11:37 OP:RALL STATUS:               ID:20081115194642     I
 2008-11-15-1946-28S.PLUR1_006                                                 6
 STAT SP IPHASW D HRMM SECON CODA AMPLIT PERI AZIMU VELO AIN AR TRES W  DIS CAZ7
 LZ4  SZ E        1946 43.04                  303.1 10.5      0        0.10 124 
 LZ4  SN IP       1946 43.11                             179   -0.2210 0.10 124 
 LZ4  SE IS       1946 43.86                             179   -0.2810 0.10 124 
 LZ4  SZ  AML     1946 43.98       226.7 0.20                          0.10 124 
 LD5  SZ E        1946 45.21                   27.7 11.3     10        16.8 198 
 LD5  SN IP       1946 45.50                              94    0.1810 16.8 198 
 LD5  SE IS       1946 47.90                              94    0.3210 16.8 198 
 LD5  SZ  AML     1946 48.33         4.5 0.60                          16.8 198 
                                                                                
 2008 1115 2028  4.7 L  21.738 -99.477 10.0  RAL  1 0.0 1.5LRAL                1
 GAP=360        0.30       3.4     2.1  0.0 -0.5121E+01  0.4636E+00  0.3130E+00E
 ACTION:UPD 12-06-08 11:37 OP:RALL STATUS:               ID:20081115202804     I
 2008-11-15-2027-58S.PLUR1_003                                                 6
 STAT SP IPHASW D HRMM SECON CODA AMPLIT PERI AZIMU VELO AIN AR TRES W  DIS CAZ7
 LZ4  SN IP       2028 12.99                              97    0.0110 49.9 155 
 LZ4  SZ E        2028 13.05                  334.6 10.7      0        49.9 155 
 LZ4  SE IS       2028 19.02                              97   -0.0110 49.9 155 
 LZ4  SZ  AML     2028 20.46        36.3 0.64                          49.9 155 
                                                                                
 2008 1115 2111 44.6 L  21.792 -99.676 10.0  RAL  1 0.0 1.4LRAL                1
 GAP=360        0.30       3.1     2.9  0.0 -0.5747E+01  0.4636E+00  0.3130E+00E
 ACTION:UPD 12-06-08 11:37 OP:RALL STATUS:               ID:20081115211144     I
 2008-11-15-2111-42S.PLUR1_003                                                 6
 STAT SP IPHASW D HRMM SECON CODA AMPLIT PERI AZIMU VELO AIN AR TRES W  DIS CAZ7
 LZ4  SZ E        2111 55.39                  320.6  8.4      0        66.2 140 
 LZ4  SN IP       2111 55.40                              95    0.0110 66.2 140 
 LZ4  SE IS       2112  3.26                              95   -0.0110 66.2 140 
 LZ4  SZ  AML     2112  4.24        20.7 0.32                          66.2 140 
                                                                                
 2008 1116 0436 25.7 L  21.283 -99.273 10.0  RAL  1 0.0 0.1LRAL                1
 GAP=360        0.30       4.4     2.2  0.0  0.9332E+01  0.4636E+00  0.3130E+00E
 ACTION:UPD 12-06-08 11:37 OP:RALL STATUS:               ID:20081116043625     I
 2008-11-16-0436-15S.PLUR1_003                                                 6
 STAT SP IPHASW D HRMM SECON CODA AMPLIT PERI AZIMU VELO AIN AR TRES W  DIS CAZ7
 LD5  SN IP        436 28.34                             129    0.0110 11.7 205 
 LD5  SZ E         436 28.35                   24.7 10.7      0        11.7 205 
 LD5  SE IS        436 30.26                             129   -0.0110 11.7 205 
 LD5  SZ  AML      436 31.11         4.4 0.30                          11.7 205 
                                                                                
 2008 1116 2321 32.6 L  21.394 -99.242 10.0  RAL  1 0.0 0.9LRAL                1
 GAP=360        0.30       3.9     2.9  0.0 -0.1142E+02  0.4636E+00  0.3130E+00E
 ACTION:UPD 12-06-08 11:37 OP:RALL STATUS:               ID:20081116232132     I
 2008-11-16-2321-22S.PLUR1_003                                                 6
 STAT SP IPHASW D HRMM SECON CODA AMPLIT PERI AZIMU VELO AIN AR TRES W  DIS CAZ7
 LA4  SN IP       2321 35.34                             129    0.0210 12.0 325 
 LA4  SZ E        2321 35.38                  145.1  7.8      0        12.0 325 
 LA4  SE IS       2321 37.28                             129   -0.0210 12.0 325 
 LA4  SZ  AML     2321 37.41        29.0 0.28                          12.0 325 
                                                                                
 2008 1117 0318  5.5 L  21.716 -99.392  0.1  RAL  2 0.4 1.0LRAL                1
 GAP=358        5.68      57.9    23.4999.9 -0.1130E+04  0.1664E+05 -0.4708E+05E
 ACTION:UPD 12-06-08 11:37 OP:RALL STATUS:               ID:20081117031805     I
 2008-11-17-0317-59S.PLUR1_006                                                 6
 STAT SP IPHASW D HRMM SECON CODA AMPLIT PERI AZIMU VELO AIN AR TRES W  DIS CAZ7
 LA4  SN IP        318 10.03                              93   -0.1810 27.1 162 
 LA4  SZ E         318 10.09                  356.1  8.9     15        27.1 162 
 LA4  SE IS        318 12.97                              93   -0.7010 27.1 162 
 LA4  SZ  AML      318 14.41        21.0 0.56                          27.1 162 
 LZ4  SZ E         318 13.43                  320.3  8.0    -22        44.5 163 
 LZ4  SN IP        318 13.49                              91    0.2510 44.5 163 
 LZ4  SE IS        318 19.55                              91    0.6310 44.5 163 
 LZ4  SZ  AML      318 22.28        12.2 0.28                          44.5 163 
                                                                                
 2008 1117 0859  8.8 L  21.315 -99.303 10.0  RAL  1 0.0 0.5LRAL                1
 GAP=360        0.34       5.5    11.3  0.0  0.6195E+02  0.1664E+05 -0.4708E+05E
 ACTION:UPD 12-06-08 11:37 OP:RALL STATUS:               ID:20081117085908     I
 2008-11-17-0858-56S.PLUR1_003                                                 6
 STAT SP IPHASW D HRMM SECON CODA AMPLIT PERI AZIMU VELO AIN AR TRES W  DIS CAZ7
 LZ4  SZ E         859 10.81                  242.5 12.0      0        3.88  62 
 LZ4  SN IP        859 10.81                             159    0.1110 3.88  62 
 LZ4  SE IS        859 12.01                             159   -0.1110 3.88  62 
 LZ4  SZ  AML      859 12.18        15.2 0.40                          3.88  62 
                                                                                
 2008 1117 1006 21.3 L  21.071 -99.371 10.0  RAL  1 0.0-0.1LRAL                1
 GAP=360        0.30       4.1     1.9  0.0  0.7540E+01  0.1664E+05 -0.4708E+05E
 ACTION:UPD 12-06-08 11:37 OP:RALL STATUS:               ID:20081117100621     I
 2008-11-17-1006-11S.PLUR1_003                                                 6
 STAT SP IPHASW D HRMM SECON CODA AMPLIT PERI AZIMU VELO AIN AR TRES W  DIS CAZ7
 LD5  SZ E        10 6 24.03                  202.5 30.1      0        13.8  22 
 LD5  SN IP       10 6 24.21                             124    0.0110 13.8  22 
 LD5  SE IS       10 6 26.33                             124   -0.0110 13.8  22 
 LD5  SZ  AML     10 6 27.24         2.9 0.18                          13.8  22 
                                                                                
 2008 1117 1041 34.6 L  21.088 -99.355 10.0  RAL  1 0.0-0.4LRAL                1
 GAP=360        0.30       4.6     1.7  0.0  0.7496E+01  0.1664E+05 -0.4708E+05E
 ACTION:UPD 12-06-08 11:37 OP:RALL STATUS:               ID:20081117104134     I
 2008-11-17-1041-24S.PLUR1_003                                                 6
 STAT SP IPHASW D HRMM SECON CODA AMPLIT PERI AZIMU VELO AIN AR TRES W  DIS CAZ7
 LD5  SZ E        1041 36.89                  198.5 22.4      0        11.5  18 
 LD5  SN IP       1041 37.24                             130    0.0110 11.5  18 
 LD5  SE IS       1041 39.15                             130   -0.0110 11.5  18 
 LD5  SZ  AML     1041 40.04         1.6 0.18                          11.5  18 
                                                                                
 2008 1117 1345 35.3 L  21.225 -99.285 10.0  RAL  1 0.0 0.2LRAL                1
 GAP=360        0.31       6.1     5.6  0.0  0.3428E+02  0.1664E+05 -0.4708E+05E
 ACTION:UPD 12-06-08 11:37 OP:RALL STATUS:               ID:20081117134535     I
 2008-11-17-1345-22S.PLUR1_003                                                 6
 STAT SP IPHASW D HRMM SECON CODA AMPLIT PERI AZIMU VELO AIN AR TRES W  DIS CAZ7
 LD5  SN IP       1345 37.37                             151    0.0610 5.60 221 
 LD5  SZ E        1345 37.38                   40.6  9.1      0        5.60 221 
 LD5  SE IS       1345 38.74                             151   -0.0610 5.60 221 
 LD5  SZ  AML     1345 38.96         8.3 0.20                          5.60 221 
                                                                                
 2008 1117 2027 42.4 L  21.249 -99.258  7.6  RAL  2 0.1 0.2LRAL                1
 GAP=230        0.60       0.7     0.5  8.7  0.1168E+00 -0.4922E-01  0.1277E+00E
 ACTION:UPD 12-06-08 11:37 OP:RALL STATUS:               ID:20081117202742     I
 2008-11-17-2027-29S.PLUR1_009                                                 6
 STAT SP IPHASW D HRMM SECON CODA AMPLIT PERI AZIMU VELO AIN AR TRES W  DIS CAZ7
 LZ4  SZ E        2027 44.61                  172.0 10.3      0        9.17 353 
 LZ4  SN IP       2027 44.64                             128    0.1610 9.17 353 
 LZ4  SE IS       2027 46.32                             128    0.2910 9.17 353 
 LD5  SN IP       2027 44.37                             127   -0.1410 9.42 223 
 LD5  SZ E        2027 44.39                   42.3  8.5      0        9.42 223 
 LD5  SE IS       2027 45.77                             127   -0.3110 9.42 223 
 LD5  SZ  AML     2027 47.10         6.9 0.56                          9.42 223 
                                                                                
