 2008  927 1146 29.3 L  21.335 -99.284 10.0  RAL  1 0.1 0.6LRAL                1
 GAP=360        0.46      12.2    39.6  0.0 -0.4845E+03  0.3867E+00 -0.3585E+00E
 ACTION:UPD 12-06-08 11:37 OP:RALL STATUS:               ID:20080927114629     I
 2008-09-27-1146-17S.PLUR1_003                                                 6
 STAT SP IPHASW D HRMM SECON CODA AMPLIT PERI AZIMU VELO AIN AR TRES W  DIS CAZ7
 LZ4  SZ E        1146 31.41                  288.5 11.7      0        1.53 108 
 LZ4  SN IP       1146 31.43                             172    0.2310 1.53 108 
 LZ4  SE IS       1146 32.31                             172   -0.2310 1.53 108 
 LZ4  SZ  AML     1146 32.35        21.5 0.12                          1.53 108 
                                                                                
 2008  927 1421 23.0 L  21.561 -99.294 10.0  RAL  1 0.0 0.2LRAL                1
 GAP=360        0.30       5.6     1.1  0.0  0.6209E+01  0.3867E+00 -0.3585E+00E
 ACTION:UPD 12-06-08 11:37 OP:RALL STATUS:               ID:20080927142123     I
 2008-09-27-1421-12S.PLUR1_003                                                 6
 STAT SP IPHASW D HRMM SECON CODA AMPLIT PERI AZIMU VELO AIN AR TRES W  DIS CAZ7
 LA4  SN IP       1421 25.34                             139    0.0110 8.68 191 
 LA4  SZ E        1421 25.66                   10.6  8.5      0        8.68 191 
 LA4  SE IS       1421 27.03                             139   -0.0110 8.68 191 
 LA4  SZ  AML     1421 27.67         7.4 0.40                          8.68 191 
                                                                                
 2008  927 1526 27.0 L  21.394 -99.304 10.0  RAL  2 0.2 0.4LRAL                1
 GAP=204        2.46       4.6     2.6 25.2 -0.9710E+01  0.6810E+01 -0.1344E+02E
 ACTION:UPD 12-06-08 11:37 OP:RALL STATUS:               ID:20080927152627     I
 2008-09-27-1526-16S.PLUR1_006                                                 6
 STAT SP IPHASW D HRMM SECON CODA AMPLIT PERI AZIMU VELO AIN AR TRES W  DIS CAZ7
 LZ4  SN IP       1526 29.34                             153    0.0710 7.81 153 
 LZ4  SZ E        1526 29.36                  324.1  9.1     -8        7.81 153 
 LZ4  SE IS       1526 31.45                             153    0.5510 7.81 153 
 LZ4  SZ  AML     1526 32.53        19.5 0.68                          7.81 153 
 LA4  SZ E        1526 29.16                  169.6 12.6     -6        9.99 357 
 LA4  SN IP       1526 29.18                             140   -0.3310 9.99 357 
 LA4  SE IS       1526 31.02                             140   -0.2910 9.99 357 
 LA4  SZ  AML     1526 33.61         5.7 0.28                          9.99 357 
                                                                                
 2008  927 1623  0.8 L  21.363 -99.294 10.0  RAL  1 0.0 0.4LRAL                1
 GAP=360        0.30       4.5     0.7  0.0 -0.2533E+01  0.6810E+01 -0.1344E+02E
 ACTION:UPD 12-06-08 11:37 OP:RALL STATUS:               ID:20080927162300     I
 2008-09-27-1622-51S.PLUR1_006                                                 6
 STAT SP IPHASW D HRMM SECON CODA AMPLIT PERI AZIMU VELO AIN AR TRES W  DIS CAZ7
 LA4  SZ E        1623  3.62                  173.3 10.3      0        13.5 353 
 LA4  SN IP       1623  3.65                             125    0.0010 13.5 353 
 LA4  SZ  AML     1623  5.65         8.2 0.28                          13.5 353 
 LA4  SE IS     D 1623  5.76                             125    0.0010 13.5 353 
                                                                                
 2008  927 1702  0.2 L  21.604 -99.353 10.0  RAL  1 0.0 0.4LRAL                1
 GAP=360        0.30       4.2     1.6  0.0 -0.6436E+01  0.6810E+01 -0.1344E+02E
 ACTION:UPD 12-06-08 11:37 OP:RALL STATUS:               ID:20080927170200     I
 2008-09-27-1701-51S.PLUR1_003                                                 6
 STAT SP IPHASW D HRMM SECON CODA AMPLIT PERI AZIMU VELO AIN AR TRES W  DIS CAZ7
 LA4  SN IP       17 2  3.19                             124    0.0010 14.1 161 
 LA4  SZ E        17 2  3.42                  341.3  9.0      0        14.1 161 
 LA4  SE IS       17 2  5.35                             124    0.0010 14.1 161 
 LA4  SZ  AML     17 2  6.21         9.0 0.28                          14.1 161 
                                                                                
 2008  927 1737 41.4 L  21.321 -99.293 10.0  RAL  1 0.1 0.6LRAL                1
 GAP=360        0.45     726.4   368.0  0.0 -0.2673E+06  0.6810E+01 -0.1344E+02E
 ACTION:UPD 12-06-08 11:37 OP:RALL STATUS:               ID:20080927173741     I
 2008-09-27-1737-29S.PLUR1_003                                                 6
 STAT SP IPHASW D HRMM SECON CODA AMPLIT PERI AZIMU VELO AIN AR TRES W  DIS CAZ7
 LZ4  SZ E        1737 43.37                  246.4 17.7      0        2.63  66 
 LZ4  SN IP       1737 43.51                             166    0.2310 2.63  66 
 LZ4  SE IS       1737 44.42                             166   -0.2310 2.63  66 
 LZ4  SZ  AML     1737 44.50        20.1 0.48                          2.63  66 
                                                                                
 2008  927 1745 36.8 L  21.342 -99.292 10.0  RAL  1 0.1 0.4LRAL                1
 GAP=360        0.52      12.3    25.0  0.0 -0.3079E+03  0.6810E+01 -0.1344E+02E
 ACTION:UPD 12-06-08 11:37 OP:RALL STATUS:               ID:20080927174536     I
 2008-09-27-1745-25S.PLUR1_003                                                 6
 STAT SP IPHASW D HRMM SECON CODA AMPLIT PERI AZIMU VELO AIN AR TRES W  DIS CAZ7
 LZ4  SZ E        1745 38.88                  297.9  6.7      0        2.64 118 
 LZ4  SN IP       1745 38.93                             166    0.2910 2.64 118 
 LZ4  SE IS       1745 39.72                             166   -0.2910 2.64 118 
 LZ4  SZ  AML     1745 40.72        12.6 0.40                          2.64 118 
                                                                                
 2008  927 1802 36.8 L  21.386 -99.307 12.5  RAL  2 0.0 1.4LRAL                1
 GAP=212        0.31       0.5     0.3  3.3 -0.1223E+00  0.8732E-01 -0.1803E+00E
 ACTION:UPD 12-06-08 11:37 OP:RALL STATUS:               ID:20080927180236     I
 2008-09-27-1802-25S.PLUR1_006                                                 6
 STAT SP IPHASW D HRMM SECON CODA AMPLIT PERI AZIMU VELO AIN AR TRES W  DIS CAZ7
 LZ4  SN IP       18 2 39.27                             150   -0.0110 7.23 147 
 LZ4  SZ E        18 2 39.30                  327.1  7.5      0        7.23 147 
 LZ4  SZ  AML     18 2 41.06       217.4 0.16                          7.23 147 
 LZ4  SE IS       18 2 41.18                             150    0.0610 7.23 147 
 LA4  SN IP       18 2 39.65                             139    0.0310 10.8 359 
 LA4  SZ E        18 2 39.72                  178.9 11.3      0        10.8 359 
 LA4  SE IS       18 2 41.62                             139   -0.0810 10.8 359 
 LA4  SZ  AML     18 2 43.19        34.9 0.20                          10.8 359 
                                                                                
 2008  927 1913 28.4 L  21.480 -99.319 10.0  RAL  1 0.2 0.2LRAL                1
 GAP=360        0.78     515.0   306.8  0.0 -0.1580E+06  0.8732E-01 -0.1803E+00E
 ACTION:UPD 12-06-08 11:37 OP:RALL STATUS:               ID:20080927191328     I
 2008-09-27-1913-16S.PLUR1_003                                                 6
 STAT SP IPHASW D HRMM SECON CODA AMPLIT PERI AZIMU VELO AIN AR TRES W  DIS CAZ7
 LA4  SZ E        1913 30.56                  252.4 12.9      2        1.07  70 
 LA4  SN IP       1913 30.63                             174    0.3910 1.07  70 
 LA4  SE IS       1913 31.20                             174   -0.3910 1.07  70 
 LA4  SZ  AML     1913 31.90         9.8 0.68                          1.07  70 
                                                                                
 2008  927 1914 36.1 L  21.338 -99.287  3.3  RAL  2 0.1 0.9LRAL                1
 GAP=238        1.51       0.6     2.3  8.2  0.7526E+00  0.1664E+01 -0.2830E-01E
 ACTION:UPD 12-06-08 11:37 OP:RALL STATUS:               ID:20080927191436     I
 2008-09-27-1914-22S.PLUR1_006                                                 6
 STAT SP IPHASW D HRMM SECON CODA AMPLIT PERI AZIMU VELO AIN AR TRES W  DIS CAZ7
 LZ4  SZ E        1914 36.70                  293.0  8.3      0        1.97 114 
 LZ4  SN IP       1914 36.73                             160   -0.2110 1.97 114 
 LZ4  SE IS       1914 37.50                             160   -0.0410 1.97 114 
 LZ4  SZ  AML     1914 37.60       158.7 0.16                          1.97 114 
 LA4  SN IP       1914 38.82                             105   -0.2410 16.3 352 
 LA4  SZ E        1914 38.95                  165.3  9.5     -6        16.3 352 
 LA4  SE IS       1914 41.69                             105    0.4810 16.3 352 
 LA4  SZ  AML     1914 41.94        16.2 0.28                          16.3 352 
                                                                                
 2008  927 1919 46.1 L  21.234 -98.786  5.1  RAL  2 1.7 1.2LRAL                1
 GAP=345       27.87     250.5   757.4999.9 -0.1742E+06  0.1078E+07 -0.3338E+06E
 ACTION:UPD 12-06-08 11:37 OP:RALL STATUS:               ID:20080927191946     I
 2008-09-27-1919-44S.PLUR1_006                                                 6
 STAT SP IPHASW D HRMM SECON CODA AMPLIT PERI AZIMU VELO AIN AR TRES W  DIS CAZ7
 LZ4  SZ E        1919 57.40                  178.1 19.6     76        51.3 282 
 LZ4  SN IP       1919 57.40                              63    3.1610 51.3 282 
 LZ4  SE IS       1920  0.19                              63    0.0210 51.3 282 
 LZ4  SZ  AML     1920  0.22        25.5 0.20                          51.3 282 
 LA4  SZ E        1919 54.48                    5.3 32.6    -99        60.9 297 
 LA4  SN IP       1919 54.48                              63   -1.2610 60.9 297 
 LA4  SE IS     D 1920  0.83                              63   -1.9210 60.9 297 
 LA4  SZ  AML     1920  2.52        11.5 0.60                          60.9 297 
                                                                                
 2008  927 1921  8.8 L  21.394 -99.323 10.0  RAL  1 0.0 0.7LRAL                1
 GAP=360        0.30       4.4     3.7  0.0 -0.1613E+02  0.1078E+07 -0.3338E+06E
 ACTION:UPD 12-06-08 11:37 OP:RALL STATUS:               ID:20080927192108     I
 2008-09-27-1920-58S.PLUR1_003                                                 6
 STAT SP IPHASW D HRMM SECON CODA AMPLIT PERI AZIMU VELO AIN AR TRES W  DIS CAZ7
 LZ4  SN IP       1921 11.19                             138    0.0210 8.95 142 
 LZ4  SZ E        1921 11.20                  321.7 12.3      0        8.95 142 
 LZ4  SE IS       1921 12.86                             138   -0.0210 8.95 142 
 LZ4  SZ  AML     1921 12.91        19.6 0.16                          8.95 142 
                                                                                
 2008  927 1948 34.4 L  21.606 -99.354 10.0  RAL  1 0.0 0.7LRAL                1
 GAP=360        0.30       4.2     1.6  0.0 -0.6481E+01  0.1078E+07 -0.3338E+06E
 ACTION:UPD 12-06-08 11:37 OP:RALL STATUS:               ID:20080927194834     I
 2008-09-27-1948-25S.PLUR1_003                                                 6
 STAT SP IPHASW D HRMM SECON CODA AMPLIT PERI AZIMU VELO AIN AR TRES W  DIS CAZ7
 LA4  SN IP       1948 37.39                             123    0.0010 14.3 161 
 LA4  SZ E        1948 37.43                  340.9  7.9      0        14.3 161 
 LA4  SE IS       1948 39.57                             123    0.0010 14.3 161 
 LA4  SZ  AML     1948 40.25        16.5 0.28                          14.3 161 
                                                                                
 2008  927 2013 48.1 L  21.605 -99.298  0.0  RAL  2 0.1 1.4LRAL                1
 GAP=349        0.72       5.8     0.9 58.4  0.2227E+01 -0.1258E+02 -0.1639E+03E
 ACTION:UPD 12-06-08 11:37 OP:RALL STATUS:               ID:20080927201348     I
 2008-09-27-2013-36S.PLUR1_006                                                 6
 STAT SP IPHASW D HRMM SECON CODA AMPLIT PERI AZIMU VELO AIN AR TRES W  DIS CAZ7
 LA4  SZ E        2013 50.43                    6.1  8.8      1        13.4 185 
 LA4  SN IP       2013 50.45                              95   -0.0210 13.4 185 
 LA4  SE IS       2013 51.89                              95   -0.3010 13.4 185 
 LA4  SZ  AML     2013 52.07        96.2 0.12                          13.4 185 
 LZ4  SN IP       2013 53.43                              92   -0.0110 30.4 175 
 LZ4  SZ E        2013 53.58                  352.4  8.7     -1        30.4 175 
 LZ4  SE IS       2013 57.65                              92    0.3210 30.4 175 
 LZ4  SZ  AML     2013 57.91        57.0 0.16                          30.4 175 
                                                                                
 2008  927 2026 19.6 L  21.393 -99.299 15.3  RAL  2 0.2 1.0LRAL                1
 GAP=198        3.59       7.1     6.0 32.6 -0.4169E+02  0.2247E+02 -0.2689E+02E
 ACTION:UPD 12-06-08 11:37 OP:RALL STATUS:               ID:20080927202619     I
 2008-09-27-2026-08S.PLUR1_006                                                 6
 STAT SP IPHASW D HRMM SECON CODA AMPLIT PERI AZIMU VELO AIN AR TRES W  DIS CAZ7
 LZ4  SN IP       2026 22.67                             172    0.1010 7.57 156 
 LZ4  SZ E        2026 22.69                  320.9  7.1    -14        7.57 156 
 LZ4  SE IS     D 2026 24.75                             172    0.0510 7.57 156 
 LZ4  SZ  AML     2026 26.31        56.9 0.56                          7.57 156 
 LA4  SZ E        2026 22.77                  165.7 10.1     -7        10.0 354 
 LA4  SN IP       2026 22.83                             140    0.0610 10.0 354 
 LA4  SE IS       2026 24.84                             140   -0.2110 10.0 354 
 LA4  SZ  AML     2026 26.61        21.9 0.68                          10.0 354 
                                                                                
 2008  927 2032 15.2 L  21.618 -99.379 10.0  RAL  1 0.0 0.5LRAL                1
 GAP=360        0.30       3.8     2.0  0.0 -0.7482E+01  0.2247E+02 -0.2689E+02E
 ACTION:UPD 12-06-08 11:37 OP:RALL STATUS:               ID:20080927203215     I
 2008-09-27-2032-07S.PLUR1_003                                                 6
 STAT SP IPHASW D HRMM SECON CODA AMPLIT PERI AZIMU VELO AIN AR TRES W  DIS CAZ7
 LA4  SN IP       2032 18.48                             119    0.0110 16.6 154 
 LA4  SZ E        2032 18.85                  334.0 10.0      0        16.6 154 
 LA4  SE IS       2032 20.88                             119   -0.0110 16.6 154 
 LA4  SZ  AML     2032 21.59         8.6 0.32                          16.6 154 
                                                                                
 2008  927 2051 42.6 L  21.407 -99.342 10.0  RAL  2 0.2 0.7LRAL                1
 GAP=244        0.98       1.1     0.8 11.3  0.6528E-01  0.2191E+00  0.8064E+00E
 ACTION:UPD 12-06-08 11:37 OP:RALL STATUS:               ID:20080927205142     I
 2008-09-27-2051-30S.PLUR1_006                                                 6
 STAT SP IPHASW D HRMM SECON CODA AMPLIT PERI AZIMU VELO AIN AR TRES W  DIS CAZ7
 LA4  SZ E        2051 45.32                  203.8 11.0      2        9.18  22 
 LA4  SN IP       2051 45.35                             142    0.3110 9.18  22 
 LA4  SE IS       2051 47.26                             142    0.4810 9.18  22 
 LA4  SZ  AML     2051 47.60         8.8 0.28                          9.18  22 
 LZ4  SN IP       2051 45.00                             135   -0.2610 11.3 138 
 LZ4  SZ E        2051 45.01                  319.1  6.5      1        11.3 138 
 LZ4  SE IS       2051 46.64                             135   -0.5310 11.3 138 
 LZ4  SZ  AML     2051 46.72        43.5 0.16                          11.3 138 
                                                                                
 2008  927 2111 17.1 L  21.484 -99.313 10.0  RAL  1 0.3 0.6LRAL                1
 GAP=360        1.23      75.2   474.2  0.0  0.3556E+05  0.2191E+00  0.8064E+00E
 ACTION:UPD 12-06-08 11:37 OP:RALL STATUS:               ID:20080927211117     I
 2008-09-27-2111-04S.PLUR1_003                                                 6
 STAT SP IPHASW D HRMM SECON CODA AMPLIT PERI AZIMU VELO AIN AR TRES W  DIS CAZ7
 LA4  SZ E        2111 19.24                  285.1 24.6      3        0.38 102 
 LA4  SN IP       2111 19.63                             178    0.6510 0.38 102 
 LA4  SE IS       2111 19.68                             178   -0.6510 0.38 102 
 LA4  SZ  AML     2111 19.86        20.4 0.20                          0.38 102 
                                                                                
 2008  927 2140 16.7 L  21.350 -99.292 15.6  RAL  2 0.1 0.6LRAL                1
 GAP=220        1.11       1.6     1.8  9.8 -0.2800E+01  0.2047E+01 -0.1778E+01E
 ACTION:UPD 12-06-08 11:37 OP:RALL STATUS:               ID:20080927214016     I
 2008-09-27-2140-06S.PLUR1_006                                                 6
 STAT SP IPHASW D HRMM SECON CODA AMPLIT PERI AZIMU VELO AIN AR TRES W  DIS CAZ7
 LZ4  SN IP       2140 19.69                             172    0.2210 3.12 133 
 LZ4  SZ E        2140 20.14                  311.9  6.9      0        3.12 133 
 LZ4  SE IS       2140 21.74                             172    0.2710 3.12 133 
 LZ4  SZ  AML     2140 21.83        18.6 0.16                          3.12 133 
 LA4  SN IP       2140 20.40                             137    0.0510 14.9 353 
 LA4  SZ E        2140 20.52                  169.0 15.0     -3        14.9 353 
 LA4  SE IS       2140 22.47                             137   -0.5410 14.9 353 
 LA4  SZ  AML     2140 24.22         6.8 0.64                          14.9 353 
                                                                                
 2008  927 2146 46.7 L  21.667 -99.443 10.0  RAL  1 0.0 0.8LRAL                1
 GAP=360        0.30       3.2     2.4  0.0 -0.7403E+01  0.2047E+01 -0.1778E+01E
 ACTION:UPD 12-06-08 11:37 OP:RALL STATUS:               ID:20080927214646     I
 2008-09-27-2146-39S.PLUR1_003                                                 6
 STAT SP IPHASW D HRMM SECON CODA AMPLIT PERI AZIMU VELO AIN AR TRES W  DIS CAZ7
 LA4  SN IP       2146 51.12                             108    0.0010 24.6 146 
 LA4  SZ E        2146 51.26                  325.6  8.6      0        24.6 146 
 LA4  SE IS       2146 54.36                             108    0.0010 24.6 146 
 LA4  SZ  AML     2146 56.37        13.0 0.32                          24.6 146 
                                                                                
 2008  927 2250 29.9 L  21.487 -99.319 10.0  RAL  1 0.3 0.3LRAL                1
 GAP=360        3.46     999.9   999.9  0.0  0.9828E+08  0.2047E+01 -0.1778E+01E
 ACTION:UPD 12-06-08 11:37 OP:RALL STATUS:               ID:20080927225029     I
 2008-09-27-2250-18S.PLUR1_003                                                 6
 STAT SP IPHASW D HRMM SECON CODA AMPLIT PERI AZIMU VELO AIN AR TRES W  DIS CAZ7
 LA4  SN IP       2250 31.86                             174    0.1410 1.12 112 
 LA4  SZ E        2250 31.91                  275.5 15.7    -15        1.12 112 
 LA4  SE IS       2250 32.94                             174   -0.1410 1.12 112 
 LA4  SZ  AML     2250 34.01        10.3 0.28                          1.12 112 
                                                                                
