 2008  911 0402 52.6 L  22.388 -99.040 10.0  RAL  2 0.6 2.0LRAL                1
 GAP=356       10.55     417.9   135.2668.4  0.4676E+05 -0.7276E+05 -0.2640E+06E
 ACTION:UPD 12-06-08 11:37 OP:RALL STATUS:               ID:20080911040252     I
 2008-09-11-0402-56S.PLUR1_006                                                 6
 STAT SP IPHASW D HRMM SECON CODA AMPLIT PERI AZIMU VELO AIN AR TRES W  DIS CAZ7
 LA4  SN IP        4 3  8.77                             124   -0.5310  104 196 
 LA4  SZ E         4 3  8.88                   49.3 16.3     34         104 196 
 LA4  SE IS        4 3 21.51                             124    0.0510  104 196 
 LA4  SZ  AML      4 3 25.40        31.8 0.24                           104 196 
 LZ4  SZ E         4 3 11.49                  332.5  9.5     39         119 191 
 LZ4  SN IP        4 3 11.94                             120    0.2410  119 191 
 LZ4  SE IS        4 3 25.86                             120    0.2510  119 191 
 LZ4  SZ  AML      4 3 30.72        87.2 0.48                           119 191 
                                                                                
 2008  911 0434 15.6 L  22.334 -99.786 10.0  RAL  1 0.0 2.1LRAL                1
 GAP=360        0.30       3.6     3.6  0.0 -0.1500E+01 -0.7276E+05 -0.2640E+06E
 ACTION:UPD 12-06-08 11:37 OP:RALL STATUS:               ID:20080911043415     I
 2008-09-11-0434-21S.PLUR1_003                                                 6
 STAT SP IPHASW D HRMM SECON CODA AMPLIT PERI AZIMU VELO AIN AR TRES W  DIS CAZ7
 LZ4  SN IP        434 35.25                              93    0.0010  123 154 
 LZ4  SZ E         434 35.31                  334.4  8.2      0         123 154 
 LZ4  SE IS        434 49.59                              93    0.0010  123 154 
 LZ4  SZ  AML      434 54.17        59.8 0.40                           123 154 
                                                                                
 2008  911 0823 31.0 L  21.344 -99.298 10.0  RAL  1 0.1 0.4LRAL                1
 GAP=360        0.40       7.4    15.7  0.0 -0.1162E+03 -0.7276E+05 -0.2640E+06E
 ACTION:UPD 12-06-08 11:37 OP:RALL STATUS:               ID:20080911082331     I
 2008-09-11-0823-20S.PLUR1_003                                                 6
 STAT SP IPHASW D HRMM SECON CODA AMPLIT PERI AZIMU VELO AIN AR TRES W  DIS CAZ7
 LZ4  SZ E         823 32.81                  296.9 13.1      0        3.29 117 
 LZ4  SN IP        823 33.08                             162    0.1810 3.29 117 
 LZ4  SE IS        823 34.11                             162   -0.1810 3.29 117 
 LZ4  SZ  AML      823 35.02        13.0 0.76                          3.29 117 
                                                                                
 2008  912  459 19.8 L                       RAL  0                            1
 ACTION:UPD 12-06-08 11:37 OP:RALL STATUS:               ID:20080912045919     I
 2008-09-12-0459-19S.PLUR1_006                                                 6
 STAT SP IPHASW D HRMM SECON CODA AMPLIT PERI AZIMU VELO AIN AR TRES W  DIS CAZ7
                                                                                
 2008  912 1815 12.5 L  21.960 -99.630 10.0  RAL  1 0.0 1.1LRAL                1
 GAP=360        0.30       3.3     2.6  0.0 -0.5455E+01 -0.7276E+05 -0.2640E+06E
 ACTION:UPD 12-06-08 11:37 OP:RALL STATUS:               ID:20080912181512     I
 2008-09-12-1815-14S.PLUR1_003                                                 6
 STAT SP IPHASW D HRMM SECON CODA AMPLIT PERI AZIMU VELO AIN AR TRES W  DIS CAZ7
 LA4  SN IP       1815 22.69                              96    0.0110 62.3 148 
 LA4  SZ E        1815 22.92                  327.9 13.5      0        62.3 148 
 LA4  SE IS       1815 30.12                              96   -0.0110 62.3 148 
 LA4  SZ  AML     1815 33.90        12.8 0.64                          62.3 148 
                                                                                
 2008  913 0459 25.7 L  21.333 -99.275 10.0  RAL  1 0.3 0.4LRAL                1
 GAP=360        3.29     999.9   999.9  0.0  0.3597E+09 -0.7276E+05 -0.2640E+06E
 ACTION:UPD 12-06-08 11:37 OP:RALL STATUS:               ID:20080913045925     I
 2008-09-13-0459-13S.PLUR1_003                                                 6
 STAT SP IPHASW D HRMM SECON CODA AMPLIT PERI AZIMU VELO AIN AR TRES W  DIS CAZ7
 LZ4  SN IP        459 27.62                             177    0.0610 0.62 107 
 LZ4  SZ E         459 27.63                  271.7 11.8    -15        0.62 107 
 LZ4  SE IS        459 28.84                             177   -0.0610 0.62 107 
 LZ4  SZ  AML      459 29.41        13.6 0.64                          0.62 107 
                                                                                
 2008  913 1542 47.7 R  22.842-100.523 10.0  RAL  1 0.0 2.4LRAL                1
 GAP=360        0.30       5.0     5.6  0.0  0.4014E+01 -0.7276E+05 -0.2640E+06E
 ACTION:UPD 12-06-08 11:37 OP:RALL STATUS:               ID:20080913154247     I
 2008-09-13-1543-05S.PLUR1_003                                                 6
 STAT SP IPHASW D HRMM SECON CODA AMPLIT PERI AZIMU VELO AIN AR TRES W  DIS CAZ7
 LZ4  SZ E        1543 18.06                  322.5 26.2      0         211 142 
 LZ4  SN IP       1543 18.24                              52    0.0110  211 142 
 LZ4  SE IS       1543 40.51                              52   -0.0110  211 142 
 LZ4  SZ  AML     1543 42.19        60.4 0.36                           211 142 
                                                                                
 2008  914 1549 37.8 L  21.318 -99.291 10.0  RAL  1 0.2 0.3LRAL                1
 GAP=360        0.66      17.5    29.5  0.0  0.5168E+03 -0.7276E+05 -0.2640E+06E
 ACTION:UPD 12-06-08 11:37 OP:RALL STATUS:               ID:20080914154937     I
 2008-09-14-1549-26S.PLUR1_003                                                 6
 STAT SP IPHASW D HRMM SECON CODA AMPLIT PERI AZIMU VELO AIN AR TRES W  DIS CAZ7
 LZ4  SN IP       1549 40.08                             165    0.4010 2.69  57 
 LZ4  SZ E        1549 40.09                  237.5 15.3      0        2.69  57 
 LZ4  SE IS       1549 40.66                             165   -0.4010 2.69  57 
 LZ4  SZ  AML     1549 41.05        10.8 0.28                          2.69  57 
                                                                                
 2008  915 1008 14.0 L  21.399 -99.321 10.0  RAL  1 0.0 0.5LRAL                1
 GAP=360        0.30       4.4     3.4  0.0 -0.1503E+02 -0.7276E+05 -0.2640E+06E
 ACTION:UPD 12-06-08 11:37 OP:RALL STATUS:               ID:20080915100814     I
 2008-09-15-1008-04S.PLUR1_003                                                 6
 STAT SP IPHASW D HRMM SECON CODA AMPLIT PERI AZIMU VELO AIN AR TRES W  DIS CAZ7
 LZ4  SN IP       10 8 16.36                             137    0.0210 9.23 145 
 LZ4  SZ E        10 8 16.65                  324.6  9.8      0        9.23 145 
 LZ4  SE IS       10 8 18.06                             137   -0.0210 9.23 145 
 LZ4  SZ  AML     10 8 19.70        12.7 0.60                          9.23 145 
                                                                                
 2008  915 1212 56.9 L  21.700 -99.420  0.0  RAL  2 0.2 1.4LRAL                1
 GAP=355        3.46      33.1    17.7756.4 -0.5200E+03  0.8414E+04 -0.1674E+05E
 ACTION:UPD 12-06-08 11:37 OP:RALL STATUS:               ID:20080915121256     I
 2008-09-15-1212-48S.PLUR1_006                                                 6
 STAT SP IPHASW D HRMM SECON CODA AMPLIT PERI AZIMU VELO AIN AR TRES W  DIS CAZ7
 LA4  SZ E        1213  1.78                  343.0  8.2      9        26.6 154 
 LA4  SN IP       1213  1.83                              92    0.2710 26.6 154 
 LA4  SE IS       1213  4.49                              92   -0.4610 26.6 154 
 LA4  SZ  AML     1213  6.16        58.0 0.64                          26.6 154 
 LZ4  SN IP       1213  4.76                              91    0.2010 43.8 159 
 LZ4  SZ E        1213  4.84                  324.9  8.5    -13        43.8 159 
 LZ4  SE IS       1213 10.13                              91   -0.0110 43.8 159 
 LZ4  SZ  AML     1213 12.98        32.5 0.48                          43.8 159 
                                                                                
 2008  916 1053  2.0 L  21.341 -99.296 10.0  RAL  1 0.1 0.5LRAL                1
 GAP=360        0.42       7.1    18.5  0.0 -0.1305E+03  0.8414E+04 -0.1674E+05E
 ACTION:UPD 12-06-08 11:37 OP:RALL STATUS:               ID:20080916105302     I
 2008-09-16-1052-50S.PLUR1_003                                                 6
 STAT SP IPHASW D HRMM SECON CODA AMPLIT PERI AZIMU VELO AIN AR TRES W  DIS CAZ7
 LZ4  SN IP       1053  4.05                             164    0.2010 2.98 112 
 LZ4  SZ E        1053  4.14                  292.3 11.4      0        2.98 112 
 LZ4  SE IS       1053  5.04                             164   -0.2010 2.98 112 
 LZ4  SZ  AML     1053  5.19        18.2 0.36                          2.98 112 
                                                                                
 2008  916 1314 14.4 L  21.341 -99.291 10.0  RAL  1 0.1 0.6LRAL                1
 GAP=360        0.50      12.0    25.1  0.0 -0.3008E+03  0.8414E+04 -0.1674E+05E
 ACTION:UPD 12-06-08 11:37 OP:RALL STATUS:               ID:20080916131414     I
 2008-09-16-1314-02S.PLUR1_003                                                 6
 STAT SP IPHASW D HRMM SECON CODA AMPLIT PERI AZIMU VELO AIN AR TRES W  DIS CAZ7
 LZ4  SZ E        1314 16.53                  297.2  7.6      0        2.54 117 
 LZ4  SN IP       1314 16.59                             166    0.2810 2.54 117 
 LZ4  SE IS       1314 17.41                             166   -0.2810 2.54 117 
 LZ4  SZ  AML     1314 17.52        20.8 0.12                          2.54 117 
                                                                                
 2008  916 2012 55.6 L  21.417 -99.366 10.0  RAL  1 0.0 0.2LRAL                1
 GAP=360        0.30       4.2     3.6  0.0  0.1526E+02  0.8414E+04 -0.1674E+05E
 ACTION:UPD 12-06-08 11:37 OP:RALL STATUS:               ID:20080916201255     I
 2008-09-16-2012-46S.PLUR1_003                                                 6
 STAT SP IPHASW D HRMM SECON CODA AMPLIT PERI AZIMU VELO AIN AR TRES W  DIS CAZ7
 LA4  SZ E        2012 58.04                  218.6 13.7      0        9.48  39 
 LA4  SN IP       2012 58.09                             136    0.0210 9.48  39 
 LA4  SE IS       2012 59.81                             136   -0.0210 9.48  39 
 LA4  SZ  AML     2013  0.70         6.7 0.36                          9.48  39 
                                                                                
 2008  917 1419 53.1 R  22.453 -99.500 10.0  RAL  1 0.0 2.4LRAL                1
 GAP=360        0.30       3.7     3.5  0.0 -0.6027E+00  0.8414E+04 -0.1674E+05E
 ACTION:UPD 12-06-08 11:37 OP:RALL STATUS:               ID:20080917141953     I
 2008-09-17-1419-59S.PLUR1_003                                                 6
 STAT SP IPHASW D HRMM SECON CODA AMPLIT PERI AZIMU VELO AIN AR TRES W  DIS CAZ7
 LZ4  SZ E        1420 13.00                  349.2  7.6      0         126 169 
 LZ4  SN IP       1420 13.19                              92    0.0010  126 169 
 LZ4  SE IS       1420 27.90                              92    0.0010  126 169 
 LZ4  SZ  AML     1420 31.11       110.6 0.40                           126 169 
                                                                                
 2008  917 1550  4.4 L  21.626 -99.322 10.0  RAL  1 0.0 0.6LRAL                1
 GAP=360        0.30       4.3     0.6  0.0 -0.1689E+01  0.8414E+04 -0.1674E+05E
 ACTION:UPD 12-06-08 11:37 OP:RALL STATUS:               ID:20080917155004     I
 2008-09-17-1549-55S.PLUR1_003                                                 6
 STAT SP IPHASW D HRMM SECON CODA AMPLIT PERI AZIMU VELO AIN AR TRES W  DIS CAZ7
 LA4  SZ E        1550  7.51                  355.1  8.2      0        15.8 175 
 LA4  SN IP       1550  7.61                             120    0.0210 15.8 175 
 LA4  SE IS       1550  9.90                             120   -0.0210 15.8 175 
 LA4  SZ  AML     1550 11.36        11.9 0.40                          15.8 175 
                                                                                
 2008  917 2334  9.5 L  21.407 -99.399 28.5  RAL  2 0.2 0.6LRAL                1
 GAP=286        1.28       1.5     2.0 13.7  0.7230E+00  0.1553E+01  0.5522E+00E
 ACTION:UPD 12-06-08 11:37 OP:RALL STATUS:               ID:20080917233409     I
 2008-09-17-2334-04S.PLUR1_006                                                 6
 STAT SP IPHASW D HRMM SECON CODA AMPLIT PERI AZIMU VELO AIN AR TRES W  DIS CAZ7
 LA4  SZ E        2334 14.10                  226.5 13.4      0        12.6  48 
 LA4  SN IP       2334 14.13                             154   -0.3610 12.6  48 
 LA4  SE IS       2334 17.43                             154   -0.7410 12.6  48 
 LA4  SZ  AML     2334 19.33         7.5 0.36                          12.6  48 
 LZ4  SZ E        2334 14.99                  301.1  6.6      0        15.9 122 
 LZ4  SN IP       2334 15.02                             149    0.3210 15.9 122 
 LZ4  SE IS       2334 19.31                             149    0.7810 15.9 122 
 LZ4  SZ  AML     2334 21.20         9.2 0.44                          15.9 122 
                                                                                
 2008  918 0230 22.7 L  21.192 -99.291 10.0  RAL  1 0.0-0.6LRAL                1
 GAP=360        0.30       2.7    13.7  0.0  0.3632E+02  0.1553E+01  0.5522E+00E
 ACTION:UPD 12-06-08 11:37 OP:RALL STATUS:               ID:20080918023022     I
 2008-09-18-0230-11S.PLUR1_003                                                 6
 STAT SP IPHASW D HRMM SECON CODA AMPLIT PERI AZIMU VELO AIN AR TRES W  DIS CAZ7
 LD5  SZ E         230 24.52                   78.2 14.6      0        3.11 258 
 LD5  SN IP        230 24.63                             163    0.0410 3.11 258 
 LD5  SE IS        230 25.94                             163   -0.0410 3.11 258 
 LD5  SZ  AML      230 26.00         1.4 0.18                          3.11 258 
                                                                                
 2008  918 1018 22.6 L  21.337 -99.280 10.0  RAL  1 0.4 0.9LRAL                1
 GAP=360        4.56     999.9   999.9  0.0  0.5804E+07  0.1553E+01  0.5522E+00E
 ACTION:UPD 12-06-08 11:37 OP:RALL STATUS:               ID:20080918101822     I
 2008-09-18-1018-10S.PLUR1_003                                                 6
 STAT SP IPHASW D HRMM SECON CODA AMPLIT PERI AZIMU VELO AIN AR TRES W  DIS CAZ7
 LZ4  SZ E        1018 24.76                  279.6 20.6    -21        1.30 121 
 LZ4  SN IP       1018 24.78                             173    0.3310 1.30 121 
 LZ4  SE IS       1018 25.47                             173   -0.3310 1.30 121 
 LZ4  SZ  AML     1018 25.75        44.6 0.24                          1.30 121 
                                                                                
 2008  918 2333 29.7 L  21.825 -99.380 10.0  RAL  1 0.0                        1
 GAP=360        0.30       3.7     1.3  0.0 -0.2657E+01  0.1553E+01  0.5522E+00E
 ACTION:UPD 12-06-08 11:37 OP:RALL STATUS:               ID:20080918233329     I
 2008-09-18-2333-26S.PLUR1_003                                                 6
 STAT SP IPHASW D HRMM SECON CODA AMPLIT PERI AZIMU VELO AIN AR TRES W  DIS CAZ7
 LA4  SZ E        2333 35.92                  349.0  7.9      0        38.5 169 
 LA4  SN IP       2333 36.24                             100    0.0110 38.5 169 
 LA4  SE IS       2333 41.00                             100   -0.0110 38.5 169 
                                                                                
 2008  918 2349 12.3 R                       RAL  0                            1
 ACTION:UPD 12-06-08 11:37 OP:RALL STATUS:               ID:20080918234912     I
 2008-09-18-2349-12S.PLUR1_006                                                 6
 STAT SP IPHASW D HRMM SECON CODA AMPLIT PERI AZIMU VELO AIN AR TRES W  DIS CAZ7
                                                                                
 2008  919 0002 29.1 L  21.174 -99.304 10.0  RAL  1 0.2 0.5LRAL                1
 GAP=360        0.79      29.7    38.8  0.0 -0.1154E+04  0.1553E+01  0.5522E+00E
 ACTION:UPD 12-06-08 11:37 OP:RALL STATUS:               ID:20080919000229     I
 2008-09-19-0002-16S.PLUR1_003                                                 6
 STAT SP IPHASW D HRMM SECON CODA AMPLIT PERI AZIMU VELO AIN AR TRES W  DIS CAZ7
 LD5  SZ E         0 2 31.48                  129.4 27.7      0        2.23 309 
 LD5  SN IP        0 2 31.50                             168    0.5010 2.23 309 
 LD5  SE IS        0 2 31.87                             168   -0.5010 2.23 309 
 LD5  SZ  AML      0 2 32.09        17.9 0.16                          2.23 309 
                                                                                
 2008  919 0152  1.9 R  22.282 -99.867 10.0  RAL  1 0.0 1.7LRAL                1
 GAP=360        0.30       3.6     3.6  0.0 -0.1763E+01  0.1553E+01  0.5522E+00E
 ACTION:UPD 12-06-08 11:37 OP:RALL STATUS:               ID:20080919015201     I
 2008-09-19-0152-07S.PLUR1_003                                                 6
 STAT SP IPHASW D HRMM SECON CODA AMPLIT PERI AZIMU VELO AIN AR TRES W  DIS CAZ7
 LZ4  SZ E         152 21.37                  329.7 10.3      0         122 149 
 LZ4  SN IP        152 21.37                              93    0.0010  122 149 
 LZ4  SE IS        152 35.58                              93    0.0010  122 149 
 LZ4  SZ  AML      152 37.56        22.7 0.52                           122 149 
                                                                                
 2008  919 1555 14.4 R  21.619 -99.382 10.0  RAL  1 0.0 0.6LRAL                1
 GAP=360        0.30       3.8     2.1  0.0 -0.7567E+01  0.1553E+01  0.5522E+00E
 ACTION:UPD 12-06-08 11:37 OP:RALL STATUS:               ID:20080919155514     I
 2008-09-19-1555-06S.PLUR1_003                                                 6
 STAT SP IPHASW D HRMM SECON CODA AMPLIT PERI AZIMU VELO AIN AR TRES W  DIS CAZ7
 LA4  SZ E        1555 17.23                  333.3 13.0      0        16.8 153 
 LA4  SN IP       1555 17.70                             119    0.0110 16.8 153 
 LA4  SE IS       1555 20.12                             119   -0.0110 16.8 153 
 LA4  SZ  AML     1555 21.36        11.5 0.36                          16.8 153 
                                                                                
 2008  919 1832 53.6 L  21.359 -99.299 15.4  RAL  2 0.1 0.5LRAL                1
 GAP=220        0.54       0.8     0.7  5.0 -0.5176E+00  0.4235E+00 -0.4580E+00E
 ACTION:UPD 12-06-08 11:37 OP:RALL STATUS:               ID:20080919183253     I
 2008-09-19-1832-44S.PLUR1_006                                                 6
 STAT SP IPHASW D HRMM SECON CODA AMPLIT PERI AZIMU VELO AIN AR TRES W  DIS CAZ7
 LZ4  SN IP       1832 56.65                             164    0.3010 4.38 136 
 LZ4  SZ E        1832 56.69                  315.8  7.7      0        4.38 136 
 LZ4  SE IS       1832 58.45                             164    0.0810 4.38 136 
 LZ4  SZ  AML     1832 59.92        12.3 0.20                          4.38 136 
 LA4  SN IP       1832 56.96                             138   -0.1210 13.8 356 
 LA4  SZ E        1832 57.03                  175.0 11.1      0        13.8 356 
 LA4  SZ  AML     1832 59.31         7.0 0.72                          13.8 356 
 LA4  SE IS       1832 59.37                             138   -0.2610 13.8 356 
                                                                                
