 2008  926 2209  2.8 L  21.340 -99.290 10.0  RAL  1 0.1 0.3LRAL                1
 GAP=360        0.50      11.7    26.9  0.0 -0.3152E+03  0.9862E+02 -0.4124E+03E
 ACTION:UPD 12-06-08 11:37 OP:RALL STATUS:               ID:20080926220902     I
 2008-09-26-2208-51S.PLUR1_003                                                 6
 STAT SP IPHASW D HRMM SECON CODA AMPLIT PERI AZIMU VELO AIN AR TRES W  DIS CAZ7
 LZ4  SZ E        22 9  4.86                  295.1  9.7      0        2.36 115 
 LZ4  SN IP       22 9  4.91                             167    0.2710 2.36 115 
 LZ4  SZ  AML     22 9  5.70        10.2 0.28                          2.36 115 
 LZ4  SE IS       22 9  5.74                             167   -0.2710 2.36 115 
                                                                                
 2008  926 2330 54.2 L  21.487 -99.326 10.0  RAL  1 0.2 0.3LRAL                1
 GAP=360        0.77       9.9    58.8  0.0 -0.5831E+03  0.9862E+02 -0.4124E+03E
 ACTION:UPD 12-06-08 11:37 OP:RALL STATUS:               ID:20080926233054     I
 2008-09-26-2330-42S.PLUR1_003                                                 6
 STAT SP IPHASW D HRMM SECON CODA AMPLIT PERI AZIMU VELO AIN AR TRES W  DIS CAZ7
 LA4  SZ E        2330 56.39                  278.2 12.5     -1        1.83 100 
 LA4  SN IP       2330 56.46                             170    0.3810 1.83 100 
 LA4  SE IS       2330 57.06                             170   -0.3810 1.83 100 
 LA4  SZ  AML     2330 57.60        11.8 0.36                          1.83 100 
                                                                                
 2008  927 0022 40.7 L  21.488 -99.322 10.0  RAL  1 0.3 0.6LRAL                1
 GAP=360        3.14      95.6   281.9  0.0 -0.2695E+05  0.9862E+02 -0.4124E+03E
 ACTION:UPD 12-06-08 11:37 OP:RALL STATUS:               ID:20080927002240     I
 2008-09-27-0022-28S.PLUR1_006                                                 6
 STAT SP IPHASW D HRMM SECON CODA AMPLIT PERI AZIMU VELO AIN AR TRES W  DIS CAZ7
 LA4  SZ E         022 42.95                  275.4 13.5    -14        1.47 110 
 LA4  SN IP        022 43.01                             172    0.4210 1.47 110 
 LA4  SE IS        022 43.53                             172   -0.4210 1.47 110 
 LA4  SZ  AML      022 44.29        21.9 0.56                          1.47 110 
                                                                                
 2008  927 0037 47.2 L  21.586 -99.332 10.0  RAL  1 0.0 0.8LRAL                1
 GAP=360        0.30       4.7     1.1  0.0 -0.5108E+01  0.9862E+02 -0.4124E+03E
 ACTION:UPD 12-06-08 11:37 OP:RALL STATUS:               ID:20080927003747     I
 2008-09-27-0037-37S.PLUR1_003                                                 6
 STAT SP IPHASW D HRMM SECON CODA AMPLIT PERI AZIMU VELO AIN AR TRES W  DIS CAZ7
 LA4  SZ E         037 49.80                  348.0  7.9      0        11.5 168 
 LA4  SN IP        037 49.82                             130    0.0010 11.5 168 
 LA4  SE IS        037 51.75                             130    0.0010 11.5 168 
 LA4  SZ  AML      037 52.33        21.7 0.56                          11.5 168 
                                                                                
 2008  927 0050 55.4 L  21.639 -99.327 10.0  RAL  1 0.0 0.6LRAL                1
 GAP=360        0.30       4.2     0.7  0.0 -0.2048E+01  0.9862E+02 -0.4124E+03E
 ACTION:UPD 12-06-08 11:37 OP:RALL STATUS:               ID:20080927005055     I
 2008-09-27-0050-46S.PLUR1_003                                                 6
 STAT SP IPHASW D HRMM SECON CODA AMPLIT PERI AZIMU VELO AIN AR TRES W  DIS CAZ7
 LA4  SZ E         050 58.63                  353.7  8.3      0        17.3 174 
 LA4  SN IP        050 58.78                             118    0.0210 17.3 174 
 LA4  SE IS        051  1.22                             118   -0.0210 17.3 174 
 LA4  SZ  AML      051  1.52        13.1 0.28                          17.3 174 
                                                                                
 2008  927 0100 27.3 L  21.352 -99.285 17.5  RAL  2 0.3 0.4LRAL                1
 GAP=204        1.61       3.9     2.8 14.7 -0.1051E+02  0.5761E+01 -0.8250E+01E
 ACTION:UPD 12-06-08 11:37 OP:RALL STATUS:               ID:20080927010027     I
 2008-09-27-0100-18S.PLUR1_006                                                 6
 STAT SP IPHASW D HRMM SECON CODA AMPLIT PERI AZIMU VELO AIN AR TRES W  DIS CAZ7
 LZ4  SZ E         1 0 30.74                  325.2 26.3      0        2.80 146 
 LZ4  SN IP        1 0 31.05                             171    0.7010 2.80 146 
 LZ4  SE IS        1 0 33.04                             171    0.4810 2.80 146 
 LA4  SZ E         1 0 31.08                  166.7 10.2     -2        14.8 350 
 LA4  SN IP        1 0 31.08                             140   -0.0910 14.8 350 
 LA4  SE IS        1 0 32.88                             140   -1.0910 14.8 350 
 LA4  SZ  AML      1 0 35.69         6.4 0.48                          14.8 350 
                                                                                
 2008  927 0101 22.0 Ly 21.596 -99.298 10.0  RAL  1 0.0 0.6LRAL                1
 GAP=360        0.30       4.7     0.6  0.0  0.2150E+01  0.5761E+01 -0.8250E+01E
 ACTION:UPD 12-06-08 11:37 OP:RALL STATUS:               ID:20080927010122     I
 2008-09-27-0101-12S.PLUR1_003                                                 6
 STAT SP IPHASW D HRMM SECON CODA AMPLIT PERI AZIMU VELO AIN AR TRES W  DIS CAZ7
 LA4  SN IP        1 1 24.80                             128    0.0010 12.5 185 
 LA4  SZ E         1 1 24.84                    5.3  8.0      0        12.5 185 
 LA4  SE IS        1 1 26.82                             128    0.0010 12.5 185 
 LA4  SZ  AML      1 1 27.05        15.0 0.28                          12.5 185 
                                                                                
 2008  927 0224 53.7 L  21.345 -99.296 10.0  RAL  1 0.1 0.6LRAL                1
 GAP=360        0.47       9.7    18.9  0.0 -0.1837E+03  0.5761E+01 -0.8250E+01E
 ACTION:UPD 12-06-08 11:37 OP:RALL STATUS:               ID:20080927022453     I
 2008-09-27-0224-41S.PLUR1_003                                                 6
 STAT SP IPHASW D HRMM SECON CODA AMPLIT PERI AZIMU VELO AIN AR TRES W  DIS CAZ7
 LZ4  SZ E         224 55.85                  298.8  7.7      0        3.16 119 
 LZ4  SN IP        224 55.86                             163    0.2510 3.16 119 
 LZ4  SE IS        224 56.75                             163   -0.2510 3.16 119 
 LZ4  SZ  AML      224 56.90        21.3 0.36                          3.16 119 
                                                                                
 2008  927 0247 40.5 L  21.559 -99.320 10.0  RAL  1 0.0 0.6LRAL                1
 GAP=360        0.30       5.7     0.8  0.0 -0.4522E+01  0.5761E+01 -0.8250E+01E
 ACTION:UPD 12-06-08 11:37 OP:RALL STATUS:               ID:20080927024740     I
 2008-09-27-0247-30S.PLUR1_003                                                 6
 STAT SP IPHASW D HRMM SECON CODA AMPLIT PERI AZIMU VELO AIN AR TRES W  DIS CAZ7
 LA4  SN IP        247 42.83                             140    0.0110 8.46 173 
 LA4  SZ E         247 42.84                  352.6  8.5      0        8.46 173 
 LA4  SE IS        247 44.51                             140   -0.0110 8.46 173 
 LA4  SZ  AML      247 45.43        19.0 0.52                          8.46 173 
                                                                                
 2008  927 0250 40.4 L  21.669 -99.350 10.0  RAL  1 0.0 0.5LRAL                1
 GAP=360        0.30       3.9     1.0  0.0 -0.3385E+01  0.5761E+01 -0.8250E+01E
 ACTION:UPD 12-06-08 11:37 OP:RALL STATUS:               ID:20080927025040     I
 2008-09-27-0250-32S.PLUR1_003                                                 6
 STAT SP IPHASW D HRMM SECON CODA AMPLIT PERI AZIMU VELO AIN AR TRES W  DIS CAZ7
 LA4  SZ E         250 44.20                  348.3  7.3      0        21.0 168 
 LA4  SN IP        250 44.36                             112    0.0210 21.0 168 
 LA4  SE IS        250 47.18                             112   -0.0210 21.0 168 
 LA4  SZ  AML      250 47.89         7.3 0.28                          21.0 168 
                                                                                
 2008  927 0254 49.4 L  21.664 -99.376 10.0  RAL  1 0.0 1.1LRAL                1
 GAP=360        0.30       3.8     1.5  0.0 -0.5283E+01  0.5761E+01 -0.8250E+01E
 ACTION:UPD 12-06-08 11:37 OP:RALL STATUS:               ID:20080927025449     I
 2008-09-27-0254-39S.PLUR1_003                                                 6
 STAT SP IPHASW D HRMM SECON CODA AMPLIT PERI AZIMU VELO AIN AR TRES W  DIS CAZ7
 LA4  SZ E         254 53.36                  340.9  7.8      0        21.2 161 
 LA4  SN IP        254 53.40                             112    0.0310 21.2 161 
 LA4  SE IS        254 56.23                             112   -0.0310 21.2 161 
 LA4  SZ  AML      254 57.19        28.8 0.32                          21.2 161 
                                                                                
 2008  927 0316 44.7 L  21.600 -99.335 10.0  RAL  1 0.0 0.5LRAL                1
 GAP=360        0.30       4.5     1.1  0.0 -0.4503E+01  0.5761E+01 -0.8250E+01E
 ACTION:UPD 12-06-08 11:37 OP:RALL STATUS:               ID:20080927031644     I
 2008-09-27-0316-35S.PLUR1_003                                                 6
 STAT SP IPHASW D HRMM SECON CODA AMPLIT PERI AZIMU VELO AIN AR TRES W  DIS CAZ7
 LA4  SN IP        316 47.51                             126    0.0010 13.2 168 
 LA4  SZ E         316 47.53                  348.1  8.1      0        13.2 168 
 LA4  SE IS        316 49.59                             126    0.0010 13.2 168 
 LA4  SZ  AML      316 50.40        10.8 0.28                          13.2 168 
                                                                                
 2008  927 0433 22.2 L  21.535 -99.343 10.0  RAL  1 0.0 0.8LRAL                1
 GAP=360        0.30       5.8     3.9  0.0 -0.2247E+02  0.5761E+01 -0.8250E+01E
 ACTION:UPD 12-06-08 11:37 OP:RALL STATUS:               ID:20080927043322     I
 2008-09-27-0433-11S.PLUR1_006                                                 6
 STAT SP IPHASW D HRMM SECON CODA AMPLIT PERI AZIMU VELO AIN AR TRES W  DIS CAZ7
 LA4  SZ E         433 24.20                  328.2 12.3      0        6.65 148 
 LA4  SN IP        433 24.34                             147    0.0310 6.65 148 
 LA4  SE IS        433 25.85                             147   -0.0310 6.65 148 
 LA4  SZ  AML      433 27.69        28.6 0.40                          6.65 148 
                                                                                
 2008  927 0438 13.1 L  21.369 -99.317 13.9  RAL  2 0.1 0.7LRAL                1
 GAP=233        0.59       0.6     0.6  5.9 -0.3127E+00  0.3349E+00 -0.3492E+00E
 ACTION:UPD 12-06-08 11:37 OP:RALL STATUS:               ID:20080927043813     I
 2008-09-27-0438-02S.PLUR1_006                                                 6
 STAT SP IPHASW D HRMM SECON CODA AMPLIT PERI AZIMU VELO AIN AR TRES W  DIS CAZ7
 LZ4  SZ E         438 16.01                  310.3  6.4      0        6.47 131 
 LZ4  SN IP        438 16.03                             155    0.3110 6.47 131 
 LZ4  SE IS        438 17.79                             155    0.1410 6.47 131 
 LZ4  SZ  AML      438 20.14        19.9 0.24                          6.47 131 
 LA4  SZ E         438 16.14                  183.1 10.4      0        12.7   4 
 LA4  SN IP        438 16.14                             137   -0.1310 12.7   4 
 LA4  SE IS        438 18.30                             137   -0.3210 12.7   4 
 LA4  SZ  AML      438 18.72        14.2 0.24                          12.7   4 
                                                                                
 2008  927 0447 15.2 L  21.339 -99.291 10.0  RAL  1 0.1 0.5LRAL                1
 GAP=360        0.48      10.0    25.6  0.0 -0.2568E+03  0.3349E+00 -0.3492E+00E
 ACTION:UPD 12-06-08 11:37 OP:RALL STATUS:               ID:20080927044715     I
 2008-09-27-0447-03S.PLUR1_003                                                 6
 STAT SP IPHASW D HRMM SECON CODA AMPLIT PERI AZIMU VELO AIN AR TRES W  DIS CAZ7
 LZ4  SZ E         447 17.29                  292.5  8.7      0        2.43 113 
 LZ4  SN IP        447 17.36                             167    0.2510 2.43 113 
 LZ4  SE IS        447 18.23                             167   -0.2510 2.43 113 
 LZ4  SZ  AML      447 18.32        16.8 0.12                          2.43 113 
                                                                                
 2008  927 0508 54.6 L  21.500 -99.330 10.0  RAL  1 0.1 0.3LRAL                1
 GAP=360        0.64      19.3    25.2  0.0 -0.4859E+03  0.3349E+00 -0.3492E+00E
 ACTION:UPD 12-06-08 11:37 OP:RALL STATUS:               ID:20080927050854     I
 2008-09-27-0508-43S.PLUR1_003                                                 6
 STAT SP IPHASW D HRMM SECON CODA AMPLIT PERI AZIMU VELO AIN AR TRES W  DIS CAZ7
 LA4  SZ E         5 8 56.88                  309.5 11.1      0        2.81 129 
 LA4  SN IP        5 8 56.93                             165    0.3810 2.81 129 
 LA4  SE IS     D  5 8 57.56                             165   -0.3810 2.81 129 
 LA4  SZ  AML      5 8 58.27         9.7 0.32                          2.81 129 
                                                                                
 2008  927 0524 33.0 L  21.607 -99.325 10.0  RAL  1 0.0 0.6LRAL                1
 GAP=360        0.30       4.5     0.7  0.0 -0.2530E+01  0.3349E+00 -0.3492E+00E
 ACTION:UPD 12-06-08 11:37 OP:RALL STATUS:               ID:20080927052433     I
 2008-09-27-0524-24S.PLUR1_003                                                 6
 STAT SP IPHASW D HRMM SECON CODA AMPLIT PERI AZIMU VELO AIN AR TRES W  DIS CAZ7
 LA4  SZ E         524 35.94                  353.2 11.6      0        13.8 173 
 LA4  SN IP        524 35.98                             125    0.0010 13.8 173 
 LA4  SE IS        524 38.12                             125    0.0010 13.8 173 
 LA4  SZ  AML      524 38.44        13.9 0.24                          13.8 173 
                                                                                
 2008  927 0549 57.9 L  21.403 -99.132 10.0  RAL  1 0.0                        1
 GAP=360        0.30       2.1     4.0  0.0  0.8096E+01  0.3349E+00 -0.3492E+00E
 ACTION:UPD 12-06-08 11:37 OP:RALL STATUS:               ID:20080927054957     I
 2008-09-27-0549-49S.PLUR1_003                                                 6
 STAT SP IPHASW D HRMM SECON CODA AMPLIT PERI AZIMU VELO AIN AR TRES W  DIS CAZ7
 LZ4  SZ E         550  1.05                   60.8 13.6      0        16.4 241 
 LZ4  SN IP        550  1.17                             119    0.0110 16.4 241 
 LZ4  SE IS        550  3.54                             119   -0.0110 16.4 241 
                                                                                
 2008  927 0610 25.1 L  21.356 -99.299 15.6  RAL  2 0.1 0.8LRAL                1
 GAP=224        0.54       0.7     0.7  4.9 -0.4544E+00  0.3867E+00 -0.3585E+00E
 ACTION:UPD 12-06-08 11:37 OP:RALL STATUS:               ID:20080927061025     I
 2008-09-27-0610-14S.PLUR1_006                                                 6
 STAT SP IPHASW D HRMM SECON CODA AMPLIT PERI AZIMU VELO AIN AR TRES W  DIS CAZ7
 LZ4  SN IP        610 28.25                             165    0.3210 4.14 132 
 LZ4  SZ E         610 28.31                  312.0  6.1      0        4.14 132 
 LZ4  SE IS        610 30.03                             165    0.0610 4.14 132 
 LZ4  SZ  AML      610 31.31        29.3 0.32                          4.14 132 
 LA4  SN IP        610 28.57                             138   -0.1410 14.2 356 
 LA4  SZ E         610 28.59                  175.3 10.3      0        14.2 356 
 LA4  SE IS        610 31.06                             138   -0.2410 14.2 356 
 LA4  SZ  AML      610 31.41        11.6 0.44                          14.2 356 
                                                                                
 2008  927 0652  2.2 L  21.521 -99.312 10.0  RAL  1 0.0 0.3LRAL                1
 GAP=360        0.30      10.0     0.9  0.0 -0.8652E+01  0.3867E+00 -0.3585E+00E
 ACTION:UPD 12-06-08 11:37 OP:RALL STATUS:               ID:20080927065202     I
 2008-09-27-0651-35S.PLUR1_003                                                 6
 STAT SP IPHASW D HRMM SECON CODA AMPLIT PERI AZIMU VELO AIN AR TRES W  DIS CAZ7
 LA4  SZ E         652  4.23                  355.4  9.5      0        4.10 175 
 LA4  SN IP        652  4.23                             158    0.0210 4.10 175 
 LA4  SE IS        652  5.63                             158   -0.0210 4.10 175 
 LA4  SZ  AML      652  5.85        11.3 0.28                          4.10 175 
                                                                                
 2008  927 0848  0.3 L  21.485 -99.316 10.0  RAL  1 0.3 0.2LRAL                1
 GAP=360        3.57     999.9   999.9  0.0  0.3097E+09  0.3867E+00 -0.3585E+00E
 ACTION:UPD 12-06-08 11:37 OP:RALL STATUS:               ID:20080927084800     I
 2008-09-27-0847-49S.PLUR1_003                                                 6
 STAT SP IPHASW D HRMM SECON CODA AMPLIT PERI AZIMU VELO AIN AR TRES W  DIS CAZ7
 LA4  SN IP        848  2.45                             176    0.3310 0.77 105 
 LA4  SZ E         848  2.63                  268.2 15.7    -16        0.77 105 
 LA4  SE IS        848  3.13                             176   -0.3310 0.77 105 
 LA4  SZ  AML      848  3.32         8.5 0.36                          0.77 105 
                                                                                
 2008  927 1027 28.6 L  21.623 -99.412 10.0  RAL  1 0.0 1.2LRAL                1
 GAP=360        0.30       3.4     2.5  0.0 -0.8279E+01  0.3867E+00 -0.3585E+00E
 ACTION:UPD 12-06-08 11:37 OP:RALL STATUS:               ID:20080927102728     I
 2008-09-27-1027-18S.PLUR1_006                                                 6
 STAT SP IPHASW D HRMM SECON CODA AMPLIT PERI AZIMU VELO AIN AR TRES W  DIS CAZ7
 LA4  SZ E        1027 32.09                  325.5  9.3      0        18.8 145 
 LA4  SN IP       1027 32.19                             115    0.0110 18.8 145 
 LA4  SE IS       1027 34.81                             115   -0.0110 18.8 145 
 LA4  SZ  AML     1027 37.00        48.4 0.40                          18.8 145 
                                                                                
 2008  927 1034 20.4 L  21.339 -99.289 10.0  RAL  1 0.1 0.5LRAL                1
 GAP=360        0.50      12.7    29.8  0.0 -0.3782E+03  0.3867E+00 -0.3585E+00E
 ACTION:UPD 12-06-08 11:37 OP:RALL STATUS:               ID:20080927103420     I
 2008-09-27-1034-08S.PLUR1_003                                                 6
 STAT SP IPHASW D HRMM SECON CODA AMPLIT PERI AZIMU VELO AIN AR TRES W  DIS CAZ7
 LZ4  SZ E        1034 22.51                  294.5  7.1      0        2.17 114 
 LZ4  SN IP       1034 22.52                             168    0.2810 2.17 114 
 LZ4  SE IS       1034 23.33                             168   -0.2810 2.17 114 
 LZ4  SZ  AML     1034 23.70        16.0 0.20                          2.17 114 
                                                                                
