 2008  4 8 0117  2.6 L  21.286 -98.856  5.0  RAL  2 1.2 1.0LRAL                1
 GAP=341        9.88      28.8   165.7999.9  0.4734E+03 -0.1003E+07 -0.1256E+05E
 ACTION:UPD 12-06-08 11:37 OP:RALL STATUS:               ID:20080408011702     I
 2008-04-08-0117-01S.PLUR1_009                                                 6
 STAT SP IPHASW D HRMM SECON CODA AMPLIT PERI AZIMU VELO AIN AR TRES W  DIS CAZ7
 LD1  SN IP        117 12.33                              91    2.8610 43.2 276 
 LD1  SZ E         117 12.66                   65.1 69.8    -30        43.2 276 
 LD1  SE IS        117 16.51                              91    2.0310 43.2 276 
 LD1  SZ  AML      117 17.21        28.5 0.30                          43.2 276 
 LD5  SZ E         117 10.00                   99.9  9.2     23        49.4 257 
 LD5  SN IP        117 10.16                              91   -0.2610 49.4 257 
 LD5  SE IS        117 11.50                              91   -4.6310 49.4 257 
 LD5  SZ  AML      117 12.74         6.5 0.16                          49.4 257 
                                                                                
 2008  4 9 2040 17.6 L  21.506 -98.990  7.5  RAL  3 1.5 2.2LRAL                1
 GAP=335       24.29     140.5   161.9999.9  0.1995E+05 -0.2424E+06 -0.2000E+06E
 ACTION:UPD 12-06-08 11:37 OP:RALL STATUS:               ID:20080409204017     I
 2008-04-09-2040-05S.PLUR1_009                                                 6
 STAT SP IPHASW D HRMM SECON CODA AMPLIT PERI AZIMU VELO AIN AR TRES W  DIS CAZ7
 LD1  SZ E        2040 24.53                    8.9 19.8    -46        35.0 236 
 LD1  SN IP       2040 24.54                              96    1.0110 35.0 236 
 LD1  SE IS     D 2040 24.87                              96   -2.9910 35.0 236 
 LD1  SZ  AML     2040 25.47      9120.7 0.54                          35.0 236 
 LO8  SN IP       2040 27.66                              94    2.6010 44.7 211 
 LO8  SZ E        2040 27.72                  156.1  7.3    125        44.7 211 
 LO8  SE IS       2040 30.77                              94    0.2510 44.7 211 
 LO8  SZ  AML     2040 34.03        26.1 0.62                          44.7 211 
 LD5  SN IP       2040 26.93                              94    1.2110 49.2 224 
 LD5  SZ E        2040 26.95                    8.4 13.4    -35        49.2 224 
 LD5  SE IS       2040 29.59                              94   -2.0710 49.2 224 
 LD5  SZ  AML     2040 31.86        37.5 0.66                          49.2 224 
                                                                                
 2008  410 1726 13.0 L                       RAL  0                            1
 ACTION:UPD 12-06-08 11:37 OP:RALL STATUS:               ID:20080410172613     I
 2008-04-10-1726-13S.PLUR1_006                                                 6
 STAT SP IPHASW D HRMM SECON CODA AMPLIT PERI AZIMU VELO AIN AR TRES W  DIS CAZ7
                                                                                
 2008  412 1603 51.7 L  21.239 -99.042  7.8  RAL  4 1.0 0.7LRAL                1
 GAP=289       10.81      14.6    36.9233.3  0.1957E+03 -0.3033E+04 -0.1034E+04E
 ACTION:UPD 12-06-08 11:37 OP:RALL STATUS:               ID:20080412160351     I
 2008-04-12-1603-45S.PLUR1_012                                                 6
 STAT SP IPHASW D HRMM SECON CODA AMPLIT PERI AZIMU VELO AIN AR TRES W  DIS CAZ7
 LO8  SZ E        16 3 55.49                   75.4  7.2     12        19.8 244 
 LO8  SN IP       16 3 55.52                             107    0.1410 19.8 244 
 LO8  SE IS       16 3 56.60                             107   -1.4510 19.8 244 
 LO8  SZ  AML     16 3 57.53        14.0 0.15                          19.8 244 
 LD1  SN IP       16 3 58.03                             101    1.7910 25.8 293 
 LD1  SZ E        16 3 58.05                   54.3 32.3    -57        25.8 293 
 LD1  SE IS       16 4  0.87                             101    1.3310 25.8 293 
 LD1  SZ  AML     16 4  1.56        24.0 0.42                          25.8 293 
 LD5  SZ E        16 3 55.51                   96.5  9.9     18        29.5 259 
 LD5  SN IP       16 3 55.52                              99   -1.2910 29.5 259 
 LD5  SE IS       16 3 56.63                              99   -3.9010 29.5 259 
 LD5  SZ  AML     16 3 56.88         8.8 0.34                          29.5 259 
 LD4  SZ IP       16 3 59.32                              96    1.0710 38.8 314 
 LD4  SN IP       16 4  0.45                              63           38.8 314 
 LD4  SE IS       16 4  5.32                              96    2.3010 38.8 314 
 LD4  SZ  AML     16 4  8.14         4.6 0.34                          38.8 314 
                                                                                
 2008  412 1903 37.3 L  21.305 -98.965  9.0  RAL  4 1.1 1.1LRAL                1
 GAP=299       18.31      29.2    68.9 93.0  0.3119E+03 -0.5206E+03 -0.4193E+03E
 ACTION:UPD 12-06-08 11:37 OP:RALL STATUS:               ID:20080412190337     I
 2008-04-12-1903-33S.PLUR1_012                                                 6
 STAT SP IPHASW D HRMM SECON CODA AMPLIT PERI AZIMU VELO AIN AR TRES W  DIS CAZ7
 LO8  SN IP       19 3 44.86                              97    2.3010 30.4 238 
 LO8  SZ E        19 3 44.88                  151.9 14.1     94        30.4 238 
 LO8  SE IS       19 3 47.42                              97    0.9910 30.4 238 
 LO8  SZ  AML     19 3 47.70        12.0 0.18                          30.4 238 
 LD1  SZ E        19 3 42.89                   74.8 17.8    -19        31.8 275 
 LD1  SN IP       19 3 42.90                              95    0.1510 31.8 275 
 LD1  SE IS       19 3 43.84                              95   -2.9110 31.8 275 
 LD1  SZ  AML     19 3 44.48       417.7 0.18                          31.8 275 
 LD5  SZ E        19 3 44.33                   37.1 12.9    -32        39.2 250 
 LD5  SN IP       19 3 44.43                              63    0.5610 39.2 250 
 LD5  SE IS       19 3 46.47                              63   -2.2310 39.2 250 
 LD5  SZ  AML     19 3 47.27         3.2 0.30                          39.2 250 
 LD4  SN IP       19 3 45.47                              63    1.3410 40.8 299 
 LD4  SZ E        19 3 45.57                  178.0  7.8     59        40.8 299 
 LD4  SE IS       19 3 48.95                              63   -0.2010 40.8 299 
 LD4  SZ  AML     19 3 50.35        13.1 0.20                          40.8 299 
                                                                                
 2008  417 2255  6.1 L  21.894 -99.272 10.0  RAL  2 0.5 1.7LRAL                1
 GAP=355        9.05     130.1    32.6862.5  0.1143E+04 -0.6783E+04 -0.8850E+05E
 ACTION:UPD 12-06-08 11:37 OP:RALL STATUS:               ID:20080417225506     I
 2008-04-17-2255-03S.PLUR1_006                                                 6
 STAT SP IPHASW D HRMM SECON CODA AMPLIT PERI AZIMU VELO AIN AR TRES W  DIS CAZ7
 LD4  SN IP       2255 13.55                              98   -0.1410 45.6 185 
 LD4  SZ E        2255 13.57                   30.7 13.8     26        45.6 185 
 LD4  SE IS       2255 19.34                              98    0.0810 45.6 185 
 LD1  SN IP       2255 15.97                              96   -0.3210 62.6 180 
 LD1  SZ E        2255 16.05                  324.0 12.4    -35        62.6 180 
 LD1  SE IS       2255 24.15                              96    0.3910 62.6 180 
 LD1  SZ  AML     2255 28.03        52.9 0.54                          62.6 180 
                                                                                
 2008  419 1110 43.4 L  21.185 -99.283  0.0  RAL  2 0.2 0.4LRAL                1
 GAP=267        1.31       0.4     1.9 26.5 -0.9283E-01 -0.1711E+02 -0.2786E+00E
 ACTION:UPD 12-06-08 11:37 OP:RALL STATUS:               ID:20080419111043     I
 2008-04-19-1110-33S.PLUR1_006                                                 6
 STAT SP IPHASW D HRMM SECON CODA AMPLIT PERI AZIMU VELO AIN AR TRES W  DIS CAZ7
 LD5  SZ E        1110 43.61                   91.3  9.8      0        3.84 272 
 LD5  SN IP       1110 43.61                             105   -0.5210 3.84 272 
 LD5  SE IS       1110 44.67                             105    0.0310 3.84 272 
 LD5  SZ  AML     1110 44.93        11.6 0.30                          3.84 272 
 LD1  SN IP       1110 45.72                              94   -0.5110 16.0   5 
 LD1  SZ E        1110 45.79                  184.2 11.3      0        16.0   5 
 LD1  SE IS       1110 49.28                              94    1.0010 16.0   5 
 LD1  SZ  AML     1110 50.51        30.3 0.32                          16.0   5 
                                                                                
 2008  420 2031 38.3 L  22.535 -99.645  1.7  RAL  2 0.2 2.3LRAL                1
 GAP=360        3.18     999.9   999.9999.9 -0.1402E+08 -0.2825E+08  0.8845E+08E
 ACTION:UPD 12-06-08 11:37 OP:RALL STATUS:               ID:20080420203138     I
 2008-04-20-2031-48S.PLUR1_006                                                 6
 STAT SP IPHASW D HRMM SECON CODA AMPLIT PERI AZIMU VELO AIN AR TRES W  DIS CAZ7
 LD4  SN IP       2031 57.81                              63   -0.0710  121 163 
 LD4  SZ E        2031 57.86                  353.4  9.3     10         121 163 
 LD4  SE IS       2032 11.72                              63   -0.4910  121 163 
 LD4  SZ  AML     2032 17.19        66.1 0.24                           121 163 
 LD1  SZ E        2032  0.63                  332.5  6.9    -10         139 164 
 LD1  SN IP       2032  0.68                              63    0.0810  139 164 
 LD1  SE IS       2032 17.38                              63    0.4810  139 164 
 LD1  SZ  AML     2032 18.01       113.7 0.34                           139 164 
                                                                                
 2008  421 0803 26.0 L  21.725 -99.394 10.0  RAL  1 0.0 2.1LRAL                1
 GAP=360        0.30       3.6     1.7  0.0 -0.3635E+01 -0.2825E+08  0.8845E+08E
 ACTION:UPD 12-06-08 11:37 OP:RALL STATUS:               ID:20080421080326     I
 2008-04-21-0803-24S.PLUR1_006                                                 6
 STAT SP IPHASW D HRMM SECON CODA AMPLIT PERI AZIMU VELO AIN AR TRES W  DIS CAZ7
 LD1  SN IP        8 3 33.64                              98    0.0110 45.6 164 
 LD1  SZ E         8 3 33.70                  343.8  7.0      0        45.6 164 
 LD1  SE IS        8 3 39.19                              98   -0.0110 45.6 164 
 LD1  SZ  AML      8 3 41.73       151.8 0.48                          45.6 164 
                                                                                
 2008  424 1933 37.1 L  21.145 -98.772  2.6  RAL  2 0.2 1.3LRAL                1
 GAP=348        1.33      20.4    43.1 89.1 -0.8496E+03  0.3705E+04 -0.1722E+04E
 ACTION:UPD 12-06-08 11:37 OP:RALL STATUS:               ID:20080424193337     I
 2008-04-24-1933-30S.PLUR1_009                                                 6
 STAT SP IPHASW D HRMM SECON CODA AMPLIT PERI AZIMU VELO AIN AR TRES W  DIS CAZ7
 LD1  SN IP       1933 46.09                              63   -0.2810 55.6 292 
 LD1  SZ E        1933 46.09                  108.8 36.5     -2        55.6 292 
 LD1  SE IS       1933 52.39                              63   -0.7710 55.6 292 
 LD1  SZ  AML     1933 52.88        23.4 0.24                          55.6 292 
 LD4  SN IP       1933 48.51                              63    0.3410 67.1 304 
 LD4  SZ E        1933 48.51                  124.8  9.2      1        67.1 304 
 LD4  SE IS       1933 56.99                              63    0.7110 67.1 304 
 LD4  SZ  AML     1933 59.54        15.2 0.60                          67.1 304 
                                                                                
 2008  424 2030 24.4 L  21.150 -99.207 18.0  RAL  3 0.7 0.8LRAL                1
 GAP=307       10.34       5.9    12.7 75.6  0.4497E+02 -0.2244E+02 -0.1371E+02E
 ACTION:UPD 12-06-08 11:37 OP:RALL STATUS:               ID:20080424203024     I
 2008-04-24-2030-18S.PLUR1_009                                                 6
 STAT SP IPHASW D HRMM SECON CODA AMPLIT PERI AZIMU VELO AIN AR TRES W  DIS CAZ7
 LO8  SZ E        2030 29.06                  157.2  8.2      6        1.24 331 
 LO8  SN IP       2030 29.11                             179    1.5510 1.24 331 
 LO8  SE IS       2030 30.70                             179    0.8510 1.24 331 
 LO8  SZ  AML     2030 31.54         6.8 0.22                          1.24 331 
 LD5  SZ E        2030 28.38                   52.8 10.0    -55        12.4 289 
 LD5  SN IP       2030 28.39                             147    0.3010 12.4 289 
 LD5  SE IS       2030 29.64                             147   -1.1210 12.4 289 
 LD5  SZ  AML     2030 29.88        15.7 0.16                          12.4 289 
 LD1  SZ E        2030 28.84                  175.7 15.2     14        20.9 342 
 LD1  SN IP       2030 28.89                             132   -0.0910 20.9 342 
 LD1  SE IS       2030 30.82                             132   -1.4810 20.9 342 
 LD1  SZ  AML     2030 30.87        54.3 0.10                          20.9 342 
                                                                                
 2008  425 1929  8.4 L  21.424 -99.392 26.8  RAL  2 0.1 1.2LRAL                1
 GAP=283        0.58       0.6     0.9  6.1  0.2021E+00  0.2838E+00  0.1334E+00E
 ACTION:UPD 12-06-08 11:37 OP:RALL STATUS:               ID:20080425192908     I
 2008-04-25-1929-03S.PLUR1_009                                                 6
 STAT SP IPHASW D HRMM SECON CODA AMPLIT PERI AZIMU VELO AIN AR TRES W  DIS CAZ7
 LD4  SZ E        1929 13.20                  232.7 18.4      0        10.9  52 
 LD4  SN IP       1929 13.25                             157    0.1610 10.9  52 
 LD4  SE IS       1929 16.80                             157    0.2810 10.9  52 
 LD4  SZ  AML     1929 17.20        22.1 0.46                          10.9  52 
 LD1  SZ E        1929 13.35                  309.9 12.0      0        16.4 130 
 LD1  SN IP       1929 13.37                             147   -0.0810 16.4 130 
 LD1  SE IS       1929 16.78                             147   -0.3710 16.4 130 
 LD1  SZ  AML     1929 18.81        47.2 0.24                          16.4 130 
                                                                                
 2008  428  0 7  8.0 L                       RAL  0                            1
 ACTION:UPD 12-06-08 11:37 OP:RALL STATUS:               ID:20080428000708     I
 2008-04-28-0007-07S.PLUR1_009                                                 6
 STAT SP IPHASW D HRMM SECON CODA AMPLIT PERI AZIMU VELO AIN AR TRES W  DIS CAZ7
                                                                                
 2008  428 0549 40.7 L  21.185 -99.334 10.0  RAL  1 0.1-0.5LRAL                1
 GAP=360        1.23     999.9    29.1  0.0 -0.3368E+05  0.2838E+00  0.1334E+00E
 ACTION:UPD 12-06-08 11:37 OP:RALL STATUS:               ID:20080428054940     I
 2008-04-28-0549-33S.PLUR1_006                                                 6
 STAT SP IPHASW D HRMM SECON CODA AMPLIT PERI AZIMU VELO AIN AR TRES W  DIS CAZ7
 LD5  SZ E         549 42.63                  268.7  9.2      6        1.41  83 
 LD5  SN IP        549 42.67                             172    0.1510 1.41  83 
 LD5  SE IS        549 43.71                             172   -0.1510 1.41  83 
 LD5  SZ  AML      549 44.30         1.6 0.34                          1.41  83 
                                                                                
 2008  428 0621 10.9 L  21.506 -99.330 10.0  RAL  1 0.1 0.8LRAL                1
 GAP=360        0.41      12.8    12.0  0.0 -0.1527E+03  0.2838E+00  0.1334E+00E
 ACTION:UPD 12-06-08 11:37 OP:RALL STATUS:               ID:20080428062110     I
 2008-04-28-0621-03S.PLUR1_006                                                 6
 STAT SP IPHASW D HRMM SECON CODA AMPLIT PERI AZIMU VELO AIN AR TRES W  DIS CAZ7
 LD4  SZ E         621 13.00                  318.9  9.8      0        3.29 139 
 LD4  SN IP        621 13.01                             162    0.1910 3.29 139 
 LD4  SE IS        621 14.03                             162   -0.1910 3.29 139 
 LD4  SZ  AML      621 14.47        30.7 0.24                          3.29 139 
                                                                                
 2008  428 2039 36.6 L  21.635 -99.414  2.8  RAL  2 0.1 1.1LRAL                1
 GAP=351        1.84      12.4     8.4 11.9 -0.9365E+02  0.1005E+02 -0.1165E+02E
 ACTION:UPD 12-06-08 11:37 OP:RALL STATUS:               ID:20080428203936     I
 2008-04-28-2039-31S.PLUR1_006                                                 6
 STAT SP IPHASW D HRMM SECON CODA AMPLIT PERI AZIMU VELO AIN AR TRES W  DIS CAZ7
 LD4  SZ E        2039 40.54                  330.8  8.5      4        20.0 147 
 LD4  SN IP       2039 40.56                             100    0.4210 20.0 147 
 LD4  SE IS       2039 42.32                             100   -0.4210 20.0 147 
 LD4  SZ  AML     2039 44.89        47.6 0.60                          20.0 147 
 LD1  SN IP       2039 43.01                              63    0.0310 37.0 156 
 LD1  SZ E        2039 43.07                  328.8  8.1     -6        37.0 156 
 LD1  SE IS       2039 47.62                              63   -0.0410 37.0 156 
 LD1  SZ  AML     2039 49.57        16.2 0.24                          37.0 156 
                                                                                
