 2008 11 1 0117 24.8 L  21.340 -99.291 10.0  RAL  1 0.1 0.0LRAL                1
 GAP=360        0.45     685.2   338.0  0.0  0.2316E+06  0.3278E+00 -0.5576E+00E
 ACTION:UPD 12-06-08 11:37 OP:RALL STATUS:               ID:20081101011724     I
 2008-11-01-0117-12S.PLUR1_003                                                 6
 STAT SP IPHASW D HRMM SECON CODA AMPLIT PERI AZIMU VELO AIN AR TRES W  DIS CAZ7
 LZ4  SZ E         117 26.88                  293.0  8.6      0        2.47 113 
 LZ4  SN IP        117 26.94                             167    0.2210 2.47 113 
 LZ4  SE IS        117 27.86                             167   -0.2210 2.47 113 
 LZ4  SZ  AML      117 28.64         5.9 0.16                          2.47 113 
                                                                                
 2008 11 1 0146 56.4 L  21.691 -99.330 10.0  RAL  2 1.0 1.4LRAL                1
 GAP=356       18.20     193.4    41.4489.4 -0.4172E+04  0.5603E+04 -0.5086E+05E
 ACTION:UPD 12-06-08 11:37 OP:RALL STATUS:               ID:20081101014656     I
 2008-11-01-0146-47S.PLUR1_006                                                 6
 STAT SP IPHASW D HRMM SECON CODA AMPLIT PERI AZIMU VELO AIN AR TRES W  DIS CAZ7
 LA4  SN IP        147  0.94                             108    0.3410 23.1 175 
 LA4  SZ E         147  1.09                  307.0 11.7    -47        23.1 175 
 LA4  SE IS        147  3.32                             108   -0.3610 23.1 175 
 LA4  SZ  AML      147  5.43        69.2 0.72                          23.1 175 
 LZ4  SZ E         147  1.96                   66.4 99.9     75        40.4 171 
 LZ4  SN IP        147  3.21                              99    0.0110 40.4 171 
 LZ4  SE IS        147  8.18                              99    0.0010 40.4 171 
 LZ4  SZ  AML      147 12.79        27.2 0.56                          40.4 171 
                                                                                
 2008 11 1 0659 40.6 L  21.397 -99.345 10.0  RAL  1 0.0 0.5LRAL                1
 GAP=360        0.30       3.4     3.9  0.0 -0.1346E+02  0.5603E+04 -0.5086E+05E
 ACTION:UPD 12-06-08 11:37 OP:RALL STATUS:               ID:20081101065940     I
 2008-11-01-0659-29S.PLUR1_003                                                 6
 STAT SP IPHASW D HRMM SECON CODA AMPLIT PERI AZIMU VELO AIN AR TRES W  DIS CAZ7
 LZ4  SN IP        659 43.14                             132    0.0110 10.7 133 
 LZ4  SZ E         659 43.22                  313.1  6.4      0        10.7 133 
 LZ4  SE IS        659 44.97                             132   -0.0110 10.7 133 
 LZ4  SZ  AML      659 46.63        12.2 0.24                          10.7 133 
                                                                                
 2008 11 1 0813 14.6 L  21.333 -99.279 10.0  RAL  1 0.1 0.9LRAL                1
 GAP=360        0.83     999.9   466.9  0.0  0.5387E+06  0.5603E+04 -0.5086E+05E
 ACTION:UPD 12-06-08 11:37 OP:RALL STATUS:               ID:20081101081314     I
 2008-11-01-0813-02S.PLUR1_003                                                 6
 STAT SP IPHASW D HRMM SECON CODA AMPLIT PERI AZIMU VELO AIN AR TRES W  DIS CAZ7
 LZ4  SZ E         813 16.68                  288.8 10.0      3        1.00 106 
 LZ4  SN IP        813 16.69                             174    0.2810 1.00 106 
 LZ4  SE IS        813 17.47                             174   -0.2810 1.00 106 
 LZ4  SZ  AML      813 17.61        49.3 0.20                          1.00 106 
                                                                                
 2008 11 1 0958 41.9 L  21.338 -99.293 10.0  RAL  1 0.1 0.2LRAL                1
 GAP=360        0.42       7.3    22.4  0.0 -0.1633E+03  0.5603E+04 -0.5086E+05E
 ACTION:UPD 12-06-08 11:37 OP:RALL STATUS:               ID:20081101095841     I
 2008-11-01-0958-30S.PLUR1_003                                                 6
 STAT SP IPHASW D HRMM SECON CODA AMPLIT PERI AZIMU VELO AIN AR TRES W  DIS CAZ7
 LZ4  SZ E         958 43.92                  289.2 12.7      0        2.54 109 
 LZ4  SN IP        958 44.00                             166    0.2110 2.54 109 
 LZ4  SE IS        958 44.96                             166   -0.2110 2.54 109 
 LZ4  SZ  AML      958 45.08         9.4 0.20                          2.54 109 
                                                                                
 2008 11 1 1010 45.1 L  21.756 -99.502 10.0  RAL  1 0.0 1.0LRAL                1
 GAP=360        0.30       3.4     2.2  0.0 -0.5243E+01  0.5603E+04 -0.5086E+05E
 ACTION:UPD 12-06-08 11:37 OP:RALL STATUS:               ID:20081101101045     I
 2008-11-01-1010-46S.PLUR1_003                                                 6
 STAT SP IPHASW D HRMM SECON CODA AMPLIT PERI AZIMU VELO AIN AR TRES W  DIS CAZ7
 LZ4  SZ E        1010 52.91                  333.0 48.5      0        52.9 153 
 LZ4  SN IP       1010 53.90                              97    0.0110 52.9 153 
 LZ4  SE IS       1011  0.26                              97   -0.0110 52.9 153 
 LZ4  SZ  AML     1011  5.22        10.4 0.40                          52.9 153 
                                                                                
 2008 11 1 1059  2.7 L  21.509 -99.366 10.0  RAL  1 0.0 1.2LRAL                1
 GAP=360        0.30       3.5     2.0  0.0 -0.6619E+01  0.5603E+04 -0.5086E+05E
 ACTION:UPD 12-06-08 11:37 OP:RALL STATUS:               ID:20081101105902     I
 2008-11-01-1058-55S.PLUR1_003                                                 6
 STAT SP IPHASW D HRMM SECON CODA AMPLIT PERI AZIMU VELO AIN AR TRES W  DIS CAZ7
 LZ4  SN IP       1059  6.80                             111    0.0010 22.1 153 
 LZ4  SZ E        1059  7.46                  333.2 10.6      0        22.1 153 
 LZ4  SZ  AML     1059  9.61        38.0 0.76                          22.1 153 
 LZ4  SE IS       1059  9.77                             111    0.0010 22.1 153 
                                                                                
 2008 11 1 1332 19.9 L  21.400 -99.363 10.0  RAL  1 0.0 0.4LRAL                1
 GAP=360        0.30       2.9     4.0  0.0 -0.1152E+02  0.5603E+04 -0.5086E+05E
 ACTION:UPD 12-06-08 11:37 OP:RALL STATUS:               ID:20081101133219     I
 2008-11-01-1332-10S.PLUR1_003                                                 6
 STAT SP IPHASW D HRMM SECON CODA AMPLIT PERI AZIMU VELO AIN AR TRES W  DIS CAZ7
 LZ4  SZ E        1332 22.51                  308.5 12.3      0        12.4 128 
 LZ4  SN IP       1332 22.62                             128    0.0210 12.4 128 
 LZ4  SE IS       1332 24.58                             128   -0.0210 12.4 128 
 LZ4  SZ  AML     1332 25.52         9.5 0.32                          12.4 128 
                                                                                
 2008 11 1 2300 40.6 L  21.273 -99.249 10.0  RAL  1 0.0 0.3LRAL                1
 GAP=360        0.30       6.4     2.2  0.0 -0.1422E+02  0.5603E+04 -0.5086E+05E
 ACTION:UPD 12-06-08 11:37 OP:RALL STATUS:               ID:20081101230040     I
 2008-11-01-2300-30S.PLUR1_003                                                 6
 STAT SP IPHASW D HRMM SECON CODA AMPLIT PERI AZIMU VELO AIN AR TRES W  DIS CAZ7
 LZ4  SZ E        23 0 42.14                  161.8 31.1      0        6.74 342 
 LZ4  SN IP       23 0 42.76                             146    0.0210 6.74 342 
 LZ4  SE IS       23 0 44.29                             146   -0.0210 6.74 342 
 LZ4  SZ  AML     23 0 46.35         8.6 0.24                          6.74 342 
                                                                                
 2008 11 2 0009 18.2 L  21.666 -99.337 10.0  RAL  1 0.0 1.0LRAL                1
 GAP=360        0.30       4.0     0.8  0.0 -0.2464E+01  0.5603E+04 -0.5086E+05E
 ACTION:UPD 12-06-08 11:37 OP:RALL STATUS:               ID:20081102000918     I
 2008-11-02-0009-10S.PLUR1_003                                                 6
 STAT SP IPHASW D HRMM SECON CODA AMPLIT PERI AZIMU VELO AIN AR TRES W  DIS CAZ7
 LA4  SZ E         0 9 21.99                  351.7  8.3      0        20.3 172 
 LA4  SN IP        0 9 22.06                             113    0.0210 20.3 172 
 LA4  SE IS        0 9 24.82                             113   -0.0210 20.3 172 
 LA4  SZ  AML      0 9 25.27        28.9 0.20                          20.3 172 
                                                                                
 2008 11 2 0343  7.1 L  21.335 -99.282 10.0  RAL  1 0.2 0.4LRAL                1
 GAP=360        2.44     999.9   999.9  0.0  0.4250E+08  0.5603E+04 -0.5086E+05E
 ACTION:UPD 12-06-08 11:37 OP:RALL STATUS:               ID:20081102034307     I
 2008-11-02-0342-55S.PLUR1_003                                                 6
 STAT SP IPHASW D HRMM SECON CODA AMPLIT PERI AZIMU VELO AIN AR TRES W  DIS CAZ7
 LZ4  SZ IP        343  9.03                             173    0.1110 1.32 108 
 LZ4  SN E         343  9.06                  276.8 18.7    -11        1.32 108 
 LZ4  SE IS        343 10.15                             173   -0.1110 1.32 108 
 LZ4  SN  AML      343 10.36        12.8 0.20                          1.32 108 
                                                                                
 2008 11 2 0446 44.3 L  21.336 -99.287 10.0  RAL  1 0.1 1.1LRAL                1
 GAP=360        1.20      24.8    85.4  0.0 -0.2120E+04  0.5603E+04 -0.5086E+05E
 ACTION:UPD 12-06-08 11:37 OP:RALL STATUS:               ID:20081102044644     I
 2008-11-02-0446-32S.PLUR1_003                                                 6
 STAT SP IPHASW D HRMM SECON CODA AMPLIT PERI AZIMU VELO AIN AR TRES W  DIS CAZ7
 LZ4  SZ E         446 46.44                  282.2  9.4     -4        1.89 107 
 LZ4  SN IP        446 46.48                             170    0.3110 1.89 107 
 LZ4  SE IS        446 47.21                             170   -0.3110 1.89 107 
 LZ4  SZ  AML      446 47.35        69.8 0.12                          1.89 107 
                                                                                
 2008 11 2 0616 13.4 L  21.527 -99.479 10.0  RAL  1 0.0                        1
 GAP=360        0.30       2.8     3.0  0.0 -0.7550E+01  0.5603E+04 -0.5086E+05E
 ACTION:UPD 12-06-08 11:37 OP:RALL STATUS:               ID:20081102061613     I
 2008-11-02-0616-08S.PLUR1_003                                                 6
 STAT SP IPHASW D HRMM SECON CODA AMPLIT PERI AZIMU VELO AIN AR TRES W  DIS CAZ7
 LZ4  SN IP        616 18.77                             104    0.0310 30.8 135 
 LZ4  SZ E         616 18.82                  315.0 14.8      0        30.8 135 
 LZ4  SE IS        616 22.63                             104   -0.0310 30.8 135 
                                                                                
 2008 11 2 0647  0.1 L  21.622 -99.599 10.0  RAL  1 0.0 1.1LRAL                1
 GAP=360        0.30       2.7     3.1  0.0 -0.6722E+01  0.5603E+04 -0.5086E+05E
 ACTION:UPD 12-06-08 11:37 OP:RALL STATUS:               ID:20081102064700     I
 2008-11-02-0646-58S.PLUR1_003                                                 6
 STAT SP IPHASW D HRMM SECON CODA AMPLIT PERI AZIMU VELO AIN AR TRES W  DIS CAZ7
 LZ4  SN IP        647  7.97                              98    0.0210 46.9 133 
 LZ4  SZ E         647  8.23                  313.4  9.3      0        46.9 133 
 LZ4  SE IS        647 13.65                              98   -0.0210 46.9 133 
 LZ4  SZ  AML      647 17.10        15.9 0.32                          46.9 133 
                                                                                
 2008 11 2 2321 55.9 L  21.329 -99.273 10.0  RAL  1 0.5 0.6LRAL                1
 GAP=360        6.97     999.9   999.9  0.0 -0.1770E+10  0.5603E+04 -0.5086E+05E
 ACTION:UPD 12-06-08 11:37 OP:RALL STATUS:               ID:20081102232155     I
 2008-11-02-2321-43S.PLUR1_003                                                 6
 STAT SP IPHASW D HRMM SECON CODA AMPLIT PERI AZIMU VELO AIN AR TRES W  DIS CAZ7
 LZ4  SN IP       2321 57.93                             177    0.2210 0.48  59 
 LZ4  SZ E        2321 57.94                  272.3 11.6     33        0.48  59 
 LZ4  SE IS       2321 58.82                             177   -0.2210 0.48  59 
 LZ4  SZ  AML     2321 59.80        25.1 0.40                          0.48  59 
                                                                                
 2008 11 3 0157 15.2 L  21.171 -99.325 10.0  RAL  1 0.1-0.1LRAL                1
 GAP=360        1.26     148.1   831.1  0.0 -0.1231E+06  0.5603E+04 -0.5086E+05E
 ACTION:UPD 12-06-08 11:37 OP:RALL STATUS:               ID:20081103015715     I
 2008-11-03-0157-02S.PLUR1_003                                                 6
 STAT SP IPHASW D HRMM SECON CODA AMPLIT PERI AZIMU VELO AIN AR TRES W  DIS CAZ7
 LD5  SZ E         157 17.23                  191.9 18.9     -5        1.80  17 
 LD5  SN IP        157 17.26                             170    0.2510 1.80  17 
 LD5  SE IS        157 18.11                             170   -0.2510 1.80  17 
 LD5  SZ  AML      157 18.60         4.3 0.24                          1.80  17 
                                                                                
 2008 11 3 0544  4.7 L  21.276 -99.280 10.0  RAL  1 0.0 0.6LRAL                1
 GAP=360        0.30       7.0     1.3  0.0  0.9284E+01  0.5603E+04 -0.5086E+05E
 ACTION:UPD 12-06-08 11:37 OP:RALL STATUS:               ID:20081103054404     I
 2008-11-03-0543-53S.PLUR1_003                                                 6
 STAT SP IPHASW D HRMM SECON CODA AMPLIT PERI AZIMU VELO AIN AR TRES W  DIS CAZ7
 LZ4  SZ E         544  6.72                  189.9 12.4      0        6.17  10 
 LZ4  SN IP        544  6.82                             149    0.0210 6.17  10 
 LZ4  SE IS        544  8.31                             149   -0.0210 6.17  10 
 LZ4  SZ  AML      544  9.43        17.4 0.24                          6.17  10 
                                                                                
 2008 11 3 0850 31.0 L  21.327 -99.273 10.0  RAL  1 0.8 0.4LRAL                1
 GAP=360       10.49     999.9   474.3  0.0  0.1468E+07  0.5603E+04 -0.5086E+05E
 ACTION:UPD 12-06-08 11:37 OP:RALL STATUS:               ID:20081103085031     I
 2008-11-03-0850-19S.PLUR1_003                                                 6
 STAT SP IPHASW D HRMM SECON CODA AMPLIT PERI AZIMU VELO AIN AR TRES W  DIS CAZ7
 LZ4  SZ E         850 32.97                  276.3 10.1     50        0.54  46 
 LZ4  SN IP        850 33.03                             177    0.1910 0.54  46 
 LZ4  SE IS        850 33.99                             177   -0.1910 0.54  46 
 LZ4  SZ  AML      850 34.12        14.1 0.20                          0.54  46 
                                                                                
 2008 11 3 0934 51.2 L  21.338 -99.274 10.0  RAL  1 0.4 0.2LRAL                1
 GAP=360        4.34     999.9   999.9  0.0  0.1719E+09  0.5603E+04 -0.5086E+05E
 ACTION:UPD 12-06-08 11:37 OP:RALL STATUS:               ID:20081103093451     I
 2008-11-03-0934-39S.PLUR1_003                                                 6
 STAT SP IPHASW D HRMM SECON CODA AMPLIT PERI AZIMU VELO AIN AR TRES W  DIS CAZ7
 LZ4  SN IP        934 53.42                             175    0.4310 0.96 150 
 LZ4  SZ E         934 53.43                  350.9  7.5     20        0.96 150 
 LZ4  SE IS        934 53.90                             175   -0.4310 0.96 150 
 LZ4  SZ  AML      934 54.00         9.7 0.36                          0.96 150 
                                                                                
 2008 11 3 1017 55.0 L  21.305 -99.300 10.0  RAL  1 0.0 0.7LRAL                1
 GAP=360        0.34       7.3     9.0  0.0  0.6569E+02  0.5603E+04 -0.5086E+05E
 ACTION:UPD 12-06-08 11:37 OP:RALL STATUS:               ID:20081103101755     I
 2008-11-03-1017-43S.PLUR1_003                                                 6
 STAT SP IPHASW D HRMM SECON CODA AMPLIT PERI AZIMU VELO AIN AR TRES W  DIS CAZ7
 LZ4  SZ E        1017 57.06                  228.8 12.4      0        4.27  49 
 LZ4  SN IP       1017 57.08                             157    0.1210 4.27  49 
 LZ4  SE IS       1017 58.28                             157   -0.1210 4.27  49 
 LZ4  SZ  AML     1017 58.48        29.3 0.36                          4.27  49 
                                                                                
 2008 11 3 1413 28.6 L  21.670 -99.563 10.0  RAL  1 0.0 0.9LRAL                1
 GAP=360        0.30       3.0     2.7  0.0 -0.6527E+01  0.5603E+04 -0.5086E+05E
 ACTION:UPD 12-06-08 11:37 OP:RALL STATUS:               ID:20081103141328     I
 2008-11-03-1413-27S.PLUR1_003                                                 6
 STAT SP IPHASW D HRMM SECON CODA AMPLIT PERI AZIMU VELO AIN AR TRES W  DIS CAZ7
 LZ4  SZ E        1413 36.58                  321.1 13.9      0        48.3 141 
 LZ4  SN IP       1413 36.61                              98    0.0210 48.3 141 
 LZ4  SE IS       1413 42.45                              98   -0.0210 48.3 141 
 LZ4  SZ  AML     1413 43.07         9.7 0.20                          48.3 141 
                                                                                
 2008 11 3 1457 52.6 L  20.918 -99.282 10.0  RAL  1 0.0 1.2LRAL                1
 GAP=360        0.30       3.7     1.3  0.0  0.3747E+00  0.5603E+04 -0.5086E+05E
 ACTION:UPD 12-06-08 11:37 OP:RALL STATUS:               ID:20081103145752     I
 2008-11-03-1457-46S.PLUR1_003                                                 6
 STAT SP IPHASW D HRMM SECON CODA AMPLIT PERI AZIMU VELO AIN AR TRES W  DIS CAZ7
 LZ4  SZ E        1457 59.75                  181.6 20.8      0        45.7   2 
 LZ4  SN IP       1458  0.20                              98    0.0110 45.7   2 
 LZ4  SE IS       1458  5.76                              98   -0.0110 45.7   2 
 LZ4  SZ  AML     1458  6.65        21.7 0.28                          45.7   2 
                                                                                
 2008 11 3 1633 14.3 L  21.313 -99.301 10.0  RAL  1 0.1 0.6LRAL                1
 GAP=360        0.36       6.8    11.7  0.0  0.7877E+02  0.5603E+04 -0.5086E+05E
 ACTION:UPD 12-06-08 11:37 OP:RALL STATUS:               ID:20081103163314     I
 2008-11-03-1633-02S.PLUR1_003                                                 6
 STAT SP IPHASW D HRMM SECON CODA AMPLIT PERI AZIMU VELO AIN AR TRES W  DIS CAZ7
 LZ4  SZ E        1633 16.30                  238.2 20.8      0        3.83  58 
 LZ4  SN IP       1633 16.34                             160    0.1410 3.83  58 
 LZ4  SE IS       1633 17.48                             160   -0.1410 3.83  58 
 LZ4  SZ  AML     1633 17.93        20.7 0.48                          3.83  58 
                                                                                
