 2008 10 6 0456 14.9 L  21.344 -99.290 17.5  RAL  2 0.2 0.6LRAL                1
 GAP=229        1.96       2.0     3.1 17.6 -0.5968E+01  0.4383E+01 -0.2815E+01E
 ACTION:UPD 12-06-08 11:37 OP:RALL STATUS:               ID:20081006045614     I
 2008-10-06-0456-05S.PLUR1_006                                                 6
 STAT SP IPHASW D HRMM SECON CODA AMPLIT PERI AZIMU VELO AIN AR TRES W  DIS CAZ7
 LZ4  SN IP        456 18.50                             172    0.6010 2.58 124 
 LZ4  SZ E         456 18.62                  302.1  6.4     -1        2.58 124 
 LZ4  SE IS        456 20.42                             172    0.3010 2.58 124 
 LZ4  SZ  AML      456 20.84        13.3 0.44                          2.58 124 
 LA4  SZ E         456 18.54                  165.4 19.0     -6        15.6 353 
 LA4  SN IP        456 18.82                             138    0.0210 15.6 353 
 LA4  SE IS        456 20.75                             138   -0.9210 15.6 353 
 LA4  SZ  AML      456 21.99        11.5 0.24                          15.6 353 
                                                                                
 2008 10 6 0719 41.9 L  21.673 -99.427  0.0  RAL  2 0.2 1.1LRAL                1
 GAP=353        1.44      12.7     7.9274.8 -0.9246E+02  0.1361E+04 -0.2242E+04E
 ACTION:UPD 12-06-08 11:37 OP:RALL STATUS:               ID:20081006071941     I
 2008-10-06-0719-32S.PLUR1_006                                                 6
 STAT SP IPHASW D HRMM SECON CODA AMPLIT PERI AZIMU VELO AIN AR TRES W  DIS CAZ7
 LA4  SN IP        719 46.11                              93   -0.0710 24.3 150 
 LA4  SZ E         719 46.20                  332.4  8.7      3        24.3 150 
 LA4  SE IS        719 48.66                              93   -0.6210 24.3 150 
 LA4  SZ  AML      719 51.27        47.3 0.32                          24.3 150 
 LZ4  SN IP        719 49.46                              91    0.3110 41.2 157 
 LZ4  SZ E         719 50.51                  331.7  9.9     -4        41.2 157 
 LZ4  SE IS        719 54.79                              91    0.3810 41.2 157 
 LZ4  SZ  AML      719 57.72        12.9 0.28                          41.2 157 
                                                                                
 2008 10 6 0931 31.8 L  21.314 -99.295 10.0  RAL  1 0.1 0.3LRAL                1
 GAP=360        0.48      11.2    17.1  0.0  0.1926E+03  0.1361E+04 -0.2242E+04E
 ACTION:UPD 12-06-08 11:37 OP:RALL STATUS:               ID:20081006093131     I
 2008-10-06-0931-19S.PLUR1_003                                                 6
 STAT SP IPHASW D HRMM SECON CODA AMPLIT PERI AZIMU VELO AIN AR TRES W  DIS CAZ7
 LZ4  SN IP        931 33.94                             162    0.2510 3.28  55 
 LZ4  SZ E         931 33.99                  234.9 15.8      0        3.28  55 
 LZ4  SE IS        931 34.83                             162   -0.2510 3.28  55 
 LZ4  SZ  AML      931 35.81         9.6 0.28                          3.28  55 
                                                                                
 2008 10 6 1116 31.1 L  21.315 -99.277 10.0  RAL  1 0.2 0.6LRAL                1
 GAP=360        1.56     260.7   317.1  0.0 -0.8268E+05  0.1361E+04 -0.2242E+04E
 ACTION:UPD 12-06-08 11:37 OP:RALL STATUS:               ID:20081006111631     I
 2008-10-06-1116-19S.PLUR1_003                                                 6
 STAT SP IPHASW D HRMM SECON CODA AMPLIT PERI AZIMU VELO AIN AR TRES W  DIS CAZ7
 LZ4  SZ E        1116 33.42                  199.2 11.5     -5        1.90  26 
 LZ4  SN IP       1116 33.44                             170    0.5110 1.90  26 
 LZ4  SE IS       1116 33.78                             170   -0.5110 1.90  26 
 LZ4  SZ  AML     1116 33.95        20.1 0.28                          1.90  26 
                                                                                
 2008 10 6 1124 43.9 L  21.623 -99.348 10.0  RAL  1 0.0 0.4LRAL                1
 GAP=360        0.30       4.1     1.2  0.0 -0.4782E+01  0.1361E+04 -0.2242E+04E
 ACTION:UPD 12-06-08 11:37 OP:RALL STATUS:               ID:20081006112443     I
 2008-10-06-1124-36S.PLUR1_003                                                 6
 STAT SP IPHASW D HRMM SECON CODA AMPLIT PERI AZIMU VELO AIN AR TRES W  DIS CAZ7
 LA4  SN IP       1124 47.07                             120    0.0010 15.9 165 
 LA4  SZ E        1124 47.14                  345.3 11.3      0        15.9 165 
 LA4  SE IS       1124 49.41                             120    0.0010 15.9 165 
 LA4  SZ  AML     1124 51.51         7.0 0.64                          15.9 165 
                                                                                
 2008 10 6 1518 22.4 L  21.610 -99.309 10.0  RAL  1 0.0 0.6LRAL                1
 GAP=360        0.30       4.5     0.4  0.0  0.3726E-01  0.1361E+04 -0.2242E+04E
 ACTION:UPD 12-06-08 11:37 OP:RALL STATUS:               ID:20081006151822     I
 2008-10-06-1518-13S.PLUR1_003                                                 6
 STAT SP IPHASW D HRMM SECON CODA AMPLIT PERI AZIMU VELO AIN AR TRES W  DIS CAZ7
 LA4  SN IP       1518 25.40                             124    0.0010 14.0 180 
 LA4  SZ E        1518 25.49                    0.1  8.7      0        14.0 180 
 LA4  SE IS       1518 27.56                             124    0.0010 14.0 180 
 LA4  SZ  AML     1518 28.60        12.8 0.32                          14.0 180 
                                                                                
 2008 10 6 1743 20.4 L  21.331 -99.277 10.0  RAL  1 0.3 0.5LRAL                1
 GAP=360        4.21     999.9   999.9  0.0 -0.1050E+11  0.1361E+04 -0.2242E+04E
 ACTION:UPD 12-06-08 11:37 OP:RALL STATUS:               ID:20081006174320     I
 2008-10-06-1743-08S.PLUR1_003                                                 6
 STAT SP IPHASW D HRMM SECON CODA AMPLIT PERI AZIMU VELO AIN AR TRES W  DIS CAZ7
 LZ4  SN IP       1743 22.52                             176    0.2710 0.80  89 
 LZ4  SZ E        1743 22.52                  289.4  9.8     20        0.80  89 
 LZ4  SE IS       1743 23.31                             176   -0.2710 0.80  89 
 LZ4  SZ  AML     1743 23.44        18.0 0.56                          0.80  89 
                                                                                
 2008 10 6 1905  6.3 L  21.689 -99.361 10.0  RAL  1 0.0 1.1LRAL                1
 GAP=360        0.30       3.8     1.2  0.0 -0.3628E+01  0.1361E+04 -0.2242E+04E
 ACTION:UPD 12-06-08 11:37 OP:RALL STATUS:               ID:20081006190506     I
 2008-10-06-1904-59S.PLUR1_003                                                 6
 STAT SP IPHASW D HRMM SECON CODA AMPLIT PERI AZIMU VELO AIN AR TRES W  DIS CAZ7
 LA4  SZ E        19 5 10.51                  346.8  8.2      0        23.4 167 
 LA4  SN IP       19 5 10.54                             110    0.0210 23.4 167 
 LA4  SE IS       19 5 13.62                             110   -0.0210 23.4 167 
 LA4  SZ  AML     19 5 14.43        28.7 0.32                          23.4 167 
                                                                                
 2008 10 6 2010 10.6 L  21.310 -99.250 10.0  RAL  1 0.1 0.5LRAL                1
 GAP=360        0.52      17.1    15.7  0.0 -0.2685E+03  0.1361E+04 -0.2242E+04E
 ACTION:UPD 12-06-08 11:37 OP:RALL STATUS:               ID:20081006201010     I
 2008-10-06-2009-59S.PLUR1_003                                                 6
 STAT SP IPHASW D HRMM SECON CODA AMPLIT PERI AZIMU VELO AIN AR TRES W  DIS CAZ7
 LZ4  SZ E        2010 12.76                  139.5 10.1      0        3.10 320 
 LZ4  SN IP       2010 12.82                             163    0.2910 3.10 320 
 LZ4  SE IS       2010 13.63                             163   -0.2910 3.10 320 
 LZ4  SZ  AML     2010 14.58        17.8 0.20                          3.10 320 
                                                                                
 2008 10 6 2027 26.8 L  21.423 -99.373 26.3  RAL  2 0.1 0.7LRAL                1
 GAP=271        0.58       0.6     0.7  6.0  0.1703E+00  0.1495E+00  0.1050E+00E
 ACTION:UPD 12-06-08 11:37 OP:RALL STATUS:               ID:20081006202726     I
 2008-10-06-2027-20S.PLUR1_006                                                 6
 STAT SP IPHASW D HRMM SECON CODA AMPLIT PERI AZIMU VELO AIN AR TRES W  DIS CAZ7
 LA4  SZ E        2027 31.11                  224.3 11.1      0        9.43  45 
 LA4  SN IP       2027 31.29                             159   -0.1110 9.43  45 
 LA4  SE IS       2027 34.46                             159   -0.2710 9.43  45 
 LA4  SZ  AML     2027 36.04         7.3 0.64                          9.43  45 
 LZ4  SN IP       2027 31.76                             149    0.0310 14.8 134 
 LZ4  SZ E        2027 31.81                  313.1  7.9      0        14.8 134 
 LZ4  SE IS       2027 35.66                             149    0.3610 14.8 134 
 LZ4  SZ  AML     2027 35.76        14.7 0.24                          14.8 134 
                                                                                
 2008 10 6 2239 39.9 L  21.526 -99.370 10.0  RAL  1 0.0 0.3LRAL                1
 GAP=360        0.30       3.6     5.2  0.0 -0.1866E+02  0.1495E+00  0.1050E+00E
 ACTION:UPD 12-06-08 11:37 OP:RALL STATUS:               ID:20081006223939     I
 2008-10-06-2239-29S.PLUR1_003                                                 6
 STAT SP IPHASW D HRMM SECON CODA AMPLIT PERI AZIMU VELO AIN AR TRES W  DIS CAZ7
 LA4  SN IP       2239 42.19                             142    0.0210 7.87 126 
 LA4  SZ E        2239 42.22                  306.2 10.7      0        7.87 126 
 LA4  SE IS       2239 43.80                             142   -0.0210 7.87 126 
 LA4  SZ  AML     2239 45.04         9.4 0.84                          7.87 126 
                                                                                
 2008 10 7 0024 49.3 L  21.331 -99.279 10.0  RAL  1 0.2 0.6LRAL                1
 GAP=360        2.43      54.6   349.3  0.0 -0.1891E+05  0.1495E+00  0.1050E+00E
 ACTION:UPD 12-06-08 11:37 OP:RALL STATUS:               ID:20081007002449     I
 2008-10-07-0024-36S.PLUR1_003                                                 6
 STAT SP IPHASW D HRMM SECON CODA AMPLIT PERI AZIMU VELO AIN AR TRES W  DIS CAZ7
 LZ4  SZ E         024 51.35                  279.6  9.6     11        0.97  88 
 LZ4  SN IP        024 51.39                             175    0.2810 0.97  88 
 LZ4  SE IS        024 52.17                             175   -0.2810 0.97  88 
 LZ4  SZ  AML      024 52.34        23.4 0.16                          0.97  88 
                                                                                
 2008 10 7 0105  2.5 L  21.965 -98.945 10.0  RAL  1 0.0 1.0LRAL                1
 GAP=360        0.30       3.2     2.7  0.0  0.5572E+01  0.1495E+00  0.1050E+00E
 ACTION:UPD 12-06-08 11:37 OP:RALL STATUS:               ID:20081007010502     I
 2008-10-07-0105-08S.PLUR1_003                                                 6
 STAT SP IPHASW D HRMM SECON CODA AMPLIT PERI AZIMU VELO AIN AR TRES W  DIS CAZ7
 LA4  SN IP        1 5 13.22                              95    0.0110 65.2 215 
 LA4  SZ E         1 5 13.48                   35.2 20.3      0        65.2 215 
 LA4  SE IS        1 5 20.98                              95   -0.0110 65.2 215 
 LA4  SZ  AML      1 5 24.44         8.8 0.64                          65.2 215 
                                                                                
 2008 10 7 0143  4.2 L  21.636 -99.683 10.0  RAL  1 0.0 1.2LRAL                1
 GAP=360        0.30       2.6     3.3  0.0 -0.6219E+01  0.1495E+00  0.1050E+00E
 ACTION:UPD 12-06-08 11:37 OP:RALL STATUS:               ID:20081007014304     I
 2008-10-07-0143-05S.PLUR1_003                                                 6
 STAT SP IPHASW D HRMM SECON CODA AMPLIT PERI AZIMU VELO AIN AR TRES W  DIS CAZ7
 LZ4  SZ E         143 13.14                  308.3 17.6      0        54.5 128 
 LZ4  SZ IP        143 13.17                              97    0.0110 54.5 128 
 LZ4  SN IP        143 13.31                                           54.5 128 
 LZ4  SE IS        143 19.71                              97   -0.0110 54.5 128 
 LZ4  SN  AML      143 20.04        18.5 0.20                          54.5 128 
                                                                                
 2008 10 7 0245 45.0 L  21.325 -99.277 10.0  RAL  2 0.2 0.4LRAL                1
 GAP=216        2.48       1.3     3.6 18.0 -0.3092E+01  0.1150E+01  0.5633E+00E
 ACTION:UPD 12-06-08 11:37 OP:RALL STATUS:               ID:20081007024545     I
 2008-10-07-0245-32S.PLUR1_006                                                 6
 STAT SP IPHASW D HRMM SECON CODA AMPLIT PERI AZIMU VELO AIN AR TRES W  DIS CAZ7
 LZ4  SZ E         245 47.15                  242.9 10.6     11        0.96  52 
 LZ4  SN IP        245 47.17                             176    0.3810 0.96  52 
 LZ4  SE IS        245 48.27                             176    0.1410 0.96  52 
 LZ4  SZ  AML      245 48.77        35.9 0.48                          0.96  52 
 LD5  SN IP        245 48.11                             120   -0.0610 16.0 196 
 LD5  SZ E         245 48.13                   20.2 10.1      4        16.0 196 
 LD5  SE IS        245 50.05                             120   -0.4710 16.0 196 
 LD5  SZ  AML      245 51.05         2.6 0.28                          16.0 196 
                                                                                
 2008 10 7 0333 17.6 L  21.616 -99.352 10.0  RAL  1 0.0 0.8LRAL                1
 GAP=360        0.30       4.1     1.4  0.0 -0.5495E+01  0.1150E+01  0.5633E+00E
 ACTION:UPD 12-06-08 11:37 OP:RALL STATUS:               ID:20081007033317     I
 2008-10-07-0333-08S.PLUR1_003                                                 6
 STAT SP IPHASW D HRMM SECON CODA AMPLIT PERI AZIMU VELO AIN AR TRES W  DIS CAZ7
 LA4  SN IP        333 20.74                             121    0.0010 15.3 163 
 LA4  SZ E         333 20.91                  343.3  7.9      0        15.3 163 
 LA4  SE IS        333 23.02                             121    0.0010 15.3 163 
 LA4  SZ  AML      333 23.82        22.6 0.28                          15.3 163 
                                                                                
 2008 10 7 1102 47.8 L  21.337 -99.286 10.0  RAL  1 0.1 0.4LRAL                1
 GAP=360        0.48      12.7    34.9  0.0 -0.4421E+03  0.1150E+01  0.5633E+00E
 ACTION:UPD 12-06-08 11:37 OP:RALL STATUS:               ID:20081007110247     I
 2008-10-07-1102-36S.PLUR1_003                                                 6
 STAT SP IPHASW D HRMM SECON CODA AMPLIT PERI AZIMU VELO AIN AR TRES W  DIS CAZ7
 LZ4  SZ E        11 2 49.82                  291.3 14.9      0        1.80 111 
 LZ4  SN IP       11 2 49.95                             170    0.2610 1.80 111 
 LZ4  SE IS       11 2 50.79                             170   -0.2610 1.80 111 
 LZ4  SZ  AML     11 2 52.66        14.1 0.24                          1.80 111 
                                                                                
 2008 10 7 1225 12.0 L  21.338 -99.285 10.0  RAL  1 0.1 0.5LRAL                1
 GAP=360        0.61      18.6    42.6  0.0 -0.7933E+03  0.1150E+01  0.5633E+00E
 ACTION:UPD 12-06-08 11:37 OP:RALL STATUS:               ID:20081007122512     I
 2008-10-07-1225-00S.PLUR1_003                                                 6
 STAT SP IPHASW D HRMM SECON CODA AMPLIT PERI AZIMU VELO AIN AR TRES W  DIS CAZ7
 LZ4  SZ E        1225 14.17                  295.2 20.5      0        1.83 115 
 LZ4  SN IP       1225 14.26                             170    0.3610 1.83 115 
 LZ4  SE IS       1225 14.89                             170   -0.3610 1.83 115 
 LZ4  SZ  AML     1225 15.02        19.6 0.56                          1.83 115 
                                                                                
 2008 10 7 1620  4.8 L  21.775 -99.349 10.0  RAL  1 0.0 0.8LRAL                1
 GAP=360        0.30       3.8     1.0  0.0 -0.1862E+01  0.1150E+01  0.5633E+00E
 ACTION:UPD 12-06-08 11:37 OP:RALL STATUS:               ID:20081007162004     I
 2008-10-07-1620-00S.PLUR1_003                                                 6
 STAT SP IPHASW D HRMM SECON CODA AMPLIT PERI AZIMU VELO AIN AR TRES W  DIS CAZ7
 LA4  SN IP       1620 10.41                             103    0.0110 32.5 173 
 LA4  SZ E        1620 11.51                  352.7  9.4      0        32.5 173 
 LA4  SE IS       1620 14.50                             103   -0.0110 32.5 173 
 LA4  SZ  AML     1620 14.68        10.4 0.24                          32.5 173 
                                                                                
 2008 10 7 1719 55.8 L  21.504 -99.372 10.0  RAL  1 0.0 0.6LRAL                1
 GAP=360        0.30       2.2     6.7  0.0 -0.1467E+02  0.1150E+01  0.5633E+00E
 ACTION:UPD 12-06-08 11:37 OP:RALL STATUS:               ID:20081007171955     I
 2008-10-07-1719-46S.PLUR1_003                                                 6
 STAT SP IPHASW D HRMM SECON CODA AMPLIT PERI AZIMU VELO AIN AR TRES W  DIS CAZ7
 LA4  SN IP       1719 58.00                             146    0.0210 6.90 109 
 LA4  SZ E        1719 58.01                  289.4 17.1      0        6.90 109 
 LA4  SE IS       1719 59.55                             146   -0.0210 6.90 109 
 LA4  SZ  AML     1720  1.42        18.7 0.52                          6.90 109 
                                                                                
 2008 10 7 1827 33.7 L  21.756 -99.275 10.0  RAL  1 0.0 0.9LRAL                1
 GAP=360        0.30       3.8     1.0  0.0  0.1741E+01  0.1150E+01  0.5633E+00E
 ACTION:UPD 12-06-08 11:37 OP:RALL STATUS:               ID:20081007182733     I
 2008-10-07-1827-29S.PLUR1_003                                                 6
 STAT SP IPHASW D HRMM SECON CODA AMPLIT PERI AZIMU VELO AIN AR TRES W  DIS CAZ7
 LA4  SZ E        1827 38.93                    6.7  8.4      0        30.3 187 
 LA4  SN IP       1827 38.96                             104    0.0110 30.3 187 
 LA4  SE IS       1827 42.81                             104   -0.0110 30.3 187 
 LA4  SZ  AML     1827 45.92        13.8 0.40                          30.3 187 
                                                                                
 2008 10 7 2119  8.6 L  21.781 -99.857 10.0  RAL  1 0.0 1.6LRAL                1
 GAP=360        0.30       2.8     3.4  0.0 -0.5075E+01  0.1150E+01  0.5633E+00E
 ACTION:UPD 12-06-08 11:37 OP:RALL STATUS:               ID:20081007211908     I
 2008-10-07-2119-09S.PLUR1_003                                                 6
 STAT SP IPHASW D HRMM SECON CODA AMPLIT PERI AZIMU VELO AIN AR TRES W  DIS CAZ7
 LZ4  SN IP       2119 21.31                              94    0.0110 78.6 129 
 LZ4  SZ E        2119 21.45                  309.4 13.5      0        78.6 129 
 LZ4  SE IS       2119 30.58                              94   -0.0110 78.6 129 
 LZ4  SZ  AML     2119 33.21        26.7 0.32                          78.6 129 
                                                                                
