 2008 10 4 0606 11.7 L  21.341 -99.291 10.0  RAL  1 0.1 0.9LRAL                1
 GAP=360        0.50     693.2   409.2  0.0  0.2836E+06 -0.1886E+02 -0.6246E+03E
 ACTION:UPD 12-06-08 11:37 OP:RALL STATUS:               ID:20081004060611     I
 2008-10-04-0605-59S.PLUR1_003                                                 6
 STAT SP IPHASW D HRMM SECON CODA AMPLIT PERI AZIMU VELO AIN AR TRES W  DIS CAZ7
 LZ4  SZ E         6 6 13.82                  297.0 11.8      0        2.48 117 
 LZ4  SN IP        6 6 13.84                             166    0.2710 2.48 117 
 LZ4  SE IS        6 6 14.67                             166   -0.2710 2.48 117 
 LZ4  SZ  AML      6 6 14.81        46.6 0.20                          2.48 117 
                                                                                
 2008 10 4 0800 12.1 R  22.056 -99.510 10.0  RAL  1 0.0 1.8LRAL                1
 GAP=360        0.30       3.6     2.5  0.0 -0.2758E+01 -0.1886E+02 -0.6246E+03E
 ACTION:UPD 12-06-08 11:37 OP:RALL STATUS:               ID:20081004080012     I
 2008-10-04-0800-12S.PLUR1_003                                                 6
 STAT SP IPHASW D HRMM SECON CODA AMPLIT PERI AZIMU VELO AIN AR TRES W  DIS CAZ7
 LZ4  SZ E         8 0 25.57                  342.8  8.9      0        84.1 163 
 LZ4  SN IP        8 0 25.66                              94    0.0110 84.1 163 
 LZ4  SE IS        8 0 35.55                              94   -0.0110 84.1 163 
 LZ4  SZ  AML      8 0 40.48        42.9 0.60                          84.1 163 
                                                                                
 2008 10 4 0931  7.8 L  21.680 -99.320 10.0  RAL  1 0.0 0.7LRAL                1
 GAP=360        0.30       4.0     0.6  0.0 -0.8743E+00 -0.1886E+02 -0.6246E+03E
 ACTION:UPD 12-06-08 11:37 OP:RALL STATUS:               ID:20081004093107     I
 2008-10-04-0931-01S.PLUR1_003                                                 6
 STAT SP IPHASW D HRMM SECON CODA AMPLIT PERI AZIMU VELO AIN AR TRES W  DIS CAZ7
 LA4  SN IP        931 11.88                             111    0.0110 21.7 177 
 LA4  SZ E         931 11.96                  357.0  6.9      0        21.7 177 
 LA4  SE IS        931 14.79                             111   -0.0110 21.7 177 
 LA4  SZ  AML      931 15.37        13.8 0.28                          21.7 177 
                                                                                
 2008 10 4 1010 31.8 L  21.348 -99.394 18.6  RAL  2 0.3 0.4LRAL                1
 GAP=302        1.65       2.1     3.6 18.7 -0.3573E+01  0.9155E+01 -0.2407E+01E
 ACTION:UPD 12-06-08 11:37 OP:RALL STATUS:               ID:20081004101031     I
 2008-10-04-1010-23S.PLUR1_006                                                 6
 STAT SP IPHASW D HRMM SECON CODA AMPLIT PERI AZIMU VELO AIN AR TRES W  DIS CAZ7
 LZ4  SN IP       1010 36.39                             144    0.7510 13.1  98 
 LZ4  SZ E        1010 36.39                  279.4 17.0      1        13.1  98 
 LZ4  SE IS       1010 39.05                             144    0.6410 13.1  98 
 LZ4  SZ  AML     1010 40.58        15.6 0.32                          13.1  98 
 LD5  SZ E        1010 36.06                  337.0 16.1      0        19.4 157 
 LD5  SN IP       1010 36.11                             132   -0.1810 19.4 157 
 LD5  SE IS       1010 38.32                             132   -1.2110 19.4 157 
 LD5  SZ  AML     1010 39.17         2.5 0.36                          19.4 157 
                                                                                
 2008 10 4 1335 35.5 L  21.301 -99.324 10.0  RAL  1 0.0 0.4LRAL                1
 GAP=360        0.30       3.5     6.4  0.0  0.2216E+02  0.9155E+01 -0.2407E+01E
 ACTION:UPD 12-06-08 11:37 OP:RALL STATUS:               ID:20081004133535     I
 2008-10-04-1335-24S.PLUR1_003                                                 6
 STAT SP IPHASW D HRMM SECON CODA AMPLIT PERI AZIMU VELO AIN AR TRES W  DIS CAZ7
 LZ4  SZ E        1335 37.55                  239.9 19.2      0        6.53  60 
 LZ4  SN IP       1335 37.61                             147    0.0310 6.53  60 
 LZ4  SE IS       1335 39.10                             147   -0.0310 6.53  60 
 LZ4  SZ  AML     1335 39.74        11.1 0.52                          6.53  60 
                                                                                
 2008 10 4 1615 35.7 L  21.685 -99.433  0.0  RAL  2 0.0 2.4LRAL                1
 GAP=353        0.47       4.2     2.6 97.4 -0.1011E+02  0.1626E+03 -0.2713E+03E
 ACTION:UPD 12-06-08 11:37 OP:RALL STATUS:               ID:20081004161535     I
 2008-10-04-1615-25S.PLUR1_012                                                 6
 STAT SP IPHASW D HRMM SECON CODA AMPLIT PERI AZIMU VELO AIN AR TRES W  DIS CAZ7
 LA4  SN IP       1615 40.29                              92    0.1210 25.8 150 
 LA4  SZ E        1615 40.39                  330.8  8.9      1        25.8 150 
 LA4  SE IS       1615 43.34                              92   -0.1310 25.8 150 
 LA4  SZ  AML     1615 43.53       848.3 0.24                          25.8 150 
 LZ4  SN IP       1615 43.09                              91   -0.0510 42.7 157 
 LZ4  SZ E        1615 43.32                  335.3  6.9      0        42.7 157 
 LZ4  SE IS       1615 48.66                              91    0.0610 42.7 157 
 LZ4  SZ  AML     1615 52.45       193.6 0.36                          42.7 157 
                                                                                
 2008 10 4 1632 42.7 L  21.655 -99.310 10.0  RAL  1 0.0 0.6LRAL                1
 GAP=360        0.30       4.1     0.5  0.0 -0.9305E-01  0.1626E+03 -0.2713E+03E
 ACTION:UPD 12-06-08 11:37 OP:RALL STATUS:               ID:20081004163242     I
 2008-10-04-1632-34S.PLUR1_003                                                 6
 STAT SP IPHASW D HRMM SECON CODA AMPLIT PERI AZIMU VELO AIN AR TRES W  DIS CAZ7
 LA4  SN IP       1632 46.40                             115    0.0210 19.0 180 
 LA4  SZ E        1632 46.65                  359.7 14.6      0        19.0 180 
 LA4  SE IS       1632 49.02                             115   -0.0210 19.0 180 
 LA4  SZ  AML     1632 50.43        11.9 0.28                          19.0 180 
                                                                                
 2008 10 4 1744  0.5 L  21.651 -99.447 10.0  RAL  1 0.0 1.7LRAL                1
 GAP=360        0.30       3.4     2.1  0.0 -0.5735E+01  0.1626E+03 -0.2713E+03E
 ACTION:UPD 12-06-08 11:37 OP:RALL STATUS:               ID:20081004174400     I
 2008-10-04-1743-52S.PLUR1_003                                                 6
 STAT SP IPHASW D HRMM SECON CODA AMPLIT PERI AZIMU VELO AIN AR TRES W  DIS CAZ7
 LZ4  SN IP       1744  7.31                             100    0.0110 39.9 153 
 LZ4  SZ E        1744  7.43                  332.7  6.8      0        39.9 153 
 LZ4  SE IS       1744 12.21                             100   -0.0110 39.9 153 
 LZ4  SZ  AML     1744 16.34        82.1 0.32                          39.9 153 
                                                                                
 2008 10 4 1921 39.2 L  21.327 -99.281 10.0  RAL  1 0.3 0.7LRAL                1
 GAP=360        3.92     524.9   633.3  0.0 -0.3324E+06  0.1626E+03 -0.2713E+03E
 ACTION:UPD 12-06-08 11:37 OP:RALL STATUS:               ID:20081004192139     I
 2008-10-04-1921-26S.PLUR1_003                                                 6
 STAT SP IPHASW D HRMM SECON CODA AMPLIT PERI AZIMU VELO AIN AR TRES W  DIS CAZ7
 LZ4  SZ E        1921 41.34                  269.8 13.6     19        1.31  71 
 LZ4  SN EP       1921 41.36                             173    0.2810 1.31  71 
 LZ4  SE IS       1921 42.14                             173   -0.2810 1.31  71 
 LZ4  SZ  AML     1921 43.25        25.0 0.32                          1.31  71 
                                                                                
 2008 10 4 2240 37.4 L  21.480 -99.315 10.0  RAL  1 0.4 0.3LRAL                1
 GAP=360        4.98     471.0   794.6  0.0  0.3742E+06  0.1626E+03 -0.2713E+03E
 ACTION:UPD 12-06-08 11:37 OP:RALL STATUS:               ID:20081004224037     I
 2008-10-04-2240-25S.PLUR1_003                                                 6
 STAT SP IPHASW D HRMM SECON CODA AMPLIT PERI AZIMU VELO AIN AR TRES W  DIS CAZ7
 LA4  SZ E        2240 39.60                  261.1 16.9     24        0.73  58 
 LA4  SN IP       2240 39.60                             176    0.3810 0.73  58 
 LA4  SE IS       2240 40.19                             176   -0.3810 0.73  58 
 LA4  SZ  AML     2240 40.89        10.1 0.48                          0.73  58 
                                                                                
 2008 10 4 2359 15.6 L  21.351 -99.285 16.4  RAL  2 0.2 0.5LRAL                1
 GAP=205        1.90       1.0     2.7 16.8  0.9223E+00  0.7249E+00 -0.3653E+00E
 ACTION:UPD 12-06-08 11:37 OP:RALL STATUS:               ID:20081004235915     I
 2008-10-04-2359-06S.PLUR1_006                                                 6
 STAT SP IPHASW D HRMM SECON CODA AMPLIT PERI AZIMU VELO AIN AR TRES W  DIS CAZ7
 LZ4  SZ E        2359 18.99                  323.7 13.4     -1        2.73 145 
 LZ4  SN IP       2359 18.99                             172    0.4810 2.73 145 
 LZ4  SE IS       2359 20.90                             172    0.3110 2.73 145 
 LZ4  SZ  AML     2359 22.72        19.2 0.64                          2.73 145 
 LA4  SZ E        2359 19.19                  162.6  9.2     -7        14.9 350 
 LA4  SN IP       2359 19.40                             137    0.0310 14.9 350 
 LA4  SE IS       2359 21.27                             137   -0.8210 14.9 350 
 LA4  SZ  AML     2359 22.84         5.9 0.48                          14.9 350 
                                                                                
 2008 10 5 0016 59.2 L  21.564 -99.225 10.0  RAL  1 0.0 0.3LRAL                1
 GAP=360        0.30       3.4     3.5  0.0  0.1187E+02  0.7249E+00 -0.3653E+00E
 ACTION:UPD 12-06-08 11:37 OP:RALL STATUS:               ID:20081005001659     I
 2008-10-05-0016-49S.PLUR1_003                                                 6
 STAT SP IPHASW D HRMM SECON CODA AMPLIT PERI AZIMU VELO AIN AR TRES W  DIS CAZ7
 LA4  SZ E         017  1.88                   44.2 10.5      0        12.4 224 
 LA4  SN IP        017  1.95                             128    0.0210 12.4 224 
 LA4  SE IS        017  3.92                             128   -0.0210 12.4 224 
 LA4  SZ  AML      017  4.28         6.5 0.56                          12.4 224 
                                                                                
 2008 10 5 0222  5.8 L  21.351 -99.284 17.2  RAL  2 0.2 0.7LRAL                1
 GAP=206        1.22       2.8     2.1 11.1 -0.5645E+01  0.3365E+01 -0.4497E+01E
 ACTION:UPD 12-06-08 11:37 OP:RALL STATUS:               ID:20081005022205     I
 2008-10-05-0221-56S.PLUR1_006                                                 6
 STAT SP IPHASW D HRMM SECON CODA AMPLIT PERI AZIMU VELO AIN AR TRES W  DIS CAZ7
 LZ4  SN IP        222  9.25                             171    0.5010 2.68 145 
 LZ4  SZ E         222  9.42                  324.2  7.8      0        2.68 145 
 LZ4  SE IS        222 11.28                             171    0.3510 2.68 145 
 LZ4  SZ  AML      222 11.57        24.1 0.44                          2.68 145 
 LA4  SZ E         222  9.47                  167.7  9.7     -1        14.9 350 
 LA4  SN IP        222  9.61                             139    0.0110 14.9 350 
 LA4  SE IS     D  222 11.53                             139   -0.8610 14.9 350 
 LA4  SZ  AML      222 11.75        11.4 0.28                          14.9 350 
                                                                                
 2008 10 5 0229 30.4 L  21.385 -99.298 10.0  RAL  1 0.0 0.9LRAL                1
 GAP=360        0.30       4.9     0.6  0.0 -0.2811E+01  0.3365E+01 -0.4497E+01E
 ACTION:UPD 12-06-08 11:37 OP:RALL STATUS:               ID:20081005022930     I
 2008-10-05-0229-19S.PLUR1_003                                                 6
 STAT SP IPHASW D HRMM SECON CODA AMPLIT PERI AZIMU VELO AIN AR TRES W  DIS CAZ7
 LA4  SZ E         229 32.95                  173.8 10.3      0        11.0 354 
 LA4  SN IP        229 32.95                             132    0.0010 11.0 354 
 LA4  SE IS        229 34.84                             132    0.0010 11.0 354 
 LA4  SZ  AML      229 35.24        31.1 0.20                          11.0 354 
                                                                                
 2008 10 5 0246 51.1 L  21.370 -99.325 11.7  RAL  3 0.2 1.2LRAL                1
 GAP=189        2.74       2.5     2.6 21.8 -0.3949E+01  0.9558E+00  0.1663E+01E
 ACTION:UPD 12-06-08 11:37 OP:RALL STATUS:               ID:20081005024651     I
 2008-10-05-0246-38S.PLUR1_009                                                 6
 STAT SP IPHASW D HRMM SECON CODA AMPLIT PERI AZIMU VELO AIN AR TRES W  DIS CAZ7
 LZ4  SN IP        246 53.45                             152   -0.0910 7.25 127 
 LZ4  SZ E         246 53.49                  305.9  6.1      0        7.25 127 
 LZ4  SE IS        246 55.91                             152    0.6110 7.25 127 
 LZ4  SZ  AML      246 57.53       244.2 0.24                          7.25 127 
 LA4  SN IP        246 53.54                             136   -0.5510 12.7   8 
 LA4  SZ E         246 53.59                  179.0  9.6     -8        12.7   8 
 LA4  SE IS        246 55.58                             136   -0.6710 12.7   8 
 LA4  SZ  AML      246 57.15       117.7 0.84                          12.7   8 
 LD5  SN IP        246 55.26                             122    0.2010 20.3 178 
 LD5  SZ E         246 55.27                  346.8 10.1    -11        20.3 178 
 LD5  SE IS        246 58.43                             122    0.5010 20.3 178 
 LD5  SZ  AML      246 59.95         6.1 0.38                          20.3 178 
                                                                                
 2008 10 5 0553 21.0 L  21.402 -99.306 10.0  RAL  2 0.2 0.5LRAL                1
 GAP=203        2.46       5.1     2.0 29.1 -0.6804E+01  0.8492E+00 -0.1736E+01E
 ACTION:UPD 12-06-08 11:37 OP:RALL STATUS:               ID:20081005055321     I
 2008-10-05-0553-09S.PLUR1_006                                                 6
 STAT SP IPHASW D HRMM SECON CODA AMPLIT PERI AZIMU VELO AIN AR TRES W  DIS CAZ7
 LZ4  SZ E         553 23.20                  341.0  6.7      6        8.75 155 
 LZ4  SN IP        553 23.24                             139   -0.0610 8.75 155 
 LZ4  SE IS        553 24.66                             139   -0.3410 8.75 155 
 LZ4  SZ  AML      553 24.67        12.3 0.16                          8.75 155 
 LA4  SZ E         553 23.49                  187.7  8.7     10        9.02 358 
 LA4  SN IP        553 23.56                             138    0.2210 9.02 358 
 LA4  SE IS        553 25.25                             138    0.1810 9.02 358 
 LA4  SZ  AML      553 26.59        13.9 0.68                          9.02 358 
                                                                                
 2008 10 5 0828  1.8 L  21.350 -99.287 17.4  RAL  2 0.2 0.5LRAL                1
 GAP=213        1.73       3.0     2.8 15.6 -0.8181E+01  0.4972E+01 -0.5420E+01E
 ACTION:UPD 12-06-08 11:37 OP:RALL STATUS:               ID:20081005082801     I
 2008-10-05-0827-52S.PLUR1_006                                                 6
 STAT SP IPHASW D HRMM SECON CODA AMPLIT PERI AZIMU VELO AIN AR TRES W  DIS CAZ7
 LZ4  SN IP        828  5.37                             171    0.5510 2.78 138 
 LZ4  SZ E         828  5.54                  316.0 17.8     -1        2.78 138 
 LZ4  SE IS        828  7.26                             171    0.2410 2.78 138 
 LZ4  SZ  AML      828  7.47        10.8 0.60                          2.78 138 
 LA4  SN IP        828  5.57                             139   -0.0910 15.0 351 
 LA4  SZ E         828  5.58                  164.8 11.4     -6        15.0 351 
 LA4  SE IS        828  7.78                             139   -0.6910 15.0 351 
 LA4  SZ  AML      828  8.97         6.5 0.24                          15.0 351 
                                                                                
 2008 10 5 0851 14.5 L  21.340 -99.289 10.0  RAL  1 0.1 0.2LRAL                1
 GAP=360        0.56      14.6    30.8  0.0 -0.4502E+03  0.4972E+01 -0.5420E+01E
 ACTION:UPD 12-06-08 11:37 OP:RALL STATUS:               ID:20081005085114     I
 2008-10-05-0851-02S.PLUR1_003                                                 6
 STAT SP IPHASW D HRMM SECON CODA AMPLIT PERI AZIMU VELO AIN AR TRES W  DIS CAZ7
 LZ4  SZ E         851 16.68                  296.9  8.1      0        2.29 117 
 LZ4  SN IP        851 16.73                             167    0.3210 2.29 117 
 LZ4  SE IS        851 17.45                             167   -0.3210 2.29 117 
 LZ4  SZ  AML      851 17.52         9.3 0.16                          2.29 117 
                                                                                
 2008 10 5 1349 47.6 R                       RAL  1                            1
 ACTION:UPD 12-06-08 11:37 OP:RALL STATUS:               ID:20081005134947     I
 2008-10-05-1349-47S.PLUR1_003                                                 6
 STAT SP IPHASW D HRMM SECON CODA AMPLIT PERI AZIMU VELO AIN AR TRES W  DIS CAZ7
 LZ4  SZ E        1349 59.61                  339.4  8.7                        
 LZ4  SN IP       1349 59.88                                                    
 LZ4  SZ  AML     1350 19.84        35.3 0.40                                   
                                                                                
 2008 10 5 1715  8.1 L  22.020 -99.507 10.0  RAL  1 0.0 1.3LRAL                1
 GAP=360        0.30       3.6     2.1  0.0 -0.3719E+01  0.4972E+01 -0.5420E+01E
 ACTION:UPD 12-06-08 11:37 OP:RALL STATUS:               ID:20081005171508     I
 2008-10-05-1715-09S.PLUR1_003                                                 6
 STAT SP IPHASW D HRMM SECON CODA AMPLIT PERI AZIMU VELO AIN AR TRES W  DIS CAZ7
 LA4  SZ E        1715 18.11                  341.0 10.6      0        62.8 161 
 LA4  SN IP       1715 18.35                              96    0.0110 62.8 161 
 LA4  SE IS       1715 25.84                              96   -0.0110 62.8 161 
 LA4  SZ  AML     1715 28.86        18.2 0.32                          62.8 161 
                                                                                
 2008 10 6 0056 18.4 L  21.639 -99.336 10.0  RAL  1 0.0 0.6LRAL                1
 GAP=360        0.30       4.1     0.9  0.0 -0.2987E+01  0.4972E+01 -0.5420E+01E
 ACTION:UPD 12-06-08 11:37 OP:RALL STATUS:               ID:20081006005618     I
 2008-10-06-0056-10S.PLUR1_003                                                 6
 STAT SP IPHASW D HRMM SECON CODA AMPLIT PERI AZIMU VELO AIN AR TRES W  DIS CAZ7
 LA4  SZ E         056 21.82                  350.7  9.7      0        17.4 171 
 LA4  SN IP        056 21.85                             117    0.0210 17.4 171 
 LA4  SE IS        056 24.30                             117   -0.0210 17.4 171 
 LA4  SZ  AML      056 24.33        12.6 0.28                          17.4 171 
                                                                                
