 2008 12 6 0207 29.3 L  21.537 -99.391 10.0  RAL  1 0.0 0.9LRAL                1
 GAP=360        0.30       2.9     4.5  0.0 -0.1319E+02  0.1135E+02 -0.4652E+01E
 ACTION:UPD 12-06-08 11:37 OP:RALL STATUS:               ID:20081206020729     I
 2008-12-06-0207-18S.PLUR1_003                                                 6
 STAT SP IPHASW D HRMM SECON CODA AMPLIT PERI AZIMU VELO AIN AR TRES W  DIS CAZ7
 LA4  SZ E         2 7 31.83                  304.7  9.7      0        10.3 125 
 LA4  SN IP        2 7 31.84                             134    0.0110 10.3 125 
 LA4  SE IS        2 7 33.65                             134   -0.0110 10.3 125 
 LA4  SZ  AML      2 7 35.29        32.0 0.72                          10.3 125 
                                                                                
 2008 12 6 0811 17.8 L  21.187 -99.313 10.0  RAL  1 0.3 0.7LRAL                1
 GAP=360        3.50      98.2   652.3  0.0 -0.6389E+05  0.1135E+02 -0.4652E+01E
 ACTION:UPD 12-06-08 11:37 OP:RALL STATUS:               ID:20081206081117     I
 2008-12-06-0811-05S.PLUR1_003                                                 6
 STAT SP IPHASW D HRMM SECON CODA AMPLIT PERI AZIMU VELO AIN AR TRES W  DIS CAZ7
 LD5  SZ E         811 20.05                  104.8 10.2     16        0.75 268 
 LD5  SN IP        811 20.06                             176    0.4010 0.75 268 
 LD5  SE IS        811 20.59                             176   -0.4010 0.75 268 
 LD5  SZ  AML      811 20.67        28.5 0.16                          0.75 268 
                                                                                
 2008 12 6 1306 52.5 L  21.187 -99.311 10.0  RAL  1 0.3 0.0LRAL                1
 GAP=360        3.40     999.9   999.9  0.0 -0.4835E+09  0.1135E+02 -0.4652E+01E
 ACTION:UPD 12-06-08 11:37 OP:RALL STATUS:               ID:20081206130652     I
 2008-12-06-1306-40S.PLUR1_003                                                 6
 STAT SP IPHASW D HRMM SECON CODA AMPLIT PERI AZIMU VELO AIN AR TRES W  DIS CAZ7
 LD5  SN IP       13 6 54.72                             175    0.3610 0.95 264 
 LD5  SZ E        13 6 54.83                  100.2 10.1     16        0.95 264 
 LD5  SE IS       13 6 55.35                             175   -0.3610 0.95 264 
 LD5  SZ  AML     13 6 55.54         5.1 0.14                          0.95 264 
                                                                                
 2008 12 6 1621 20.4 L  21.338 -99.287 10.0  RAL  1 0.1 0.4LRAL                1
 GAP=360        0.60      16.8    38.9  0.0 -0.6530E+03  0.1135E+02 -0.4652E+01E
 ACTION:UPD 12-06-08 11:37 OP:RALL STATUS:               ID:20081206162120     I
 2008-12-06-1621-09S.PLUR1_003                                                 6
 STAT SP IPHASW D HRMM SECON CODA AMPLIT PERI AZIMU VELO AIN AR TRES W  DIS CAZ7
 LZ4  SZ E        1621 22.17                  294.9 16.2      0        1.98 115 
 LZ4  SN IP       1621 22.63                             169    0.3510 1.98 115 
 LZ4  SE IS       1621 23.28                             169   -0.3510 1.98 115 
 LZ4  SZ  AML     1621 23.59        14.4 0.88                          1.98 115 
                                                                                
 2008 12 6 1743 20.9 L  21.237 -99.351 10.0  RAL  4 1.2 1.2LRAL                1
 GAP=219       21.09      19.4    16.5133.8 -0.2079E+03  0.3262E+03 -0.5114E+03E
 ACTION:UPD 12-06-08 11:37 OP:RALL STATUS:               ID:20081206174320     I
 2008-12-06-1742-48S.PLUR1_012                                                 6
 STAT SP IPHASW D HRMM SECON CODA AMPLIT PERI AZIMU VELO AIN AR TRES W  DIS CAZ7
 LD5  SZ E        1743 23.76                  356.2  9.7     26        6.44 150 
 LD5  SN IP       1743 23.84                             154    0.8410 6.44 150 
 LD5  SE IS       1743 25.77                             154    1.2310 6.44 150 
 LD5  SZ  AML     1743 28.07        26.0 0.56                          6.44 150 
 LZ4  SZ E        1743 22.77                  234.7 12.9     16        13.4  39 
 LZ4  SN IP       1743 22.78                             127   -0.9710 13.4  39 
 LZ4  SE IS       1743 23.87                             127   -1.9810 13.4  39 
 LZ4  SZ  AML     1743 24.48       539.4 0.24                          13.4  39 
 LO8  SZ E        1743 24.62                  167.7  8.3    -99        16.7 121 
 LO8  SN IP       1743 24.86                             123    0.6410 16.7 121 
 LO8  SE IS       1743 27.79                             123    1.1310 16.7 121 
 LO8  SZ  AML     1743 29.01         7.5 0.40                          16.7 121 
 LA4  SZ E        1743 25.31                  175.9 12.5    -12        27.6   9 
 LA4  SN IP       1743 25.48                             108   -0.3010 27.6   9 
 LA4  SE IS       1743 28.76                             108   -0.5910 27.6   9 
 LA4  SZ  AML     1743 31.64        82.7 0.64                          27.6   9 
                                                                                
 2008 12 6 2330 21.7 L  21.257 -99.312 13.9  RAL  2 0.1 0.4LRAL                1
 GAP=185        1.03       4.8     0.9 12.3  0.2412E+01 -0.4467E+01 -0.4239E+02E
 ACTION:UPD 12-06-08 11:37 OP:RALL STATUS:               ID:20081206233021     I
 2008-12-06-2330-11S.PLUR1_006                                                 6
 STAT SP IPHASW D HRMM SECON CODA AMPLIT PERI AZIMU VELO AIN AR TRES W  DIS CAZ7
 LD5  SZ E        2330 24.52                    7.4 10.4      1        7.80 186 
 LD5  SN IP       2330 24.53                             151    0.0510 7.80 186 
 LD5  SE IS       2330 26.51                             151    0.0310 7.80 186 
 LD5  SZ  AML     2330 27.13         4.0 0.24                          7.80 186 
 LA4  SN IP       2330 26.57                             117    0.0810 25.1   1 
 LA4  SZ E        2330 26.74                  185.3  7.5      5        25.1   1 
 LA4  SE IS       2330 29.80                             117   -0.1610 25.1   1 
 LA4  SZ  AML     2330 32.08        10.1 0.28                          25.1   1 
                                                                                
 2008 12 7 1058 51.3 L  21.504 -99.467 10.0  RAL  1 0.0 1.2LRAL                1
 GAP=360        0.30       2.7     3.0  0.0 -0.7597E+01 -0.4467E+01 -0.4239E+02E
 ACTION:UPD 12-06-08 11:37 OP:RALL STATUS:               ID:20081207105851     I
 2008-12-07-1058-42S.PLUR1_003                                                 6
 STAT SP IPHASW D HRMM SECON CODA AMPLIT PERI AZIMU VELO AIN AR TRES W  DIS CAZ7
 LZ4  SZ E        1058 56.21                  313.3  8.3      0        28.0 133 
 LZ4  SN IP       1058 56.27                             105    0.0010 28.0 133 
 LZ4  SE IS       1058 59.88                             105    0.0010 28.0 133 
 LZ4  SZ  AML     1059  1.76        33.1 0.28                          28.0 133 
                                                                                
 2008 12 7 2257 31.3 L  21.285 -99.285 10.0  RAL  1 0.0 0.1LRAL                1
 GAP=360        0.30       4.6     1.7  0.0  0.7549E+01 -0.4467E+01 -0.4239E+02E
 ACTION:UPD 12-06-08 11:37 OP:RALL STATUS:               ID:20081207225731     I
 2008-12-07-2257-21S.PLUR1_003                                                 6
 STAT SP IPHASW D HRMM SECON CODA AMPLIT PERI AZIMU VELO AIN AR TRES W  DIS CAZ7
 LD5  SN IP       2257 33.96                             130    0.0110 11.5 199 
 LD5  SZ E        2257 33.97                   18.6  9.8      0        11.5 199 
 LD5  SE IS       2257 35.87                             130   -0.0110 11.5 199 
 LD5  SZ  AML     2257 36.76         4.5 0.26                          11.5 199 
                                                                                
 2008 12 9 1349 47.0 L  21.289 -99.285 10.0  RAL  1 0.0 0.7LRAL                1
 GAP=360        0.30       4.5     1.6  0.0  0.6959E+01 -0.4467E+01 -0.4239E+02E
 ACTION:UPD 12-06-08 11:37 OP:RALL STATUS:               ID:20081209134947     I
 2008-12-09-1349-36S.PLUR1_003                                                 6
 STAT SP IPHASW D HRMM SECON CODA AMPLIT PERI AZIMU VELO AIN AR TRES W  DIS CAZ7
 LD5  SZ E        1349 49.39                   17.6 12.6      0        11.9 198 
 LD5  SN IP       1349 49.72                             129    0.0110 11.9 198 
 LD5  SE IS       1349 51.67                             129   -0.0110 11.9 198 
 LD5  SZ  AML     1349 52.30        17.2 0.44                          11.9 198 
                                                                                
 2008 1210 0840  1.4 L  21.598 -99.338 10.0  RAL  1 0.0 0.4LRAL                1
 GAP=360        0.30       4.5     1.2  0.0 -0.5027E+01 -0.4467E+01 -0.4239E+02E
 ACTION:UPD 12-06-08 11:37 OP:RALL STATUS:               ID:20081210084001     I
 2008-12-10-0839-52S.PLUR1_003                                                 6
 STAT SP IPHASW D HRMM SECON CODA AMPLIT PERI AZIMU VELO AIN AR TRES W  DIS CAZ7
 LA4  SZ E         840  4.17                  346.8  8.5      0        13.0 167 
 LA4  SN IP        840  4.23                             127    0.0010 13.0 167 
 LA4  SE IS        840  6.29                             127    0.0010 13.0 167 
 LA4  SZ  AML      840  7.79         8.0 0.36                          13.0 167 
                                                                                
 2008 1210 1303 50.9 L  21.342 -99.297 10.0  RAL  1 0.1 0.4LRAL                1
 GAP=360        0.42       7.1    17.6  0.0 -0.1248E+03 -0.4467E+01 -0.4239E+02E
 ACTION:UPD 12-06-08 11:37 OP:RALL STATUS:               ID:20081210130350     I
 2008-12-10-1303-39S.PLUR1_003                                                 6
 STAT SP IPHASW D HRMM SECON CODA AMPLIT PERI AZIMU VELO AIN AR TRES W  DIS CAZ7
 LZ4  SN IP       13 3 52.98                             163    0.2010 3.13 113 
 LZ4  SZ E        13 3 53.03                  293.3  7.7      0        3.13 113 
 LZ4  SE IS       13 3 53.97                             163   -0.2010 3.13 113 
 LZ4  SZ  AML     13 3 54.06        14.2 0.12                          3.13 113 
                                                                                
 2008 1210 1635 31.7 L  21.604 -99.324 10.0  RAL  1 0.0 0.1LRAL                1
 GAP=360        0.30       4.5     0.7  0.0 -0.2559E+01 -0.4467E+01 -0.4239E+02E
 ACTION:UPD 12-06-08 11:37 OP:RALL STATUS:               ID:20081210163531     I
 2008-12-10-1635-22S.PLUR1_003                                                 6
 STAT SP IPHASW D HRMM SECON CODA AMPLIT PERI AZIMU VELO AIN AR TRES W  DIS CAZ7
 LA4  SZ E        1635 34.43                  353.3 12.2      0        13.4 173 
 LA4  SN IP       1635 34.54                             126    0.0010 13.4 173 
 LA4  SE IS       1635 36.64                             126    0.0010 13.4 173 
 LA4  SZ  AML     1635 36.81         4.0 0.24                          13.4 173 
                                                                                
 2008 1210 1833 15.7 L  21.188 -99.318 10.0  RAL  1 0.8 0.0LRAL                1
 GAP=360       10.41     999.9   999.9  0.0 -0.8222E+10 -0.4467E+01 -0.4239E+02E
 ACTION:UPD 12-06-08 11:37 OP:RALL STATUS:               ID:20081210183315     I
 2008-12-10-1833-03S.PLUR1_003                                                 6
 STAT SP IPHASW D HRMM SECON CODA AMPLIT PERI AZIMU VELO AIN AR TRES W  DIS CAZ7
 LD5  SN IP       1833 17.90                             178    0.3910 0.32 228 
 LD5  SZ E        1833 17.91                   97.7 12.4     50        0.32 228 
 LD5  SE IS       1833 18.45                             178   -0.3910 0.32 228 
 LD5  SZ  AML     1833 18.53         5.1 0.14                          0.32 228 
                                                                                
 2008 1211 0432 50.9 L  21.221 -99.302 10.0  RAL  1 0.0-0.2LRAL                1
 GAP=360        0.32       9.3     4.9  0.0  0.4512E+02 -0.4467E+01 -0.4239E+02E
 ACTION:UPD 12-06-08 11:37 OP:RALL STATUS:               ID:20081211043250     I
 2008-12-11-0432-39S.PLUR1_003                                                 6
 STAT SP IPHASW D HRMM SECON CODA AMPLIT PERI AZIMU VELO AIN AR TRES W  DIS CAZ7
 LD5  SN IP        432 52.94                             158    0.0810 4.24 206 
 LD5  SZ E         432 52.95                   26.0  8.9      0        4.24 206 
 LD5  SE IS        432 54.22                             158   -0.0810 4.24 206 
 LD5  SZ  AML      432 54.83         3.5 0.24                          4.24 206 
                                                                                
 2008 1211 0744  1.1 L  21.500 -99.340 10.0  RAL  1 0.0 0.4LRAL                1
 GAP=360        0.34       6.1    11.9  0.0 -0.7199E+02 -0.4467E+01 -0.4239E+02E
 ACTION:UPD 12-06-08 11:37 OP:RALL STATUS:               ID:20081211074401     I
 2008-12-11-0743-50S.PLUR1_003                                                 6
 STAT SP IPHASW D HRMM SECON CODA AMPLIT PERI AZIMU VELO AIN AR TRES W  DIS CAZ7
 LA4  SN IP        744  3.18                             160    0.1110 3.71 119 
 LA4  SZ E         744  3.19                  298.8  8.5      0        3.71 119 
 LA4  SE IS        744  4.37                             160   -0.1110 3.71 119 
 LA4  SZ  AML      744  5.89        14.7 0.36                          3.71 119 
                                                                                
 2008 1211 1554 39.4 L  21.176 -99.300 10.0  RAL  1 0.2-0.1LRAL                1
 GAP=360        0.69      18.2    35.7  0.0 -0.6494E+03 -0.4467E+01 -0.4239E+02E
 ACTION:UPD 12-06-08 11:37 OP:RALL STATUS:               ID:20081211155439     I
 2008-12-11-1554-27S.PLUR1_003                                                 6
 STAT SP IPHASW D HRMM SECON CODA AMPLIT PERI AZIMU VELO AIN AR TRES W  DIS CAZ7
 LD5  SZ E        1554 41.71                  118.6 11.5      0        2.39 299 
 LD5  SN IP       1554 41.72                             167    0.4210 2.39 299 
 LD5  SE IS       1554 42.25                             167   -0.4210 2.39 299 
 LD5  SZ  AML     1554 42.41         4.3 0.24                          2.39 299 
                                                                                
 2008 1211 1713 14.0 L  21.331 -99.278 10.0  RAL  1 0.1 0.3LRAL                1
 GAP=360        0.38     999.9   915.3  0.0 -0.2043E+08 -0.4467E+01 -0.4239E+02E
 ACTION:UPD 12-06-08 11:37 OP:RALL STATUS:               ID:20081211171314     I
 2008-12-11-1713-02S.PLUR1_003                                                 6
 STAT SP IPHASW D HRMM SECON CODA AMPLIT PERI AZIMU VELO AIN AR TRES W  DIS CAZ7
 LZ4  SN IP       1713 15.94                             175    0.1410 0.84  88 
 LZ4  SZ E        1713 15.94                  267.5 11.4      0        0.84  88 
 LZ4  SE IS       1713 16.99                             175   -0.1410 0.84  88 
 LZ4  SZ  AML     1713 18.76        11.0 0.32                          0.84  88 
                                                                                
 2008 1212 1537 15.6 L  21.639 -99.440 10.0  RAL  1 0.0 2.3LRAL                1
 GAP=360        0.30       3.4     2.1  0.0 -0.5806E+01 -0.4467E+01 -0.4239E+02E
 ACTION:UPD 12-06-08 11:37 OP:RALL STATUS:               ID:20081212153715     I
 2008-12-12-1537-07S.PLUR1_003                                                 6
 STAT SP IPHASW D HRMM SECON CODA AMPLIT PERI AZIMU VELO AIN AR TRES W  DIS CAZ7
 LZ4  SN IP       1537 22.13                             100    0.0210 38.4 153 
 LZ4  SZ E        1537 22.24                  332.6  7.6      0        38.4 153 
 LZ4  SE IS       1537 26.86                             100   -0.0210 38.4 153 
 LZ4  SZ  AML     1537 27.22       324.0 0.32                          38.4 153 
                                                                                
 2008 1213 0301 31.0 L  21.322 -99.242 10.0  RAL  1 0.1 0.8LRAL                1
 GAP=360        0.36       5.4    16.1  0.0 -0.8709E+02 -0.4467E+01 -0.4239E+02E
 ACTION:UPD 12-06-08 11:37 OP:RALL STATUS:               ID:20081213030131     I
 2008-12-13-0301-18S.PLUR1_003                                                 6
 STAT SP IPHASW D HRMM SECON CODA AMPLIT PERI AZIMU VELO AIN AR TRES W  DIS CAZ7
 LZ4  SZ E         3 1 33.04                  109.9 48.6      0        3.02 290 
 LZ4  SN IP        3 1 33.07                             164    0.1410 3.02 290 
 LZ4  SE IS        3 1 34.18                             164   -0.1410 3.02 290 
 LZ4  SZ  AML      3 1 34.81        34.3 0.28                          3.02 290 
                                                                                
 2008 1213 1604 48.7 L  21.299 -99.292 10.0  RAL  1 0.0 1.8LRAL                1
 GAP=360        0.34       9.2     6.8  0.0  0.6265E+02 -0.4467E+01 -0.4239E+02E
 ACTION:UPD 12-06-08 11:37 OP:RALL STATUS:               ID:20081213160448     I
 2008-12-13-1604-36S.PLUR1_003                                                 6
 STAT SP IPHASW D HRMM SECON CODA AMPLIT PERI AZIMU VELO AIN AR TRES W  DIS CAZ7
 LZ4  SZ E        16 4 50.82                  214.4 26.8      0        4.22  34 
 LZ4  SN IP       16 4 50.82                             158    0.1210 4.22  34 
 LZ4  SE IS       16 4 52.02                             158   -0.1210 4.22  34 
 LZ4  SZ  AML     16 4 52.22       360.5 0.38                          4.22  34 
                                                                                
