 2008  9 2 0630 34.4 L  21.312 -99.293 10.0  RAL  1 0.1 0.5LRAL                1
 GAP=360        0.64      17.2    22.1  0.0  0.3794E+03 -0.1389E+07  0.1081E+08E
 ACTION:UPD 12-06-08 11:37 OP:RALL STATUS:               ID:20080902063034     I
 2008-09-02-0630-22S.PLUR1_003                                                 6
 STAT SP IPHASW D HRMM SECON CODA AMPLIT PERI AZIMU VELO AIN AR TRES W  DIS CAZ7
 LZ4  SN IP        630 36.69                             163    0.3910 3.23  50 
 LZ4  SZ E         630 36.71                  230.2 13.4      0        3.23  50 
 LZ4  SE IS        630 37.31                             163   -0.3910 3.23  50 
 LZ4  SZ  AML      630 37.74        19.0 0.44                          3.23  50 
                                                                                
 2008  9 2 0946 51.5 L  21.330 -99.282 10.0  RAL  1 0.1 0.4LRAL                1
 GAP=360        1.26      97.2   129.1  0.0  0.1254E+05 -0.1389E+07  0.1081E+08E
 ACTION:UPD 12-06-08 11:37 OP:RALL STATUS:               ID:20080902094651     I
 2008-09-02-0946-39S.PLUR1_003                                                 6
 STAT SP IPHASW D HRMM SECON CODA AMPLIT PERI AZIMU VELO AIN AR TRES W  DIS CAZ7
 LZ4  SZ E         946 53.50                  273.9  9.5      6        1.33  88 
 LZ4  SN IP        946 53.50                             173    0.1210 1.33  88 
 LZ4  SE IS        946 54.61                             173   -0.1210 1.33  88 
 LZ4  SZ  AML      946 54.99        14.7 0.72                          1.33  88 
                                                                                
 2008  9 3 1737 24.1 L  21.897 -99.337 10.0  RAL  1 0.0 0.9LRAL                1
 GAP=360        0.30       3.7     1.3  0.0 -0.8504E+00 -0.1389E+07  0.1081E+08E
 ACTION:UPD 12-06-08 11:37 OP:RALL STATUS:               ID:20080903173724     I
 2008-09-03-1737-24S.PLUR1_003                                                 6
 STAT SP IPHASW D HRMM SECON CODA AMPLIT PERI AZIMU VELO AIN AR TRES W  DIS CAZ7
 LA4  SZ E        1737 31.52                  356.4 11.0      0        45.8 176 
 LA4  SN IP       1737 31.78                              98    0.0110 45.8 176 
 LA4  SE IS       1737 37.36                              98   -0.0110 45.8 176 
 LA4  SZ  AML     1737 43.65        10.5 0.44                          45.8 176 
                                                                                
 2008  9 4 0124 52.3 R  22.240 -99.400 10.0  RAL  1 0.0 1.2LRAL                1
 GAP=360        0.30       3.7     2.4  0.0 -0.1082E+01 -0.1389E+07  0.1081E+08E
 ACTION:UPD 12-06-08 11:37 OP:RALL STATUS:               ID:20080904012452     I
 2008-09-04-0125-01S.PLUR1_003                                                 6
 STAT SP IPHASW D HRMM SECON CODA AMPLIT PERI AZIMU VELO AIN AR TRES W  DIS CAZ7
 LA4  SZ E         125  5.80                  353.6 11.3      0        84.2 174 
 LA4  SN IP        125  5.93                              94    0.0110 84.2 174 
 LA4  SE IS        125 15.84                              94   -0.0110 84.2 174 
 LA4  SZ  AML      125 17.42        11.6 0.24                          84.2 174 
                                                                                
 2008  9 4 0200 42.5 R  22.470 -99.512 10.0  RAL  1 0.0                        1
 GAP=360        0.30       4.7     3.7  0.0 -0.2318E+01 -0.1389E+07  0.1081E+08E
 ACTION:UPD 12-06-08 11:37 OP:RALL STATUS:               ID:20080904020042     I
 2008-09-04-0200-50S.PLUR1_003                                                 6
 STAT SP IPHASW D HRMM SECON CODA AMPLIT PERI AZIMU VELO AIN AR TRES W  DIS CAZ7
 LZ4  SN IP        2 1  2.90                              52    0.0110  129 169 
 LZ4  SZ E         2 1  3.18                  348.8 15.5      0         129 169 
 LZ4  SE IS        2 1 17.80                              52   -0.0110  129 169 
                                                                                
 2008  9 4 0644 15.1 L  21.491 -99.374 10.0  RAL  1 0.0 0.8LRAL                1
 GAP=360        0.30       0.8     7.1  0.0 -0.5343E+01 -0.1389E+07  0.1081E+08E
 ACTION:UPD 12-06-08 11:37 OP:RALL STATUS:               ID:20080904064415     I
 2008-09-04-0644-05S.PLUR1_006                                                 6
 STAT SP IPHASW D HRMM SECON CODA AMPLIT PERI AZIMU VELO AIN AR TRES W  DIS CAZ7
 LA4  SZ E         644 17.14                  276.5 11.4      0        6.79  96 
 LA4  SN IP        644 17.26                             146    0.0110 6.79  96 
 LA4  SE IS        644 18.82                             146   -0.0110 6.79  96 
 LA4  SZ  AML      644 20.37        31.2 0.32                          6.79  96 
                                                                                
 2008  9 4 0958 29.6 L  21.818 -99.421 10.0  RAL  1 0.0 0.9LRAL                1
 GAP=360        0.30       3.6     1.6  0.0 -0.4025E+01 -0.1389E+07  0.1081E+08E
 ACTION:UPD 12-06-08 11:37 OP:RALL STATUS:               ID:20080904095829     I
 2008-09-04-0958-25S.PLUR1_003                                                 6
 STAT SP IPHASW D HRMM SECON CODA AMPLIT PERI AZIMU VELO AIN AR TRES W  DIS CAZ7
 LA4  SZ E         958 36.12                  342.7  8.0      0        38.7 163 
 LA4  SN IP        958 36.14                             100    0.0110 38.7 163 
 LA4  SE IS        958 40.92                             100   -0.0110 38.7 163 
 LA4  SZ  AML      958 41.03        12.4 0.40                          38.7 163 
                                                                                
 2008  9 4 2249 45.1 L  21.348 -99.331 20.0  RAL  3 0.3 0.9LRAL                1
 GAP=192        1.80       1.2     1.9 15.4 -0.9503E+00  0.1043E+01 -0.9357E-01E
 ACTION:UPD 12-06-08 11:37 OP:RALL STATUS:               ID:20080904224945     I
 2008-09-04-2249-33S.PLUR1_009                                                 6
 STAT SP IPHASW D HRMM SECON CODA AMPLIT PERI AZIMU VELO AIN AR TRES W  DIS CAZ7
 LZ4  SN EP       2249 48.51                             161   -0.1210 6.65 107 
 LZ4  SZ E        2249 48.57                  288.8  6.7      2        6.65 107 
 LZ4  SE IS       2249 51.13                             161   -0.0810 6.65 107 
 LZ4  SZ  AML     2249 53.35        76.4 0.36                          6.65 107 
 LA4  SN IP       2249 49.67                             142    0.4110 15.2   9 
 LA4  SZ E        2249 49.75                  186.9 16.4     -1        15.2   9 
 LA4  SE IS       2249 53.61                             142    1.3010 15.2   9 
 LA4  SZ  AML     2249 57.86        20.1 0.40                          15.2   9 
 LD5  SZ E        2249 48.70                  353.0 19.4     -2        17.9 176 
 LD5  SN EP       2249 49.25                             136   -0.2710 17.9 176 
 LD5  SE IS       2249 51.52                             136   -1.2410 17.9 176 
 LD5  SZ  AML     2249 54.35         6.4 0.62                          17.9 176 
                                                                                
 2008  9 5 0200 33.9 L  21.407 -99.351 30.5  RAL  2 0.1 0.9LRAL                1
 GAP=252        0.55       0.6     0.5  6.8  0.3206E-01  0.5413E-01  0.5256E-01E
 ACTION:UPD 12-06-08 11:37 OP:RALL STATUS:               ID:20080905020033     I
 2008-09-05-0200-29S.PLUR1_006                                                 6
 STAT SP IPHASW D HRMM SECON CODA AMPLIT PERI AZIMU VELO AIN AR TRES W  DIS CAZ7
 LA4  SZ E         2 0 38.70                  207.3 12.3      0        9.51  27 
 LA4  SN IP        2 0 38.82                             159   -0.2510 9.51  27 
 LA4  SE IS        2 0 42.60                             159   -0.2110 9.51  27 
 LA4  SZ  AML      2 0 45.99        11.0 0.68                          9.51  27 
 LZ4  SN IP        2 0 39.39                             153    0.2110 12.0 135 
 LZ4  SZ E         2 0 39.50                  314.8  8.3      0        12.0 135 
 LZ4  SE IS        2 0 43.25                             153    0.2510 12.0 135 
 LZ4  SZ  AML      2 0 44.56        17.6 0.52                          12.0 135 
                                                                                
 2008  9 5 1357 37.2 L  21.788 -99.412 10.0  RAL  1 0.0 0.4LRAL                1
 GAP=360        0.30       3.6     1.5  0.0 -0.4177E+01  0.5413E-01  0.5256E-01E
 ACTION:UPD 12-06-08 11:37 OP:RALL STATUS:               ID:20080905135737     I
 2008-09-05-1357-33S.PLUR1_003                                                 6
 STAT SP IPHASW D HRMM SECON CODA AMPLIT PERI AZIMU VELO AIN AR TRES W  DIS CAZ7
 LA4  SZ E        1357 43.22                  342.4  8.6      0        35.3 162 
 LA4  SN IP       1357 43.25                             102    0.0110 35.3 162 
 LA4  SE IS       1357 47.65                             102   -0.0110 35.3 162 
 LA4  SZ  AML     1357 48.00         4.5 0.76                          35.3 162 
                                                                                
 2008  9 5 2229 51.8 L  21.792 -99.436  5.2  RAL  2 0.2 1.2LRAL                1
 GAP=358        3.59     455.6   182.2941.1 -0.8285E+05 -0.1708E+06  0.4279E+06E
 ACTION:UPD 12-06-08 11:37 OP:RALL STATUS:               ID:20080905222951     I
 2008-09-05-2229-46S.PLUR1_006                                                 6
 STAT SP IPHASW D HRMM SECON CODA AMPLIT PERI AZIMU VELO AIN AR TRES W  DIS CAZ7
 LA4  SZ E        2229 57.56                  348.4  7.5      9        36.6 159 
 LA4  SN IP       2229 57.59                              63   -0.3410 36.6 159 
 LA4  SE IS       2230  2.00                              63   -0.4410 36.6 159 
 LA4  SZ  AML     2230  3.45        24.0 0.44                          36.6 159 
 LZ4  SN IP       2230  1.16                              63    0.5510 53.9 161 
 LZ4  SZ E        2230  1.45                  327.2  7.8    -13        53.9 161 
 LZ4  SE IS       2230  7.31                              63    0.2310 53.9 161 
 LZ4  SZ  AML     2230  8.84        15.5 0.64                          53.9 161 
                                                                                
 2008  9 6 0214 13.1 R  22.507 -99.481 10.0  RAL  1 0.0 1.7LRAL                1
 GAP=360        0.30       4.7     3.7  0.0 -0.1877E+01 -0.1708E+06  0.4279E+06E
 ACTION:UPD 12-06-08 11:37 OP:RALL STATUS:               ID:20080906021413     I
 2008-09-06-0214-21S.PLUR1_003                                                 6
 STAT SP IPHASW D HRMM SECON CODA AMPLIT PERI AZIMU VELO AIN AR TRES W  DIS CAZ7
 LZ4  SN IP        214 33.96                              52    0.0110  132 170 
 LZ4  SZ E         214 34.21                  350.5 10.6      0         132 170 
 LZ4  SE IS        214 49.16                              52   -0.0110  132 170 
 LZ4  SZ  AML      214 52.29        21.9 0.32                           132 170 
                                                                                
 2008  9 6 0751 33.1 L  21.978 -99.340 10.0  RAL  1 0.0 1.2LRAL                1
 GAP=360        0.30       3.7     1.5  0.0 -0.7364E+00 -0.1708E+06  0.4279E+06E
 ACTION:UPD 12-06-08 11:37 OP:RALL STATUS:               ID:20080906075133     I
 2008-09-06-0751-34S.PLUR1_003                                                 6
 STAT SP IPHASW D HRMM SECON CODA AMPLIT PERI AZIMU VELO AIN AR TRES W  DIS CAZ7
 LA4  SZ E         751 41.91                  356.7 13.1      0        54.8 177 
 LA4  SN IP        751 42.19                              97    0.0110 54.8 177 
 LA4  SE IS        751 48.78                              97   -0.0110 54.8 177 
 LA4  SZ  AML      751 49.90        16.6 0.28                          54.8 177 
                                                                                
 2008  9 8 0302 25.3 R  22.274 -99.723 10.0  RAL  2 0.3 2.0LRAL                1
 GAP=358        4.92     999.9   923.1999.9 -0.1664E+07 -0.3560E+07  0.6962E+07E
 ACTION:UPD 12-06-08 11:37 OP:RALL STATUS:               ID:20080908030225     I
 2008-09-08-0302-29S.PLUR1_006                                                 6
 STAT SP IPHASW D HRMM SECON CODA AMPLIT PERI AZIMU VELO AIN AR TRES W  DIS CAZ7
 LA4  SZ E         3 2 40.37                  349.6  9.9     16        97.4 154 
 LA4  SN IP        3 2 41.31                              63    0.3810 97.4 154 
 LA4  SE IS        3 2 52.27                              63   -0.0810 97.4 154 
 LA4  SZ  AML      3 2 58.11        56.0 0.44                          97.4 154 
 LZ4  SZ E         3 2 43.25                  317.7 10.2    -17         115 156 
 LZ4  SN IP        3 2 43.29                              63   -0.2810  115 156 
 LZ4  SE IS        3 2 56.89                              63   -0.0310  115 156 
 LZ4  SZ  AML      3 3  1.23        43.7 0.32                           115 156 
                                                                                
 2008  9 8 0735 54.8 R  22.353 -99.473 10.0  RAL  1 0.0 1.7LRAL                1
 GAP=360        0.30       3.7     3.2  0.0 -0.9436E+00 -0.3560E+07  0.6962E+07E
 ACTION:UPD 12-06-08 11:37 OP:RALL STATUS:               ID:20080908073554     I
 2008-09-08-0735-59S.PLUR1_003                                                 6
 STAT SP IPHASW D HRMM SECON CODA AMPLIT PERI AZIMU VELO AIN AR TRES W  DIS CAZ7
 LZ4  SZ E         736 12.97                  349.5  9.1      0         115 169 
 LZ4  SN IP        736 13.20                              93    0.0010  115 169 
 LZ4  SE IS        736 26.62                              93    0.0010  115 169 
 LZ4  SZ  AML      736 30.88        23.6 0.40                           115 169 
                                                                                
 2008  9 8 1725  0.9 L  21.213 -99.477 10.0  RAL  4 1.2 1.1LRAL                1
 GAP=288       21.37      23.1    55.5276.5  0.9567E+02  0.4248E+04 -0.6130E+03E
 ACTION:UPD 12-06-08 11:37 OP:RALL STATUS:               ID:20080908172500     I
 2008-09-08-1724-50S.PLUR1_012                                                 6
 STAT SP IPHASW D HRMM SECON CODA AMPLIT PERI AZIMU VELO AIN AR TRES W  DIS CAZ7
 LD5  SN IP       1725  4.84                             119    0.6610 16.6 100 
 LD5  SZ E        1725  4.88                  334.9 12.1     55        16.6 100 
 LD5  SE IS     C 1725  5.74                             119   -0.8410 16.6 100 
 LD5  SZ  AML     1725  7.95        16.1 0.36                          16.6 100 
 LZ4  SZ E        1725  5.18                  275.3  8.7     36        25.2  59 
 LZ4  SN IP       1725  5.23                             108   -0.1810 25.2  59 
 LZ4  SE IS       1725  7.86                             108   -0.8510 25.2  59 
 LZ4  SZ  AML     1725  8.16       122.8 0.40                          25.2  59 
 LO8  SZ E        1725  6.57                  166.1 10.9    -99        28.1 102 
 LO8  SN IP       1725  6.61                             106    0.7410 28.1 102 
 LO8  SE IS       1725 10.52                             106    1.0110 28.1 102 
 LO8  SZ  AML     1725 11.32         7.3 0.56                          28.1 102 
 LA4  SZ E        1725  6.86                  169.2  9.8    -40        34.6  30 
 LA4  SN IP       1725  6.90                             102    0.0610 34.6  30 
 LA4  SE IS       1725 10.58                             102   -0.6110 34.6  30 
 LA4  SZ  AML     1725 12.97        31.0 0.28                          34.6  30 
                                                                                
 2008  9 9 0838  1.9 L  21.461 -99.494 10.0  RAL  1 0.0 1.0LRAL                1
 GAP=360        0.30       2.1     3.6  0.0 -0.6971E+01  0.4248E+04 -0.6130E+03E
 ACTION:UPD 12-06-08 11:37 OP:RALL STATUS:               ID:20080909083801     I
 2008-09-09-0837-55S.PLUR1_003                                                 6
 STAT SP IPHASW D HRMM SECON CODA AMPLIT PERI AZIMU VELO AIN AR TRES W  DIS CAZ7
 LZ4  SZ E         838  6.69                  301.8  8.5      0        27.4 122 
 LZ4  SN IP        838  6.79                             106    0.0310 27.4 122 
 LZ4  SE IS        838 10.28                             106   -0.0310 27.4 122 
 LZ4  SZ  AML      838 11.14        20.7 0.52                          27.4 122 
                                                                                
 2008  910 0102 21.3 R  22.153 -99.815 10.0  RAL  1 0.0 1.5LRAL                1
 GAP=360        0.30       3.5     3.3  0.0 -0.2925E+01  0.4248E+04 -0.6130E+03E
 ACTION:UPD 12-06-08 11:37 OP:RALL STATUS:               ID:20080910010221     I
 2008-09-10-0102-25S.PLUR1_003                                                 6
 STAT SP IPHASW D HRMM SECON CODA AMPLIT PERI AZIMU VELO AIN AR TRES W  DIS CAZ7
 LZ4  SN EP        1 2 38.41                              93    0.0010  107 148 
 LZ4  SZ E         1 2 39.18                  328.3  9.6      0         107 148 
 LZ4  SE IS        1 2 50.92                              93    0.0010  107 148 
 LZ4  SZ  AML      1 2 53.68        17.9 0.64                           107 148 
                                                                                
 2008  911 0014 38.1 L  21.381 -99.321 33.2  RAL  2 0.2 1.2LRAL                1
 GAP=230        1.14       1.4     1.1 13.6 -0.9797E+00  0.1626E+00 -0.1387E+00E
 ACTION:UPD 12-06-08 11:37 OP:RALL STATUS:               ID:20080911001438     I
 2008-09-11-0014-29S.PLUR1_006                                                 6
 STAT SP IPHASW D HRMM SECON CODA AMPLIT PERI AZIMU VELO AIN AR TRES W  DIS CAZ7
 LZ4  SZ E         014 43.84                  315.6 10.3      0        7.77 136 
 LZ4  SN IP        014 43.91                             164    0.4310 7.77 136 
 LZ4  SE IS        014 47.99                             164    0.6010 7.77 136 
 LZ4  SZ  AML      014 48.95        29.8 0.28                          7.77 136 
 LA4  SN IP        014 43.30                             157   -0.3410 11.4   7 
 LA4  SZ E         014 43.33                  185.9 14.2      0        11.4   7 
 LA4  SE IS        014 46.98                             157   -0.6910 11.4   7 
 LA4  SZ  AML      014 47.60        31.6 0.72                          11.4   7 
                                                                                
 2008  911 0017 55.5 L  21.659 -99.392 10.0  RAL  1 0.0 0.8LRAL                1
 GAP=360        0.30       3.6     1.8  0.0 -0.6234E+01  0.1626E+00 -0.1387E+00E
 ACTION:UPD 12-06-08 11:37 OP:RALL STATUS:               ID:20080911001755     I
 2008-09-11-0017-47S.PLUR1_003                                                 6
 STAT SP IPHASW D HRMM SECON CODA AMPLIT PERI AZIMU VELO AIN AR TRES W  DIS CAZ7
 LA4  SZ E         017 59.35                  336.0  9.0      0        21.2 156 
 LA4  SN IP        017 59.42                             112    0.0010 21.2 156 
 LA4  SE IS        018  2.30                             112    0.0010 21.2 156 
 LA4  SZ  AML      018  3.92        15.1 0.36                          21.2 156 
                                                                                
 2008  911 0400 31.2 L  22.186 -99.981 10.0  RAL  1 0.0 1.7LRAL                1
 GAP=360        0.30       3.5     3.6  0.0 -0.2142E+01  0.1626E+00 -0.1387E+00E
 ACTION:UPD 12-06-08 11:37 OP:RALL STATUS:               ID:20080911040031     I
 2008-09-11-0400-37S.PLUR1_003                                                 6
 STAT SP IPHASW D HRMM SECON CODA AMPLIT PERI AZIMU VELO AIN AR TRES W  DIS CAZ7
 LZ4  SZ E         4 0 50.30                  322.3  9.1      0         120 142 
 LZ4  SN IP        4 0 50.31                              93    0.0010  120 142 
 LZ4  SE IS        4 1  4.27                              93    0.0010  120 142 
 LZ4  SZ  AML      4 1  7.42        23.7 0.68                           120 142 
                                                                                
