 2008 10 9 1514  4.4 L  21.221 -99.268 10.6  RAL  2 0.1 0.4LRAL                1
 GAP=235        0.63       0.6     0.7  6.6  0.2937E+00 -0.5692E+00 -0.5356E+00E
 ACTION:UPD 12-06-08 11:37 OP:RALL STATUS:               ID:20081009151404     I
 2008-10-09-1513-53S.PLUR1_006                                                 6
 STAT SP IPHASW D HRMM SECON CODA AMPLIT PERI AZIMU VELO AIN AR TRES W  DIS CAZ7
 LD5  SN IP       1514  6.86                             148    0.2210 6.63 235 
 LD5  SZ E        1514  7.11                   55.1 12.4      0        6.63 235 
 LD5  SE IS       1514  8.43                             148    0.1810 6.63 235 
 LD5  SZ  AML     1514  8.86         4.1 0.36                          6.63 235 
 LZ4  SZ E        1514  6.94                  179.9 13.9      1        12.1 359 
 LZ4  SN IP       1514  7.23                             130    0.0310 12.1 359 
 LZ4  SE IS       1514  8.79                             130   -0.4410 12.1 359 
 LZ4  SZ  AML     1514  8.95        26.0 0.48                          12.1 359 
                                                                                
 2008 10 9 1629  8.7 L  21.332 -99.280 10.0  RAL  1 0.1 0.3LRAL                1
 GAP=360        0.55     999.9   255.8  0.0  0.3014E+06 -0.5692E+00 -0.5356E+00E
 ACTION:UPD 12-06-08 11:37 OP:RALL STATUS:               ID:20081009162908     I
 2008-10-09-1628-56S.PLUR1_003                                                 6
 STAT SP IPHASW D HRMM SECON CODA AMPLIT PERI AZIMU VELO AIN AR TRES W  DIS CAZ7
 LZ4  SZ E        1629 10.68                  276.5 10.9     -1        1.14  98 
 LZ4  SN IP       1629 10.72                             174    0.1510 1.14  98 
 LZ4  SE IS       1629 11.77                             174   -0.1510 1.14  98 
 LZ4  SZ  AML     1629 13.13        11.1 0.24                          1.14  98 
                                                                                
 2008 10 9 1653 42.4 L  21.677 -99.417  0.0  RAL  2 0.2 1.1LRAL                1
 GAP=354        3.38      30.7    17.5627.1 -0.4864E+03  0.6761E+04 -0.1239E+05E
 ACTION:UPD 12-06-08 11:37 OP:RALL STATUS:               ID:20081009165342     I
 2008-10-09-1653-33S.PLUR1_006                                                 6
 STAT SP IPHASW D HRMM SECON CODA AMPLIT PERI AZIMU VELO AIN AR TRES W  DIS CAZ7
 LA4  SZ E        1653 46.46                  340.2 11.6      8        24.1 152 
 LA4  SN IP       1653 46.77                              93    0.1110 24.1 152 
 LA4  SE IS       1653 49.02                              93   -0.7210 24.1 152 
 LA4  SZ  AML     1653 49.18        33.1 0.24                          24.1 152 
 LZ4  SZ E        1653 49.88                  324.4 19.0    -13        41.2 158 
 LZ4  SN IP       1653 50.05                              91    0.4110 41.2 158 
 LZ4  SE IS       1653 55.11                              91    0.2010 41.2 158 
 LZ4  SZ  AML     1653 57.12        14.7 0.52                          41.2 158 
                                                                                
 2008 10 9 2204  9.1 L  21.234 -99.275  8.9  RAL  2 0.1 0.3LRAL                1
 GAP=218        0.72       1.0     0.7  8.4  0.5232E+00 -0.9077E+00 -0.1390E+01E
 ACTION:UPD 12-06-08 11:37 OP:RALL STATUS:               ID:20081009220409     I
 2008-10-09-2203-57S.PLUR1_006                                                 6
 STAT SP IPHASW D HRMM SECON CODA AMPLIT PERI AZIMU VELO AIN AR TRES W  DIS CAZ7
 LD5  SZ E        22 4 11.35                   42.2  8.8      1        7.05 221 
 LD5  SN IP       22 4 11.57                             141    0.4110 7.05 221 
 LD5  SE IS       22 4 12.77                             141    0.1310 7.05 221 
 LD5  SZ  AML     22 4 13.24         4.4 0.20                          7.05 221 
 LZ4  SN IP       22 4 11.39                             128   -0.1710 10.7   3 
 LZ4  SZ E        22 4 11.43                  184.2  8.8      1        10.7   3 
 LZ4  SE IS       22 4 12.97                             128   -0.3710 10.7   3 
 LZ4  SZ  AML     22 4 13.71        22.8 0.60                          10.7   3 
                                                                                
 2008 1010 0041 29.0 L  21.631 -99.384 10.0  RAL  1 0.0 0.7LRAL                1
 GAP=360        0.30       3.7     2.0  0.0 -0.7033E+01 -0.9077E+00 -0.1390E+01E
 ACTION:UPD 12-06-08 11:37 OP:RALL STATUS:               ID:20081010004129     I
 2008-10-10-0041-21S.PLUR1_003                                                 6
 STAT SP IPHASW D HRMM SECON CODA AMPLIT PERI AZIMU VELO AIN AR TRES W  DIS CAZ7
 LA4  SZ E         041 32.34                  334.5  8.1      0        18.0 154 
 LA4  SN IP        041 32.51                             116    0.0010 18.0 154 
 LA4  SE IS        041 35.06                             116    0.0010 18.0 154 
 LA4  SZ  AML      041 35.76        15.8 0.32                          18.0 154 
                                                                                
 2008 1010 0123 53.8 L  21.346 -99.286 18.0  RAL  2 0.2 0.6LRAL                1
 GAP=217        2.31       1.2     3.4 20.6  0.1437E+01  0.1076E+01 -0.3832E+00E
 ACTION:UPD 12-06-08 11:37 OP:RALL STATUS:               ID:20081010012353     I
 2008-10-10-0123-45S.PLUR1_006                                                 6
 STAT SP IPHASW D HRMM SECON CODA AMPLIT PERI AZIMU VELO AIN AR TRES W  DIS CAZ7
 LZ4  SZ E         123 57.55                  310.4 18.5     -2        2.39 134 
 LZ4  SN IP        123 57.60                             175    0.6710 2.39 134 
 LZ4  SE IS        123 59.52                             175    0.3310 2.39 134 
 LZ4  SZ  AML      123 59.57        21.8 0.72                          2.39 134 
 LA4  SN IP        123 57.62                             139   -0.1810 15.4 351 
 LA4  SZ E         123 57.69                  162.1  8.8     -8        15.4 351 
 LA4  SE IS        123 59.87                             139   -0.8210 15.4 351 
 LA4  SZ  AML      123 59.89         5.1 0.20                          15.4 351 
                                                                                
 2008 1010 0149 30.5 L  21.319 -99.299 10.0  RAL  1 0.0 0.5LRAL                1
 GAP=360        0.34       5.4    13.4  0.0  0.7155E+02  0.1076E+01 -0.3832E+00E
 ACTION:UPD 12-06-08 11:37 OP:RALL STATUS:               ID:20081010014930     I
 2008-10-10-0149-19S.PLUR1_003                                                 6
 STAT SP IPHASW D HRMM SECON CODA AMPLIT PERI AZIMU VELO AIN AR TRES W  DIS CAZ7
 LZ4  SN IP        149 32.50                             162    0.1110 3.35  67 
 LZ4  SZ E         149 32.57                  246.8 19.4      0        3.35  67 
 LZ4  SE IS        149 33.68                             162   -0.1110 3.35  67 
 LZ4  SZ  AML      149 33.85        16.3 0.16                          3.35  67 
                                                                                
 2008 1010 0302 25.8 L  21.700 -99.422  0.0  RAL  2 0.2 1.2LRAL                1
 GAP=355        2.96      28.2    15.3649.1 -0.3843E+03  0.6260E+04 -0.1224E+05E
 ACTION:UPD 12-06-08 11:37 OP:RALL STATUS:               ID:20081010030225     I
 2008-10-10-0302-16S.PLUR1_006                                                 6
 STAT SP IPHASW D HRMM SECON CODA AMPLIT PERI AZIMU VELO AIN AR TRES W  DIS CAZ7
 LA4  SN IP        3 2 30.69                              92    0.1910 26.6 154 
 LA4  SZ E         3 2 30.70                  341.2  8.2      7        26.6 154 
 LA4  SE IS        3 2 33.29                              92   -0.6110 26.6 154 
 LA4  SZ  AML      3 2 33.94        58.5 0.32                          26.6 154 
 LZ4  SN IP        3 2 33.71                              91    0.2110 43.8 159 
 LZ4  SZ E         3 2 35.06                  326.9  7.9    -11        43.8 159 
 LZ4  SE IS        3 2 39.29                              91    0.2010 43.8 159 
 LZ4  SZ  AML      3 2 40.34        15.8 0.28                          43.8 159 
                                                                                
 2008 1010 0330 26.6 L  21.701 -99.741  5.1  RAL  2 1.3 1.2LRAL                1
 GAP=348       21.41     190.4   322.6999.9 -0.5490E+05  0.3695E+08 -0.2038E+08E
 ACTION:UPD 12-06-08 11:37 OP:RALL STATUS:               ID:20081010033026     I
 2008-10-10-0330-25S.PLUR1_006                                                 6
 STAT SP IPHASW D HRMM SECON CODA AMPLIT PERI AZIMU VELO AIN AR TRES W  DIS CAZ7
 LA4  SN IP        330 35.12                              90    0.1010 50.8 118 
 LA4  SZ E         330 35.13                    2.4 10.6     64        50.8 118 
 LA4  SE IS        330 39.40                              90   -1.7310 50.8 118 
 LA4  SZ  AML      330 40.46        12.9 0.24                          50.8 118 
 LZ4  SZ E         330 38.11                  227.9 80.0    -81        63.7 130 
 LZ4  SN IP        330 38.57                              90    1.5510 63.7 130 
 LZ4  SE IS        330 44.69                              90    0.0910 63.7 130 
 LZ4  SZ  AML      330 48.51        17.6 0.72                          63.7 130 
                                                                                
 2008 1010 0728 15.7 L  21.263 -99.212 10.6  RAL  2 0.2 0.3LRAL                1
 GAP=272        1.22       1.3     1.3 14.9 -0.6381E+00 -0.1431E+01  0.2215E+01E
 ACTION:UPD 12-06-08 11:37 OP:RALL STATUS:               ID:20081010072815     I
 2008-10-10-0728-05S.PLUR1_006                                                 6
 STAT SP IPHASW D HRMM SECON CODA AMPLIT PERI AZIMU VELO AIN AR TRES W  DIS CAZ7
 LZ4  SZ E         728 18.78                  140.3 25.0      0        9.58 321 
 LZ4  SN IP        728 18.83                             138    0.5910 9.58 321 
 LZ4  SE IS        728 20.45                             138    0.3910 9.58 321 
 LZ4  SZ  AML      728 20.78        27.4 0.40                          9.58 321 
 LD5  SZ E         728 18.66                   52.1  8.6      0        14.1 233 
 LD5  SN IP        728 18.67                             125   -0.1010 14.1 233 
 LD5  SE IS        728 20.09                             125   -0.8810 14.1 233 
 LD5  SZ  AML      728 20.35         1.9 0.20                          14.1 233 
                                                                                
 2008 1010 0759 41.4 L  21.286 -99.216 10.0  RAL  1 0.0 0.4LRAL                1
 GAP=360        0.30       4.2     5.0  0.0 -0.2113E+02 -0.1431E+01  0.2215E+01E
 ACTION:UPD 12-06-08 11:37 OP:RALL STATUS:               ID:20081010075941     I
 2008-10-10-0759-30S.PLUR1_003                                                 6
 STAT SP IPHASW D HRMM SECON CODA AMPLIT PERI AZIMU VELO AIN AR TRES W  DIS CAZ7
 LZ4  SZ E         759 43.49                  131.7 23.4      0        7.41 312 
 LZ4  SN IP        759 43.63                             144    0.0310 7.41 312 
 LZ4  SE IS        759 45.18                             144   -0.0310 7.41 312 
 LZ4  SZ  AML      759 46.87        11.7 0.60                          7.41 312 
                                                                                
 2008 1010 1135  8.5 L  21.189 -99.319 10.0  RAL  1 0.5-0.5LRAL                1
 GAP=360        6.22     999.9   999.9  0.0 -0.5108E+07 -0.1431E+01  0.2215E+01E
 ACTION:UPD 12-06-08 11:37 OP:RALL STATUS:               ID:20081010113508     I
 2008-10-10-1134-56S.PLUR1_003                                                 6
 STAT SP IPHASW D HRMM SECON CODA AMPLIT PERI AZIMU VELO AIN AR TRES W  DIS CAZ7
 LD5  SZ E        1135 10.57                  353.0  9.3     30        0.31 203 
 LD5  SN IP       1135 10.59                             178    0.2510 0.31 203 
 LD5  SE IS       1135 11.42                             178   -0.2510 0.31 203 
 LD5  SZ  AML     1135 11.81         1.7 0.32                          0.31 203 
                                                                                
 2008 1010 1220 20.8 L  21.252 -99.288 10.0  RAL  1 0.0 0.4LRAL                1
 GAP=360        0.30       5.4     1.3  0.0  0.6996E+01 -0.1431E+01  0.2215E+01E
 ACTION:UPD 12-06-08 11:37 OP:RALL STATUS:               ID:20081010122020     I
 2008-10-10-1220-09S.PLUR1_003                                                 6
 STAT SP IPHASW D HRMM SECON CODA AMPLIT PERI AZIMU VELO AIN AR TRES W  DIS CAZ7
 LZ4  SZ E        1220 23.14                  192.7 10.7      0        8.97  13 
 LZ4  SN IP       1220 23.17                             138    0.0110 8.97  13 
 LZ4  SE IS       1220 24.87                             138   -0.0110 8.97  13 
 LZ4  SZ  AML     1220 25.75        11.2 0.76                          8.97  13 
                                                                                
 2008 1010 1356 58.9 L  21.328 -99.275 10.0  RAL  3 0.4 0.4LRAL                1
 GAP=152        5.07       2.2     5.9 31.4  0.6444E+01  0.8506E+01  0.1318E+01E
 ACTION:UPD 12-06-08 11:37 OP:RALL STATUS:               ID:20081010135658     I
 2008-10-10-1356-46S.PLUR1_009                                                 6
 STAT SP IPHASW D HRMM SECON CODA AMPLIT PERI AZIMU VELO AIN AR TRES W  DIS CAZ7
 LZ4  SZ E        1357  0.55                  264.4  8.7     25        0.64  60 
 LZ4  SN IP       1357  0.58                             177   -0.1510 0.64  60 
 LZ4  SE IS       1357  1.76                             177   -0.3110 0.64  60 
 LZ4  SZ  AML     1357  3.28        50.5 0.44                          0.64  60 
 LD5  SZ E        1357  1.69                   27.1  9.9     10        16.3 197 
 LD5  SN IP       1357  1.71                             119   -0.4510 16.3 197 
 LD5  SE IS       1357  3.84                             119   -0.7010 16.3 197 
 LD5  SZ  AML     1357  4.66         2.0 0.26                          16.3 197 
 LA4  SN IP       1357  2.80                             117    0.4610 17.6 348 
 LA4  SZ E        1357  3.05                  160.0 10.8     -7        17.6 348 
 LA4  SE IS       1357  6.01                             117    1.1610 17.6 348 
 LA4  SZ  AML     1357  6.76         6.7 0.24                          17.6 348 
                                                                                
 2008 1010 1418 13.1 L  21.722 -99.355 10.0  RAL  1 0.0 0.9LRAL                1
 GAP=360        0.30       3.8     1.0  0.0 -0.2687E+01  0.8506E+01  0.1318E+01E
 ACTION:UPD 12-06-08 11:37 OP:RALL STATUS:               ID:20081010141813     I
 2008-10-10-1418-07S.PLUR1_003                                                 6
 STAT SP IPHASW D HRMM SECON CODA AMPLIT PERI AZIMU VELO AIN AR TRES W  DIS CAZ7
 LA4  SN IP       1418 17.91                             106    0.0110 26.8 170 
 LA4  SZ E        1418 17.95                  349.9  8.4      0        26.8 170 
 LA4  SE IS       1418 21.37                             106   -0.0110 26.8 170 
 LA4  SZ  AML     1418 21.96        17.6 0.28                          26.8 170 
                                                                                
 2008 1010 1503 54.0 L  21.480 -99.324 10.0  RAL  1 0.1 0.3LRAL                1
 GAP=360        0.51      10.7    43.0  0.0  0.4625E+03  0.8506E+01  0.1318E+01E
 ACTION:UPD 12-06-08 11:37 OP:RALL STATUS:               ID:20081010150354     I
 2008-10-10-1503-42S.PLUR1_003                                                 6
 STAT SP IPHASW D HRMM SECON CODA AMPLIT PERI AZIMU VELO AIN AR TRES W  DIS CAZ7
 LA4  SZ E        15 3 56.10                  255.1 12.3      0        1.62  75 
 LA4  SN IP       15 3 56.14                             171    0.2810 1.62  75 
 LA4  SE IS       15 3 56.94                             171   -0.2810 1.62  75 
 LA4  SZ  AML     15 3 57.70        10.4 0.32                          1.62  75 
                                                                                
 2008 1010 1527 49.5 L  21.686 -99.393  1.1  RAL  2 0.2 1.0LRAL                1
 GAP=357        2.60      19.8     9.2 18.9 -0.1472E+03  0.8996E+01 -0.1678E+02E
 ACTION:UPD 12-06-08 11:37 OP:RALL STATUS:               ID:20081010152749     I
 2008-10-10-1527-42S.PLUR1_006                                                 6
 STAT SP IPHASW D HRMM SECON CODA AMPLIT PERI AZIMU VELO AIN AR TRES W  DIS CAZ7
 LA4  SN IP       1527 53.76                              95   -0.0110 24.1 159 
 LA4  SZ E        1527 53.79                  345.2  9.2      6        24.1 159 
 LA4  SZ  AML     1527 56.64        21.1 0.28                          24.1 159 
 LA4  SE IS       1527 56.76                              95   -0.0910 24.1 159 
 LZ4  SZ E        1527 56.98                  331.2 11.6    -10        41.4 162 
 LZ4  SN IP       1527 57.04                              63    0.2710 41.4 162 
 LZ4  SE IS       1528  1.87                              63   -0.1810 41.4 162 
 LZ4  SZ  AML     1528  5.10        16.0 0.84                          41.4 162 
                                                                                
 2008 1010 1535 50.1 L  21.349 -99.294 10.0  RAL  1 0.1 0.4LRAL                1
 GAP=360        0.48      12.6    16.4  0.0 -0.2057E+03  0.8996E+01 -0.1678E+02E
 ACTION:UPD 12-06-08 11:37 OP:RALL STATUS:               ID:20081010153550     I
 2008-10-10-1535-38S.PLUR1_003                                                 6
 STAT SP IPHASW D HRMM SECON CODA AMPLIT PERI AZIMU VELO AIN AR TRES W  DIS CAZ7
 LZ4  SN IP       1535 52.28                             163    0.2510 3.23 129 
 LZ4  SZ E        1535 52.32                  309.4  6.8      0        3.23 129 
 LZ4  SE IS       1535 53.17                             163   -0.2510 3.23 129 
 LZ4  SZ  AML     1535 53.24        13.6 0.16                          3.23 129 
                                                                                
 2008 1010 1924 21.7 L  21.337 -99.293  7.2  RAL  3 0.3 0.5LRAL                1
 GAP=165        2.20       0.8     2.4 12.3 -0.1512E+01  0.3210E+01 -0.8439E+00E
 ACTION:UPD 12-06-08 11:37 OP:RALL STATUS:               ID:20081010192421     I
 2008-10-10-1924-09S.PLUR1_009                                                 6
 STAT SP IPHASW D HRMM SECON CODA AMPLIT PERI AZIMU VELO AIN AR TRES W  DIS CAZ7
 LZ4  SZ E        1924 22.92                  286.3  9.3      1        2.55 105 
 LZ4  SN IP       1924 23.05                             161   -0.1010 2.55 105 
 LZ4  SE IS       1924 24.12                             161   -0.0910 2.55 105 
 LZ4  SZ  AML     1924 24.32       164.6 0.40                          2.55 105 
 LA4  SZ E        1924 25.04                  168.8 10.0     -4        16.3 354 
 LA4  SN IP       1924 25.04                             108    0.2610 16.3 354 
 LA4  SE IS       1924 28.53                             108    1.4910 16.3 354 
 LA4  SZ  AML     1924 29.18         7.3 0.48                          16.3 354 
 LD5  SZ E        1924 24.15                    3.2 14.9     -5        16.9 190 
 LD5  SN IP       1924 24.17                             107   -0.6810 16.9 190 
 LD5  SE IS       1924 26.29                             107   -0.8710 16.9 190 
 LD5  SZ  AML     1924 26.53         2.4 0.16                          16.9 190 
                                                                                
