 2008  927 2318 57.0 L  21.365 -99.292 15.2  RAL  2 0.3 0.8LRAL                1
 GAP=203        2.98       7.2     5.0 27.2 -0.3528E+02  0.1879E+02 -0.2755E+02E
 ACTION:UPD 12-06-08 11:37 OP:RALL STATUS:               ID:20080927231857     I
 2008-09-27-2318-46S.PLUR1_006                                                 6
 STAT SP IPHASW D HRMM SECON CODA AMPLIT PERI AZIMU VELO AIN AR TRES W  DIS CAZ7
 LZ4  SZ E        2319  0.16                  324.6  6.9     -3        4.44 149 
 LZ4  SN IP       2319  0.16                             171    0.4210 4.44 149 
 LZ4  SE IS       2319  2.24                             171    0.5110 4.44 149 
 LZ4  SZ  AML     2319  3.82        30.8 0.48                          4.44 149 
 LA4  SZ E        2319  0.23                  159.3  9.5    -12        13.2 352 
 LA4  SN IP       2319  0.26                             140   -0.1610 13.2 352 
 LA4  SE IS       2319  2.14                             140   -0.7710 13.2 352 
 LA4  SZ  AML     2319  4.10        11.8 0.64                          13.2 352 
                                                                                
 2008  927 2337 49.6 L  21.354 -99.295 12.1  RAL  2 0.2 0.5LRAL                1
 GAP=220        0.98       1.4     1.4  8.6 -0.1805E+01  0.2377E+01 -0.2366E+01E
 ACTION:UPD 12-06-08 11:37 OP:RALL STATUS:               ID:20080927233749     I
 2008-09-27-2337-38S.PLUR1_006                                                 6
 STAT SP IPHASW D HRMM SECON CODA AMPLIT PERI AZIMU VELO AIN AR TRES W  DIS CAZ7
 LZ4  SN IP       2337 52.05                             164    0.2410 3.65 134 
 LZ4  SZ E        2337 52.51                  314.0  8.3      0        3.65 134 
 LZ4  SE IS       2337 53.70                             164    0.2610 3.65 134 
 LZ4  SZ  AML     2337 54.16        25.9 0.44                          3.65 134 
 LA4  SZ E        2337 52.32                  172.8 10.5      0        14.4 354 
 LA4  SN IP       2337 53.04                             129    0.2510 14.4 354 
 LA4  SE IS       2337 54.37                             129   -0.7610 14.4 354 
 LA4  SZ  AML     2337 55.64         6.6 0.52                          14.4 354 
                                                                                
 2008  927 2347 13.0 L  21.258 -99.260 10.0  RAL  2 0.1 0.3LRAL                1
 GAP=225        0.46       0.6     0.3  5.4  0.5238E-01  0.2920E-01  0.2885E+00E
 ACTION:UPD 12-06-08 11:37 OP:RALL STATUS:               ID:20080927234713     I
 2008-09-27-2347-02S.PLUR1_006                                                 6
 STAT SP IPHASW D HRMM SECON CODA AMPLIT PERI AZIMU VELO AIN AR TRES W  DIS CAZ7
 LZ4  SN IP       2347 15.49                             141    0.2010 8.11 353 
 LZ4  SZ E        2347 15.50                  172.8 15.2      0        8.11 353 
 LZ4  SE IS       2347 17.02                             141    0.0710 8.11 353 
 LZ4  SZ  AML     2347 17.24        28.4 0.24                          8.11 353 
 LD5  SZ E        2347 15.29                   37.2 12.4      0        10.1 218 
 LD5  SN IP       2347 15.39                             133   -0.1110 10.1 218 
 LD5  SE IS       2347 17.15                             133   -0.1610 10.1 218 
 LD5  SZ  AML     2347 17.33         2.1 0.20                          10.1 218 
                                                                                
 2008  928 0039 49.7 L  21.390 -99.296 10.0  RAL  1 0.0 0.0LRAL                1
 GAP=360        0.30       5.0     0.8  0.0 -0.3535E+01  0.2920E-01  0.2885E+00E
 ACTION:UPD 12-06-08 11:37 OP:RALL STATUS:               ID:20080928003949     I
 2008-09-28-0039-39S.PLUR1_003                                                 6
 STAT SP IPHASW D HRMM SECON CODA AMPLIT PERI AZIMU VELO AIN AR TRES W  DIS CAZ7
 LA4  SZ E         039 52.11                  172.6 10.6      0        10.4 353 
 LA4  SN IP        039 52.24                             133    0.0010 10.4 353 
 LA4  SE IS        039 54.08                             133    0.0010 10.4 353 
 LA4  SZ  AML      039 55.47         3.9 0.24                          10.4 353 
                                                                                
 2008  928 0041 34.9 L  21.400 -99.355 25.8  RAL  2 0.1 1.1LRAL                1
 GAP=256        0.52       0.6     0.5  5.4  0.5949E-02  0.5559E-01  0.3051E-01E
 ACTION:UPD 12-06-08 11:37 OP:RALL STATUS:               ID:20080928004134     I
 2008-09-28-0041-25S.PLUR1_006                                                 6
 STAT SP IPHASW D HRMM SECON CODA AMPLIT PERI AZIMU VELO AIN AR TRES W  DIS CAZ7
 LA4  SZ E         041 39.31                  206.8 12.8      0        10.4  27 
 LA4  SN IP        041 39.34                             157   -0.1410 10.4  27 
 LA4  SE IS        041 42.54                             157   -0.2610 10.4  27 
 LA4  SZ  AML      041 43.97        27.9 0.60                          10.4  27 
 LZ4  SZ E         041 39.65                  310.7  7.1      0        11.7 131 
 LZ4  SN IP        041 39.67        26.6 0.64            155    0.1310 11.7 131 
 LZ4  SE IS        041 43.18                             155    0.2710 11.7 131 
 LZ4  SZ  AML      041 45.19        29.4 0.32                          11.7 131 
                                                                                
 2008  928 0053 44.7 L  21.597 -99.306 10.0  RAL  1 0.0 1.1LRAL                1
 GAP=360        0.30       4.7     0.4  0.0  0.4863E+00  0.5559E-01  0.3051E-01E
 ACTION:UPD 12-06-08 11:37 OP:RALL STATUS:               ID:20080928005344     I
 2008-09-28-0053-34S.PLUR1_003                                                 6
 STAT SP IPHASW D HRMM SECON CODA AMPLIT PERI AZIMU VELO AIN AR TRES W  DIS CAZ7
 LA4  SN IP        053 47.47                             127    0.0010 12.6 181 
 LA4  SZ E         053 47.60                    1.2  9.4      0        12.6 181 
 LA4  SE IS        053 49.50                             127    0.0010 12.6 181 
 LA4  SZ  AML      053 49.69        45.8 0.28                          12.6 181 
                                                                                
 2008  928 0522 30.0 L  21.350 -99.290 15.9  RAL  2 0.1 0.6LRAL                1
 GAP=219        0.77       1.1     1.2  6.9 -0.1264E+01  0.1014E+01 -0.9377E+00E
 ACTION:UPD 12-06-08 11:37 OP:RALL STATUS:               ID:20080928052230     I
 2008-09-28-0522-21S.PLUR1_006                                                 6
 STAT SP IPHASW D HRMM SECON CODA AMPLIT PERI AZIMU VELO AIN AR TRES W  DIS CAZ7
 LZ4  SN IP        522 33.24                             169    0.4210 3.03 134 
 LZ4  SZ E         522 33.35                  313.8  9.0      0        3.03 134 
 LZ4  SE IS        522 35.01                             169    0.1510 3.03 134 
 LZ4  SZ  AML      522 36.71        14.3 0.52                          3.03 134 
 LA4  SZ E         522 33.61                  171.6  9.9      0        14.9 353 
 LA4  SN IP        522 33.63                             137   -0.0810 14.9 353 
 LA4  SE IS        522 35.89                             137   -0.4910 14.9 353 
 LA4  SZ  AML      522 37.31        12.8 0.48                          14.9 353 
                                                                                
 2008  928 0527 57.4 L  21.412 -99.301 10.0  RAL  2 0.1 0.3LRAL                1
 GAP=194        1.61       4.7     1.1 16.9 -0.3019E+01 -0.2399E+01  0.1686E+02E
 ACTION:UPD 12-06-08 11:37 OP:RALL STATUS:               ID:20080928052757     I
 2008-09-28-0527-46S.PLUR1_006                                                 6
 STAT SP IPHASW D HRMM SECON CODA AMPLIT PERI AZIMU VELO AIN AR TRES W  DIS CAZ7
 LA4  SN IP        527 59.75                             152    0.1310 7.94 354 
 LA4  SZ E         527 59.83                  180.0 14.8      6        7.94 354 
 LA4  SE IS        528  1.42                             152    0.1510 7.94 354 
 LA4  SZ  AML      528  2.41         4.4 0.24                          7.94 354 
 LZ4  SZ E         527 59.48                  344.8 19.0      5        9.59 160 
 LZ4  SN IP        527 59.60                             137   -0.1810 9.59 160 
 LZ4  SE IS        528  1.44                             137   -0.1010 9.59 160 
 LZ4  SZ  AML      528  1.60        15.3 0.44                          9.59 160 
                                                                                
 2008  928 0618  0.5 L  21.600 -99.335 10.0  RAL  1 0.0 0.3LRAL                1
 GAP=360        0.30       4.5     1.1  0.0 -0.4503E+01 -0.2399E+01  0.1686E+02E
 ACTION:UPD 12-06-08 11:37 OP:RALL STATUS:               ID:20080928061800     I
 2008-09-28-0617-51S.PLUR1_003                                                 6
 STAT SP IPHASW D HRMM SECON CODA AMPLIT PERI AZIMU VELO AIN AR TRES W  DIS CAZ7
 LA4  SZ E         618  3.29                  348.1  8.9      0        13.2 168 
 LA4  SN IP        618  3.33                             126    0.0010 13.2 168 
 LA4  SE IS        618  5.41                             126    0.0010 13.2 168 
 LA4  SZ  AML      618  5.83         7.2 0.32                          13.2 168 
                                                                                
 2008  928 0642 35.6 L  21.346 -99.291 10.0  RAL  1 0.1 0.4LRAL                1
 GAP=360        0.50      14.0    20.6  0.0 -0.2878E+03 -0.2399E+01  0.1686E+02E
 ACTION:UPD 12-06-08 11:37 OP:RALL STATUS:               ID:20080928064235     I
 2008-09-28-0642-24S.PLUR1_003                                                 6
 STAT SP IPHASW D HRMM SECON CODA AMPLIT PERI AZIMU VELO AIN AR TRES W  DIS CAZ7
 LZ4  SN IP        642 37.76                             165    0.2710 2.78 126 
 LZ4  SZ E         642 37.77                  306.0 10.7      0        2.78 126 
 LZ4  SE IS        642 38.60                             165   -0.2710 2.78 126 
 LZ4  SZ  AML      642 38.74        15.0 0.32                          2.78 126 
                                                                                
 2008  928 0751  5.8 L  21.479 -99.327 10.0  RAL  1 0.1 0.5LRAL                1
 GAP=360        0.37       6.7    26.5  0.0  0.1776E+03 -0.2399E+01  0.1686E+02E
 ACTION:UPD 12-06-08 11:37 OP:RALL STATUS:               ID:20080928075105     I
 2008-09-28-0750-54S.PLUR1_003                                                 6
 STAT SP IPHASW D HRMM SECON CODA AMPLIT PERI AZIMU VELO AIN AR TRES W  DIS CAZ7
 LA4  SZ E         751  7.82                  254.9 10.7      0        1.92  75 
 LA4  SN IP        751  7.84                             170    0.1510 1.92  75 
 LA4  SE IS        751  8.90                             170   -0.1510 1.92  75 
 LA4  SZ  AML      751  9.42        19.0 0.48                          1.92  75 
                                                                                
 2008  928 0802 23.8 L  21.349 -99.241 10.0  RAL  1 0.0 0.4LRAL                1
 GAP=360        0.30       3.8     2.0  0.0 -0.7319E+01 -0.2399E+01  0.1686E+02E
 ACTION:UPD 12-06-08 11:37 OP:RALL STATUS:               ID:20080928080223     I
 2008-09-28-0802-14S.PLUR1_006                                                 6
 STAT SP IPHASW D HRMM SECON CODA AMPLIT PERI AZIMU VELO AIN AR TRES W  DIS CAZ7
 LA4  SZ E         8 2 27.08                  154.8 10.6      0        16.5 335 
 LA4  SN IP        8 2 27.08                             119    0.0110 16.5 335 
 LA4  SE IS        8 2 29.47                             119   -0.0110 16.5 335 
 LA4  SZ  AML      8 2 31.68         8.1 0.60                          16.5 335 
                                                                                
 2008  928 0916 58.0 L  21.588 -99.304 10.0  RAL  1 0.0 0.8LRAL                1
 GAP=360        0.30       4.8     0.4  0.0  0.1090E+01 -0.2399E+01  0.1686E+02E
 ACTION:UPD 12-06-08 11:37 OP:RALL STATUS:               ID:20080928091658     I
 2008-09-28-0916-48S.PLUR1_006                                                 6
 STAT SP IPHASW D HRMM SECON CODA AMPLIT PERI AZIMU VELO AIN AR TRES W  DIS CAZ7
 LA4  SN IP        917  0.67                             130    0.0010 11.6 183 
 LA4  SZ E         917  0.68                    2.5  8.8      0        11.6 183 
 LA4  SE IS        917  2.61                             130    0.0010 11.6 183 
 LA4  SZ  AML      917  3.43        24.6 0.28                          11.6 183 
                                                                                
