 2008 1118 0106 53.4 L  21.618 -99.302 10.0  RAL  1 0.0 2.1LRAL                1
 GAP=360        0.30       4.4     0.5  0.0  0.9773E+00 -0.4922E-01  0.1277E+00E
 ACTION:UPD 12-06-08 11:37 OP:RALL STATUS:               ID:20081118010653     I
 2008-11-18-0106-29S.PLUR1_003                                                 6
 STAT SP IPHASW D HRMM SECON CODA AMPLIT PERI AZIMU VELO AIN AR TRES W  DIS CAZ7
 LA4  SZ E         1 6 56.49                    2.7 10.3      0        14.8 183 
 LA4  SN IP        1 6 56.49                             122    0.0310 14.8 183 
 LA4  SE IS        1 6 58.68                             122   -0.0310 14.8 183 
 LA4  SZ  AML      1 6 58.79       378.2 0.24                          14.8 183 
                                                                                
 2008 1118 1318 54.4 L  21.280 -99.252 10.0  RAL  1 0.0 2.8LRAL                1
 GAP=360        0.30       3.9     2.8  0.0  0.1086E+02 -0.4922E-01  0.1277E+00E
 ACTION:UPD 12-06-08 11:37 OP:RALL STATUS:               ID:20081118131854     I
 2008-11-18-1318-42S.PLUR1_003                                                 6
 STAT SP IPHASW D HRMM SECON CODA AMPLIT PERI AZIMU VELO AIN AR TRES W  DIS CAZ7
 LD5  SN IP       1318 57.23                             127    0.0210 12.5 214 
 LD5  SZ E        1318 57.33                   34.4  8.8      0        12.5 214 
 LD5  SE IS       1318 59.21                             127   -0.0210 12.5 214 
 LD5  SZ  AML     1319  0.07      2198.1 0.26                          12.5 214 
                                                                                
 2008 1118 1323 34.3 L  21.324 -99.275 10.0  RAL  2 0.4 0.6LRAL                1
 GAP=200        6.47       3.5     9.4 46.8 -0.2234E+02  0.5661E+01  0.4515E+01E
 ACTION:UPD 12-06-08 11:37 OP:RALL STATUS:               ID:20081118132334     I
 2008-11-18-1323-22S.PLUR1_006                                                 6
 STAT SP IPHASW D HRMM SECON CODA AMPLIT PERI AZIMU VELO AIN AR TRES W  DIS CAZ7
 LZ4  SZ E        1323 36.45                  236.9 15.8     20        0.93  37 
 LZ4  SN IP       1323 36.48                             176    0.3010 0.93  37 
 LZ4  SE IS       1323 37.66                             176    0.1410 0.93  37 
 LZ4  SZ  AML     1323 37.82        82.6 0.36                          0.93  37 
 LD5  SZ E        1323 37.42                   41.6 14.5     24        15.9 197 
 LD5  SN IP       1323 37.52                             120   -0.0310 15.9 197 
 LD5  SE IS       1323 39.49                             120   -0.4010 15.9 197 
 LD5  SZ  AML     1323 39.92         2.9 0.66                          15.9 197 
                                                                                
 2008 1118 1359 28.4 L  21.314 -99.302 10.0  RAL  1 0.0 0.7LRAL                1
 GAP=360        0.34       5.8    11.4  0.0  0.6644E+02  0.5661E+01  0.4515E+01E
 ACTION:UPD 12-06-08 11:37 OP:RALL STATUS:               ID:20081118135928     I
 2008-11-18-1359-17S.PLUR1_003                                                 6
 STAT SP IPHASW D HRMM SECON CODA AMPLIT PERI AZIMU VELO AIN AR TRES W  DIS CAZ7
 LZ4  SZ E        1359 30.45                  241.2 12.0      0        3.83  61 
 LZ4  SN IP       1359 30.46                             160    0.1110 3.83  61 
 LZ4  SE IS       1359 31.65                             160   -0.1110 3.83  61 
 LZ4  SZ  AML     1359 32.24        28.5 0.52                          3.83  61 
                                                                                
 2008 1118 1418  8.8 L  21.242 -99.308 10.0  RAL  1 0.0-0.3LRAL                1
 GAP=360        0.30       7.0     1.5  0.0  0.1040E+02  0.5661E+01  0.4515E+01E
 ACTION:UPD 12-06-08 11:37 OP:RALL STATUS:               ID:20081118141808     I
 2008-11-18-1417-58S.PLUR1_003                                                 6
 STAT SP IPHASW D HRMM SECON CODA AMPLIT PERI AZIMU VELO AIN AR TRES W  DIS CAZ7
 LD5  SZ E        1418 10.41                   11.3 22.1      0        6.23 191 
 LD5  SN IP       1418 10.89                             148    0.0210 6.23 191 
 LD5  SE IS       1418 12.38                             148   -0.0210 6.23 191 
 LD5  SZ  AML     1418 12.84         2.3 1.04                          6.23 191 
                                                                                
 2008 1118 1452 49.5 L  21.280 -99.315 10.0  RAL  1 0.0 0.2LRAL                1
 GAP=360        0.30       5.1     0.4  0.0  0.1541E+01  0.5661E+01  0.4515E+01E
 ACTION:UPD 12-06-08 11:37 OP:RALL STATUS:               ID:20081118145249     I
 2008-11-18-1452-37S.PLUR1_003                                                 6
 STAT SP IPHASW D HRMM SECON CODA AMPLIT PERI AZIMU VELO AIN AR TRES W  DIS CAZ7
 LD5  SZ E        1452 51.93                    3.2 14.7      0        10.4 183 
 LD5  SN IP       1452 52.00                             133    0.0010 10.4 183 
 LD5  SE IS       1452 53.83                             133    0.0010 10.4 183 
 LD5  SZ  AML     1452 54.73         6.1 0.26                          10.4 183 
                                                                                
 2008 1118 1601 45.0 L  21.333 -99.273 10.0  RAL  1 0.5 0.7LRAL                1
 GAP=360        6.52     999.9   148.0  0.0  0.5005E+06  0.5661E+01  0.4515E+01E
 ACTION:UPD 12-06-08 11:37 OP:RALL STATUS:               ID:20081118160145     I
 2008-11-18-1601-32S.PLUR1_003                                                 6
 STAT SP IPHASW D HRMM SECON CODA AMPLIT PERI AZIMU VELO AIN AR TRES W  DIS CAZ7
 LZ4  SZ E        16 1 46.91                  272.4  9.5    -30        0.45 123 
 LZ4  SN IP       16 1 46.95                             177    0.1410 0.45 123 
 LZ4  SZ  AML     16 1 47.86        31.3 0.48                          0.45 123 
 LZ4  SE IS       16 1 48.00                             177   -0.1410 0.45 123 
                                                                                
 2008 1118 1634 39.6 L  21.254 -99.310 15.0  RAL  2 0.1 0.4LRAL                1
 GAP=187        1.04       4.8     1.0 11.9  0.3086E+01 -0.5251E+01 -0.3921E+02E
 ACTION:UPD 12-06-08 11:37 OP:RALL STATUS:               ID:20081118163439     I
 2008-11-18-1634-29S.PLUR1_006                                                 6
 STAT SP IPHASW D HRMM SECON CODA AMPLIT PERI AZIMU VELO AIN AR TRES W  DIS CAZ7
 LD5  SN IP       1634 42.66                             154    0.1410 7.53 188 
 LD5  SZ E        1634 42.67                    9.0 10.7      1        7.53 188 
 LD5  SE IS       1634 44.64                             154    0.0210 7.53 188 
 LD5  SZ  AML     1634 45.09         4.4 0.28                          7.53 188 
 LA4  SZ E        1634 44.42                  184.9  9.4      5        25.4   0 
 LA4  SN IP       1634 44.57                             119    0.0410 25.4   0 
 LA4  SE IS       1634 47.89                             119   -0.2010 25.4   0 
 LA4  SZ  AML     1634 50.84        11.9 0.60                          25.4   0 
                                                                                
 2008 1118 1725 44.0 L  21.284 -99.285 10.0  RAL  2 0.2 0.5LRAL                1
 GAP=205        2.64       8.2     3.3 40.3  0.1688E+02 -0.5610E+02 -0.2136E+03E
 ACTION:UPD 12-06-08 11:37 OP:RALL STATUS:               ID:20081118172544     I
 2008-11-18-1725-33S.PLUR1_006                                                 6
 STAT SP IPHASW D HRMM SECON CODA AMPLIT PERI AZIMU VELO AIN AR TRES W  DIS CAZ7
 LD5  SZ E        1725 46.37                    6.6 14.0    -11        11.4 199 
 LD5  SN IP       1725 46.41                             130   -0.2510 11.4 199 
 LD5  SE IS       1725 48.35                             130   -0.2310 11.4 199 
 LD5  SZ  AML     1725 48.80         5.0 0.16                          11.4 199 
 LA4  SZ E        1725 47.99                  169.8  9.1     -3        22.2 354 
 LA4  SN IP       1725 48.14                             111    0.0110 22.2 354 
 LA4  SE IS       1725 51.60                             111    0.4810 22.2 354 
 LA4  SZ  AML     1725 53.09        16.3 0.72                          22.2 354 
                                                                                
 2008 1118 2256 40.9 L  21.554 -99.556 10.0  RAL  1 0.0 0.6LRAL                1
 GAP=360        0.30       1.3     4.0  0.0 -0.4337E+01 -0.5610E+02 -0.2136E+03E
 ACTION:UPD 12-06-08 11:37 OP:RALL STATUS:               ID:20081118225640     I
 2008-11-18-2256-35S.PLUR1_003                                                 6
 STAT SP IPHASW D HRMM SECON CODA AMPLIT PERI AZIMU VELO AIN AR TRES W  DIS CAZ7
 LA4  SZ E        2256 44.77                  287.0 11.9      0        26.8 107 
 LA4  SN IP       2256 45.65                             107    0.0210 26.8 107 
 LA4  SE IS       2256 49.10                             107   -0.0210 26.8 107 
 LA4  SZ  AML     2256 49.66         9.0 0.24                          26.8 107 
                                                                                
 2008 1119 0236 49.2 L  21.306 -99.301 10.0  RAL  1 0.0 0.3LRAL                1
 GAP=360        0.35       7.2     9.4  0.0  0.6747E+02 -0.5610E+02 -0.2136E+03E
 ACTION:UPD 12-06-08 11:37 OP:RALL STATUS:               ID:20081119023649     I
 2008-11-19-0236-37S.PLUR1_003                                                 6
 STAT SP IPHASW D HRMM SECON CODA AMPLIT PERI AZIMU VELO AIN AR TRES W  DIS CAZ7
 LZ4  SN IP        236 51.27                             157    0.1310 4.29  50 
 LZ4  SZ E         236 51.30                  230.5 17.6      0        4.29  50 
 LZ4  SE IS        236 52.45                             157   -0.1310 4.29  50 
 LZ4  SZ  AML      236 52.50         9.3 0.48                          4.29  50 
                                                                                
 2008 1119 0421  0.1 L  21.482 -99.317 10.0  RAL  1 0.1 1.5LRAL                1
 GAP=360        1.06     999.9   233.0  0.0 -0.4959E+06 -0.5610E+02 -0.2136E+03E
 ACTION:UPD 12-06-08 11:37 OP:RALL STATUS:               ID:20081119042100     I
 2008-11-19-0420-47S.PLUR1_003                                                 6
 STAT SP IPHASW D HRMM SECON CODA AMPLIT PERI AZIMU VELO AIN AR TRES W  DIS CAZ7
 LA4  SZ E         421  2.03                  264.6 11.8      5        0.84  80 
 LA4  SN IP        421  2.05                             175    0.0810 0.84  80 
 LA4  SE IS        421  3.24                             175   -0.0810 0.84  80 
 LA4  SZ  AML      421  3.59       172.3 0.28                          0.84  80 
                                                                                
 2008 1119 0459 26.2 L  21.531 -99.456  0.0  RAL  2 0.2 1.2LRAL                1
 GAP=309        1.63       3.5     7.4152.9 -0.1949E+02  0.5591E+03 -0.1553E+03E
 ACTION:UPD 12-06-08 11:37 OP:RALL STATUS:               ID:20081119045926     I
 2008-11-19-0459-15S.PLUR1_006                                                 6
 STAT SP IPHASW D HRMM SECON CODA AMPLIT PERI AZIMU VELO AIN AR TRES W  DIS CAZ7
 LA4  SZ E         459 29.18                  290.9 10.3      2        16.1 109 
 LA4  SN IP        459 29.21                              94    0.2010 16.1 109 
 LA4  SE IS        459 30.40                              94   -0.6810 16.1 109 
 LA4  SZ  AML      459 30.62       424.0 0.28                          16.1 109 
 LD5  SN IP        459 33.60                              91    0.3010 40.7 160 
 LD5  SZ E         459 33.69                  333.2 11.1     -6        40.7 160 
 LD5  SE IS        459 38.68                              91    0.1810 40.7 160 
 LD5  SZ  AML      459 39.93         2.7 0.38                          40.7 160 
                                                                                
 2008 1119 0504 10.3 L  21.484 -99.311 10.0  RAL  1 0.0 0.4LRAL                1
 GAP=360        0.47     999.9   213.4  0.0  0.1347E+07  0.5591E+03 -0.1553E+03E
 ACTION:UPD 12-06-08 11:37 OP:RALL STATUS:               ID:20081119050410     I
 2008-11-19-0503-59S.PLUR1_003                                                 6
 STAT SP IPHASW D HRMM SECON CODA AMPLIT PERI AZIMU VELO AIN AR TRES W  DIS CAZ7
 LA4  SZ E         5 4 12.06                  272.6  9.9     -1        0.23  94 
 LA4  SN IP        5 4 12.20                             179    0.0810 0.23  94 
 LA4  SE IS        5 4 13.38                             179   -0.0810 0.23  94 
 LA4  SZ  AML      5 4 13.72        12.8 0.28                          0.23  94 
                                                                                
 2008 1119 0535  4.8 L  21.602 -99.403 10.0  RAL  1 0.0 1.3LRAL                1
 GAP=360        0.30       3.4     2.8  0.0 -0.9182E+01  0.5591E+03 -0.1553E+03E
 ACTION:UPD 12-06-08 11:37 OP:RALL STATUS:               ID:20081119053504     I
 2008-11-19-0534-54S.PLUR1_003                                                 6
 STAT SP IPHASW D HRMM SECON CODA AMPLIT PERI AZIMU VELO AIN AR TRES W  DIS CAZ7
 LA4  SZ E         535  8.03                  323.3  8.4      0        16.4 143 
 LA4  SN IP        535  8.10                             119    0.0110 16.4 143 
 LA4  SE IS        535 10.47                             119   -0.0110 16.4 143 
 LA4  SZ  AML      535 11.84        61.0 0.52                          16.4 143 
                                                                                
 2008 1119 0731  5.8 L  21.318 -99.300 10.0  RAL  1 0.0 0.6LRAL                1
 GAP=360        0.34       5.4    12.9  0.0  0.6958E+02  0.5591E+03 -0.1553E+03E
 ACTION:UPD 12-06-08 11:37 OP:RALL STATUS:               ID:20081119073105     I
 2008-11-19-0730-53S.PLUR1_003                                                 6
 STAT SP IPHASW D HRMM SECON CODA AMPLIT PERI AZIMU VELO AIN AR TRES W  DIS CAZ7
 LZ4  SN IP        731  7.81                             161    0.1110 3.47  66 
 LZ4  SZ E         731  7.86                  245.9 12.2      0        3.47  66 
 LZ4  SE IS        731  8.99                             161   -0.1110 3.47  66 
 LZ4  SZ  AML      731  9.18        22.6 0.32                          3.47  66 
                                                                                
 2008 1119 2259  0.8 Ly 21.273 -99.269 10.0  RAL  1 0.0-0.1LRAL                1
 GAP=360        0.30       4.4     2.6  0.0  0.1131E+02  0.5591E+03 -0.1553E+03E
 ACTION:UPD 12-06-08 11:37 OP:RALL STATUS:               ID:20081119225900     I
 2008-11-19-2258-50S.PLUR1_003                                                 6
 STAT SP IPHASW D HRMM SECON CODA AMPLIT PERI AZIMU VELO AIN AR TRES W  DIS CAZ7
 LD5  SZ E        2259  3.35                   29.1 10.8      0        10.9 209 
 LD5  SN IP       2259  3.39                             132    0.0210 10.9 209 
 LD5  SE IS       2259  5.22                             132   -0.0210 10.9 209 
 LD5  SZ  AML     2259  5.74         3.2 0.16                          10.9 209 
                                                                                
 2008 1120 0009 14.2 L  21.499 -99.339 10.0  RAL  1 0.1 1.2LRAL                1
 GAP=360        0.35       6.7    12.8  0.0 -0.8496E+02  0.5591E+03 -0.1553E+03E
 ACTION:UPD 12-06-08 11:37 OP:RALL STATUS:               ID:20081120000914     I
 2008-11-20-0009-01S.PLUR1_003                                                 6
 STAT SP IPHASW D HRMM SECON CODA AMPLIT PERI AZIMU VELO AIN AR TRES W  DIS CAZ7
 LA4  SZ E         0 9 16.27                  299.2 10.2      0        3.55 119 
 LA4  SN IP        0 9 16.30                             161    0.1310 3.55 119 
 LA4  SE IS        0 9 17.45                             161   -0.1310 3.55 119 
 LA4  SZ  AML      0 9 17.80        89.2 0.24                          3.55 119 
                                                                                
 2008 1120 0022 51.7 L  21.312 -99.304  3.9  RAL  3 0.3 0.9LRAL                1
 GAP=172        3.25       1.6     3.6 15.8  0.5222E+01  0.7192E+01  0.2893E+01E
 ACTION:UPD 12-06-08 11:37 OP:RALL STATUS:               ID:20081120002251     I
 2008-11-20-0022-38S.PLUR1_009                                                 6
 STAT SP IPHASW D HRMM SECON CODA AMPLIT PERI AZIMU VELO AIN AR TRES W  DIS CAZ7
 LZ4  SZ E         022 52.67                  249.0 13.5     10        4.16  59 
 LZ4  SN IP        022 52.67                             159   -0.1410 4.16  59 
 LZ4  SE IS        022 53.88                             159    0.2510 4.16  59 
 LZ4  SZ  AML      022 54.03       237.6 0.44                          4.16  59 
 LD5  SN IP        022 53.64                             100   -0.6410 14.0 187 
 LD5  SZ E         022 53.68                   20.4 10.6     13        14.0 187 
 LD5  SE IS        022 55.62                             100   -0.5510 14.0 187 
 LD5  SZ  AML      022 56.42         7.1 0.26                          14.0 187 
 LA4  SN IP        022 55.08                              97   -0.0510 19.0 358 
 LA4  SZ E         022 55.10                  173.5 10.0     -4        19.0 358 
 LA4  SE IS        022 58.77                              97    1.1310 19.0 358 
 LA4  SZ  AML      022 59.99        28.9 0.48                          19.0 358 
                                                                                
 2008 1120 0213 37.4 L  21.623 -99.381 10.0  RAL  1 0.0 0.5LRAL                1
 GAP=360        0.30       3.8     2.0  0.0 -0.7269E+01  0.7192E+01  0.2893E+01E
 ACTION:UPD 12-06-08 11:37 OP:RALL STATUS:               ID:20081120021337     I
 2008-11-20-0213-29S.PLUR1_003                                                 6
 STAT SP IPHASW D HRMM SECON CODA AMPLIT PERI AZIMU VELO AIN AR TRES W  DIS CAZ7
 LA4  SZ E         213 40.81                  334.3  7.9      0        17.2 154 
 LA4  SN IP        213 40.83                             118    0.0010 17.2 154 
 LA4  SE IS        213 43.29                             118    0.0010 17.2 154 
 LA4  SZ  AML      213 43.34         8.4 0.32                          17.2 154 
                                                                                
 2008 1120 0346 41.1 L  21.305 -99.301 10.0  RAL  1 0.0 0.3LRAL                1
 GAP=360        0.35       7.2     9.1  0.0  0.6559E+02  0.7192E+01  0.2893E+01E
 ACTION:UPD 12-06-08 11:37 OP:RALL STATUS:               ID:20081120034641     I
 2008-11-20-0346-29S.PLUR1_003                                                 6
 STAT SP IPHASW D HRMM SECON CODA AMPLIT PERI AZIMU VELO AIN AR TRES W  DIS CAZ7
 LZ4  SZ E         346 42.44                  229.6 31.2      0        4.33  50 
 LZ4  SN IP        346 43.23                             157    0.1210 4.33  50 
 LZ4  SE IS        346 44.42                             157   -0.1210 4.33  50 
 LZ4  SZ  AML      346 46.30        10.2 0.60                          4.33  50 
                                                                                
 2008 1120 0433 50.8 L  21.204 -99.306 10.0  RAL  1 0.2 0.9LRAL                1
 GAP=360        0.65      28.6    22.4  0.0  0.6390E+03  0.7192E+01  0.2893E+01E
 ACTION:UPD 12-06-08 11:37 OP:RALL STATUS:               ID:20081120043350     I
 2008-11-20-0433-38S.PLUR1_003                                                 6
 STAT SP IPHASW D HRMM SECON CODA AMPLIT PERI AZIMU VELO AIN AR TRES W  DIS CAZ7
 LD5  SZ E         433 53.01                   36.2 11.3      0        2.44 216 
 LD5  SN IP        433 53.02                             167    0.3910 2.44 216 
 LD5  SE IS        433 53.60                             167   -0.3910 2.44 216 
 LD5  SZ  AML      433 53.73        45.3 0.36                          2.44 216 
                                                                                
