 2008  3 1 2322 16.6 L  21.458 -99.456 26.8  RAL  2 1.1 0.3LRAL                1
 GAP=268       14.26      31.1    25.8122.8  0.6885E+03 -0.1110E+04 -0.1594E+04E
 ACTION:UPD 12-06-08 11:37 OP:RALL STATUS:               ID:20080301232216     I
 2008-03-01-2322-14S.PLUR1_006                                                 6
 STAT SP IPHASW D HRMM SECON CODA AMPLIT PERI AZIMU VELO AIN AR TRES W  DIS CAZ7
 LD3  SN IP       2322 23.44                             108    2.4410 0.25  63 
 LD3  SZ E        2322 23.62                  234.6 22.5     -7        0.25  63 
 LD3  SE IS       2322 24.49                             108    0.2810 0.25  63 
 LD3  SZ  AML     2322 24.61         7.1 0.22                          0.25  63 
 LD5  SN IP       2322 23.89                             144    0.4910 33.2 155 
 LD5  SZ E        2322 24.14                   41.2 11.4     66        33.2 155 
 LD5  SE IS       2322 25.16                             144   -3.2010 33.2 155 
 LD5  SZ  AML     2322 26.22         1.5 0.18                          33.2 155 
                                                                                
 2008  3 2 0503 15.5 L  21.029 -99.652  5.1  RAL  2 0.8 0.6LRAL                1
 GAP=320       10.86      62.9    75.0246.3  0.3841E+04 -0.1163E+05 -0.9713E+04E
 ACTION:UPD 12-06-08 11:37 OP:RALL STATUS:               ID:20080302050315     I
 2008-03-02-0503-16S.PLUR1_006                                                 6
 STAT SP IPHASW D HRMM SECON CODA AMPLIT PERI AZIMU VELO AIN AR TRES W  DIS CAZ7
 LD5  SZ E         5 3 23.01                  202.7 15.8    -39        38.6  63 
 LD5  SN IP        5 3 23.07                              63    1.4110 38.6  63 
 LD5  SE IS        5 3 25.44                              63   -0.7110 38.6  63 
 LD5  SZ  AML      5 3 26.41         5.6 0.48                          38.6  63 
 LD3  SZ E         5 3 24.53                  235.3  9.3     32        51.9  23 
 LD3  SN IP        5 3 24.77                              63    1.0410 51.9  23 
 LD3  SE IS        5 3 27.99                              63   -1.7410 51.9  23 
 LD3  SZ  AML      5 3 28.78         5.2 0.22                          51.9  23 
                                                                                
 2008  3 2 0913 56.0 L  21.184 -99.316 10.8  RAL  2 0.7-0.1LRAL                1
 GAP=331        4.95       6.0    14.2 30.0  0.8067E+02  0.5214E+01 -0.8004E+00E
 ACTION:UPD 12-06-08 11:37 OP:RALL STATUS:               ID:20080302091356     I
 2008-03-02-0913-51S.PLUR1_006                                                 6
 STAT SP IPHASW D HRMM SECON CODA AMPLIT PERI AZIMU VELO AIN AR TRES W  DIS CAZ7
 LD5  SZ E         913 59.80                  110.7 11.2    -14        0.52 306 
 LD5  SN IP        913 59.81                             179    1.9010 0.52 306 
 LD5  SE IS        914  0.91                             179    1.5810 0.52 306 
 LD5  SZ  AML      914  1.45         1.7 0.12                          0.52 306 
 LD3  SN IP     D  914  1.03                             109   -0.7710 33.7 335 
 LD3  SZ E         914  1.07                  157.9 10.0      3        33.7 335 
 LD3  SE IS        914  3.35                             109   -2.7110 33.7 335 
 LD3  SZ  AML      914  3.60         2.9 0.20                          33.7 335 
                                                                                
 2008  3 9 0219 40.9 L  21.019 -99.247  0.1  RAL  2 0.4 0.1LRAL                1
 GAP=349        4.28      45.7    26.5999.9 -0.1177E+04 -0.2664E+05  0.4686E+05E
 ACTION:UPD 12-06-08 11:37 OP:RALL STATUS:               ID:20080309021940     I
 2008-03-09-0219-35S.PLUR1_006                                                 6
 STAT SP IPHASW D HRMM SECON CODA AMPLIT PERI AZIMU VELO AIN AR TRES W  DIS CAZ7
 LD2  SZ E         219 44.51                  161.6  8.8     15        19.5 327 
 LD2  SE IS        219 45.36                              94   -1.46 0 19.5 327 
 LD2  SN IP        219 45.37                              94    1.0410 19.5 327 
 LD2  SZ  AML      219 46.45         4.5 0.40                          19.5 327 
 LD5  SZ E         219 44.71                  148.8 16.7     -8        20.0 338 
 LD5  SN IP        219 44.71                              93    0.2910 20.0 338 
 LD5  SE IS        219 45.66                              93   -1.3310 20.0 338 
 LD5  SZ  AML      219 46.83         3.3 0.58                          20.0 338 
                                                                                
 2008  311 2026 35.5 L  21.313 -99.348 10.0  RAL  2 0.8 0.4LRAL                1
 GAP=203       13.73      36.3    18.9252.7 -0.3918E+03  0.1601E+04 -0.4553E+04E
 ACTION:UPD 12-06-08 11:37 OP:RALL STATUS:               ID:20080311202635     I
 2008-03-11-2026-30S.PLUR1_006                                                 6
 STAT SP IPHASW D HRMM SECON CODA AMPLIT PERI AZIMU VELO AIN AR TRES W  DIS CAZ7
 LD5  SZ E        2026 39.52                   27.0  7.6     39        14.3 168 
 LD5  SN IP       2026 39.52                             123    0.9910 14.3 168 
 LD5  SE IS       2026 40.52                             123   -0.1910 14.3 168 
 LD5  SZ  AML     2026 41.59         8.5 0.56                          14.3 168 
 LD3  SZ E        2026 39.65                  200.2 12.4     54        19.5 326 
 LD3  SN IP       2026 39.65                             112    0.4010 19.5 326 
 LD3  SE IS       2026 40.77                             112   -1.2010 19.5 326 
 LD3  SZ  AML     2026 41.32         6.6 0.07                          19.5 326 
                                                                                
 2008  312 1222  8.0 L  21.799 -99.854100.0  RAL  3 0.6 2.3LRAL                1
 GAP=349        8.56     104.3   109.9136.1 -0.1042E+05  0.9671E+04 -0.9150E+04E
 ACTION:UPD 12-06-08 11:37 OP:RALL STATUS:               ID:20080312122208     I
 2008-03-12-1222-14S.PLUR1_009                                                 6
 STAT SP IPHASW D HRMM SECON CODA AMPLIT PERI AZIMU VELO AIN AR TRES W  DIS CAZ7
 LD3  SN IP       1222 23.34                             148    0.1810 55.9 132 
 LD3  SZ E        1222 23.55                  319.3 13.9      7        55.9 132 
 LD3  SE IS       1222 34.36                             148    0.1210 55.9 132 
 LD3  SZ  AML     1222 36.76        68.1 0.46                          55.9 132 
 LD2  SZ E        1222 25.31                  285.8 10.8    -37        87.4 143 
 LD2  SN IP       1222 26.59                             135    1.1110 87.4 143 
 LD2  SE IS     D 1222 39.11                             135    0.8610 87.4 143 
 LD2  SZ  AML     1222 40.87        86.7 0.64                          87.4 143 
 LD5  SZ E        1222 24.69                  349.9 10.1     29        87.5 141 
 LD5  SN IP       1222 25.01                             135   -0.4610 87.5 141 
 LD5  SE IS       1222 36.43                             135   -1.8010 87.5 141 
 LD5  SZ  AML     1222 38.34        88.1 0.44                          87.5 141 
                                                                                
 2008  312 1446 13.9 L  21.753 -98.923  5.5  RAL  3 1.2 1.9LRAL                1
 GAP=334       19.90     169.7   204.6999.9  0.2965E+05 -0.5007E+07 -0.3927E+07E
 ACTION:UPD 12-06-08 11:37 OP:RALL STATUS:               ID:20080312144613     I
 2008-03-12-1446-16S.PLUR1_009                                                 6
 STAT SP IPHASW D HRMM SECON CODA AMPLIT PERI AZIMU VELO AIN AR TRES W  DIS CAZ7
 LD3  SN IP       1446 25.27                              91    0.9710 63.9 239 
 LD3  SZ E        1446 25.31                    0.9 13.5    -57        63.9 239 
 LD3  SE IS       1446 31.99                              91    0.0910 63.9 239 
 LD3  SZ  AML     1446 34.51        61.6 0.46                          63.9 239 
 LD5  SZ E        1446 26.26                  354.4  8.5     39        75.0 213 
 LD5  SN IP       1446 26.40                              90    0.3810 75.0 213 
 LD5  SE IS       1446 34.28                              90   -0.6010 75.0 213 
 LD5  SZ  AML     1446 35.45        63.0 0.50                          75.0 213 
 LD2  SZ E        1446 27.15                  123.9 25.5     90        78.7 214 
 LD2  SN IP       1446 28.25                              90    1.6510 78.7 214 
 LD2  SE IS       1446 33.38                              90   -2.5010 78.7 214 
 LD2  SZ  AML     1446 38.48        88.5 0.48                          78.7 214 
                                                                                
 2008  312 1450 22.7 L  21.861 -99.196 10.0  RAL  2 0.9 1.2LRAL                1
 GAP=339       11.88     130.2    85.1999.9  0.8709E+04 -0.6889E+05 -0.1082E+06E
 ACTION:UPD 12-06-08 11:37 OP:RALL STATUS:               ID:20080312145022     I
 2008-03-12-1450-24S.PLUR1_009                                                 6
 STAT SP IPHASW D HRMM SECON CODA AMPLIT PERI AZIMU VELO AIN AR TRES W  DIS CAZ7
 LD3  SZ E        1450 32.76                  335.3 12.6     56        51.8 211 
 LD3  SN IP       1450 33.02                              97    1.7210 51.8 211 
 LD3  SE IS       1450 38.88                              97    1.3110 51.8 211 
 LD3  SZ  AML     1450 41.77        16.2 0.50                          51.8 211 
 LD5  SN IP       1450 34.25                              94   -0.7310 75.8 190 
 LD5  SZ E      D 1450 34.85                    4.5  8.1     -4        75.8 190 
 LD5  SE IS       1450 41.65                              94   -2.3010 75.8 190 
 LD5  SZ  AML     1450 43.36        11.8 0.48                          75.8 190 
                                                                                
 2008  315 1823 23.0 L  20.982 -99.688  5.1  RAL  2 1.4 1.0LRAL                1
 GAP=325       17.97     128.3   150.3455.1  0.1655E+05 -0.4874E+05 -0.4163E+05E
 ACTION:UPD 12-06-08 11:37 OP:RALL STATUS:               ID:20080315182323     I
 2008-03-15-1823-23S.PLUR1_006                                                 6
 STAT SP IPHASW D HRMM SECON CODA AMPLIT PERI AZIMU VELO AIN AR TRES W  DIS CAZ7
 LD2  SN IP       1823 32.37                              63    2.9510 40.6  60 
 LD2  SZ E        1823 32.41                  183.9  9.7    -55        40.6  60 
 LD2  SE IS       1823 34.16                              63    0.0310 40.6  60 
 LD2  SZ  AML     1823 36.02        12.6 0.32                          40.6  60 
 LD3  SZ E        1823 32.97                  268.0 15.0     63        58.2  25 
 LD3  SN IP       1823 33.03                              63    0.8710 58.2  25 
 LD3  SE IS       1823 35.02                              63   -3.8510 58.2  25 
 LD3  SZ  AML     1823 35.76        12.0 0.20                          58.2  25 
                                                                                
 2008  320 1455 13.2 L  21.269 -99.395  3.4  RAL  3 0.7 0.4LRAL                1
 GAP=241       12.12      12.1    14.2887.0 -0.1926E+02  0.2054E+04 -0.2655E+04E
 ACTION:UPD 12-06-08 11:37 OP:RALL STATUS:               ID:20080320145513     I
 2008-03-20-1455-05S.PLUR1_009                                                 6
 STAT SP IPHASW D HRMM SECON CODA AMPLIT PERI AZIMU VELO AIN AR TRES W  DIS CAZ7
 LD5  SZ E        1455 14.85                  307.2 14.3    -11        12.0 139 
 LD5  SN IP       1455 14.90                              95   -0.5110 12.0 139 
 LD5  SE IS       1455 16.66                              95   -0.3810 12.0 139 
 LD5  SZ  AML     1455 16.91         3.1 0.22                          12.0 139 
 LD1  SN IP       1455 15.66                              94   -0.1710 14.6  63 
 LD1  SZ E        1455 15.69                  279.6  7.6     37        14.6  63 
 LD1  SE IS       1455 18.07                              94    0.3010 14.6  63 
 LD1  SZ  AML     1455 18.78        29.2 0.44                          14.6  63 
 LD4  SZ E        1455 17.50                  142.6  8.5    -57        25.4  21 
 LD4  SN IP       1455 17.69                              93    0.0110 25.4  21 
 LD4  SE IS       1455 21.74                              93    0.7610 25.4  21 
 LD4  SZ  AML     1455 22.56         7.3 0.34                          25.4  21 
                                                                                
 2008  322 1415 37.5 L  21.223 -99.300 10.0  RAL  1 0.0 0.6LRAL                1
 GAP=360        0.31       8.6     4.8  0.0  0.4101E+02  0.2054E+04 -0.2655E+04E
 ACTION:UPD 12-06-08 11:37 OP:RALL STATUS:               ID:20080322141537     I
 2008-03-22-1415-30S.PLUR1_009                                                 6
 STAT SP IPHASW D HRMM SECON CODA AMPLIT PERI AZIMU VELO AIN AR TRES W  DIS CAZ7
 LD5  SN IP       1415 39.53                             156    0.0710 4.53 207 
 LD5  SZ E        1415 39.80                   27.2  8.7      0        4.53 207 
 LD5  SE IS       1415 40.83                             156   -0.0710 4.53 207 
 LD5  SZ  AML     1415 41.89        22.2 0.56                          4.53 207 
                                                                                
 2008  326 2059 43.9 L                       RAL  0                            1
 ACTION:UPD 12-06-08 11:37 OP:RALL STATUS:               ID:20080326205943     I
 2008-03-26-2059-43S.PLUR1_003                                                 6
 STAT SP IPHASW D HRMM SECON CODA AMPLIT PERI AZIMU VELO AIN AR TRES W  DIS CAZ7
                                                                                
