 2008  820 0951  3.0 L  21.222 -99.207  0.0  RAL  2 0.5 0.7LRAL                1
 GAP=352        8.93      71.0    39.8874.8 -0.2696E+04 -0.1914E+05  0.3468E+05E
 ACTION:UPD 12-06-08 11:37 OP:RALL STATUS:               ID:20080820095103     I
 2008-08-20-0950-56S.PLUR1_006                                                 6
 STAT SP IPHASW D HRMM SECON CODA AMPLIT PERI AZIMU VELO AIN AR TRES W  DIS CAZ7
 LZ4  SN IP        951  5.69                              94    0.3210 13.7 332 
 LZ4  SZ E         951  5.73                  167.4 11.6     16        13.7 332 
 LZ4  SE IS        951  6.51                              94   -0.6110 13.7 332 
 LZ4  SZ  AML      951  7.96        44.1 0.20                          13.7 332 
 LA4  SN IP        951  8.96                              92    0.6010 30.9 340 
 LA4  SZ E         951  9.48                  119.4 14.7    -40        30.9 340 
 LA4  SE IS        951 11.99                              92   -0.3110 30.9 340 
 LA4  SZ  AML      951 12.70         5.3 0.24                          30.9 340 
                                                                                
 2008  823 0336 54.0 L  22.215 -99.778  4.4  RAL  2 0.2 1.9LRAL                1
 GAP=357        2.02     481.5   298.4999.9 -0.1435E+06 -0.3199E+06  0.5165E+06E
 ACTION:UPD 12-06-08 11:37 OP:RALL STATUS:               ID:20080823033654     I
 2008-08-23-0337-00S.PLUR1_006                                                 6
 STAT SP IPHASW D HRMM SECON CODA AMPLIT PERI AZIMU VELO AIN AR TRES W  DIS CAZ7
 LA4  SZ E         337  9.24                  335.1 14.4      6        94.4 149 
 LA4  SN IP        337  9.65                              63    0.4510 94.4 149 
 LA4  SE IS        337 20.03                              63   -0.2610 94.4 149 
 LZ4  SN IP        337 11.37                              63   -0.4210  111 152 
 LZ4  SZ E         337 11.80                  324.9  8.5     -6         111 152 
 LZ4  SE IS     D  337 25.01                              63    0.2310  111 152 
 LZ4  SZ  AML      337 27.49        45.2 0.36                           111 152 
                                                                                
 2008  823 0827  3.0 L  21.343 -99.296 10.0  RAL  1 0.1 0.7LRAL                1
 GAP=360        0.43       8.1    18.3  0.0 -0.1486E+03 -0.3199E+06  0.5165E+06E
 ACTION:UPD 12-06-08 11:37 OP:RALL STATUS:               ID:20080823082703     I
 2008-08-23-0826-55S.PLUR1_006                                                 6
 STAT SP IPHASW D HRMM SECON CODA AMPLIT PERI AZIMU VELO AIN AR TRES W  DIS CAZ7
 LZ4  SZ E         827  5.09                  295.5  8.2      0        3.07 115 
 LZ4  SN IP        827  5.11                             163    0.2110 3.07 115 
 LZ4  SE IS        827  6.07                             163   -0.2110 3.07 115 
 LZ4  SZ  AML      827  6.15        28.0 0.16                          3.07 115 
                                                                                
 2008  823 1420 48.4 L  21.631 -99.268 10.0  RAL  1 0.0 0.6LRAL                1
 GAP=360        0.30       4.1     1.2  0.0  0.4623E+01 -0.3199E+06  0.5165E+06E
 ACTION:UPD 12-06-08 11:37 OP:RALL STATUS:               ID:20080823142048     I
 2008-08-23-1420-44S.PLUR1_006                                                 6
 STAT SP IPHASW D HRMM SECON CODA AMPLIT PERI AZIMU VELO AIN AR TRES W  DIS CAZ7
 LA4  SZ E        1420 51.75                   14.7  9.7      0        16.8 195 
 LA4  SN IP       1420 51.76                             119    0.0010 16.8 195 
 LA4  SE IS     C 1420 54.19                             119    0.0010 16.8 195 
 LA4  SZ  AML     1420 55.38        12.7 0.32                          16.8 195 
                                                                                
 2008  823 1449 13.0 L  22.134 -99.410  0.0  RAL  2 0.2 2.0LRAL                1
 GAP=359        2.57     999.9   236.0999.9 -0.3357E+06 -0.6566E+06  0.3972E+07E
 ACTION:UPD 12-06-08 11:37 OP:RALL STATUS:               ID:20080823144913     I
 2008-08-23-1449-17S.PLUR1_006                                                 6
 STAT SP IPHASW D HRMM SECON CODA AMPLIT PERI AZIMU VELO AIN AR TRES W  DIS CAZ7
 LA4  SN IP       1449 24.96                              63   -0.2110 72.7 172 
 LA4  SZ E        1449 24.99                  359.5  8.6      8        72.7 172 
 LA4  SE IS       1449 33.80                              63   -0.2610 72.7 172 
 LA4  SZ  AML     1449 36.81        62.6 0.60                          72.7 172 
 LZ4  SZ E        1449 27.84                  341.2 11.2     -9        90.1 171 
 LZ4  SN IP     D 1449 28.04                              63    0.1910 90.1 171 
 LZ4  SE IS       1449 38.99                              63    0.2810 90.1 171 
 LZ4  SZ  AML     1449 43.46        95.3 0.48                          90.1 171 
                                                                                
 2008  825 1503 57.6 L  21.832 -99.389  0.1  RAL  2 0.3 1.5LRAL                1
 GAP=360        4.58      36.3    16.0 36.9 -0.2708E+03 -0.1931E+01 -0.2936E+01E
 ACTION:UPD 12-06-08 11:37 OP:RALL STATUS:               ID:20080825150357     I
 2008-08-25-1503-55S.PLUR1_006                                                 6
 STAT SP IPHASW D HRMM SECON CODA AMPLIT PERI AZIMU VELO AIN AR TRES W  DIS CAZ7
 LA4  SZ E        15 4  4.16                    0.3  7.8     12        39.4 168 
 LA4  SN IP       15 4  4.26                              92   -0.2610 39.4 168 
 LA4  SE IS       15 4  8.89                              92   -0.6610 39.4 168 
 LA4  SZ  AML     15 4 12.58        50.2 0.28                          39.4 168 
 LZ4  SZ E        15 4  7.21                  329.8  9.0    -17        56.8 167 
 LZ4  SN IP       15 4  7.31                              63   -0.0210 56.8 167 
 LZ4  SZ  AML     15 4 15.01        39.3 0.48                          56.8 167 
 LZ4  SE IS     D 15 4 15.36                              63    0.9510 56.8 167 
                                                                                
 2008  826 0029 37.7 L  22.090 -99.791  6.7  RAL  2 0.2 1.1LRAL                1
 GAP=356        1.40     192.2   145.7454.2 -0.2792E+05 -0.6599E+05  0.8715E+05E
 ACTION:UPD 12-06-08 11:37 OP:RALL STATUS:               ID:20080826002937     I
 2008-08-26-0029-41S.PLUR1_006                                                 6
 STAT SP IPHASW D HRMM SECON CODA AMPLIT PERI AZIMU VELO AIN AR TRES W  DIS CAZ7
 LA4  SZ E         029 50.96                  326.5 14.9      3        83.7 143 
 LA4  SN IP        029 51.00                              63   -0.2210 83.7 143 
 LA4  SE IS        030  0.53                              63   -0.5310 83.7 143 
 LA4  SZ  AML      030  1.04         9.8 0.24                          83.7 143 
 LZ4  SZ E         029 53.94                  322.9  6.5     -3        99.9 147 
 LZ4  SN IP     C  029 54.02                              63    0.2810 99.9 147 
 LZ4  SE IS     C  030  5.89                              63    0.4710 99.9 147 
 LZ4  SZ  AML      030  8.31         7.4 0.20                          99.9 147 
                                                                                
 2008  827 0013 18.7 L  22.237 -99.398  3.7  RAL  2 0.3 1.9LRAL                1
 GAP=359        4.57     999.9   304.1999.9 -0.7136E+06 -0.1389E+07  0.1081E+08E
 ACTION:UPD 12-06-08 11:37 OP:RALL STATUS:               ID:20080827001318     I
 2008-08-27-0013-24S.PLUR1_006                                                 6
 STAT SP IPHASW D HRMM SECON CODA AMPLIT PERI AZIMU VELO AIN AR TRES W  DIS CAZ7
 LA4  SZ E         013 31.94                    8.0 10.0     14        83.9 174 
 LA4  SN IP        013 32.18                              63   -0.1110 83.9 174 
 LA4  SE IS        013 42.02                              63   -0.2210 83.9 174 
 LA4  SZ  AML      013 47.57        39.4 0.44                          83.9 174 
 LZ4  SZ E         013 35.05                  335.4  9.3    -16         101 172 
 LZ4  SN IP        013 35.08                              63    0.1110  101 172 
 LZ4  SE IS        013 47.10                              63    0.2310  101 172 
 LZ4  SZ  AML      013 53.97        60.9 0.44                           101 172 
                                                                                
 2008  828 1834 18.7 L                       RAL  0                            1
 ACTION:UPD 12-06-08 11:37 OP:RALL STATUS:               ID:20080828183418     I
 2008-08-28-1834-18S.PLUR1_006                                                 6
 STAT SP IPHASW D HRMM SECON CODA AMPLIT PERI AZIMU VELO AIN AR TRES W  DIS CAZ7
                                                                                
