 2008  925 0045 52.0 L  22.106 -99.525 10.0  RAL  1 0.0 1.6LRAL                1
 GAP=360        0.30       3.6     2.7  0.0 -0.2542E+01  0.5990E+02 -0.4624E+03E
 ACTION:UPD 12-06-08 11:37 OP:RALL STATUS:               ID:20080925004552     I
 2008-09-25-0045-54S.PLUR1_003                                                 6
 STAT SP IPHASW D HRMM SECON CODA AMPLIT PERI AZIMU VELO AIN AR TRES W  DIS CAZ7
 LZ4  SN IP        046  6.47                              94    0.0110 89.8 163 
 LZ4  SZ E         046  7.30                  342.9  8.5      0        89.8 163 
 LZ4  SE IS        046 17.00                              94   -0.0110 89.8 163 
 LZ4  SZ  AML      046 22.36        26.8 0.64                          89.8 163 
                                                                                
 2008  925 0226 52.1 L  21.673 -99.314 10.0  RAL  1 0.0 0.9LRAL                1
 GAP=360        0.30       4.0     0.6  0.0 -0.3848E+00  0.5990E+02 -0.4624E+03E
 ACTION:UPD 12-06-08 11:37 OP:RALL STATUS:               ID:20080925022652     I
 2008-09-25-0226-44S.PLUR1_006                                                 6
 STAT SP IPHASW D HRMM SECON CODA AMPLIT PERI AZIMU VELO AIN AR TRES W  DIS CAZ7
 LA4  SN IP        226 56.07                             112    0.0110 21.0 179 
 LA4  SZ E         226 56.09                  358.7  8.6      0        21.0 179 
 LA4  SE IS        226 58.90                             112   -0.0110 21.0 179 
 LA4  SZ  AML      226 59.52        18.6 0.56                          21.0 179 
                                                                                
 2008  925 0312 21.5 L  21.354 -99.289 10.0  RAL  1 0.1 0.6LRAL                1
 GAP=360        0.47      15.2    12.6  0.0 -0.1914E+03  0.5990E+02 -0.4624E+03E
 ACTION:UPD 12-06-08 11:37 OP:RALL STATUS:               ID:20080925031221     I
 2008-09-25-0312-10S.PLUR1_003                                                 6
 STAT SP IPHASW D HRMM SECON CODA AMPLIT PERI AZIMU VELO AIN AR TRES W  DIS CAZ7
 LZ4  SN IP        312 23.68                             162    0.2510 3.30 142 
 LZ4  SZ E         312 23.78                  322.2 20.8      0        3.30 142 
 LZ4  SE IS        312 24.58                             162   -0.2510 3.30 142 
 LZ4  SZ  AML      312 24.69        23.7 0.36                          3.30 142 
                                                                                
 2008  925 0758 34.0 L  21.348 -99.293 10.0  RAL  1 0.1 0.5LRAL                1
 GAP=360        0.50      13.0    18.3  0.0 -0.2366E+03  0.5990E+02 -0.4624E+03E
 ACTION:UPD 12-06-08 11:37 OP:RALL STATUS:               ID:20080925075834     I
 2008-09-25-0758-22S.PLUR1_003                                                 6
 STAT SP IPHASW D HRMM SECON CODA AMPLIT PERI AZIMU VELO AIN AR TRES W  DIS CAZ7
 LZ4  SZ E         758 36.08                  307.3  9.6      0        3.11 127 
 LZ4  SN IP        758 36.13                             163    0.2710 3.11 127 
 LZ4  SE IS        758 36.98                             163   -0.2710 3.11 127 
 LZ4  SZ  AML      758 37.54        18.0 0.40                          3.11 127 
                                                                                
 2008  925 0937 59.2 L  21.656 -99.404 10.0  RAL  1 0.0 0.6LRAL                1
 GAP=360        0.30       3.5     2.0  0.0 -0.6794E+01  0.5990E+02 -0.4624E+03E
 ACTION:UPD 12-06-08 11:37 OP:RALL STATUS:               ID:20080925093759     I
 2008-09-25-0937-52S.PLUR1_006                                                 6
 STAT SP IPHASW D HRMM SECON CODA AMPLIT PERI AZIMU VELO AIN AR TRES W  DIS CAZ7
 LA4  SZ E         938  3.07                  332.8  7.6      0        21.4 153 
 LA4  SN IP        938  3.15                             112    0.0010 21.4 153 
 LA4  SE IS        938  6.05                             112    0.0010 21.4 153 
 LA4  SZ  AML      938  7.13        11.0 0.48                          21.4 153 
                                                                                
 2008  925 0946 58.6 L  21.311 -99.300 10.0  RAL  1 0.1 0.7LRAL                1
 GAP=360        0.36       7.1    11.3  0.0  0.8030E+02  0.5990E+02 -0.4624E+03E
 ACTION:UPD 12-06-08 11:37 OP:RALL STATUS:               ID:20080925094658     I
 2008-09-25-0946-46S.PLUR1_003                                                 6
 STAT SP IPHASW D HRMM SECON CODA AMPLIT PERI AZIMU VELO AIN AR TRES W  DIS CAZ7
 LZ4  SZ E         947  0.63                  236.0 18.9      0        3.87  56 
 LZ4  SN IP        947  0.66                             159    0.1410 3.87  56 
 LZ4  SE IS        947  1.80                             159   -0.1410 3.87  56 
 LZ4  SZ  AML      947  2.25        27.0 0.52                          3.87  56 
                                                                                
 2008  925 1619  8.3 R  22.238 -99.819 10.0  RAL  1 0.0 1.8LRAL                1
 GAP=360        0.30       3.5     3.4  0.0 -0.2225E+01  0.5990E+02 -0.4624E+03E
 ACTION:UPD 12-06-08 11:37 OP:RALL STATUS:               ID:20080925161908     I
 2008-09-25-1619-12S.PLUR1_003                                                 6
 STAT SP IPHASW D HRMM SECON CODA AMPLIT PERI AZIMU VELO AIN AR TRES W  DIS CAZ7
 LZ4  SZ E        1619 26.68                  330.6  8.8      0         115 150 
 LZ4  SN IP       1619 26.70                              93    0.0010  115 150 
 LZ4  SE IS       1619 40.15                              93    0.0010  115 150 
 LZ4  SZ  AML     1619 45.42        29.5 0.32                           115 150 
                                                                                
 2008  925 1739 57.4 L  21.332 -99.283 10.0  RAL  1 0.1 0.3LRAL                1
 GAP=360        0.53     907.3   115.3  0.0  0.1046E+06  0.5990E+02 -0.4624E+03E
 ACTION:UPD 12-06-08 11:37 OP:RALL STATUS:               ID:20080925173957     I
 2008-09-25-1739-46S.PLUR1_003                                                 6
 STAT SP IPHASW D HRMM SECON CODA AMPLIT PERI AZIMU VELO AIN AR TRES W  DIS CAZ7
 LZ4  SZ E        1739 59.44                  274.6 12.0      1        1.44  94 
 LZ4  SN IP       1739 59.49                             172    0.2710 1.44  94 
 LZ4  SE IS       1740  0.29                             172   -0.2710 1.44  94 
 LZ4  SZ  AML     1740  0.45        12.4 0.24                          1.44  94 
                                                                                
 2008  925 1744 55.1 L  21.248 -99.280 10.0  RAL  1 0.0 0.3LRAL                1
 GAP=360        0.30       5.4     0.7  0.0  0.3717E+01  0.5990E+02 -0.4624E+03E
 ACTION:UPD 12-06-08 11:37 OP:RALL STATUS:               ID:20080925174455     I
 2008-09-25-1744-45S.PLUR1_003                                                 6
 STAT SP IPHASW D HRMM SECON CODA AMPLIT PERI AZIMU VELO AIN AR TRES W  DIS CAZ7
 LZ4  SZ E        1744 57.43                  186.8 15.1      0        9.19   7 
 LZ4  SN IP       1744 57.46                             137    0.0010 9.19   7 
 LZ4  SE IS       1744 59.19                             137    0.0010 9.19   7 
 LZ4  SZ  AML     1744 59.62         8.1 0.48                          9.19   7 
                                                                                
 2008  925 1900 51.9 L  21.335 -99.282 10.0  RAL  1 0.1-0.2LRAL                1
 GAP=360        0.55     999.9   523.5  0.0  0.5782E+06  0.5990E+02 -0.4624E+03E
 ACTION:UPD 12-06-08 11:37 OP:RALL STATUS:               ID:20080925190051     I
 2008-09-25-1900-40S.PLUR1_003                                                 6
 STAT SP IPHASW D HRMM SECON CODA AMPLIT PERI AZIMU VELO AIN AR TRES W  DIS CAZ7
 LZ4  SZ E        19 0 53.93                  292.0 12.7      1        1.39 111 
 LZ4  SN IP       19 0 54.02                             172    0.3010 1.39 111 
 LZ4  SE IS       19 0 54.77                             172   -0.3010 1.39 111 
 LZ4  SZ  AML     19 0 55.83         3.5 0.44                          1.39 111 
                                                                                
 2008  925 1935 11.5 L  21.632 -99.347 10.0  RAL  1 0.0 0.5LRAL                1
 GAP=360        0.30       4.1     1.1  0.0 -0.4202E+01  0.5990E+02 -0.4624E+03E
 ACTION:UPD 12-06-08 11:37 OP:RALL STATUS:               ID:20080925193511     I
 2008-09-25-1935-03S.PLUR1_003                                                 6
 STAT SP IPHASW D HRMM SECON CODA AMPLIT PERI AZIMU VELO AIN AR TRES W  DIS CAZ7
 LA4  SZ E        1935 14.75                  346.7 10.3      0        16.9 167 
 LA4  SN IP       1935 14.80                             118    0.0010 16.9 167 
 LA4  SZ  AML     1935 17.24         9.9 0.20                          16.9 167 
 LA4  SE IS       1935 17.24                             118    0.0010 16.9 167 
                                                                                
 2008  925 2122 48.2 L                       RAL  0                            1
 ACTION:UPD 12-06-08 11:37 OP:RALL STATUS:               ID:20080925212248     I
 2008-09-25-2122-48S.PLUR1_003                                                 6
 STAT SP IPHASW D HRMM SECON CODA AMPLIT PERI AZIMU VELO AIN AR TRES W  DIS CAZ7
                                                                                
 2008  925 2204 48.5 L  22.246 -99.332 10.0  RAL  1 0.0 1.5LRAL                1
 GAP=360        0.30       3.7     2.4  0.0 -0.2716E+00  0.5990E+02 -0.4624E+03E
 ACTION:UPD 12-06-08 11:37 OP:RALL STATUS:               ID:20080925220448     I
 2008-09-25-2204-53S.PLUR1_003                                                 6
 STAT SP IPHASW D HRMM SECON CODA AMPLIT PERI AZIMU VELO AIN AR TRES W  DIS CAZ7
 LA4  SN IP       22 5  2.12                              94    0.0110 84.5 178 
 LA4  SZ E        22 5  2.30                  358.4  9.1      0        84.5 178 
 LA4  SZ  AML     22 5 11.47        19.7 0.52                          84.5 178 
 LA4  SE IS       22 5 12.06                              94   -0.0110 84.5 178 
                                                                                
 2008  926 0022 37.5 L  21.773 -99.294 10.0  RAL  1 0.0 1.0LRAL                1
 GAP=360        0.30       3.8     0.9  0.0  0.6968E+00  0.5990E+02 -0.4624E+03E
 ACTION:UPD 12-06-08 11:37 OP:RALL STATUS:               ID:20080926002237     I
 2008-09-26-0022-33S.PLUR1_003                                                 6
 STAT SP IPHASW D HRMM SECON CODA AMPLIT PERI AZIMU VELO AIN AR TRES W  DIS CAZ7
 LA4  SZ E         022 43.02                    2.7 12.0      0        32.1 183 
 LA4  SN IP        022 43.10                             103    0.0110 32.1 183 
 LA4  SE IS        022 47.15                             103   -0.0110 32.1 183 
 LA4  SZ  AML      022 47.74        17.5 0.44                          32.1 183 
                                                                                
 2008  926 0240 53.9 L  21.762 -99.328 10.0  RAL  1 0.0 0.8LRAL                1
 GAP=360        0.30       3.8     0.9  0.0 -0.9629E+00  0.5990E+02 -0.4624E+03E
 ACTION:UPD 12-06-08 11:37 OP:RALL STATUS:               ID:20080926024053     I
 2008-09-26-0240-49S.PLUR1_003                                                 6
 STAT SP IPHASW D HRMM SECON CODA AMPLIT PERI AZIMU VELO AIN AR TRES W  DIS CAZ7
 LA4  SN IP        240 59.25                             104    0.0110 30.8 176 
 LA4  SZ E         240 59.45                  356.3 14.6      0        30.8 176 
 LA4  SE IS        241  3.16                             104   -0.0110 30.8 176 
 LA4  SZ  AML      241  5.56        12.6 0.68                          30.8 176 
                                                                                
 2008  926 0312 15.6 L  21.597 -99.337 10.0  RAL  1 0.0 0.4LRAL                1
 GAP=360        0.30       4.5     1.2  0.0 -0.4919E+01  0.5990E+02 -0.4624E+03E
 ACTION:UPD 12-06-08 11:37 OP:RALL STATUS:               ID:20080926031215     I
 2008-09-26-0312-06S.PLUR1_003                                                 6
 STAT SP IPHASW D HRMM SECON CODA AMPLIT PERI AZIMU VELO AIN AR TRES W  DIS CAZ7
 LA4  SN IP        312 18.42                             127    0.0010 12.9 167 
 LA4  SZ E         312 18.50                  347.2  7.5      0        12.9 167 
 LA4  SE IS        312 20.47                             127    0.0010 12.9 167 
 LA4  SZ  AML      312 21.61         8.0 0.80                          12.9 167 
                                                                                
 2008  926 0351 42.6 L  21.358 -99.305 16.4  RAL  2 0.2 1.1LRAL                1
 GAP=230        1.15       1.2     1.5 10.7 -0.1697E+01  0.1476E+01 -0.1237E+01E
 ACTION:UPD 12-06-08 11:37 OP:RALL STATUS:               ID:20080926035142     I
 2008-09-26-0351-31S.PLUR1_006                                                 6
 STAT SP IPHASW D HRMM SECON CODA AMPLIT PERI AZIMU VELO AIN AR TRES W  DIS CAZ7
 LZ4  SN IP        351 46.02                             165    0.5110 4.77 129 
 LZ4  SZ E         351 46.03                  307.8  6.6      0        4.77 129 
 LZ4  SE IS        351 47.97                             165    0.3210 4.77 129 
 LZ4  SZ  AML      351 49.10        48.3 0.20                          4.77 129 
 LA4  SN IP        351 46.19                             139   -0.0210 13.9 358 
 LA4  SZ E         351 46.25                  176.5 11.1     -1        13.9 358 
 LA4  SE IS        351 48.06                             139   -0.8010 13.9 358 
 LA4  SZ  AML      351 50.42        31.8 0.36                          13.9 358 
                                                                                
 2008  926 0405 29.1 L  21.366 -99.311 10.3  RAL  3 0.2 0.8LRAL                1
 GAP=178        3.27       3.2     3.1 24.3 -0.7671E+01  0.1942E+01  0.1917E+00E
 ACTION:UPD 12-06-08 11:37 OP:RALL STATUS:               ID:20080926040529     I
 2008-09-26-0405-17S.PLUR1_009                                                 6
 STAT SP IPHASW D HRMM SECON CODA AMPLIT PERI AZIMU VELO AIN AR TRES W  DIS CAZ7
 LZ4  SZ E         4 5 31.03                  311.2  6.6     -1        5.81 133 
 LZ4  SN IP        4 5 31.03                             151   -0.1510 5.81 133 
 LZ4  SE IS        4 5 32.84                             151    0.1210 5.81 133 
 LZ4  SZ  AML      4 5 33.46        72.7 0.16                          5.81 133 
 LA4  SZ E         4 5 31.33                  169.3  9.9    -10        13.0   1 
 LA4  SN IP        4 5 31.35                             128   -0.5810 13.0   1 
 LA4  SE IS        4 5 33.73                             128   -0.2910 13.0   1 
 LA4  SZ  AML      4 5 35.05        79.2 0.60                          13.0   1 
 LD5  SN IP        4 5 32.96                             115    0.1110 19.9 183 
 LD5  SZ E         4 5 32.96                  348.9 10.7     14        19.9 183 
 LD5  SE IS        4 5 36.39                             115    0.7810 19.9 183 
 LD5  SZ  AML      4 5 37.62         2.5 0.18                          19.9 183 
                                                                                
 2008  926 0408 52.3 L  21.581 -99.414 10.0  RAL  1 0.0 0.4LRAL                1
 GAP=360        0.30       3.1     3.3  0.0 -0.1002E+02  0.1942E+01  0.1917E+00E
 ACTION:UPD 12-06-08 11:37 OP:RALL STATUS:               ID:20080926040852     I
 2008-09-26-0408-42S.PLUR1_003                                                 6
 STAT SP IPHASW D HRMM SECON CODA AMPLIT PERI AZIMU VELO AIN AR TRES W  DIS CAZ7
 LA4  SZ E         4 8 54.97                  315.0 15.7      0        15.3 135 
 LA4  SN IP        4 8 55.42                             121    0.0110 15.3 135 
 LA4  SE IS        4 8 57.68                             121   -0.0110 15.3 135 
 LA4  SZ  AML      4 8 58.34         8.1 0.28                          15.3 135 
                                                                                
 2008  926 0418 45.0 L  21.619 -99.306 10.0  RAL  1 0.0 0.6LRAL                1
 GAP=360        0.30       4.4     0.4  0.0  0.4301E+00  0.1942E+01  0.1917E+00E
 ACTION:UPD 12-06-08 11:37 OP:RALL STATUS:               ID:20080926041845     I
 2008-09-26-0418-35S.PLUR1_003                                                 6
 STAT SP IPHASW D HRMM SECON CODA AMPLIT PERI AZIMU VELO AIN AR TRES W  DIS CAZ7
 LA4  SN IP        418 48.14                             122    0.0210 15.0 181 
 LA4  SZ E         418 48.40                    1.2  9.0      0        15.0 181 
 LA4  SE IS        418 50.35                             122   -0.0210 15.0 181 
 LA4  SZ  AML      418 51.11        12.2 0.24                          15.0 181 
                                                                                
 2008  926 0802 54.5 L  21.649 -99.445 10.0  RAL  1 0.0 1.0LRAL                1
 GAP=360        0.30       3.4     2.1  0.0 -0.5746E+01  0.1942E+01  0.1917E+00E
 ACTION:UPD 12-06-08 11:37 OP:RALL STATUS:               ID:20080926080254     I
 2008-09-26-0802-48S.PLUR1_003                                                 6
 STAT SP IPHASW D HRMM SECON CODA AMPLIT PERI AZIMU VELO AIN AR TRES W  DIS CAZ7
 LZ4  SN IP        8 3  1.20                             100    0.0110 39.7 153 
 LZ4  SZ E         8 3  1.26                  332.7  9.0      0        39.7 153 
 LZ4  SE IS        8 3  6.07                             100   -0.0110 39.7 153 
 LZ4  SZ  AML      8 3 11.02        15.3 0.36                          39.7 153 
                                                                                
 2008  926 0807  2.7 L  21.352 -99.313 10.0  RAL  1 0.0 0.7LRAL                1
 GAP=360        0.31       4.0     8.1  0.0 -0.3261E+02  0.1942E+01  0.1917E+00E
 ACTION:UPD 12-06-08 11:37 OP:RALL STATUS:               ID:20080926080702     I
 2008-09-26-0806-50S.PLUR1_003                                                 6
 STAT SP IPHASW D HRMM SECON CODA AMPLIT PERI AZIMU VELO AIN AR TRES W  DIS CAZ7
 LZ4  SZ E         8 7  4.73                  297.9  7.9      0        5.11 118 
 LZ4  SN IP        8 7  4.80                             153    0.0610 5.11 118 
 LZ4  SZ  AML      8 7  5.78        28.4 0.16                          5.11 118 
 LZ4  SE IS     D  8 7  6.16                             153   -0.0610 5.11 118 
                                                                                
 2008  926 0845  7.2 L  21.265 -99.280 10.0  RAL  1 0.0 0.5LRAL                1
 GAP=360        0.30       6.2     1.0  0.0  0.5945E+01  0.1942E+01  0.1917E+00E
 ACTION:UPD 12-06-08 11:37 OP:RALL STATUS:               ID:20080926084507     I
 2008-09-26-0844-56S.PLUR1_003                                                 6
 STAT SP IPHASW D HRMM SECON CODA AMPLIT PERI AZIMU VELO AIN AR TRES W  DIS CAZ7
 LZ4  SZ E         845  9.36                  188.3 10.3      0        7.42   8 
 LZ4  SN IP     D  845  9.44                             144    0.0110 7.42   8 
 LZ4  SE IS        845 11.03                             144   -0.0110 7.42   8 
 LZ4  SZ  AML      845 11.60        14.5 0.28                          7.42   8 
                                                                                
