 2008  513 2353 46.4 L  21.626 -99.453  0.0  RAL  2 0.2 1.7LRAL                1
 GAP=346        1.23       8.6     5.2 10.1 -0.3124E+02  0.5115E+01  0.1177E+01E
 ACTION:UPD 12-06-08 11:37 OP:RALL STATUS:               ID:20080513235346     I
 2008-05-13-2353-43S.PLUR1_006                                                 6
 STAT SP IPHASW D HRMM SECON CODA AMPLIT PERI AZIMU VELO AIN AR TRES W  DIS CAZ7
 LD1  SN IP       2353 52.30                              92   -0.7310 37.9 150 
 LD1  SZ E        2353 52.32                  328.3  7.4     -1        37.9 150 
 LD1  SE IS       2353 57.57                              92   -0.2910 37.9 150 
 LD1  SZ  AML     2353 59.67       352.8 0.28                          37.9 150 
 LD5  SZ E        2353 55.43                  345.4 14.4      1        50.5 164 
 LD5  SN IP       2353 55.49                              63    0.3610 50.5 164 
 LD5  SE IS       2354  2.17                              63    0.6610 50.5 164 
 LD5  SZ  AML     2354  3.70        11.6 0.32                          50.5 164 
                                                                                
 2008  514 2157 17.2 L  21.221 -99.330 14.7  RAL  2 0.0 1.4LRAL                1
 GAP=222        0.37       0.6     0.2  3.4 -0.8867E-01  0.5430E-01 -0.2442E+00E
 ACTION:UPD 12-06-08 11:37 OP:RALL STATUS:               ID:20080514215717     I
 2008-05-14-2157-10S.PLUR1_006                                                 6
 STAT SP IPHASW D HRMM SECON CODA AMPLIT PERI AZIMU VELO AIN AR TRES W  DIS CAZ7
 LD5  SN IP       2157 19.70                             165   -0.1810 3.99 165 
 LD5  SZ E        2157 19.78                  345.5  7.9      0        3.99 165 
 LD5  SE IS       2157 21.85                             165    0.0510 3.99 165 
 LD5  SZ  AML     2157 22.02        28.7 0.38                          3.99 165 
 LD1  SZ E        2157 20.72                  207.4 16.1      0        13.4  27 
 LD1  SN IP       2157 20.73                             137    0.1410 13.4  27 
 LD1  SE IS       2157 23.03                             137   -0.0110 13.4  27 
 LD1  SZ  AML     2157 23.47       251.4 0.20                          13.4  27 
                                                                                
 2008  516 1650 48.0 L  21.752 -99.173  5.1  RAL  3 1.5 1.6LRAL                1
 GAP=350       25.60     301.5   101.7999.9  0.1823E+05 -0.1089E+07 -0.4993E+07E
 ACTION:UPD 12-06-08 11:37 OP:RALL STATUS:               ID:20080516165048     I
 2008-05-16-1650-47S.PLUR1_009                                                 6
 STAT SP IPHASW D HRMM SECON CODA AMPLIT PERI AZIMU VELO AIN AR TRES W  DIS CAZ7
 LD1  SN IP       1650 57.10                              91    1.5610 47.9 192 
 LD1  SZ E        1650 57.16                  320.9  9.6     51        47.9 192 
 LD1  SE IS       1651  0.79                              91   -0.2910 47.9 192 
 LD1  SZ  AML     1651  0.87       403.7 0.20                          47.9 192 
 LD5  SZ E        1650 58.09                  331.5  9.2     42        64.4 194 
 LD5  SN IP       1650 58.18                              91    0.0610 64.4 194 
 LD5  SE IS       1651  3.09                              91   -2.4310 64.4 194 
 LD5  SZ  AML     1651  5.31        15.3 0.40                          64.4 194 
 LO8  SN IP       1650 59.79                              91    1.4510 65.7 184 
 LO8  SZ E        1650 59.82                  134.8  7.8    131        65.7 184 
 LO8  SE IS       1651  5.56                              91   -0.3510 65.7 184 
 LO8  SZ  AML     1651  6.06         9.6 0.38                          65.7 184 
                                                                                
 2008  516 2158 24.2 L  21.694 -99.192 10.0  RAL  3 1.5 1.8LRAL                1
 GAP=349       25.80     277.7    87.8999.9  0.1340E+05 -0.1183E+06 -0.6240E+06E
 ACTION:UPD 12-06-08 11:37 OP:RALL STATUS:               ID:20080516215824     I
 2008-05-16-2158-23S.PLUR1_009                                                 6
 STAT SP IPHASW D HRMM SECON CODA AMPLIT PERI AZIMU VELO AIN AR TRES W  DIS CAZ7
 LD1  SZ E        2158 32.63                  320.3 11.1     51        41.2 191 
 LD1  SN IP       2158 32.67                              96    1.5010 41.2 191 
 LD1  SE IS       2158 36.29                              96    0.0610 41.2 191 
 LD1  SZ  AML     2158 36.41       657.4 0.22                          41.2 191 
 LD5  SN IP       2158 33.65                              94   -0.0610 57.7 193 
 LD5  SZ E        2158 33.65                  317.6 10.0     56        57.7 193 
 LD5  SE IS       2158 38.06                              94   -2.5810 57.7 193 
 LD5  SZ  AML     2158 40.86        26.0 0.38                          57.7 193 
 LO8  SN IP       2158 35.16                              94    1.1910 59.2 182 
 LO8  SZ E        2158 35.17                  129.6  7.4    128        59.2 182 
 LO8  SE IS       2158 40.97                              94   -0.1110 59.2 182 
 LO8  SZ  AML     2158 41.82        19.3 0.34                          59.2 182 
                                                                                
 2008  517 1532 12.7 L                       RAL  0                            1
 ACTION:UPD 12-06-08 11:37 OP:RALL STATUS:               ID:20080517153212     I
 2008-05-17-1532-12S.PLUR1_009                                                 6
 STAT SP IPHASW D HRMM SECON CODA AMPLIT PERI AZIMU VELO AIN AR TRES W  DIS CAZ7
                                                                                
 2008  525 1745  8.4 L  21.194 -99.329 10.0  RAL  2 0.5 0.8LRAL                1
 GAP=250        8.88       5.4    12.5 58.9 -0.5108E+02  0.1501E+02 -0.1706E+02E
 ACTION:UPD 12-06-08 11:37 OP:RALL STATUS:               ID:20080525174508     I
 2008-05-25-1745-00S.PLUR1_009                                                 6
 STAT SP IPHASW D HRMM SECON CODA AMPLIT PERI AZIMU VELO AIN AR TRES W  DIS CAZ7
 LD5  SZ E        1745 10.16                  305.7 12.0     -5        1.19 132 
 LD5  SN IP       1745 10.21                             174   -0.0310 1.19 132 
 LD5  SE IS       1745 11.50                             174   -0.0810 1.19 132 
 LD5  SZ  AML     1745 12.01         9.4 0.10                          1.19 132 
 LD1  SZ E        1745 11.51                  159.0 22.0    -42        16.2  22 
 LD1  SN IP       1745 11.52                             114   -0.1110 16.2  22 
 LD1  SE IS       1745 14.21                             114    0.2210 16.2  22 
 LD1  SZ  AML     1745 14.38        73.1 0.30                          16.2  22 
                                                                                
 2008  527 1436 56.7 L  21.110 -99.225 17.0  RAL  2 0.3 1.6LRAL                1
 GAP=321        1.51       4.0     4.1 16.4 -0.1375E+02 -0.7664E+01  0.5677E+01E
 ACTION:UPD 12-06-08 11:37 OP:RALL STATUS:               ID:20080527143656     I
 2008-05-27-1436-49S.PLUR1_006                                                 6
 STAT SP IPHASW D HRMM SECON CODA AMPLIT PERI AZIMU VELO AIN AR TRES W  DIS CAZ7
 LD5  SN E        1436 59.47                  129.1 11.9      0        13.0 310 
 LD5  SE IS       1437  2.55                             148   -0.4010 13.0 310 
 LD5  SN  AML     1437  3.97        41.0 0.26                          13.0 310 
 LD1  SN IP       1437  1.02                             129   -0.6410 24.7 349 
 LD1  SZ E        1437  1.06                  170.5 11.2      2        24.7 349 
 LD1  SE IS       1437  6.30                             129    1.0410 24.7 349 
 LD1  SZ  AML     1437  6.89       232.3 0.56                          24.7 349 
                                                                                
 2008  529 0502 57.9 L  21.240 -98.950  5.1  RAL  2 1.0 1.0LRAL                1
 GAP=335        7.00      17.2    77.7182.0 -0.5080E+03  0.1068E+05 -0.9302E+03E
 ACTION:UPD 12-06-08 11:37 OP:RALL STATUS:               ID:20080529050257     I
 2008-05-29-0502-54S.PLUR1_006                                                 6
 STAT SP IPHASW D HRMM SECON CODA AMPLIT PERI AZIMU VELO AIN AR TRES W  DIS CAZ7
 LD1  SN IP        5 3  6.01                              63    2.6210 34.7 287 
 LD1  SZ E         5 3  6.14                   87.3 22.1    -18        34.7 287 
 LD1  SE IS        5 3  8.73                              63    1.3010 34.7 287 
 LD1  SZ  AML      5 3  9.34        18.3 0.22                          34.7 287 
 LD5  SZ E         5 3  4.06                   94.9 17.3     14        38.9 261 
 LD5  SN IP        5 3  4.13                              63    0.0910 38.9 261 
 LD5  SE IS        5 3  4.54                              63   -4.0210 38.9 261 
 LD5  SZ  AML      5 3  4.60        15.3 0.14                          38.9 261 
                                                                                
 2008  530 2323 14.5 L  21.441 -99.649  4.6  RAL  2 0.4 0.9LRAL                1
 GAP=338        4.48      30.6    59.1140.0 -0.1630E+04 -0.6900E+04  0.3378E+04E
 ACTION:UPD 12-06-08 11:37 OP:RALL STATUS:               ID:20080530232314     I
 2008-05-30-2323-12S.PLUR1_006                                                 6
 STAT SP IPHASW D HRMM SECON CODA AMPLIT PERI AZIMU VELO AIN AR TRES W  DIS CAZ7
 LD1  SN IP       2323 21.59                              63    0.1910 41.2 107 
 LD1  SZ E        2323 21.60                  298.5  6.9     11        41.2 107 
 LD1  SE IS       2323 25.55                              63   -0.8910 41.2 107 
 LD1  SZ  AML     2323 26.58        71.5 0.34                          41.2 107 
 LD5  SZ E        2323 22.61                  291.9 24.3    -17        44.3 130 
 LD5  SN IP       2323 22.86                              63    0.9810 44.3 130 
 LD5  SE IS       2323 27.00                              63   -0.2810 44.3 130 
 LD5  SZ  AML     2323 28.87         1.8 0.24                          44.3 130 
                                                                                
