 2008  920 0122 37.0 L  21.417 -99.352 27.2  RAL  2 0.1 0.8LRAL                1
 GAP=253        0.52       0.6     0.4  5.3  0.7673E-01  0.4963E-01  0.5492E-01E
 ACTION:UPD 12-06-08 11:37 OP:RALL STATUS:               ID:20080920012237     I
 2008-09-20-0122-27S.PLUR1_006                                                 6
 STAT SP IPHASW D HRMM SECON CODA AMPLIT PERI AZIMU VELO AIN AR TRES W  DIS CAZ7
 LA4  SZ E         122 41.46                  210.9 15.1      0        8.61  31 
 LA4  SN IP        122 41.49                             161   -0.1410 8.61  31 
 LA4  SE IS        122 44.78                             161   -0.2410 8.61  31 
 LA4  SZ  AML      122 46.12        12.9 0.56                          8.61  31 
 LZ4  SZ E         122 41.99                  317.5  6.8      0        12.9 138 
 LZ4  SN IP        122 41.99                             153    0.1410 12.9 138 
 LZ4  SE IS        122 45.64                             153    0.2310 12.9 138 
 LZ4  SZ  AML      122 46.49        12.9 0.20                          12.9 138 
                                                                                
 2008  920 0841 35.2 R  22.508-100.247 10.0  RAL  1 0.0 2.1LRAL                1
 GAP=360        0.30       4.5     4.8  0.0 -0.2126E+01  0.4963E-01  0.5492E-01E
 ACTION:UPD 12-06-08 11:37 OP:RALL STATUS:               ID:20080920084135     I
 2008-09-20-0841-46S.PLUR1_003                                                 6
 STAT SP IPHASW D HRMM SECON CODA AMPLIT PERI AZIMU VELO AIN AR TRES W  DIS CAZ7
 LZ4  SN IP        842  0.04                              52    0.0110  165 142 
 LZ4  SZ E         842  0.29                  322.4 19.4      0         165 142 
 LZ4  SE IS        842 18.17                              52   -0.0110  165 142 
 LZ4  SZ  AML      842 20.18        38.6 0.44                           165 142 
                                                                                
 2008  920 0952 48.5 L  21.344 -99.274 10.0  RAL  2 0.1 1.3LRAL                1
 GAP=183        2.08       6.7     3.4 17.0 -0.9035E+01  0.1239E+02 -0.4937E+02E
 ACTION:UPD 12-06-08 11:37 OP:RALL STATUS:               ID:20080920095248     I
 2008-09-20-0952-35S.PLUR1_006                                                 6
 STAT SP IPHASW D HRMM SECON CODA AMPLIT PERI AZIMU VELO AIN AR TRES W  DIS CAZ7
 LZ4  SN IP        952 50.45                             172    0.1410 1.49 163 
 LZ4  SZ E         952 50.49                  341.5  6.7     -1        1.49 163 
 LZ4  SE IS        952 51.23                             172   -0.4310 1.49 163 
 LZ4  SZ  AML      952 51.75       301.3 0.32                          1.49 163 
 LA4  SN IP        952 51.89                             120    0.2110 15.9 347 
 LA4  SZ E         952 51.93                  157.1  8.3     -9        15.9 347 
 LA4  SE IS        952 54.10                             120    0.0810 15.9 347 
 LA4  SZ  AML      952 55.59        24.7 0.36                          15.9 347 
                                                                                
 2008  921 0040 43.7 R  21.989 -99.811 10.0  RAL  1 0.0 1.8LRAL                1
 GAP=360        0.30       3.3     3.2  0.0 -0.4217E+01  0.1239E+02 -0.4937E+02E
 ACTION:UPD 12-06-08 11:37 OP:RALL STATUS:               ID:20080921004043     I
 2008-09-21-0040-44S.PLUR1_003                                                 6
 STAT SP IPHASW D HRMM SECON CODA AMPLIT PERI AZIMU VELO AIN AR TRES W  DIS CAZ7
 LZ4  SZ E         040 58.43                  322.5  8.8      0        91.9 142 
 LZ4  SN IP        040 58.46                              94    0.0110 91.9 142 
 LZ4  SE IS        041  9.23                              94   -0.0110 91.9 142 
 LZ4  SZ  AML      041 13.99        41.0 0.48                          91.9 142 
                                                                                
 2008  921 0347 17.0 L  21.348 -99.245 10.0  RAL  1 0.1 0.5LRAL                1
 GAP=360        0.49      12.3    17.6  0.0  0.2162E+03  0.1239E+02 -0.4937E+02E
 ACTION:UPD 12-06-08 11:37 OP:RALL STATUS:               ID:20080921034717     I
 2008-09-21-0347-05S.PLUR1_003                                                 6
 STAT SP IPHASW D HRMM SECON CODA AMPLIT PERI AZIMU VELO AIN AR TRES W  DIS CAZ7
 LZ4  SZ E         347 18.95                   53.1  5.2      0        3.19 233 
 LZ4  SN IP        347 19.17                             163    0.2610 3.19 233 
 LZ4  SE IS        347 20.04                             163   -0.2610 3.19 233 
 LZ4  SZ  AML      347 20.43        16.3 0.44                          3.19 233 
                                                                                
 2008  921 1644 48.4 L  21.714 -99.404 10.0  RAL  1 0.0 0.6LRAL                1
 GAP=360        0.30       3.6     1.7  0.0 -0.5202E+01  0.1239E+02 -0.4937E+02E
 ACTION:UPD 12-06-08 11:37 OP:RALL STATUS:               ID:20080921164448     I
 2008-09-21-1644-43S.PLUR1_003                                                 6
 STAT SP IPHASW D HRMM SECON CODA AMPLIT PERI AZIMU VELO AIN AR TRES W  DIS CAZ7
 LA4  SN IP       1644 53.22                             106    0.0210 27.3 159 
 LA4  SZ E        1644 53.24                  339.0 11.9      0        27.3 159 
 LA4  SE IS       1644 56.72                             106   -0.0210 27.3 159 
 LA4  SZ  AML     1644 58.12         8.4 0.24                          27.3 159 
                                                                                
 2008  921 2039 29.7 L  21.344 -99.296 10.0  RAL  1 0.1 0.4LRAL                1
 GAP=360        0.47       9.6    19.2  0.0 -0.1835E+03  0.1239E+02 -0.4937E+02E
 ACTION:UPD 12-06-08 11:37 OP:RALL STATUS:               ID:20080921203929     I
 2008-09-21-2039-18S.PLUR1_003                                                 6
 STAT SP IPHASW D HRMM SECON CODA AMPLIT PERI AZIMU VELO AIN AR TRES W  DIS CAZ7
 LZ4  SZ E        2039 31.45                  298.2 43.1      0        3.08 118 
 LZ4  SN IP       2039 31.89                             163    0.2410 3.08 118 
 LZ4  SE IS       2039 32.79                             163   -0.2410 3.08 118 
 LZ4  SZ  AML     2039 32.91        14.1 0.16                          3.08 118 
                                                                                
 2008  921 2053  4.4 L  21.680 -99.391  0.0  RAL  2 0.1 1.4LRAL                1
 GAP=357        2.26      21.5     9.6405.5 -0.1822E+03  0.2292E+04 -0.5579E+04E
 ACTION:UPD 12-06-08 11:37 OP:RALL STATUS:               ID:20080921205304     I
 2008-09-21-2052-54S.PLUR1_006                                                 6
 STAT SP IPHASW D HRMM SECON CODA AMPLIT PERI AZIMU VELO AIN AR TRES W  DIS CAZ7
 LA4  SN IP       2053  8.56                              93    0.0810 23.3 159 
 LA4  SZ E        2053  8.60                  344.1  8.0      5        23.3 159 
 LA4  SE IS       2053 11.15                              93   -0.3110 23.3 159 
 LA4  SZ  AML     2053 11.81       107.0 0.28                          23.3 159 
 LZ4  SN IP       2053 11.66                              91    0.1610 40.6 162 
 LZ4  SZ E        2053 11.91                  332.6  9.4     -8        40.6 162 
 LZ4  SE IS       2053 16.76                              91    0.0710 40.6 162 
 LZ4  SZ  AML     2053 17.78        25.0 0.80                          40.6 162 
                                                                                
 2008  923 0453 16.9 L  21.315 -99.269 10.0  RAL  1 0.1 0.3LRAL                1
 GAP=360        1.04     999.9   999.9  0.0  0.2393E+08  0.2292E+04 -0.5579E+04E
 ACTION:UPD 12-06-08 11:37 OP:RALL STATUS:               ID:20080923045316     I
 2008-09-23-0453-05S.PLUR1_003                                                 6
 STAT SP IPHASW D HRMM SECON CODA AMPLIT PERI AZIMU VELO AIN AR TRES W  DIS CAZ7
 LZ4  SN IP        453 18.79                             170    0.0810 1.78 357 
 LZ4  SZ E         453 18.80                  181.7  9.1      5        1.78 357 
 LZ4  SE IS        453 19.99                             170   -0.0810 1.78 357 
 LZ4  SZ  AML      453 20.70        11.2 0.80                          1.78 357 
                                                                                
 2008  923 0815 41.1 R  22.537 -99.750 10.0  RAL  1 0.0 2.0LRAL                1
 GAP=360        0.30       4.6     4.1  0.0 -0.3071E+01  0.2292E+04 -0.5579E+04E
 ACTION:UPD 12-06-08 11:37 OP:RALL STATUS:               ID:20080923081541     I
 2008-09-23-0815-50S.PLUR1_003                                                 6
 STAT SP IPHASW D HRMM SECON CODA AMPLIT PERI AZIMU VELO AIN AR TRES W  DIS CAZ7
 LZ4  SZ E         816  2.98                  339.7 12.2      0         142 160 
 LZ4  SN IP        816  3.20                              52    0.0110  142 160 
 LZ4  SE IS        816 19.33                              52   -0.0110  142 160 
 LZ4  SZ  AML      816 26.15        40.9 0.48                           142 160 
                                                                                
 2008  923 1751 44.7 L  21.685 -99.296 10.0  RAL  1 0.0 0.7LRAL                1
 GAP=360        0.30       4.0     0.7  0.0  0.9809E+00  0.2292E+04 -0.5579E+04E
 ACTION:UPD 12-06-08 11:37 OP:RALL STATUS:               ID:20080923175144     I
 2008-09-23-1751-38S.PLUR1_003                                                 6
 STAT SP IPHASW D HRMM SECON CODA AMPLIT PERI AZIMU VELO AIN AR TRES W  DIS CAZ7
 LA4  SN IP       1751 48.85                             111    0.0110 22.3 183 
 LA4  SZ E        1751 48.87                    3.4  7.3      0        22.3 183 
 LA4  SE IS       1751 51.82                             111   -0.0110 22.3 183 
 LA4  SZ  AML     1751 53.75        11.3 0.28                          22.3 183 
                                                                                
 2008  923 1924 44.6 R  22.198 -99.254  0.3  RAL  3 0.4 2.1LRAL                1
 GAP=357        5.29     999.9    63.0999.9  0.5808E+05  0.1125E+06  0.2008E+07E
 ACTION:UPD 12-06-08 11:37 OP:RALL STATUS:               ID:20080923192444     I
 2008-09-23-1924-43S.PLUR1_012                                                 6
 STAT SP IPHASW D HRMM SECON CODA AMPLIT PERI AZIMU VELO AIN AR TRES W  DIS CAZ7
 LA4  SZ E        1924 57.49                   15.1 11.4     11        79.2 184 
 LA4  SN IP       1924 57.54                              63   -0.2610 79.2 184 
 LA4  SE IS       1925  7.77                              63    0.3510 79.2 184 
 LA4  SZ  AML     1925 10.48       152.4 0.52                          79.2 184 
 LZ4  SN IP       1925  0.16                              63   -0.2310 96.0 181 
 LZ4  SZ E        1925  0.17                  336.4  8.2     25        96.0 181 
 LZ4  SE IS       1925 10.76                              63   -1.1410 96.0 181 
 LZ4  SZ  AML     1925 15.80       210.6 0.28                          96.0 181 
 LD5  SN IP       1925  3.36                              63    0.4610  112 183 
 LD5  SZ E        1925  3.46                   15.7  9.2     12         112 183 
 LD5  SE IS       1925 17.07                              63    0.8310  112 183 
 LD5  SZ  AML     1925 21.91        10.4 0.40                           112 183 
                                                                                
 2008  923 2027 18.8 R  22.371 -99.491 10.0  RAL  1 0.0 1.5LRAL                1
 GAP=360        0.30       3.7     3.3  0.0 -0.9296E+00  0.1125E+06  0.2008E+07E
 ACTION:UPD 12-06-08 11:37 OP:RALL STATUS:               ID:20080923202718     I
 2008-09-23-2027-25S.PLUR1_003                                                 6
 STAT SP IPHASW D HRMM SECON CODA AMPLIT PERI AZIMU VELO AIN AR TRES W  DIS CAZ7
 LZ4  SZ E        2027 37.57                  348.8 12.9      0         117 169 
 LZ4  SN IP       2027 37.57                              93    0.0010  117 169 
 LZ4  SE IS       2027 51.25                              93    0.0010  117 169 
 LZ4  SN  AML     2027 54.21        15.0 0.28                           117 169 
                                                                                
 2008  923 2346  3.6 R  22.481 -99.475 11.7  RAL  2 0.1 3.1LRAL                1
 GAP=359        1.60      14.7    12.8 10.7 -0.1390E+02  0.4160E+01 -0.3545E+02E
 ACTION:UPD 12-06-08 11:37 OP:RALL STATUS:               ID:20080923234603     I
 2008-09-23-2346-07S.PLUR1_006                                                 6
 STAT SP IPHASW D HRMM SECON CODA AMPLIT PERI AZIMU VELO AIN AR TRES W  DIS CAZ7
 LA4  SZ E        2346 20.89                  356.2  7.6      5         112 171 
 LA4  SN IP       2346 21.32                              94   -0.1310  112 171 
 LA4  SE IS       2346 34.57                              94    0.0810  112 171 
 LA4  SZ  AML     2346 37.86       504.9 0.68                           112 171 
 LZ4  SZ E        2346 23.99                  344.8  8.7     -5         129 170 
 LZ4  SN IP       2346 24.02                              52    0.1210  129 170 
 LZ4  SE IS       2346 38.67                              52   -0.0710  129 170 
 LZ4  SZ  AML     2346 42.68       685.1 0.48                           129 170 
                                                                                
 2008  924 0047 19.1 R  22.360 -99.445 10.0  RAL  1 0.0 1.8LRAL                1
 GAP=360        0.30       3.7     3.2  0.0 -0.8072E+00  0.4160E+01 -0.3545E+02E
 ACTION:UPD 12-06-08 11:37 OP:RALL STATUS:               ID:20080924004719     I
 2008-09-24-0047-24S.PLUR1_003                                                 6
 STAT SP IPHASW D HRMM SECON CODA AMPLIT PERI AZIMU VELO AIN AR TRES W  DIS CAZ7
 LZ4  SZ E         047 37.37                  351.0 15.8      0         115 171 
 LZ4  SN IP        047 37.53                              93    0.0010  115 171 
 LZ4  SE IS        047 50.98                              93    0.0010  115 171 
 LZ4  SZ  AML      047 57.04        32.8 0.20                           115 171 
                                                                                
 2008  924 0146  9.2 R  22.435 -99.535  0.0  RAL  3 0.3 2.7LRAL                1
 GAP=356        5.64     999.9   293.9999.9 -0.3790E+06 -0.7485E+06  0.3339E+07E
 ACTION:UPD 12-06-08 11:37 OP:RALL STATUS:               ID:20080924014609     I
 2008-09-24-0146-12S.PLUR1_009                                                 6
 STAT SP IPHASW D HRMM SECON CODA AMPLIT PERI AZIMU VELO AIN AR TRES W  DIS CAZ7
 LA4  SN IP        146 26.66                              63   -0.2110  108 167 
 LA4  SZ E         146 26.95                  339.7 19.6     -7         108 167 
 LA4  SE IS        146 40.18                              63    0.4310  108 167 
 LA4  SZ  AML      146 43.45       460.2 0.68                           108 167 
 LZ4  SN IP        146 29.27                              63   -0.2910  125 167 
 LZ4  SZ E         146 29.53                  332.0  8.3    -14         125 167 
 LZ4  SE IS        146 44.30                              63   -0.1210  125 167 
 LZ4  SZ  AML      146 48.00       584.8 0.52                           125 167 
 LD5  SZ E         146 32.06                   18.3 12.2     27         140 171 
 LD5  SN IP        146 32.22                              63    0.3710  140 171 
 LD5  SE IS        146 48.18                              63   -0.1910  140 171 
 LD5  SZ  AML      146 52.62        61.2 0.48                           140 171 
                                                                                
 2008  924 0206 17.9 R  22.365 -99.692 10.0  RAL  2 0.4 2.1LRAL                1
 GAP=359        6.76     177.7    90.7999.9 -0.1287E+05  0.2711E+06 -0.6183E+06E
 ACTION:UPD 12-06-08 11:37 OP:RALL STATUS:               ID:20080924020617     I
 2008-09-24-0206-23S.PLUR1_006                                                 6
 STAT SP IPHASW D HRMM SECON CODA AMPLIT PERI AZIMU VELO AIN AR TRES W  DIS CAZ7
 LA4  SZ E         2 6 34.47                  359.5 12.6     21         105 158 
 LA4  SN IP        2 6 35.27                              93    0.5310  105 158 
 LA4  SE IS        2 6 47.31                              93    0.2710  105 158 
 LA4  SZ  AML      2 6 52.36        64.2 0.64                           105 158 
 LZ4  SN IP        2 6 36.96                              93   -0.4510  123 159 
 LZ4  SZ E         2 6 37.01                  314.4  9.5    -24         123 159 
 LZ4  SE IS        2 6 51.31                              93   -0.3510  123 159 
 LZ4  SZ  AML      2 6 58.81        75.2 0.72                           123 159 
                                                                                
 2008  924 1717 46.8 L  21.401 -99.267  0.0  RAL  2 0.5 0.8LRAL                1
 GAP=207        4.22       6.8     2.6268.0 -0.5830E+01  0.5990E+02 -0.4624E+03E
 ACTION:UPD 12-06-08 11:37 OP:RALL STATUS:               ID:20080924171746     I
 2008-09-24-1717-32S.PLUR1_006                                                 6
 STAT SP IPHASW D HRMM SECON CODA AMPLIT PERI AZIMU VELO AIN AR TRES W  DIS CAZ7
 LZ4  SZ E        1717 47.11                  351.5  6.8     10        7.77 182 
 LZ4  SN IP       1717 47.11                              98   -1.0410 7.77 182 
 LZ4  SE IS       1717 47.64                              98   -1.5210 7.77 182 
 LZ4  SZ  AML     1717 48.28       141.6 0.28                          7.77 182 
 LA4  SZ E        1717 49.38                  142.7 11.0    -11        10.1 335 
 LA4  SN IP       1717 49.38                              96    0.8110 10.1 335 
 LA4  SE IS       1717 51.61                              96    1.7510 10.1 335 
 LA4  SZ  AML     1717 53.33        12.9 0.48                          10.1 335 
                                                                                
 2008  924 1748 32.9 R  21.335 -99.256 10.0  RAL  1 0.1 0.5LRAL                1
 GAP=360        0.45     999.9   438.5  0.0 -0.4965E+06  0.5990E+02 -0.4624E+03E
 ACTION:UPD 12-06-08 11:37 OP:RALL STATUS:               ID:20080924174832     I
 2008-09-24-1748-21S.PLUR1_003                                                 6
 STAT SP IPHASW D HRMM SECON CODA AMPLIT PERI AZIMU VELO AIN AR TRES W  DIS CAZ7
 LZ4  SZ E        1748 34.39                   71.8 18.5      0        1.51 252 
 LZ4  SN IP       1748 35.02                             172    0.2310 1.51 252 
 LZ4  SZ  AML     1748 35.88        16.8 0.24                          1.51 252 
 LZ4  SE IS       1748 35.91                             172   -0.2310 1.51 252 
                                                                                
 2008  924 2010 39.4 L  21.485 -99.314 10.0  RAL  1 0.2 0.1LRAL                1
 GAP=360        1.76     999.9   999.9  0.0  0.3899E+07  0.5990E+02 -0.4624E+03E
 ACTION:UPD 12-06-08 11:37 OP:RALL STATUS:               ID:20080924201039     I
 2008-09-24-2010-28S.PLUR1_003                                                 6
 STAT SP IPHASW D HRMM SECON CODA AMPLIT PERI AZIMU VELO AIN AR TRES W  DIS CAZ7
 LA4  SZ E        2010 41.18                  282.3 12.2     -7        0.52 110 
 LA4  SN IP       2010 41.74                             177    0.4710 0.52 110 
 LA4  SE IS       2010 42.14                             177   -0.4710 0.52 110 
 LA4  SZ  AML     2010 42.71         7.0 0.44                          0.52 110 
                                                                                
