 2008  1 1 1930 32.6 L  21.320 -99.507  5.1  RAL  3 1.6 1.5LRAL                1
 GAP=243       29.89      43.5    39.7418.6 -0.8439E+02 -0.1741E+04  0.5654E+03E
 ACTION:UPD 12-06-08 11:37 OP:RALL STATUS:               ID:20080101193032     I
 2008-01-01-1930-25S.PLUR1_009                                                 6
 STAT SP IPHASW D HRMM SECON CODA AMPLIT PERI AZIMU VELO AIN AR TRES W  DIS CAZ7
 LD3  SZ E        1930 35.57                  182.2 23.6    -16        16.4  20 
 LD3  SN IP       1930 35.63                              63    0.3510 16.4  20 
 LD3  SE IS       1930 36.17                              63   -1.0710 16.4  20 
 LD3  SZ  AML     1930 36.98       157.2 0.46                          16.4  20 
 LD2  SZ E        1930 37.39                  191.0  7.6    -99        23.5 136 
 LD2  SN IP       1930 37.53                              63    1.1410 23.5 136 
 LD2  SE IS       1930 39.76                              63    0.5910 23.5 136 
 LD2  SZ  AML     1930 39.95        68.8 0.24                          23.5 136 
 LD5  SN IP       1930 36.61                              63    0.1010 24.4 127 
 LD5  SZ E        1930 36.62                   64.3 10.4    117        24.4 127 
 LD5  SE IS       1930 38.27                              63   -1.1010 24.4 127 
 LD5  SZ  AML     1930 38.40        68.5 0.10                          24.4 127 
                                                                                
 2008  1 1 2327 48.0 L  21.275 -99.537  0.0  RAL  3 1.5 1.0LRAL                1
 GAP=261       26.53      35.8    47.7999.9 -0.1388E+03  0.1605E+05  0.1161E+05E
 ACTION:UPD 12-06-08 11:37 OP:RALL STATUS:               ID:20080101232748     I
 2008-01-01-2327-41S.PLUR1_009                                                 6
 STAT SP IPHASW D HRMM SECON CODA AMPLIT PERI AZIMU VELO AIN AR TRES W  DIS CAZ7
 LD3  SZ E        2327 51.77                  183.9 24.8    -18        22.1  23 
 LD3  SN IP       2327 51.78                              93   -0.0810 22.1  23 
 LD3  SE IS       2327 52.48                              93   -2.2010 22.1  23 
 LD3  SZ  AML     2327 53.22        53.3 0.34                          22.1  23 
 LD2  SZ E        2327 53.54                  194.1  8.2    -99        22.9 122 
 LD2  SN IP       2327 53.60                              93    1.6110 22.9 122 
 LD2  SZ  AML     2327 56.08        14.3 0.24                          22.9 122 
 LD2  SE IS       2327 56.11                              93    1.2010 22.9 122 
 LD5  SZ E        2327 52.76                   39.6 10.7    106        24.6 114 
 LD5  SN IP     C 2327 52.78                              92    0.4910 24.6 114 
 LD5  SE IS       2327 54.41                              92   -1.0210 24.6 114 
 LD5  SZ  AML     2327 54.54        20.5 0.30                          24.6 114 
                                                                                
 2008  1 2 1054 17.6 L  21.276 -99.842  7.6  RAL  3 1.5 1.1LRAL                1
 GAP=320       26.88      69.9   242.6560.8  0.3421E+04 -0.1013E+06 -0.5983E+04E
 ACTION:UPD 12-06-08 11:37 OP:RALL STATUS:               ID:20080102105417     I
 2008-01-02-1054-16S.PLUR1_009                                                 6
 STAT SP IPHASW D HRMM SECON CODA AMPLIT PERI AZIMU VELO AIN AR TRES W  DIS CAZ7
 LD3  SZ E        1054 25.45                  294.0 13.8     51        45.0  63 
 LD3  SN IP       1054 25.48                              63    0.3210 45.0  63 
 LD3  SE IS       1054 29.20                              63   -1.4410 45.0  63 
 LD3  SZ  AML     1054 30.84        23.3 0.28                          45.0  63 
 LD2  SZ E        1054 27.56                  161.2  9.1    -99        52.4 103 
 LD2  SN IP       1054 27.73                              63    1.4310 52.4 103 
 LD2  SE IS       1054 33.35                              63    0.7410 52.4 103 
 LD2  SN  AML     1054 35.35        21.9 0.24                          52.4 103 
 LD2  SZ  AML     1054 35.47        14.3 0.24                          52.4 103 
 LD5  SZ E        1054 27.06                    0.4 10.6     80        55.0 100 
 LD5  SN IP       1054 27.18                              63    0.4910 55.0 100 
 LD5  SE IS       1054 31.74                              63   -1.5510 55.0 100 
 LD5  SZ  AML     1054 33.23         8.9 0.42                          55.0 100 
                                                                                
 2008  1 2 1314 13.3 L  21.151 -99.774 10.0  RAL  3 1.3 0.7LRAL                1
 GAP=316       21.33      61.8   151.6999.9  0.5517E+04  0.1437E+06  0.3712E+05E
 ACTION:UPD 12-06-08 11:37 OP:RALL STATUS:               ID:20080102131413     I
 2008-01-02-1314-13S.PLUR1_009                                                 6
 STAT SP IPHASW D HRMM SECON CODA AMPLIT PERI AZIMU VELO AIN AR TRES W  DIS CAZ7
 LD2  SZ E        1314 22.42                  175.5  6.5    -91        44.0  88 
 LD2  SN IP       1314 22.54                              99    1.8510 44.0  88 
 LD2  SZ  AML     1314 25.04        11.5 0.20                          44.0  88 
 LD2  SE IS       1314 25.89                              99   -0.2010 44.0  88 
 LD5  SN IP       1314 22.18                              98    1.0010 47.3  85 
 LD5  SZ E        1314 22.22                  330.5 10.6     65        47.3  85 
 LD5  SE IS       1314 24.72                              98   -2.2210 47.3  85 
 LD5  SZ  AML     1314 25.05         5.8 0.32                          47.3  85 
 LD3  SZ E        1314 22.72                  269.0 17.2     45        47.6  44 
 LD3  SN IP       1314 22.78                              98    1.5310 47.6  44 
 LD3  SE IS       1314 25.08                              98   -1.9710 47.6  44 
 LD3  SZ  AML     1314 25.95         4.6 0.30                          47.6  44 
                                                                                
 2008  1 3 1534 29.8 L  21.208 -99.796 10.0  RAL  3 1.6 0.6LRAL                1
 GAP=316       27.17      73.4   194.6999.9  0.6703E+04  0.3898E+06  0.8628E+05E
 ACTION:UPD 12-06-08 11:37 OP:RALL STATUS:               ID:20080103153429     I
 2008-01-03-1534-31S.PLUR1_009                                                 6
 STAT SP IPHASW D HRMM SECON CODA AMPLIT PERI AZIMU VELO AIN AR TRES W  DIS CAZ7
 LD3  SZ E        1534 38.77                  345.4 18.9    113        45.1  52 
 LD3  SN IP       1534 39.36                              95    1.9610 45.1  52 
 LD3  SE IS       1534 42.57                              95   -0.3410 45.1  52 
 LD3  SZ  AML     1534 43.10         5.5 0.48                          45.1  52 
 LD2  SZ E        1534 38.90                  179.1 13.3    -96        46.5  96 
 LD2  SN IP       1534 39.82                              95    2.2110 46.5  96 
 LD2  SE IS       1534 41.59                              95   -1.6910 46.5  96 
 LD2  SZ  AML     1534 42.51         7.3 0.24                          46.5  96 
 LD5  SZ E        1534 38.34                  317.3 16.1     44        49.5  93 
 LD5  SN IP       1534 38.36                              94    0.3110 49.5  93 
 LD5  SE IS       1534 41.61                              94   -2.4410 49.5  93 
 LD5  SZ  AML     1534 43.14         3.1 0.32                          49.5  93 
                                                                                
 2008  1 4 1129 56.9 L  20.942 -99.265  5.0  RAL  2 0.6 0.1LRAL                1
 GAP=352        7.08     122.7    39.7999.9 -0.4590E+04 -0.9964E+05  0.3227E+06E
 ACTION:UPD 12-06-08 11:37 OP:RALL STATUS:               ID:20080104112956     I
 2008-01-04-1129-52S.PLUR1_006                                                 6
 STAT SP IPHASW D HRMM SECON CODA AMPLIT PERI AZIMU VELO AIN AR TRES W  DIS CAZ7
 LD2  SZ E        1130  2.31                  190.0 14.2     30        26.4 340 
 LD2  SN IP       1130  2.41                              93    1.2510 26.4 340 
 LD2  SE IS       1130  4.29                              93    0.0310 26.4 340 
 LD2  SZ  AML     1130  4.50         1.9 0.20                          26.4 340 
 LD5  SZ IP       1130  1.84                  151.0 17.4  92-16 0.4910 27.7 348 
 LD5  SN IP       1130  1.86                              92    0.5110 27.7 348 
 LD5  SE IS       1130  2.33                              92   -2.2710 27.7 348 
 LD5  SZ  AML     1130  2.41         3.7 0.18                          27.7 348 
                                                                                
 2008  1 4 1342 40.6 L  21.154 -99.196  0.0  RAL  2 0.2-0.4LRAL                1
 GAP=349        2.61       5.3    26.3430.3 -0.1254E+03 -0.8704E+04  0.1595E+04E
 ACTION:UPD 12-06-08 11:37 OP:RALL STATUS:               ID:20080104134240     I
 2008-01-04-1342-34S.PLUR1_006                                                 6
 STAT SP IPHASW D HRMM SECON CODA AMPLIT PERI AZIMU VELO AIN AR TRES W  DIS CAZ7
 LD5  SZ E        1342 43.21                   97.4 13.5     -7        13.4 285 
 LD5  SN IP       1342 43.22                              94    0.3210 13.4 285 
 LD5  SE IS       1342 44.22                              94   -0.4010 13.4 285 
 LD5  SZ  AML     1342 44.71         1.2 0.18                          13.4 285 
 LD2  SZ E        1342 43.76                  103.6 23.5      9        16.1 275 
 LD2  SN IP       1342 43.84                              94    0.4610 16.1 275 
 LD2  SE IS       1342 45.07                              94   -0.3710 16.1 275 
 LD2  SZ  AML     1342 45.53         1.7 0.20                          16.1 275 
                                                                                
 2008  1 6 0028 18.6 L  21.361 -99.960 10.0  RAL  2 0.7 1.3LRAL                1
 GAP=357       11.80     321.1   999.9999.9 -0.3409E+06  0.1266E+08 -0.3738E+07E
 ACTION:UPD 12-06-08 11:37 OP:RALL STATUS:               ID:20080106002818     I
 2008-01-06-0028-21S.PLUR1_006                                                 6
 STAT SP IPHASW D HRMM SECON CODA AMPLIT PERI AZIMU VELO AIN AR TRES W  DIS CAZ7
 LD2  SZ E         028 30.00                  249.0 13.2    -39        66.8 109 
 LD2  SN IP        028 30.08                              95    0.5810 66.8 109 
 LD2  SE IS        028 37.59                              95    0.1310 66.8 109 
 LD2  SZ  AML      028 39.69        24.9 0.64                          66.8 109 
 LD5  SZ E         028 29.61                  327.9 14.6     42        69.1 106 
 LD5  SN IP        028 29.63                              95   -0.2210 69.1 106 
 LD5  SE IS        028 37.57                              95   -0.4910 69.1 106 
 LD5  SZ  AML      028 40.88        14.0 0.78                          69.1 106 
                                                                                
 2008  1 7 0727 14.9 L  21.459 -99.456 25.7  RAL  2 1.0 0.3LRAL                1
 GAP=301       14.56      17.6    41.8117.6  0.6819E+03 -0.3748E+02  0.1700E+02E
 ACTION:UPD 12-06-08 11:37 OP:RALL STATUS:               ID:20080107072714     I
 2008-01-07-0727-12S.PLUR1_006                                                 6
 STAT SP IPHASW D HRMM SECON CODA AMPLIT PERI AZIMU VELO AIN AR TRES W  DIS CAZ7
 LD3  SZ E         727 21.24                  270.6 30.5     -4        0.19  96 
 LD3  SN IP        727 21.25                             180    2.0910 0.19  96 
 LD3  SE IS        727 22.21                             180   -0.0510 0.19  96 
 LD3  SZ  AML      727 22.49         7.8 0.26                          0.19  96 
 LD5  SZ E         727 22.13                   44.2  9.4     69        33.3 155 
 LD5  SN IP        727 22.14                             123    0.5010 33.3 155 
 LD5  SE IS        727 24.01                             123   -2.5410 33.3 155 
 LD5  SZ  AML      727 24.30         1.4 0.14                          33.3 155 
                                                                                
 2008  112 1250 39.3 L  21.467 -99.457 46.6  RAL  2 0.5 0.6LRAL                1
 GAP=358        3.74       5.0    10.9 41.9  0.4813E+02 -0.9401E+00  0.1352E+01E
 ACTION:UPD 12-06-08 11:37 OP:RALL STATUS:               ID:20080112125039     I
 2008-01-12-1250-41S.PLUR1_006                                                 6
 STAT SP IPHASW D HRMM SECON CODA AMPLIT PERI AZIMU VELO AIN AR TRES W  DIS CAZ7
 LD3  SZ E        1250 47.49                  323.1 26.5    -13        0.89 157 
 LD3  SN IP       1250 47.55                             179    1.3710 0.89 157 
 LD3  SE IS       1250 51.74                             179    0.5310 0.89 157 
 LD3  SZ  AML     1250 52.27         5.3 0.28                          0.89 157 
 LD5  SZ E        1250 47.53                  334.8  9.7      0        34.1 155 
 LD5  SN IP       1250 47.60                             138   -0.1010 34.1 155 
 LD5  SE IS       1250 52.05                             138   -1.7910 34.1 155 
 LD5  SZ  AML     1250 54.44         4.9 0.74                          34.1 155 
                                                                                
 2008  118 0835 34.6 L  21.474 -99.463 51.6  RAL  2 0.3 0.4LRAL                1
 GAP=355        4.02       5.5    12.1 45.8  0.5776E+02 -0.3304E+00  0.1181E+01E
 ACTION:UPD 12-06-08 11:37 OP:RALL STATUS:               ID:20080118083534     I
 2008-01-18-0835-38S.PLUR1_006                                                 6
 STAT SP IPHASW D HRMM SECON CODA AMPLIT PERI AZIMU VELO AIN AR TRES W  DIS CAZ7
 LD3  SZ E         835 41.60                  333.5 16.5      4        1.89 150 
 LD3  SN IP        835 42.56                             178    0.4210 1.89 150 
 LD3  SE IS        835 47.97                             178    0.3510 1.89 150 
 LD3  SZ  AML      835 49.66         3.8 0.28                          1.89 150 
 LD5  SZ E         835 42.41                  316.5 15.1    -18        35.1 155 
 LD5  SN IP        835 43.71                             141    0.1210 35.1 155 
 LD5  SE IS        835 49.24                             141   -0.8810 35.1 155 
 LD5  SZ  AML      835 50.33         2.3 0.50                          35.1 155 
                                                                                
 2008  120  0 9 24.7 L                       RAL  0                            1
 ACTION:UPD 12-06-08 11:37 OP:RALL STATUS:               ID:20080120000924     I
 2008-01-20-0009-24S.PLUR1_006                                                 6
 STAT SP IPHASW D HRMM SECON CODA AMPLIT PERI AZIMU VELO AIN AR TRES W  DIS CAZ7
                                                                                
 2008  122 0250 16.2 L  21.463 -99.458100.0  RAL  2 0.7 1.2LRAL                1
 GAP=343        5.77       9.4    16.9 68.9  0.9576E+02  0.2897E+01 -0.3815E+01E
 ACTION:UPD 12-06-08 11:37 OP:RALL STATUS:               ID:20080122025016     I
 2008-01-22-0250-27S.PLUR1_006                                                 6
 STAT SP IPHASW D HRMM SECON CODA AMPLIT PERI AZIMU VELO AIN AR TRES W  DIS CAZ7
 LD3  SZ E         250 30.68                  317.4 15.7      0        0.56 138 
 LD3  SN IP        250 30.74                             180    1.2510 0.56 138 
 LD3  SE IS        250 36.99                             180   -2.2110 0.56 138 
 LD3  SZ  AML      250 42.73        11.4 0.62                          0.56 138 
 LD5  SN IP        250 32.02                             160    1.8410 33.8 155 
 LD5  SZ E         250 32.24                  358.1 13.7     23        33.8 155 
 LD5  SE IS        250 39.51                             160   -0.8810 33.8 155 
 LD5  SZ  AML      250 42.50         7.3 0.56                          33.8 155 
                                                                                
 2008  123 1146  3.5 L  21.312 -99.637 10.0  RAL  2 0.9 0.8LRAL                1
 GAP=296       11.72      28.1    45.7304.3  0.6549E+03  0.4434E+04  0.3461E+04E
 ACTION:UPD 12-06-08 11:37 OP:RALL STATUS:               ID:20080123114603     I
 2008-01-23-1145-59S.PLUR1_006                                                 6
 STAT SP IPHASW D HRMM SECON CODA AMPLIT PERI AZIMU VELO AIN AR TRES W  DIS CAZ7
 LD3  SZ E        1146  9.83                  274.2 18.5     45        25.0  49 
 LD3  SN IP       1146  9.84                             110    1.8610 25.0  49 
 LD3  SE IS       1146 12.15                             110    0.8810 25.0  49 
 LD3  SZ  AML     1146 12.40        15.2 0.18                          25.0  49 
 LD5  SZ E        1146  9.40                  324.7  8.7     32        35.7 113 
 LD5  SN IP       1146  9.41                             102   -0.1610 35.7 113 
 LD5  SE IS       1146 11.46                             102   -2.5710 35.7 113 
 LD5  SZ  AML     1146 12.31         9.8 0.40                          35.7 113 
                                                                                
 2008  123 1153 29.2 L  21.462 -99.460 41.3  RAL  2 0.9 0.7LRAL                1
 GAP=317        4.72      61.1    36.9999.9  0.1698E+04 -0.2707E+06 -0.4910E+06E
 ACTION:UPD 12-06-08 11:37 OP:RALL STATUS:               ID:20080123115329     I
 2008-01-23-1153-28S.PLUR1_006                                                 6
 STAT SP IPHASW D HRMM SECON CODA AMPLIT PERI AZIMU VELO AIN AR TRES W  DIS CAZ7
 LD3  SZ E        1153 38.12                  292.7 20.5      1        0.71 112 
 LD3  SN IP       1153 38.15                              90    2.7010 0.71 112 
 LD3  SE IS       1153 40.22                              90    0.2210 0.71 112 
 LD3  SZ  AML     1153 40.66         6.9 0.18                          0.71 112 
 LD5  SN IP       1153 37.65                              90    0.5310 33.7 154 
 LD5  SZ E        1153 37.66                  328.0 11.1     -6        33.7 154 
 LD5  SE IS       1153 39.44                              90   -3.4510 33.7 154 
 LD5  SZ  AML     1153 40.34         6.4 0.52                          33.7 154 
                                                                                
 2008  123 1215 44.7 L  21.387 -99.356 13.8  RAL  2 0.5 0.1LRAL                1
 GAP=222        4.22       8.1     8.6 53.8 -0.4962E+02 -0.1689E+03  0.1687E+03E
 ACTION:UPD 12-06-08 11:37 OP:RALL STATUS:               ID:20080123121544     I
 2008-01-23-1215-41S.PLUR1_006                                                 6
 STAT SP IPHASW D HRMM SECON CODA AMPLIT PERI AZIMU VELO AIN AR TRES W  DIS CAZ7
 LD3  SZ E        1215 49.00                  120.2 19.9     -7        12.9 308 
 LD3  SN IP       1215 49.06                             137    1.1710 12.9 308 
 LD3  SE IS       1215 51.15                             137    0.9110 12.9 308 
 LD3  SZ  AML     1215 52.13         3.6 0.20                          12.9 308 
 LD5  SZ E        1215 48.57                  335.2  9.5    -14        22.5 171 
 LD5  SN IP       1215 48.61                             120   -0.4410 22.5 171 
 LD5  SE IS       1215 50.60                             120   -1.6410 22.5 171 
 LD5  SZ  AML     1215 51.21         2.7 0.52                          22.5 171 
                                                                                
