 2008 11 6 2204 35.1 L  21.618 -99.339 10.0  RAL  1 0.0 1.0LRAL                1
 GAP=360        0.30       4.2     1.0  0.0 -0.3988E+01  0.2724E+02 -0.1547E+02E
 ACTION:UPD 12-06-08 11:37 OP:RALL STATUS:               ID:20081106220435     I
 2008-11-06-2204-24S.PLUR1_003                                                 6
 STAT SP IPHASW D HRMM SECON CODA AMPLIT PERI AZIMU VELO AIN AR TRES W  DIS CAZ7
 LA4  SZ E        22 4 38.25                  348.3  9.4      0        15.2 168 
 LA4  SN IP       22 4 38.25                             122    0.0010 15.2 168 
 LA4  SZ  AML     22 4 40.44        31.1 0.24                          15.2 168 
 LA4  SE IS       22 4 40.52                             122    0.0010 15.2 168 
                                                                                
 2008 11 6 2235 15.9 L  21.752 -99.304 10.0  RAL  1 0.0 0.8LRAL                1
 GAP=360        0.30       3.8     0.8  0.0  0.2371E+00  0.2724E+02 -0.1547E+02E
 ACTION:UPD 12-06-08 11:37 OP:RALL STATUS:               ID:20081106223515     I
 2008-11-06-2235-10S.PLUR1_003                                                 6
 STAT SP IPHASW D HRMM SECON CODA AMPLIT PERI AZIMU VELO AIN AR TRES W  DIS CAZ7
 LA4  SZ E        2235 21.11                    0.9  8.8      0        29.7 181 
 LA4  SN IP       2235 21.15                             104    0.0110 29.7 181 
 LA4  SE IS       2235 24.93                             104   -0.0110 29.7 181 
 LA4  SZ  AML     2235 25.53        10.9 0.28                          29.7 181 
                                                                                
 2008 11 7 0002 48.7 L  21.541 -99.316 10.0  RAL  1 0.0 0.1LRAL                1
 GAP=360        0.30       7.0     0.9  0.0 -0.6100E+01  0.2724E+02 -0.1547E+02E
 ACTION:UPD 12-06-08 11:37 OP:RALL STATUS:               ID:20081107000248     I
 2008-11-07-0002-38S.PLUR1_003                                                 6
 STAT SP IPHASW D HRMM SECON CODA AMPLIT PERI AZIMU VELO AIN AR TRES W  DIS CAZ7
 LA4  SZ E         0 2 50.76                  353.3  9.2      0        6.36 173 
 LA4  SN IP        0 2 50.81                             148    0.0110 6.36 173 
 LA4  SE IS        0 2 52.34                             148   -0.0110 6.36 173 
 LA4  SZ  AML      0 2 53.07         6.5 0.16                          6.36 173 
                                                                                
 2008 11 7 0147 37.1 L  22.007 -99.337 10.0  RAL  1 0.0 1.1LRAL                1
 GAP=360        0.30       3.7     1.6  0.0 -0.6332E+00  0.2724E+02 -0.1547E+02E
 ACTION:UPD 12-06-08 11:37 OP:RALL STATUS:               ID:20081107014737     I
 2008-11-07-0147-39S.PLUR1_003                                                 6
 STAT SP IPHASW D HRMM SECON CODA AMPLIT PERI AZIMU VELO AIN AR TRES W  DIS CAZ7
 LA4  SZ E         147 46.64                  357.1  7.9      0        58.0 177 
 LA4  SN IP        147 46.69                              96    0.0110 58.0 177 
 LA4  SE IS        147 53.64                              96   -0.0110 58.0 177 
 LA4  SZ  AML      147 57.47        13.3 0.76                          58.0 177 
                                                                                
 2008 11 7 0316 57.8 L  21.558 -99.308 10.0  RAL  1 0.0 0.8LRAL                1
 GAP=360        0.30       5.8     0.3  0.0  0.6372E+00  0.2724E+02 -0.1547E+02E
 ACTION:UPD 12-06-08 11:37 OP:RALL STATUS:               ID:20081107031657     I
 2008-11-07-0316-47S.PLUR1_003                                                 6
 STAT SP IPHASW D HRMM SECON CODA AMPLIT PERI AZIMU VELO AIN AR TRES W  DIS CAZ7
 LA4  SN IP        317  0.13                             141    0.0010 8.23 181 
 LA4  SZ E         317  0.15                    1.0  8.1      0        8.23 181 
 LA4  SE IS        317  1.80                             141    0.0010 8.23 181 
 LA4  SZ  AML      317  2.41        25.1 0.16                          8.23 181 
                                                                                
 2008 11 7 1520  6.6 L  21.687 -99.314 10.0  RAL  1 0.0 0.8LRAL                1
 GAP=360        0.30       4.0     0.6  0.0 -0.3456E+00  0.2724E+02 -0.1547E+02E
 ACTION:UPD 12-06-08 11:37 OP:RALL STATUS:               ID:20081107152006     I
 2008-11-07-1519-57S.PLUR1_003                                                 6
 STAT SP IPHASW D HRMM SECON CODA AMPLIT PERI AZIMU VELO AIN AR TRES W  DIS CAZ7
 LA4  SN IP       1520 10.74                             110    0.0110 22.5 179 
 LA4  SZ E        1520 10.85                  358.8  8.2      0        22.5 179 
 LA4  SE IS       1520 13.74                             110   -0.0110 22.5 179 
 LA4  SZ  AML     1520 13.82        15.2 0.24                          22.5 179 
                                                                                
 2008 11 7 1715 22.4 L  21.222 -99.281 10.0  RAL  1 0.0 0.1LRAL                1
 GAP=360        0.31       5.5     6.2  0.0  0.3409E+02  0.2724E+02 -0.1547E+02E
 ACTION:UPD 12-06-08 11:37 OP:RALL STATUS:               ID:20081107171522     I
 2008-11-07-1715-11S.PLUR1_003                                                 6
 STAT SP IPHASW D HRMM SECON CODA AMPLIT PERI AZIMU VELO AIN AR TRES W  DIS CAZ7
 LD5  SN IP       1715 24.53                             151    0.0710 5.68 226 
 LD5  SZ E        1715 24.79                   46.2 10.5      0        5.68 226 
 LD5  SE IS       1715 25.90                             151   -0.0710 5.68 226 
 LD5  SZ  AML     1715 27.01         6.5 0.32                          5.68 226 
                                                                                
 2008 11 7 1952 44.2 L  21.822 -99.390 10.0  RAL  1 0.0 1.4LRAL                1
 GAP=360        0.30       3.7     1.4  0.0 -0.3022E+01  0.2724E+02 -0.1547E+02E
 ACTION:UPD 12-06-08 11:37 OP:RALL STATUS:               ID:20081107195244     I
 2008-11-07-1952-42S.PLUR1_003                                                 6
 STAT SP IPHASW D HRMM SECON CODA AMPLIT PERI AZIMU VELO AIN AR TRES W  DIS CAZ7
 LA4  SN IP       1952 50.70                             100    0.0110 38.4 167 
 LA4  SZ E        1952 50.99                  347.4 11.0      0        38.4 167 
 LA4  SE IS       1952 55.45                             100   -0.0110 38.4 167 
 LA4  SZ  AML     1953  0.27        34.8 0.52                          38.4 167 
                                                                                
 2008 11 7 2013 33.6 L  21.674 -99.345 10.0  RAL  1 0.0 1.7LRAL                1
 GAP=360        0.30       3.9     0.9  0.0 -0.2858E+01  0.2724E+02 -0.1547E+02E
 ACTION:UPD 12-06-08 11:37 OP:RALL STATUS:               ID:20081107201333     I
 2008-11-07-2013-23S.PLUR1_003                                                 6
 STAT SP IPHASW D HRMM SECON CODA AMPLIT PERI AZIMU VELO AIN AR TRES W  DIS CAZ7
 LA4  SN IP       2013 37.60                             112    0.0210 21.4 170 
 LA4  SZ E        2013 37.64                  350.1  9.1      0        21.4 170 
 LA4  SE IS       2013 40.47                             112   -0.0210 21.4 170 
 LA4  SZ  AML     2013 42.37       116.9 0.52                          21.4 170 
                                                                                
 2008 11 8 0218 52.5 L  21.434 -99.293 10.0  RAL  1 0.0 1.2LRAL                1
 GAP=360        0.30       4.7     1.1  0.0 -0.4994E+01  0.2724E+02 -0.1547E+02E
 ACTION:UPD 12-06-08 11:37 OP:RALL STATUS:               ID:20081108021852     I
 2008-11-08-0218-40S.PLUR1_003                                                 6
 STAT SP IPHASW D HRMM SECON CODA AMPLIT PERI AZIMU VELO AIN AR TRES W  DIS CAZ7
 LZ4  SN IP        218 55.16                             130    0.0010 11.6 168 
 LZ4  SZ E         218 55.19                  348.1  8.2      0        11.6 168 
 LZ4  SE IS        218 57.09                             130    0.0010 11.6 168 
 LZ4  SZ  AML      218 58.29        56.1 0.20                          11.6 168 
                                                                                
 2008 11 8 0254  6.0 L  21.429 -99.318 10.0  RAL  1 0.0 1.4LRAL                1
 GAP=360        0.30       4.3     2.2  0.0 -0.9193E+01  0.2724E+02 -0.1547E+02E
 ACTION:UPD 12-06-08 11:37 OP:RALL STATUS:               ID:20081108025406     I
 2008-11-08-0253-54S.PLUR1_003                                                 6
 STAT SP IPHASW D HRMM SECON CODA AMPLIT PERI AZIMU VELO AIN AR TRES W  DIS CAZ7
 LZ4  SZ E         254  8.64                  335.3  7.0      0        12.0 155 
 LZ4  SN IP        254  8.66                             129    0.0110 12.0 155 
 LZ4  SE IS        254 10.60                             129   -0.0110 12.0 155 
 LZ4  SZ  AML      254 11.92       102.8 0.56                          12.0 155 
                                                                                
 2008 11 8 0511  6.4 L  21.232 -99.295 10.0  RAL  1 0.0 0.0LRAL                1
 GAP=360        0.30       6.9     3.8  0.0  0.2647E+02  0.2724E+02 -0.1547E+02E
 ACTION:UPD 12-06-08 11:37 OP:RALL STATUS:               ID:20081108051106     I
 2008-11-08-0510-55S.PLUR1_003                                                 6
 STAT SP IPHASW D HRMM SECON CODA AMPLIT PERI AZIMU VELO AIN AR TRES W  DIS CAZ7
 LD5  SZ E         511  8.47                   27.3  9.4      0        5.63 207 
 LD5  SN IP        511  8.53                             151    0.0410 5.63 207 
 LD5  SE IS        511  9.95                             151   -0.0410 5.63 207 
 LD5  SZ  AML      511 10.29         5.3 0.20                          5.63 207 
                                                                                
 2008 11 8 1041 59.2 L  21.384 -99.318 10.0  RAL  1 0.0 1.0LRAL                1
 GAP=360        0.30       4.6     4.3  0.0 -0.1980E+02  0.2724E+02 -0.1547E+02E
 ACTION:UPD 12-06-08 11:37 OP:RALL STATUS:               ID:20081108104159     I
 2008-11-08-1041-47S.PLUR1_003                                                 6
 STAT SP IPHASW D HRMM SECON CODA AMPLIT PERI AZIMU VELO AIN AR TRES W  DIS CAZ7
 LZ4  SN IP       1042  1.50                             142    0.0210 7.71 139 
 LZ4  SZ E        1042  1.51                  319.4 11.7      0        7.71 139 
 LZ4  SE IS       1042  3.08                             142   -0.0210 7.71 139 
 LZ4  SZ  AML     1042  5.52        44.8 0.24                          7.71 139 
                                                                                
 2008 11 8 1837 43.2 L  21.316 -99.236  7.4  RAL  3 0.3 0.6LRAL                1
 GAP=234        2.24       4.1     3.1 13.2  0.2364E+01 -0.9963E+00  0.2593E+00E
 ACTION:UPD 12-06-08 11:37 OP:RALL STATUS:               ID:20081108183743     I
 2008-11-08-1837-30S.PLUR1_009                                                 6
 STAT SP IPHASW D HRMM SECON CODA AMPLIT PERI AZIMU VELO AIN AR TRES W  DIS CAZ7
 LZ4  SN IP       1837 44.93                             153    0.1510 3.85 295 
 LZ4  SZ E        1837 44.94                                           3.85 295 
 LZ4  SE IS       1837 45.96                             153    0.0310 3.85 295 
 LZ4  SZ  AML     1837 46.36       101.0 0.36                          3.85 295 
 LD5  SN IP       1837 45.64                             108   -0.7410 16.8 211 
 LD5  SZ E        1837 45.66                   25.9 12.9     -4        16.8 211 
 LD5  SE IS       1837 47.68                             108   -1.0010 16.8 211 
 LD5  SZ  AML     1837 48.02         2.8 0.14                          16.8 211 
 LA4  SZ E        1837 47.08                  151.4  9.0     -5        20.0 338 
 LA4  SN IP       1837 47.21                             104    0.3410 20.0 338 
 LA4  SE IS       1837 50.76                             104    1.2310 20.0 338 
 LA4  SZ  AML     1837 52.21        11.5 0.56                          20.0 338 
                                                                                
 2008 11 8 2305 29.4 L  21.224 -99.223 10.0  RAL  1 0.0 1.0LRAL                1
 GAP=360        0.30       3.7     1.5  0.0 -0.4236E+01 -0.9963E+00  0.2593E+00E
 ACTION:UPD 12-06-08 11:37 OP:RALL STATUS:               ID:20081108230529     I
 2008-11-08-2305-24S.PLUR1_003                                                 6
 STAT SP IPHASW D HRMM SECON CODA AMPLIT PERI AZIMU VELO AIN AR TRES W  DIS CAZ7
 LA4  SZ E        23 5 34.69                  162.8  9.5      0        30.1 343 
 LA4  SN IP       23 5 34.71                             104    0.0110 30.1 343 
 LA4  SE IS       23 5 38.53                             104   -0.0110 30.1 343 
 LA4  SZ  AML     23 5 40.01        19.0 0.44                          30.1 343 
                                                                                
 2008 11 8 2328  0.0 L  21.305 -99.303 10.0  RAL  1 0.0 0.6LRAL                1
 GAP=360        0.33       6.5     8.5  0.0  0.5537E+02 -0.9963E+00  0.2593E+00E
 ACTION:UPD 12-06-08 11:37 OP:RALL STATUS:               ID:20081108232800     I
 2008-11-08-2327-49S.PLUR1_003                                                 6
 STAT SP IPHASW D HRMM SECON CODA AMPLIT PERI AZIMU VELO AIN AR TRES W  DIS CAZ7
 LZ4  SN IP       2328  2.12                             156    0.1010 4.53  51 
 LZ4  SZ E        2328  2.16                  230.6 17.2      0        4.53  51 
 LZ4  SE IS       2328  3.36                             156   -0.1010 4.53  51 
 LZ4  SZ  AML     2328  3.80        21.8 0.48                          4.53  51 
                                                                                
 2008 11 9 0539 31.2 L  21.292 -99.279 10.0  RAL  1 0.0 0.7LRAL                1
 GAP=360        0.30       9.1     2.2  0.0  0.2035E+02 -0.9963E+00  0.2593E+00E
 ACTION:UPD 12-06-08 11:37 OP:RALL STATUS:               ID:20081109053931     I
 2008-11-09-0539-20S.PLUR1_003                                                 6
 STAT SP IPHASW D HRMM SECON CODA AMPLIT PERI AZIMU VELO AIN AR TRES W  DIS CAZ7
 LZ4  SN IP        539 33.17                             156    0.0210 4.46  13 
 LZ4  SZ E         539 33.27                  193.0 11.2      0        4.46  13 
 LZ4  SE IS        539 34.57                             156   -0.0210 4.46  13 
 LZ4  SZ  AML      539 35.33        26.4 0.52                          4.46  13 
                                                                                
 2008 11 9 0725 27.7 L  21.786 -99.310 10.0  RAL  1 0.0 0.9LRAL                1
 GAP=360        0.30       3.8     0.9  0.0 -0.2519E-01 -0.9963E+00  0.2593E+00E
 ACTION:UPD 12-06-08 11:37 OP:RALL STATUS:               ID:20081109072527     I
 2008-11-09-0725-23S.PLUR1_003                                                 6
 STAT SP IPHASW D HRMM SECON CODA AMPLIT PERI AZIMU VELO AIN AR TRES W  DIS CAZ7
 LA4  SN EP        725 33.47                             102    0.0110 33.5 180 
 LA4  SZ E         725 33.51                  359.9  9.1      0        33.5 180 
 LA4  SE IS        725 37.67                             102   -0.0110 33.5 180 
 LA4  SZ  AML      725 37.69        12.9 0.44                          33.5 180 
                                                                                
 2008 11 9 0914 56.6 L  21.480 -99.317 10.0  RAL  1 0.2 0.0LRAL                1
 GAP=360        2.66     160.3   338.4  0.0  0.5425E+05 -0.9963E+00  0.2593E+00E
 ACTION:UPD 12-06-08 11:37 OP:RALL STATUS:               ID:20081109091456     I
 2008-11-09-0914-44S.PLUR1_003                                                 6
 STAT SP IPHASW D HRMM SECON CODA AMPLIT PERI AZIMU VELO AIN AR TRES W  DIS CAZ7
 LA4  SN IP        914 58.79                             175    0.3810 0.98  63 
 LA4  SZ E         914 58.80                  255.4 15.2     12        0.98  63 
 LA4  SE IS        914 59.38                             175   -0.3810 0.98  63 
 LA4  SZ  AML      914 59.89         6.3 0.52                          0.98  63 
                                                                                
 2008 11 9 1036 17.8 L  21.786 -99.459  5.1  RAL  2 0.4 1.3LRAL                1
 GAP=356        6.47     540.7   256.0999.9 -0.1380E+06 -0.2915E+06  0.6169E+06E
 ACTION:UPD 12-06-08 11:37 OP:RALL STATUS:               ID:20081109103617     I
 2008-11-09-1036-11S.PLUR1_006                                                 6
 STAT SP IPHASW D HRMM SECON CODA AMPLIT PERI AZIMU VELO AIN AR TRES W  DIS CAZ7
 LA4  SN IP       1036 23.71                              63    0.0110 36.9 155 
 LA4  SZ E        1036 23.93                  352.8  9.0     18        36.9 155 
 LA4  SE IS       1036 27.64                              63   -0.3510 36.9 155 
 LA4  SZ  AML     1036 27.64        22.9 0.20                          36.9 155 
 LZ4  SN IP       1036 26.70                              63    0.3310 54.1 159 
 LZ4  SZ E        1036 27.10                  312.6 12.7    -25        54.1 159 
 LZ4  SE IS       1036 32.61                              63    0.0110 54.1 159 
 LZ4  SZ  AML     1036 36.10        28.3 0.28                          54.1 159 
                                                                                
 2008 11 9 1043 39.8 L  21.626 -99.391 10.0  RAL  1 0.0 0.4LRAL                1
 GAP=360        0.30       3.6     2.2  0.0 -0.7613E+01 -0.2915E+06  0.6169E+06E
 ACTION:UPD 12-06-08 11:37 OP:RALL STATUS:               ID:20081109104339     I
 2008-11-09-1043-32S.PLUR1_003                                                 6
 STAT SP IPHASW D HRMM SECON CODA AMPLIT PERI AZIMU VELO AIN AR TRES W  DIS CAZ7
 LA4  SZ E        1043 43.13                  331.6 10.6      0        17.9 152 
 LA4  SN IP       1043 43.27                             117    0.0010 17.9 152 
 LA4  SE IS       1043 45.80                             117    0.0010 17.9 152 
 LA4  SZ  AML     1043 46.05         7.5 0.28                          17.9 152 
                                                                                
 2008 11 9 1445 57.7 L  21.711 -99.334 10.0  RAL  1 0.0 1.3LRAL                1
 GAP=360        0.30       3.7     1.3  0.0 -0.2134E+01 -0.2915E+06  0.6169E+06E
 ACTION:UPD 12-06-08 11:37 OP:RALL STATUS:               ID:20081109144557     I
 2008-11-09-1445-55S.PLUR1_003                                                 6
 STAT SP IPHASW D HRMM SECON CODA AMPLIT PERI AZIMU VELO AIN AR TRES W  DIS CAZ7
 LZ4  SN IP       1446  4.89                              99    0.0110 42.7 171 
 LZ4  SZ E        1446  4.90                  351.0 12.1      0        42.7 171 
 LZ4  SE IS       1446 10.11                              99   -0.0110 42.7 171 
 LZ4  SZ  AML     1446 13.19        27.2 0.56                          42.7 171 
                                                                                
 2008 11 9 1623 46.9 L  21.684 -99.408 10.0  RAL  1 0.0 1.7LRAL                1
 GAP=360        0.30       3.5     1.8  0.0 -0.4490E+01 -0.2915E+06  0.6169E+06E
 ACTION:UPD 12-06-08 11:37 OP:RALL STATUS:               ID:20081109162346     I
 2008-11-09-1623-40S.PLUR1_003                                                 6
 STAT SP IPHASW D HRMM SECON CODA AMPLIT PERI AZIMU VELO AIN AR TRES W  DIS CAZ7
 LZ4  SN IP       1623 53.96                              99    0.0110 41.7 160 
 LZ4  SZ E        1623 54.03                  339.9  8.3      0        41.7 160 
 LZ4  SE IS       1623 59.06                              99   -0.0110 41.7 160 
 LZ4  SZ  AML     1624  2.36        74.1 0.56                          41.7 160 
                                                                                
