 2008 12 1 0439 11.0 L  21.308 -99.307 10.0  RAL  1 0.0 0.8LRAL                1
 GAP=360        0.35       5.8     9.6  0.0  0.5592E+02  0.4126E+04 -0.1722E+05E
 ACTION:UP  12-06-08 11:37 OP:RALL STATUS:               ID:20081201043911     I
 2008-12-01-0438-58S.PLUR1_003                                                 6
 STAT SP IPHASW D HRMM SECON CODA AMPLIT PERI AZIMU VELO AIN AR TRES W  DIS CAZ7
 LZ4  SN IP        439 13.13                             156    0.1310 4.63  57 
 LZ4  SZ E         439 13.14                  236.9 20.5      0        4.63  57 
 LZ4  SE IS        439 14.32                             156   -0.1310 4.63  57 
 LZ4  SZ  AML      439 14.78        34.6 0.40                          4.63  57 
                                                                                
 2008 12 1 0513 51.1 L  21.582 -99.484 10.0  RAL  2 0.1 1.3LRAL                1
 GAP=343        0.59       5.9     4.4 18.8 -0.2355E+02  0.5826E+02 -0.7955E+02E
 ACTION:UPD 12-06-08 11:37 OP:RALL STATUS:               ID:20081201051351     I
 2008-12-01-0513-42S.PLUR1_006                                                 6
 STAT SP IPHASW D HRMM SECON CODA AMPLIT PERI AZIMU VELO AIN AR TRES W  DIS CAZ7
 LZ4  SN IP        513 56.85                             114   -0.3410 35.6 141 
 LZ4  SZ E         513 56.88                  320.5  7.9      0        35.6 141 
 LZ4  SE IS        514  1.81                             114    0.1710 35.6 141 
 LZ4  SZ  AML      514  5.05       115.7 0.44                          35.6 141 
 LD5  SN IP        513 59.12                             108    0.2010 47.0 159 
 LD5  SZ E         513 59.16                  339.8 10.9      1        47.0 159 
 LD5  SE IS        514  4.61                             108   -0.0310 47.0 159 
 LD5  SZ  AML      514  7.85         7.4 0.30                          47.0 159 
                                                                                
 2008 12 1 0737 13.9 L  21.300 -99.329 10.0  RAL  1 0.0 0.0LRAL                1
 GAP=360        0.30       4.6     0.5  0.0 -0.1604E+01  0.5826E+02 -0.7955E+02E
 ACTION:UPD 12-06-08 11:37 OP:RALL STATUS:               ID:20081201073713     I
 2008-12-01-0737-03S.PLUR1_003                                                 6
 STAT SP IPHASW D HRMM SECON CODA AMPLIT PERI AZIMU VELO AIN AR TRES W  DIS CAZ7
 LD5  SZ E         737 16.60                  356.0  8.4      0        12.6 176 
 LD5  SN IP        737 16.62                             127    0.0010 12.6 176 
 LD5  SE IS        737 18.64                             127    0.0010 12.6 176 
 LD5  SZ  AML      737 20.66         3.6 0.18                          12.6 176 
                                                                                
 2008 12 1 1912 40.5 L  21.715 -99.648 10.0  RAL  1 0.0 0.8LRAL                1
 GAP=360        0.30       2.4     3.3  0.0 -0.6556E+01  0.5826E+02 -0.7955E+02E
 ACTION:UPD 12-06-08 11:37 OP:RALL STATUS:               ID:20081201191240     I
 2008-12-01-1912-39S.PLUR1_003                                                 6
 STAT SP IPHASW D HRMM SECON CODA AMPLIT PERI AZIMU VELO AIN AR TRES W  DIS CAZ7
 LA4  SZ E        1912 47.80                  306.2 12.9      0        43.5 126 
 LA4  SN IP       1912 47.84                              99    0.0210 43.5 126 
 LA4  SE IS       1912 53.14                              99   -0.0210 43.5 126 
 LA4  SZ  AML     1912 54.22         7.7 0.24                          43.5 126 
                                                                                
 2008 12 1 2152 30.9 R                       RAL  0                            1
 ACTION:UPD 12-06-08 11:37 OP:RALL STATUS:               ID:20081201215230     I
 2008-12-01-2152-30S.PLUR1_012                                                 6
 STAT SP IPHASW D HRMM SECON CODA AMPLIT PERI AZIMU VELO AIN AR TRES W  DIS CAZ7
                                                                                
 2008 12 1 2330 43.6 L  21.644 -99.384 10.0  RAL  1 0.0 0.5LRAL                1
 GAP=360        0.30       3.7     1.8  0.0 -0.6403E+01  0.5826E+02 -0.7955E+02E
 ACTION:UPD 12-06-08 11:37 OP:RALL STATUS:               ID:20081201233043     I
 2008-12-01-2330-35S.PLUR1_003                                                 6
 STAT SP IPHASW D HRMM SECON CODA AMPLIT PERI AZIMU VELO AIN AR TRES W  DIS CAZ7
 LA4  SZ E        2330 47.26                  336.4  8.0      0        19.4 156 
 LA4  SN IP       2330 47.32                             114    0.0010 19.4 156 
 LA4  SE IS       2330 50.01                             114    0.0010 19.4 156 
 LA4  SZ  AML     2330 50.60         8.6 0.28                          19.4 156 
                                                                                
 2008 12 2 0102 57.1 L  21.647 -99.369 10.0  RAL  1 0.0 0.2LRAL                1
 GAP=360        0.30       3.9     1.5  0.0 -0.5415E+01  0.5826E+02 -0.7955E+02E
 ACTION:UPD 12-06-08 11:37 OP:RALL STATUS:               ID:20081202010257     I
 2008-12-02-0102-49S.PLUR1_003                                                 6
 STAT SP IPHASW D HRMM SECON CODA AMPLIT PERI AZIMU VELO AIN AR TRES W  DIS CAZ7
 LA4  SN IP        1 3  0.80                             115    0.0010 19.1 161 
 LA4  SZ E         1 3  0.81                  341.0  7.7      0        19.1 161 
 LA4  SE IS        1 3  3.46                             115    0.0010 19.1 161 
 LA4  SZ  AML      1 3  3.61         4.5 0.28                          19.1 161 
                                                                                
 2008 12 2 0546  7.5 L  21.679 -99.376  1.1  RAL  3 0.2 1.7LRAL                1
 GAP=348        2.66      16.3     6.7 17.4 -0.7687E+02  0.1668E+02 -0.3225E+02E
 ACTION:UPD 12-06-08 11:37 OP:RALL STATUS:               ID:20081202054607     I
 2008-12-02-0545-57S.PLUR1_009                                                 6
 STAT SP IPHASW D HRMM SECON CODA AMPLIT PERI AZIMU VELO AIN AR TRES W  DIS CAZ7
 LA4  SN IP        546 11.82                              96    0.3210 22.7 162 
 LA4  SZ E         546 11.85                  350.7  9.3      9        22.7 162 
 LA4  SE IS        546 14.01                              96   -0.4010 22.7 162 
 LA4  SZ  AML      546 14.16       674.1 0.24                          22.7 162 
 LZ4  SZ E         546 14.62                  332.6  6.9    -10        40.1 164 
 LZ4  SN IP        546 14.74                              93    0.2110 40.1 164 
 LZ4  SE IS        546 19.81                              93    0.1610 40.1 164 
 LZ4  SZ  AML      546 22.41        98.7 0.60                          40.1 164 
 LD5  SZ E         546 16.76                  349.3 11.1     -4        54.8 174 
 LD5  SN IP        546 16.78                              63   -0.0410 54.8 174 
 LD5  SE IS        546 23.38                              63   -0.2310 54.8 174 
 LD5  SZ  AML      546 25.26         6.6 0.40                          54.8 174 
                                                                                
 2008 12 2 0609 10.8 L  21.589 -99.357 10.0  RAL  1 0.0 0.1LRAL                1
 GAP=360        0.30       4.3     2.0  0.0 -0.8306E+01  0.1668E+02 -0.3225E+02E
 ACTION:UPD 12-06-08 11:37 OP:RALL STATUS:               ID:20081202060910     I
 2008-12-02-0609-01S.PLUR1_003                                                 6
 STAT SP IPHASW D HRMM SECON CODA AMPLIT PERI AZIMU VELO AIN AR TRES W  DIS CAZ7
 LA4  SN IP        6 9 13.62                             127    0.0110 12.7 157 
 LA4  SZ E         6 9 13.69                  337.0  8.5      0        12.7 157 
 LA4  SE IS        6 9 15.64                             127   -0.0110 12.7 157 
 LA4  SZ  AML      6 9 15.88         4.1 0.24                          12.7 157 
                                                                                
 2008 12 2 0614 13.4 L  21.592 -99.331 10.0  RAL  1 0.0 0.5LRAL                1
 GAP=360        0.30       4.6     1.0  0.0 -0.4315E+01  0.1668E+02 -0.3225E+02E
 ACTION:UPD 12-06-08 11:37 OP:RALL STATUS:               ID:20081202061413     I
 2008-12-02-0614-04S.PLUR1_003                                                 6
 STAT SP IPHASW D HRMM SECON CODA AMPLIT PERI AZIMU VELO AIN AR TRES W  DIS CAZ7
 LA4  SZ E         614 16.14                  349.4  8.6      0        12.2 169 
 LA4  SN IP        614 16.14                             128    0.0010 12.2 169 
 LA4  SE IS        614 18.13                             128    0.0010 12.2 169 
 LA4  SZ  AML      614 18.26        13.0 0.20                          12.2 169 
                                                                                
 2008 12 2 0649 10.8 L  21.662 -99.423 10.0  RAL  1 0.0 1.0LRAL                1
 GAP=360        0.30       3.4     2.2  0.0 -0.7136E+01  0.1668E+02 -0.3225E+02E
 ACTION:UPD 12-06-08 11:37 OP:RALL STATUS:               ID:20081202064910     I
 2008-12-02-0649-03S.PLUR1_003                                                 6
 STAT SP IPHASW D HRMM SECON CODA AMPLIT PERI AZIMU VELO AIN AR TRES W  DIS CAZ7
 LA4  SZ E         649 14.85                  329.3 11.3      0        23.0 149 
 LA4  SN IP        649 14.98                             110    0.0010 23.0 149 
 LA4  SE IS        649 18.05                             110    0.0010 23.0 149 
 LA4  SZ  AML      649 19.80        21.6 0.36                          23.0 149 
                                                                                
 2008 12 3 0058  7.9 L  21.308 -99.365 10.0  RAL  1 0.0 0.8LRAL                1
 GAP=360        0.30       4.2     1.6  0.0 -0.6417E+01  0.1668E+02 -0.3225E+02E
 ACTION:UPD 12-06-08 11:37 OP:RALL STATUS:               ID:20081203005807     I
 2008-12-03-0057-56S.PLUR1_003                                                 6
 STAT SP IPHASW D HRMM SECON CODA AMPLIT PERI AZIMU VELO AIN AR TRES W  DIS CAZ7
 LD5  SN IP        058 10.87                             123    0.0010 14.3 161 
 LD5  SZ E         058 10.91                  341.0 13.8      0        14.3 161 
 LD5  SE IS        058 13.04                             123    0.0010 14.3 161 
 LD5  SZ  AML      058 14.63        22.6 0.22                          14.3 161 
                                                                                
 2008 12 3 0129 59.4 L  21.771 -99.413 10.0  RAL  1 0.0                        1
 GAP=360        0.30       3.6     1.6  0.0 -0.4458E+01  0.1668E+02 -0.3225E+02E
 ACTION:UPD 12-06-08 11:37 OP:RALL STATUS:               ID:20081203012959     I
 2008-12-03-0129-55S.PLUR1_003                                                 6
 STAT SP IPHASW D HRMM SECON CODA AMPLIT PERI AZIMU VELO AIN AR TRES W  DIS CAZ7
 LA4  SN IP        130  5.20                             102    0.0110 33.6 161 
 LA4  SZ E         130  5.23                  341.3  7.9      0        33.6 161 
 LA4  SE IS        130  9.40                             102   -0.0110 33.6 161 
                                                                                
 2008 12 3 0329 25.2 L  21.311 -99.268 10.0  RAL  1 0.0 1.0LRAL                1
 GAP=360        0.30       4.1     1.8  0.0  0.6898E+01  0.1668E+02 -0.3225E+02E
 ACTION:UPD 12-06-08 11:37 OP:RALL STATUS:               ID:20081203032925     I
 2008-12-03-0329-13S.PLUR1_003                                                 6
 STAT SP IPHASW D HRMM SECON CODA AMPLIT PERI AZIMU VELO AIN AR TRES W  DIS CAZ7
 LD5  SZ E         329 28.31                   21.4  9.5      0        14.8 201 
 LD5  SN IP        329 28.31                             122    0.0110 14.8 201 
 LD5  SE IS        329 30.53                             122   -0.0110 14.8 201 
 LD5  SZ  AML      329 31.06        32.0 0.44                          14.8 201 
                                                                                
 2008 12 3 0559 34.3 L  21.239 -99.370 10.0  RAL  1 0.0-0.3LRAL                1
 GAP=360        0.30       4.6     4.3  0.0 -0.1951E+02  0.1668E+02 -0.3225E+02E
 ACTION:UPD 12-06-08 11:37 OP:RALL STATUS:               ID:20081203055934     I
 2008-12-03-0559-23S.PLUR1_003                                                 6
 STAT SP IPHASW D HRMM SECON CODA AMPLIT PERI AZIMU VELO AIN AR TRES W  DIS CAZ7
 LD5  SZ E         559 36.57                  318.8 10.2      0        7.79 139 
 LD5  SN IP        559 36.60                             142    0.0210 7.79 139 
 LD5  SE IS        559 38.19                             142   -0.0210 7.79 139 
 LD5  SZ  AML      559 38.42         2.5 0.12                          7.79 139 
                                                                                
 2008 12 3 0622 12.9 L  21.597 -99.399 10.0  RAL  1 0.0 0.4LRAL                1
 GAP=360        0.30       3.5     2.8  0.0 -0.9421E+01  0.1668E+02 -0.3225E+02E
 ACTION:UPD 12-06-08 11:37 OP:RALL STATUS:               ID:20081203062212     I
 2008-12-03-0622-04S.PLUR1_003                                                 6
 STAT SP IPHASW D HRMM SECON CODA AMPLIT PERI AZIMU VELO AIN AR TRES W  DIS CAZ7
 LA4  SZ E         622 15.84                  323.5  7.5      0        15.7 143 
 LA4  SN IP        622 16.11                             121    0.0110 15.7 143 
 LA4  SE IS        622 18.41                             121   -0.0110 15.7 143 
 LA4  SZ  AML      622 18.58         7.8 0.28                          15.7 143 
                                                                                
 2008 12 3 0711  9.7 L  21.609 -99.376 10.0  RAL  1 0.0 0.3LRAL                1
 GAP=360        0.30       3.9     2.1  0.0 -0.7938E+01  0.1668E+02 -0.3225E+02E
 ACTION:UPD 12-06-08 11:37 OP:RALL STATUS:               ID:20081203071109     I
 2008-12-03-0711-01S.PLUR1_003                                                 6
 STAT SP IPHASW D HRMM SECON CODA AMPLIT PERI AZIMU VELO AIN AR TRES W  DIS CAZ7
 LA4  SZ E         711 12.76                  333.4  7.6      0        15.5 153 
 LA4  SN IP        711 12.84                             121    0.0110 15.5 153 
 LA4  SE IS        711 15.13                             121   -0.0110 15.5 153 
 LA4  SZ  AML      711 15.32         6.0 0.28                          15.5 153 
                                                                                
 2008 12 4 0157 39.3 L  21.339 -99.289  6.4  RAL  3 0.3 1.3LRAL                1
 GAP=161        4.20       2.1     4.6 21.5 -0.8529E+01  0.1135E+02 -0.4652E+01E
 ACTION:UPD 12-06-08 11:37 OP:RALL STATUS:               ID:20081204015739     I
 2008-12-04-0157-26S.PLUR1_009                                                 6
 STAT SP IPHASW D HRMM SECON CODA AMPLIT PERI AZIMU VELO AIN AR TRES W  DIS CAZ7
 LZ4  SZ E         157 40.47                  293.3  8.6      0        2.16 114 
 LZ4  SN IP        157 40.57                             162   -0.0310 2.16 114 
 LZ4  SE IS        157 41.50                             162   -0.0610 2.16 114 
 LZ4  SZ  AML      157 42.70       536.9 0.16                          2.16 114 
 LA4  SZ E         157 42.46                  155.9  9.0    -16        16.2 352 
 LA4  SN IP        157 42.47                             103    0.1610 16.2 352 
 LA4  SE IS        157 45.37                             103    0.8410 16.2 352 
 LA4  SZ  AML      157 47.99        78.1 0.32                          16.2 352 
 LD5  SZ E         157 41.96                  354.2  9.0     17        17.2 191 
 LD5  SN IP        157 41.98                             102   -0.4710 17.2 191 
 LD5  SE IS        157 44.33                             102   -0.4410 17.2 191 
 LD5  SZ  AML      157 45.55        12.7 0.18                          17.2 191 
                                                                                
 2008 12 4 0856  2.5 L  21.220 -99.300 10.0  RAL  1 0.0-0.1LRAL                1
 GAP=360        0.35       9.8     5.9  0.0  0.5762E+02  0.1135E+02 -0.4652E+01E
 ACTION:UPD 12-06-08 11:37 OP:RALL STATUS:               ID:20081204085602     I
 2008-12-04-0855-50S.PLUR1_003                                                 6
 STAT SP IPHASW D HRMM SECON CODA AMPLIT PERI AZIMU VELO AIN AR TRES W  DIS CAZ7
 LD5  SZ E         856  4.46                   29.0  8.7      0        4.25 209 
 LD5  SN IP        856  4.55                             157    0.1210 4.25 209 
 LD5  SE IS        856  5.74                             157   -0.1210 4.25 209 
 LD5  SZ  AML      856  6.16         3.7 0.30                          4.25 209 
                                                                                
 2008 12 4 1615 50.0 L  21.186 -99.332 10.0  RAL  1 0.1 0.5LRAL                1
 GAP=360        1.31     299.7   139.9  0.0  0.4190E+05  0.1135E+02 -0.4652E+01E
 ACTION:UPD 12-06-08 11:37 OP:RALL STATUS:               ID:20081204161550     I
 2008-12-04-1615-37S.PLUR1_003                                                 6
 STAT SP IPHASW D HRMM SECON CODA AMPLIT PERI AZIMU VELO AIN AR TRES W  DIS CAZ7
 LD5  SZ E        1615 51.97                  263.3  9.6     -5        1.27  89 
 LD5  SN IP       1615 52.01                             173    0.2110 1.27  89 
 LD5  SE IS       1615 52.94                             173   -0.2110 1.27  89 
 LD5  SZ  AML     1615 52.99        17.5 0.16                          1.27  89 
                                                                                
 2008 12 5 1539 19.0 L  21.180 -99.299 10.0  RAL  1 0.1-0.2LRAL                1
 GAP=360        0.39       6.5    22.8  0.0 -0.1490E+03  0.1135E+02 -0.4652E+01E
 ACTION:UPD 12-06-08 11:37 OP:RALL STATUS:               ID:20081205153919     I
 2008-12-05-1539-07S.PLUR1_003                                                 6
 STAT SP IPHASW D HRMM SECON CODA AMPLIT PERI AZIMU VELO AIN AR TRES W  DIS CAZ7
 LD5  SZ E        1539 20.91                  107.1 10.6      0        2.28 287 
 LD5  SN IP       1539 21.04                             168    0.1710 2.28 287 
 LD5  SE IS       1539 22.07                             168   -0.1710 2.28 287 
 LD5  SZ  AML     1539 22.13         3.2 0.14                          2.28 287 
                                                                                
 2008 12 5 1725 25.3 L  21.965 -99.558 10.0  RAL  1 0.0 1.5LRAL                1
 GAP=360        0.30       3.4     2.3  0.0 -0.4852E+01  0.1135E+02 -0.4652E+01E
 ACTION:UPD 12-06-08 11:37 OP:RALL STATUS:               ID:20081205172525     I
 2008-12-05-1725-24S.PLUR1_003                                                 6
 STAT SP IPHASW D HRMM SECON CODA AMPLIT PERI AZIMU VELO AIN AR TRES W  DIS CAZ7
 LA4  SZ E        1725 35.00                  334.3 15.4      0        59.2 154 
 LA4  SN IP       1725 35.01                              96    0.0110 59.2 154 
 LA4  SE IS       1725 42.09                              96   -0.0110 59.2 154 
 LA4  SZ  AML     1725 43.12        32.1 0.28                          59.2 154 
                                                                                
 2008 12 5 2241  8.6 L  21.285 -99.434 10.0  RAL  1 0.0 0.9LRAL                1
 GAP=360        0.30       3.4     2.2  0.0  0.6834E+01  0.1135E+02 -0.4652E+01E
 ACTION:UPD 12-06-08 11:37 OP:RALL STATUS:               ID:20081205224108     I
 2008-12-05-2241-03S.PLUR1_003                                                 6
 STAT SP IPHASW D HRMM SECON CODA AMPLIT PERI AZIMU VELO AIN AR TRES W  DIS CAZ7
 LA4  SZ E        2241 13.17                  210.5 11.6      0        25.5  30 
 LA4  SN IP       2241 13.19                             108    0.0010 25.5  30 
 LA4  SE IS       2241 16.53                             108    0.0010 25.5  30 
 LA4  SZ  AML     2241 18.61        16.3 0.48                          25.5  30 
                                                                                
