 2008 1112 0808 27.7 L  21.837 -99.362 10.0  RAL  1 0.0 1.5LRAL                1
 GAP=360        0.30       3.7     1.2  0.0 -0.1943E+01  0.1336E+02 -0.9477E+01E
 ACTION:UPD 12-06-08 11:37 OP:RALL STATUS:               ID:20081112080827     I
 2008-11-12-0808-22S.PLUR1_003                                                 6
 STAT SP IPHASW D HRMM SECON CODA AMPLIT PERI AZIMU VELO AIN AR TRES W  DIS CAZ7
 LA4  SZ E         8 8 34.35                  352.0  8.0      0        39.5 172 
 LA4  SN IP        8 8 34.37                             100    0.0110 39.5 172 
 LA4  SE IS        8 8 39.24                             100   -0.0110 39.5 172 
 LA4  SZ  AML      8 8 41.86        51.4 0.64                          39.5 172 
                                                                                
 2008 1112 1506  9.2 L  21.878 -99.642 10.0  RAL  1 0.0 1.6LRAL                1
 GAP=360        0.30       3.3     2.7  0.0 -0.5043E+01  0.1336E+02 -0.9477E+01E
 ACTION:UPD 12-06-08 11:37 OP:RALL STATUS:               ID:20081112150609     I
 2008-11-12-1506-06S.PLUR1_003                                                 6
 STAT SP IPHASW D HRMM SECON CODA AMPLIT PERI AZIMU VELO AIN AR TRES W  DIS CAZ7
 LZ4  SN IP       15 6 20.92                              95    0.0110 71.8 147 
 LZ4  SZ E        15 6 20.95                  327.6  8.6      0        71.8 147 
 LZ4  SZ  AML     15 6 29.14        33.9 0.40                          71.8 147 
 LZ4  SE IS       15 6 29.42                              95   -0.0110 71.8 147 
                                                                                
 2008 1112 1638  5.5 L  21.251 -99.252 10.0  RAL  1 0.0 0.3LRAL                1
 GAP=360        0.30       5.4     1.2  0.0 -0.6401E+01  0.1336E+02 -0.9477E+01E
 ACTION:UPD 12-06-08 11:37 OP:RALL STATUS:               ID:20081112163805     I
 2008-11-12-1637-54S.PLUR1_003                                                 6
 STAT SP IPHASW D HRMM SECON CODA AMPLIT PERI AZIMU VELO AIN AR TRES W  DIS CAZ7
 LZ4  SN IP       1638  7.92                             138    0.0110 9.06 348 
 LZ4  SZ E        1638  8.03                  168.3 32.3      0        9.06 348 
 LZ4  SE IS       1638  9.63                             138   -0.0110 9.06 348 
 LZ4  SZ  AML     1638 12.22         9.1 0.20                          9.06 348 
                                                                                
 2008 1112 1859 57.2 L  21.610 -99.388 10.0  RAL  1 0.0 0.4LRAL                1
 GAP=360        0.30       3.7     2.3  0.0 -0.8404E+01  0.1336E+02 -0.9477E+01E
 ACTION:UPD 12-06-08 11:37 OP:RALL STATUS:               ID:20081112185957     I
 2008-11-12-1859-48S.PLUR1_003                                                 6
 STAT SP IPHASW D HRMM SECON CODA AMPLIT PERI AZIMU VELO AIN AR TRES W  DIS CAZ7
 LA4  SZ E        19 0  0.51                  329.6 10.0      0        16.2 150 
 LA4  SN IP       19 0  0.51                             120    0.0110 16.2 150 
 LA4  SE IS       19 0  2.87                             120   -0.0110 16.2 150 
 LA4  SZ  AML     19 0  5.01         7.9 0.24                          16.2 150 
                                                                                
 2008 1113 0347  8.9 L  21.590 -99.299 10.0  RAL  1 0.0 0.6LRAL                1
 GAP=360        0.30       4.8     0.6  0.0  0.2215E+01  0.1336E+02 -0.9477E+01E
 ACTION:UPD 12-06-08 11:37 OP:RALL STATUS:               ID:20081113034708     I
 2008-11-13-0346-59S.PLUR1_003                                                 6
 STAT SP IPHASW D HRMM SECON CODA AMPLIT PERI AZIMU VELO AIN AR TRES W  DIS CAZ7
 LA4  SZ E         347 11.27                    5.2  9.0      0        11.8 185 
 LA4  SN IP        347 11.63                             129    0.0010 11.8 185 
 LA4  SE IS        347 13.59                             129    0.0010 11.8 185 
 LA4  SZ  AML      347 15.15        14.3 0.36                          11.8 185 
                                                                                
 2008 1113 0503  6.3 L  21.215 -99.281 10.0  RAL  1 0.0-0.2LRAL                1
 GAP=360        0.32       5.4     7.3  0.0  0.3920E+02  0.1336E+02 -0.9477E+01E
 ACTION:UPD 12-06-08 11:37 OP:RALL STATUS:               ID:20081113050306     I
 2008-11-13-0502-55S.PLUR1_003                                                 6
 STAT SP IPHASW D HRMM SECON CODA AMPLIT PERI AZIMU VELO AIN AR TRES W  DIS CAZ7
 LD5  SZ E         5 3  8.38                   51.8 10.2      0        5.19 232 
 LD5  SN IP        5 3  8.42                             153    0.0710 5.19 232 
 LD5  SE IS        5 3  9.75                             153   -0.0710 5.19 232 
 LD5  SZ  AML      5 3 10.01         2.9 0.10                          5.19 232 
                                                                                
 2008 1113 0656  0.4 L  21.262 -99.298 10.0  RAL  1 0.0-0.3LRAL                1
 GAP=360        0.30       5.4     1.6  0.0  0.8791E+01  0.1336E+02 -0.9477E+01E
 ACTION:UPD 12-06-08 11:37 OP:RALL STATUS:               ID:20081113065600     I
 2008-11-13-0655-49S.PLUR1_003                                                 6
 STAT SP IPHASW D HRMM SECON CODA AMPLIT PERI AZIMU VELO AIN AR TRES W  DIS CAZ7
 LD5  SZ E         656  2.62                   15.6 10.8      0        8.71 196 
 LD5  SN IP        656  2.76                             139    0.0210 8.71 196 
 LD5  SE IS        656  4.43                             139   -0.0210 8.71 196 
 LD5  SZ  AML      656  5.32         2.1 0.26                          8.71 196 
                                                                                
 2008 1113 0757 12.4 L  21.276 -99.268 10.0  RAL  2 0.2 0.3LRAL                1
 GAP=211        1.65       3.4     0.7 16.3  0.3075E+00  0.3900E+00  0.1186E+02E
 ACTION:UPD 12-06-08 11:37 OP:RALL STATUS:               ID:20081113075712     I
 2008-11-13-0757-00S.PLUR1_006                                                 6
 STAT SP IPHASW D HRMM SECON CODA AMPLIT PERI AZIMU VELO AIN AR TRES W  DIS CAZ7
 LZ4  SZ E         757 14.95                  175.7  9.2     -1        6.04 358 
 LZ4  SN IP        757 14.96                             156    0.4310 6.04 358 
 LZ4  SE IS        757 16.45                             156    0.4010 6.04 358 
 LZ4  SZ  AML      757 17.33        36.8 0.72                          6.04 358 
 LD5  SN IP        757 14.86                             133   -0.2010 11.3 209 
 LD5  SZ E         757 14.87                   22.6  9.2     -5        11.3 209 
 LD5  SE IS        757 16.34                             133   -0.6310 11.3 209 
 LD5  SZ  AML      757 17.11         2.5 0.16                          11.3 209 
                                                                                
 2008 1113 0824 16.7 L  21.502 -99.634 20.5  RAL  2 0.1 1.0LRAL                1
 GAP=337        1.04       2.5     8.1 19.2 -0.1037E+02  0.4473E+02 -0.3581E+01E
 ACTION:UPD 12-06-08 11:37 OP:RALL STATUS:               ID:20081113082416     I
 2008-11-13-0824-10S.PLUR1_006                                                 6
 STAT SP IPHASW D HRMM SECON CODA AMPLIT PERI AZIMU VELO AIN AR TRES W  DIS CAZ7
 LA4  SZ E         824 22.91                  270.1 12.8     -2        33.7  93 
 LA4  SN IP        824 23.14                             122   -0.0110 33.7  93 
 LA4  SE IS        824 27.77                             122   -0.0710 33.7  93 
 LA4  SZ  AML      824 31.93         9.0 0.44                          33.7  93 
 LZ4  SN IP        824 24.11                             106   -0.2110 42.3 117 
 LZ4  SZ E         824 24.14                  299.7  7.7      3        42.3 117 
 LZ4  SE IS        824 30.14                             106    0.2910 42.3 117 
 LZ4  SZ  AML      824 31.86        21.2 0.48                          42.3 117 
                                                                                
 2008 1114 0016 46.8 L  21.341 -99.318  1.5  RAL  3 0.9 0.5LRAL                1
 GAP=182       16.24       8.3    17.4391.8 -0.5819E+02  0.1739E+04 -0.3734E+03E
 ACTION:UPD 12-06-08 11:37 OP:RALL STATUS:               ID:20081114001646     I
 2008-11-14-0016-33S.PLUR1_009                                                 6
 STAT SP IPHASW D HRMM SECON CODA AMPLIT PERI AZIMU VELO AIN AR TRES W  DIS CAZ7
 LZ4  SZ E         016 47.50                  286.0 11.5      3        5.11 102 
 LZ4  SN IP        016 47.52                             102   -0.2910 5.11 102 
 LZ4  SE IS        016 48.45                             102   -0.0910 5.11 102 
 LZ4  SZ  AML      016 48.64       149.5 0.16                          5.11 102 
 LA4  SZ E         016 49.52                  122.4 10.2    -60        15.8   3 
 LA4  SN IP        016 49.78                              94    0.1610 15.8   3 
 LA4  SE IS        016 52.70                              94    1.0310 15.8   3 
 LA4  SZ  AML      016 56.10         8.8 0.36                          15.8   3 
 LD5  SZ E         016 48.45                  289.8 30.5     71        17.1 181 
 LD5  SN IP        016 49.29                              94   -0.5410 17.1 181 
 LD5  SE IS        016 51.76                              94   -0.2810 17.1 181 
 LD5  SZ  AML      016 52.17         2.8 0.56                          17.1 181 
                                                                                
 2008 1114 0034 52.7 L  21.349 -99.343  0.0  RAL  3 0.3 0.7LRAL                1
 GAP=201        1.68       1.2     1.8 73.3 -0.6162E+00  0.2839E+02 -0.4292E+01E
 ACTION:UPD 12-06-08 11:37 OP:RALL STATUS:               ID:20081114003452     I
 2008-11-14-0034-39S.PLUR1_009                                                 6
 STAT SP IPHASW D HRMM SECON CODA AMPLIT PERI AZIMU VELO AIN AR TRES W  DIS CAZ7
 LZ4  SZ E         034 53.57                  288.0  8.0      3        7.85 105 
 LZ4  SN IP        034 53.65                              98   -0.4010 7.85 105 
 LZ4  SE IS        034 54.62                              98   -0.4410 7.85 105 
 LZ4  SZ  AML      034 54.77       249.8 0.16                          7.85 105 
 LA4  SN IP        034 55.61                              94    0.2710 15.2  13 
 LA4  SZ E         034 55.81                  194.5  8.2      1        15.2  13 
 LA4  SE IS        034 58.83                              94    1.5410 15.2  13 
 LA4  SZ  AML      035  1.99        13.1 0.56                          15.2  13 
 LD5  SZ E         034 55.23                  351.7 15.9      0        18.2 173 
 LD5  SN IP        034 55.47                              93   -0.3810 18.2 173 
 LD5  SE IS        034 57.58                              93   -0.6010 18.2 173 
 LD5  SZ  AML      035  0.25         3.3 0.56                          18.2 173 
                                                                                
 2008 1114 0245  6.4 L  21.301 -99.298 10.0  RAL  1 0.0 0.5LRAL                1
 GAP=360        0.35       8.1     7.9  0.0  0.6467E+02  0.2839E+02 -0.4292E+01E
 ACTION:UPD 12-06-08 11:37 OP:RALL STATUS:               ID:20081114024506     I
 2008-11-14-0244-55S.PLUR1_003                                                 6
 STAT SP IPHASW D HRMM SECON CODA AMPLIT PERI AZIMU VELO AIN AR TRES W  DIS CAZ7
 LZ4  SZ E         245  8.48                  222.3 25.2      0        4.41  42 
 LZ4  SN IP        245  8.51                             157    0.1210 4.41  42 
 LZ4  SE IS        245  9.70                             157   -0.1210 4.41  42 
 LZ4  SZ  AML      245 10.13        16.7 0.80                          4.41  42 
                                                                                
 2008 1114 0505  5.5 L  21.327 -99.248 10.0  RAL  2 0.6 0.5LRAL                1
 GAP=226        6.40      13.2     7.9134.0  0.6578E+01 -0.4303E+02 -0.2722E+02E
 ACTION:UPD 12-06-08 11:37 OP:RALL STATUS:               ID:20081114050505     I
 2008-11-14-0504-54S.PLUR1_006                                                 6
 STAT SP IPHASW D HRMM SECON CODA AMPLIT PERI AZIMU VELO AIN AR TRES W  DIS CAZ7
 LD5  SZ E         5 5  7.83                  356.9 11.4     29        17.2 206 
 LD5  SN IP        5 5  7.84                             115   -1.0010 17.2 206 
 LD5  SE IS        5 5  9.86                             115   -1.4510 17.2 206 
 LD5  SZ  AML      5 5 10.49         5.5 0.18                          17.2 206 
 LA4  SZ E         5 5  9.37                  160.5 12.9      0        18.5 340 
 LA4  SN IP        5 5 10.10                             115    1.0810 18.5 340 
 LA4  SE IS        5 5 13.00                             115    1.3810 18.5 340 
 LA4  SZ  AML      5 5 13.28        13.3 0.28                          18.5 340 
                                                                                
 2008 1114 0916 37.9 L  21.698 -99.359 10.0  RAL  1 0.0 1.0LRAL                1
 GAP=360        0.30       3.8     1.1  0.0 -0.3374E+01 -0.4303E+02 -0.2722E+02E
 ACTION:UPD 12-06-08 11:37 OP:RALL STATUS:               ID:20081114091637     I
 2008-11-14-0916-29S.PLUR1_003                                                 6
 STAT SP IPHASW D HRMM SECON CODA AMPLIT PERI AZIMU VELO AIN AR TRES W  DIS CAZ7
 LA4  SZ E         916 42.32                  347.6 11.3      0        24.3 168 
 LA4  SN IP        916 42.36                             109    0.0210 24.3 168 
 LA4  SE IS        916 45.54                             109   -0.0210 24.3 168 
 LA4  SZ  AML      916 46.95        21.6 0.28                          24.3 168 
                                                                                
 2008 1114 1017  6.8 L  21.210 -99.275 10.0  RAL  1 0.0-0.5LRAL                1
 GAP=360        0.31       4.0     7.7  0.0  0.3095E+02 -0.4303E+02 -0.2722E+02E
 ACTION:UPD 12-06-08 11:37 OP:RALL STATUS:               ID:20081114101706     I
 2008-11-14-1016-55S.PLUR1_003                                                 6
 STAT SP IPHASW D HRMM SECON CODA AMPLIT PERI AZIMU VELO AIN AR TRES W  DIS CAZ7
 LD5  SZ E        1017  8.87                   61.0 12.8      0        5.31 241 
 LD5  SN IP       1017  8.88                             152    0.0510 5.31 241 
 LD5  SE IS       1017 10.26                             152   -0.0510 5.31 241 
 LD5  SZ  AML     1017 10.66         1.7 0.16                          5.31 241 
                                                                                
 2008 1114 1753 49.9 L  21.681 -99.547 10.0  RAL  1 0.0 0.8LRAL                1
 GAP=360        0.30       2.6     3.1  0.0 -0.7367E+01 -0.4303E+02 -0.2722E+02E
 ACTION:UPD 12-06-08 11:37 OP:RALL STATUS:               ID:20081114175349     I
 2008-11-14-1753-45S.PLUR1_003                                                 6
 STAT SP IPHASW D HRMM SECON CODA AMPLIT PERI AZIMU VELO AIN AR TRES W  DIS CAZ7
 LA4  SN IP       1753 55.65                             103    0.0210 32.9 132 
 LA4  SZ E        1753 55.67                  311.7 10.0      0        32.9 132 
 LA4  SE IS       1753 59.76                             103   -0.0210 32.9 132 
 LA4  SZ  AML     1754  0.12        12.1 0.64                          32.9 132 
                                                                                
 2008 1114 1934 27.9 L  21.816 -99.597 10.0  RAL  1 0.0 0.9LRAL                1
 GAP=360        0.30       3.0     2.7  0.0 -0.6578E+01 -0.4303E+02 -0.2722E+02E
 ACTION:UPD 12-06-08 11:37 OP:RALL STATUS:               ID:20081114193427     I
 2008-11-14-1934-27S.PLUR1_003                                                 6
 STAT SP IPHASW D HRMM SECON CODA AMPLIT PERI AZIMU VELO AIN AR TRES W  DIS CAZ7
 LA4  SZ E        1934 35.83                  321.0  9.3      0        47.4 141 
 LA4  SN IP       1934 35.83                              98    0.0210 47.4 141 
 LA4  SE IS       1934 41.57                              98   -0.0210 47.4 141 
 LA4  SZ  AML     1934 44.57         9.3 0.64                          47.4 141 
                                                                                
 2008 1114 2139 53.5 L  21.331 -99.277 10.0  RAL  3 0.3 1.0LRAL                1
 GAP=153        4.41       1.9     5.2 26.9  0.5437E+01  0.6290E+01  0.1129E+01E
 ACTION:UPD 12-06-08 11:37 OP:RALL STATUS:               ID:20081114213953     I
 2008-11-14-2139-40S.PLUR1_009                                                 6
 STAT SP IPHASW D HRMM SECON CODA AMPLIT PERI AZIMU VELO AIN AR TRES W  DIS CAZ7
 LZ4  SZ E        2139 55.12                  293.3  8.3     21        0.79  92 
 LZ4  SN EP       2139 55.12                             178   -0.2110 0.79  92 
 LZ4  SE IS       2139 56.03                             178   -0.6410 0.79  92 
 LZ4  SZ  AML     2139 56.18       412.6 0.16                          0.79  92 
 LD5  SN IP       2139 56.91                             118    0.1210 16.6 196 
 LD5  SZ E        2139 56.96                   14.6  9.2      0        16.6 196 
 LD5  SE IS       2139 59.48                             118    0.2810 16.6 196 
 LD5  SZ  AML     2140  0.63         4.2 0.16                          16.6 196 
 LA4  SN IP       2139 57.02                             116    0.1410 17.2 349 
 LA4  SZ E        2139 57.04                  154.9  9.9    -13        17.2 349 
 LA4  SE IS       2139 59.68                             116    0.3210 17.2 349 
 LA4  SZ  AML     2140  0.96        35.3 0.36                          17.2 349 
                                                                                
 2008 1115 0009 27.0 L  21.466 -99.379 10.0  RAL  1 0.0 1.1LRAL                1
 GAP=360        0.30       1.7     6.5  0.0  0.1068E+02  0.6290E+01  0.1129E+01E
 ACTION:UPD 12-06-08 11:37 OP:RALL STATUS:               ID:20081115000927     I
 2008-11-15-0009-15S.PLUR1_003                                                 6
 STAT SP IPHASW D HRMM SECON CODA AMPLIT PERI AZIMU VELO AIN AR TRES W  DIS CAZ7
 LA4  SZ E         0 9 29.02                  254.6 12.8      0        7.54  75 
 LA4  SN IP        0 9 29.26                             143    0.0210 7.54  75 
 LA4  SE IS        0 9 30.84                             143   -0.0210 7.54  75 
 LA4  SZ  AML      0 9 32.00        53.1 0.32                          7.54  75 
                                                                                
 2008 1115 0025 19.9 L  21.631 -99.324 10.0  RAL  1 0.0 0.4LRAL                1
 GAP=360        0.30       4.2     0.6  0.0 -0.1850E+01  0.6290E+01  0.1129E+01E
 ACTION:UPD 12-06-08 11:37 OP:RALL STATUS:               ID:20081115002519     I
 2008-11-15-0025-11S.PLUR1_003                                                 6
 STAT SP IPHASW D HRMM SECON CODA AMPLIT PERI AZIMU VELO AIN AR TRES W  DIS CAZ7
 LA4  SZ E         025 23.15                  354.5 11.5      0        16.4 174 
 LA4  SN IP        025 23.16                             119    0.0210 16.4 174 
 LA4  SE IS        025 25.51                             119   -0.0210 16.4 174 
 LA4  SZ  AML      025 26.45         7.7 0.20                          16.4 174 
                                                                                
