 2008  926 0945 54.4 L  21.337 -99.272 10.0  RAL  1 0.6-0.2LRAL                1
 GAP=360        6.50     999.9   999.9  0.0  0.1045E+08  0.1942E+01  0.1917E+00E
 ACTION:UPD 12-06-08 11:37 OP:RALL STATUS:               ID:20080926094554     I
 2008-09-26-0945-42S.PLUR1_003                                                 6
 STAT SP IPHASW D HRMM SECON CODA AMPLIT PERI AZIMU VELO AIN AR TRES W  DIS CAZ7
 LZ4  SZ E         945 56.19                    9.2 35.9     31        0.69 159 
 LZ4  SN IP     C  945 56.88                             176    0.6410 0.69 159 
 LZ4  SE IS     D  945 56.94                             176   -0.6410 0.69 159 
 LZ4  SZ  AML      945 57.89         3.4 0.56                          0.69 159 
                                                                                
 2008  926 1034 56.5 L  21.631 -99.460 10.0  RAL  1 0.0 1.2LRAL                1
 GAP=360        0.30       3.3     2.3  0.0 -0.6232E+01  0.1942E+01  0.1917E+00E
 ACTION:UPD 12-06-08 11:37 OP:RALL STATUS:               ID:20080926103456     I
 2008-09-26-1034-49S.PLUR1_003                                                 6
 STAT SP IPHASW D HRMM SECON CODA AMPLIT PERI AZIMU VELO AIN AR TRES W  DIS CAZ7
 LZ4  SN IP       1035  3.06                             100    0.0210 38.6 149 
 LZ4  SZ E        1035  3.09                  329.3  7.0      0        38.6 149 
 LZ4  SE IS       1035  7.81                             100   -0.0210 38.6 149 
 LZ4  SZ  AML     1035 10.49        25.9 0.40                          38.6 149 
                                                                                
 2008  926 1038  7.7 L  21.330 -99.277 10.0  RAL  1 0.1 0.2LRAL                1
 GAP=360        0.42     999.9   249.3  0.0 -0.1445E+07  0.1942E+01  0.1917E+00E
 ACTION:UPD 12-06-08 11:37 OP:RALL STATUS:               ID:20080926103807     I
 2008-09-26-1037-56S.PLUR1_003                                                 6
 STAT SP IPHASW D HRMM SECON CODA AMPLIT PERI AZIMU VELO AIN AR TRES W  DIS CAZ7
 LZ4  SZ E        1038  9.50                  267.8 10.3      1        0.78  87 
 LZ4  SN IP     D 1038  9.66                             176    0.1710 0.78  87 
 LZ4  SE IS       1038 10.66                             176   -0.1710 0.78  87 
 LZ4  SZ  AML     1038 11.24        10.0 0.48                          0.78  87 
                                                                                
 2008  926 1041  7.4 L  21.234 -99.274 10.0  RAL  1 0.0 0.3LRAL                1
 GAP=360        0.30       5.0     0.4  0.0  0.1208E+01  0.1942E+01  0.1917E+00E
 ACTION:UPD 12-06-08 11:37 OP:RALL STATUS:               ID:20080926104107     I
 2008-09-26-1040-57S.PLUR1_003                                                 6
 STAT SP IPHASW D HRMM SECON CODA AMPLIT PERI AZIMU VELO AIN AR TRES W  DIS CAZ7
 LZ4  SZ E        1041  9.89                  182.6  8.9      0        10.7   3 
 LZ4  SN IP     D 1041  9.95                             132    0.0010 10.7   3 
 LZ4  SE IS     D 1041 11.81                             132    0.0010 10.7   3 
 LZ4  SZ  AML     1041 13.74         8.1 0.76                          10.7   3 
                                                                                
 2008  926 1109 27.1 L  21.341 -99.291 10.0  RAL  1 0.1 0.0LRAL                1
 GAP=360        0.52      12.4    25.8  0.0 -0.3209E+03  0.1942E+01  0.1917E+00E
 ACTION:UPD 12-06-08 11:37 OP:RALL STATUS:               ID:20080926110927     I
 2008-09-26-1109-15S.PLUR1_003                                                 6
 STAT SP IPHASW D HRMM SECON CODA AMPLIT PERI AZIMU VELO AIN AR TRES W  DIS CAZ7
 LZ4  SZ E        11 9 29.20                  297.3  7.5      0        2.55 117 
 LZ4  SN IP       11 9 29.31                             166    0.2910 2.55 117 
 LZ4  SE IS       11 9 30.10                             166   -0.2910 2.55 117 
 LZ4  SZ  AML     11 9 30.63         4.9 0.40                          2.55 117 
                                                                                
 2008  926 1127 56.9 L  21.209 -99.243 10.0  RAL  1 0.0 0.5LRAL                1
 GAP=360        0.30       4.4     1.0  0.0 -0.4168E+01  0.1942E+01  0.1917E+00E
 ACTION:UPD 12-06-08 11:37 OP:RALL STATUS:               ID:20080926112756     I
 2008-09-26-1127-46S.PLUR1_003                                                 6
 STAT SP IPHASW D HRMM SECON CODA AMPLIT PERI AZIMU VELO AIN AR TRES W  DIS CAZ7
 LZ4  SZ E        1127 59.78                  168.5 16.3      0        13.8 349 
 LZ4  SN IP     D 1127 59.86                             124    0.0010 13.8 349 
 LZ4  SE IS     D 1128  1.99                             124    0.0010 13.8 349 
 LZ4  SZ  AML     1128  3.66        10.6 0.72                          13.8 349 
                                                                                
 2008  926 1321 12.6 L  21.461 -99.522 10.0  RAL  1 0.0 0.8LRAL                1
 GAP=360        0.30       2.0     3.6  0.0 -0.6398E+01  0.1942E+01  0.1917E+00E
 ACTION:UPD 12-06-08 11:37 OP:RALL STATUS:               ID:20080926132112     I
 2008-09-26-1321-07S.PLUR1_003                                                 6
 STAT SP IPHASW D HRMM SECON CODA AMPLIT PERI AZIMU VELO AIN AR TRES W  DIS CAZ7
 LZ4  SN IP       1321 17.87                             104    0.0210 29.9 119 
 LZ4  SZ E        1321 17.90                  298.9 12.5      0        29.9 119 
 LZ4  SE IS       1321 21.64                             104   -0.0210 29.9 119 
 LZ4  SZ  AML     1321 25.23        10.8 0.44                          29.9 119 
                                                                                
 2008  926 1351 17.3 L  21.436 -99.350 10.0  RAL  1 0.0 0.2LRAL                1
 GAP=360        0.30       3.6     2.8  0.0 -0.9860E+01  0.1942E+01  0.1917E+00E
 ACTION:UPD 12-06-08 11:37 OP:RALL STATUS:               ID:20080926135117     I
 2008-09-26-1351-07S.PLUR1_003                                                 6
 STAT SP IPHASW D HRMM SECON CODA AMPLIT PERI AZIMU VELO AIN AR TRES W  DIS CAZ7
 LZ4  SN IP       1351 20.26                             123    0.0110 14.3 144 
 LZ4  SZ E        1351 20.72                  324.5 11.3      0        14.3 144 
 LZ4  SZ  AML     1351 22.40         5.8 0.20                          14.3 144 
 LZ4  SE IS     D 1351 22.42                             123   -0.0110 14.3 144 
                                                                                
 2008  926 1424 55.0 L  21.343 -99.293 10.0  RAL  1 0.1 0.5LRAL                1
 GAP=360        0.50      11.7    22.8  0.0 -0.2673E+03  0.1942E+01  0.1917E+00E
 ACTION:UPD 12-06-08 11:37 OP:RALL STATUS:               ID:20080926142455     I
 2008-09-26-1424-43S.PLUR1_003                                                 6
 STAT SP IPHASW D HRMM SECON CODA AMPLIT PERI AZIMU VELO AIN AR TRES W  DIS CAZ7
 LZ4  SZ E        1424 57.12                  299.0  7.5      0        2.75 119 
 LZ4  SN IP       1424 57.17                             165    0.2710 2.75 119 
 LZ4  SE IS     D 1424 58.00                             165   -0.2710 2.75 119 
 LZ4  SZ  AML     1424 58.13        15.5 0.12                          2.75 119 
                                                                                
 2008  926 1452 17.8 L  21.457 -99.036 10.0  RAL  1 0.0 0.8LRAL                1
 GAP=360        0.30       0.8     4.1  0.0 -0.1608E+01  0.1942E+01  0.1917E+00E
 ACTION:UPD 12-06-08 11:37 OP:RALL STATUS:               ID:20080926145217     I
 2008-09-26-1452-13S.PLUR1_003                                                 6
 STAT SP IPHASW D HRMM SECON CODA AMPLIT PERI AZIMU VELO AIN AR TRES W  DIS CAZ7
 LA4  SN IP       1452 22.79                             105    0.0110 28.4 276 
 LA4  SZ E        1452 22.91                   96.0 46.5      0        28.4 276 
 LA4  SE IS       1452 26.43                             105   -0.0110 28.4 276 
 LA4  SZ  AML     1452 28.88        11.9 0.60                          28.4 276 
                                                                                
 2008  926 1459 31.5 L  21.612 -99.335 10.0  RAL  1 0.0 0.6LRAL                1
 GAP=360        0.30       4.3     1.0  0.0 -0.3862E+01  0.1942E+01  0.1917E+00E
 ACTION:UPD 12-06-08 11:37 OP:RALL STATUS:               ID:20080926145931     I
 2008-09-26-1459-21S.PLUR1_003                                                 6
 STAT SP IPHASW D HRMM SECON CODA AMPLIT PERI AZIMU VELO AIN AR TRES W  DIS CAZ7
 LA4  SZ E        1459 34.15                  349.1  8.5      0        14.4 169 
 LA4  SN IP       1459 34.47                             123    0.0010 14.4 169 
 LA4  SE IS     D 1459 36.67                             123    0.0010 14.4 169 
 LA4  SZ  AML     1459 37.20        12.1 0.24                          14.4 169 
                                                                                
 2008  926 1514  8.2 L  21.694 -99.177 10.0  RAL  1 0.0 0.5LRAL                1
 GAP=360        0.30       3.4     2.2  0.0  0.6866E+01  0.1942E+01  0.1917E+00E
 ACTION:UPD 12-06-08 11:37 OP:RALL STATUS:               ID:20080926151408     I
 2008-09-26-1514-02S.PLUR1_003                                                 6
 STAT SP IPHASW D HRMM SECON CODA AMPLIT PERI AZIMU VELO AIN AR TRES W  DIS CAZ7
 LA4  SN IP       1514 13.02                             106    0.0310 27.0 211 
 LA4  SZ E        1514 13.12                   30.5 14.8      0        27.0 211 
 LA4  SE IS       1514 16.47                             106   -0.0310 27.0 211 
 LA4  SZ  AML     1514 17.81         6.0 0.52                          27.0 211 
                                                                                
 2008  926 1528 46.3 L  21.503 -99.323 10.0  RAL  1 0.1 0.1LRAL                1
 GAP=360        0.63      26.3    19.5  0.0 -0.5111E+03  0.1942E+01  0.1917E+00E
 ACTION:UPD 12-06-08 11:37 OP:RALL STATUS:               ID:20080926152846     I
 2008-09-26-1528-34S.PLUR1_003                                                 6
 STAT SP IPHASW D HRMM SECON CODA AMPLIT PERI AZIMU VELO AIN AR TRES W  DIS CAZ7
 LA4  SZ E        1528 48.52                  325.4 14.5      0        2.62 145 
 LA4  SN IP     D 1528 48.52                             166    0.3710 2.62 145 
 LA4  SE IS       1528 49.16                             166   -0.3710 2.62 145 
 LA4  SZ  AML     1528 49.35         6.8 0.20                          2.62 145 
                                                                                
 2008  926 1655 55.7 L  21.511 -99.302 10.0  RAL  1 0.0 0.4LRAL                1
 GAP=360        0.30      12.9     3.2  0.0  0.4120E+02  0.1942E+01  0.1917E+00E
 ACTION:UPD 12-06-08 11:37 OP:RALL STATUS:               ID:20080926165555     I
 2008-09-26-1655-45S.PLUR1_003                                                 6
 STAT SP IPHASW D HRMM SECON CODA AMPLIT PERI AZIMU VELO AIN AR TRES W  DIS CAZ7
 LA4  SN IP       1655 57.71                             163    0.0510 3.10 193 
 LA4  SZ E        1655 57.77                   12.9 15.0      0        3.10 193 
 LA4  SE IS       1655 59.01                             163   -0.0510 3.10 193 
 LA4  SZ  AML     1656  0.77        15.0 0.28                          3.10 193 
                                                                                
 2008  926 1708 15.7 L  21.628 -99.313 10.0  RAL  1 0.0 1.1LRAL                1
 GAP=360        0.30       4.3     0.5  0.0 -0.5158E+00  0.1942E+01  0.1917E+00E
 ACTION:UPD 12-06-08 11:37 OP:RALL STATUS:               ID:20080926170815     I
 2008-09-26-1708-07S.PLUR1_003                                                 6
 STAT SP IPHASW D HRMM SECON CODA AMPLIT PERI AZIMU VELO AIN AR TRES W  DIS CAZ7
 LA4  SN IP       17 8 18.92                             120    0.0210 16.0 178 
 LA4  SZ E        17 8 18.97                  358.5  8.0      0        16.0 178 
 LA4  SE IS     D 17 8 21.23                             120   -0.0210 16.0 178 
 LA4  SZ  AML     17 8 21.46        39.2 0.32                          16.0 178 
                                                                                
 2008  926 1734 27.2 L  21.522 -99.301 10.0  RAL  1 0.0 0.4LRAL                1
 GAP=360        0.30       9.4     2.0  0.0  0.1860E+02  0.1942E+01  0.1917E+00E
 ACTION:UPD 12-06-08 11:37 OP:RALL STATUS:               ID:20080926173427     I
 2008-09-26-1734-16S.PLUR1_003                                                 6
 STAT SP IPHASW D HRMM SECON CODA AMPLIT PERI AZIMU VELO AIN AR TRES W  DIS CAZ7
 LA4  SZ E        1734 29.07                   11.1 10.4      0        4.36 191 
 LA4  SN IP     D 1734 29.19                             157    0.0210 4.36 191 
 LA4  SE IS       1734 30.59                             157   -0.0210 4.36 191 
 LA4  SZ  AML     1734 30.76        13.4 0.24                          4.36 191 
                                                                                
 2008  926 1830 18.9 L  21.442 -99.475 10.0  RAL  1 0.0 1.1LRAL                1
 GAP=360        0.30       2.0     3.6  0.0 -0.6851E+01  0.1942E+01  0.1917E+00E
 ACTION:UPD 12-06-08 11:37 OP:RALL STATUS:               ID:20080926183018     I
 2008-09-26-1830-09S.PLUR1_003                                                 6
 STAT SP IPHASW D HRMM SECON CODA AMPLIT PERI AZIMU VELO AIN AR TRES W  DIS CAZ7
 LZ4  SZ E        1830 22.71                  300.1  7.6      0        24.6 120 
 LZ4  SN IP       1830 23.35                             108    0.0010 24.6 120 
 LZ4  SE IS       1830 26.59                             108    0.0010 24.6 120 
 LZ4  SZ  AML     1830 28.61        26.6 0.48                          24.6 120 
                                                                                
 2008  926 1912 44.0 L  21.318 -99.248 10.0  RAL  1 0.2 0.8LRAL                1
 GAP=360        0.81      21.7    37.2  0.0 -0.8077E+03  0.1942E+01  0.1917E+00E
 ACTION:UPD 12-06-08 11:37 OP:RALL STATUS:               ID:20080926191244     I
 2008-09-26-1912-32S.PLUR1_003                                                 6
 STAT SP IPHASW D HRMM SECON CODA AMPLIT PERI AZIMU VELO AIN AR TRES W  DIS CAZ7
 LZ4  SN IP       1912 46.35                             166    0.5110 2.61 302 
 LZ4  SZ E        1912 46.35                  122.0 29.0      0        2.61 302 
 LZ4  SE IS       1912 46.71                             166   -0.5110 2.61 302 
 LZ4  SZ  AML     1912 47.35        33.4 0.52                          2.61 302 
                                                                                
 2008  926 1931 26.0 L  21.600 -99.357 10.0  RAL  1 0.0 0.7LRAL                1
 GAP=360        0.30       4.2     1.8  0.0 -0.7175E+01  0.1942E+01  0.1917E+00E
 ACTION:UPD 12-06-08 11:37 OP:RALL STATUS:               ID:20080926193126     I
 2008-09-26-1931-16S.PLUR1_003                                                 6
 STAT SP IPHASW D HRMM SECON CODA AMPLIT PERI AZIMU VELO AIN AR TRES W  DIS CAZ7
 LA4  SN IP       1931 28.94                             125    0.0110 13.8 159 
 LA4  SZ E        1931 28.95                  339.1  8.4      0        13.8 159 
 LA4  SE IS       1931 31.07                             125   -0.0110 13.8 159 
 LA4  SZ  AML     1931 31.84        17.0 0.24                          13.8 159 
                                                                                
 2008  926 2004 20.3 L  21.344 -99.294 10.0  RAL  1 0.1 0.4LRAL                1
 GAP=360        0.50      11.7    21.4  0.0 -0.2502E+03  0.1942E+01  0.1917E+00E
 ACTION:UPD 12-06-08 11:37 OP:RALL STATUS:               ID:20080926200420     I
 2008-09-26-2004-09S.PLUR1_003                                                 6
 STAT SP IPHASW D HRMM SECON CODA AMPLIT PERI AZIMU VELO AIN AR TRES W  DIS CAZ7
 LZ4  SZ E        20 4 22.43                  300.3 10.3      0        2.91 120 
 LZ4  SN IP       20 4 22.43                             164    0.2810 2.91 120 
 LZ4  SE IS       20 4 23.26                             164   -0.2810 2.91 120 
 LZ4  SZ  AML     20 4 23.40        14.6 0.20                          2.91 120 
                                                                                
 2008  926 2136  4.8 L  21.400 -99.320 10.0  RAL  1 0.0 0.5LRAL                1
 GAP=360        0.30       4.5     3.3  0.0 -0.1464E+02  0.1942E+01  0.1917E+00E
 ACTION:UPD 12-06-08 11:37 OP:RALL STATUS:               ID:20080926213604     I
 2008-09-26-2135-54S.PLUR1_003                                                 6
 STAT SP IPHASW D HRMM SECON CODA AMPLIT PERI AZIMU VELO AIN AR TRES W  DIS CAZ7
 LZ4  SZ E        2136  7.11                  325.7  7.6      0        9.31 146 
 LZ4  SN IP       2136  7.23                             137    0.0210 9.31 146 
 LZ4  SE IS       2136  8.94                             137   -0.0210 9.31 146 
 LZ4  SZ  AML     2136 11.44        13.0 0.44                          9.31 146 
                                                                                
 2008  926 2201 50.0 L  21.601 -99.337  0.0  RAL  2 0.1 0.8LRAL                1
 GAP=359        1.01       8.8     2.4 77.7 -0.1840E+02  0.9862E+02 -0.4124E+03E
 ACTION:UPD 12-06-08 11:37 OP:RALL STATUS:               ID:20080926220150     I
 2008-09-26-2201-38S.PLUR1_006                                                 6
 STAT SP IPHASW D HRMM SECON CODA AMPLIT PERI AZIMU VELO AIN AR TRES W  DIS CAZ7
 LA4  SN IP       22 1 52.17                              95   -0.1510 13.3 168 
 LA4  SZ E        22 1 52.19                  349.5  9.1      2        13.3 168 
 LA4  SE IS       22 1 53.85                              95   -0.1710 13.3 168 
 LA4  SZ  AML     22 1 54.11        41.8 0.24                          13.3 168 
 LZ4  SN IP       22 1 55.31                              92   -0.0510 30.7 167 
 LZ4  SZ IP       22 1 55.54                              92    0.1810 30.7 167 
 LZ4  SZ E        22 1 55.54                  342.6 18.1     -3        30.7 167 
 LZ4  SE IS       22 1 59.48                              92    0.2010 30.7 167 
 LZ4  SZ  AML     22 2  1.04         8.2 0.24                          30.7 167 
                                                                                
 2008  926 2207 10.9 L  21.549 -99.399 10.0  RAL  1 0.0 0.9LRAL                1
 GAP=360        0.30       3.0     4.1  0.0 -0.1206E+02  0.9862E+02 -0.4124E+03E
 ACTION:UPD 12-06-08 11:37 OP:RALL STATUS:               ID:20080926220710     I
 2008-09-26-2207-00S.PLUR1_006                                                 6
 STAT SP IPHASW D HRMM SECON CODA AMPLIT PERI AZIMU VELO AIN AR TRES W  DIS CAZ7
 LA4  SZ E        22 7 13.45                  307.6 23.5      0        11.8 128 
 LA4  SN IP       22 7 13.59                             130    0.0310 11.8 128 
 LA4  SN E        22 7 13.60                                           11.8 128 
 LA4  SE IS       22 7 15.50                             130   -0.0310 11.8 128 
 LA4  SZ  AML     22 7 15.99        31.9 0.24                          11.8 128 
                                                                                
