 2008  710 0308 31.3 L  22.073 -99.480 10.0  RAL  2 0.4 1.4LRAL                1
 GAP=360        6.40     118.1    46.1999.9 -0.3810E+04  0.4195E+05 -0.1439E+06E
 ACTION:UPD 12-06-08 11:37 OP:RALL STATUS:               ID:20080710030831     I
 2008-07-10-0308-35S.PLUR1_006                                                 6
 STAT SP IPHASW D HRMM SECON CODA AMPLIT PERI AZIMU VELO AIN AR TRES W  DIS CAZ7
 LA4  SN IP        3 8 42.17                              95   -0.1310 67.6 165 
 LA4  SZ E         3 8 42.22                    4.4  8.8     20        67.6 165 
 LA4  SE IS        3 8 50.91                              95    0.5610 67.6 165 
 LA4  SZ  AML      3 8 51.34        13.6 0.36                          67.6 165 
 LZ4  SN IP        3 8 45.13                              94    0.1510 85.0 165 
 LZ4  SZ E         3 8 45.30                  321.1  8.4    -23        85.0 165 
 LZ4  SE IS        3 8 54.41                              94   -0.5810 85.0 165 
 LZ4  SZ  AML      3 8 57.68        29.7 0.32                          85.0 165 
                                                                                
 2008  711 1824 38.9 L  21.344 -99.278 10.2  RAL  2 0.2 0.5LRAL                1
 GAP=200        2.52       7.8     3.8 20.7 -0.7669E+01  0.1219E+02 -0.6639E+02E
 ACTION:UPD 12-06-08 11:37 OP:RALL STATUS:               ID:20080711182438     I
 2008-07-11-1824-32S.PLUR1_006                                                 6
 STAT SP IPHASW D HRMM SECON CODA AMPLIT PERI AZIMU VELO AIN AR TRES W  DIS CAZ7
 LZ4  SN IP       1824 41.18                             171    0.3710 1.76 148 
 LZ4  SZ E        1824 41.23                  325.5  6.6     -1        1.76 148 
 LZ4  SE IS       1824 42.52                             171    0.3310 1.76 148 
 LZ4  SZ  AML     1824 42.73        38.2 0.12                          1.76 148 
 LA4  SN IP       1824 41.98                             121   -0.1510 15.7 348 
 LA4  SZ E        1824 42.09                  157.0 14.3    -10        15.7 348 
 LA4  SE IS       1824 43.92                             121   -0.5510 15.7 348 
 LA4  SZ  AML     1824 44.14         4.4 0.20                          15.7 348 
                                                                                
 2008  712 1950 36.2 L  21.345 -99.283 10.0  RAL  2 0.3 0.7LRAL                1
 GAP=212        3.73       1.6     5.4 28.2  0.3921E+01  0.5575E+01 -0.1455E+01E
 ACTION:UPD 12-06-08 11:37 OP:RALL STATUS:               ID:20080712195036     I
 2008-07-12-1950-30S.PLUR1_006                                                 6
 STAT SP IPHASW D HRMM SECON CODA AMPLIT PERI AZIMU VELO AIN AR TRES W  DIS CAZ7
 LZ4  SZ E        1950 38.52                  316.9 12.5      0        2.13 138 
 LZ4  SN IP       1950 38.61                             168    0.5310 2.13 138 
 LZ4  SZ  AML     1950 40.14        52.6 0.52                          2.13 138 
 LZ4  SE IS       1950 40.30                             168    0.8610 2.13 138 
 LA4  SN IP       1950 38.78                             121   -0.6010 15.6 350 
 LA4  SZ E        1950 38.95                  153.4  9.1    -16        15.6 350 
 LA4  SE IS       1950 40.89                             121   -0.8010 15.6 350 
 LA4  SZ  AML     1950 41.28         9.7 0.28                          15.6 350 
                                                                                
 2008  714 1559 12.6 R  22.473 -99.584 13.1  RAL  2 0.5 1.6LRAL                1
 GAP=360        8.19      74.9    67.1 53.8 -0.5257E+03  0.2676E+03 -0.9182E+03E
 ACTION:UPD 12-06-08 11:37 OP:RALL STATUS:               ID:20080714155912     I
 2008-07-14-1559-25S.PLUR1_006                                                 6
 STAT SP IPHASW D HRMM SECON CODA AMPLIT PERI AZIMU VELO AIN AR TRES W  DIS CAZ7
 LA4  SZ E        1559 30.32                   11.7 11.0     26         113 165 
 LA4  SN IP       1559 30.37                              95   -0.3310  113 165 
 LA4  SE IS       1559 44.10                              95    0.1810  113 165 
 LA4  SZ  AML     1559 50.56        17.8 0.52                           113 165 
 LZ4  SZ E        1559 33.14                  315.4 12.2    -29         131 166 
 LZ4  SN IP       1559 33.29                              52    0.3410  131 166 
 LZ4  SE IS       1559 47.63                              52   -0.1910  131 166 
 LZ4  SZ  AML     1559 51.47        23.7 0.68                           131 166 
                                                                                
 2008  714 1929 45.0 L  21.367 -99.293 14.4  RAL  2 0.3 0.8LRAL                1
 GAP=203        3.32       8.0     5.7 30.3 -0.4441E+02  0.2608E+02 -0.3748E+02E
 ACTION:UPD 12-06-08 11:37 OP:RALL STATUS:               ID:20080714192945     I
 2008-07-14-1929-39S.PLUR1_006                                                 6
 STAT SP IPHASW D HRMM SECON CODA AMPLIT PERI AZIMU VELO AIN AR TRES W  DIS CAZ7
 LZ4  SN IP       1929 48.11                             171    0.4910 4.66 149 
 LZ4  SZ E        1929 48.12                  323.9  8.2     -4        4.66 149 
 LZ4  SE IS       1929 50.07                             171    0.5410 4.66 149 
 LZ4  SZ  AML     1929 50.22        33.8 0.16                          4.66 149 
 LA4  SN IP       1929 48.16                             139   -0.1310 13.0 352 
 LA4  SZ E        1929 48.21                  158.3 11.9    -13        13.0 352 
 LA4  SE IS       1929 49.79                             139   -0.9010 13.0 352 
 LA4  SZ  AML     1929 50.93        14.9 0.32                          13.0 352 
                                                                                
 2008  715 1158 25.1 L  21.341 -99.283 10.0  RAL  2 0.3 0.0LRAL                1
 GAP=220        3.56       1.5     5.3 26.3  0.3596E+01  0.5356E+01 -0.1194E+01E
 ACTION:UPD 12-06-08 11:37 OP:RALL STATUS:               ID:20080715115825     I
 2008-07-15-1158-20S.PLUR1_006                                                 6
 STAT SP IPHASW D HRMM SECON CODA AMPLIT PERI AZIMU VELO AIN AR TRES W  DIS CAZ7
 LZ4  SZ E        1158 27.12                  310.4 17.9      0        1.78 130 
 LZ4  SN IP       1158 27.40                             170    0.4210 1.78 130 
 LZ4  SE IS       1158 29.26                             170    0.9210 1.78 130 
 LA4  SN IP       1158 27.62                             120   -0.7310 16.0 350 
 LA4  SZ E        1158 27.80                  154.2 10.5    -15        16.0 350 
 LA4  SE IS       1158 30.10                             120   -0.6110 16.0 350 
 LA4  SZ  AML     1158 30.43         3.0 0.24                          16.0 350 
                                                                                
 2008  717 1621 51.4 L  21.933 -99.428  4.8  RAL  2 0.2 1.6LRAL                1
 GAP=360        1.46     999.9   999.9999.9 -0.1667E+08 -0.3320E+08  0.1243E+09E
 ACTION:UPD 12-06-08 11:37 OP:RALL STATUS:               ID:20080717162151     I
 2008-07-17-1621-52S.PLUR1_006                                                 6
 STAT SP IPHASW D HRMM SECON CODA AMPLIT PERI AZIMU VELO AIN AR TRES W  DIS CAZ7
 LA4  SN IP       1621 59.55                              63   -0.3410 51.2 166 
 LA4  SZ E        1621 59.64                  348.9 18.1      3        51.2 166 
 LA4  SE IS       1622  5.42                              63   -0.6510 51.2 166 
 LA4  SZ  AML     1622  8.20        45.6 0.32                          51.2 166 
 LZ4  SZ E        1622  2.51                  342.4 10.8     -3        68.6 166 
 LZ4  SN IP       1622  2.93                              63    0.3410 68.6 166 
 LZ4  SE IS       1622 11.38                              63    0.6510 68.6 166 
 LZ4  SZ  AML     1622 13.42        41.6 0.84                          68.6 166 
                                                                                
 2008  717 2116 48.3 L  21.386 -99.271  0.0  RAL  2 0.4 0.2LRAL                1
 GAP=198        4.79      11.1     2.6255.2 -0.1147E+02  0.1767E+03 -0.1765E+04E
 ACTION:UPD 12-06-08 11:37 OP:RALL STATUS:               ID:20080717211648     I
 2008-07-17-2116-39S.PLUR1_006                                                 6
 STAT SP IPHASW D HRMM SECON CODA AMPLIT PERI AZIMU VELO AIN AR TRES W  DIS CAZ7
 LZ4  SN IP       2116 48.60                             100   -0.7610 6.11 178 
 LZ4  SZ E        2116 48.62                  346.8  8.1    -10        6.11 178 
 LZ4  SE IS       2116 49.13                             100   -1.0310 6.11 178 
 LZ4  SZ  AML     2116 49.20        35.5 0.16                          6.11 178 
 LA4  SN IP       2116 50.89                              96    0.5910 11.5 340 
 LA4  SZ E        2116 51.24                  141.9  9.2    -17        11.5 340 
 LA4  SE IS       2116 52.97                              96    1.2010 11.5 340 
 LA4  SZ  AML     2116 54.49         2.6 0.24                          11.5 340 
                                                                                
 2008  718 2018 51.5 L  21.325 -99.252 10.0  RAL  1 0.0 0.7LRAL                1
 GAP=360        0.30       3.9     1.5  0.0 -0.5428E+01  0.1767E+03 -0.1765E+04E
 ACTION:UPD 12-06-08 11:37 OP:RALL STATUS:               ID:20080718201851     I
 2008-07-18-2018-47S.PLUR1_003                                                 6
 STAT SP IPHASW D HRMM SECON CODA AMPLIT PERI AZIMU VELO AIN AR TRES W  DIS CAZ7
 LA4  SZ E        2018 55.03                  161.2 10.0      0        18.5 341 
 LA4  SN IP       2018 55.03                             116    0.0010 18.5 341 
 LA4  SE IS       2018 57.63                             116    0.0010 18.5 341 
 LA4  SZ  AML     2018 59.11        14.8 0.20                          18.5 341 
                                                                                
 2008  720 1827 59.5 L  21.739 -99.528 10.0  RAL  1 0.0 0.4LRAL                1
 GAP=360        0.30       3.0     2.7  0.0 -0.7056E+01  0.1767E+03 -0.1765E+04E
 ACTION:UPD 12-06-08 11:37 OP:RALL STATUS:               ID:20080720182759     I
 2008-07-20-1828-01S.PLUR1_006                                                 6
 STAT SP IPHASW D HRMM SECON CODA AMPLIT PERI AZIMU VELO AIN AR TRES W  DIS CAZ7
 LA4  SZ E        1828  5.54                  321.3 15.1      0        36.3 141 
 LA4  SN IP       1828  5.70                             101    0.0210 36.3 141 
 LA4  SE IS       1828 10.19                             101   -0.0210 36.3 141 
 LA4  SZ  AML     1828 10.59         4.2 0.32                          36.3 141 
                                                                                
 2008  721 1435 32.3 R                       RAL  0                            1
 ACTION:UPD 12-06-08 11:37 OP:RALL STATUS:               ID:20080721143532     I
 2008-07-21-1435-32S.PLUR1_006                                                 6
 STAT SP IPHASW D HRMM SECON CODA AMPLIT PERI AZIMU VELO AIN AR TRES W  DIS CAZ7
                                                                                
 2008  723 0051 37.4 L  21.489 -99.318 42.8  RAL  2 0.5 0.9LRAL                1
 GAP=318        5.65       6.0     9.9 65.6 -0.2471E+01  0.3150E+01 -0.1785E+01E
 ACTION:UPD 12-06-08 11:37 OP:RALL STATUS:               ID:20080723005137     I
 2008-07-23-0051-33S.PLUR1_006                                                 6
 STAT SP IPHASW D HRMM SECON CODA AMPLIT PERI AZIMU VELO AIN AR TRES W  DIS CAZ7
 LA4  SZ E         051 42.77                  294.4 10.1     -7        1.12 122 
 LA4  SN IP        051 42.83                             178   -0.9910 1.12 122 
 LA4  SE IS        051 47.65                             178   -0.8610 1.12 122 
 LA4  SZ  AML      051 48.70        10.0 0.32                          1.12 122 
 LZ4  SZ E         051 44.55                    8.5 30.8     25        18.2 164 
 LZ4  SN IP        051 44.69                             153    0.3610 18.2 164 
 LZ4  SE IS        051 50.88                             153    1.4910 18.2 164 
 LZ4  SZ  AML      051 51.76        13.6 0.20                          18.2 164 
                                                                                
 2008  724 0454  8.6 L  21.336 -99.280 10.0  RAL  2 0.2 0.9LRAL                1
 GAP=232        2.08       0.9     3.2 14.9  0.1660E+01  0.1394E+01 -0.3617E+00E
 ACTION:UPD 12-06-08 11:37 OP:RALL STATUS:               ID:20080724045408     I
 2008-07-24-0454-00S.PLUR1_006                                                 6
 STAT SP IPHASW D HRMM SECON CODA AMPLIT PERI AZIMU VELO AIN AR TRES W  DIS CAZ7
 LZ4  SZ E         454 10.31                  295.4  7.0     -1        1.19 118 
 LZ4  SN IP        454 10.31                             173   -0.1210 1.19 118 
 LZ4  SE IS        454 11.37                             173   -0.4110 1.19 118 
 LZ4  SZ  AML      454 12.85       100.7 0.24                          1.19 118 
 LA4  SZ E         454 12.06                  160.1 10.0     -8        16.6 349 
 LA4  SN IP        454 12.08                             119    0.1810 16.6 349 
 LA4  SE IS        454 14.67                             119    0.3510 16.6 349 
 LA4  SZ  AML      454 16.26        10.4 0.20                          16.6 349 
                                                                                
 2008  724 1037 59.7 L  21.553 -99.466 27.7  RAL  2 0.4 1.1LRAL                1
 GAP=335        4.80       4.3    12.2 56.3 -0.4213E+02  0.2120E+02 -0.6300E+01E
 ACTION:UPD 12-06-08 11:37 OP:RALL STATUS:               ID:20080724103759     I
 2008-07-24-1037-54S.PLUR1_006                                                 6
 STAT SP IPHASW D HRMM SECON CODA AMPLIT PERI AZIMU VELO AIN AR TRES W  DIS CAZ7
 LA4  SZ E        1038  4.15                  282.7 12.6    -12        18.0 115 
 LA4  SN IP       1038  4.24                             172   -0.7610 18.0 115 
 LA4  SE IS       1038  9.02                             172    0.1310 18.0 115 
 LA4  SZ  AML     1038 12.95        16.5 0.72                          18.0 115 
 LZ4  SZ E        1038  5.87                  339.0 17.8     19        32.0 140 
 LZ4  SN IP       1038  6.01                             150   -0.3910 32.0 140 
 LZ4  SE IS       1038 12.33                             150    1.0210 32.0 140 
 LZ4  SZ  AML     1038 12.81        22.4 0.20                          32.0 140 
                                                                                
 2008  724 1045  5.8 L  21.502 -99.630 10.0  RAL  1 0.0 0.6LRAL                1
 GAP=360        0.30       0.9     4.1  0.0 -0.8895E+00  0.2120E+02 -0.6300E+01E
 ACTION:UPD 12-06-08 11:37 OP:RALL STATUS:               ID:20080724104505     I
 2008-07-24-1045-02S.PLUR1_006                                                 6
 STAT SP IPHASW D HRMM SECON CODA AMPLIT PERI AZIMU VELO AIN AR TRES W  DIS CAZ7
 LA4  SZ E        1045 11.58                  273.6 15.4      0        33.3  93 
 LA4  SN IP       1045 11.60                             102    0.0110 33.3  93 
 LA4  SE IS       1045 15.78                             102   -0.0110 33.3  93 
 LA4  SZ  AML     1045 16.47         6.8 0.28                          33.3  93 
                                                                                
 2008  725 1221 46.8 L  21.332 -99.268 10.0  RAL  3 0.9 1.3LRAL                1
 GAP=213       15.18       7.5    17.3 92.5 -0.8331E+02  0.7309E+02 -0.2216E+02E
 ACTION:UPD 12-06-08 11:37 OP:RALL STATUS:               ID:20080725122146     I
 2008-07-25-1221-38S.PLUR1_009                                                 6
 STAT SP IPHASW D HRMM SECON CODA AMPLIT PERI AZIMU VELO AIN AR TRES W  DIS CAZ7
 LZ4  SZ E        1221 48.22                  335.3  6.7     84        0.15 240 
 LZ4  SN IP       1221 48.23                             179   -0.4110 0.15 240 
 LZ4  SE IS       1221 48.85                             179   -1.1310 0.15 240 
 LZ4  SZ  AML     1221 49.54       637.7 0.44                          0.15 240 
 LD5  SZ E        1221 50.90                   38.6  9.8     20        16.9 199 
 LD5  SN IP       1221 51.10                             118    0.9510 16.9 199 
 LD5  SE IS       1221 54.18                             118    1.5910 16.9 199 
 LD5  SZ  AML     1221 57.00         5.7 0.60                          16.9 199 
 LA4  SZ E        1221 49.86                  159.3  9.4     -6        17.4 346 
 LA4  SN IP       1221 49.87                             116   -0.3510 17.4 346 
 LA4  SE IS       1221 52.07                             116   -0.6410 17.4 346 
 LA4  SZ  AML     1221 54.05        83.8 0.56                          17.4 346 
                                                                                
 2008  725 2234 47.1 L  22.078 -99.767  5.1  RAL  2 0.3 1.7LRAL                1
 GAP=356        5.70     794.7   584.3999.9 -0.4632E+06 -0.1084E+07  0.1476E+07E
 ACTION:UPD 12-06-08 11:37 OP:RALL STATUS:               ID:20080725223447     I
 2008-07-25-2234-50S.PLUR1_006                                                 6
 STAT SP IPHASW D HRMM SECON CODA AMPLIT PERI AZIMU VELO AIN AR TRES W  DIS CAZ7
 LA4  SN IP       2234 59.56                              63   -0.2410 81.1 144 
 LA4  SZ E        2234 59.73                  341.9  9.9     18        81.1 144 
 LA4  SE IS       2235  8.79                              63   -0.3210 81.1 144 
 LA4  SZ  AML     2235  9.03        51.6 0.28                          81.1 144 
 LZ4  SN IP       2235  2.59                              63    0.2510 97.4 148 
 LZ4  SZ E        2235  2.91                  306.7  8.8    -20        97.4 148 
 LZ4  SE IS       2235 13.79                              63    0.3010 97.4 148 
 LZ4  SZ  AML     2235 17.31        24.2 0.68                          97.4 148 
                                                                                
 2008  726 1514 40.1 L  22.063 -99.469 22.0  RAL  2 0.1 1.9LRAL                1
 GAP=360        1.23      14.6     7.1117.9 -0.5117E+02  0.3079E+03 -0.1099E+04E
 ACTION:UPD 12-06-08 11:37 OP:RALL STATUS:               ID:20080726151440     I
 2008-07-26-1514-42S.PLUR1_006                                                 6
 STAT SP IPHASW D HRMM SECON CODA AMPLIT PERI AZIMU VELO AIN AR TRES W  DIS CAZ7
 LA4  SZ E        1514 50.97                  349.1  7.9      4        66.2 165 
 LA4  SN EP       1514 51.05                              96   -0.1110 66.2 165 
 LA4  SE IS       1514 59.30                              96    0.0610 66.2 165 
 LA4  SZ  AML     1515  1.98        42.3 0.28                          66.2 165 
 LZ4  SN IP       1514 53.79                              93    0.1110 83.6 166 
 LZ4  SZ E        1514 53.86                  341.2  7.7     -4        83.6 166 
 LZ4  SE IS       1515  3.53                              93   -0.0710 83.6 166 
 LZ4  SZ  AML     1515  8.82        78.8 0.60                          83.6 166 
                                                                                
