 2008  123 2009  8.6 L  21.347 -99.622 10.0  RAL  2 0.9 0.3LRAL                1
 GAP=295       10.31      23.0    36.7225.4  0.4564E+03  0.2595E+04  0.2170E+04E
 ACTION:UPD 12-06-08 11:37 OP:RALL STATUS:               ID:20080123200908     I
 2008-01-23-2009-06S.PLUR1_006                                                 6
 STAT SP IPHASW D HRMM SECON CODA AMPLIT PERI AZIMU VELO AIN AR TRES W  DIS CAZ7
 LD3  SZ E        20 9 14.60                  275.5 19.0     41        21.4  54 
 LD3  SN IP       20 9 14.60                             112    2.0310 21.4  54 
 LD3  SE IS       20 9 16.87                             112    1.3910 21.4  54 
 LD3  SZ  AML     20 9 17.16         5.9 0.20                          21.4  54 
 LD5  SZ E        20 9 14.21                  321.0  8.7     21        36.0 119 
 LD5  SN IP       20 9 14.50                             101   -0.2410 36.0 119 
 LD5  SE IS       20 9 16.04                             101   -3.1910 36.0 119 
 LD5  SZ  AML     20 9 17.12         3.1 0.30                          36.0 119 
                                                                                
 2008  123 2016  0.5 L  21.315 -99.389  1.5  RAL  2 0.1-0.2LRAL                1
 GAP=184        2.46       4.7     3.4124.0 -0.7844E+01  0.2023E+02 -0.3702E+02E
 ACTION:UPD 12-06-08 11:37 OP:RALL STATUS:               ID:20080123201600     I
 2008-01-23-2015-55S.PLUR1_006                                                 6
 STAT SP IPHASW D HRMM SECON CODA AMPLIT PERI AZIMU VELO AIN AR TRES W  DIS CAZ7
 LD5  SZ E        2016  3.24                  341.2  9.3      8        15.9 153 
 LD5  SN IP       2016  3.28                              99   -0.0610 15.9 153 
 LD5  SE IS       2016  5.29                              99   -0.1010 15.9 153 
 LD5  SZ  AML     2016  6.32         1.7 0.28                          15.9 153 
 LD3  SZ E        2016  3.63                  166.1 44.2      9        17.4 337 
 LD3  SN IP       2016  3.65                              99    0.0510 17.4 337 
 LD3  SE IS       2016  5.96                              99    0.1110 17.4 337 
 LD3  SZ  AML     2016  6.20         3.3 0.18                          17.4 337 
                                                                                
 2008  124 0231 41.0 L  21.299 -99.553 10.0  RAL  2 0.6 0.5LRAL                1
 GAP=273        7.00      14.4    14.9154.7  0.7271E+02  0.3151E+03  0.7604E+03E
 ACTION:UPD 12-06-08 11:37 OP:RALL STATUS:               ID:20080124023141     I
 2008-01-24-0231-36S.PLUR1_006                                                 6
 STAT SP IPHASW D HRMM SECON CODA AMPLIT PERI AZIMU VELO AIN AR TRES W  DIS CAZ7
 LD3  SN IP        231 46.04                             114    1.2110 20.6  30 
 LD3  SZ E         231 46.08                  228.1 27.8     18        20.6  30 
 LD3  SE IS        231 48.31                             114    0.6610 20.6  30 
 LD3  SZ  AML      231 48.56         9.1 0.20                          20.6  30 
 LD5  SN IP        231 45.63                             106   -0.1610 27.2 117 
 LD5  SZ E         231 45.68                  324.1 11.5     27        27.2 117 
 LD5  SE IS        231 47.59                             106   -1.7110 27.2 117 
 LD5  SZ  AML      231 48.54         5.2 0.30                          27.2 117 
                                                                                
 2008  125 1806 49.4 L  21.770 -99.353 10.0  RAL  2 1.0 2.1LRAL                1
 GAP=340        8.60      82.8    33.7379.6  0.1762E+04 -0.6045E+04 -0.1750E+05E
 ACTION:UPD 12-06-08 11:37 OP:RALL STATUS:               ID:20080125180649     I
 2008-01-25-1806-47S.PLUR1_006                                                 6
 STAT SP IPHASW D HRMM SECON CODA AMPLIT PERI AZIMU VELO AIN AR TRES W  DIS CAZ7
 LD3  SN IP       18 6 56.94                             101    1.4110 36.0 197 
 LD3  SZ E        18 6 56.97                  344.6 11.8     32        36.0 197 
 LD3  SE IS       18 7  3.31                             101    3.2810 36.0 197 
 LD3  SZ  AML     18 7  4.52       121.1 0.40                          36.0 197 
 LD5  SZ E        18 6 57.63                  345.6 10.6    -10        64.7 177 
 LD5  SN IP       18 6 57.79                              95   -2.1510 64.7 177 
 LD5  SE IS       18 7  5.12                              95   -2.5410 64.7 177 
 LD5  SZ  AML     18 7  7.44       166.5 0.84                          64.7 177 
                                                                                
