 2008 11 9 1823 44.7 L  21.729 -99.375 10.0  RAL  1 0.0 0.7LRAL                1
 GAP=360        0.30       3.7     1.3  0.0 -0.3610E+01 -0.2915E+06  0.6169E+06E
 ACTION:UPD 12-06-08 11:37 OP:RALL STATUS:               ID:20081109182344     I
 2008-11-09-1823-38S.PLUR1_003                                                 6
 STAT SP IPHASW D HRMM SECON CODA AMPLIT PERI AZIMU VELO AIN AR TRES W  DIS CAZ7
 LA4  SZ E        1823 49.53                  346.0  9.0      0        28.0 166 
 LA4  SN IP       1823 49.67                             106    0.0110 28.0 166 
 LA4  SZ  AML     1823 53.09         9.0 0.32                          28.0 166 
 LA4  SE IS       1823 53.26                             106   -0.0110 28.0 166 
                                                                                
 2008 11 9 1900  3.8 L  21.712 -99.381 10.0  RAL  1 0.0 0.7LRAL                1
 GAP=360        0.30       3.7     1.4  0.0 -0.4272E+01 -0.2915E+06  0.6169E+06E
 ACTION:UPD 12-06-08 11:37 OP:RALL STATUS:               ID:20081109190003     I
 2008-11-09-1859-57S.PLUR1_003                                                 6
 STAT SP IPHASW D HRMM SECON CODA AMPLIT PERI AZIMU VELO AIN AR TRES W  DIS CAZ7
 LA4  SZ E        19 0  8.07                  343.5 10.1      0        26.3 163 
 LA4  SN IP       19 0  8.56                             107    0.0210 26.3 163 
 LA4  SE IS       19 0 11.96                             107   -0.0210 26.3 163 
 LA4  SZ  AML     19 0 14.08        11.6 0.36                          26.3 163 
                                                                                
 2008 11 9 1943 45.2 L  21.575 -99.317 10.0  RAL  1 0.0 0.5LRAL                1
 GAP=360        0.30       5.1     0.5  0.0 -0.2183E+01 -0.2915E+06  0.6169E+06E
 ACTION:UPD 12-06-08 11:37 OP:RALL STATUS:               ID:20081109194345     I
 2008-11-09-1943-34S.PLUR1_003                                                 6
 STAT SP IPHASW D HRMM SECON CODA AMPLIT PERI AZIMU VELO AIN AR TRES W  DIS CAZ7
 LA4  SN IP       1943 47.72                             134    0.0010 10.2 176 
 LA4  SZ E        1943 47.84                  355.6  8.8      0        10.2 176 
 LA4  SE IS       1943 49.54                             134    0.0010 10.2 176 
 LA4  SZ  AML     1943 50.85        13.8 0.32                          10.2 176 
                                                                                
 2008 11 9 2105 36.6 L  21.332 -99.283 10.0  RAL  1 0.1 1.3LRAL                1
 GAP=360        0.82     955.9   169.4  0.0  0.1619E+06 -0.2915E+06  0.6169E+06E
 ACTION:UPD 12-06-08 11:37 OP:RALL STATUS:               ID:20081109210536     I
 2008-11-09-2105-23S.PLUR1_003                                                 6
 STAT SP IPHASW D HRMM SECON CODA AMPLIT PERI AZIMU VELO AIN AR TRES W  DIS CAZ7
 LZ4  SZ E        21 5 38.60                  278.4  7.3      3        1.43  95 
 LZ4  SN IP       21 5 38.62                             172    0.1710 1.43  95 
 LZ4  SE IS       21 5 39.63                             172   -0.1710 1.43  95 
 LZ4  SZ  AML     21 5 39.84       113.5 0.40                          1.43  95 
                                                                                
 2008 1110 0006  3.5 L  21.309 -99.290 10.0  RAL  1 0.1 0.8LRAL                1
 GAP=360        0.58      18.3    17.4  0.0  0.3188E+03 -0.2915E+06  0.6169E+06E
 ACTION:UPD 12-06-08 11:37 OP:RALL STATUS:               ID:20081110000603     I
 2008-11-10-0005-51S.PLUR1_003                                                 6
 STAT SP IPHASW D HRMM SECON CODA AMPLIT PERI AZIMU VELO AIN AR TRES W  DIS CAZ7
 LZ4  SZ E         0 6  5.66                  221.5 25.2      0        3.17  41 
 LZ4  SN IP        0 6  5.78                             163    0.3410 3.17  41 
 LZ4  SE IS        0 6  6.50                             163   -0.3410 3.17  41 
 LZ4  SZ  AML      0 6  7.68        32.4 0.24                          3.17  41 
                                                                                
 2008 1110 0022 14.7 L  21.600 -99.440 10.0  RAL  1 0.0 0.6LRAL                1
 GAP=360        0.30       2.8     3.2  0.0 -0.8871E+01 -0.2915E+06  0.6169E+06E
 ACTION:UPD 12-06-08 11:37 OP:RALL STATUS:               ID:20081110002214     I
 2008-11-10-0022-06S.PLUR1_003                                                 6
 STAT SP IPHASW D HRMM SECON CODA AMPLIT PERI AZIMU VELO AIN AR TRES W  DIS CAZ7
 LA4  SZ E         022 18.33                  313.5  9.7      0        18.7 133 
 LA4  SN IP        022 18.34                             115    0.0110 18.7 133 
 LA4  SZ  AML      022 20.26        10.6 0.32                          18.7 133 
 LA4  SE IS        022 20.95                             115   -0.0110 18.7 133 
                                                                                
 2008 1110 0355 14.4 L  21.322 -99.252 10.0  RAL  1 0.2 0.6LRAL                1
 GAP=360        0.69      20.4    42.2  0.0 -0.8617E+03 -0.2915E+06  0.6169E+06E
 ACTION:UPD 12-06-08 11:37 OP:RALL STATUS:               ID:20081110035514     I
 2008-11-10-0355-02S.PLUR1_003                                                 6
 STAT SP IPHASW D HRMM SECON CODA AMPLIT PERI AZIMU VELO AIN AR TRES W  DIS CAZ7
 LZ4  SN IP        355 16.69                             169    0.4210 2.06 297 
 LZ4  SZ E         355 16.70                  117.4 12.9      0        2.06 297 
 LZ4  SE IS        355 17.20                             169   -0.4210 2.06 297 
 LZ4  SZ  AML      355 17.50        19.9 0.68                          2.06 297 
                                                                                
 2008 1110 0714 37.9 L  21.630 -99.357 10.0  RAL  1 0.0 0.5LRAL                1
 GAP=360        0.30       4.0     1.4  0.0 -0.5217E+01 -0.2915E+06  0.6169E+06E
 ACTION:UPD 12-06-08 11:37 OP:RALL STATUS:               ID:20081110071437     I
 2008-11-10-0714-29S.PLUR1_003                                                 6
 STAT SP IPHASW D HRMM SECON CODA AMPLIT PERI AZIMU VELO AIN AR TRES W  DIS CAZ7
 LA4  SZ E         714 41.14                  343.1 13.1      0        16.9 163 
 LA4  SN EP        714 41.21                             118    0.0010 16.9 163 
 LA4  SE IS        714 43.65                             118    0.0010 16.9 163 
 LA4  SZ  AML      714 46.04         9.5 0.52                          16.9 163 
                                                                                
 2008 1110 0752 42.1 L  21.649 -99.359 10.0  RAL  1 0.0 0.3LRAL                1
 GAP=360        0.30       4.0     1.3  0.0 -0.4642E+01 -0.2915E+06  0.6169E+06E
 ACTION:UPD 12-06-08 11:37 OP:RALL STATUS:               ID:20081110075242     I
 2008-11-10-0752-34S.PLUR1_003                                                 6
 STAT SP IPHASW D HRMM SECON CODA AMPLIT PERI AZIMU VELO AIN AR TRES W  DIS CAZ7
 LA4  SN IP        752 45.74                             115    0.0310 19.1 164 
 LA4  SZ E         752 45.91                  344.4 10.2      0        19.1 164 
 LA4  SE IS        752 48.35                             115   -0.0310 19.1 164 
 LA4  SZ  AML      752 48.79         5.8 0.28                          19.1 164 
                                                                                
 2008 1110 1030 59.5 L  21.731 -99.394  0.0  RAL  2 0.2 1.5LRAL                1
 GAP=358        4.22      32.7    14.4 33.4 -0.3332E+03  0.8113E+01 -0.1049E+02E
 ACTION:UPD 12-06-08 11:37 OP:RALL STATUS:               ID:20081110103059     I
 2008-11-10-1030-51S.PLUR1_006                                                 6
 STAT SP IPHASW D HRMM SECON CODA AMPLIT PERI AZIMU VELO AIN AR TRES W  DIS CAZ7
 LA4  SN IP       1031  4.36                              92   -0.1810 28.8 162 
 LA4  SZ E        1031  4.52                  353.1  7.9     11        28.8 162 
 LA4  SE IS       1031  8.20                              92   -0.0210 28.8 162 
 LA4  SZ  AML     1031  8.48        66.3 0.32                          28.8 162 
 LZ4  SZ E        1031  7.88                  326.4  8.6    -16        46.1 164 
 LZ4  SN IP       1031  7.91                              63    0.3610 46.1 164 
 LZ4  SE IS       1031 13.27                              63   -0.1610 46.1 164 
 LZ4  SZ  AML     1031 14.42        34.2 0.36                          46.1 164 
                                                                                
 2008 1110 1125 29.1 L  21.723 -99.458 10.0  RAL  1 0.0 1.0LRAL                1
 GAP=360        0.30       3.3     2.2  0.0 -0.6551E+01  0.8113E+01 -0.1049E+02E
 ACTION:UPD 12-06-08 11:37 OP:RALL STATUS:               ID:20081110112529     I
 2008-11-10-1125-24S.PLUR1_003                                                 6
 STAT SP IPHASW D HRMM SECON CODA AMPLIT PERI AZIMU VELO AIN AR TRES W  DIS CAZ7
 LA4  SZ E        1125 34.44                  329.9 10.0      0        30.6 150 
 LA4  SN IP       1125 34.45                             104    0.0210 30.6 150 
 LA4  SE IS       1125 38.31                             104   -0.0210 30.6 150 
 LA4  SZ  AML     1125 39.76        17.3 0.80                          30.6 150 
                                                                                
 2008 1110 1202 32.8 L  21.482 -99.320 10.0  RAL  1 0.0 0.2LRAL                1
 GAP=360        0.65     999.9   165.3  0.0 -0.2935E+06  0.8113E+01 -0.1049E+02E
 ACTION:UPD 12-06-08 11:37 OP:RALL STATUS:               ID:20081110120232     I
 2008-11-10-1202-21S.PLUR1_003                                                 6
 STAT SP IPHASW D HRMM SECON CODA AMPLIT PERI AZIMU VELO AIN AR TRES W  DIS CAZ7
 LA4  SZ E        12 2 34.68                  265.4 12.8      3        1.15  83 
 LA4  SN IP       12 2 34.74                             174    0.0510 1.15  83 
 LA4  SE IS       12 2 35.99                             174   -0.0510 1.15  83 
 LA4  SZ  AML     12 2 36.24         9.8 0.28                          1.15  83 
                                                                                
 2008 1110 1406 13.6 L  21.338 -99.290 10.0  RAL  1 0.1 1.5LRAL                1
 GAP=360        0.43     855.8   344.2  0.0  0.2946E+06  0.8113E+01 -0.1049E+02E
 ACTION:UPD 12-06-08 11:37 OP:RALL STATUS:               ID:20081110140613     I
 2008-11-10-1406-00S.PLUR1_003                                                 6
 STAT SP IPHASW D HRMM SECON CODA AMPLIT PERI AZIMU VELO AIN AR TRES W  DIS CAZ7
 LZ4  SZ E        14 6 15.56                  289.0  7.9      0        2.28 109 
 LZ4  SN IP       14 6 15.64                             168    0.2110 2.28 109 
 LZ4  SE IS       14 6 16.59                             168   -0.2110 2.28 109 
 LZ4  SZ  AML     14 6 16.74       191.0 0.16                          2.28 109 
                                                                                
 2008 1110 1434 23.8 L  21.244 -99.285  7.9  RAL  2 0.1 0.9LRAL                1
 GAP=200        0.47       1.0     0.5  6.0  0.3906E+00 -0.5369E+00 -0.1196E+01E
 ACTION:UPD 12-06-08 11:37 OP:RALL STATUS:               ID:20081110143423     I
 2008-11-10-1434-11S.PLUR1_006                                                 6
 STAT SP IPHASW D HRMM SECON CODA AMPLIT PERI AZIMU VELO AIN AR TRES W  DIS CAZ7
 LD5  SZ E        1434 25.93                   30.3  8.6      1        7.37 210 
 LD5  SN IP       1434 25.94                             137    0.1410 7.37 210 
 LD5  SE IS       1434 27.33                             137    0.1110 7.37 210 
 LD5  SZ  AML     1434 27.77        12.8 0.10                          7.37 210 
 LZ4  SZ E        1434 26.00                  190.6 10.7      1        9.70  10 
 LZ4  SN IP       1434 26.01                             128   -0.0610 9.70  10 
 LZ4  SE IS       1434 27.50                             128   -0.1910 9.70  10 
 LZ4  SZ  AML     1434 28.20       102.4 0.68                          9.70  10 
                                                                                
 2008 1110 1721  5.0 L  21.011 -99.051 10.0  RAL  4 1.1 1.7LRAL                1
 GAP=332       18.46      77.0    86.5631.6 -0.5862E+04 -0.2307E+05  0.1855E+05E
 ACTION:UPD 12-06-08 11:37 OP:RALL STATUS:               ID:20081110172105     I
 2008-11-10-1720-55S.PLUR1_012                                                 6
 STAT SP IPHASW D HRMM SECON CODA AMPLIT PERI AZIMU VELO AIN AR TRES W  DIS CAZ7
 LO8  SN IP       1721 10.15                             100    0.8110 23.5 315 
 LO8  SZ E        1721 10.16                   49.2  9.1    -84        23.5 315 
 LO8  SE IS       1721 12.52                             100    0.0310 23.5 315 
 LO8  SZ  AML     1721 14.04        41.3 0.64                          23.5 315 
 LD5  SZ E        1721  9.97                  204.0 21.3     79        34.0 305 
 LD5  SN IP       1721 10.03                              95   -0.8510 34.0 305 
 LD5  SE IS       1721 12.23                              95   -2.9310 34.0 305 
 LD5  SZ  AML     1721 15.17        43.9 0.52                          34.0 305 
 LZ4  SN IP       1721 12.63                              94    0.5210 42.1 327 
 LZ4  SZ E        1721 12.70                  174.0 12.1     27        42.1 327 
 LZ4  SE IS       1721 18.17                              94    0.8910 42.1 327 
 LZ4  SZ  AML     1721 18.60       387.0 0.52                          42.1 327 
 LA4  SZ E        1721 15.65                  160.1  9.7      7        58.8 333 
 LA4  SN IP       1721 15.88                              93    1.1910 58.8 333 
 LA4  SE IS       1721 22.10                              93    0.3510 58.8 333 
 LA4  SZ  AML     1721 25.15        60.3 0.48                          58.8 333 
                                                                                
 2008 1110 1943 14.5 L  21.759 -99.292 10.0  RAL  1 0.0 1.0LRAL                1
 GAP=360        0.30       3.8     0.9  0.0  0.8620E+00 -0.2307E+05  0.1855E+05E
 ACTION:UPD 12-06-08 11:37 OP:RALL STATUS:               ID:20081110194314     I
 2008-11-10-1943-08S.PLUR1_003                                                 6
 STAT SP IPHASW D HRMM SECON CODA AMPLIT PERI AZIMU VELO AIN AR TRES W  DIS CAZ7
 LA4  SZ E        1943 19.74                    3.3  7.9      0        30.5 183 
 LA4  SN IP       1943 19.83                             104    0.0110 30.5 183 
 LA4  SE IS       1943 23.70                             104   -0.0110 30.5 183 
 LA4  SZ  AML     1943 26.16        18.8 0.36                          30.5 183 
                                                                                
 2008 1111 0836 40.0 L  21.330 -99.277 10.0  RAL  3 0.4 0.7LRAL                1
 GAP=153        6.10      13.9     7.0 38.1  0.8927E+01  0.1336E+02 -0.9477E+01E
 ACTION:UPD 12-06-08 11:37 OP:RALL STATUS:               ID:20081111083640     I
 2008-11-11-0836-26S.PLUR1_009                                                 6
 STAT SP IPHASW D HRMM SECON CODA AMPLIT PERI AZIMU VELO AIN AR TRES W  DIS CAZ7
 LZ4  SN IP        836 41.56                             176   -0.2710 0.75  82 
 LZ4  SZ E         836 41.57                  256.3 29.8     -5        0.75  82 
 LZ4  SE IS        836 42.42                             176   -0.7510 0.75  82 
 LZ4  SZ  AML      836 44.34       172.8 0.24                          0.75  82 
 LD5  SN IP        836 43.24                             119   -0.0410 16.5 196 
 LD5  SZ E         836 43.30                    9.1  9.5     -6        16.5 196 
 LD5  SE IS        836 45.47                             119   -0.2110 16.5 196 
 LD5  SZ  AML      836 47.00         3.5 0.24                          16.5 196 
 LA4  SN IP        836 43.84                             118    0.4310 17.3 349 
 LA4  SZ E         836 43.91                  135.3  9.7    -33        17.3 349 
 LA4  SE IS        836 46.73                             118    0.8410 17.3 349 
 LA4  SZ  AML      836 47.69        14.8 0.28                          17.3 349 
                                                                                
 2008 1111 0854 34.7 L  21.658 -99.358 10.0  RAL  1 0.0 0.8LRAL                1
 GAP=360        0.30       3.9     1.2  0.0 -0.4263E+01  0.1336E+02 -0.9477E+01E
 ACTION:UPD 12-06-08 11:37 OP:RALL STATUS:               ID:20081111085434     I
 2008-11-11-0854-27S.PLUR1_003                                                 6
 STAT SP IPHASW D HRMM SECON CODA AMPLIT PERI AZIMU VELO AIN AR TRES W  DIS CAZ7
 LA4  SZ E         854 38.31                  345.4  7.5      0        20.0 165 
 LA4  SN IP        854 38.54                             114    0.0210 20.0 165 
 LA4  SE IS        854 41.25                             114   -0.0210 20.0 165 
 LA4  SZ  AML      854 42.17        18.6 0.32                          20.0 165 
                                                                                
 2008 1111 1045 24.3 R                       RAL  1                            1
 ACTION:UPD 12-06-08 11:37 OP:RALL STATUS:               ID:20081111104524     I
 2008-11-11-1045-24S.PLUR1_006                                                 6
 STAT SP IPHASW D HRMM SECON CODA AMPLIT PERI AZIMU VELO AIN AR TRES W  DIS CAZ7
 LA4  SN IP       1045 39.22                                                    
 LA4  SZ E        1045 39.26                  182.0  9.2                        
 LA4  SZ  AML     1045 48.89       127.3 0.52                                   
                                                                                
 2008 1112 0227 39.2 L  21.485 -99.309 10.0  RAL  1 0.0-0.2LRAL                1
 GAP=360        0.51     627.3   999.9  0.0 -0.7906E+07  0.1336E+02 -0.9477E+01E
 ACTION:UPD 12-06-08 11:37 OP:RALL STATUS:               ID:20081112022739     I
 2008-11-12-0227-29S.PLUR1_003                                                 6
 STAT SP IPHASW D HRMM SECON CODA AMPLIT PERI AZIMU VELO AIN AR TRES W  DIS CAZ7
 LA4  SZ E         227 40.92                    3.4 11.9     -1        0.15 185 
 LA4  SN IP        227 41.08                             179    0.0510 0.15 185 
 LA4  SE IS        227 42.32                             179   -0.0510 0.15 185 
 LA4  SZ  AML      227 42.70         3.9 0.20                          0.15 185 
                                                                                
 2008 1112 0742 35.2 L  21.272 -99.330 10.0  RAL  1 0.0 0.5LRAL                1
 GAP=360        0.30       3.9     0.8  0.0  0.1456E+01  0.1336E+02 -0.9477E+01E
 ACTION:UPD 12-06-08 11:37 OP:RALL STATUS:               ID:20081112074235     I
 2008-11-12-0742-28S.PLUR1_003                                                 6
 STAT SP IPHASW D HRMM SECON CODA AMPLIT PERI AZIMU VELO AIN AR TRES W  DIS CAZ7
 LA4  SZ E         742 39.50                  185.2 12.1      0        23.6   5 
 LA4  SN IP        742 39.52                             109    0.0110 23.6   5 
 LA4  SE IS        742 42.63                             109   -0.0110 23.6   5 
 LA4  SZ  AML      742 44.52         8.1 0.24                          23.6   5 
                                                                                
