 2008 11 3 1652 38.9 L  21.411 -99.261 20.3  RAL  2 0.3 0.7LRAL                1
 GAP=225        3.77      10.8     7.7 35.3 -0.8049E+02 -0.6995E+02  0.1012E+03E
 ACTION:UPD 12-06-08 11:37 OP:RALL STATUS:               ID:20081103165238     I
 2008-11-03-1652-31S.PLUR1_006                                                 6
 STAT SP IPHASW D HRMM SECON CODA AMPLIT PERI AZIMU VELO AIN AR TRES W  DIS CAZ7
 LA4  SZ E        1652 43.35                  144.4  7.2     -3        9.43 328 
 LA4  SN IP       1652 43.39                             170    0.7610 9.43 328 
 LA4  SE IS       1652 45.82                             170    0.4510 9.43 328 
 LA4  SZ  AML     1652 47.59        33.3 0.52                          9.43 328 
 LD5  SN IP       1652 44.00                             130   -0.2110 25.6 194 
 LD5  SZ E        1652 44.03                  357.1 17.6     17        25.6 194 
 LD5  SE IS       1652 47.12                             130   -0.9910 25.6 194 
 LD5  SZ  AML     1652 49.75         3.0 0.70                          25.6 194 
                                                                                
 2008 11 3 1744 23.3 L  21.324 -99.300 10.0  RAL  1 0.0 0.5LRAL                1
 GAP=360        0.31       3.1    13.2  0.0  0.4076E+02 -0.6995E+02  0.1012E+03E
 ACTION:UPD 12-06-08 11:37 OP:RALL STATUS:               ID:20081103174423     I
 2008-11-03-1744-11S.PLUR1_003                                                 6
 STAT SP IPHASW D HRMM SECON CODA AMPLIT PERI AZIMU VELO AIN AR TRES W  DIS CAZ7
 LZ4  SZ E        1744 25.22                  255.9 10.3      0        3.25  76 
 LZ4  SN IP       1744 25.23                             162    0.0510 3.25  76 
 LZ4  SE IS       1744 26.52                             162   -0.0510 3.25  76 
 LZ4  SZ  AML     1744 27.90        16.6 0.68                          3.25  76 
                                                                                
 2008 11 3 1745 42.9 L  21.693 -99.369  0.0  RAL  2 0.2 1.8LRAL                1
 GAP=359        2.73      27.3     9.4503.9 -0.2062E+03  0.2568E+04 -0.8920E+04E
 ACTION:UPD 12-06-08 11:37 OP:RALL STATUS:               ID:20081103174542     I
 2008-11-03-1745-32S.PLUR1_006                                                 6
 STAT SP IPHASW D HRMM SECON CODA AMPLIT PERI AZIMU VELO AIN AR TRES W  DIS CAZ7
 LA4  SN IP       1745 46.88                              93   -0.2710 24.0 165 
 LA4  SZ E        1745 47.01                  351.5  7.6      7        24.0 165 
 LA4  SE IS       1745 49.82                              93   -0.4010 24.0 165 
 LA4  SZ  AML     1745 50.27       210.3 0.24                          24.0 165 
 LZ4  SZ E        1745 50.29                  334.5  6.9    -10        41.4 166 
 LZ4  SN IP       1745 50.51                              91    0.3210 41.4 166 
 LZ4  SE IS       1745 55.83                              91    0.3510 41.4 166 
 LZ4  SZ  AML     1745 55.98        74.7 0.24                          41.4 166 
                                                                                
 2008 11 3 1814 39.9 L  21.642 -99.408 10.0  RAL  1 0.0 0.8LRAL                1
 GAP=360        0.30       3.5     2.2  0.0 -0.7449E+01  0.2568E+04 -0.8920E+04E
 ACTION:UPD 12-06-08 11:37 OP:RALL STATUS:               ID:20081103181439     I
 2008-11-03-1814-31S.PLUR1_003                                                 6
 STAT SP IPHASW D HRMM SECON CODA AMPLIT PERI AZIMU VELO AIN AR TRES W  DIS CAZ7
 LA4  SZ E        1814 43.62                  329.7  7.6      0        20.3 150 
 LA4  SN IP       1814 43.74                             113    0.0010 20.3 150 
 LA4  SE IS       1814 46.52                             113    0.0010 20.3 150 
 LA4  SZ  AML     1814 46.68        16.5 0.60                          20.3 150 
                                                                                
 2008 11 3 2202  6.2 L  21.288 -99.312 15.6  RAL  2 0.1 0.7LRAL                1
 GAP=184        0.87       3.3     0.8 10.7  0.7185E+00 -0.1272E+01 -0.1830E+02E
 ACTION:UPD 12-06-08 11:37 OP:RALL STATUS:               ID:20081103220206     I
 2008-11-03-2201-54S.PLUR1_006                                                 6
 STAT SP IPHASW D HRMM SECON CODA AMPLIT PERI AZIMU VELO AIN AR TRES W  DIS CAZ7
 LD5  SZ E        22 2  9.54                    6.2 13.2      2        11.2 184 
 LD5  SN IP       22 2  9.57                             145    0.1210 11.2 184 
 LD5  SE IS       22 2 11.81                             145   -0.0210 11.2 184 
 LD5  SZ  AML     22 2 12.24         6.7 0.30                          11.2 184 
 LA4  SZ E        22 2 10.54                  184.3 10.1      4        21.7   1 
 LA4  SN IP       22 2 10.56                             125   -0.0710 21.7   1 
 LA4  SE IS       22 2 13.85                             125   -0.0310 21.7   1 
 LA4  SZ  AML     22 2 14.93        25.7 0.16                          21.7   1 
                                                                                
 2008 11 3 2321  9.7 L  20.644 -98.556 10.0  RAL  1 0.0 1.1LRAL                1
 GAP=360        0.30       3.0     3.6  0.0 -0.3637E+01 -0.1272E+01 -0.1830E+02E
 ACTION:UPD 12-06-08 11:37 OP:RALL STATUS:               ID:20081103232109     I
 2008-11-03-2321-14S.PLUR1_006                                                 6
 STAT SP IPHASW D HRMM SECON CODA AMPLIT PERI AZIMU VELO AIN AR TRES W  DIS CAZ7
 LD5  SZ E        2321 24.56                  126.9 16.0      0        99.6 307 
 LD5  SN IP       2321 25.67                              93    0.0010 99.6 307 
 LD5  SE IS       2321 37.34                              93    0.0010 99.6 307 
 LD5  SZ  AML     2321 38.28         7.1 0.46                          99.6 307 
                                                                                
 2008 11 4 0002 29.8 L  21.580 -99.726 10.0  RAL  1 0.0 1.4LRAL                1
 GAP=360        0.30       2.2     3.5  0.0 -0.5546E+01 -0.1272E+01 -0.1830E+02E
 ACTION:UPD 12-06-08 11:37 OP:RALL STATUS:               ID:20081104000229     I
 2008-11-04-0002-24S.PLUR1_003                                                 6
 STAT SP IPHASW D HRMM SECON CODA AMPLIT PERI AZIMU VELO AIN AR TRES W  DIS CAZ7
 LZ4  SZ E         0 2 38.70                  300.3  7.5      0        54.7 120 
 LZ4  SN IP        0 2 38.84                              97    0.0110 54.7 120 
 LZ4  SE IS        0 2 45.41                              97   -0.0110 54.7 120 
 LZ4  SZ  AML      0 2 50.24        26.3 0.24                          54.7 120 
                                                                                
 2008 11 4 0421 53.3 L  21.202 -99.338 10.0  RAL  1 0.2-0.2LRAL                1
 GAP=360        0.74      26.6    30.1  0.0 -0.7997E+03 -0.1272E+01 -0.1830E+02E
 ACTION:UPD 12-06-08 11:37 OP:RALL STATUS:               ID:20081104042153     I
 2008-11-04-0421-41S.PLUR1_003                                                 6
 STAT SP IPHASW D HRMM SECON CODA AMPLIT PERI AZIMU VELO AIN AR TRES W  DIS CAZ7
 LD5  SZ E         421 55.65                  313.4 10.4      0        2.52 133 
 LD5  SN IP        421 55.66                             166    0.4510 2.52 133 
 LD5  SE IS        421 56.12                             166   -0.4510 2.52 133 
 LD5  SZ  AML      421 56.30         3.5 0.16                          2.52 133 
                                                                                
 2008 11 4 0754 10.4 L  21.336 -99.283 10.0  RAL  1 0.1 0.6LRAL                1
 GAP=360        0.54     999.9   503.7  0.0  0.5436E+06 -0.1272E+01 -0.1830E+02E
 ACTION:UPD 12-06-08 11:37 OP:RALL STATUS:               ID:20081104075410     I
 2008-11-04-0753-58S.PLUR1_003                                                 6
 STAT SP IPHASW D HRMM SECON CODA AMPLIT PERI AZIMU VELO AIN AR TRES W  DIS CAZ7
 LZ4  SZ E         754 12.51                  291.7 12.1      1        1.46 111 
 LZ4  SN IP        754 12.55                             172    0.2910 1.46 111 
 LZ4  SE IS        754 13.31                             172   -0.2910 1.46 111 
 LZ4  SZ  AML      754 13.66        20.5 0.36                          1.46 111 
                                                                                
 2008 11 4 1541 47.6 L  21.334 -99.288 10.0  RAL  1 0.0 1.0LRAL                1
 GAP=360        0.34     999.9   387.6  0.0  0.7078E+06 -0.1272E+01 -0.1830E+02E
 ACTION:UPD 12-06-08 11:37 OP:RALL STATUS:               ID:20081104154147     I
 2008-11-04-1541-35S.PLUR1_003                                                 6
 STAT SP IPHASW D HRMM SECON CODA AMPLIT PERI AZIMU VELO AIN AR TRES W  DIS CAZ7
 LZ4  SZ E        1541 49.54                  280.5  7.5      0        1.99 101 
 LZ4  SN IP       1541 49.61                             169    0.1210 1.99 101 
 LZ4  SE IS       1541 50.73                             169   -0.1210 1.99 101 
 LZ4  SZ  AML     1541 52.03        59.6 0.20                          1.99 101 
                                                                                
 2008 11 4 1739 28.5 L  21.652 -99.306 10.0  RAL  1 0.0 1.1LRAL                1
 GAP=360        0.30       4.1     0.5  0.0  0.3457E+00 -0.1272E+01 -0.1830E+02E
 ACTION:UPD 12-06-08 11:37 OP:RALL STATUS:               ID:20081104173928     I
 2008-11-04-1739-19S.PLUR1_003                                                 6
 STAT SP IPHASW D HRMM SECON CODA AMPLIT PERI AZIMU VELO AIN AR TRES W  DIS CAZ7
 LA4  SN IP       1739 32.06                             116    0.0210 18.6 181 
 LA4  SZ E        1739 32.07                    1.1  8.4      0        18.6 181 
 LA4  SE IS       1739 34.64                             116   -0.0210 18.6 181 
 LA4  SZ  AML     1739 34.68        31.4 0.24                          18.6 181 
                                                                                
 2008 11 4 2106 49.2 L  21.890 -98.988  5.7  RAL  3 1.5 1.7LRAL                1
 GAP=351       26.29     399.3   210.1999.9  0.6900E+05 -0.6360E+07 -0.1363E+08E
 ACTION:UPD 12-06-08 11:37 OP:RALL STATUS:               ID:20081104210649     I
 2008-11-04-2106-46S.PLUR1_009                                                 6
 STAT SP IPHASW D HRMM SECON CODA AMPLIT PERI AZIMU VELO AIN AR TRES W  DIS CAZ7
 LZ4  SZ E        21 7  0.85                  308.9  6.8     76        68.4 205 
 LZ4  SN IP       21 7  0.92                              91    0.5810 68.4 205 
 LZ4  SE IS       21 7  7.30                              91   -1.1410 68.4 205 
 LZ4  SZ  AML     21 7  8.13       263.9 0.36                          68.4 205 
 LO8  SZ E        21 7  4.94                  145.5  6.3    129        84.1 196 
 LO8  SN IP       21 7  4.97                              91    2.1710 84.1 196 
 LO8  SE IS       21 7 12.80                              91    0.0910 84.1 196 
 LO8  SZ  AML     21 7 13.35        11.9 0.52                          84.1 196 
 LD5  SZ E        21 7  2.86                    7.5 16.9    -15        85.1 204 
 LD5  SN IP       21 7  3.01                              91    0.0810 85.1 204 
 LD5  SE IS       21 7 11.16                              91   -1.7710 85.1 204 
 LD5  SZ  AML     21 7 14.18        13.0 0.74                          85.1 204 
                                                                                
 2008 11 4 2320 25.9 L  21.390 -99.292 10.0  RAL  2 0.2 0.4LRAL                1
 GAP=190        3.14       9.9     3.7 35.5 -0.3219E+02  0.3962E+02 -0.1166E+03E
 ACTION:UPD 12-06-08 11:37 OP:RALL STATUS:               ID:20081104232025     I
 2008-11-04-2320-15S.PLUR1_006                                                 6
 STAT SP IPHASW D HRMM SECON CODA AMPLIT PERI AZIMU VELO AIN AR TRES W  DIS CAZ7
 LZ4  SZ E        2320 28.20                  333.1  6.3     -6        6.95 160 
 LZ4  SN IP       2320 28.25                             147    0.2010 6.95 160 
 LZ4  SE IS       2320 29.74                             147    0.1210 6.95 160 
 LZ4  SZ  AML     2320 31.98        14.4 0.64                          6.95 160 
 LA4  SZ E        2320 28.38                  157.0  9.3    -12        10.5 350 
 LA4  SN IP       2320 28.41                             131   -0.0110 10.5 350 
 LA4  SE IS       2320 29.97                             131   -0.3110 10.5 350 
 LA4  SZ  AML     2320 30.97         9.7 0.40                          10.5 350 
                                                                                
 2008 11 4 2333  4.8 L  22.102 -99.535 10.0  RAL  1 0.0 1.4LRAL                1
 GAP=360        0.30       3.6     2.3  0.0 -0.3394E+01  0.3962E+02 -0.1166E+03E
 ACTION:UPD 12-06-08 11:37 OP:RALL STATUS:               ID:20081104233304     I
 2008-11-04-2333-10S.PLUR1_003                                                 6
 STAT SP IPHASW D HRMM SECON CODA AMPLIT PERI AZIMU VELO AIN AR TRES W  DIS CAZ7
 LA4  SZ E        2333 16.56                  341.2 10.3      0        72.3 161 
 LA4  SN IP       2333 16.59                              95    0.0110 72.3 161 
 LA4  SE IS       2333 25.15                              95   -0.0110 72.3 161 
 LA4  SZ  AML     2333 25.68        19.2 0.28                          72.3 161 
                                                                                
 2008 11 5 0105 25.4 L  21.648 -99.347 10.0  RAL  1 0.0 0.6LRAL                1
 GAP=360        0.30       4.0     1.1  0.0 -0.3764E+01  0.3962E+02 -0.1166E+03E
 ACTION:UPD 12-06-08 11:37 OP:RALL STATUS:               ID:20081105010525     I
 2008-11-05-0105-18S.PLUR1_003                                                 6
 STAT SP IPHASW D HRMM SECON CODA AMPLIT PERI AZIMU VELO AIN AR TRES W  DIS CAZ7
 LA4  SN IP        1 5 28.97                             116    0.0210 18.6 168 
 LA4  SZ E         1 5 28.99                  347.7  7.5      0        18.6 168 
 LA4  SE IS        1 5 31.54                             116   -0.0210 18.6 168 
 LA4  SZ  AML      1 5 32.60        10.6 0.28                          18.6 168 
                                                                                
 2008 11 5 0311 23.9 L  20.954 -99.166 10.0  RAL  1 0.0 0.2LRAL                1
 GAP=360        0.30       3.3     2.3  0.0 -0.6747E+01  0.3962E+02 -0.1166E+03E
 ACTION:UPD 12-06-08 11:37 OP:RALL STATUS:               ID:20081105031123     I
 2008-11-05-0311-18S.PLUR1_003                                                 6
 STAT SP IPHASW D HRMM SECON CODA AMPLIT PERI AZIMU VELO AIN AR TRES W  DIS CAZ7
 LD5  SZ E         311 29.08                  148.1 17.5      0        30.3 328 
 LD5  SN IP        311 29.22                             104    0.0210 30.3 328 
 LD5  SE IS        311 33.04                             104   -0.0210 30.3 328 
 LD5  SZ  AML      311 36.15         2.9 0.54                          30.3 328 
                                                                                
 2008 11 5 0406 35.9 L  21.316 -99.300 10.0  RAL  1 0.0 0.8LRAL                1
 GAP=360        0.35       5.9    12.6  0.0  0.7434E+02  0.3962E+02 -0.1166E+03E
 ACTION:UPD 12-06-08 11:37 OP:RALL STATUS:               ID:20081105040635     I
 2008-11-05-0406-23S.PLUR1_003                                                 6
 STAT SP IPHASW D HRMM SECON CODA AMPLIT PERI AZIMU VELO AIN AR TRES W  DIS CAZ7
 LZ4  SZ E         4 6 37.86                  243.2 16.2      0        3.59  63 
 LZ4  SN IP        4 6 37.92                             161    0.1210 3.59  63 
 LZ4  SE IS        4 6 39.08                             161   -0.1210 3.59  63 
 LZ4  SZ  AML      4 6 39.24        34.3 0.44                          3.59  63 
                                                                                
 2008 11 5 0608 37.7 L  21.349 -99.299  7.0  RAL  2 0.0 0.7LRAL                1
 GAP=297        0.29       0.3     0.5  1.9 -0.1312E+00  0.3854E-01 -0.1388E-01E
 ACTION:UPD 12-06-08 11:37 OP:RALL STATUS:               ID:20081105060837     I
 2008-11-05-0608-24S.PLUR1_006                                                 6
 STAT SP IPHASW D HRMM SECON CODA AMPLIT PERI AZIMU VELO AIN AR TRES W  DIS CAZ7
 LZ4  SZ E         6 8 39.21                  303.9  9.1      0        3.70 124 
 LZ4  SN IP        6 8 39.24                             153    0.0310 3.70 124 
 LZ4  SE IS        6 8 40.29                             153   -0.0210 3.70 124 
 LZ4  SZ  AML      6 8 40.33       174.4 0.16                          3.70 124 
 LD5  SZ E         6 8 40.95                    6.9  9.2      0        18.2 187 
 LD5  SN IP        6 8 41.03                             104   -0.0210 18.2 187 
 LD5  SE IS        6 8 43.51                             104    0.0110 18.2 187 
 LD5  SZ  AML      6 8 45.85         3.8 0.66                          18.2 187 
                                                                                
 2008 11 5 1104 17.5 L  21.333 -99.278 10.0  RAL  1 0.1 0.5LRAL                1
 GAP=360        1.06     999.9   489.0  0.0  0.6343E+06  0.3854E-01 -0.1388E-01E
 ACTION:UPD 12-06-08 11:37 OP:RALL STATUS:               ID:20081105110417     I
 2008-11-05-1104-05S.PLUR1_003                                                 6
 STAT SP IPHASW D HRMM SECON CODA AMPLIT PERI AZIMU VELO AIN AR TRES W  DIS CAZ7
 LZ4  SZ E        11 4 19.44                  287.5 20.2      5        0.90 103 
 LZ4  SN IP       11 4 19.63                             175    0.2610 0.90 103 
 LZ4  SE IS       11 4 20.45                             175   -0.2610 0.90 103 
 LZ4  SZ  AML     11 4 20.79        17.7 0.28                          0.90 103 
                                                                                
 2008 11 5 1117 19.6 L  21.322 -99.290 11.5  RAL  2 0.1 0.5LRAL                1
 GAP=234        0.70       0.5     1.1  5.7  0.5074E+00  0.9150E+00  0.4017E+00E
 ACTION:UPD 12-06-08 11:37 OP:RALL STATUS:               ID:20081105111719     I
 2008-11-05-1117-07S.PLUR1_006                                                 6
 STAT SP IPHASW D HRMM SECON CODA AMPLIT PERI AZIMU VELO AIN AR TRES W  DIS CAZ7
 LZ4  SN IP       1117 22.04                             169    0.3810 2.38  66 
 LZ4  SZ E        1117 22.07                  246.1 10.4      0        2.38  66 
 LZ4  SE IS       1117 23.24                             169    0.0510 2.38  66 
 LZ4  SZ  AML     1117 23.33        63.9 0.28                          2.38  66 
 LD5  SZ E        1117 22.83                   12.2  9.4      1        15.3 192 
 LD5  SN IP       1117 22.85                             126    0.0410 15.3 192 
 LD5  SE IS       1117 24.71                             126   -0.4710 15.3 192 
 LD5  SZ  AML     1117 25.64         2.6 0.28                          15.3 192 
                                                                                
