 2008 1010 2010  3.8 L  21.676 -99.331 10.0  RAL  1 0.0 0.7LRAL                1
 GAP=360        0.30       4.0     0.8  0.0 -0.1810E+01  0.3210E+01 -0.8439E+00E
 ACTION:UPD 12-06-08 11:37 OP:RALL STATUS:               ID:20081010201003     I
 2008-10-10-2009-57S.PLUR1_003                                                 6
 STAT SP IPHASW D HRMM SECON CODA AMPLIT PERI AZIMU VELO AIN AR TRES W  DIS CAZ7
 LA4  SZ E        2010  7.77                  353.8  7.8      0        21.4 174 
 LA4  SN IP       2010  7.77                             112    0.0210 21.4 174 
 LA4  SE IS       2010 10.64                             112   -0.0210 21.4 174 
 LA4  SZ  AML     2010 14.31        12.3 0.32                          21.4 174 
                                                                                
 2008 1010 2033 53.1 L  21.486 -99.318 10.0  RAL  1 0.4 0.1LRAL                1
 GAP=360        4.89     999.9   999.9  0.0  0.4005E+07  0.3210E+01 -0.8439E+00E
 ACTION:UPD 12-06-08 11:37 OP:RALL STATUS:               ID:20081010203353     I
 2008-10-10-2033-42S.PLUR1_003                                                 6
 STAT SP IPHASW D HRMM SECON CODA AMPLIT PERI AZIMU VELO AIN AR TRES W  DIS CAZ7
 LA4  SZ E        2033 54.99                  259.9 23.4    -22        0.99 103 
 LA4  SN IP       2033 55.26                             175    0.3310 0.99 103 
 LA4  SE IS       2033 55.95                             175   -0.3310 0.99 103 
 LA4  SZ  AML     2033 56.08         6.3 0.36                          0.99 103 
                                                                                
 2008 1010 2057  4.4 L  21.316 -99.354 10.0  RAL  1 0.0 1.0LRAL                1
 GAP=360        0.30       1.0     5.9  0.0  0.5865E+01  0.3210E+01 -0.8439E+00E
 ACTION:UPD 12-06-08 11:37 OP:RALL STATUS:               ID:20081010205704     I
 2008-10-10-2056-52S.PLUR1_003                                                 6
 STAT SP IPHASW D HRMM SECON CODA AMPLIT PERI AZIMU VELO AIN AR TRES W  DIS CAZ7
 LZ4  SN IP       2057  6.80                             138    0.0110 8.90  80 
 LZ4  SZ E        2057  7.31                  259.6 12.4      0        8.90  80 
 LZ4  SE IS       2057  8.50                             138   -0.0110 8.90  80 
 LZ4  SZ  AML     2057  8.64        40.5 0.40                          8.90  80 
                                                                                
 2008 1010 2335 20.1 L  21.332 -99.273 10.0  RAL  1 0.1 0.6LRAL                1
 GAP=360        0.48       2.7     0.1 12.3 -0.2515E+02  0.3210E+01 -0.8439E+00E
 ACTION:UPD 12-06-08 11:37 OP:RALL STATUS:               ID:20081010233520     I
 2008-10-10-2335-08S.PLUR1_003                                                 6
 STAT SP IPHASW D HRMM SECON CODA AMPLIT PERI AZIMU VELO AIN AR TRES W  DIS CAZ7
 LZ4  SZ E        2335 22.17                  287.3 12.2      0        0.41 109 
 LZ4  SN IP       2335 22.20                             178    0.2910 0.41 109 
 LZ4  SE IS       2335 22.95                             178   -0.2910 0.41 109 
 LZ4  SZ  AML     2335 23.08        22.8 0.12                          0.41 109 
                                                                                
 2008 1011 0034  8.7 L  21.294 -99.263 10.0  RAL  1 0.0 0.4LRAL                1
 GAP=360        0.30       9.8     1.6  0.0 -0.1587E+02  0.3210E+01 -0.8439E+00E
 ACTION:UPD 12-06-08 11:37 OP:RALL STATUS:               ID:20081011003408     I
 2008-10-11-0033-58S.PLUR1_003                                                 6
 STAT SP IPHASW D HRMM SECON CODA AMPLIT PERI AZIMU VELO AIN AR TRES W  DIS CAZ7
 LZ4  SZ E         034 10.64                  171.3 15.5      0        4.12 351 
 LZ4  SN IP        034 10.66                             158    0.0210 4.12 351 
 LZ4  SE IS        034 12.05                             158   -0.0210 4.12 351 
 LZ4  SZ  AML      034 14.03        13.1 0.32                          4.12 351 
                                                                                
 2008 1011 0151 51.3 L  21.332 -99.272 10.0  RAL  3 0.4 0.4LRAL                1
 GAP=150        5.26       2.3     6.1 31.9  0.7432E+01  0.9305E+01  0.1669E+01E
 ACTION:UPD 12-06-08 11:37 OP:RALL STATUS:               ID:20081011015151     I
 2008-10-11-0151-38S.PLUR1_009                                                 6
 STAT SP IPHASW D HRMM SECON CODA AMPLIT PERI AZIMU VELO AIN AR TRES W  DIS CAZ7
 LZ4  SZ E         151 52.83                  266.8  9.6    -18        0.31 105 
 LZ4  SN IP        151 53.07                             178   -0.1110 0.31 105 
 LZ4  SZ  AML      151 53.97        57.3 0.32                          0.31 105 
 LZ4  SE IS        151 54.04                             178   -0.4810 0.31 105 
 LD5  SN IP        151 53.96                             116   -0.7110 16.8 197 
 LD5  SZ E         151 54.05                   35.7 20.2     19        16.8 197 
 LD5  SE IS        151 55.91                             116   -1.1910 16.8 197 
 LD5  SZ  AML      151 56.96         2.2 0.24                          16.8 197 
 LA4  SZ E         151 55.16                  157.5  9.9     -9        17.2 347 
 LA4  SN IP        151 56.13                             117    1.3910 17.2 347 
 LA4  SE IS        151 58.32                             117    1.1010 17.2 347 
 LA4  SZ  AML      151 59.08         8.5 0.24                          17.2 347 
                                                                                
 2008 1011 0722 33.1 L  21.345 -99.275 10.0  RAL  1 0.1 0.7LRAL                1
 GAP=360        0.48     446.0   999.9  0.0  0.6529E+06  0.9305E+01  0.1669E+01E
 ACTION:UPD 12-06-08 11:37 OP:RALL STATUS:               ID:20081011072233     I
 2008-10-11-0722-21S.PLUR1_003                                                 6
 STAT SP IPHASW D HRMM SECON CODA AMPLIT PERI AZIMU VELO AIN AR TRES W  DIS CAZ7
 LZ4  SZ E         722 34.71                  341.0 99.9      1        1.65 160 
 LZ4  SN IP        722 35.23                             171    0.2510 1.65 160 
 LZ4  SE IS        722 36.09                             171   -0.2510 1.65 160 
 LZ4  SZ  AML      722 36.53        30.3 0.52                          1.65 160 
                                                                                
 2008 1011 0930 45.4 L  21.228 -99.281 10.0  RAL  1 0.0-0.2LRAL                1
 GAP=360        0.31       5.5     5.2  0.0  0.2847E+02  0.9305E+01  0.1669E+01E
 ACTION:UPD 12-06-08 11:37 OP:RALL STATUS:               ID:20081011093045     I
 2008-10-11-0930-34S.PLUR1_003                                                 6
 STAT SP IPHASW D HRMM SECON CODA AMPLIT PERI AZIMU VELO AIN AR TRES W  DIS CAZ7
 LD5  SZ E         930 47.50                   41.4 10.3      0        6.19 221 
 LD5  SN IP        930 47.50                             149    0.0510 6.19 221 
 LD5  SE IS        930 48.93                             149   -0.0510 6.19 221 
 LD5  SZ  AML      930 49.37         2.8 0.30                          6.19 221 
                                                                                
 2008 1011 1012 33.1 L  21.555 -99.288 10.0  RAL  1 0.0 0.2LRAL                1
 GAP=360        0.30       5.7     1.7  0.0  0.9383E+01  0.9305E+01  0.1669E+01E
 ACTION:UPD 12-06-08 11:37 OP:RALL STATUS:               ID:20081011101233     I
 2008-10-11-1012-23S.PLUR1_003                                                 6
 STAT SP IPHASW D HRMM SECON CODA AMPLIT PERI AZIMU VELO AIN AR TRES W  DIS CAZ7
 LA4  SZ E        1012 35.42                   15.3  9.4      0        8.24 195 
 LA4  SN IP       1012 35.45                             141    0.0210 8.24 195 
 LA4  SE IS       1012 37.09                             141   -0.0210 8.24 195 
 LA4  SZ  AML     1012 37.25         6.5 0.28                          8.24 195 
                                                                                
 2008 1011 1039 12.5 L  21.562 -99.306  2.3  RAL  2 0.2 1.0LRAL                1
 GAP=349        2.01      13.9     1.4 70.0  0.7034E+01 -0.1464E+02 -0.3434E+03E
 ACTION:UPD 12-06-08 11:37 OP:RALL STATUS:               ID:20081011103912     I
 2008-10-11-1039-00S.PLUR1_006                                                 6
 STAT SP IPHASW D HRMM SECON CODA AMPLIT PERI AZIMU VELO AIN AR TRES W  DIS CAZ7
 LA4  SZ E        1039 13.64                    5.5  9.1      3        8.66 182 
 LA4  SN IP       1039 13.65                              99   -0.4910 8.66 182 
 LA4  SE IS       1039 15.20                              99   -0.1210 8.66 182 
 LA4  SZ  AML     1039 15.44        60.3 0.28                          8.66 182 
 LZ4  SN IP       1039 16.92                              93   -0.1510 25.8 172 
 LZ4  SZ E        1039 17.44                  343.7  8.0     -7        25.8 172 
 LZ4  SE IS       1039 21.15                              93    0.7610 25.8 172 
 LZ4  SZ  AML     1039 21.26        19.1 0.20                          25.8 172 
                                                                                
 2008 1011 1125 52.2 L  21.699 -99.329 10.0  RAL  1 0.0 0.9LRAL                1
 GAP=360        0.30       3.9     0.8  0.0 -0.1373E+01 -0.1464E+02 -0.3434E+03E
 ACTION:UPD 12-06-08 11:37 OP:RALL STATUS:               ID:20081011112552     I
 2008-10-11-1125-45S.PLUR1_003                                                 6
 STAT SP IPHASW D HRMM SECON CODA AMPLIT PERI AZIMU VELO AIN AR TRES W  DIS CAZ7
 LA4  SZ E        1125 56.54                  355.1  8.6      0        23.9 175 
 LA4  SN IP       1125 56.57                             109    0.0110 23.9 175 
 LA4  SE IS       1125 59.72                             109   -0.0110 23.9 175 
 LA4  SZ  AML     1126  2.75        19.6 0.44                          23.9 175 
                                                                                
 2008 1011 1329 55.8 L  21.314 -99.312 10.0  RAL  1 0.0 0.6LRAL                1
 GAP=360        0.30       3.6     8.8  0.0  0.3125E+02 -0.1464E+02 -0.3434E+03E
 ACTION:UPD 12-06-08 11:37 OP:RALL STATUS:               ID:20081011132955     I
 2008-10-11-1329-44S.PLUR1_003                                                 6
 STAT SP IPHASW D HRMM SECON CODA AMPLIT PERI AZIMU VELO AIN AR TRES W  DIS CAZ7
 LZ4  SZ E        1329 57.79                  246.6 14.9      0        4.81  67 
 LZ4  SN IP       1329 57.83                             155    0.0510 4.81  67 
 LZ4  SE IS       1329 59.19                             155   -0.0510 4.81  67 
 LZ4  SZ  AML     1329 59.98        19.1 0.28                          4.81  67 
                                                                                
 2008 1011 1418  8.9 L  21.322 -99.288 10.0  RAL  1 0.3                        1
 GAP=360        2.73      77.6   161.8  0.0  0.1255E+05 -0.1464E+02 -0.3434E+03E
 ACTION:UPD 12-06-08 11:37 OP:RALL STATUS:               ID:20081011141808     I
 2008-10-11-1417-57S.PLUR1_003                                                 6
 STAT SP IPHASW D HRMM SECON CODA AMPLIT PERI AZIMU VELO AIN AR TRES W  DIS CAZ7
 LZ4  SZ E        1418 11.39                  230.6 10.0    -11        2.12  63 
 LZ4  SN IP       1418 11.39                             168    0.6310 2.12  63 
 LZ4  SE IS       1418 11.49                             168   -0.6310 2.12  63 
                                                                                
 2008 1011 1624 22.5 L  21.225 -99.266 10.0  RAL  2 0.1 0.0LRAL                1
 GAP=235        0.73       0.7     0.8  7.6  0.4035E+00 -0.5979E+00 -0.5752E+00E
 ACTION:UPD 12-06-08 11:37 OP:RALL STATUS:               ID:20081011162422     I
 2008-10-11-1624-12S.PLUR1_006                                                 6
 STAT SP IPHASW D HRMM SECON CODA AMPLIT PERI AZIMU VELO AIN AR TRES W  DIS CAZ7
 LD5  SN IP       1624 24.72                             151    0.0910 7.05 233 
 LD5  SZ E        1624 25.08                   54.1 12.0      1        7.05 233 
 LD5  SE IS       1624 26.55                             151    0.3310 7.05 233 
 LD5  SZ  AML     1624 26.94         1.6 0.48                          7.05 233 
 LZ4  SN IP       1624 25.11                             134   -0.0210 11.8 358 
 LZ4  SZ E        1624 25.22                  179.9 14.4      2        11.8 358 
 LZ4  SE IS       1624 26.69                             134   -0.4010 11.8 358 
 LZ4  SZ  AML     1624 27.36        13.5 0.36                          11.8 358 
                                                                                
 2008 1011 2031 17.7 L  21.334 -99.279 10.0  RAL  1 0.2 0.3LRAL                1
 GAP=360        2.94     636.1   631.4  0.0  0.4016E+06 -0.5979E+00 -0.5752E+00E
 ACTION:UPD 12-06-08 11:37 OP:RALL STATUS:               ID:20081011203117     I
 2008-10-11-2031-05S.PLUR1_003                                                 6
 STAT SP IPHASW D HRMM SECON CODA AMPLIT PERI AZIMU VELO AIN AR TRES W  DIS CAZ7
 LZ4  SZ E        2031 19.77                  274.0 16.3    -13        1.04 108 
 LZ4  SN IP       2031 19.82                             174    0.2710 1.04 108 
 LZ4  SE IS       2031 20.63                             174   -0.2710 1.04 108 
 LZ4  SZ  AML     2031 21.79        11.4 0.20                          1.04 108 
                                                                                
 2008 1011 2051  4.3 L  21.672 -99.460  0.1  RAL  2 0.2 1.8LRAL                1
 GAP=351        2.38      19.9    15.5476.6 -0.2828E+03  0.4800E+04 -0.6205E+04E
 ACTION:UPD 12-06-08 11:37 OP:RALL STATUS:               ID:20081011205104     I
 2008-10-11-2050-34S.PLUR1_006                                                 6
 STAT SP IPHASW D HRMM SECON CODA AMPLIT PERI AZIMU VELO AIN AR TRES W  DIS CAZ7
 LA4  SN IP       2051  9.22                              93    0.3810 26.0 143 
 LA4  SZ E        2051  9.27                  328.6  9.2      6        26.0 143 
 LA4  SE IS       2051 11.54                              93   -0.6310 26.0 143 
 LA4  SZ  AML     2051 13.04       260.7 0.36                          26.0 143 
 LZ4  SZ E        2051 11.96                  323.0  7.7     -8        42.6 152 
 LZ4  SN IP       2051 11.98                              91    0.2510 42.6 152 
 LZ4  SE IS       2051 17.16                              91   -0.0110 42.6 152 
 LZ4  SZ  AML     2051 19.52        61.4 0.32                          42.6 152 
                                                                                
 2008 1011 2129  2.3 L  21.265 -99.267  9.1  RAL  2 0.1 0.4LRAL                1
 GAP=215        0.83       1.3     0.5  9.7  0.2182E+00  0.2463E+00  0.1913E+01E
 ACTION:UPD 12-06-08 11:37 OP:RALL STATUS:               ID:20081011212902     I
 2008-10-11-2128-50S.PLUR1_006                                                 6
 STAT SP IPHASW D HRMM SECON CODA AMPLIT PERI AZIMU VELO AIN AR TRES W  DIS CAZ7
 LZ4  SN IP       2129  4.69                             142    0.3010 7.30 358 
 LZ4  SZ E        2129  4.70                  176.3 11.9      0        7.30 358 
 LZ4  SE IS       2129  6.19                             142    0.2910 7.30 358 
 LZ4  SZ  AML     2129  7.57        21.0 0.52                          7.30 358 
 LD5  SZ E        2129  4.63                   31.3  9.8      0        10.3 213 
 LD5  SN IP       2129  4.63                             131   -0.0810 10.3 213 
 LD5  SE IS       2129  5.96                             131   -0.5110 10.3 213 
 LD5  SZ  AML     2129  6.42         5.5 0.24                          10.3 213 
                                                                                
 2008 1011 2152 31.9 L  21.689 -99.362 10.0  RAL  1 0.0 1.2LRAL                1
 GAP=360        0.30       3.8     1.2  0.0 -0.3730E+01  0.2463E+00  0.1913E+01E
 ACTION:UPD 12-06-08 11:37 OP:RALL STATUS:               ID:20081011215231     I
 2008-10-11-2152-23S.PLUR1_003                                                 6
 STAT SP IPHASW D HRMM SECON CODA AMPLIT PERI AZIMU VELO AIN AR TRES W  DIS CAZ7
 LA4  SN IP       2152 36.14                             110    0.0210 23.4 166 
 LA4  SZ E        2152 36.54                  346.4  8.4      0        23.4 166 
 LA4  SE IS       2152 39.22                             110   -0.0210 23.4 166 
 LA4  SZ  AML     2152 40.73        39.4 0.68                          23.4 166 
                                                                                
 2008 1012 0056  4.4 L  21.674 -99.383 10.0  RAL  1 0.0 0.7LRAL                1
 GAP=360        0.30       3.7     1.6  0.0 -0.5340E+01  0.2463E+00  0.1913E+01E
 ACTION:UPD 12-06-08 11:37 OP:RALL STATUS:               ID:20081012005604     I
 2008-10-12-0055-56S.PLUR1_003                                                 6
 STAT SP IPHASW D HRMM SECON CODA AMPLIT PERI AZIMU VELO AIN AR TRES W  DIS CAZ7
 LA4  SN IP        056  8.58                             111    0.0210 22.4 160 
 LA4  SZ E         056  8.68                  340.1  9.6      0        22.4 160 
 LA4  SE IS        056 11.54                             111   -0.0210 22.4 160 
 LA4  SZ  AML      056 12.30        13.5 0.24                          22.4 160 
                                                                                
 2008 1012 0300 31.9 L  21.343 -99.296  2.8  RAL  2 0.1 0.6LRAL                1
 GAP=239        0.68       0.5     1.0  5.1 -0.4811E+00  0.1948E+01 -0.9698E+00E
 ACTION:UPD 12-06-08 11:37 OP:RALL STATUS:               ID:20081012030031     I
 2008-10-12-0300-17S.PLUR1_006                                                 6
 STAT SP IPHASW D HRMM SECON CODA AMPLIT PERI AZIMU VELO AIN AR TRES W  DIS CAZ7
 LZ4  SZ E         3 0 32.41                  296.3 10.5      0        3.04 116 
 LZ4  SN IP        3 0 32.47                             140   -0.2610 3.04 116 
 LZ4  SE IS        3 0 33.41                             140    0.0510 3.04 116 
 LZ4  SZ  AML      3 0 33.50       105.5 0.16                          3.04 116 
 LA4  SN IP     C  3 0 34.45                             104   -0.2510 15.6 355 
 LA4  SZ E         3 0 34.58                  175.8  9.4      1        15.6 355 
 LA4  SE IS        3 0 37.21                             104    0.4510 15.6 355 
 LA4  SZ  AML      3 0 39.16         8.1 0.40                          15.6 355 
                                                                                
 2008 1012 0301 47.7 L  21.337 -99.291 10.0  RAL  1 0.1 0.6LRAL                1
 GAP=360        0.41     864.8   312.9  0.0  0.2706E+06  0.1948E+01 -0.9698E+00E
 ACTION:UPD 12-06-08 11:37 OP:RALL STATUS:               ID:20081012030147     I
 2008-10-12-0301-35S.PLUR1_003                                                 6
 STAT SP IPHASW D HRMM SECON CODA AMPLIT PERI AZIMU VELO AIN AR TRES W  DIS CAZ7
 LZ4  SZ E         3 1 49.71                  287.2  8.4      0        2.30 107 
 LZ4  SN IP        3 1 49.79                             167    0.1910 2.30 107 
 LZ4  SE IS        3 1 50.78                             167   -0.1910 2.30 107 
 LZ4  SZ  AML      3 1 50.90        23.9 0.36                          2.30 107 
                                                                                
