 2008 10 1 0116 33.8 L  21.638 -99.298 10.0  RAL  1 0.0 0.7LRAL                1
 GAP=360        0.30       4.2     0.6  0.0  0.1217E+01 -0.2399E+01  0.1686E+02E
 ACTION:UPD 12-06-08 11:37 OP:RALL STATUS:               ID:20081001011633     I
 2008-10-01-0116-25S.PLUR1_003                                                 6
 STAT SP IPHASW D HRMM SECON CODA AMPLIT PERI AZIMU VELO AIN AR TRES W  DIS CAZ7
 LA4  SZ E         116 37.11                    3.7  8.5      0        17.1 184 
 LA4  SN IP        116 37.15                             118    0.0210 17.1 184 
 LA4  SE IS        116 39.57                             118   -0.0210 17.1 184 
 LA4  SZ  AML      116 41.19        13.5 0.24                          17.1 184 
                                                                                
 2008 10 1 0145 54.3 L  21.244 -99.255  6.3  RAL  3 0.2 1.0LRAL                1
 GAP=235        1.96       2.1     1.5 17.1  0.1074E+01 -0.2830E+01 -0.7664E+01E
 ACTION:UPD 12-06-08 11:37 OP:RALL STATUS:               ID:20081001014554     I
 2008-10-01-0145-41S.PLUR1_009                                                 6
 STAT SP IPHASW D HRMM SECON CODA AMPLIT PERI AZIMU VELO AIN AR TRES W  DIS CAZ7
 LD5  SZ E         145 56.59                   47.5 11.0      1        9.22 227 
 LD5  SN IP        145 56.60                             121    0.2710 9.22 227 
 LD5  SE IS        145 58.25                             121    0.4410 9.22 227 
 LD5  SZ  AML      145 59.04        21.0 0.52                          9.22 227 
 LZ4  SZ E         145 56.10                  168.7  8.1     -2        9.78 351 
 LZ4  SN IP        145 56.11                             119   -0.3010 9.78 351 
 LZ4  SE IS        145 57.45                             119   -0.4910 9.78 351 
 LZ4  SZ  AML      145 58.09       140.6 0.36                          9.78 351 
 LA4  SN IP        145 58.89                              95   -0.1410 27.2 348 
 LA4  SZ E         145 58.91                  178.3  9.7     10        27.2 348 
 LA4  SE IS        146  2.70                              95    0.2210 27.2 348 
 LA4  SZ  AML      146  3.62        22.8 0.32                          27.2 348 
                                                                                
 2008 10 1 0306 36.7 L  21.316 -99.284 10.0  RAL  1 0.2 0.6LRAL                1
 GAP=360        1.46      65.3    61.4  0.0  0.4011E+04 -0.2830E+01 -0.7664E+01E
 ACTION:UPD 12-06-08 11:37 OP:RALL STATUS:               ID:20081001030636     I
 2008-10-01-0306-24S.PLUR1_003                                                 6
 STAT SP IPHASW D HRMM SECON CODA AMPLIT PERI AZIMU VELO AIN AR TRES W  DIS CAZ7
 LZ4  SZ E         3 6 38.87                  215.9 61.9     -4        2.21  41 
 LZ4  SN IP        3 6 39.18                             168    0.6010 2.21  41 
 LZ4  SE IS        3 6 39.34                             168   -0.6010 2.21  41 
 LZ4  SZ  AML      3 6 40.34        22.0 0.40                          2.21  41 
                                                                                
 2008 10 1 0333 33.5 L  21.340 -99.258 10.0  RAL  1 0.0 0.7LRAL                1
 GAP=360        0.30       4.0     1.5  0.0 -0.5635E+01 -0.2830E+01 -0.7664E+01E
 ACTION:UPD 12-06-08 11:37 OP:RALL STATUS:               ID:20081001033333     I
 2008-10-01-0333-24S.PLUR1_003                                                 6
 STAT SP IPHASW D HRMM SECON CODA AMPLIT PERI AZIMU VELO AIN AR TRES W  DIS CAZ7
 LA4  SN IP        333 36.84                             119    0.0010 16.7 342 
 LA4  SZ E         333 37.00                  161.6 10.2      0        16.7 342 
 LA4  SE IS        333 39.26                             119    0.0010 16.7 342 
 LA4  SZ  AML      333 40.16        14.7 0.32                          16.7 342 
                                                                                
 2008 10 1 0343 51.6 L  21.336 -99.288 10.0  RAL  1 0.1 0.7LRAL                1
 GAP=360        0.42       8.5    28.1  0.0 -0.2379E+03 -0.2830E+01 -0.7664E+01E
 ACTION:UPD 12-06-08 11:37 OP:RALL STATUS:               ID:20081001034351     I
 2008-10-01-0343-38S.PLUR1_003                                                 6
 STAT SP IPHASW D HRMM SECON CODA AMPLIT PERI AZIMU VELO AIN AR TRES W  DIS CAZ7
 LZ4  SZ E         343 53.69                  287.9  8.6      0        2.01 108 
 LZ4  SN IP        343 53.70                             169    0.2010 2.01 108 
 LZ4  SE IS        343 54.65                             169   -0.2010 2.01 108 
 LZ4  SZ  AML      343 54.73        27.2 0.16                          2.01 108 
                                                                                
 2008 10 1 0422 46.3 L  21.344 -99.295 10.0  RAL  1 0.1 0.8LRAL                1
 GAP=360        0.44       9.5    18.0  0.0 -0.1705E+03 -0.2830E+01 -0.7664E+01E
 ACTION:UPD 12-06-08 11:37 OP:RALL STATUS:               ID:20081001042246     I
 2008-10-01-0422-34S.PLUR1_003                                                 6
 STAT SP IPHASW D HRMM SECON CODA AMPLIT PERI AZIMU VELO AIN AR TRES W  DIS CAZ7
 LZ4  SZ E         422 48.36                  299.5  9.3      0        3.05 119 
 LZ4  SN IP        422 48.42                             164    0.2210 3.05 119 
 LZ4  SE IS        422 49.37                             164   -0.2210 3.05 119 
 LZ4  SZ  AML      422 49.52        34.3 0.12                          3.05 119 
                                                                                
 2008 10 1 0647 37.8 L  21.407 -99.271 11.4  RAL  2 0.1 0.3LRAL                1
 GAP=204        0.88       1.9     0.7  9.4 -0.7963E+00  0.2418E-01 -0.2671E+00E
 ACTION:UPD 12-06-08 11:37 OP:RALL STATUS:               ID:20081001064737     I
 2008-10-01-0647-27S.PLUR1_006                                                 6
 STAT SP IPHASW D HRMM SECON CODA AMPLIT PERI AZIMU VELO AIN AR TRES W  DIS CAZ7
 LZ4  SN IP        647 39.68                             146   -0.5810 8.38 179 
 LZ4  SZ E         647 40.30                  357.8 12.1      0        8.38 179 
 LZ4  SE IS        647 42.18                             146    0.1210 8.38 179 
 LZ4  SZ  AML      647 42.38        12.6 0.56                          8.38 179 
 LA4  SZ E         647 40.49                  153.8 20.2      0        9.41 335 
 LA4  SN IP        647 40.79                             145    0.4210 9.41 335 
 LA4  SE IS        647 42.28                             145    0.0310 9.41 335 
 LA4  SZ  AML      647 42.34         5.2 0.16                          9.41 335 
                                                                                
 2008 10 1 0711 57.6 L  21.333 -99.271 10.0  RAL  1 0.9 0.4LRAL                1
 GAP=360       12.09     999.9   999.9  0.0  0.2088E+08  0.2418E-01 -0.2671E+00E
 ACTION:UPD 12-06-08 11:37 OP:RALL STATUS:               ID:20081001071157     I
 2008-10-01-0711-46S.PLUR1_003                                                 6
 STAT SP IPHASW D HRMM SECON CODA AMPLIT PERI AZIMU VELO AIN AR TRES W  DIS CAZ7
 LZ4  SZ E         711 59.48                  267.6 11.1    -57        0.34 145 
 LZ4  SN IP        711 59.48                             178    0.0810 0.34 145 
 LZ4  SE IS        712  0.65                             178   -0.0810 0.34 145 
 LZ4  SN  AML      712  0.82        15.0 0.40                          0.34 145 
                                                                                
 2008 10 1 0724 47.9 L  21.194 -99.298 10.0  RAL  1 0.1-0.6LRAL                1
 GAP=360        0.41       7.3    22.1  0.0  0.1605E+03  0.2418E-01 -0.2671E+00E
 ACTION:UPD 12-06-08 11:37 OP:RALL STATUS:               ID:20081001072447     I
 2008-10-01-0724-36S.PLUR1_003                                                 6
 STAT SP IPHASW D HRMM SECON CODA AMPLIT PERI AZIMU VELO AIN AR TRES W  DIS CAZ7
 LD5  SN IP        724 49.99                             167    0.1910 2.46 251 
 LD5  SZ E         724 50.33                   70.6 10.6      0        2.46 251 
 LD5  SE IS        724 50.98                             167   -0.1910 2.46 251 
 LD5  SZ  AML      724 51.06         1.3 0.24                          2.46 251 
                                                                                
 2008 10 1 0734 56.0 L  21.351 -99.297 10.0  RAL  1 0.1 0.2LRAL                1
 GAP=360        0.39       9.1    12.4  0.0 -0.1124E+03  0.2418E-01 -0.2671E+00E
 ACTION:UPD 12-06-08 11:37 OP:RALL STATUS:               ID:20081001073456     I
 2008-10-01-0734-44S.PLUR1_003                                                 6
 STAT SP IPHASW D HRMM SECON CODA AMPLIT PERI AZIMU VELO AIN AR TRES W  DIS CAZ7
 LZ4  SZ E         734 58.02                  308.1 11.4      0        3.62 128 
 LZ4  SN IP        734 58.07                             161    0.1710 3.62 128 
 LZ4  SE IS        734 59.13                             161   -0.1710 3.62 128 
 LZ4  SZ  AML      734 59.18         8.1 0.16                          3.62 128 
                                                                                
 2008 10 1 0844 17.5 L  21.341 -99.301 10.0  RAL  1 0.0 0.3LRAL                1
 GAP=360        0.32       4.0    12.5  0.0 -0.4926E+02  0.2418E-01 -0.2671E+00E
 ACTION:UPD 12-06-08 11:37 OP:RALL STATUS:               ID:20081001084417     I
 2008-10-01-0844-06S.PLUR1_003                                                 6
 STAT SP IPHASW D HRMM SECON CODA AMPLIT PERI AZIMU VELO AIN AR TRES W  DIS CAZ7
 LZ4  SN IP        844 19.52                             161    0.0810 3.49 109 
 LZ4  SZ E         844 19.67                  288.8  7.0      0        3.49 109 
 LZ4  SE IS        844 20.77                             161   -0.0810 3.49 109 
 LZ4  SZ  AML      844 20.91        10.5 0.52                          3.49 109 
                                                                                
 2008 10 1 1041 58.4 L  21.337 -99.269 10.0  RAL  1 0.2 0.5LRAL                1
 GAP=360        1.70     333.0   643.1  0.0 -0.2141E+06  0.2418E-01 -0.2671E+00E
 ACTION:UPD 12-06-08 11:37 OP:RALL STATUS:               ID:20081001104158     I
 2008-10-01-1041-46S.PLUR1_003                                                 6
 STAT SP IPHASW D HRMM SECON CODA AMPLIT PERI AZIMU VELO AIN AR TRES W  DIS CAZ7
 LZ4  SZ E        1042  0.34                  355.7 43.8      8        0.74 183 
 LZ4  SN IP       1042  0.52                             176    0.3110 0.74 183 
 LZ4  SZ  AML     1042  1.02        16.4 0.76                          0.74 183 
 LZ4  SE IS       1042  1.24                             176   -0.3110 0.74 183 
                                                                                
 2008 10 1 1109 20.8 L  21.325 -99.279 10.0  RAL  1 0.4 0.4LRAL                1
 GAP=360        4.81     999.9   999.9  0.0 -0.1346E+09  0.2418E-01 -0.2671E+00E
 ACTION:UPD 12-06-08 11:37 OP:RALL STATUS:               ID:20081001110920     I
 2008-10-01-1109-09S.PLUR1_003                                                 6
 STAT SP IPHASW D HRMM SECON CODA AMPLIT PERI AZIMU VELO AIN AR TRES W  DIS CAZ7
 LZ4  SN IP       11 9 22.86                             173    0.1810 1.20  59 
 LZ4  SZ E        11 9 22.95                  262.2 18.1     23        1.20  59 
 LZ4  SE IS       11 9 23.84                             173   -0.1810 1.20  59 
 LZ4  SZ  AML     11 9 23.94        13.5 0.20                          1.20  59 
                                                                                
 2008 10 1 1147 47.1 L  21.367 -99.313  4.0  RAL  2 0.2 0.9LRAL                1
 GAP=310        0.87       1.5     1.6  7.9 -0.2053E+01  0.2121E+01 -0.1577E+01E
 ACTION:UPD 12-06-08 11:37 OP:RALL STATUS:               ID:20081001114747     I
 2008-10-01-1147-34S.PLUR1_006                                                 6
 STAT SP IPHASW D HRMM SECON CODA AMPLIT PERI AZIMU VELO AIN AR TRES W  DIS CAZ7
 LZ4  SZ E        1147 48.46                  312.3 10.5      0        6.05 132 
 LZ4  SN IP       1147 49.14                             130    0.6910 6.05 132 
 LZ4  SE IS       1147 49.17                             130   -0.2810 6.05 132 
 LZ4  SZ  AML     1147 49.31       338.0 0.16                          6.05 132 
 LD5  SZ E        1147 50.44                    1.8 10.6      0        20.0 182 
 LD5  SN IP       1147 50.47                             104   -0.2110 20.0 182 
 LD5  SE IS       1147 53.12                             104   -0.2010 20.0 182 
 LD5  SZ  AML     1147 54.20         3.7 0.24                          20.0 182 
                                                                                
 2008 10 1 1208 39.2 L  21.334 -99.281 10.0  RAL  1 0.2 0.2LRAL                1
 GAP=360        0.98     999.9   999.9  0.0  0.5219E+07  0.2121E+01 -0.1577E+01E
 ACTION:UPD 12-06-08 11:37 OP:RALL STATUS:               ID:20081001120839     I
 2008-10-01-1208-27S.PLUR1_003                                                 6
 STAT SP IPHASW D HRMM SECON CODA AMPLIT PERI AZIMU VELO AIN AR TRES W  DIS CAZ7
 LZ4  SZ E        12 8 41.17                  288.8  8.3      0        1.26 109 
 LZ4  SZ  AML     12 8 41.59         8.2 0.56                          1.26 109 
 LZ4  SN IP       12 8 41.71                             173    0.6310 1.26 109 
 LZ4  SE IS       12 8 41.79                             173   -0.6310 1.26 109 
                                                                                
 2008 10 1 1356 39.0 L  21.347 -99.282 10.0  RAL  1 0.2 0.3LRAL                1
 GAP=360        0.80     792.8   999.9  0.0  0.1048E+07  0.2121E+01 -0.1577E+01E
 ACTION:UPD 12-06-08 11:37 OP:RALL STATUS:               ID:20081001135639     I
 2008-10-01-1356-26S.PLUR1_003                                                 6
 STAT SP IPHASW D HRMM SECON CODA AMPLIT PERI AZIMU VELO AIN AR TRES W  DIS CAZ7
 LZ4  SZ E        1356 41.10                  325.4 10.8      0        2.22 145 
 LZ4  SN IP       1356 41.35                             168    0.5010 2.22 145 
 LZ4  SE IS       1356 41.71                             168   -0.5010 2.22 145 
 LZ4  SZ  AML     1356 42.12        12.0 0.32                          2.22 145 
                                                                                
 2008 10 1 1426 11.1 L  21.311 -99.270 10.0  RAL  1 0.2 0.3LRAL                1
 GAP=360        2.52     154.6   642.5  0.0 -0.9933E+05  0.2121E+01 -0.1577E+01E
 ACTION:UPD 12-06-08 11:37 OP:RALL STATUS:               ID:20081001142611     I
 2008-10-01-1425-59S.PLUR1_003                                                 6
 STAT SP IPHASW D HRMM SECON CODA AMPLIT PERI AZIMU VELO AIN AR TRES W  DIS CAZ7
 LZ4  SZ E        1426 13.02                  168.5 40.0    -11        2.15   0 
 LZ4  SN IP       1426 13.43                             168    0.4210 2.15   0 
 LZ4  SE IS       1426 13.96                             168   -0.4210 2.15   0 
 LZ4  SZ  AML     1426 14.50        11.0 0.36                          2.15   0 
                                                                                
 2008 10 1 2130 46.4 L  21.345 -99.292 10.0  RAL  1 0.1 0.7LRAL                1
 GAP=360        0.58      15.7    24.7  0.0 -0.3882E+03  0.2121E+01 -0.1577E+01E
 ACTION:UPD 12-06-08 11:37 OP:RALL STATUS:               ID:20081001213046     I
 2008-10-01-2130-34S.PLUR1_003                                                 6
 STAT SP IPHASW D HRMM SECON CODA AMPLIT PERI AZIMU VELO AIN AR TRES W  DIS CAZ7
 LZ4  SZ E        2130 48.62                  304.4  8.4      0        2.78 124 
 LZ4  SN IP       2130 48.64                             165    0.3410 2.78 124 
 LZ4  SE IS       2130 49.34                             165   -0.3410 2.78 124 
 LZ4  SZ  AML     2130 49.48        26.7 0.16                          2.78 124 
                                                                                
 2008 10 1 2319 53.1 L  21.538 -99.316 10.0  RAL  1 0.0 0.4LRAL                1
 GAP=360        0.30       7.2     0.9  0.0 -0.6564E+01  0.2121E+01 -0.1577E+01E
 ACTION:UPD 12-06-08 11:37 OP:RALL STATUS:               ID:20081001231953     I
 2008-10-01-2319-42S.PLUR1_003                                                 6
 STAT SP IPHASW D HRMM SECON CODA AMPLIT PERI AZIMU VELO AIN AR TRES W  DIS CAZ7
 LA4  SN IP       2319 55.19                             149    0.0110 6.06 173 
 LA4  SZ E        2319 55.31                  353.3  8.0      0        6.06 173 
 LA4  SE IS       2319 56.70                             149   -0.0110 6.06 173 
 LA4  SZ  AML     2319 58.14        11.3 0.24                          6.06 173 
                                                                                
 2008 10 2 0000 59.6 L  21.314 -99.291 10.0  RAL  1 0.2 0.9LRAL                1
 GAP=360        0.68      19.8    25.3  0.0  0.4999E+03  0.2121E+01 -0.1577E+01E
 ACTION:UPD 12-06-08 11:37 OP:RALL STATUS:               ID:20081002000059     I
 2008-10-02-0000-47S.PLUR1_003                                                 6
 STAT SP IPHASW D HRMM SECON CODA AMPLIT PERI AZIMU VELO AIN AR TRES W  DIS CAZ7
 LZ4  SZ E         0 1  1.86                  230.0 13.6      0        2.94  50 
 LZ4  SN IP        0 1  1.91                             164    0.4110 2.94  50 
 LZ4  SE IS        0 1  2.47                             164   -0.4110 2.94  50 
 LZ4  SZ  AML      0 1  2.65        41.1 0.32                          2.94  50 
                                                                                
 2008 10 2 0228 21.4 L  21.326 -99.280 10.0  RAL  1 0.2 0.8LRAL                1
 GAP=360        0.93     999.9   999.9  0.0 -0.5535E+07  0.2121E+01 -0.1577E+01E
 ACTION:UPD 12-06-08 11:37 OP:RALL STATUS:               ID:20081002022821     I
 2008-10-02-0228-09S.PLUR1_003                                                 6
 STAT SP IPHASW D HRMM SECON CODA AMPLIT PERI AZIMU VELO AIN AR TRES W  DIS CAZ7
 LZ4  SZ E         228 23.66                  248.2 11.7      3        1.22  65 
 LZ4  SN IP        228 23.66                             173    0.3810 1.22  65 
 LZ4  SE IS        228 24.25                             173   -0.3810 1.22  65 
 LZ4  SZ  AML      228 24.44        36.5 0.28                          1.22  65 
                                                                                
 2008 10 2 0234 48.9 L  21.344 -99.274 10.0  RAL  2 0.2 1.3LRAL                1
 GAP=187        1.91       6.2     3.1 15.6 -0.7091E+01  0.9922E+01 -0.4175E+02E
 ACTION:UPD 12-06-08 11:37 OP:RALL STATUS:               ID:20081002023448     I
 2008-10-02-0234-35S.PLUR1_006                                                 6
 STAT SP IPHASW D HRMM SECON CODA AMPLIT PERI AZIMU VELO AIN AR TRES W  DIS CAZ7
 LZ4  SN IP        234 50.08                             172   -0.6310 1.50 160 
 LZ4  SZ E         234 50.21                  336.7 17.3     -2        1.50 160 
 LZ4  SE IS        234 51.48                             172   -0.5810 1.50 160 
 LZ4  SZ  AML      234 51.57       213.3 0.12                          1.50 160 
 LA4  SZ E         234 52.57                  160.9  8.7     -5        15.9 347 
 LA4  SN IP        234 52.58                             120    0.5010 15.9 347 
 LA4  SE IS        234 55.14                             120    0.7210 15.9 347 
 LA4  SZ  AML      234 56.65        29.9 0.20                          15.9 347 
                                                                                
