 2008  6 1 2326 41.7 L  21.202 -99.377  8.3  RAL  2 0.1 0.4LRAL                1
 GAP=292        0.43       0.3     0.8  3.6 -0.1200E+00  0.2976E+00 -0.1242E+00E
 ACTION:UPD 12-06-08 11:37 OP:RALL STATUS:               ID:20080601232641     I
 2008-06-01-2326-35S.PLUR1_006                                                 6
 STAT SP IPHASW D HRMM SECON CODA AMPLIT PERI AZIMU VELO AIN AR TRES W  DIS CAZ7
 LD5  SZ E        2326 43.68                  286.3  7.5      0        6.18 106 
 LD5  SN IP       2326 43.84                             144    0.2710 6.18 106 
 LD5  SE IS       2326 44.84                             144   -0.1010 6.18 106 
 LD5  SZ  AML     2326 45.51         4.0 0.10                          6.18 106 
 LD1  SZ E        2326 44.84                  218.3 10.9      0        17.9  38 
 LD1  SN IP     C 2326 44.96                             110   -0.1010 17.9  38 
 LD1  SE IS       2326 47.45                             110   -0.0710 17.9  38 
 LD1  SZ  AML     2326 47.69        25.1 0.40                          17.9  38 
                                                                                
 2008  6 2 1520 23.2 L  21.219 -99.375  4.8  RAL  2 0.1 0.2LRAL                1
 GAP=279        0.42       0.4     0.6  1.6 -0.1433E+00  0.1538E+00 -0.1437E+00E
 ACTION:UPD 12-06-08 11:37 OP:RALL STATUS:               ID:20080602152023     I
 2008-06-02-1520-16S.PLUR1_006                                                 6
 STAT SP IPHASW D HRMM SECON CODA AMPLIT PERI AZIMU VELO AIN AR TRES W  DIS CAZ7
 LD5  SN IP       1520 24.62                             131   -0.1710 6.69 122 
 LD5  SZ E        1520 24.63                  302.3  9.3      0        6.69 122 
 LD5  SE IS       1520 25.99                             131    0.0710 6.69 122 
 LD5  SZ  AML     1520 26.48         2.9 0.10                          6.69 122 
 LD1  SN IP       1520 26.15                              63   -0.1110 16.3  41 
 LD1  SZ E        1520 26.19                  221.5 10.1      0        16.3  41 
 LD1  SE IS       1520 28.69                              63    0.2110 16.3  41 
 LD1  SZ  AML     1520 28.90        18.3 0.42                          16.3  41 
                                                                                
 2008  6 4 0648 53.1 L  21.187 -99.325 10.0  RAL  2 0.4 0.5LRAL                1
 GAP=288        4.53       2.1     6.8 30.6 -0.1181E+02 -0.1436E+01 -0.9807E+00E
 ACTION:UPD 12-06-08 11:37 OP:RALL STATUS:               ID:20080604064853     I
 2008-06-04-0648-44S.PLUR1_006                                                 6
 STAT SP IPHASW D HRMM SECON CODA AMPLIT PERI AZIMU VELO AIN AR TRES W  DIS CAZ7
 LD5  SZ E         648 54.10                  264.6  8.2     -6        0.48  91 
 LD5  SN E         648 54.10                  261.7  9.1     -9        0.48  91 
 LD5  SE IS        648 54.63                             179   -1.5910 0.48  91 
 LD5  SN  AML      648 54.85        15.7 0.18                          0.48  91 
 LD5  SZ  AML      648 55.04        11.3 0.10                          0.48  91 
 LD1  SN IP        648 56.78                             116    0.4110 16.7  20 
 LD1  SZ E         648 56.79                  183.9 14.6    -15        16.7  20 
 LD1  SE IS        648 59.97                             116    1.1810 16.7  20 
 LD1  SZ  AML      649  0.14        23.3 0.70                          16.7  20 
                                                                                
 2008  6 8 1842  1.4 L  21.346 -99.219 19.2  RAL  2 0.5 0.5LRAL                1
 GAP=320        2.74       3.3     7.9 24.7  0.2357E+02 -0.3467E+01 -0.7420E+00E
 ACTION:UPD 12-06-08 11:37 OP:RALL STATUS:               ID:20080608184201     I
 2008-06-08-1841-57S.PLUR1_006                                                 6
 STAT SP IPHASW D HRMM SECON CODA AMPLIT PERI AZIMU VELO AIN AR TRES W  DIS CAZ7
 LD1  SZ E        1842  6.21                   68.0 18.1     -2        5.64 251 
 LD1  SN IP       1842  6.21                             163    1.4310 5.64 251 
 LD1  SE IS       1842  7.85                             163    0.6110 5.64 251 
 LD1  SZ  AML     1842  8.75        25.8 0.30                          5.64 251 
 LD5  SN IP       1842  5.93                             133   -0.1110 20.5 211 
 LD5  SZ E        1842  5.98                   34.5 17.2      4        20.5 211 
 LD5  SE IS       1842  7.48                             133   -1.9410 20.5 211 
 LD5  SZ  AML     1842  7.70         2.7 0.36                          20.5 211 
                                                                                
 2008  6 9 2330 53.2 L  21.581 -99.559 10.0  RAL  1 0.0 1.7LRAL                1
 GAP=360        0.30       2.7     3.1  0.0 -0.6984E+01 -0.3467E+01 -0.7420E+00E
 ACTION:UPD 12-06-08 11:37 OP:RALL STATUS:               ID:20080609233053     I
 2008-06-09-2330-51S.PLUR1_006                                                 6
 STAT SP IPHASW D HRMM SECON CODA AMPLIT PERI AZIMU VELO AIN AR TRES W  DIS CAZ7
 LD1  SN IP       2331  0.09                              99    0.0210 40.9 133 
 LD1  SZ E        2331  0.13                  313.1  7.9      0        40.9 133 
 LD1  SE IS       2331  5.09                              99   -0.0210 40.9 133 
 LD1  SZ  AML     2331 10.73        73.4 0.62                          40.9 133 
                                                                                
 2008  610 2222 13.6 L  21.203 -99.222  0.0  RAL  2 0.5 1.1LRAL                1
 GAP=280        3.44       3.0     4.9269.8 -0.1039E+00 -0.2690E+03 -0.8557E+02E
 ACTION:UPD 12-06-08 11:37 OP:RALL STATUS:               ID:20080610222213     I
 2008-06-10-2222-04S.PLUR1_006                                                 6
 STAT SP IPHASW D HRMM SECON CODA AMPLIT PERI AZIMU VELO AIN AR TRES W  DIS CAZ7
 LD5  SZ E        2222 14.67                   77.2 10.1     -1        10.4 260 
 LD5  SN IP       2222 14.70                              96   -0.7110 10.4 260 
 LD5  SE IS       2222 15.27                              96   -1.4810 10.4 260 
 LD5  SZ  AML     2222 15.35        55.9 0.30                          10.4 260 
 LD1  SN IP       2222 16.86                              94    0.6810 14.8 340 
 LD1  SZ E        2222 16.93                  148.1 14.5    -11        14.8 340 
 LD1  SE IS       2222 19.59                              94    1.5110 14.8 340 
 LD1  SZ  AML     2222 20.80        55.6 0.32                          14.8 340 
                                                                                
 2008  617 0130 52.1 L  21.298 -99.500  0.0  RAL  2 0.3 0.8LRAL                1
 GAP=318        1.46       2.5     6.0280.1 -0.7747E+01  0.7114E+03 -0.1999E+03E
 ACTION:UPD 12-06-08 11:37 OP:RALL STATUS:               ID:20080617013052     I
 2008-06-17-0130-47S.PLUR1_006                                                 6
 STAT SP IPHASW D HRMM SECON CODA AMPLIT PERI AZIMU VELO AIN AR TRES W  DIS CAZ7
 LD5  SN IP        130 56.00                              93   -0.0510 22.4 123 
 LD5  SZ E         130 56.15                  303.8 11.0      0        22.4 123 
 LD5  SE IS        130 57.84                              93   -1.0710 22.4 123 
 LD5  SZ  AML      130 58.02         6.8 0.28                          22.4 123 
 LD1  SN IP        130 56.91                              92    0.5710 24.0  82 
 LD1  SZ E         130 57.21                  263.9  9.1      2        24.0  82 
 LD1  SE IS        130 59.97                              92    0.5610 24.0  82 
 LD1  SZ  AML      131  1.87        30.5 0.16                          24.0  82 
                                                                                
