 2008  726 2311 37.7 R  22.192 -99.417  0.1  RAL  2 0.2 1.6LRAL                1
 GAP=359        1.98     999.9   197.5999.9 -0.2410E+06 -0.4710E+06  0.2920E+07E
 ACTION:UPD 12-06-08 11:37 OP:RALL STATUS:               ID:20080726231137     I
 2008-07-26-2311-42S.PLUR1_006                                                 6
 STAT SP IPHASW D HRMM SECON CODA AMPLIT PERI AZIMU VELO AIN AR TRES W  DIS CAZ7
 LA4  SZ E        2311 50.76                  357.6  8.2      6        79.2 172 
 LA4  SN IP       2311 50.79                              63   -0.0910 79.2 172 
 LA4  SE IS       2311 59.99                              63   -0.5210 79.2 172 
 LA4  SZ  AML     2312  1.74        20.9 0.32                          79.2 172 
 LZ4  SN IP       2311 53.65                              63    0.0810 96.6 171 
 LZ4  SZ E        2311 53.80                  344.2 10.7     -6        96.6 171 
 LZ4  SE IS       2312  5.69                              63    0.5310 96.6 171 
 LZ4  SZ  AML     2312  7.35        39.0 0.52                          96.6 171 
                                                                                
 2008  728 0259 37.2 L  21.341 -99.295 10.0  RAL  1 0.1 1.0LRAL                1
 GAP=360        0.39       7.1    17.8  0.0 -0.1253E+03 -0.4710E+06  0.2920E+07E
 ACTION:UPD 12-06-08 11:37 OP:RALL STATUS:               ID:20080728025937     I
 2008-07-28-0259-30S.PLUR1_006                                                 6
 STAT SP IPHASW D HRMM SECON CODA AMPLIT PERI AZIMU VELO AIN AR TRES W  DIS CAZ7
 LZ4  SN IP        259 39.29                             164    0.1810 2.93 113 
 LZ4  SZ E         259 39.31                  293.1  6.6      0        2.93 113 
 LZ4  SE IS        259 40.32                             164   -0.1810 2.93 113 
 LZ4  SZ  AML      259 40.47        54.7 0.36                          2.93 113 
                                                                                
 2008  729 0952 41.1 R  22.409 -99.410  0.0  RAL  2 0.2 1.8LRAL                1
 GAP=359        2.80     999.9   235.1999.9 -0.4578E+06 -0.8904E+06  0.7434E+07E
 ACTION:UPD 12-06-08 11:37 OP:RALL STATUS:               ID:20080729095241     I
 2008-07-29-0952-49S.PLUR1_006                                                 6
 STAT SP IPHASW D HRMM SECON CODA AMPLIT PERI AZIMU VELO AIN AR TRES W  DIS CAZ7
 LA4  SN IP        952 57.78                              63   -0.2010  103 174 
 LA4  SZ E         952 58.00                    3.0  8.6      9         103 174 
 LA4  SE IS        953 10.08                              63   -0.2310  103 174 
 LA4  SZ  AML      953 11.39        23.2 0.40                           103 174 
 LZ4  SZ E         953  0.81                  342.9  7.9     -9         120 173 
 LZ4  SN IP        953  0.84                              63    0.1810  120 173 
 LZ4  SE IS        953 15.18                              63    0.2410  120 173 
 LZ4  SZ  AML      953 18.84        45.0 0.32                           120 173 
                                                                                
