 2008  8 8 1825 16.9 L  21.823 -99.134  6.1  RAL  4 1.4 2.2LRAL                1
 GAP=341       26.08     518.8   193.6999.9  0.9292E+05  0.1897E+06  0.5422E+06E
 ACTION:UPD 12-06-08 11:37 OP:RALL STATUS:               ID:20080808182516     I
 2008-08-08-1825-14S.PLUR1_012                                                 6
 STAT SP IPHASW D HRMM SECON CODA AMPLIT PERI AZIMU VELO AIN AR TRES W  DIS CAZ7
 LA4  SN IP       1825 23.60                              63   -0.3010 41.7 206 
 LA4  SZ E        1825 23.79                  320.9  7.6     65        41.7 206 
 LA4  SE IS       1825 27.27                              63   -1.7210 41.7 206 
 LA4  SZ  AML     1825 27.96      1750.3 0.28                          41.7 206 
 LZ4  SN IP       1825 26.52                              63    0.3710 56.3 195 
 LZ4  SZ E        1825 26.64                  332.2  6.9     42        56.3 195 
 LZ4  SE IS       1825 32.96                              63    0.0810 56.3 195 
 LZ4  SZ  AML     1825 34.38       587.4 0.28                          56.3 195 
 LD5  SN IP       1825 29.43                              63    0.6810 73.1 195 
 LD5  SZ E        1825 29.54                   31.9 12.0     17        73.1 195 
 LD5  SE IS       1825 36.77                              63   -0.6210 73.1 195 
 LD5  SZ  AML     1825 38.61        41.2 0.40                          73.1 195 
 LO8  SN IP       1825 30.06                              63    1.1510 73.9 186 
 LO8  SZ E        1825 30.17                  157.2  6.1    151        73.9 186 
 LO8  SE IS       1825 38.02                              63    0.3610 73.9 186 
 LO8  SZ  AML     1825 41.72        22.3 1.04                          73.9 186 
                                                                                
 2008  8 9 0009 51.9 L  21.686 -99.441  1.2  RAL  2 0.1 2.0LRAL                1
 GAP=353        0.91       6.3     4.2  6.7 -0.2255E+02  0.1844E+01 -0.1700E+01E
 ACTION:UPD 12-06-08 11:37 OP:RALL STATUS:               ID:20080809000951     I
 2008-08-09-0009-47S.PLUR1_006                                                 6
 STAT SP IPHASW D HRMM SECON CODA AMPLIT PERI AZIMU VELO AIN AR TRES W  DIS CAZ7
 LA4  SN IP        0 9 56.31                              95   -0.1510 26.3 149 
 LA4  SZ E         0 9 56.47                  330.5  6.9      2        26.3 149 
 LA4  SE IS        0 9 59.86                              95    0.0310 26.3 149 
 LA4  SZ  AML      010  0.57       305.9 0.28                          26.3 149 
 LZ4  SZ E         0 9 59.62                  332.5  8.7     -2        43.2 156 
 LZ4  SN IP        0 9 59.67                              63    0.3210 43.2 156 
 LZ4  SE IS        010  4.63                              63   -0.2010 43.2 156 
 LZ4  SZ  AML      010  6.98        98.3 0.32                          43.2 156 
                                                                                
 2008  8 9 1328 12.6 L  21.489 -99.527 24.6  RAL  2 0.2 1.0LRAL                1
 GAP=328        1.64       2.3     7.1 23.0 -0.5384E+01  0.2643E+02 -0.1506E+01E
 ACTION:UPD 12-06-08 11:37 OP:RALL STATUS:               ID:20080809132812     I
 2008-08-09-1328-09S.PLUR1_006                                                 6
 STAT SP IPHASW D HRMM SECON CODA AMPLIT PERI AZIMU VELO AIN AR TRES W  DIS CAZ7
 LA4  SZ E        1328 17.51                  266.3 12.2     -4        22.6  91 
 LA4  SN IP       1328 17.65                             146   -0.4110 22.6  91 
 LA4  SE IS       1328 22.02                             146    0.0110 22.6  91 
 LA4  SZ  AML     1328 22.66        13.5 0.48                          22.6  91 
 LZ4  SZ E        1328 18.89                  307.9  7.9      5        31.9 123 
 LZ4  SN IP       1328 18.90                             130   -0.2110 31.9 123 
 LZ4  SE IS       1328 24.43                             130    0.6110 31.9 123 
 LZ4  SZ  AML     1328 27.02        20.7 0.44                          31.9 123 
                                                                                
 2008  8 9 1402 42.7 L  22.363 -99.220  4.9  RAL  2 0.5 1.8LRAL                1
 GAP=357        2.94     777.7    64.8999.9  0.4775E+05  0.9259E+05  0.1172E+07E
 ACTION:UPD 12-06-08 11:37 OP:RALL STATUS:               ID:20080809140242     I
 2008-08-09-1402-52S.PLUR1_006                                                 6
 STAT SP IPHASW D HRMM SECON CODA AMPLIT PERI AZIMU VELO AIN AR TRES W  DIS CAZ7
 LA4  SZ E        14 2 58.27                    2.5  8.2     -2        97.8 185 
 LA4  SN IP       14 2 58.45                              63    0.0110 97.8 185 
 LA4  SE IS       14 3  8.01                              63   -1.8910 97.8 185 
 LA4  SZ  AML     14 3 15.99        33.4 0.52                          97.8 185 
 LZ4  SN IP       14 3  1.03                              63    0.0210  114 183 
 LZ4  SZ E        14 3  1.43                    7.1 10.6      5         114 183 
 LZ4  SE IS       14 3 16.21                              63    1.8610  114 183 
 LZ4  SZ  AML     14 3 19.78        33.3 0.32                           114 183 
                                                                                
 2008  810 0824  3.3 L  22.059 -99.084 10.0  RAL  2 0.2 1.4LRAL                1
 GAP=353        2.93      57.8    25.2700.4  0.1161E+04 -0.1355E+05 -0.3650E+05E
 ACTION:UPD 12-06-08 11:37 OP:RALL STATUS:               ID:20080810082403     I
 2008-08-10-0824-08S.PLUR1_006                                                 6
 STAT SP IPHASW D HRMM SECON CODA AMPLIT PERI AZIMU VELO AIN AR TRES W  DIS CAZ7
 LA4  SN E         824 14.35                   29.8  9.9     10        67.8 200 
 LA4  SN IP        824 14.42                              95    0.0910 67.8 200 
 LA4  SE IS        824 22.21                              95   -0.2010 67.8 200 
 LA4  SN  AML      824 27.85        19.6 0.32                          67.8 200 
 LZ4  SN E         824 16.38                    3.2  9.8     -9        82.9 193 
 LZ4  SN IP        824 16.41                              94   -0.2510 82.9 193 
 LZ4  SE IS        824 26.78                              94    0.3510 82.9 193 
                                                                                
 2008  810 1339 55.2 L  22.139 -99.256  1.4  RAL  2 0.2 2.4LRAL                1
 GAP=357        3.27     535.0    34.8999.9  0.1622E+05  0.3140E+05  0.5538E+06E
 ACTION:UPD 12-06-08 11:37 OP:RALL STATUS:               ID:20080810133955     I
 2008-08-10-1339-58S.PLUR1_006                                                 6
 STAT SP IPHASW D HRMM SECON CODA AMPLIT PERI AZIMU VELO AIN AR TRES W  DIS CAZ7
 LA4  SN IP       1340  7.12                              63   -0.1610 72.8 184 
 LA4  SZ E        1340  7.14                   14.4  8.2     10        72.8 184 
 LA4  SE IS       1340 15.80                              63   -0.3010 72.8 184 
 LA4  SZ  AML     1340 18.80       154.6 0.56                          72.8 184 
 LZ4  SN IP       1340  9.99                              63    0.1210 89.5 181 
 LZ4  SZ E        1340 10.06                  348.8  8.7     12        89.5 181 
 LZ4  SE IS       1340 20.93                              63    0.3510 89.5 181 
 LZ4  SZ  AML     1340 25.70       253.7 0.48                          89.5 181 
                                                                                
 2008  814 1524 54.3 L  21.740 -99.563 10.0  RAL  2 0.6 1.0LRAL                1
 GAP=351        7.90      80.1    74.9539.5 -0.5476E+04  0.2966E+05 -0.3158E+05E
 ACTION:UPD 12-06-08 11:37 OP:RALL STATUS:               ID:20080814152454     I
 2008-08-14-1524-54S.PLUR1_006                                                 6
 STAT SP IPHASW D HRMM SECON CODA AMPLIT PERI AZIMU VELO AIN AR TRES W  DIS CAZ7
 LA4  SN IP       1525  2.32                             101    1.4810 38.6 137 
 LA4  SZ E        1525  2.57                  339.3 63.0     22        38.6 137 
 LA4  SE IS       1525  6.08                             101    0.4410 38.6 137 
 LA4  SZ  AML     1525  7.84        11.0 0.52                          38.6 137 
 LZ4  SZ E        1525  3.28                  297.1  7.3    -28        54.5 146 
 LZ4  SN IP       1525  3.37                              97    0.0910 54.5 146 
 LZ4  SE IS       1525  7.83                              97   -2.0110 54.5 146 
 LZ4  SZ  AML     1525  8.81        16.0 0.64                          54.5 146 
                                                                                
 2008  814 2247 34.8 L  21.515 -98.992  7.2  RAL  3 1.7 1.9LRAL                1
 GAP=306       29.25      80.9   145.6999.9  0.7921E+04 -0.1903E+06 -0.6395E+05E
 ACTION:UPD 12-06-08 11:37 OP:RALL STATUS:               ID:20080814224734     I
 2008-08-14-2247-31S.PLUR1_009                                                 6
 STAT SP IPHASW D HRMM SECON CODA AMPLIT PERI AZIMU VELO AIN AR TRES W  DIS CAZ7
 LA4  SZ E        2247 41.54                  159.5  9.2     76        33.0 264 
 LA4  SN IP     D 2247 41.57                              96    1.1310 33.0 264 
 LA4  SE IS     D 2247 43.65                              96   -0.9110 33.0 264 
 LA4  SZ  AML     2247 44.97       194.3 0.56                          33.0 264 
 LZ4  SN IP     D 2247 40.80                              95    0.0210 35.3 235 
 LZ4  SZ E        2247 40.82                  321.1  6.3     94        35.3 235 
 LZ4  SZ  AML     2247 41.72       866.0 0.72                          35.3 235 
 LZ4  SE IS     C 2247 42.21                              95   -2.9310 35.3 235 
 LO8  SZ E        2247 43.99                  147.4  6.0    117        45.5 210 
 LO8  SN IP     C 2247 44.03                              94    1.6310 45.5 210 
 LO8  SE IS     C 2247 48.99                              94    1.0510 45.5 210 
 LO8  SZ  AML     2247 49.00         8.4 0.24                          45.5 210 
                                                                                
 2008  815 1938 52.2 L  21.444 -99.365 26.4  RAL  2 0.0 1.1LRAL                1
 GAP=272        0.33       0.3     0.4  3.3  0.8486E-01  0.5225E-01  0.3554E-01E
 ACTION:UPD 12-06-08 11:37 OP:RALL STATUS:               ID:20080815193852     I
 2008-08-15-1938-47S.PLUR1_006                                                 6
 STAT SP IPHASW D HRMM SECON CODA AMPLIT PERI AZIMU VELO AIN AR TRES W  DIS CAZ7
 LA4  SN IP       1938 56.63                             164   -0.0110 7.29  53 
 LA4  SZ E        1938 56.81                  233.5 10.0      0        7.29  53 
 LA4  SE IS       1939  0.00                             164    0.0910 7.29  53 
 LA4  SZ  AML     1939  1.41        16.9 0.64                          7.29  53 
 LZ4  SZ E        1938 57.19                  321.7  8.5      0        16.0 142 
 LZ4  SN IP     D 1938 57.20                             147    0.0410 16.0 142 
 LZ4  SE IS       1939  0.69                             147   -0.1210 16.0 142 
 LZ4  SZ  AML     1939  1.15        35.4 0.32                          16.0 142 
                                                                                
 2008  815 2137 10.2 L  22.100 -99.603  5.3  RAL  2 0.3 2.0LRAL                1
 GAP=358        6.29     999.9   813.9999.9 -0.1424E+07 -0.2999E+07  0.6458E+07E
 ACTION:UPD 12-06-08 11:37 OP:RALL STATUS:               ID:20080815213710     I
 2008-08-15-2137-12S.PLUR1_006                                                 6
 STAT SP IPHASW D HRMM SECON CODA AMPLIT PERI AZIMU VELO AIN AR TRES W  DIS CAZ7
 LA4  SZ E        2137 22.22                  354.1  8.3     18        74.7 156 
 LA4  SN IP     C 2137 22.23                              63   -0.0510 74.7 156 
 LA4  SE IS     C 2137 30.94                              63   -0.1610 74.7 156 
 LA4  SZ  AML     2137 31.83        82.5 0.24                          74.7 156 
 LZ4  SN E        2137 25.12                  315.7  8.2    -21        91.8 158 
 LZ4  SE IP     C 2137 25.14                              63    0.2010 91.8 158 
 LZ4  SN  AML     2137 39.35        55.3 0.24                          91.8 158 
                                                                                
 2008  818 0937 58.4 L  21.730 -99.441  0.1  RAL  2 0.2 2.2LRAL                1
 GAP=355        2.93      21.5    12.6 23.3 -0.2124E+03  0.9232E+01 -0.3084E+01E
 ACTION:UPD 12-06-08 11:37 OP:RALL STATUS:               ID:20080818093758     I
 2008-08-18-0937-54S.PLUR1_006                                                 6
 STAT SP IPHASW D HRMM SECON CODA AMPLIT PERI AZIMU VELO AIN AR TRES W  DIS CAZ7
 LA4  SN IP        938  3.57                              92   -0.1310 30.5 153 
 LA4  SZ E         938  3.66                  340.9  7.8      8        30.5 153 
 LA4  SE IS     D  938  7.12                              92   -0.4810 30.5 153 
 LA4  SZ  AML      938  7.89       408.6 0.32                          30.5 153 
 LZ4  SZ E         938  6.83                  326.4  6.6    -11        47.6 158 
 LZ4  SN IP        938  6.97                              63    0.3310 47.6 158 
 LZ4  SE IS     D  938 12.96                              63    0.2810 47.6 158 
 LZ4  SZ  AML      938 14.30       165.7 0.32                          47.6 158 
                                                                                
 2008  818 1539 37.7 L  21.967 -99.694  5.8  RAL  2 0.2 1.8LRAL                1
 GAP=355        2.47     229.8   172.7542.5 -0.3955E+05 -0.9326E+05  0.1243E+06E
 ACTION:UPD 12-06-08 11:37 OP:RALL STATUS:               ID:20080818153937     I
 2008-08-18-1539-41S.PLUR1_006                                                 6
 STAT SP IPHASW D HRMM SECON CODA AMPLIT PERI AZIMU VELO AIN AR TRES W  DIS CAZ7
 LA4  SN IP       1539 48.31                              63   -0.2310 66.7 143 
 LA4  SZ E        1539 48.46                  330.6  8.5      7        66.7 143 
 LA4  SE IS     D 1539 56.18                              63   -0.2810 66.7 143 
 LA4  SZ  AML     1539 58.26        62.3 0.44                          66.7 143 
 LZ4  SN IP       1539 51.47                              63    0.4110 83.0 148 
 LZ4  SZ E        1539 53.69                  318.9  9.8     -8        83.0 148 
 LZ4  SE IS       1540  0.92                              63    0.1010 83.0 148 
 LZ4  SZ  AML     1540  3.58        42.8 0.68                          83.0 148 
                                                                                
 2008  819 2213 47.7 L  22.184 -99.384  5.2  RAL  2 0.2 2.7LRAL                1
 GAP=359        1.51     641.8    77.0999.9 -0.4913E+05 -0.9555E+05  0.8010E+06E
 ACTION:UPD 12-06-08 11:37 OP:RALL STATUS:               ID:20080819221347     I
 2008-08-19-2213-51S.PLUR1_009                                                 6
 STAT SP IPHASW D HRMM SECON CODA AMPLIT PERI AZIMU VELO AIN AR TRES W  DIS CAZ7
 LA4  SN IP       2214  0.27                              63   -0.0610 77.9 174 
 LA4  SZ E        2214  0.31                  358.4 11.8      4        77.9 174 
 LA4  SE IS     C 2214  9.05                              63   -0.4810 77.9 174 
 LA4  SZ  AML     2214 15.41       392.3 0.48                          77.9 174 
 LZ4  SN IP       2214  3.03                              63    0.0210 95.2 173 
 LZ4  SZ E        2214  3.17                  348.0  7.5     -4        95.2 173 
 LZ4  SE IS       2214 14.67                              63    0.5110 95.2 173 
 LZ4  SZ  AML     2214 18.72       362.6 0.48                          95.2 173 
                                                                                
 2008  819 2224 43.8 L  22.158 -99.297  2.9  RAL  2 0.3 1.8LRAL                1
 GAP=357        3.23     640.6    17.6999.9  0.2760E+04  0.5334E+04  0.7930E+06E
 ACTION:UPD 12-06-08 11:37 OP:RALL STATUS:               ID:20080819222443     I
 2008-08-19-2224-49S.PLUR1_006                                                 6
 STAT SP IPHASW D HRMM SECON CODA AMPLIT PERI AZIMU VELO AIN AR TRES W  DIS CAZ7
 LA4  SZ E        2224 55.60                   11.1 11.8     10        74.6 181 
 LA4  SN IP       2224 56.24                              63    0.1810 74.6 181 
 LA4  SE IS       2225  4.28                              63   -0.7210 74.6 181 
 LA4  SZ  AML     2225  7.76        44.6 0.52                          74.6 181 
 LZ4  SZ E        2224 58.49                  347.3 11.7    -10        91.6 178 
 LZ4  SN IP       2224 58.55                              63   -0.1310 91.6 178 
 LZ4  SE IS       2225 10.22                              63    0.6810 91.6 178 
 LZ4  SZ  AML     2225 14.02        48.7 0.44                          91.6 178 
                                                                                
 2008  819 2309  7.6 L  21.482 -99.322  0.6  RAL  2 0.1 0.6LRAL                1
 GAP=282        0.95       5.3     1.2  8.0 -0.4855E+01 -0.5244E+01  0.3237E+02E
 ACTION:UPD 12-06-08 11:37 OP:RALL STATUS:               ID:20080819230907     I
 2008-08-19-2308-58S.PLUR1_006                                                 6
 STAT SP IPHASW D HRMM SECON CODA AMPLIT PERI AZIMU VELO AIN AR TRES W  DIS CAZ7
 LA4  SN IP       23 9  7.78                             142   -0.2310 1.32  84 
 LA4  SZ E        23 9  7.80                  261.7 10.5     -1        1.32  84 
 LA4  SE IS       23 9  8.35                             142    0.0610 1.32  84 
 LA4  SZ  AML     23 9  8.56        65.8 0.28                          1.32  84 
 LZ4  SN IP       23 9 10.32                              95   -0.4110 17.6 162 
 LZ4  SZ E        23 9 11.14                  342.5  8.9      0        17.6 162 
 LZ4  SE IS       23 9 13.58                              95    0.5910 17.6 162 
 LZ4  SZ  AML     23 9 13.64        21.7 0.20                          17.6 162 
                                                                                
 2008  820 0521  6.9 L  21.379 -99.341 12.2  RAL  2 0.3 0.5LRAL                1
 GAP=251        1.64       1.7     1.7 17.9 -0.1121E+01  0.1542E+01 -0.1181E+01E
 ACTION:UPD 12-06-08 11:37 OP:RALL STATUS:               ID:20080820052106     I
 2008-08-20-0521-00S.PLUR1_006                                                 6
 STAT SP IPHASW D HRMM SECON CODA AMPLIT PERI AZIMU VELO AIN AR TRES W  DIS CAZ7
 LZ4  SZ E         521  8.60                  306.9  7.6      1        9.16 125 
 LZ4  SN IP        521  8.70                             147   -0.8110 9.16 125 
 LZ4  SE IS        521 10.81                             147   -0.6310 9.16 125 
 LZ4  SZ  AML      521 11.25        19.7 0.48                          9.16 125 
 LA4  SZ E         521  9.84                  197.7 13.0      2        12.1  16 
 LA4  SN IP        521 10.19                             139    0.3710 12.1  16 
 LA4  SE IS        521 13.04                             139    1.0710 12.1  16 
 LA4  SZ  AML      521 13.88         5.6 0.28                          12.1  16 
                                                                                
