 2008 10 3 0413 44.1 L  21.625 -99.382 10.0  RAL  1 0.0 0.6LRAL                1
 GAP=360        0.30       3.8     2.0  0.0 -0.7242E+01  0.6448E+04 -0.1167E+05E
 ACTION:UPD 12-06-08 11:37 OP:RALL STATUS:               ID:20081003041344     I
 2008-10-03-0413-35S.PLUR1_003                                                 6
 STAT SP IPHASW D HRMM SECON CODA AMPLIT PERI AZIMU VELO AIN AR TRES W  DIS CAZ7
 LA4  SZ E         413 47.53                  334.2  9.0      0        17.4 154 
 LA4  SN IP        413 47.53                             118    0.0010 17.4 154 
 LA4  SZ  AML      413 50.00        12.7 0.24                          17.4 154 
 LA4  SE IS        413 50.01                             118    0.0010 17.4 154 
                                                                                
 2008 10 3 0753 31.3 L  21.786 -99.415 10.0  RAL  1 0.0 1.2LRAL                1
 GAP=360        0.30       3.6     1.6  0.0 -0.4283E+01  0.6448E+04 -0.1167E+05E
 ACTION:UPD 12-06-08 11:37 OP:RALL STATUS:               ID:20081003075331     I
 2008-10-03-0753-26S.PLUR1_003                                                 6
 STAT SP IPHASW D HRMM SECON CODA AMPLIT PERI AZIMU VELO AIN AR TRES W  DIS CAZ7
 LA4  SN IP        753 37.34                             102    0.0110 35.3 162 
 LA4  SZ E         753 37.75                  341.9 10.2      0        35.3 162 
 LA4  SE IS        753 41.73                             102   -0.0110 35.3 162 
 LA4  SZ  AML      753 43.77        25.3 0.40                          35.3 162 
                                                                                
 2008 10 3 0833 57.4 L  21.345 -99.292 10.0  RAL  1 0.1 0.4LRAL                1
 GAP=360        0.56      14.7    24.0  0.0 -0.3534E+03  0.6448E+04 -0.1167E+05E
 ACTION:UPD 12-06-08 11:37 OP:RALL STATUS:               ID:20081003083357     I
 2008-10-03-0833-45S.PLUR1_003                                                 6
 STAT SP IPHASW D HRMM SECON CODA AMPLIT PERI AZIMU VELO AIN AR TRES W  DIS CAZ7
 LZ4  SZ E         833 59.58                  303.3  7.6      0        2.80 123 
 LZ4  SN IP        833 59.61                             165    0.3210 2.80 123 
 LZ4  SE IS        834  0.34                             165   -0.3210 2.80 123 
 LZ4  SZ  AML      834  0.65        14.7 0.28                          2.80 123 
                                                                                
 2008 10 3 0844 24.0 L  21.351 -99.289 15.7  RAL  2 0.2 0.5LRAL                1
 GAP=214        2.12       1.1     3.1 18.6  0.1223E+01  0.9927E+00 -0.3936E+00E
 ACTION:UPD 12-06-08 11:37 OP:RALL STATUS:               ID:20081003084424     I
 2008-10-03-0844-14S.PLUR1_006                                                 6
 STAT SP IPHASW D HRMM SECON CODA AMPLIT PERI AZIMU VELO AIN AR TRES W  DIS CAZ7
 LZ4  SZ E         844 27.21                  316.5  6.5     -1        3.07 138 
 LZ4  SN EP        844 27.21                             174    0.4510 3.07 138 
 LZ4  SE IS        844 28.93                             174    0.1610 3.07 138 
 LZ4  SZ  AML      844 29.07        13.1 0.24                          3.07 138 
 LA4  SN IP        844 27.53                             136   -0.1010 14.8 352 
 LA4  SZ E         844 27.55                  162.5 11.0     -9        14.8 352 
 LA4  SE IS        844 29.77                             136   -0.5110 14.8 352 
 LA4  SZ  AML      844 30.98         7.7 0.28                          14.8 352 
                                                                                
 2008 10 3 0848 57.1 L  21.396 -99.299 10.0  RAL  2 0.2 0.6LRAL                1
 GAP=197        3.04       6.5     3.2 32.1 -0.1793E+02  0.1558E+02 -0.3448E+02E
 ACTION:UPD 12-06-08 11:37 OP:RALL STATUS:               ID:20081003084857     I
 2008-10-03-0848-46S.PLUR1_006                                                 6
 STAT SP IPHASW D HRMM SECON CODA AMPLIT PERI AZIMU VELO AIN AR TRES W  DIS CAZ7
 LZ4  SZ E         848 59.44                  325.6  7.9    -11        7.87 157 
 LZ4  SN IP        848 59.45                             150    0.1410 7.87 157 
 LZ4  SE IS        849  1.43                             150    0.4810 7.87 157 
 LZ4  SZ  AML      849  3.41        16.7 0.44                          7.87 157 
 LA4  SZ E         848 59.22                  165.2 10.9     -8        9.73 354 
 LA4  SN IP        848 59.28                             137   -0.2410 9.73 354 
 LA4  SE IS        849  0.93                             137   -0.3710 9.73 354 
 LA4  SZ  AML      849  1.03        20.8 0.20                          9.73 354 
                                                                                
 2008 10 3 0949  4.9 L  21.333 -99.273 10.0  RAL  1 0.4 0.7LRAL                1
 GAP=360        4.91     999.9   999.9  0.0  0.4185E+08  0.1558E+02 -0.3448E+02E
 ACTION:UPD 12-06-08 11:37 OP:RALL STATUS:               ID:20081003094904     I
 2008-10-03-0948-52S.PLUR1_003                                                 6
 STAT SP IPHASW D HRMM SECON CODA AMPLIT PERI AZIMU VELO AIN AR TRES W  DIS CAZ7
 LZ4  SZ E         949  6.95                  278.9 11.5    -22        0.41 122 
 LZ4  SN IP        949  6.99                             178    0.3110 0.41 122 
 LZ4  SE IS        949  7.71                             178   -0.3110 0.41 122 
 LZ4  SZ  AML      949  9.68        29.7 0.24                          0.41 122 
                                                                                
 2008 10 3 1033 54.3 L  21.294 -99.266 13.6  RAL  2 0.3 0.3LRAL                1
 GAP=210        1.56       3.4     0.6 14.5 -0.4472E+00 -0.2854E+00  0.8683E+01E
 ACTION:UPD 12-06-08 11:37 OP:RALL STATUS:               ID:20081003103354     I
 2008-10-03-1033-43S.PLUR1_006                                                 6
 STAT SP IPHASW D HRMM SECON CODA AMPLIT PERI AZIMU VELO AIN AR TRES W  DIS CAZ7
 LZ4  SN IP       1033 57.53                             163    0.7210 4.14 355 
 LZ4  SZ E        1033 57.56                  174.4 12.5      0        4.14 355 
 LZ4  SE IS       1033 59.04                             163    0.4210 4.14 355 
 LZ4  SZ  AML     1033 59.40        17.8 0.40                          4.14 355 
 LD5  SZ E        1033 57.47                   22.4 11.1     -2        13.1 205 
 LD5  SN EP       1033 57.48                             136   -0.0510 13.1 205 
 LD5  SE IS       1033 58.78                             136   -1.0910 13.1 205 
 LD5  SZ  AML     1033 59.44         3.1 0.54                          13.1 205 
                                                                                
 2008 10 3 1302 38.7 L  21.352 -99.296 10.0  RAL  1 0.1 0.5LRAL                1
 GAP=360        0.46      11.0    14.3  0.0 -0.1577E+03 -0.2854E+00  0.8683E+01E
 ACTION:UPD 12-06-08 11:37 OP:RALL STATUS:               ID:20081003130238     I
 2008-10-03-1302-26S.PLUR1_003                                                 6
 STAT SP IPHASW D HRMM SECON CODA AMPLIT PERI AZIMU VELO AIN AR TRES W  DIS CAZ7
 LZ4  SZ E        13 2 40.85                  309.6  7.4      0        3.61 130 
 LZ4  SN IP       13 2 40.90                             161    0.2410 3.61 130 
 LZ4  SE IS       13 2 41.83                             161   -0.2410 3.61 130 
 LZ4  SZ  AML     13 2 44.00        18.2 0.28                          3.61 130 
                                                                                
 2008 10 3 1321 28.8 L  21.832 -99.324  0.0  RAL  3 0.4 1.7LRAL                1
 GAP=355        7.00      47.3    19.2 47.9 -0.1090E+03 -0.2098E+02  0.2323E+03E
 ACTION:UPD 12-06-08 11:37 OP:RALL STATUS:               ID:20081003132128     I
 2008-10-03-1321-21S.PLUR1_009                                                 6
 STAT SP IPHASW D HRMM SECON CODA AMPLIT PERI AZIMU VELO AIN AR TRES W  DIS CAZ7
 LA4  SN IP       1321 35.09                              92   -0.5010 38.6 178 
 LA4  SZ E        1321 35.16                  351.5  8.5     -5        38.6 178 
 LA4  SE IS       1321 39.54                              92   -0.9810 38.6 178 
 LA4  SZ  AML     1321 41.03       200.0 0.32                          38.6 178 
 LZ4  SZ E        1321 38.07                  336.0  7.8    -17        55.8 174 
 LZ4  SN EP       1321 38.17                              63   -0.2110 55.8 174 
 LZ4  SE IS       1321 45.97                              63    0.6110 55.8 174 
 LZ4  SZ  AML     1321 47.20       134.2 0.40                          55.8 174 
 LD5  SZ E        1321 40.90                   34.3 11.0     35        71.5 180 
 LD5  SN EP       1321 40.93                              63    0.1110 71.5 180 
 LD5  SE IS       1321 50.54                              63    0.9710 71.5 180 
 LD5  SZ  AML     1321 53.58         6.9 0.48                          71.5 180 
                                                                                
 2008 10 3 1406  9.1 L  21.326 -99.290 10.0  RAL  1 0.1 0.6LRAL                1
 GAP=360        1.24      19.3    78.3  0.0  0.1507E+04 -0.2098E+02  0.2323E+03E
 ACTION:UPD 12-06-08 11:37 OP:RALL STATUS:               ID:20081003140609     I
 2008-10-03-1405-57S.PLUR1_003                                                 6
 STAT SP IPHASW D HRMM SECON CODA AMPLIT PERI AZIMU VELO AIN AR TRES W  DIS CAZ7
 LZ4  SZ E        14 6 10.74                  260.9 10.2      6        2.16  75 
 LZ4  SN IP       14 6 11.07                             168    0.1210 2.16  75 
 LZ4  SE IS       14 6 12.20                             168   -0.1210 2.16  75 
 LZ4  SZ  AML     14 6 12.39        22.3 0.24                          2.16  75 
                                                                                
 2008 10 3 1438 59.2 L  21.343 -99.291 10.0  RAL  1 0.1 1.2LRAL                1
 GAP=360        0.59      15.1    27.4  0.0 -0.4150E+03 -0.2098E+02  0.2323E+03E
 ACTION:UPD 12-06-08 11:37 OP:RALL STATUS:               ID:20081003143859     I
 2008-10-03-1438-46S.PLUR1_003                                                 6
 STAT SP IPHASW D HRMM SECON CODA AMPLIT PERI AZIMU VELO AIN AR TRES W  DIS CAZ7
 LZ4  SZ E        1439  1.35                  300.6  8.2      0        2.65 121 
 LZ4  SN IP       1439  1.39                             166    0.3510 2.65 121 
 LZ4  SE IS     D 1439  2.07                             166   -0.3510 2.65 121 
 LZ4  SZ  AML     1439  2.17        91.9 0.12                          2.65 121 
                                                                                
 2008 10 3 1518 50.1 L  21.310 -99.360 10.0  RAL  1 0.0 0.5LRAL                1
 GAP=360        0.30       1.3     5.5  0.0  0.6867E+01 -0.2098E+02  0.2323E+03E
 ACTION:UPD 12-06-08 11:37 OP:RALL STATUS:               ID:20081003151850     I
 2008-10-03-1518-38S.PLUR1_003                                                 6
 STAT SP IPHASW D HRMM SECON CODA AMPLIT PERI AZIMU VELO AIN AR TRES W  DIS CAZ7
 LZ4  SZ E        1518 52.53                  256.3 12.2      0        9.71  76 
 LZ4  SN IP       1518 52.58                             135    0.0110 9.71  76 
 LZ4  SZ  AML     1518 54.09        12.3 0.24                          9.71  76 
 LZ4  SE IS       1518 54.34                             135   -0.0110 9.71  76 
                                                                                
 2008 10 3 1844 50.4 R  21.816 -99.451  5.9  RAL  2 0.2 1.3LRAL                1
 GAP=358        3.71      45.1    21.6999.9 -0.8047E+03  0.1878E+05 -0.4441E+05E
 ACTION:UPD 12-06-08 11:37 OP:RALL STATUS:               ID:20081003184450     I
 2008-10-03-1844-47S.PLUR1_006                                                 6
 STAT SP IPHASW D HRMM SECON CODA AMPLIT PERI AZIMU VELO AIN AR TRES W  DIS CAZ7
 LA4  SN IP       1844 56.83                              92   -0.2310 39.6 158 
 LA4  SZ E        1844 57.00                  348.7  8.3     10        39.6 158 
 LA4  SE IS       1845  1.61                              92   -0.3110 39.6 158 
 LA4  SZ  AML     1845  4.35        33.7 0.36                          39.6 158 
 LZ4  SZ E        1845  0.11                  326.2  7.1    -14        56.9 161 
 LZ4  SN IP       1845  0.14                              91    0.4010 56.9 161 
 LZ4  SE IS       1845  6.69                              91    0.1410 56.9 161 
 LZ4  SZ  AML     1845  8.63        20.6 0.36                          56.9 161 
                                                                                
 2008 10 3 1859  1.1 L  21.684 -99.368 10.0  RAL  1 0.0 0.6LRAL                1
 GAP=360        0.30       3.8     1.3  0.0 -0.4181E+01  0.1878E+05 -0.4441E+05E
 ACTION:UPD 12-06-08 11:37 OP:RALL STATUS:               ID:20081003185901     I
 2008-10-03-1858-54S.PLUR1_003                                                 6
 STAT SP IPHASW D HRMM SECON CODA AMPLIT PERI AZIMU VELO AIN AR TRES W  DIS CAZ7
 LA4  SN IP       1859  5.32                             110    0.0210 23.0 165 
 LA4  SZ E        1859  5.47                  344.7  9.3      0        23.0 165 
 LA4  SE IS       1859  8.36                             110   -0.0210 23.0 165 
 LA4  SZ  AML     1859  9.00         9.8 0.24                          23.0 165 
                                                                                
 2008 10 3 1859 57.6 L  21.158 -99.214 23.7  RAL  4 0.6 1.2LRAL                1
 GAP=270        7.13       8.4    13.2 42.9 -0.5958E+02  0.2786E+02 -0.3975E+02E
 ACTION:UPD 12-06-08 11:37 OP:RALL STATUS:               ID:20081003185957     I
 2008-10-03-1859-47S.PLUR1_012                                                 6
 STAT SP IPHASW D HRMM SECON CODA AMPLIT PERI AZIMU VELO AIN AR TRES W  DIS CAZ7
 LO8  SN IP       19 0  3.06                             180    1.5110 0.24  16 
 LO8  SZ E        19 0  3.29                  201.1  8.0      5        0.24  16 
 LO8  SE IS       19 0  6.06                             180    1.6010 0.24  16 
 LO8  SZ  AML     19 0  7.03         9.1 0.48                          0.24  16 
 LD5  SN IP       19 0  2.60                             153    0.7010 11.5 286 
 LD5  SZ E        19 0  2.63                   63.9 10.5    -41        11.5 286 
 LD5  SE IS       19 0  4.16                             153   -0.9010 11.5 286 
 LD5  SZ  AML     19 0  5.26        15.9 0.18                          11.5 286 
 LZ4  SN IP       19 0  2.27                             137   -0.3410 20.0 343 
 LZ4  SZ E        19 0  2.29                  159.7  7.7     -2        20.0 343 
 LZ4  SE IS       19 0  3.69                             137   -2.6110 20.0 343 
 LZ4  SZ  AML     19 0  3.99       262.8 0.28                          20.0 343 
 LA4  SZ E        19 0  5.37                  165.7  9.2      1        37.4 345 
 LA4  SN IP       19 0  5.47                             117    0.8010 37.4 345 
 LA4  SE IS       19 0  9.10                             117   -0.7510 37.4 345 
 LA4  SZ  AML     19 0 10.02        27.2 0.56                          37.4 345 
                                                                                
 2008 10 3 1931 47.2 L  21.539 -99.374 10.0  RAL  1 0.0 0.7LRAL                1
 GAP=360        0.30       3.7     4.4  0.0 -0.1633E+02  0.2786E+02 -0.3975E+02E
 ACTION:UPD 12-06-08 11:37 OP:RALL STATUS:               ID:20081003193147     I
 2008-10-03-1931-36S.PLUR1_003                                                 6
 STAT SP IPHASW D HRMM SECON CODA AMPLIT PERI AZIMU VELO AIN AR TRES W  DIS CAZ7
 LA4  SN IP       1931 49.65                             138    0.0210 9.10 132 
 LA4  SZ E        1931 49.67                  312.2 11.5      0        9.10 132 
 LA4  SE IS       1931 51.34                             138   -0.0210 9.10 132 
 LA4  SZ  AML     1931 52.88        20.5 0.44                          9.10 132 
                                                                                
 2008 10 3 2257 53.7 L  21.496 -99.314 10.0  RAL  1 0.2 0.2LRAL                1
 GAP=360        0.80      69.0    26.8  0.0 -0.1854E+04  0.2786E+02 -0.3975E+02E
 ACTION:UPD 12-06-08 11:37 OP:RALL STATUS:               ID:20081003225753     I
 2008-10-03-2257-42S.PLUR1_003                                                 6
 STAT SP IPHASW D HRMM SECON CODA AMPLIT PERI AZIMU VELO AIN AR TRES W  DIS CAZ7
 LA4  SZ E        2257 56.02                  340.1 25.4      0        1.43 160 
 LA4  SN IP       2257 56.06                             172    0.5010 1.43 160 
 LA4  SE IS       2257 56.41                             172   -0.5010 1.43 160 
 LA4  SZ  AML     2257 56.53         8.6 0.48                          1.43 160 
                                                                                
 2008 10 4 0027 29.5 L  21.301 -99.269 10.0  RAL  1 0.0 0.6LRAL                1
 GAP=360        0.30       3.9     1.0  0.0 -0.3366E+01  0.2786E+02 -0.3975E+02E
 ACTION:UPD 12-06-08 11:37 OP:RALL STATUS:               ID:20081004002729     I
 2008-10-04-0027-16S.PLUR1_006                                                 6
 STAT SP IPHASW D HRMM SECON CODA AMPLIT PERI AZIMU VELO AIN AR TRES W  DIS CAZ7
 LA4  SZ E         027 32.92                  168.4 11.2      0        20.7 348 
 LA4  SN IP        027 33.43                             113    0.0210 20.7 348 
 LA4  SE IS        027 36.22                             113   -0.0210 20.7 348 
 LA4  SZ  AML      027 36.84        10.5 0.32                          20.7 348 
                                                                                
 2008 10 4 0252 40.1 L  21.347 -99.284 16.3  RAL  2 0.2 0.9LRAL                1
 GAP=209        2.89       5.8     5.0 25.8 -0.2856E+02  0.1957E+02 -0.2321E+02E
 ACTION:UPD 12-06-08 11:37 OP:RALL STATUS:               ID:20081004025240     I
 2008-10-04-0252-29S.PLUR1_006                                                 6
 STAT SP IPHASW D HRMM SECON CODA AMPLIT PERI AZIMU VELO AIN AR TRES W  DIS CAZ7
 LZ4  SN IP        252 43.47                             172    0.5110 2.32 141 
 LZ4  SZ E         252 43.52                  316.7  7.5     -3        2.32 141 
 LZ4  SZ  AML      252 45.19        32.1 0.20                          2.32 141 
 LZ4  SE IS        252 45.24                             172    0.2110 2.32 141 
 LA4  SZ E         252 43.83                  157.4  9.6    -12        15.3 350 
 LA4  SN IP        252 43.86                             137   -0.0310 15.3 350 
 LA4  SE IS        252 45.94                             137   -0.6910 15.3 350 
 LA4  SZ  AML      252 47.43        17.8 0.96                          15.3 350 
                                                                                
 2008 10 4 0349 19.3 L  21.589 -99.304  3.3  RAL  2 0.2 1.5LRAL                1
 GAP=350        1.88      14.5     1.7101.7  0.4752E+01 -0.1886E+02 -0.6246E+03E
 ACTION:UPD 12-06-08 11:37 OP:RALL STATUS:               ID:20081004034919     I
 2008-10-04-0349-06S.PLUR1_006                                                 6
 STAT SP IPHASW D HRMM SECON CODA AMPLIT PERI AZIMU VELO AIN AR TRES W  DIS CAZ7
 LA4  SN IP        349 21.34                              96   -0.1810 11.7 183 
 LA4  SZ E         349 21.35                    4.9  8.6      2        11.7 183 
 LA4  SE IS        349 22.76                              96   -0.3610 11.7 183 
 LA4  SZ  AML      349 23.41       110.9 0.36                          11.7 183 
 LZ4  SN IP        349 24.31                              92   -0.1210 28.8 173 
 LZ4  SZ E         349 24.41                  345.0  7.6     -7        28.8 173 
 LZ4  SE IS        349 28.81                              92    0.6610 28.8 173 
 LZ4  SZ  AML      349 28.83        70.1 0.16                          28.8 173 
                                                                                
