 2008 11 5 1344 55.8 L  21.221 -99.270 10.0  RAL  2 0.2 0.5LRAL                1
 GAP=233        1.09       1.1     1.3 10.9  0.1065E+01 -0.1707E+01 -0.1558E+01E
 ACTION:UPD 12-06-08 11:37 OP:RALL STATUS:               ID:20081105134455     I
 2008-11-05-1344-44S.PLUR1_006                                                 6
 STAT SP IPHASW D HRMM SECON CODA AMPLIT PERI AZIMU VELO AIN AR TRES W  DIS CAZ7
 LD5  SZ E        1344 58.20                   54.8 12.0      1        6.41 234 
 LD5  SN IP       1344 58.39                             153    0.5210 6.41 234 
 LD5  SE IS       1344 59.69                             153    0.2710 6.41 234 
 LD5  SZ  AML     1344 59.81         7.0 0.10                          6.41 234 
 LZ4  SZ E        1344 58.15                  183.1  8.6      3        12.2   0 
 LZ4  SN IP       1344 58.26                             132   -0.2210 12.2   0 
 LZ4  SE IS       1344 59.89                             132   -0.5810 12.2   0 
 LZ4  SZ  AML     1345  0.14        26.0 0.32                          12.2   0 
                                                                                
 2008 11 5 1430 25.0 L  21.221 -99.261 10.0  RAL  1 0.0-0.4LRAL                1
 GAP=360        0.30       3.4     5.8  0.0  0.1971E+02 -0.1707E+01 -0.1558E+01E
 ACTION:UPD 12-06-08 11:37 OP:RALL STATUS:               ID:20081105143025     I
 2008-11-05-1430-13S.PLUR1_003                                                 6
 STAT SP IPHASW D HRMM SECON CODA AMPLIT PERI AZIMU VELO AIN AR TRES W  DIS CAZ7
 LD5  SZ E        1430 27.17                   57.7 12.3      0        7.22 238 
 LD5  SN IP       1430 27.22                             144    0.0210 7.22 238 
 LD5  SE IS       1430 28.77                             144   -0.0210 7.22 238 
 LD5  SZ  AML     1430 28.82         2.0 0.10                          7.22 238 
                                                                                
 2008 11 5 1729 38.8 L  21.309 -99.301  4.5  RAL  3 0.3 0.8LRAL                1
 GAP=169        4.69       3.9     4.9 30.2  0.1582E+02  0.2212E+02  0.1547E+02E
 ACTION:UPD 12-06-08 11:37 OP:RALL STATUS:               ID:20081105172938     I
 2008-11-05-1729-25S.PLUR1_009                                                 6
 STAT SP IPHASW D HRMM SECON CODA AMPLIT PERI AZIMU VELO AIN AR TRES W  DIS CAZ7
 LZ4  SZ E        1729 39.81                  242.7 10.7      9        4.11  53 
 LZ4  SN IP       1729 39.85                             143   -0.1710 4.11  53 
 LZ4  SE IS       1729 41.18                             143    0.2810 4.11  53 
 LZ4  SZ  AML     1729 41.30       219.9 0.20                          4.11  53 
 LD5  SZ E        1729 40.67                    7.9 10.9      0        13.7 188 
 LD5  SN IP       1729 40.70                             112   -0.6910 13.7 188 
 LD5  SE IS       1729 42.68                             112   -0.5910 13.7 188 
 LD5  SZ  AML     1729 43.59         7.1 0.26                          13.7 188 
 LA4  SZ E        1729 42.22                  153.4  7.8    -23        19.4 358 
 LA4  SN IP       1729 42.32                             106   -0.0210 19.4 358 
 LA4  SE IS       1729 46.11                             106    1.1910 19.4 358 
 LA4  SZ  AML     1729 47.38        21.6 0.36                          19.4 358 
                                                                                
 2008 11 5 1826  3.6 L  21.780 -99.366 10.0  RAL  1 0.0 1.3LRAL                1
 GAP=360        0.30       3.7     1.2  0.0 -0.2560E+01  0.2212E+02  0.1547E+02E
 ACTION:UPD 12-06-08 11:37 OP:RALL STATUS:               ID:20081105182603     I
 2008-11-05-1825-59S.PLUR1_003                                                 6
 STAT SP IPHASW D HRMM SECON CODA AMPLIT PERI AZIMU VELO AIN AR TRES W  DIS CAZ7
 LA4  SN IP       1826  9.41                             102    0.0110 33.3 170 
 LA4  SZ E        1826  9.61                  349.8  8.5      0        33.3 170 
 LA4  SE IS       1826 13.59                             102   -0.0110 33.3 170 
 LA4  SZ  AML     1826 16.82        34.0 0.52                          33.3 170 
                                                                                
 2008 11 5 1827 44.2 L  21.693 -99.334  0.0  RAL  3 0.1 1.4LRAL                1
 GAP=352        2.13      13.6     4.1 14.9 -0.2088E+02  0.4388E+01 -0.1409E+02E
 ACTION:UPD 12-06-08 11:37 OP:RALL STATUS:               ID:20081105182744     I
 2008-11-05-1827-33S.PLUR1_009                                                 6
 STAT SP IPHASW D HRMM SECON CODA AMPLIT PERI AZIMU VELO AIN AR TRES W  DIS CAZ7
 LA4  SN IP       1827 47.79                              93   -0.4710 23.3 174 
 LA4  SZ E        1827 47.84                  355.4  8.8      2        23.3 174 
 LA4  SE IS       1827 51.05                              93   -0.1910 23.3 174 
 LA4  SZ  AML     1827 52.93       148.2 0.32                          23.3 174 
 LZ4  SN IP       1827 51.31                              91    0.0210 40.6 171 
 LZ4  SZ E        1827 51.45                  341.0  6.6     -9        40.6 171 
 LZ4  SE IS       1827 56.78                              91    0.3110 40.6 171 
 LZ4  SZ  AML     1827 58.04       111.5 0.28                          40.6 171 
 LD5  SN IP       1827 53.96                              63    0.1910 56.1 179 
 LD5  SZ E        1827 54.05                    5.2 23.2      7        56.1 179 
 LD5  SE IS       1828  0.92                              63    0.1410 56.1 179 
 LD5  SZ  AML     1828  2.06         3.0 0.24                          56.1 179 
                                                                                
 2008 11 5 1829 48.5 L  21.441 -99.293 10.0  RAL  1 0.0 0.5LRAL                1
 GAP=360        0.30       8.0     3.1  0.0 -0.2437E+02  0.4388E+01 -0.1409E+02E
 ACTION:UPD 12-06-08 11:37 OP:RALL STATUS:               ID:20081105182948     I
 2008-11-05-1829-39S.PLUR1_003                                                 6
 STAT SP IPHASW D HRMM SECON CODA AMPLIT PERI AZIMU VELO AIN AR TRES W  DIS CAZ7
 LA4  SZ E        1829 50.40                  160.4 16.9      0        5.05 340 
 LA4  SN IP       1829 50.58                             154    0.0310 5.05 340 
 LA4  SE IS       1829 52.00                             154   -0.0310 5.05 340 
 LA4  SZ  AML     1829 53.17        15.7 0.44                          5.05 340 
                                                                                
 2008 11 5 2109 47.8 L  21.697 -99.347 10.0  RAL  1 0.0 0.7LRAL                1
 GAP=360        0.30       3.9     1.0  0.0 -0.2574E+01  0.4388E+01 -0.1409E+02E
 ACTION:UPD 12-06-08 11:37 OP:RALL STATUS:               ID:20081105210947     I
 2008-11-05-2109-40S.PLUR1_003                                                 6
 STAT SP IPHASW D HRMM SECON CODA AMPLIT PERI AZIMU VELO AIN AR TRES W  DIS CAZ7
 LA4  SZ E        21 9 52.17                  350.7  7.7      0        24.0 171 
 LA4  SN IP       21 9 52.21                             109    0.0110 24.0 171 
 LA4  SE IS       21 9 55.36                             109   -0.0110 24.0 171 
 LA4  SZ  AML     21 9 56.46        11.4 0.56                          24.0 171 
                                                                                
 2008 11 6 0557 52.6 L  21.452 -99.285 22.1  RAL  2 0.8 1.7LRAL                1
 GAP=208        6.12      13.0    10.8 59.4 -0.1374E+03 -0.5093E+02  0.6185E+02E
 ACTION:UPD 12-06-08 11:37 OP:RALL STATUS:               ID:20081106055752     I
 2008-11-06-0557-41S.PLUR1_006                                                 6
 STAT SP IPHASW D HRMM SECON CODA AMPLIT PERI AZIMU VELO AIN AR TRES W  DIS CAZ7
 LA4  SZ E         557 58.37                  138.2  7.8     -6        4.33 325 
 LA4  SN IP        557 58.40                             174    2.0410 4.33 325 
 LA4  SE IS        558  0.80                             174    1.6910 4.33 325 
 LA4  SZ  AML      558  2.59        22.6 0.52                          4.33 325 
 LZ4  SN IP        557 56.29                             143   -0.5710 13.5 173 
 LZ4  SZ E         557 56.31                  332.7  7.0    -19        13.5 173 
 LZ4  SE IS        557 56.81                             143   -3.1610 13.5 173 
 LZ4  SZ  AML      557 56.91       704.9 0.80                          13.5 173 
                                                                                
 2008 11 6 0630 10.1 L  21.635 -99.328 10.0  RAL  1 0.0 0.8LRAL                1
 GAP=360        0.30       4.2     0.7  0.0 -0.2182E+01 -0.5093E+02  0.6185E+02E
 ACTION:UPD 12-06-08 11:37 OP:RALL STATUS:               ID:20081106063010     I
 2008-11-06-0630-01S.PLUR1_003                                                 6
 STAT SP IPHASW D HRMM SECON CODA AMPLIT PERI AZIMU VELO AIN AR TRES W  DIS CAZ7
 LA4  SZ E         630 13.40                  353.4  7.9      0        16.8 173 
 LA4  SN IP        630 13.43                             119    0.0210 16.8 173 
 LA4  SE IS        630 15.82                             119   -0.0210 16.8 173 
 LA4  SZ  AML      630 16.82        19.8 0.28                          16.8 173 
                                                                                
 2008 11 6 0637 50.3 L  21.312 -99.307 10.0  RAL  1 0.0 0.5LRAL                1
 GAP=360        0.32       4.8     9.6  0.0  0.4607E+02 -0.5093E+02  0.6185E+02E
 ACTION:UPD 12-06-08 11:37 OP:RALL STATUS:               ID:20081106063750     I
 2008-11-06-0637-38S.PLUR1_003                                                 6
 STAT SP IPHASW D HRMM SECON CODA AMPLIT PERI AZIMU VELO AIN AR TRES W  DIS CAZ7
 LZ4  SN IP        637 52.34                             157    0.0810 4.41  62 
 LZ4  SZ E         637 52.36                  241.7 12.7      0        4.41  62 
 LZ4  SE IS        637 53.61                             157   -0.0810 4.41  62 
 LZ4  SZ  AML      637 53.78        17.4 0.20                          4.41  62 
                                                                                
 2008 11 6 0738 53.5 L  21.759 -99.487  5.1  RAL  3 0.4 1.4LRAL                1
 GAP=344        5.35     110.4    61.7248.8 -0.6604E+04 -0.1435E+05  0.2618E+05E
 ACTION:UPD 12-06-08 11:37 OP:RALL STATUS:               ID:20081106073853     I
 2008-11-06-0738-44S.PLUR1_009                                                 6
 STAT SP IPHASW D HRMM SECON CODA AMPLIT PERI AZIMU VELO AIN AR TRES W  DIS CAZ7
 LA4  SN IP        738 59.25                              63    0.0310 35.7 149 
 LA4  SZ E         738 59.26                  347.0  9.3     18        35.7 149 
 LA4  SE IS        739  2.22                              63   -1.1510 35.7 149 
 LA4  SZ  AML      739  4.48       160.9 0.28                          35.7 149 
 LZ4  SN IP        739  1.90                              63    0.0710 52.5 155 
 LZ4  SZ E         739  2.18                  320.1  7.2    -13        52.5 155 
 LZ4  SE IS        739  8.78                              63    0.8910 52.5 155 
 LZ4  SZ  AML      739 10.82        59.2 0.36                          52.5 155 
 LD5  SZ E         739  4.08                  325.9 15.3    -18        65.7 165 
 LD5  SN IP        739  4.30                              63    0.4210 65.7 165 
 LD5  SE IS        739 11.19                              63   -0.2510 65.7 165 
 LD5  SZ  AML      739 14.33         2.9 0.52                          65.7 165 
                                                                                
 2008 11 6 1233 24.1 R  22.238 -99.553 10.0  RAL  1 0.0 2.0LRAL                1
 GAP=360        0.30       3.6     3.0  0.0 -0.1859E+01 -0.1435E+05  0.2618E+05E
 ACTION:UPD 12-06-08 11:37 OP:RALL STATUS:               ID:20081106123324     I
 2008-11-06-1233-29S.PLUR1_003                                                 6
 STAT SP IPHASW D HRMM SECON CODA AMPLIT PERI AZIMU VELO AIN AR TRES W  DIS CAZ7
 LZ4  SZ E        1233 40.75                  343.8  8.3      0         105 164 
 LZ4  SN IP       1233 40.80                              93    0.0010  105 164 
 LZ4  SE IS       1233 53.03                              93    0.0010  105 164 
 LZ4  SZ  AML     1234  0.66        54.1 0.48                           105 164 
                                                                                
 2008 11 6 1333 24.1 L  21.314 -99.305 10.0  RAL  1 0.0 0.6LRAL                1
 GAP=360        0.32       4.9    10.4  0.0  0.5078E+02 -0.1435E+05  0.2618E+05E
 ACTION:UPD 12-06-08 11:37 OP:RALL STATUS:               ID:20081106133324     I
 2008-11-06-1333-12S.PLUR1_003                                                 6
 STAT SP IPHASW D HRMM SECON CODA AMPLIT PERI AZIMU VELO AIN AR TRES W  DIS CAZ7
 LZ4  SZ E        1333 26.15                  243.4 12.1      0        4.09  63 
 LZ4  SN IP       1333 26.16                             158    0.0910 4.09  63 
 LZ4  SE IS       1333 27.41                             158   -0.0910 4.09  63 
 LZ4  SZ  AML     1333 27.93        21.7 0.32                          4.09  63 
                                                                                
 2008 11 6 1334 14.6 L  21.320 -99.324  9.3  RAL  2 0.1 0.8LRAL                1
 GAP=259        0.41       0.2     0.6  3.8  0.6192E-01  0.3285E+00  0.1089E+00E
 ACTION:UPD 12-06-08 11:37 OP:RALL STATUS:               ID:20081106133414     I
 2008-11-06-1334-03S.PLUR1_006                                                 6
 STAT SP IPHASW D HRMM SECON CODA AMPLIT PERI AZIMU VELO AIN AR TRES W  DIS CAZ7
 LZ4  SN IP       1334 16.80                             149    0.2110 5.74  78 
 LZ4  SZ E        1334 16.83                  257.7 12.0      0        5.74  78 
 LZ4  SE IS       1334 18.01                             149   -0.0110 5.74  78 
 LZ4  SZ  AML     1334 18.40       141.9 0.28                          5.74  78 
 LD5  SN IP       1334 17.59                             120   -0.0210 14.7 179 
 LD5  SZ E        1334 17.63                  358.8 12.6      0        14.7 179 
 LD5  SE IS       1334 19.61                             120   -0.1810 14.7 179 
 LD5  SZ  AML     1334 20.89         4.4 0.24                          14.7 179 
                                                                                
 2008 11 6 1501 34.7 L  21.348 -99.279 10.0  RAL  1 0.2 0.9LRAL                1
 GAP=360        0.70     665.0   999.9  0.0  0.9564E+06  0.3285E+00  0.1089E+00E
 ACTION:UPD 12-06-08 11:37 OP:RALL STATUS:               ID:20081106150134     I
 2008-11-06-1501-22S.PLUR1_003                                                 6
 STAT SP IPHASW D HRMM SECON CODA AMPLIT PERI AZIMU VELO AIN AR TRES W  DIS CAZ7
 LZ4  SN IP       15 1 37.03                             168    0.4310 2.14 152 
 LZ4  SZ E        15 1 37.05                  332.0  6.9      0        2.14 152 
 LZ4  SE IS       15 1 37.54                             168   -0.4310 2.14 152 
 LZ4  SZ  AML     15 1 37.65        48.2 0.36                          2.14 152 
                                                                                
 2008 11 6 1832 50.1 L  21.332 -99.272  2.1  RAL  3 0.1 0.7LRAL                1
 GAP=150        1.67       3.1     1.9  6.9  0.4559E+00  0.1215E+01 -0.3520E+00E
 ACTION:UPD 12-06-08 11:37 OP:RALL STATUS:               ID:20081106183250     I
 2008-11-06-1832-36S.PLUR1_009                                                 6
 STAT SP IPHASW D HRMM SECON CODA AMPLIT PERI AZIMU VELO AIN AR TRES W  DIS CAZ7
 LZ4  SN IP       1832 50.56                             174   -0.0810 0.31 112 
 LZ4  SZ E        1832 50.59                  293.6  6.9      1        0.31 112 
 LZ4  SE IS       1832 51.10                             174    0.0610 0.31 112 
 LZ4  SZ  AML     1832 51.21       408.1 0.16                          0.31 112 
 LD5  SN IP       1832 52.89                             101   -0.1910 16.8 197 
 LD5  SZ E        1832 52.94                   25.3  7.2      8        16.8 197 
 LD5  SE IS       1832 55.68                             101    0.4110 16.8 197 
 LD5  SZ  AML     1832 56.71         2.7 0.46                          16.8 197 
 LA4  SN IP       1832 52.91                             101   -0.2410 17.2 347 
 LA4  SZ E        1832 52.93                  163.3  8.8     -3        17.2 347 
 LA4  SE IS       1832 55.41                             101    0.0310 17.2 347 
 LA4  SZ  AML     1832 55.89        42.0 0.28                          17.2 347 
                                                                                
 2008 11 6 2019 42.1 L  21.305 -99.307 10.0  RAL  1 0.0 1.1LRAL                1
 GAP=360        0.33       5.6     8.3  0.0  0.4645E+02  0.1215E+01 -0.3520E+00E
 ACTION:UPD 12-06-08 11:37 OP:RALL STATUS:               ID:20081106201942     I
 2008-11-06-2019-29S.PLUR1_003                                                 6
 STAT SP IPHASW D HRMM SECON CODA AMPLIT PERI AZIMU VELO AIN AR TRES W  DIS CAZ7
 LZ4  SZ E        2019 44.22                  233.9 13.5      0        4.85  54 
 LZ4  SN IP       2019 44.23                             155    0.0910 4.85  54 
 LZ4  SE IS       2019 45.50                             155   -0.0910 4.85  54 
 LZ4  SZ  AML     2019 45.68        71.6 0.16                          4.85  54 
                                                                                
 2008 11 6 2020 43.6 L  21.336 -99.270 10.0  RAL  3 0.6 1.3LRAL                1
 GAP=184        9.44      20.0    11.2 54.1  0.1386E+02  0.2724E+02 -0.1547E+02E
 ACTION:UPD 12-06-08 11:37 OP:RALL STATUS:               ID:20081106202043     I
 2008-11-06-2020-30S.PLUR1_009                                                 6
 STAT SP IPHASW D HRMM SECON CODA AMPLIT PERI AZIMU VELO AIN AR TRES W  DIS CAZ7
 LZ4  SN IP       2020 44.97                             179   -0.4910 0.52 170 
 LZ4  SZ E        2020 45.00                  296.9  7.3    -52        0.52 170 
 LZ4  SE IS       2020 45.53                             179   -1.2710 0.52 170 
 LZ4  SZ  AML     2020 46.13      2245.9 0.64                          0.52 170 
 LA4  SZ E        2020 47.32                  156.5  8.8     -9        16.9 346 
 LA4  SN IP       2020 47.42                             113    0.4510 16.9 346 
 LA4  SE IS       2020 49.82                             113    0.4110 16.9 346 
 LA4  SZ  AML     2020 50.30        52.2 0.28                          16.9 346 
 LD5  SZ E        2020 47.34                   16.7 12.9      0        17.3 197 
 LD5  SN IP       2020 47.36                             113    0.3410 17.3 197 
 LD5  SE IS       2020 50.07                             113    0.5810 17.3 197 
 LD5  SZ  AML     2020 51.14         3.8 0.58                          17.3 197 
                                                                                
 2008 11 6 2057 49.6 L  21.675 -99.425 10.0  RAL  1 0.0 0.8LRAL                1
 GAP=360        0.30       3.4     2.2  0.0 -0.6840E+01  0.2724E+02 -0.1547E+02E
 ACTION:UPD 12-06-08 11:37 OP:RALL STATUS:               ID:20081106205749     I
 2008-11-06-2057-42S.PLUR1_003                                                 6
 STAT SP IPHASW D HRMM SECON CODA AMPLIT PERI AZIMU VELO AIN AR TRES W  DIS CAZ7
 LA4  SZ E        2057 53.88                  330.4  9.8      0        24.4 150 
 LA4  SN IP       2057 54.01                             109    0.0010 24.4 150 
 LA4  SE IS       2057 57.23                             109    0.0010 24.4 150 
 LA4  SZ  AML     2057 57.59        13.7 0.32                          24.4 150 
                                                                                
