 2008 10 8 0233 44.1 L  21.283 -99.246 10.0  RAL  1 0.0 0.5LRAL                1
 GAP=360        0.30       6.8     3.4  0.0 -0.2300E+02  0.1150E+01  0.5633E+00E
 ACTION:UPD 12-06-08 11:37 OP:RALL STATUS:               ID:20081008023344     I
 2008-10-08-0233-33S.PLUR1_003                                                 6
 STAT SP IPHASW D HRMM SECON CODA AMPLIT PERI AZIMU VELO AIN AR TRES W  DIS CAZ7
 LZ4  SN IP        233 46.19                             150    0.0310 5.82 335 
 LZ4  SZ E         233 46.34                  155.4 15.8      0        5.82 335 
 LZ4  SE IS        233 47.64                             150   -0.0310 5.82 335 
 LZ4  SZ  AML      233 49.53        13.9 0.32                          5.82 335 
                                                                                
 2008 10 8 0239 29.1 L  21.333 -99.278 10.0  RAL  1 0.1 0.3LRAL                1
 GAP=360        0.85     999.9   551.5  0.0  0.7090E+06  0.1150E+01  0.5633E+00E
 ACTION:UPD 12-06-08 11:37 OP:RALL STATUS:               ID:20081008023929     I
 2008-10-08-0239-17S.PLUR1_003                                                 6
 STAT SP IPHASW D HRMM SECON CODA AMPLIT PERI AZIMU VELO AIN AR TRES W  DIS CAZ7
 LZ4  SZ E         239 31.05                  289.9  9.3      3        0.91 107 
 LZ4  SN IP        239 31.24                             175    0.3110 0.91 107 
 LZ4  SE IS        239 31.96                             175   -0.3110 0.91 107 
 LZ4  SZ  AML      239 33.20        12.2 0.52                          0.91 107 
                                                                                
 2008 10 8 0317 10.1 L  21.322 -99.303 10.0  RAL  1 0.0 0.6LRAL                1
 GAP=360        0.31       3.3    12.0  0.0  0.3998E+02  0.1150E+01  0.5633E+00E
 ACTION:UPD 12-06-08 11:37 OP:RALL STATUS:               ID:20081008031710     I
 2008-10-08-0316-58S.PLUR1_003                                                 6
 STAT SP IPHASW D HRMM SECON CODA AMPLIT PERI AZIMU VELO AIN AR TRES W  DIS CAZ7
 LZ4  SZ E         317 11.51                  253.4 75.3      0        3.58  73 
 LZ4  SN IP        317 12.11                             161    0.0610 3.58  73 
 LZ4  SE IS        317 13.40                             161   -0.0610 3.58  73 
 LZ4  SZ  AML      317 14.95        21.6 0.76                          3.58  73 
                                                                                
 2008 10 8 0559 58.2 L  21.417 -99.393 26.8  RAL  3 0.4 0.7LRAL                1
 GAP=246        6.54       6.8     8.2 55.8  0.1291E+02  0.3198E+02  0.2577E+02E
 ACTION:UPD 12-06-08 11:37 OP:RALL STATUS:               ID:20081008055958     I
 2008-10-08-0559-49S.PLUR1_009                                                 6
 STAT SP IPHASW D HRMM SECON CODA AMPLIT PERI AZIMU VELO AIN AR TRES W  DIS CAZ7
 LA4  SN IP        6 0  3.08                             156    0.1510 11.4  50 
 LA4  SZ E         6 0  3.12                  221.3 12.9     -7        11.4  50 
 LA4  SE IS        6 0  6.21                             156   -0.1810 11.4  50 
 LA4  SZ  AML      6 0  6.45        13.4 0.40                          11.4  50 
 LZ4  SN IP        6 0  3.27                             148    0.0410 15.9 127 
 LZ4  SZ E         6 0  3.29                  325.1  8.4     18        15.9 127 
 LZ4  SE IS        6 0  7.09                             148    0.1810 15.9 127 
 LZ4  SZ  AML      6 0  9.78        30.3 0.36                          15.9 127 
 LD5  SN IP        6 0  4.09                             132   -0.1410 26.6 164 
 LD5  SZ E         6 0  4.12                  311.7 16.2    -31        26.6 164 
 LD5  SE IS        6 0  8.59                             132   -0.0510 26.6 164 
 LD5  SZ  AML      6 0 11.33         2.1 0.42                          26.6 164 
                                                                                
 2008 10 8 0731  1.1 L  21.500 -99.328 10.0  RAL  1 0.2 0.1LRAL                1
 GAP=360        0.74      24.6    28.6  0.0 -0.7039E+03  0.3198E+02  0.2577E+02E
 ACTION:UPD 12-06-08 11:37 OP:RALL STATUS:               ID:20081008073101     I
 2008-10-08-0730-50S.PLUR1_003                                                 6
 STAT SP IPHASW D HRMM SECON CODA AMPLIT PERI AZIMU VELO AIN AR TRES W  DIS CAZ7
 LA4  SZ E         731  3.49                  312.8 13.0      0        2.73 133 
 LA4  SN IP        731  3.49                             165    0.4610 2.73 133 
 LA4  SE IS        731  3.96                             165   -0.4610 2.73 133 
 LA4  SZ  AML      731  4.18         7.6 0.28                          2.73 133 
                                                                                
 2008 10 8 1112  9.5 L  21.357 -99.317 10.0  RAL  1 0.0 0.2LRAL                1
 GAP=360        0.30       4.5     0.5  0.0  0.1294E+01  0.3198E+02  0.2577E+02E
 ACTION:UPD 12-06-08 11:37 OP:RALL STATUS:               ID:20081008111209     I
 2008-10-08-1111-59S.PLUR1_006                                                 6
 STAT SP IPHASW D HRMM SECON CODA AMPLIT PERI AZIMU VELO AIN AR TRES W  DIS CAZ7
 LA4  SZ E        1112 12.48                  183.5 13.2      0        14.0   3 
 LA4  SN IP       1112 12.50                             124    0.0010 14.0   3 
 LA4  SE IS       1112 14.66                             124    0.0010 14.0   3 
 LA4  SZ  AML     1112 15.57         5.6 0.28                          14.0   3 
                                                                                
 2008 10 8 1204 49.8 L  21.339 -99.309 10.0  RAL  1 0.0 0.3LRAL                1
 GAP=360        0.30       2.2    10.2  0.0 -0.2211E+02  0.3198E+02  0.2577E+02E
 ACTION:UPD 12-06-08 11:37 OP:RALL STATUS:               ID:20081008120449     I
 2008-10-08-1204-38S.PLUR1_003                                                 6
 STAT SP IPHASW D HRMM SECON CODA AMPLIT PERI AZIMU VELO AIN AR TRES W  DIS CAZ7
 LZ4  SN IP       12 4 51.75                             158    0.0210 4.23 103 
 LZ4  SZ E        12 4 51.86                  282.9 10.0      0        4.23 103 
 LZ4  SE IS       12 4 53.14                             158   -0.0210 4.23 103 
 LZ4  SZ  AML     12 4 54.16        11.6 0.44                          4.23 103 
                                                                                
 2008 10 8 1306 33.1 L  21.732 -99.357 10.0  RAL  1 0.0 0.8LRAL                1
 GAP=360        0.30       3.8     1.1  0.0 -0.2706E+01  0.3198E+02  0.2577E+02E
 ACTION:UPD 12-06-08 11:37 OP:RALL STATUS:               ID:20081008130633     I
 2008-10-08-1306-26S.PLUR1_003                                                 6
 STAT SP IPHASW D HRMM SECON CODA AMPLIT PERI AZIMU VELO AIN AR TRES W  DIS CAZ7
 LA4  SZ E        13 6 38.00                  349.7  7.9      0        27.9 170 
 LA4  SN IP       13 6 38.09                             106    0.0110 27.9 170 
 LA4  SE IS       13 6 41.67                             106   -0.0110 27.9 170 
 LA4  SZ  AML     13 6 43.15        12.4 0.76                          27.9 170 
                                                                                
 2008 10 8 1607  5.9 L  21.255 -99.262  1.8  RAL  3 0.2 0.5LRAL                1
 GAP=224        2.84       3.4     1.8 35.3  0.1635E+01 -0.3897E+01 -0.1660E+02E
 ACTION:UPD 12-06-08 11:37 OP:RALL STATUS:               ID:20081008160705     I
 2008-10-08-1606-52S.PLUR1_009                                                 6
 STAT SP IPHASW D HRMM SECON CODA AMPLIT PERI AZIMU VELO AIN AR TRES W  DIS CAZ7
 LZ4  SN IP       16 7  7.18                             113   -0.2710 8.47 355 
 LZ4  SZ E        16 7  7.21                  179.5 17.7      5        8.47 355 
 LZ4  SE IS       16 7  8.55                             113   -0.0510 8.47 355 
 LZ4  SZ  AML     16 7 11.34        62.2 0.32                          8.47 355 
 LD5  SZ E        16 7  7.41                   38.3 10.8      0        9.64 219 
 LD5  SN IP       16 7  7.45                             111   -0.2010 9.64 219 
 LD5  SE IS       16 7  9.08                             111    0.1510 9.64 219 
 LD5  SZ  AML     16 7  9.29         7.7 0.16                          9.64 219 
 LA4  SN IP       16 7  9.86                              98   -0.5710 25.8 349 
 LA4  SZ E        16 7  9.86                  154.6  8.0    -14        25.8 349 
 LA4  SE IS       16 7 14.70                              98    0.9510 25.8 349 
 LA4  SZ  AML     16 7 15.25         6.8 0.56                          25.8 349 
                                                                                
 2008 10 8 1743  2.3 L  21.603 -99.492 10.0  RAL  1 0.0 0.9LRAL                1
 GAP=360        0.30       2.3     3.5  0.0 -0.7598E+01 -0.3897E+01 -0.1660E+02E
 ACTION:UPD 12-06-08 11:37 OP:RALL STATUS:               ID:20081008174302     I
 2008-10-08-1742-55S.PLUR1_003                                                 6
 STAT SP IPHASW D HRMM SECON CODA AMPLIT PERI AZIMU VELO AIN AR TRES W  DIS CAZ7
 LA4  SN IP       1743  6.55                             110    0.0010 23.1 125 
 LA4  SZ E        1743  6.56                  304.9  7.9      0        23.1 125 
 LA4  SE IS       1743  9.63                             110    0.0010 23.1 125 
 LA4  SZ  AML     1743 11.49        20.4 0.56                          23.1 125 
                                                                                
 2008 10 8 1842  0.5 L  20.533 -98.511 10.0  RAL  1 0.0 2.1LRAL                1
 GAP=360        0.30       3.4     3.6  0.0 -0.2296E+01 -0.3897E+01 -0.1660E+02E
 ACTION:UPD 12-06-08 11:37 OP:RALL STATUS:               ID:20081008184200     I
 2008-10-08-1842-07S.PLUR1_009                                                 6
 STAT SP IPHASW D HRMM SECON CODA AMPLIT PERI AZIMU VELO AIN AR TRES W  DIS CAZ7
 LZ4  SN IP       1842 19.38                              93    0.0010  118 318 
 LZ4  SZ E        1842 19.98                  138.1 20.8      0         118 318 
 LZ4  SE IS       1842 33.17                              93    0.0010  118 318 
 LZ4  SZ  AML     1842 37.88        58.4 0.52                           118 318 
                                                                                
 2008 10 8 1848  1.6 L  21.639 -99.304 10.0  RAL  1 0.0 0.2LRAL                1
 GAP=360        0.30       4.2     0.5  0.0  0.5255E+00 -0.3897E+01 -0.1660E+02E
 ACTION:UPD 12-06-08 11:37 OP:RALL STATUS:               ID:20081008184801     I
 2008-10-08-1847-53S.PLUR1_003                                                 6
 STAT SP IPHASW D HRMM SECON CODA AMPLIT PERI AZIMU VELO AIN AR TRES W  DIS CAZ7
 LA4  SN IP       1848  5.01                             118    0.0210 17.2 182 
 LA4  SZ E        1848  5.16                    1.6 13.4      0        17.2 182 
 LA4  SE IS       1848  7.44                             118   -0.0210 17.2 182 
 LA4  SZ  AML     1848  9.27         4.6 0.48                          17.2 182 
                                                                                
 2008 10 8 2145 27.6 L  21.348 -99.292 18.0  RAL  2 0.2 1.0LRAL                1
 GAP=225        1.25       1.5     1.9 11.3 -0.2736E+01  0.1746E+01 -0.1338E+01E
 ACTION:UPD 12-06-08 11:37 OP:RALL STATUS:               ID:20081008214527     I
 2008-10-08-2145-17S.PLUR1_006                                                 6
 STAT SP IPHASW D HRMM SECON CODA AMPLIT PERI AZIMU VELO AIN AR TRES W  DIS CAZ7
 LZ4  SN IP       2145 31.41                             171    0.6610 3.05 129 
 LZ4  SZ E        2145 31.46                  308.3  6.9      0        3.05 129 
 LZ4  SE IS       2145 33.38                             171    0.3610 3.05 129 
 LZ4  SZ  AML     2145 33.79        29.9 0.12                          3.05 129 
 LA4  SN IP       2145 31.40                             140   -0.1710 15.1 353 
 LA4  SZ E        2145 31.45                  172.1 10.8      0        15.1 353 
 LA4  SE IS       2145 33.58                             140   -0.8610 15.1 353 
 LA4  SZ  AML     2145 33.74        32.3 0.20                          15.1 353 
                                                                                
 2008 10 8 2202 43.0 L  21.273 -99.262 10.0  RAL  2 0.2 0.4LRAL                1
 GAP=219        1.22       2.1     0.6 12.2  0.6991E-02  0.1905E-01  0.3228E+01E
 ACTION:UPD 12-06-08 11:37 OP:RALL STATUS:               ID:20081008220243     I
 2008-10-08-2202-32S.PLUR1_006                                                 6
 STAT SP IPHASW D HRMM SECON CODA AMPLIT PERI AZIMU VELO AIN AR TRES W  DIS CAZ7
 LZ4  SN IP       22 2 45.52                             156    0.3910 6.45 353 
 LZ4  SZ E        22 2 45.57                  173.0 12.4      0        6.45 353 
 LZ4  SE IS       22 2 47.18                             156    0.5110 6.45 353 
 LZ4  SZ  AML     22 2 47.29        28.5 0.28                          6.45 353 
 LD5  SN IP       22 2 45.31                             138   -0.3210 11.3 212 
 LD5  SZ E        22 2 45.49                   28.6 10.0     -3        11.3 212 
 LD5  SE IS       22 2 46.95                             138   -0.5910 11.3 212 
 LD5  SZ  AML     22 2 47.37         4.5 0.32                          11.3 212 
                                                                                
 2008 10 8 2222 36.8 L  21.339 -99.287 10.0  RAL  1 0.1 0.6LRAL                1
 GAP=360        0.59     981.1   589.4  0.0  0.5782E+06  0.1905E-01  0.3228E+01E
 ACTION:UPD 12-06-08 11:37 OP:RALL STATUS:               ID:20081008222236     I
 2008-10-08-2222-24S.PLUR1_003                                                 6
 STAT SP IPHASW D HRMM SECON CODA AMPLIT PERI AZIMU VELO AIN AR TRES W  DIS CAZ7
 LZ4  SZ E        2222 38.98                  297.4  8.8      0        2.07 117 
 LZ4  SN IP       2222 39.01                             169    0.3410 2.07 117 
 LZ4  SE IS       2222 39.68                             169   -0.3410 2.07 117 
 LZ4  SZ  AML     2222 39.80        20.3 0.16                          2.07 117 
                                                                                
 2008 10 8 2350  8.7 L  21.729 -99.427  0.1  RAL  2 0.1 1.2LRAL                1
 GAP=356        1.65      12.3     6.6 13.1 -0.6310E+02  0.2411E+01 -0.1129E+01E
 ACTION:UPD 12-06-08 11:37 OP:RALL STATUS:               ID:20081008235008     I
 2008-10-08-2349-59S.PLUR1_006                                                 6
 STAT SP IPHASW D HRMM SECON CODA AMPLIT PERI AZIMU VELO AIN AR TRES W  DIS CAZ7
 LA4  SZ E        2350 13.86                  339.9  8.1      4        29.8 156 
 LA4  SN IP       2350 13.87                              92   -0.0410 29.8 156 
 LA4  SE IS       2350 17.48                              92   -0.2410 29.8 156 
 LA4  SZ  AML     2350 18.47        31.1 0.32                          29.8 156 
 LZ4  SZ E        2350 16.97                  333.1  7.9     -6        47.0 160 
 LZ4  SN IP       2350 17.03                              63    0.1510 47.0 160 
 LZ4  SE IS       2350 22.99                              63    0.1310 47.0 160 
 LZ4  SZ  AML     2350 23.41        17.2 0.36                          47.0 160 
                                                                                
 2008 10 9 0019 47.6 L  21.354 -99.294 10.0  RAL  1 0.1 0.6LRAL                1
 GAP=360        0.44      11.8    12.7  0.0 -0.1503E+03  0.2411E+01 -0.1129E+01E
 ACTION:UPD 12-06-08 11:37 OP:RALL STATUS:               ID:20081009001947     I
 2008-10-09-0019-35S.PLUR1_003                                                 6
 STAT SP IPHASW D HRMM SECON CODA AMPLIT PERI AZIMU VELO AIN AR TRES W  DIS CAZ7
 LZ4  SN IP        019 49.76                             161    0.2210 3.59 135 
 LZ4  SZ E         019 49.77                  314.9  8.2      0        3.59 135 
 LZ4  SE IS        019 50.72                             161   -0.2210 3.59 135 
 LZ4  SZ  AML      019 50.81        19.6 0.24                          3.59 135 
                                                                                
 2008 10 9 0725 20.7 L  21.511 -99.383 10.0  RAL  1 0.0 1.0LRAL                1
 GAP=360        0.30       3.4     2.2  0.0 -0.7071E+01  0.2411E+01 -0.1129E+01E
 ACTION:UPD 12-06-08 11:37 OP:RALL STATUS:               ID:20081009072520     I
 2008-10-09-0725-13S.PLUR1_003                                                 6
 STAT SP IPHASW D HRMM SECON CODA AMPLIT PERI AZIMU VELO AIN AR TRES W  DIS CAZ7
 LZ4  SZ E         725 24.82                  329.5 15.8      0        23.2 149 
 LZ4  SN IP        725 24.90                             110    0.0010 23.2 149 
 LZ4  SE IS        725 27.98                             110    0.0010 23.2 149 
 LZ4  SZ  AML      725 30.68        23.8 0.72                          23.2 149 
                                                                                
 2008 10 9 1331 53.1 L  21.342 -99.292 10.0  RAL  1 0.1 0.5LRAL                1
 GAP=360        0.51      11.9    23.9  0.0 -0.2838E+03  0.2411E+01 -0.1129E+01E
 ACTION:UPD 12-06-08 11:37 OP:RALL STATUS:               ID:20081009133153     I
 2008-10-09-1331-40S.PLUR1_003                                                 6
 STAT SP IPHASW D HRMM SECON CODA AMPLIT PERI AZIMU VELO AIN AR TRES W  DIS CAZ7
 LZ4  SZ E        1331 55.20                  298.0 11.4      0        2.70 118 
 LZ4  SN IP       1331 55.24                             165    0.2810 2.70 118 
 LZ4  SE IS       1331 56.05                             165   -0.2810 2.70 118 
 LZ4  SZ  AML     1331 56.21        16.9 0.16                          2.70 118 
                                                                                
 2008 10 9 1450 48.9 L  21.677 -99.429  0.0  RAL  3 0.2 2.1LRAL                1
 GAP=342        1.70       9.3     5.7 12.0 -0.4156E+02  0.1037E+02 -0.1007E+02E
 ACTION:UPD 12-06-08 11:37 OP:RALL STATUS:               ID:20081009145048     I
 2008-10-09-1450-39S.PLUR1_009                                                 6
 STAT SP IPHASW D HRMM SECON CODA AMPLIT PERI AZIMU VELO AIN AR TRES W  DIS CAZ7
 LA4  SZ E        1450 53.12                  331.4  8.7      2        24.7 150 
 LA4  SN IP       1450 53.14                              93   -0.0710 24.7 150 
 LA4  SE IS       1450 55.74                              93   -0.6310 24.7 150 
 LA4  SZ  AML     1450 55.92      1180.8 0.24                          24.7 150 
 LZ4  SN IP       1450 55.92                              91   -0.2510 41.7 157 
 LZ4  SZ E        1450 55.99                  329.8  7.1     -6        41.7 157 
 LZ4  SE IS       1451  2.00                              91    0.5010 41.7 157 
 LZ4  SZ  AML     1451  6.23       317.7 0.36                          41.7 157 
 LD5  SZ E        1450 58.22                  353.0 12.8      5        55.4 168 
 LD5  SN IP       1450 58.40                              63    0.0310 55.4 168 
 LD5  SE IS       1451  5.71                              63    0.4110 55.4 168 
 LD5  SZ  AML     1451 12.24        20.0 0.46                          55.4 168 
                                                                                
