 2008 10 2 0238  6.6 L  21.305 -99.245 10.0  RAL  1 0.1 0.5LRAL                1
 GAP=360        0.42      11.0    10.5  0.0 -0.1154E+03  0.9922E+01 -0.4175E+02E
 ACTION:UPD 12-06-08 11:37 OP:RALL STATUS:               ID:20081002023806     I
 2008-10-02-0237-55S.PLUR1_003                                                 6
 STAT SP IPHASW D HRMM SECON CODA AMPLIT PERI AZIMU VELO AIN AR TRES W  DIS CAZ7
 LZ4  SZ E         238  8.67                  138.2  9.6      0        3.87 318 
 LZ4  SN IP     D  238  8.73                             159    0.2010 3.87 318 
 LZ4  SE IS        238  9.75                             159   -0.2010 3.87 318 
 LZ4  SZ  AML      238 10.07        18.6 0.48                          3.87 318 
                                                                                
 2008 10 2 0312 42.4 L  21.014 -99.288 10.0  RAL  1 0.0 0.8LRAL                1
 GAP=360        0.30       3.8     1.0  0.0  0.7752E+00  0.9922E+01 -0.4175E+02E
 ACTION:UPD 12-06-08 11:37 OP:RALL STATUS:               ID:20081002031242     I
 2008-10-02-0312-38S.PLUR1_003                                                 6
 STAT SP IPHASW D HRMM SECON CODA AMPLIT PERI AZIMU VELO AIN AR TRES W  DIS CAZ7
 LZ4  SZ E         312 47.41                  183.1 99.9      0        35.1   3 
 LZ4  SN IP        312 48.43                             102    0.0110 35.1   3 
 LZ4  SE IS        312 52.81                             102   -0.0110 35.1   3 
 LZ4  SZ  AML      312 52.97        10.6 0.16                          35.1   3 
                                                                                
 2008 10 2 0323 44.5 L  21.352 -99.254 10.0  RAL  1 0.1 0.6LRAL                1
 GAP=360        0.50      18.9    14.3  0.0  0.2708E+03  0.9922E+01 -0.4175E+02E
 ACTION:UPD 12-06-08 11:37 OP:RALL STATUS:               ID:20081002032344     I
 2008-10-02-0323-32S.PLUR1_003                                                 6
 STAT SP IPHASW D HRMM SECON CODA AMPLIT PERI AZIMU VELO AIN AR TRES W  DIS CAZ7
 LZ4  SZ E         323 44.70                   35.1 99.9      0        2.86 215 
 LZ4  SN IP        323 46.70                             164    0.2710 2.86 215 
 LZ4  SE IS        323 47.54                             164   -0.2710 2.86 215 
 LZ4  SZ  AML      323 48.59        20.8 0.76                          2.86 215 
                                                                                
 2008 10 2 0530 44.7 L  21.501 -99.331 10.0  RAL  1 0.1 0.0LRAL                1
 GAP=360        0.44      12.7    16.3  0.0 -0.2070E+03  0.9922E+01 -0.4175E+02E
 ACTION:UPD 12-06-08 11:37 OP:RALL STATUS:               ID:20081002053044     I
 2008-10-02-0530-34S.PLUR1_003                                                 6
 STAT SP IPHASW D HRMM SECON CODA AMPLIT PERI AZIMU VELO AIN AR TRES W  DIS CAZ7
 LA4  SZ E         530 46.81                  309.8 12.0      0        2.97 130 
 LA4  SN IP        530 46.86                             164    0.2210 2.97 130 
 LA4  SE IS        530 47.82                             164   -0.2210 2.97 130 
 LA4  SZ  AML      530 48.21         4.9 0.24                          2.97 130 
                                                                                
 2008 10 2 0548 38.7 L  21.267 -99.274  9.1  RAL  2 0.1 0.2LRAL                1
 GAP=205        0.88       1.8     0.6 10.3  0.6135E+00  0.6963E+00  0.3381E+01E
 ACTION:UPD 12-06-08 11:37 OP:RALL STATUS:               ID:20081002054838     I
 2008-10-02-0548-27S.PLUR1_006                                                 6
 STAT SP IPHASW D HRMM SECON CODA AMPLIT PERI AZIMU VELO AIN AR TRES W  DIS CAZ7
 LZ4  SZ E         548 40.97                  182.1 14.6      0        7.09   3 
 LZ4  SN IP        548 41.10                             142    0.3310 7.09   3 
 LZ4  SE IS        548 42.55                             142    0.2810 7.09   3 
 LZ4  SZ  AML      548 43.83        15.3 0.40                          7.09   3 
 LD5  SZ E         548 40.96                   26.6  8.7     -1        10.1 209 
 LD5  SN IP        548 40.99                             131   -0.1110 10.1 209 
 LD5  SE IS        548 42.33                             131   -0.5010 10.1 209 
 LD5  SZ  AML      548 42.54         3.7 0.42                          10.1 209 
                                                                                
 2008 10 2 0712 51.6 L  21.498 -99.324 10.0  RAL  1 0.3 0.8LRAL                1
 GAP=360        1.05      43.8    46.8  0.0 -0.2049E+04  0.6963E+00  0.3381E+01E
 ACTION:UPD 12-06-08 11:37 OP:RALL STATUS:               ID:20081002071251     I
 2008-10-02-0712-40S.PLUR1_003                                                 6
 STAT SP IPHASW D HRMM SECON CODA AMPLIT PERI AZIMU VELO AIN AR TRES W  DIS CAZ7
 LA4  SZ E         712 53.70                  315.3 18.0      0        2.25 135 
 LA4  SN IP        712 54.13                             168    0.6810 2.25 135 
 LA4  SE IS        712 54.15                             168   -0.6810 2.25 135 
 LA4  SZ  AML      712 54.33        34.9 0.32                          2.25 135 
                                                                                
 2008 10 2 0938 12.2 L  21.245 -99.230  2.7  RAL  2 0.0 0.1LRAL                1
 GAP=259        0.36       0.4     0.3  8.7 -0.3811E-02 -0.1370E+00  0.2598E+00E
 ACTION:UPD 12-06-08 11:37 OP:RALL STATUS:               ID:20081002093812     I
 2008-10-02-0938-00S.PLUR1_006                                                 6
 STAT SP IPHASW D HRMM SECON CODA AMPLIT PERI AZIMU VELO AIN AR TRES W  DIS CAZ7
 LZ4  SZ E         938 13.55                  156.8 39.7      0        10.3 337 
 LZ4  SN IP        938 14.02                             110   -0.0710 10.3 337 
 LZ4  SE IS        938 15.37                             110   -0.1110 10.3 337 
 LZ4  SZ  AML      938 16.15        19.5 0.48                          10.3 337 
 LD5  SZ E         938 14.30                   55.4  9.9      0        11.4 235 
 LD5  SN IP        938 14.30                             108    0.0310 11.4 235 
 LD5  SE IS        938 15.95                             108    0.1510 11.4 235 
 LD5  SZ  AML      938 16.04         2.0 0.10                          11.4 235 
                                                                                
 2008 10 2 0950 42.4 L  21.345 -99.284 15.4  RAL  3 0.4 1.4LRAL                1
 GAP=158        5.81       6.0     6.1 42.9 -0.3516E+02  0.4220E+01 -0.3747E+01E
 ACTION:UPD 12-06-08 11:37 OP:RALL STATUS:               ID:20081002095042     I
 2008-10-02-0950-31S.PLUR1_009                                                 6
 STAT SP IPHASW D HRMM SECON CODA AMPLIT PERI AZIMU VELO AIN AR TRES W  DIS CAZ7
 LZ4  SN IP        950 45.46                             172    0.3210 2.18 136 
 LZ4  SZ E         950 45.47                  309.4  7.1     -5        2.18 136 
 LZ4  SE IS        950 47.42                             172    0.3110 2.18 136 
 LZ4  SZ  AML      950 48.57       173.8 0.52                          2.18 136 
 LA4  SZ E         950 45.74                  143.0 11.1    -26        15.6 350 
 LA4  SN IP        950 45.93                             135   -0.2010 15.6 350 
 LA4  SE IS        950 47.65                             135   -1.1710 15.6 350 
 LA4  SZ  AML      950 49.43       300.1 0.56                          15.6 350 
 LD5  SN IP        950 46.39                             130    0.0010 17.9 192 
 LD5  SZ E         950 46.43                  355.4 12.2     17        17.9 192 
 LD5  SE IS        950 50.03                             130    0.7610 17.9 192 
 LD5  SZ  AML      950 53.12         6.6 0.40                          17.9 192 
                                                                                
 2008 10 2 1115 29.5 L  21.339 -99.278 14.2  RAL  2 0.3 0.7LRAL                1
 GAP=211        4.52       2.2     6.8 37.6  0.6911E+01  0.4279E+01 -0.1999E+01E
 ACTION:UPD 12-06-08 11:37 OP:RALL STATUS:               ID:20081002111529     I
 2008-10-02-1115-19S.PLUR1_006                                                 6
 STAT SP IPHASW D HRMM SECON CODA AMPLIT PERI AZIMU VELO AIN AR TRES W  DIS CAZ7
 LZ4  SZ E        1115 32.08                  315.9  9.0      0        1.26 137 
 LZ4  SN IP       1115 32.24                             175    0.2110 1.26 137 
 LZ4  SE IS       1115 34.21                             175    0.3710 1.26 137 
 LZ4  SZ  AML     1115 35.33        23.6 0.52                          1.26 137 
 LA4  SZ E        1115 32.48                  146.9 15.7    -21        16.3 349 
 LA4  SN IP       1115 33.34                             131    0.1610 16.3 349 
 LA4  SE IS       1115 35.10                             131   -0.7410 16.3 349 
 LA4  SZ  AML     1115 35.95        14.3 0.64                          16.3 349 
                                                                                
 2008 10 2 1115 30.4 L  21.431 -99.288 10.0  RAL  2 0.6 0.8LRAL                1
 GAP=191        8.74      29.5    12.4 86.4 -0.3439E+03 -0.2749E+03  0.6871E+03E
 ACTION:UPD 12-06-08 11:37 OP:RALL STATUS:               ID:20081002111530     I
 2008-10-02-1115-19S.PLUR1_006                                                 6
 STAT SP IPHASW D HRMM SECON CODA AMPLIT PERI AZIMU VELO AIN AR TRES W  DIS CAZ7
 LA4  SZ E        1115 32.44                  141.7 26.5    -16        6.20 339 
 LA4  SN IP       1115 33.33                             160    0.7810 6.20 339 
 LA4  SE IS       1115 34.86                             160    0.7710 6.20 339 
 LZ4  SZ E        1115 32.21                  312.1 10.5    -37        11.3 170 
 LZ4  SN IP       1115 32.23                             137   -0.8210 11.3 170 
 LZ4  SE IS       1115 34.23                             137   -0.7310 11.3 170 
 LZ4  SZ  AML     1115 35.34        23.6 0.52                          11.3 170 
                                                                                
 2008 10 2 1146 40.2 L  21.312 -99.282 10.0  RAL  1 0.1 0.3LRAL                1
 GAP=360        0.60      27.8    17.7  0.0  0.4921E+03 -0.2749E+03  0.6871E+03E
 ACTION:UPD 12-06-08 11:37 OP:RALL STATUS:               ID:20081002114640     I
 2008-10-02-1146-28S.PLUR1_003                                                 6
 STAT SP IPHASW D HRMM SECON CODA AMPLIT PERI AZIMU VELO AIN AR TRES W  DIS CAZ7
 LZ4  SZ E        1146 41.23                  210.7 50.5      0        2.47  31 
 LZ4  SN IP       1146 42.42                             167    0.3510 2.47  31 
 LZ4  SE IS       1146 43.08                             167   -0.3510 2.47  31 
 LZ4  SZ  AML     1146 43.24        10.6 0.44                          2.47  31 
                                                                                
 2008 10 2 1230 14.5 L  21.696 -99.532  5.1  RAL  2 0.3 1.7LRAL                1
 GAP=349        3.34      28.6    28.1999.9 -0.7325E+03  0.9132E+05 -0.9107E+05E
 ACTION:UPD 12-06-08 11:37 OP:RALL STATUS:               ID:20081002123014     I
 2008-10-02-1230-05S.PLUR1_006                                                 6
 STAT SP IPHASW D HRMM SECON CODA AMPLIT PERI AZIMU VELO AIN AR TRES W  DIS CAZ7
 LA4  SZ E        1230 20.08                  322.9  7.7      7        32.9 135 
 LA4  SN IP       1230 20.10                              90    0.0310 32.9 135 
 LA4  SE IS       1230 23.18                              90   -0.9810 32.9 135 
 LA4  SZ  AML     1230 25.25       125.5 0.84                          32.9 135 
 LZ4  SZ E        1230 23.07                  312.9 13.9    -12        48.7 146 
 LZ4  SN IP       1230 23.20                              90    0.6910 48.7 146 
 LZ4  SE IS       1230 28.65                              90    0.2610 48.7 146 
 LZ4  SZ  AML     1230 32.27        36.6 0.40                          48.7 146 
                                                                                
 2008 10 2 1236  3.1 L  21.682 -99.427 10.0  RAL  1 0.0 1.1LRAL                1
 GAP=360        0.30       3.4     2.1  0.0 -0.6702E+01  0.9132E+05 -0.9107E+05E
 ACTION:UPD 12-06-08 11:37 OP:RALL STATUS:               ID:20081002123603     I
 2008-10-02-1235-53S.PLUR1_003                                                 6
 STAT SP IPHASW D HRMM SECON CODA AMPLIT PERI AZIMU VELO AIN AR TRES W  DIS CAZ7
 LA4  SN EP       1236  7.62                             108    0.0010 25.1 151 
 LA4  SZ E        1236  7.79                  330.9  9.4      0        25.1 151 
 LA4  SE IS       1236 10.92                             108    0.0010 25.1 151 
 LA4  SZ  AML     1236 11.57        27.0 0.24                          25.1 151 
                                                                                
 2008 10 2 1248 23.4 L  21.364 -99.309 14.9  RAL  2 0.1 0.8LRAL                1
 GAP=228        0.82       1.0     1.0  7.9 -0.8378E+00  0.7813E+00 -0.7889E+00E
 ACTION:UPD 12-06-08 11:37 OP:RALL STATUS:               ID:20081002124823     I
 2008-10-02-1248-13S.PLUR1_006                                                 6
 STAT SP IPHASW D HRMM SECON CODA AMPLIT PERI AZIMU VELO AIN AR TRES W  DIS CAZ7
 LZ4  SZ E        1248 26.48                  311.4  7.5      0        5.45 132 
 LZ4  SN EP       1248 26.48                             161    0.3610 5.45 132 
 LZ4  SE IS       1248 28.37                             161    0.2510 5.45 132 
 LZ4  SZ  AML     1248 28.52        16.4 0.20                          5.45 132 
 LA4  SN IP       1248 26.71                             138   -0.0610 13.3 360 
 LA4  SZ E        1248 26.81                  178.5  5.6      0        13.3 360 
 LA4  SE IS       1248 28.69                             138   -0.5510 13.3 360 
 LA4  SZ  AML     1248 30.42        23.0 0.56                          13.3 360 
                                                                                
 2008 10 2 1305  8.6 L  21.414 -99.344 10.0  RAL  1 0.0 0.8LRAL                1
 GAP=360        0.30       3.7     3.3  0.0 -0.1203E+02  0.7813E+00 -0.7889E+00E
 ACTION:UPD 12-06-08 11:37 OP:RALL STATUS:               ID:20081002130508     I
 2008-10-02-1304-58S.PLUR1_003                                                 6
 STAT SP IPHASW D HRMM SECON CODA AMPLIT PERI AZIMU VELO AIN AR TRES W  DIS CAZ7
 LZ4  SZ E        13 5 11.29                  319.9  8.2      0        12.0 140 
 LZ4  SN IP       13 5 11.33                             129    0.0210 12.0 140 
 LZ4  SE IS       13 5 13.25                             129   -0.0210 12.0 140 
 LZ4  SZ  AML     13 5 13.26        24.4 0.20                          12.0 140 
                                                                                
 2008 10 2 1312 31.9 L  21.328 -99.280 10.0  RAL  2 0.9 0.5LRAL                1
 GAP=277       14.40       6.6    23.5 98.3  0.9284E+02  0.5072E+02 -0.1556E+02E
 ACTION:UPD 12-06-08 11:37 OP:RALL STATUS:               ID:20081002131231     I
 2008-10-02-1312-18S.PLUR1_006                                                 6
 STAT SP IPHASW D HRMM SECON CODA AMPLIT PERI AZIMU VELO AIN AR TRES W  DIS CAZ7
 LZ4  SZ E        1312 32.93                  261.2  9.1      8        1.14  74 
 LZ4  SN IP       1312 33.12                             177   -0.6310 1.14  74 
 LZ4  SE IS     D 1312 34.09                             177   -1.0010 1.14  74 
 LZ4  SZ  AML     1312 36.00        28.6 0.32                          1.14  74 
 LA4  SN IP       1312 35.67                             116    0.3310 17.5 350 
 LA4  SZ E        1312 35.84                  100.6 19.2    -69        17.5 350 
 LA4  SE IS       1312 39.13                             116    1.2910 17.5 350 
 LA4  SZ  AML     1312 39.23         6.3 0.24                          17.5 350 
                                                                                
 2008 10 2 1439 30.7 L  21.712 -99.284  0.0  RAL  3 0.6 1.4LRAL                1
 GAP=352       10.56      67.4    20.8 74.3  0.3041E+03 -0.1703E+01 -0.2910E+03E
 ACTION:UPD 12-06-08 11:37 OP:RALL STATUS:               ID:20081002143930     I
 2008-10-02-1439-20S.PLUR1_009                                                 6
 STAT SP IPHASW D HRMM SECON CODA AMPLIT PERI AZIMU VELO AIN AR TRES W  DIS CAZ7
 LA4  SN IP       1439 34.44                              93   -0.7310 25.4 186 
 LA4  SZ E        1439 34.47                    4.5  8.0      0        25.4 186 
 LA4  SE IS       1439 38.76                              93    0.3410 25.4 186 
 LA4  SZ  AML     1439 42.20        97.1 0.36                          25.4 186 
 LZ4  SZ E        1439 37.30                  322.2  8.0    -35        42.2 178 
 LZ4  SN IP       1439 37.33                              91   -0.7810 42.2 178 
 LZ4  SE IS       1439 43.70                              91    0.2010 42.2 178 
 LZ4  SZ  AML     1439 45.84       112.1 1.00                          42.2 178 
 LD5  SZ E        1439 40.06                   52.6 15.9     49        58.3 184 
 LD5  SN EP       1439 41.12                              63    0.4510 58.3 184 
 LD5  SE IS       1439 48.45                              63    0.5310 58.3 184 
 LD5  SZ  AML     1439 50.72         5.9 0.32                          58.3 184 
                                                                                
 2008 10 2 2310 46.8 L  21.699 -99.431  0.0  RAL  2 0.2 1.3LRAL                1
 GAP=354        2.88      27.1    15.7643.3 -0.3803E+03  0.6448E+04 -0.1167E+05E
 ACTION:UPD 12-06-08 11:37 OP:RALL STATUS:               ID:20081002231046     I
 2008-10-02-2310-37S.PLUR1_006                                                 6
 STAT SP IPHASW D HRMM SECON CODA AMPLIT PERI AZIMU VELO AIN AR TRES W  DIS CAZ7
 LA4  SZ E        2310 51.42                  339.0  6.9      7        27.0 152 
 LA4  SN EP       2310 51.46                              92   -0.0610 27.0 152 
 LA4  SE IS       2310 54.36                              92   -0.6110 27.0 152 
 LA4  SZ  AML     2310 55.13        47.9 0.60                          27.0 152 
 LZ4  SN IP       2310 55.01                              91    0.5010 44.0 158 
 LZ4  SZ E        2310 55.04                  326.2  9.4    -11        44.0 158 
 LZ4  SE IS       2311  0.29                              91    0.1610 44.0 158 
 LZ4  SZ  AML     2311  4.70        26.6 0.64                          44.0 158 
                                                                                
 2008 10 3 0230 23.0 L  21.332 -99.274 10.0  RAL  1 0.1 0.6LRAL                1
 GAP=360        0.43       2.5     0.1643.3 -0.2689E+02  0.6448E+04 -0.1167E+05E
 ACTION:UPD 12-06-08 11:37 OP:RALL STATUS:               ID:20081003023023     I
 2008-10-03-0230-11S.PLUR1_003                                                 6
 STAT SP IPHASW D HRMM SECON CODA AMPLIT PERI AZIMU VELO AIN AR TRES W  DIS CAZ7
 LZ4  SZ E         230 24.98                  282.9 12.1      0        0.44 104 
 LZ4  SN IP        230 25.04                             178    0.2310 0.44 104 
 LZ4  SE IS        230 25.92                             178   -0.2310 0.44 104 
 LZ4  SZ  AML      230 27.51        20.4 0.52                          0.44 104 
                                                                                
