 2008  8 1 0103 22.2 L  21.373 -99.311 13.8  RAL  2 0.0 0.5LRAL                1
 GAP=224        0.35       0.5     0.4  3.5 -0.1370E+00  0.1246E+00 -0.1602E+00E
 ACTION:UPD 12-06-08 11:37 OP:RALL STATUS:               ID:20080801010322     I
 2008-08-01-0103-17S.PLUR1_006                                                 6
 STAT SP IPHASW D HRMM SECON CODA AMPLIT PERI AZIMU VELO AIN AR TRES W  DIS CAZ7
 LZ4  SN IP        1 3 25.03                             156    0.1510 6.36 137 
 LZ4  SZ E         1 3 25.10                  316.7  8.5      0        6.36 137 
 LZ4  SE IS        1 3 26.82                             156    0.0110 6.36 137 
 LZ4  SZ  AML      1 3 27.62        15.0 0.40                          6.36 137 
 LA4  SZ E         1 3 25.28                  181.0 10.2      0        12.3   1 
 LA4  SN IP        1 3 25.30                             138   -0.1010 12.3   1 
 LA4  SE IS        1 3 27.64                             138   -0.0610 12.3   1 
 LA4  SZ  AML      1 3 29.78         9.2 0.60                          12.3   1 
                                                                                
 2008  8 1 0936 52.2 L  21.332 -99.273  9.7  RAL  2 0.2 0.6LRAL                1
 GAP=241        2.13      13.4     4.8 19.4 -0.4296E+02  0.4445E+02 -0.1740E+03E
 ACTION:UPD 12-06-08 11:37 OP:RALL STATUS:               ID:20080801093652     I
 2008-08-01-0936-44S.PLUR1_006                                                 6
 STAT SP IPHASW D HRMM SECON CODA AMPLIT PERI AZIMU VELO AIN AR TRES W  DIS CAZ7
 LZ4  SN IP        936 53.99                             179   -0.0310 0.35 107 
 LZ4  SZ E         936 54.01                  294.3  6.9      8        0.35 107 
 LZ4  SE IS        936 54.94                             179   -0.3910 0.35 107 
 LZ4  SZ  AML      936 55.03        64.9 0.16                          0.35 107 
 LA4  SN IP        936 55.72                             116    0.1110 17.2 347 
 LA4  SZ E         936 55.94                  160.9 10.2     -5        17.2 347 
 LA4  SE IS        936 58.38                             116    0.3110 17.2 347 
 LA4  SZ  AML      937  0.71         5.0 0.48                          17.2 347 
                                                                                
 2008  8 2 0140 24.7 L  21.667 -99.428  1.1  RAL  2 0.1 1.3LRAL                1
 GAP=353        1.38       9.5     6.2  9.4 -0.5187E+02  0.4967E+01 -0.5688E+01E
 ACTION:UPD 12-06-08 11:37 OP:RALL STATUS:               ID:20080802014024     I
 2008-08-02-0140-19S.PLUR1_006                                                 6
 STAT SP IPHASW D HRMM SECON CODA AMPLIT PERI AZIMU VELO AIN AR TRES W  DIS CAZ7
 LA4  SN IP        140 28.81                              97   -0.0510 23.7 149 
 LA4  SZ E         140 28.84                  325.3  9.0     -2        23.7 149 
 LA4  SE IS        140 32.08                              97    0.1810 23.7 149 
 LA4  SZ  AML      140 32.98        71.5 0.28                          23.7 149 
 LZ4  SN IP        140 31.64                              63   -0.1710 40.6 156 
 LZ4  SZ E         140 31.78                  341.7  8.2      6        40.6 156 
 LZ4  SE IS        140 37.03                              63    0.0310 40.6 156 
 LZ4  SZ  AML      140 40.17        21.4 0.60                          40.6 156 
                                                                                
 2008  8 2 0711 10.8 L  21.708 -99.499  0.0  RAL  2 0.2 1.5LRAL                1
 GAP=351        2.64      17.3    14.0 21.1 -0.2001E+03  0.1271E+02  0.9885E+00E
 ACTION:UPD 12-06-08 11:37 OP:RALL STATUS:               ID:20080802071110     I
 2008-08-02-0711-07S.PLUR1_006                                                 6
 STAT SP IPHASW D HRMM SECON CODA AMPLIT PERI AZIMU VELO AIN AR TRES W  DIS CAZ7
 LA4  SN IP        711 16.47                              92    0.1410 31.7 142 
 LA4  SZ E         711 16.50                  328.4  7.6      7        31.7 142 
 LA4  SE IS        711 19.70                              92   -0.6710 31.7 142 
 LA4  SZ  AML      711 20.61        84.5 0.28                          31.7 142 
 LZ4  SN IP        711 19.38                              63    0.2510 48.1 150 
 LZ4  SZ E         711 19.89                  320.2  7.8     -9        48.1 150 
 LZ4  SE IS        711 25.50                              63    0.2810 48.1 150 
 LZ4  SZ  AML      711 27.79        25.4 0.56                          48.1 150 
                                                                                
 2008  8 2 0729 28.6 L  21.671 -99.462 10.0  RAL  1 0.0 1.3LRAL                1
 GAP=360        0.30       3.1     2.6  0.0 -0.7520E+01  0.1271E+02  0.9885E+00E
 ACTION:UPD 12-06-08 11:37 OP:RALL STATUS:               ID:20080802072928     I
 2008-08-02-0729-24S.PLUR1_006                                                 6
 STAT SP IPHASW D HRMM SECON CODA AMPLIT PERI AZIMU VELO AIN AR TRES W  DIS CAZ7
 LA4  SN IP        729 33.25                             107    0.0010 26.1 143 
 LA4  SZ E         729 33.35                  322.6  7.4      0        26.1 143 
 LA4  SE IS        729 36.65                             107    0.0010 26.1 143 
 LA4  SZ  AML      729 37.42        39.5 0.28                          26.1 143 
                                                                                
 2008  8 2 0834 48.8 L  21.719 -99.506  5.2  RAL  2 0.3 1.1LRAL                1
 GAP=352        1.91      55.4    42.6135.0 -0.2339E+04 -0.5559E+04  0.7254E+04E
 ACTION:UPD 12-06-08 11:37 OP:RALL STATUS:               ID:20080802083448     I
 2008-08-02-0834-47S.PLUR1_006                                                 6
 STAT SP IPHASW D HRMM SECON CODA AMPLIT PERI AZIMU VELO AIN AR TRES W  DIS CAZ7
 LA4  SZ E         834 54.16                  325.2  7.4      3        33.1 142 
 LA4  SN IP        834 54.22                              63   -0.2610 33.1 142 
 LA4  SE IS        834 57.63                              63   -0.9610 33.1 142 
 LA4  SZ  AML      834 58.40        26.4 0.36                          33.1 142 
 LZ4  SN E         834 57.46                  324.7 10.4     -5        49.5 150 
 LZ4  SN IP        834 57.59                              63    0.5810 49.5 150 
 LZ4  SE IS        835  3.61                              63    0.6310 49.5 150 
 LZ4  SN  AML      835  3.98        10.6 0.52                          49.5 150 
                                                                                
 2008  8 3 0121 57.2 L  22.401 -99.540  0.3  RAL  2 0.3 2.1LRAL                1
 GAP=360        4.44     999.9   999.9999.9 -0.8106E+09 -0.1610E+10  0.6297E+10E
 ACTION:UPD 12-06-08 11:37 OP:RALL STATUS:               ID:20080803012157     I
 2008-08-03-0122-05S.PLUR1_006                                                 6
 STAT SP IPHASW D HRMM SECON CODA AMPLIT PERI AZIMU VELO AIN AR TRES W  DIS CAZ7
 LA4  SN IP        122 14.13                              63   -0.1210  104 167 
 LA4  SZ E         122 14.27                    0.9  8.0     14         104 167 
 LA4  SE IS        122 26.61                              63   -0.1010  104 167 
 LA4  SZ  AML      122 32.77        51.8 0.40                           104 167 
 LZ4  SN IP        122 17.07                              63    0.1210  122 167 
 LZ4  SZ E         122 17.25                  330.3  8.2    -15         122 167 
 LZ4  SE IS        122 31.47                              63    0.1010  122 167 
 LZ4  SZ  AML      122 35.10        86.1 0.28                           122 167 
                                                                                
 2008  8 3 0253 14.9 L  21.481 -99.302 26.8  RAL  2 0.9 0.9LRAL                1
 GAP=238       11.10     133.4    30.8128.8 -0.3396E+04  0.1528E+03 -0.8212E+03E
 ACTION:UPD 12-06-08 11:37 OP:RALL STATUS:               ID:20080803025314     I
 2008-08-03-0253-10S.PLUR1_006                                                 6
 STAT SP IPHASW D HRMM SECON CODA AMPLIT PERI AZIMU VELO AIN AR TRES W  DIS CAZ7
 LA4  SN IP        253 20.86                             178    1.5610 0.74 290 
 LA4  SZ E         253 21.67                  111.4  9.8      1        0.74 290 
 LA4  SE IS        253 24.21                             178    1.7010 0.74 290 
 LA4  SZ  AML      253 24.46         3.9 0.16                          0.74 290 
 LZ4  SN IP        253 19.79                             156   -0.2410 17.0 168 
 LZ4  SZ E         253 19.80                  297.6  9.2    -50        17.0 168 
 LZ4  SE IS        253 20.76                             156   -3.0210 17.0 168 
 LZ4  SZ  AML      253 20.88        65.0 0.12                          17.0 168 
                                                                                
 2008  8 3  526 19.1 L                       RAL  0                            1
 ACTION:UPD 12-06-08 11:37 OP:RALL STATUS:               ID:20080803052619     I
 2008-08-03-0526-19S.PLUR1_006                                                 6
 STAT SP IPHASW D HRMM SECON CODA AMPLIT PERI AZIMU VELO AIN AR TRES W  DIS CAZ7
                                                                                
 2008  8 4 0149  3.4 R  22.483 -99.421 12.3  RAL  2 0.1 2.3LRAL                1
 GAP=359        1.00       9.2     7.9  6.6 -0.4105E+01  0.4830E+00 -0.1400E+02E
 ACTION:UPD 12-06-08 11:37 OP:RALL STATUS:               ID:20080804014903     I
 2008-08-04-0149-12S.PLUR1_006                                                 6
 STAT SP IPHASW D HRMM SECON CODA AMPLIT PERI AZIMU VELO AIN AR TRES W  DIS CAZ7
 LA4  SN IP        149 20.90                              94   -0.2610  111 174 
 LA4  SZ E         149 20.93                  356.8  9.6      3         111 174 
 LA4  SE IS        149 34.31                              94    0.1510  111 174 
 LA4  SZ  AML      149 35.97        70.9 0.24                           111 174 
 LZ4  SZ E         149 23.77                  349.9  9.0     -2         128 173 
 LZ4  SN IP        149 23.81                              52    0.2610  128 173 
 LZ4  SE IS        149 38.15                              52   -0.1410  128 173 
 LZ4  SZ  AML      149 41.66       152.1 0.36                           128 173 
                                                                                
 2008  8 4 0406 26.8 L  21.669 -99.219 10.0  RAL  1 0.0 0.7LRAL                1
 GAP=360        0.30       3.6     1.8  0.0  0.6144E+01  0.4830E+00 -0.1400E+02E
 ACTION:UPD 12-06-08 11:37 OP:RALL STATUS:               ID:20080804040626     I
 2008-08-04-0406-24S.PLUR1_006                                                 6
 STAT SP IPHASW D HRMM SECON CODA AMPLIT PERI AZIMU VELO AIN AR TRES W  DIS CAZ7
 LA4  SZ E         4 6 30.85                   24.3 22.6      0        22.5 204 
 LA4  SN IP        4 6 30.96                             111    0.0010 22.5 204 
 LA4  SE IS        4 6 33.98                             111    0.0010 22.5 204 
 LA4  SZ  AML      4 6 36.40        13.1 0.48                          22.5 204 
                                                                                
 2008  8 5 0139  5.2 L  22.473 -98.896  0.0  RAL  3 0.8 2.5LRAL                1
 GAP=356       13.97     110.4   100.3138.5  0.1027E+04  0.1802E+04  0.6648E+04E
 ACTION:UPD 12-06-08 11:37 OP:RALL STATUS:               ID:20080805013905     I
 2008-08-05-0139-15S.PLUR1_009                                                 6
 STAT SP IPHASW D HRMM SECON CODA AMPLIT PERI AZIMU VELO AIN AR TRES W  DIS CAZ7
 LA4  SN IP        139 23.72                              63   -0.5910  118 201 
 LA4  SZ E         139 24.09                   25.8 12.5      5         118 201 
 LA4  SE IS        139 36.62                              63   -1.6610  118 201 
 LA4  SZ  AML      139 38.87       112.3 0.28                           118 201 
 LZ4  SN IP        139 26.71                              63    0.1310  132 197 
 LZ4  SZ E         139 26.85                  322.6  8.1     54         132 197 
 LZ4  SE IS        139 42.14                              63   -0.0710  132 197 
 LZ4  SZ  AML      139 44.73       388.4 0.44                           132 197 
 LD5  SN IP        139 29.49                              44    0.3010  149 197 
 LD5  SZ E         139 29.60                   75.1  9.2     58         149 197 
 LD5  SE IS        139 48.63                              44    1.9010  149 197 
 LD5  SZ  AML      139 49.15        51.7 0.48                           149 197 
                                                                                
 2008  8 5 1550 14.7 L  21.332 -99.281  4.8  RAL  2 0.1 0.4LRAL                1
 GAP=252        0.90       0.4     1.4  5.0  0.3055E+00  0.4997E+00 -0.2192E-02E
 ACTION:UPD 12-06-08 11:37 OP:RALL STATUS:               ID:20080805155014     I
 2008-08-05-1550-06S.PLUR1_006                                                 6
 STAT SP IPHASW D HRMM SECON CODA AMPLIT PERI AZIMU VELO AIN AR TRES W  DIS CAZ7
 LZ4  SZ E        1550 15.24                  280.8 12.1      2        1.17  98 
 LZ4  SN IP       1550 15.34                             169   -0.3610 1.17  98 
 LZ4  SE IS       1550 16.56                             169    0.1110 1.17  98 
 LZ4  SZ  AML     1550 16.99        62.3 0.48                          1.17  98 
 LA4  SZ E        1550 17.22                  170.3 10.7      0        17.0 350 
 LA4  SN IP       1550 17.55                             109   -0.2610 17.0 350 
 LA4  SE IS       1550 20.63                             109    0.5210 17.0 350 
 LA4  SZ  AML     1550 21.15         4.3 0.28                          17.0 350 
                                                                                
 2008  8 6 2047 53.0 L  22.067 -99.821  5.6  RAL  2 0.2 1.6LRAL                1
 GAP=356        3.20      60.9    54.1999.9 -0.2946E+04  0.4430E+06 -0.5078E+06E
 ACTION:UPD 12-06-08 11:37 OP:RALL STATUS:               ID:20080806204753     I
 2008-08-06-2047-57S.PLUR1_006                                                 6
 STAT SP IPHASW D HRMM SECON CODA AMPLIT PERI AZIMU VELO AIN AR TRES W  DIS CAZ7
 LA4  SZ E        2048  6.27                  330.0  8.6      9        83.5 141 
 LA4  SN IP       2048  6.30                              90   -0.1910 83.5 141 
 LA4  SE IS       2048 15.71                              90   -0.6110 83.5 141 
 LA4  SZ  AML     2048 16.35        29.8 0.28                          83.5 141 
 LZ4  SN IP       2048  9.26                              90    0.3010 99.5 145 
 LZ4  SZ E        2048  9.45                  313.3  7.6    -11        99.5 145 
 LZ4  SE IS       2048 21.09                              90    0.4910 99.5 145 
 LZ4  SZ  AML     2048 24.26        20.3 0.56                          99.5 145 
                                                                                
 2008  8 7 0343 24.4 L  21.602 -99.411  1.8  RAL  3 0.5 1.8LRAL                1
 GAP=333        7.66      16.0    17.5 26.3 -0.2696E+03  0.3635E+02 -0.2628E+02E
 ACTION:UPD 12-06-08 11:37 OP:RALL STATUS:               ID:20080807034324     I
 2008-08-07-0343-17S.PLUR1_009                                                 6
 STAT SP IPHASW D HRMM SECON CODA AMPLIT PERI AZIMU VELO AIN AR TRES W  DIS CAZ7
 LA4  SZ E         343 26.42                  311.9  8.7     -8        16.8 141 
 LA4  SN IP        343 26.43                             136   -0.9910 16.8 141 
 LA4  SE IS        343 29.88                             136    0.2810 16.8 141 
 LA4  SZ  AML      343 30.58       590.2 0.32                          16.8 141 
 LZ4  SN IP        343 29.72                             103   -0.5810 33.4 154 
 LZ4  SZ E         343 29.84                  324.6  7.6     -8        33.4 154 
 LZ4  SE IS        343 35.51                             103    0.9310 33.4 154 
 LZ4  SZ  AML      343 36.02       203.0 0.40                          33.4 154 
 LD5  SN IP        343 32.08                              63   -0.3910 46.9 168 
 LD5  SZ E         343 32.10                   29.8 15.7     41        46.9 168 
 LD5  SE IS        343 39.07                              63    0.7410 46.9 168 
 LD5  SZ  AML      343 41.24        13.9 0.36                          46.9 168 
                                                                                
 2008  8 7 0550 55.1 L  21.144 -99.223  0.0  RAL  2 0.1 0.7LRAL                1
 GAP=360        2.07      22.5     6.6415.8 -0.1235E+03 -0.1657E+04  0.6642E+04E
 ACTION:UPD 12-06-08 11:37 OP:RALL STATUS:               ID:20080807055055     I
 2008-08-07-0550-50S.PLUR1_006                                                 6
 STAT SP IPHASW D HRMM SECON CODA AMPLIT PERI AZIMU VELO AIN AR TRES W  DIS CAZ7
 LZ4  SZ E         550 58.68                  171.7 12.4      5        21.2 347 
 LZ4  SN IP        550 58.68                              93   -0.1010 21.2 347 
 LZ4  SE IS        551  1.27                              93   -0.2210 21.2 347 
 LZ4  SZ  AML      551  1.94        25.4 0.64                          21.2 347 
 LA4  SZ E         551  1.59                  158.0 11.3     -8        38.6 347 
 LA4  SN IP        551  1.91                              92    0.0910 38.6 347 
 LA4  SE IS        551  6.98                              92    0.2310 38.6 347 
 LA4  SZ  AML      551  8.81         4.1 0.40                          38.6 347 
                                                                                
 2008  8 7 1012 23.4 L  21.667 -99.490  0.0  RAL  2 0.2 1.0LRAL                1
 GAP=349        1.11       8.7     8.1252.6 -0.6458E+02  0.1365E+04 -0.1452E+04E
 ACTION:UPD 12-06-08 11:37 OP:RALL STATUS:               ID:20080807101223     I
 2008-08-07-1012-20S.PLUR1_006                                                 6
 STAT SP IPHASW D HRMM SECON CODA AMPLIT PERI AZIMU VELO AIN AR TRES W  DIS CAZ7
 LA4  SN IP       1012 27.93                              92   -0.3510 27.6 137 
 LA4  SZ E        1012 27.98                  318.3  8.0      1        27.6 137 
 LA4  SE IS       1012 31.26                              92   -0.5410 27.6 137 
 LA4  SZ  AML     1012 32.89        23.1 0.40                          27.6 137 
 LZ4  SZ E        1012 31.45                  326.0 10.1     -1        43.6 148 
 LZ4  SN IP       1012 31.45                              91    0.3710 43.6 148 
 LZ4  SE IS       1012 37.16                              91    0.5110 43.6 148 
 LZ4  SZ  AML     1012 39.88        15.1 0.40                          43.6 148 
                                                                                
 2008  8 8 0352 47.2 L  21.797 -99.465  0.9  RAL  2 0.1 0.6LRAL                1
 GAP=356        0.97       7.2     4.3  7.6 -0.2150E+02  0.1113E+01 -0.4239E+00E
 ACTION:UPD 12-06-08 11:37 OP:RALL STATUS:               ID:20080808035247     I
 2008-08-08-0352-49S.PLUR1_006                                                 6
 STAT SP IPHASW D HRMM SECON CODA AMPLIT PERI AZIMU VELO AIN AR TRES W  DIS CAZ7
 LA4  SZ E         352 53.91                  332.6 11.4     -1        38.2 155 
 LA4  SN IP        352 53.97                              92    0.1210 38.2 155 
 LA4  SE IS        352 58.65                              92   -0.0910 38.2 155 
 LA4  SZ  AML      352 58.79         3.1 0.32                          38.2 155 
 LZ4  SN IP        352 56.42                              63   -0.1610 55.4 159 
 LZ4  SN E         352 56.45                  342.2 13.3      4        55.4 159 
 LZ4  SE IS        353  3.59                              63    0.1310 55.4 159 
 LZ4  SN  AML      353  4.07         9.2 0.16                          55.4 159 
                                                                                
