 2009  1 6 2136 52.5 L  21.331 -99.248 10.0  RAL  1 0.0 0.7LRAL                1
 GAP=360        0.30     999.9   273.8  0.0 -0.5648E+07  0.6071E+01 -0.9488E+01E
 ACTION:UPD 12-06-08 11:37 OP:RALL STATUS:               ID:20090106213652     I
 2009-01-06-2136-46S.PLUR1_003                                                 6
 STAT SP IPHASW D HRMM SECON CODA AMPLIT PERI AZIMU VELO AIN AR TRES W  DIS CAZ7
 LZ4  SN IP       2136 54.42                             168    0.0210 2.27 269 
 LZ4  SZ E        2136 54.47                   89.3 38.5      0        2.27 269 
 LZ4  SE IS       2136 55.74                             168   -0.0210 2.27 269 
 LZ4  SZ  AML     2136 56.14        28.7 0.14                          2.27 269 
                                                                                
 2009  1 7 0328 50.0 L  21.262 -99.404 10.0  RAL  1 0.0 0.4LRAL                1
 GAP=360        0.30       3.6     1.7  0.0  0.5409E+01  0.6071E+01 -0.9488E+01E
 ACTION:UPD 12-06-08 11:37 OP:RALL STATUS:               ID:20090107032850     I
 2009-01-07-0328-44S.PLUR1_003                                                 6
 STAT SP IPHASW D HRMM SECON CODA AMPLIT PERI AZIMU VELO AIN AR TRES W  DIS CAZ7
 LA4  SZ E         328 54.73                  201.9 12.5      0        26.5  22 
 LA4  SN IP        328 54.79                             107    0.0210 26.5  22 
 LA4  SE IS        328 58.20                             107   -0.0210 26.5  22 
 LA4  SZ  AML      328 59.19         5.8 0.40                          26.5  22 
                                                                                
 2009  1 7 0509 21.0 L  21.252 -99.216 10.0  RAL  1 0.0 0.7LRAL                1
 GAP=360        0.30       4.3     2.9  0.0 -0.1254E+02  0.6071E+01 -0.9488E+01E
 ACTION:UPD 12-06-08 11:37 OP:RALL STATUS:               ID:20090107050921     I
 2009-01-07-0509-13S.PLUR1_003                                                 6
 STAT SP IPHASW D HRMM SECON CODA AMPLIT PERI AZIMU VELO AIN AR TRES W  DIS CAZ7
 LZ4  SZ E         5 9 23.51                  147.6 18.6      0        10.4 328 
 LZ4  SN IP        5 9 23.52                             133    0.0110 10.4 328 
 LZ4  SE IS        5 9 25.33                             133   -0.0110 10.4 328 
 LZ4  SZ  AML      5 9 26.42        22.0 0.36                          10.4 328 
                                                                                
 2009  1 7 0926 27.1 L  21.273 -99.231 10.0  RAL  1 0.0 0.8LRAL                1
 GAP=360        0.30       5.2     3.5  0.0 -0.1835E+02  0.6071E+01 -0.9488E+01E
 ACTION:UPD 12-06-08 11:37 OP:RALL STATUS:               ID:20090107092627     I
 2009-01-07-0926-21S.PLUR1_003                                                 6
 STAT SP IPHASW D HRMM SECON CODA AMPLIT PERI AZIMU VELO AIN AR TRES W  DIS CAZ7
 LZ4  SZ E         926 29.28                  148.0 22.8      0        7.57 328 
 LZ4  SN IP        926 29.29                             143    0.0210 7.57 328 
 LZ4  SE IS        926 30.87                             143   -0.0210 7.57 328 
 LZ4  SZ  AML      926 30.93        27.2 0.10                          7.57 328 
                                                                                
 2009  1 7 1015 50.8 L  21.345 -99.298 10.0  RAL  1 0.1 0.4LRAL                1
 GAP=360        0.40       7.7    15.5  0.0 -0.1194E+03  0.6071E+01 -0.9488E+01E
 ACTION:UPD 12-06-08 11:37 OP:RALL STATUS:               ID:20090107101550     I
 2009-01-07-1015-44S.PLUR1_003                                                 6
 STAT SP IPHASW D HRMM SECON CODA AMPLIT PERI AZIMU VELO AIN AR TRES W  DIS CAZ7
 LZ4  SZ E        1015 52.75                  298.2 13.6      0        3.30 118 
 LZ4  SN IP       1015 52.85                             162    0.1810 3.30 118 
 LZ4  SE IS       1015 53.88                             162   -0.1810 3.30 118 
 LZ4  SZ  AML     1015 54.11        14.5 0.18                          3.30 118 
                                                                                
 2009  1 7 1558 41.4 L  21.299 -99.253 10.0  RAL  1 0.1 0.8LRAL                1
 GAP=360        0.36      11.3     5.7  0.0 -0.6452E+02  0.6071E+01 -0.9488E+01E
 ACTION:UPD 12-06-08 11:37 OP:RALL STATUS:               ID:20090107155841     I
 2009-01-07-1558-34S.PLUR1_003                                                 6
 STAT SP IPHASW D HRMM SECON CODA AMPLIT PERI AZIMU VELO AIN AR TRES W  DIS CAZ7
 LZ4  SZ E        1558 43.41                  154.8  9.0      0        3.90 335 
 LZ4  SN IP       1558 43.44                             159    0.1310 3.90 335 
 LZ4  SE IS       1558 44.59                             159   -0.1310 3.90 335 
 LZ4  SZ  AML     1558 45.11        32.9 0.28                          3.90 335 
                                                                                
 2009  1 7 1617  4.2 L  21.640 -99.337 10.0  RAL  1 0.0 1.5LRAL                1
 GAP=360        0.30       4.1     0.9  0.0 -0.3007E+01  0.6071E+01 -0.9488E+01E
 ACTION:UPD 12-06-08 11:37 OP:RALL STATUS:               ID:20090107161704     I
 2009-01-07-1616-53S.PLUR1_003                                                 6
 STAT SP IPHASW D HRMM SECON CODA AMPLIT PERI AZIMU VELO AIN AR TRES W  DIS CAZ7
 LA4  SZ E        1617  7.63                  350.6  9.4      0        17.5 171 
 LA4  SN IP       1617  7.66                             117    0.0210 17.5 171 
 LA4  SE IS       1617 10.12                             117   -0.0210 17.5 171 
 LA4  SZ  AML     1617 10.18        92.6 0.26                          17.5 171 
                                                                                
 2009  1 7 1803 35.2 L  21.277 -99.239 10.0  RAL  1 0.0 0.6LRAL                1
 GAP=360        0.30       5.9     3.3  0.0 -0.1975E+02  0.6071E+01 -0.9488E+01E
 ACTION:UPD 12-06-08 11:37 OP:RALL STATUS:               ID:20090107180335     I
 2009-01-07-1803-29S.PLUR1_003                                                 6
 STAT SP IPHASW D HRMM SECON CODA AMPLIT PERI AZIMU VELO AIN AR TRES W  DIS CAZ7
 LZ4  SZ E        18 3 37.28                  152.3 23.8      0        6.76 332 
 LZ4  SN IP       18 3 37.39                             146    0.0210 6.76 332 
 LZ4  SE IS       18 3 38.91                             146   -0.0210 6.76 332 
 LZ4  SZ  AML     18 3 39.29        20.3 0.22                          6.76 332 
                                                                                
 2009  1 7 2319 45.0 L  21.670 -99.483 10.0  RAL  1 0.0 1.7LRAL                1
 GAP=360        0.30       2.9     2.8  0.0 -0.7612E+01  0.6071E+01 -0.9488E+01E
 ACTION:UPD 12-06-08 11:37 OP:RALL STATUS:               ID:20090107231945     I
 2009-01-07-2319-35S.PLUR1_003                                                 6
 STAT SP IPHASW D HRMM SECON CODA AMPLIT PERI AZIMU VELO AIN AR TRES W  DIS CAZ7
 LA4  SZ E        2319 49.90                  318.9 11.2      0        27.4 139 
 LA4  SN IP       2319 49.90                             106    0.0010 27.4 139 
 LA4  SE IS       2319 53.44                             106    0.0010 27.4 139 
 LA4  SZ  AML     2319 56.59       101.9 0.48                          27.4 139 
                                                                                
 2009  1 8 0222 18.8 L  21.601 -99.331 10.0  RAL  1 0.0 0.4LRAL                1
 GAP=360        0.30       4.5     0.9  0.0 -0.3857E+01  0.6071E+01 -0.9488E+01E
 ACTION:UPD 12-06-08 11:37 OP:RALL STATUS:               ID:20090108022218     I
 2009-01-08-0222-09S.PLUR1_003                                                 6
 STAT SP IPHASW D HRMM SECON CODA AMPLIT PERI AZIMU VELO AIN AR TRES W  DIS CAZ7
 LA4  SN IP        222 21.66                             126    0.0010 13.2 170 
 LA4  SZ E         222 21.67                  349.9  7.6      0        13.2 170 
 LA4  SE IS        222 23.74                             126    0.0010 13.2 170 
 LA4  SZ  AML      222 23.97         8.0 0.30                          13.2 170 
                                                                                
 2009  1 8 0315 56.1 L  21.367 -99.299 28.0  RAL  2 0.2 0.6LRAL                1
 GAP=212        1.75       3.5     2.9 17.1 -0.9802E+01  0.8719E+00 -0.1066E+01E
 ACTION:UPD 12-06-08 11:37 OP:RALL STATUS:               ID:20090108031556     I
 2009-01-08-0315-50S.PLUR1_006                                                 6
 STAT SP IPHASW D HRMM SECON CODA AMPLIT PERI AZIMU VELO AIN AR TRES W  DIS CAZ7
 LZ4  SZ E         316  1.12                  321.2 11.3     -1        5.01 143 
 LZ4  SN IP        316  1.14                             173    0.3910 5.01 143 
 LZ4  SE IS        316  4.74                             173    0.6310 5.01 143 
 LZ4  SZ  AML      316  4.80        10.3 0.32                          5.01 143 
 LA4  SZ E         316  0.75                  168.9 13.3     -5        12.9 355 
 LA4  SN IP        316  0.81                             153   -0.3110 12.9 355 
 LA4  SE IS        316  4.06                             153   -0.7110 12.9 355 
 LA4  SZ  AML      316  5.44         5.2 0.52                          12.9 355 
                                                                                
 2009  1 8 0332 49.7 L  21.266 -99.205 10.0  RAL  1 0.0 0.8LRAL                1
 GAP=360        0.30       3.8     3.9  0.0 -0.1476E+02  0.8719E+00 -0.1066E+01E
 ACTION:UPD 12-06-08 11:37 OP:RALL STATUS:               ID:20090108033249     I
 2009-01-08-0332-43S.PLUR1_003                                                 6
 STAT SP IPHASW D HRMM SECON CODA AMPLIT PERI AZIMU VELO AIN AR TRES W  DIS CAZ7
 LZ4  SZ E         332 52.14                  136.8 22.5      0        9.82 317 
 LZ4  SN IP        332 52.16                             135    0.0210 9.82 317 
 LZ4  SE IS        332 53.91                             135   -0.0210 9.82 317 
 LZ4  SZ  AML      332 54.40        25.3 0.16                          9.82 317 
                                                                                
 2009  1 8 0706 22.9 L  21.275 -99.239 10.0  RAL  1 0.1 0.2LRAL                1
 GAP=360        0.57     999.9   137.8  0.0  0.1432E+06  0.8719E+00 -0.1066E+01E
 ACTION:UPD 12-06-08 11:37 OP:RALL STATUS:               ID:20090108070622     I
 2009-01-08-0706-15S.PLUR1_003                                                 6
 STAT SP IPHASW D HRMM SECON CODA AMPLIT PERI AZIMU VELO AIN AR TRES W  DIS CAZ7
 LG3  SZ E         7 6 25.11                   95.0 35.0      1        1.44 274 
 LG3  SN IP        7 6 25.12                             172    0.3110 1.44 274 
 LG3  SE IS        7 6 25.87                             172   -0.3110 1.44 274 
 LG3  SZ  AML      7 6 25.93         7.9 0.10                          1.44 274 
                                                                                
 2009  1 8 1430 16.8 L  21.256 -99.228 10.0  RAL  1 0.1 0.2LRAL                1
 GAP=360        0.57      15.1    18.8  0.0 -0.2826E+03  0.8719E+00 -0.1066E+01E
 ACTION:UPD 12-06-08 11:37 OP:RALL STATUS:               ID:20090108143016     I
 2009-01-08-1430-10S.PLUR1_003                                                 6
 STAT SP IPHASW D HRMM SECON CODA AMPLIT PERI AZIMU VELO AIN AR TRES W  DIS CAZ7
 LG3  SZ E        1430 18.99                  130.7 34.8      0        3.33 311 
 LG3  SN IP       1430 19.02                             162    0.3310 3.33 311 
 LG3  SE IS       1430 19.78                             162   -0.3310 3.33 311 
 LG3  SZ  AML     1430 20.55         9.1 0.40                          3.33 311 
                                                                                
 2009  1 8 1808 54.4 L  21.254 -99.254 10.0  RAL  1 0.2 1.0LRAL                1
 GAP=360        0.93      17.5   701.9  0.0  0.1227E+05  0.8719E+00 -0.1066E+01E
 ACTION:UPD 12-06-08 11:37 OP:RALL STATUS:               ID:20090108180854     I
 2009-01-08-1808-47S.PLUR1_003                                                 6
 STAT SP IPHASW D HRMM SECON CODA AMPLIT PERI AZIMU VELO AIN AR TRES W  DIS CAZ7
 LG3  SZ E        18 8 56.88                  182.8 11.1      0        2.42   3 
 LG3  SN IP       18 8 56.91                             167    0.6010 2.42   3 
 LG3  SE IS       18 8 57.10                             167   -0.6010 2.42   3 
 LG3  SZ  AML     18 8 57.33        59.1 0.10                          2.42   3 
                                                                                
 2009  1 8 2213 50.2 L  21.340 -99.242 10.0  RAL  1 0.0 0.4LRAL                1
 GAP=360        0.35       5.0    15.7  0.0  0.7792E+02  0.8719E+00 -0.1066E+01E
 ACTION:UPD 12-06-08 11:37 OP:RALL STATUS:               ID:20090108221350     I
 2009-01-08-2213-44S.PLUR1_003                                                 6
 STAT SP IPHASW D HRMM SECON CODA AMPLIT PERI AZIMU VELO AIN AR TRES W  DIS CAZ7
 LZ4  SZ E        2213 52.18                   71.2 83.0      0        3.05 251 
 LZ4  SN IP       2213 52.26                             163    0.1310 3.05 251 
 LZ4  SE IS       2213 53.39                             163   -0.1310 3.05 251 
 LZ4  SZ  AML     2213 54.47        12.5 0.50                          3.05 251 
                                                                                
 2009  1 8 2328 29.6 L  21.342 -99.267 10.0  RAL  1 0.1 0.9LRAL                1
 GAP=360        0.43     999.9   999.9  0.0 -0.2168E+08  0.8719E+00 -0.1066E+01E
 ACTION:UPD 12-06-08 11:37 OP:RALL STATUS:               ID:20090108232829     I
 2009-01-08-2328-22S.PLUR1_003                                                 6
 STAT SP IPHASW D HRMM SECON CODA AMPLIT PERI AZIMU VELO AIN AR TRES W  DIS CAZ7
 LZ4  SZ E        2328 31.64                   13.9 26.0      0        1.22 194 
 LZ4  SN IP       2328 31.65                             173    0.2010 1.22 194 
 LZ4  SE IS       2328 32.59                             173   -0.2010 1.22 194 
 LZ4  SZ  AML     2328 32.67        45.0 0.10                          1.22 194 
                                                                                
 2009  1 9 0134  9.7 L  21.712 -99.445  4.0  RAL  2 0.3 2.4LRAL                1
 GAP=354        3.47     147.9    83.2327.3 -0.1223E+05 -0.2668E+05  0.4760E+05E
 ACTION:UPD 12-06-08 11:37 OP:RALL STATUS:               ID:20090109013409     I
 2009-01-09-0134-00S.PLUR1_006                                                 6
 STAT SP IPHASW D HRMM SECON CODA AMPLIT PERI AZIMU VELO AIN AR TRES W  DIS CAZ7
 LA4  SZ E         134 14.48                  339.3  8.6      8        28.9 151 
 LA4  SN IP        134 14.52                              63   -0.2010 28.9 151 
 LA4  SE IS        134 17.88                              63   -0.5410 28.9 151 
 LA4  SZ  AML      134 19.65       660.2 0.32                          28.9 151 
 LZ4  SN IP        134 18.10                              63    0.7510 45.9 157 
 LZ4  SZ E         134 18.11                  322.8  7.5    -13        45.9 157 
 LZ4  SE IS        134 22.96                              63   -0.0110 45.9 157 
 LZ4  SZ  AML      134 23.57       288.3 0.18                          45.9 157 
                                                                                
 2009  1 9 0148 10.4 L  21.679 -99.434 10.0  RAL  1 0.0 0.5LRAL                1
 GAP=360        0.30       3.3     2.2  0.0 -0.6949E+01 -0.2668E+05  0.4760E+05E
 ACTION:UPD 12-06-08 11:37 OP:RALL STATUS:               ID:20090109014810     I
 2009-01-09-0148-03S.PLUR1_003                                                 6
 STAT SP IPHASW D HRMM SECON CODA AMPLIT PERI AZIMU VELO AIN AR TRES W  DIS CAZ7
 LA4  SZ E         148 14.82                  329.1 11.6      0        25.1 149 
 LA4  SN IP        148 14.88                             108    0.0010 25.1 149 
 LA4  SE IS        148 18.18                             108    0.0010 25.1 149 
 LA4  SZ  AML      148 18.75         7.0 0.50                          25.1 149 
                                                                                
 2009  1 9 0217  3.2 L  21.656 -99.423 10.0  RAL  1 0.0 0.5LRAL                1
 GAP=360        0.30       3.4     2.3  0.0 -0.7333E+01 -0.2668E+05  0.4760E+05E
 ACTION:UPD 12-06-08 11:37 OP:RALL STATUS:               ID:20090109021703     I
 2009-01-09-0216-55S.PLUR1_003                                                 6
 STAT SP IPHASW D HRMM SECON CODA AMPLIT PERI AZIMU VELO AIN AR TRES W  DIS CAZ7
 LA4  SZ E         217  7.23                  328.3 11.6      0        22.4 148 
 LA4  SN IP        217  7.33                             111    0.0010 22.4 148 
 LA4  SE IS        217 10.34                             111    0.0010 22.4 148 
 LA4  SZ  AML      217 13.70         8.0 0.42                          22.4 148 
                                                                                
 2009  1 9 0944  0.6 R  22.042 -99.530 10.0  RAL  1 0.0 1.3LRAL                1
 GAP=360        0.30       3.5     2.2  0.0 -0.3817E+01 -0.2668E+05  0.4760E+05E
 ACTION:UPD 12-06-08 11:37 OP:RALL STATUS:               ID:20090109094400     I
 2009-01-09-0944-02S.PLUR1_009                                                 6
 STAT SP IPHASW D HRMM SECON CODA AMPLIT PERI AZIMU VELO AIN AR TRES W  DIS CAZ7
 LA4  SZ E         944 11.31                  339.8  8.5      0        65.9 160 
 LA4  SN IP        944 11.37                              95    0.0110 65.9 160 
 LA4  SE IS        944 19.21                              95   -0.0110 65.9 160 
 LA4  SZ  AML      944 23.18        18.0 0.38                          65.9 160 
                                                                                
 2009  1 9 1118 20.8 L  21.708 -99.429 10.0  RAL  1 0.0 1.6LRAL                1
 GAP=360        0.30       3.5     1.9  0.0 -0.4670E+01 -0.2668E+05  0.4760E+05E
 ACTION:UPD 12-06-08 11:37 OP:RALL STATUS:               ID:20090109111820     I
 2009-01-09-1118-18S.PLUR1_003                                                 6
 STAT SP IPHASW D HRMM SECON CODA AMPLIT PERI AZIMU VELO AIN AR TRES W  DIS CAZ7
 LZ4  SZ E        1118 28.19                  338.4  8.2      0        44.9 158 
 LZ4  SN IP       1118 28.30                              98    0.0110 44.9 158 
 LZ4  SE IS       1118 33.76                              98   -0.0110 44.9 158 
 LZ4  SZ  AML     1118 34.53        52.5 0.16                          44.9 158 
                                                                                
 2009  1 9 1215  0.7 L  21.253 -99.230 10.0  RAL  1 0.1 0.3LRAL                1
 GAP=360        0.43      12.4    12.6  0.0 -0.1569E+03 -0.2668E+05  0.4760E+05E
 ACTION:UPD 12-06-08 11:37 OP:RALL STATUS:               ID:20090109121500     I
 2009-01-09-1214-54S.PLUR1_003                                                 6
 STAT SP IPHASW D HRMM SECON CODA AMPLIT PERI AZIMU VELO AIN AR TRES W  DIS CAZ7
 LG3  SN IP       1215  2.85                             162    0.2110 3.38 317 
 LG3  SZ E        1215  2.86                  136.6 10.3      0        3.38 317 
 LG3  SE IS       1215  3.85                             162   -0.2110 3.38 317 
 LG3  SZ  AML     1215  4.13        11.6 0.22                          3.38 317 
                                                                                
