 2009  224 1039 29.9 R  21.972 -99.652 30.8  RAL  2 0.2 2.3LRAL                1
 GAP=356        2.91      35.0    26.5179.7 -0.7367E+03  0.3194E+04 -0.4504E+04E
 ACTION:UPD 12-06-08 11:37 OP:RALL STATUS:               ID:20090224103929     I
 2009-02-24-1039-26S.PLUR1_006                                                 6
 STAT SP IPHASW D HRMM SECON CODA AMPLIT PERI AZIMU VELO AIN AR TRES W  DIS CAZ7
 LA4  SZ E        1039 40.73                  335.6  8.5      9        64.6 147 
 LA4  SN IP       1039 40.74                             102   -0.0510 64.6 147 
 LA4  SE IS       1039 48.52                             102   -0.2110 64.6 147 
 LA4  SZ  AML     1039 50.48       173.5 0.32                          64.6 147 
 LZ4  SN IP       1039 42.88                              98    0.0810 81.2 151 
 LZ4  SZ E        1039 42.91                  319.9 10.2    -10        81.2 151 
 LZ4  SE IS       1039 52.39                              98    0.1810 81.2 151 
 LZ4  SZ  AML     1039 52.77       130.8 0.32                          81.2 151 
                                                                                
 2009  224 1056 32.9 L  21.348 -99.278 10.0  RAL  1 0.2 1.6LRAL                1
 GAP=360        0.73      41.0    20.7  0.0 -0.8481E+03  0.3194E+04 -0.4504E+04E
 ACTION:UPD 12-06-08 11:37 OP:RALL STATUS:               ID:20090224105632     I
 2009-02-24-1056-25S.PLUR1_003                                                 6
 STAT SP IPHASW D HRMM SECON CODA AMPLIT PERI AZIMU VELO AIN AR TRES W  DIS CAZ7
 LZ4  SN IP       1056 35.19                             168    0.4510 2.12 155 
 LZ4  SZ E        1056 35.22                  334.8  7.1      0        2.12 155 
 LZ4  SE IS       1056 35.65                             168   -0.4510 2.12 155 
 LZ4  SZ  AML     1056 35.82       201.0 0.16                          2.12 155 
                                                                                
 2009  224 1101  0.9 L  21.350 -99.281 10.0  RAL  1 0.2 1.3LRAL                1
 GAP=360        0.74      34.7    20.0  0.0 -0.6922E+03  0.3194E+04 -0.4504E+04E
 ACTION:UPD 12-06-08 11:37 OP:RALL STATUS:               ID:20090224110100     I
 2009-02-24-1100-53S.PLUR1_003                                                 6
 STAT SP IPHASW D HRMM SECON CODA AMPLIT PERI AZIMU VELO AIN AR TRES W  DIS CAZ7
 LZ4  SN IP       11 1  3.25                             167    0.4510 2.47 152 
 LZ4  SZ E        11 1  3.26                  331.8  6.4      0        2.47 152 
 LZ4  SE IS       11 1  3.71                             167   -0.4510 2.47 152 
 LZ4  SZ  AML     11 1  3.86        99.0 0.16                          2.47 152 
                                                                                
 2009  224 1609 28.7 L  21.289 -99.206  1.7  RAL  2 0.2 2.4LRAL                1
 GAP=332        1.28       3.1     4.3 13.6 -0.1270E+02 -0.1107E+02  0.7053E+01E
 ACTION:UPD 12-06-08 11:37 OP:RALL STATUS:               ID:20090224160928     I
 2009-02-24-1609-17S.PLUR1_006                                                 6
 STAT SP IPHASW D HRMM SECON CODA AMPLIT PERI AZIMU VELO AIN AR TRES W  DIS CAZ7
 LZ4  SZ E        16 9 29.75                  123.9 15.8      0        8.10 305 
 LZ4  SN IP       16 9 29.76                             123   -0.4110 8.10 305 
 LZ4  SE IS       16 9 31.37                             123    0.1110 8.10 305 
 LZ4  SZ  AML     16 9 32.12      3146.0 0.34                          8.10 305 
 LA4  SN IP       16 9 32.45                             101   -0.4710 24.1 334 
 LA4  SZ E        16 9 32.51                  156.9  7.7      3        24.1 334 
 LA4  SE IS       16 9 36.79                             101    0.7710 24.1 334 
 LA4  SZ  AML     16 9 38.44       384.3 0.60                          24.1 334 
                                                                                
 2009  224 1615 41.3 L  21.200 -99.153  0.1  RAL  2 0.2 1.1LRAL                1
 GAP=347        2.91      21.3    17.8449.3 -0.3606E+03 -0.5054E+04  0.6011E+04E
 ACTION:UPD 12-06-08 11:37 OP:RALL STATUS:               ID:20090224161541     I
 2009-02-24-1615-37S.PLUR1_006                                                 6
 STAT SP IPHASW D HRMM SECON CODA AMPLIT PERI AZIMU VELO AIN AR TRES W  DIS CAZ7
 LZ4  SN IP       1615 44.83                              93    0.2410 18.8 320 
 LZ4  SZ E        1615 44.88                  146.2 12.5      6        18.8 320 
 LZ4  SE IS       1615 46.45                              93   -0.5510 18.8 320 
 LZ4  SZ  AML     1615 46.65        81.6 0.20                          18.8 320 
 LA4  SN IP       1615 47.85                              92    0.3810 35.3 333 
 LA4  SZ E        1615 47.87                  140.4  7.9    -11        35.3 333 
 LA4  SE IS       1615 51.91                              92   -0.0710 35.3 333 
 LA4  SZ  AML     1615 53.52         8.5 0.48                          35.3 333 
                                                                                
 2009  224 1711 28.1 L  21.424 -99.391 10.0  RAL  1 0.0-0.3LRAL                1
 GAP=360        0.30       3.1     4.3  0.0  0.1309E+02 -0.5054E+04  0.6011E+04E
 ACTION:UPD 12-06-08 11:37 OP:RALL STATUS:               ID:20090224171128     I
 2009-02-24-1711-18S.PLUR1_003                                                 6
 STAT SP IPHASW D HRMM SECON CODA AMPLIT PERI AZIMU VELO AIN AR TRES W  DIS CAZ7
 LA4  SZ E        1711 30.67                  232.1 15.9      0        10.7  52 
 LA4  SN IP       1711 30.67                             133    0.0110 10.7  52 
 LA4  SE IS       1711 32.52                             133   -0.0110 10.7  52 
 LA4  SZ  AML     1711 33.97         2.1 0.34                          10.7  52 
                                                                                
 2009  224 2044 35.0 L                       RAL  0                            1
 ACTION:UPD 12-06-08 11:37 OP:RALL STATUS:               ID:20090224204435     I
 2009-02-24-2044-34S.PLUR1_003                                                 6
 STAT SP IPHASW D HRMM SECON CODA AMPLIT PERI AZIMU VELO AIN AR TRES W  DIS CAZ7
                                                                                
 2009  224 2227 46.2 L  21.303 -99.233 10.0  RAL  1 0.0 0.3LRAL                1
 GAP=360        0.33       6.0     7.8  0.0 -0.4707E+02 -0.5054E+04  0.6011E+04E
 ACTION:UPD 12-06-08 11:37 OP:RALL STATUS:               ID:20090224222746     I
 2009-02-24-2227-40S.PLUR1_003                                                 6
 STAT SP IPHASW D HRMM SECON CODA AMPLIT PERI AZIMU VELO AIN AR TRES W  DIS CAZ7
 LZ4  SZ E        2227 48.22                  129.5 12.8      0        4.92 310 
 LZ4  SN IP       2227 48.28                             154    0.1010 4.92 310 
 LZ4  SE IS       2227 49.55                             154   -0.1010 4.92 310 
 LZ4  SZ  AML     2227 49.86         9.3 0.36                          4.92 310 
                                                                                
 2009  225 0303 54.8 L  21.320 -99.296 10.0  RAL  1 0.1 1.1LRAL                1
 GAP=360        0.37       6.4    16.4  0.0  0.1051E+03 -0.5054E+04  0.6011E+04E
 ACTION:UPD 12-06-08 11:37 OP:RALL STATUS:               ID:20090225030354     I
 2009-02-25-0303-48S.PLUR1_003                                                 6
 STAT SP IPHASW D HRMM SECON CODA AMPLIT PERI AZIMU VELO AIN AR TRES W  DIS CAZ7
 LZ4  SZ E         3 3 56.86                  247.2 29.0      0        2.96  67 
 LZ4  SN IP        3 3 56.87                             164    0.1510 2.96  67 
 LZ4  SE IS        3 3 57.96                             164   -0.1510 2.96  67 
 LZ4  SZ  AML      3 3 58.15        70.0 0.12                          2.96  67 
                                                                                
 2009  225 0524 22.3 L  21.255 -99.221 10.0  RAL  1 0.0 0.4LRAL                1
 GAP=360        0.30       4.5     2.9  0.0 -0.1303E+02 -0.5054E+04  0.6011E+04E
 ACTION:UPD 12-06-08 11:37 OP:RALL STATUS:               ID:20090225052422     I
 2009-02-25-0524-17S.PLUR1_003                                                 6
 STAT SP IPHASW D HRMM SECON CODA AMPLIT PERI AZIMU VELO AIN AR TRES W  DIS CAZ7
 LZ4  SN IP        524 24.73                             135    0.0110 9.81 329 
 LZ4  SZ E         524 24.84                  149.0 31.3      0        9.81 329 
 LZ4  SZ  AML      524 26.36         9.5 0.58                          9.81 329 
 LZ4  SE IS        524 26.49                             135   -0.0110 9.81 329 
                                                                                
 2009  225 1614 47.3 L  21.302 -99.282 10.0  RAL  1 0.1 0.5LRAL                1
 GAP=360        0.36      13.4     5.9  0.0  0.7930E+02 -0.5054E+04  0.6011E+04E
 ACTION:UPD 12-06-08 11:37 OP:RALL STATUS:               ID:20090225161447     I
 2009-02-25-1614-41S.PLUR1_003                                                 6
 STAT SP IPHASW D HRMM SECON CODA AMPLIT PERI AZIMU VELO AIN AR TRES W  DIS CAZ7
 LZ4  SZ E        1614 49.39                  202.4 95.7      0        3.40  22 
 LZ4  SN IP       1614 49.39                             162    0.1410 3.40  22 
 LZ4  SE IS       1614 50.50                             162   -0.1410 3.40  22 
 LZ4  SZ  AML     1614 50.96        19.0 0.20                          3.40  22 
                                                                                
 2009  225 2240 30.8 L  21.308 -99.285 10.0  RAL  1 0.2 1.5LRAL                1
 GAP=360        0.65      25.0    16.7  0.0  0.4161E+03 -0.5054E+04  0.6011E+04E
 ACTION:UPD 12-06-08 11:37 OP:RALL STATUS:               ID:20090225224030     I
 2009-02-25-2240-23S.PLUR1_003                                                 6
 STAT SP IPHASW D HRMM SECON CODA AMPLIT PERI AZIMU VELO AIN AR TRES W  DIS CAZ7
 LZ4  SN IP       2240 33.08                             164    0.3910 2.96  32 
 LZ4  SZ E        2240 33.11                  211.7 15.7      0        2.96  32 
 LZ4  SE IS       2240 33.68                             164   -0.3910 2.96  32 
 LZ4  SZ  AML     2240 34.07       177.6 0.26                          2.96  32 
                                                                                
 2009  226 1226 22.0 L  21.185 -99.292 10.0  RAL  1 0.0 0.5LRAL                1
 GAP=360        0.30       4.2     0.8  0.0  0.2763E+01 -0.5054E+04  0.6011E+04E
 ACTION:UPD 12-06-08 11:37 OP:RALL STATUS:               ID:20090226122622     I
 2009-02-26-1226-18S.PLUR1_003                                                 6
 STAT SP IPHASW D HRMM SECON CODA AMPLIT PERI AZIMU VELO AIN AR TRES W  DIS CAZ7
 LZ4  SZ E        1226 25.27                  188.3 24.3      0        16.3   8 
 LZ4  SN IP       1226 25.28                             119    0.0210 16.3   8 
 LZ4  SE IS       1226 27.61                             119   -0.0210 16.3   8 
 LZ4  SZ  AML     1226 28.25         9.7 0.54                          16.3   8 
                                                                                
 2009  226 1727 52.4 L  21.333 -99.273 10.0  RAL  1 0.9 0.7LRAL                1
 GAP=360       11.48     188.0   999.9  0.0  0.4469E+06 -0.5054E+04  0.6011E+04E
 ACTION:UPD 12-06-08 11:37 OP:RALL STATUS:               ID:20090226172752     I
 2009-02-26-1727-45S.PLUR1_003                                                 6
 STAT SP IPHASW D HRMM SECON CODA AMPLIT PERI AZIMU VELO AIN AR TRES W  DIS CAZ7
 LZ4  SZ E        1727 54.39                  358.5 42.8     55        0.49 124 
 LZ4  SN IP       1727 54.42                             177    0.1810 0.49 124 
 LZ4  SE IS       1727 55.39                             177   -0.1810 0.49 124 
 LZ4  SZ  AML     1727 55.80        29.8 0.10                          0.49 124 
                                                                                
 2009  226 2028 52.1 L  21.303 -99.287 10.0  RAL  1 0.1 0.4LRAL                1
 GAP=360        0.36      11.8     7.2  0.0  0.8443E+02 -0.5054E+04  0.6011E+04E
 ACTION:UPD 12-06-08 11:37 OP:RALL STATUS:               ID:20090226202852     I
 2009-02-26-2028-45S.PLUR1_003                                                 6
 STAT SP IPHASW D HRMM SECON CODA AMPLIT PERI AZIMU VELO AIN AR TRES W  DIS CAZ7
 LZ4  SZ E        2028 54.08                  209.6 27.0      0        3.61  30 
 LZ4  SN IP       2028 54.16                             161    0.1410 3.61  30 
 LZ4  SE IS       2028 55.29                             161   -0.1410 3.61  30 
 LZ4  SZ  AML     2028 55.30        12.4 0.46                          3.61  30 
                                                                                
 2009  226 2327  8.4 L  21.676 -99.378 10.0  RAL  1 0.0 0.7LRAL                1
 GAP=360        0.30       3.8     1.5  0.0 -0.4984E+01 -0.5054E+04  0.6011E+04E
 ACTION:UPD 12-06-08 11:37 OP:RALL STATUS:               ID:20090226232708     I
 2009-02-26-2327-01S.PLUR1_003                                                 6
 STAT SP IPHASW D HRMM SECON CODA AMPLIT PERI AZIMU VELO AIN AR TRES W  DIS CAZ7
 LA4  SN IP       2327 12.54                             111    0.0210 22.4 162 
 LA4  SZ E        2327 12.66                  341.6  8.6      0        22.4 162 
 LA4  SE IS       2327 15.51                             111   -0.0210 22.4 162 
 LA4  SZ  AML     2327 16.32        11.0 0.66                          22.4 162 
                                                                                
 2009  227 0209 50.0 L  21.358 -99.289 10.0  RAL  1 0.1 0.6LRAL                1
 GAP=360        0.43      13.5     9.8  0.0 -0.1328E+03 -0.5054E+04  0.6011E+04E
 ACTION:UPD 12-06-08 11:37 OP:RALL STATUS:               ID:20090227020950     I
 2009-02-27-0209-43S.PLUR1_003                                                 6
 STAT SP IPHASW D HRMM SECON CODA AMPLIT PERI AZIMU VELO AIN AR TRES W  DIS CAZ7
 LZ4  SZ E         2 9 52.12                  325.9 27.6      0        3.59 146 
 LZ4  SN IP        2 9 52.12                             161    0.2110 3.59 146 
 LZ4  SE IS        2 9 53.10                             161   -0.2110 3.59 146 
 LZ4  SZ  AML      2 9 53.80        21.1 0.68                          3.59 146 
                                                                                
 2009  227 0422 39.9 L  21.502 -99.322 10.0  RAL  1 0.2 0.3LRAL                1
 GAP=360        0.74      32.9    24.2  0.0 -0.7978E+03 -0.5054E+04  0.6011E+04E
 ACTION:UPD 12-06-08 11:37 OP:RALL STATUS:               ID:20090227042239     I
 2009-02-27-0422-28S.PLUR1_003                                                 6
 STAT SP IPHASW D HRMM SECON CODA AMPLIT PERI AZIMU VELO AIN AR TRES W  DIS CAZ7
 LA4  SZ E         422 42.20                  325.6 11.5      0        2.45 146 
 LA4  SN IP        422 42.22                             167    0.4510 2.45 146 
 LA4  SE IS        422 42.69                             167   -0.4510 2.45 146 
 LA4  SZ  AML      422 42.79        10.5 0.22                          2.45 146 
                                                                                
 2009  227 0727 34.8 L  21.499 -99.319 10.0  RAL  1 0.2 0.1LRAL                1
 GAP=360        0.76      42.7    27.3  0.0 -0.1168E+04 -0.5054E+04  0.6011E+04E
 ACTION:UPD 12-06-08 11:37 OP:RALL STATUS:               ID:20090227072734     I
 2009-02-27-0727-23S.PLUR1_003                                                 6
 STAT SP IPHASW D HRMM SECON CODA AMPLIT PERI AZIMU VELO AIN AR TRES W  DIS CAZ7
 LA4  SN IP        727 37.18                             169    0.4710 2.01 149 
 LA4  SZ E         727 37.20                  329.2 15.7      0        2.01 149 
 LA4  SE IS        727 37.61                             169   -0.4710 2.01 149 
 LA4  SZ  AML      727 37.70         7.1 0.18                          2.01 149 
                                                                                
 2009  227 0942 55.9 L  21.308 -99.306 10.0  RAL  1 0.1 0.2LRAL                1
 GAP=360        0.36       6.1     9.9  0.0  0.6065E+02 -0.5054E+04  0.6011E+04E
 ACTION:UPD 12-06-08 11:37 OP:RALL STATUS:               ID:20090227094255     I
 2009-02-27-0942-50S.PLUR1_003                                                 6
 STAT SP IPHASW D HRMM SECON CODA AMPLIT PERI AZIMU VELO AIN AR TRES W  DIS CAZ7
 LZ4  SZ E         942 57.98                  236.7 31.5      0        4.51  57 
 LZ4  SN IP        942 57.99                             156    0.1410 4.51  57 
 LZ4  SE IS        942 59.16                             156   -0.1410 4.51  57 
 LZ4  SZ  AML      942 59.47         9.0 0.40                          4.51  57 
                                                                                
 2009  227 1040  8.5 L  21.584 -99.471 10.0  RAL  1 0.0 1.2LRAL                1
 GAP=360        0.30       2.3     3.6  0.0 -0.7909E+01 -0.5054E+04  0.6011E+04E
 ACTION:UPD 12-06-08 11:37 OP:RALL STATUS:               ID:20090227104008     I
 2009-02-27-1040-01S.PLUR1_003                                                 6
 STAT SP IPHASW D HRMM SECON CODA AMPLIT PERI AZIMU VELO AIN AR TRES W  DIS CAZ7
 LA4  SZ E        1040 12.25                  303.7 10.2      0        20.1 124 
 LA4  SN IP       1040 12.28                             113    0.0010 20.1 124 
 LA4  SE IS       1040 15.04                             113    0.0010 20.1 124 
 LA4  SZ  AML     1040 17.99        38.0 0.62                          20.1 124 
                                                                                
 2009  227 2159 46.6 L  21.672 -99.307 10.0  RAL  1 0.0 0.4LRAL                1
 GAP=360        0.30       4.0     0.6  0.0  0.1484E+00 -0.5054E+04  0.6011E+04E
 ACTION:UPD 12-06-08 11:37 OP:RALL STATUS:               ID:20090227215946     I
 2009-02-27-2159-39S.PLUR1_003                                                 6
 STAT SP IPHASW D HRMM SECON CODA AMPLIT PERI AZIMU VELO AIN AR TRES W  DIS CAZ7
 LA4  SN IP       2159 50.52                             112    0.0110 20.9 181 
 LA4  SZ E        2159 50.90                    0.5 10.8      0        20.9 181 
 LA4  SE IS       2159 53.34                             112   -0.0110 20.9 181 
 LA4  SZ  AML     2159 55.04         6.6 0.30                          20.9 181 
                                                                                
 2009  228 0423 13.4 L  21.587 -99.356 10.0  RAL  1 0.0 0.0LRAL                1
 GAP=360        0.30       4.3     2.0  0.0 -0.8428E+01 -0.5054E+04  0.6011E+04E
 ACTION:UPD 12-06-08 11:37 OP:RALL STATUS:               ID:20090228042313     I
 2009-02-28-0423-03S.PLUR1_003                                                 6
 STAT SP IPHASW D HRMM SECON CODA AMPLIT PERI AZIMU VELO AIN AR TRES W  DIS CAZ7
 LA4  SZ E         423 16.16                  337.0 11.2      0        12.5 157 
 LA4  SN IP        423 16.22                             128    0.0110 12.5 157 
 LA4  SE IS        423 18.22                             128   -0.0110 12.5 157 
 LA4  SZ  AML      423 18.33         3.7 0.10                          12.5 157 
                                                                                
