 2009  7 6 2243 59.3 L  21.249 -99.223 10.0  RAL  1 0.0 0.2LRAL                1
 GAP=360        0.30       4.6     2.6  0.0 -0.1177E+02 -0.2506E+04  0.1474E+04E
 ACTION:UPD 12-06-08 11:37 OP:RALL STATUS:               ID:20090706224359     I
 2009-07-06-2243-54S.PLUR1_003                                                 6
 STAT SP IPHASW D HRMM SECON CODA AMPLIT PERI AZIMU VELO AIN AR TRES W  DIS CAZ7
 LZ4  SN IP       2244  1.87                             134    0.0310 10.2 332 
 LZ4  SZ E        2244  1.94                  152.1 13.5      0        10.2 332 
 LZ4  SE IS       2244  3.64                             134   -0.0310 10.2 332 
 LZ4  SZ  AML     2244  5.79         6.8 0.44                          10.2 332 
                                                                                
 2009  7 7 0308 25.0 L  21.315 -99.255 10.0  RAL  1 0.2 0.7LRAL                1
 GAP=360        0.77      32.7    30.5  0.0 -0.9957E+03 -0.2506E+04  0.1474E+04E
 ACTION:UPD 12-06-08 11:37 OP:RALL STATUS:               ID:20090707030825     I
 2009-07-07-0308-18S.PLUR1_003                                                 6
 STAT SP IPHASW D HRMM SECON CODA AMPLIT PERI AZIMU VELO AIN AR TRES W  DIS CAZ7
 LZ4  SZ E         3 8 27.31                  139.0 21.3      0        2.33 319 
 LZ4  SN IP        3 8 27.31                             167    0.4810 2.33 319 
 LZ4  SE IS        3 8 27.72                             167   -0.4810 2.33 319 
 LZ4  SZ  AML      3 8 27.82        27.6 0.22                          2.33 319 
                                                                                
 2009  7 7 0718 13.6 R  20.797 -98.343 10.0  RAL  1 0.0 1.6LRAL                1
 GAP=360        0.30       3.2     3.7  0.0 -0.2470E+01 -0.2506E+04  0.1474E+04E
 ACTION:UPD 12-06-08 11:37 OP:RALL STATUS:               ID:20090707071813     I
 2009-07-07-0718-23S.PLUR1_003                                                 6
 STAT SP IPHASW D HRMM SECON CODA AMPLIT PERI AZIMU VELO AIN AR TRES W  DIS CAZ7
 LZ4  SZ E         718 31.54                  121.4 38.1      0         113 302 
 LZ4  SN IP        718 31.61                              93    0.0010  113 302 
 LZ4  SE IS        718 44.79                              93    0.0010  113 302 
 LZ4  SZ  AML      718 46.16        21.0 0.38                           113 302 
                                                                                
 2009  7 7 1101 45.0 R  21.106 -98.233 10.0  RAL  1 0.0 1.4LRAL                1
 GAP=360        0.30       2.8     3.9  0.0 -0.1122E+01 -0.2506E+04  0.1474E+04E
 ACTION:UPD 12-06-08 11:37 OP:RALL STATUS:               ID:20090707110145     I
 2009-07-07-1101-56S.PLUR1_003                                                 6
 STAT SP IPHASW D HRMM SECON CODA AMPLIT PERI AZIMU VELO AIN AR TRES W  DIS CAZ7
 LG3  SN IP       11 2  2.24                              93    0.0010  108 280 
 LG3  SZ E        11 2  2.33                   99.9 13.6      0         108 280 
 LG3  SE IS       11 2 14.81                              93    0.0010  108 280 
 LG3  SZ  AML     11 2 19.56        12.2 0.40                           108 280 
                                                                                
 2009  7 7 1645 14.4 L  21.351 -99.285 10.0  RAL  1 0.2 1.3LRAL                1
 GAP=360        0.69      27.3    20.9  0.0 -0.5725E+03 -0.2506E+04  0.1474E+04E
 ACTION:UPD 12-06-08 11:37 OP:RALL STATUS:               ID:20090707164514     I
 2009-07-07-1645-07S.PLUR1_003                                                 6
 STAT SP IPHASW D HRMM SECON CODA AMPLIT PERI AZIMU VELO AIN AR TRES W  DIS CAZ7
 LZ4  SZ E        1645 16.66                  324.5  8.7      0        2.74 144 
 LZ4  SN IP       1645 16.68                             165    0.4210 2.74 144 
 LZ4  SE IS       1645 17.21                             165   -0.4210 2.74 144 
 LZ4  SZ  AML     1645 17.24       100.2 0.16                          2.74 144 
                                                                                
 2009  7 7 2352  7.1 L  21.256 -99.238 10.0  RAL  1 0.0 0.0LRAL                1
 GAP=360        0.30       5.2     2.2  0.0 -0.1154E+02 -0.2506E+04  0.1474E+04E
 ACTION:UPD 12-06-08 11:37 OP:RALL STATUS:               ID:20090707235207     I
 2009-07-07-2352-01S.PLUR1_003                                                 6
 STAT SP IPHASW D HRMM SECON CODA AMPLIT PERI AZIMU VELO AIN AR TRES W  DIS CAZ7
 LZ4  SN IP       2352  9.43                             138    0.0310 8.86 338 
 LZ4  SZ E        2352  9.45                  158.3 14.9      0        8.86 338 
 LZ4  SE IS       2352 11.09                             138   -0.0310 8.86 338 
 LZ4  SZ  AML     2352 12.62         4.2 0.22                          8.86 338 
                                                                                
 2009  7 8 0527 44.3 L  21.679 -99.373 10.0  RAL  1 0.0 0.9LRAL                1
 GAP=360        0.30       3.6     1.5  0.0 -0.3616E+01 -0.2506E+04  0.1474E+04E
 ACTION:UPD 12-06-08 11:37 OP:RALL STATUS:               ID:20090708052744     I
 2009-07-08-0527-47S.PLUR1_003                                                 6
 STAT SP IPHASW D HRMM SECON CODA AMPLIT PERI AZIMU VELO AIN AR TRES W  DIS CAZ7
 LZ4  SZ E         527 50.90                  344.5 11.3      0        40.0 164 
 LZ4  SN IP        527 51.11                             100    0.0110 40.0 164 
 LZ4  SE IS        527 56.03                             100   -0.0110 40.0 164 
 LZ4  SZ  AML      527 57.59        12.1 0.24                          40.0 164 
                                                                                
 2009  7 8 0637  9.7 L  21.418 -99.222 10.0  RAL  1 0.0 0.5LRAL                1
 GAP=360        0.30       4.5     2.4  0.0  0.1073E+02 -0.2506E+04  0.1474E+04E
 ACTION:UPD 12-06-08 11:37 OP:RALL STATUS:               ID:20090708063709     I
 2009-07-08-0637-04S.PLUR1_003                                                 6
 STAT SP IPHASW D HRMM SECON CODA AMPLIT PERI AZIMU VELO AIN AR TRES W  DIS CAZ7
 LZ4  SZ E         637 12.26                   26.7 26.2      0        10.8 207 
 LZ4  SN IP        637 12.30                             132    0.0210 10.8 207 
 LZ4  SE IS        637 14.13                             132   -0.0210 10.8 207 
 LZ4  SZ  AML      637 14.87        13.4 0.32                          10.8 207 
                                                                                
 2009  7 8 1041 31.1 R  21.530 -99.937 10.0  RAL  1 0.0 1.6LRAL                1
 GAP=360        0.30       2.1     3.8  0.0 -0.3171E+01 -0.2506E+04  0.1474E+04E
 ACTION:UPD 12-06-08 11:37 OP:RALL STATUS:               ID:20090708104131     I
 2009-07-08-1041-34S.PLUR1_003                                                 6
 STAT SP IPHASW D HRMM SECON CODA AMPLIT PERI AZIMU VELO AIN AR TRES W  DIS CAZ7
 LZ4  SN IP       1041 42.89                              95    0.0110 72.6 108 
 LZ4  SZ E        1041 43.24                  287.8 16.1      0        72.6 108 
 LZ4  SE IS       1041 51.48                              95   -0.0110 72.6 108 
 LZ4  SZ  AML     1041 57.20        29.2 0.34                          72.6 108 
                                                                                
 2009  7 8 1315  8.2 L  21.769 -99.149 10.0  RAL  1 0.0 2.0LRAL                1
 GAP=360        0.30       3.6     1.7  0.0  0.3180E+01 -0.2506E+04  0.1474E+04E
 ACTION:UPD 12-06-08 11:37 OP:RALL STATUS:               ID:20090708131508     I
 2009-07-08-1315-07S.PLUR1_003                                                 6
 STAT SP IPHASW D HRMM SECON CODA AMPLIT PERI AZIMU VELO AIN AR TRES W  DIS CAZ7
 LZ4  SN IP       1315 16.50                              97    0.0110 50.1 194 
 LZ4  SZ E        1315 16.89                   14.4  8.6      0        50.1 194 
 LZ4  SE IS       1315 22.55                              97   -0.0110 50.1 194 
 LZ4  SZ  AML     1315 23.56       111.6 0.30                          50.1 194 
                                                                                
 2009  7 8 1427 23.8 L  21.914 -99.602 10.0  RAL  1 0.0 1.3LRAL                1
 GAP=360        0.30       3.2     2.5  0.0 -0.5727E+01 -0.2506E+04  0.1474E+04E
 ACTION:UPD 12-06-08 11:37 OP:RALL STATUS:               ID:20090708142723     I
 2009-07-08-1427-20S.PLUR1_003                                                 6
 STAT SP IPHASW D HRMM SECON CODA AMPLIT PERI AZIMU VELO AIN AR TRES W  DIS CAZ7
 LA4  SN IP       1427 33.09                              96    0.0110 56.5 147 
 LA4  SZ E        1427 33.17                  327.6  8.3      0        56.5 147 
 LA4  SE IS       1427 39.86                              96   -0.0110 56.5 147 
 LA4  SZ  AML     1427 43.97        22.6 0.16                          56.5 147 
                                                                                
 2009  7 8 1521  2.3 L  21.756 -99.409 10.0  RAL  1 0.0 2.8LRAL                1
 GAP=360        0.30       3.6     1.8  0.0 -0.3710E+01 -0.2506E+04  0.1474E+04E
 ACTION:UPD 12-06-08 11:37 OP:RALL STATUS:               ID:20090708152102     I
 2009-07-08-1521-01S.PLUR1_003                                                 6
 STAT SP IPHASW D HRMM SECON CODA AMPLIT PERI AZIMU VELO AIN AR TRES W  DIS CAZ7
 LZ4  SN IP       1521 10.45                              97    0.0110 49.3 163 
 LZ4  SZ E        1521 10.53                  343.0  6.3      0        49.3 163 
 LZ4  SE IS       1521 16.41                              97   -0.0110 49.3 163 
 LZ4  SZ  AML     1521 17.69       711.6 0.38                          49.3 163 
                                                                                
 2009  7 8 1701 15.8 L  21.720 -99.349 10.0  RAL  1 0.0 2.0LRAL                1
 GAP=360        0.30       3.8     1.0  0.0 -0.2415E+01 -0.2506E+04  0.1474E+04E
 ACTION:UPD 12-06-08 11:37 OP:RALL STATUS:               ID:20090708170115     I
 2009-07-08-1701-06S.PLUR1_003                                                 6
 STAT SP IPHASW D HRMM SECON CODA AMPLIT PERI AZIMU VELO AIN AR TRES W  DIS CAZ7
 LA4  SN IP       17 1 20.54                             107    0.0110 26.4 171 
 LA4  SZ E        17 1 20.62                  351.0  9.3      0        26.4 171 
 LA4  SE IS       17 1 23.96                             107   -0.0110 26.4 171 
 LA4  SZ  AML     17 1 26.04       228.9 0.64                          26.4 171 
                                                                                
 2009  7 8 1825  1.0 L  21.689 -99.411 10.0  RAL  1 0.0 1.3LRAL                1
 GAP=360        0.30       3.6     1.9  0.0 -0.6104E+01 -0.2506E+04  0.1474E+04E
 ACTION:UPD 12-06-08 11:37 OP:RALL STATUS:               ID:20090708182501     I
 2009-07-08-1824-52S.PLUR1_003                                                 6
 STAT SP IPHASW D HRMM SECON CODA AMPLIT PERI AZIMU VELO AIN AR TRES W  DIS CAZ7
 LA4  SZ E        1825  5.53                  335.2  7.7      0        25.1 155 
 LA4  SN IP       1825  5.57                             108    0.0210 25.1 155 
 LA4  SE IS       1825  8.82                             108   -0.0210 25.1 155 
 LA4  SZ  AML     1825 10.67        39.8 0.64                          25.1 155 
                                                                                
 2009  7 8 1907 16.3 L  21.875 -98.946  8.7  RAL  2 1.9 2.3LRAL                1
 GAP=338       30.63     636.8   490.1999.9  0.2933E+06  0.6971E+06  0.9278E+06E
 ACTION:UPD 12-06-08 11:37 OP:RALL STATUS:               ID:20090708190716     I
 2009-07-08-1907-10S.PLUR1_006                                                 6
 STAT SP IPHASW D HRMM SECON CODA AMPLIT PERI AZIMU VELO AIN AR TRES W  DIS CAZ7
 LA4  SN IP       19 7 25.62                              63   -0.0810 57.4 221 
 LA4  SZ E        19 7 25.63                  335.1  7.5     66        57.4 221 
 LA4  SE IS       19 7 29.46                              63   -3.1210 57.4 221 
 LA4  SZ  AML     19 7 31.11      1519.2 0.64                          57.4 221 
 LO8  SN IP       19 7 32.27                              63    2.4410 83.9 199 
 LO8  SZ E        19 7 32.31                  152.5  6.5    133        83.9 199 
 LO8  SE IS       19 7 40.49                              63    0.7610 83.9 199 
 LO8  SZ  AML     19 7 40.88        22.9 0.44                          83.9 199 
                                                                                
 2009  7 8 2323 43.3 L  21.675 -99.299 10.0  RAL  1 0.0 0.6LRAL                1
 GAP=360        0.30       4.0     0.6  0.0  0.8238E+00  0.6971E+06  0.9278E+06E
 ACTION:UPD 12-06-08 11:37 OP:RALL STATUS:               ID:20090708232343     I
 2009-07-08-2323-36S.PLUR1_003                                                 6
 STAT SP IPHASW D HRMM SECON CODA AMPLIT PERI AZIMU VELO AIN AR TRES W  DIS CAZ7
 LA4  SN IP       2323 47.32                             112    0.0110 21.2 183 
 LA4  SZ E        2323 47.34                    2.8  7.5      0        21.2 183 
 LA4  SE IS       2323 50.18                             112   -0.0110 21.2 183 
 LA4  SZ  AML     2323 51.55        10.2 0.32                          21.2 183 
                                                                                
 2009  7 9 0016 28.7 L  21.576 -99.686 10.0  RAL  1 0.0 1.7LRAL                1
 GAP=360        0.30       2.3     3.5  0.0 -0.5894E+01  0.6971E+06  0.9278E+06E
 ACTION:UPD 12-06-08 11:37 OP:RALL STATUS:               ID:20090709001628     I
 2009-07-09-0016-28S.PLUR1_003                                                 6
 STAT SP IPHASW D HRMM SECON CODA AMPLIT PERI AZIMU VELO AIN AR TRES W  DIS CAZ7
 LZ4  SZ E         016 37.15                  302.2  8.7      0        50.9 122 
 LZ4  SN IP        016 37.15                              97    0.0110 50.9 122 
 LZ4  SE IS        016 43.29                              97   -0.0110 50.9 122 
 LZ4  SZ  AML      016 44.66        60.8 0.20                          50.9 122 
                                                                                
 2009  7 9 0047 32.5 L  21.672 -99.307 10.0  RAL  1 0.0 0.5LRAL                1
 GAP=360        0.30       4.0     0.6  0.0  0.1780E+00  0.6971E+06  0.9278E+06E
 ACTION:UPD 12-06-08 11:37 OP:RALL STATUS:               ID:20090709004732     I
 2009-07-09-0047-25S.PLUR1_003                                                 6
 STAT SP IPHASW D HRMM SECON CODA AMPLIT PERI AZIMU VELO AIN AR TRES W  DIS CAZ7
 LA4  SZ E         047 36.45                    0.6  8.1      0        20.9 181 
 LA4  SN IP        047 36.45                             112    0.0110 20.9 181 
 LA4  SE IS        047 39.27                             112   -0.0110 20.9 181 
 LA4  SZ  AML      047 40.72         8.4 0.38                          20.9 181 
                                                                                
 2009  7 9 0455 37.7 L  20.804 -98.245 10.0  RAL  1 0.0 2.4LRAL                1
 GAP=360        0.30       3.3     3.8  0.0 -0.1740E+01  0.6971E+06  0.9278E+06E
 ACTION:UPD 12-06-08 11:37 OP:RALL STATUS:               ID:20090709045537     I
 2009-07-09-0455-49S.PLUR1_003                                                 6
 STAT SP IPHASW D HRMM SECON CODA AMPLIT PERI AZIMU VELO AIN AR TRES W  DIS CAZ7
 LZ4  SN IP        455 57.03                              93    0.0010  121 299 
 LZ4  SZ E         455 57.61                  118.5 25.2      0         121 299 
 LZ4  SE IS        456 11.16                              93    0.0010  121 299 
 LZ4  SZ  AML      456 18.24       129.1 0.82                           121 299 
                                                                                
 2009  7 9 2213 35.3 L  21.719 -99.297 10.0  RAL  1 0.0 0.8LRAL                1
 GAP=360        0.30       3.9     0.8  0.0  0.7642E+00  0.6971E+06  0.9278E+06E
 ACTION:UPD 12-06-08 11:37 OP:RALL STATUS:               ID:20090709221335     I
 2009-07-09-2213-29S.PLUR1_003                                                 6
 STAT SP IPHASW D HRMM SECON CODA AMPLIT PERI AZIMU VELO AIN AR TRES W  DIS CAZ7
 LA4  SN IP       2213 39.94                             107    0.0110 26.1 183 
 LA4  SZ E        2213 40.43                    2.8 11.7      0        26.1 183 
 LA4  SE IS       2213 43.33                             107   -0.0110 26.1 183 
 LA4  SZ  AML     2213 44.76        12.9 0.38                          26.1 183 
                                                                                
 2009  7 9 2318 50.1 L                       RAL  0                            1
 ACTION:UPD 12-06-08 11:37 OP:RALL STATUS:               ID:20090709231850     I
 2009-07-09-2318-50S.PLUR1_003                                                 6
 STAT SP IPHASW D HRMM SECON CODA AMPLIT PERI AZIMU VELO AIN AR TRES W  DIS CAZ7
                                                                                
 2009  710 0622 46.1 L  21.354 -99.278 10.0  RAL  1 0.1 0.3LRAL                1
 GAP=360        0.54      25.5     9.5  0.0 -0.2421E+03  0.6971E+06  0.9278E+06E
 ACTION:UPD 12-06-08 11:37 OP:RALL STATUS:               ID:20090710062246     I
 2009-07-10-0622-40S.PLUR1_003                                                 6
 STAT SP IPHASW D HRMM SECON CODA AMPLIT PERI AZIMU VELO AIN AR TRES W  DIS CAZ7
 LZ4  SZ E         622 48.27                  341.9 26.0      1        2.67 161 
 LZ4  SN IP        622 48.28                             165    0.2710 2.67 161 
 LZ4  SE IS        622 49.11                             165   -0.2710 2.67 161 
 LZ4  SZ  AML      622 51.09        11.5 0.70                          2.67 161 
                                                                                
 2009  710 0948 14.5 L  21.311 -99.255 10.0  RAL  1 0.1 0.5LRAL                1
 GAP=360        0.63      26.4    19.0  0.0 -0.5006E+03  0.6971E+06  0.9278E+06E
 ACTION:UPD 12-06-08 11:37 OP:RALL STATUS:               ID:20090710094814     I
 2009-07-10-0948-07S.PLUR1_003                                                 6
 STAT SP IPHASW D HRMM SECON CODA AMPLIT PERI AZIMU VELO AIN AR TRES W  DIS CAZ7
 LZ4  SN IP        948 16.71                             166    0.3810 2.63 326 
 LZ4  SZ E         948 16.71                  146.2 14.9      0        2.63 326 
 LZ4  SE IS        948 17.33                             166   -0.3810 2.63 326 
 LZ4  SZ  AML      948 17.65        17.1 0.88                          2.63 326 
                                                                                
 2009  710 1006 37.5 L  21.312 -99.069 10.0  RAL  1 0.0-0.1LRAL                1
 GAP=360        0.30       1.0     4.3  0.0  0.3573E+01  0.6971E+06  0.9278E+06E
 ACTION:UPD 12-06-08 11:37 OP:RALL STATUS:               ID:20090710100637     I
 2009-07-10-1006-35S.PLUR1_003                                                 6
 STAT SP IPHASW D HRMM SECON CODA AMPLIT PERI AZIMU VELO AIN AR TRES W  DIS CAZ7
 LG3  SN IP       10 6 41.24                             114    0.0210 19.4 258 
 LG3  SZ E        10 6 41.42                   78.0 17.1      0        19.4 258 
 LG3  SE IS       10 6 43.90                             114   -0.0210 19.4 258 
 LG3  SZ  AML     10 6 44.14         2.1 0.18                          19.4 258 
                                                                                
