 2009  524 2328  8.3 L  21.288 -99.309 10.0  RAL  1 0.0 0.4LRAL                1
 GAP=360        0.30       5.4     5.0  0.0  0.2730E+02 -0.4858E+06  0.3745E+06E
 ACTION:UPD 12-06-08 11:37 OP:RALL STATUS:               ID:20090524232808     I
 2009-05-24-2328-02S.PLUR1_003                                                 6
 STAT SP IPHASW D HRMM SECON CODA AMPLIT PERI AZIMU VELO AIN AR TRES W  DIS CAZ7
 LZ4  SZ E        2328 10.35                  220.7 61.7      0        6.29  41 
 LZ4  SN IP       2328 10.47                             148    0.0410 6.29  41 
 LZ4  SE IS       2328 11.92                             148   -0.0410 6.29  41 
 LZ4  SZ  AML     2328 12.34        12.6 0.12                          6.29  41 
                                                                                
 2009  525 0432 41.3 R  21.747 -99.536 10.0  RAL  1 0.0 1.0LRAL                1
 GAP=360        0.30       3.3     2.4  0.0 -0.5682E+01 -0.4858E+06  0.3745E+06E
 ACTION:UPD 12-06-08 11:37 OP:RALL STATUS:               ID:20090525043241     I
 2009-05-25-0432-47S.PLUR1_003                                                 6
 STAT SP IPHASW D HRMM SECON CODA AMPLIT PERI AZIMU VELO AIN AR TRES W  DIS CAZ7
 LZ4  SN IP        432 50.15                              97    0.0110 53.7 149 
 LZ4  SZ E         432 50.20                  329.1 12.5      0        53.7 149 
 LZ4  SE IS        432 56.60                              97   -0.0110 53.7 149 
 LZ4  SZ  AML      432 57.69        11.0 0.44                          53.7 149 
                                                                                
 2009  525 1720 48.7 L  21.305 -99.239 10.0  RAL  1 0.1 0.6LRAL                1
 GAP=360        0.38       8.2     9.7  0.0 -0.7998E+02 -0.4858E+06  0.3745E+06E
 ACTION:UPD 12-06-08 11:37 OP:RALL STATUS:               ID:20090525172048     I
 2009-05-25-1720-42S.PLUR1_003                                                 6
 STAT SP IPHASW D HRMM SECON CODA AMPLIT PERI AZIMU VELO AIN AR TRES W  DIS CAZ7
 LZ4  SZ E        1720 50.75                  132.2 11.4      0        4.33 312 
 LZ4  SN IP       1720 50.84                             157    0.1610 4.33 312 
 LZ4  SE IS       1720 51.95                             157   -0.1610 4.33 312 
 LZ4  SZ  AML     1720 52.09        19.4 0.22                          4.33 312 
                                                                                
 2009  525 1935 43.2 L  21.257 -99.242 10.0  RAL  1 0.1 1.1LRAL                1
 GAP=360        0.64     628.4   999.9  0.0  0.8704E+06 -0.4858E+06  0.3745E+06E
 ACTION:UPD 12-06-08 11:37 OP:RALL STATUS:               ID:20090525193543     I
 2009-05-25-1935-36S.PLUR1_003                                                 6
 STAT SP IPHASW D HRMM SECON CODA AMPLIT PERI AZIMU VELO AIN AR TRES W  DIS CAZ7
 LG3  SZ E        1935 45.37                  152.6 11.1      0        2.35 333 
 LG3  SN IP       1935 45.44                             167    0.3810 2.35 333 
 LG3  SE IS       1935 46.06                             167   -0.3810 2.35 333 
 LG3  SZ  AML     1935 46.23        67.9 0.22                          2.35 333 
                                                                                
 2009  525 2203 12.5 L  21.380 -99.300 10.0  RAL  1 0.0 0.3LRAL                1
 GAP=360        0.30       3.7     1.6  0.0 -0.5149E+01 -0.4858E+06  0.3745E+06E
 ACTION:UPD 12-06-08 11:37 OP:RALL STATUS:               ID:20090525220312     I
 2009-05-25-2203-11S.PLUR1_003                                                 6
 STAT SP IPHASW D HRMM SECON CODA AMPLIT PERI AZIMU VELO AIN AR TRES W  DIS CAZ7
 LO8  SN IP       22 3 17.16                             108    0.0210 26.0 160 
 LO8  SZ E        22 3 17.16                  339.7  8.7      0        26.0 160 
 LO8  SE IS       22 3 20.53                             108   -0.0210 26.0 160 
 LO8  SZ  AML     22 3 21.45         4.1 0.40                          26.0 160 
                                                                                
 2009  526 0227 41.7 L  21.189 -99.351 10.0  RAL  1 0.0 0.5LRAL                1
 GAP=360        0.30       3.6     2.1  0.0  0.7546E+01 -0.4858E+06  0.3745E+06E
 ACTION:UPD 12-06-08 11:37 OP:RALL STATUS:               ID:20090526022741     I
 2009-05-26-0227-37S.PLUR1_003                                                 6
 STAT SP IPHASW D HRMM SECON CODA AMPLIT PERI AZIMU VELO AIN AR TRES W  DIS CAZ7
 LZ4  SZ E         227 45.09                  208.3 18.1      0        17.8  28 
 LZ4  SN IP        227 45.14                             117    0.0010 17.8  28 
 LZ4  SE IS        227 47.66                             117    0.0010 17.8  28 
 LZ4  SZ  AML      227 50.84         9.4 0.60                          17.8  28 
                                                                                
 2009  526 2006 51.8 L  21.552 -99.435 10.0  RAL  1 0.0 1.7LRAL                1
 GAP=360        0.30       3.2     2.5  0.0 -0.7132E+01 -0.4858E+06  0.3745E+06E
 ACTION:UPD 12-06-08 11:37 OP:RALL STATUS:               ID:20090526200651     I
 2009-05-26-2006-51S.PLUR1_003                                                 6
 STAT SP IPHASW D HRMM SECON CODA AMPLIT PERI AZIMU VELO AIN AR TRES W  DIS CAZ7
 LZ4  SN IP       20 6 57.06                             104    0.0210 29.9 145 
 LZ4  SZ E        20 6 57.08                  325.1 12.7      0        29.9 145 
 LZ4  SE IS       20 7  0.83                             104   -0.0210 29.9 145 
 LZ4  SZ  AML     20 7  1.70        98.8 0.14                          29.9 145 
                                                                                
 2009  527 1441 54.0 L  20.920 -98.867 10.0  RAL  1 0.0 1.6LRAL                1
 GAP=360        0.30       2.9     3.0  0.0 -0.6014E+01 -0.4858E+06  0.3745E+06E
 ACTION:UPD 12-06-08 11:37 OP:RALL STATUS:               ID:20090527144154     I
 2009-05-27-1441-55S.PLUR1_003                                                 6
 STAT SP IPHASW D HRMM SECON CODA AMPLIT PERI AZIMU VELO AIN AR TRES W  DIS CAZ7
 LZ4  SN IP       1442  4.17                              96    0.0110 61.8 317 
 LZ4  SZ E        1442  4.37                  137.3  9.7      0        61.8 317 
 LZ4  SE IS       1442 11.53                              96   -0.0110 61.8 317 
 LZ4  SZ  AML     1442 14.00        38.6 0.24                          61.8 317 
                                                                                
 2009  527 2003 39.9 L  21.830 -99.762 10.0  RAL  1 0.0 2.7LRAL                1
 GAP=360        0.30       3.0     3.1  0.0 -0.5361E+01 -0.4858E+06  0.3745E+06E
 ACTION:UPD 12-06-08 11:37 OP:RALL STATUS:               ID:20090527200339     I
 2009-05-27-2003-42S.PLUR1_003                                                 6
 STAT SP IPHASW D HRMM SECON CODA AMPLIT PERI AZIMU VELO AIN AR TRES W  DIS CAZ7
 LZ4  SN IP       20 3 52.13                              94    0.0110 75.2 137 
 LZ4  SZ E        20 3 52.17                  317.4  6.1      0        75.2 137 
 LZ4  SE IS       20 4  1.01                              94   -0.0110 75.2 137 
 LZ4  SZ  AML     20 4  2.62       370.3 0.16                          75.2 137 
                                                                                
 2009  527 2222 52.5 L  22.150 -98.740  5.2  RAL  2 1.9 2.4LRAL                1
 GAP=345       29.59     999.9   926.5999.9  0.1173E+07  0.2716E+07  0.3889E+07E
 ACTION:UPD 12-06-08 11:37 OP:RALL STATUS:               ID:20090527222252     I
 2009-05-27-2222-53S.PLUR1_006                                                 6
 STAT SP IPHASW D HRMM SECON CODA AMPLIT PERI AZIMU VELO AIN AR TRES W  DIS CAZ7
 LA4  SN IP       2223  7.90                              63    0.2810 94.3 219 
 LA4  SZ E        2223  8.06                  354.6  8.5     44        94.3 219 
 LA4  SE IS       2223 15.38                              63   -3.2910 94.3 219 
 LA4  SZ  AML     2223 18.93       615.4 0.50                          94.3 219 
 LO8  SN IP       2223 14.78                              63    3.1510  120 204 
 LO8  SZ E        2223 15.19                  160.2  6.8    136         120 204 
 LO8  SE IS       2223 25.48                              63   -0.1410  120 204 
 LO8  SZ  AML     2223 27.82        37.3 0.48                           120 204 
                                                                                
 2009  527 2322 44.6 L  21.739 -99.333 10.0  RAL  1 0.0 0.8LRAL                1
 GAP=360        0.30       3.8     0.9  0.0 -0.1354E+01  0.2716E+07  0.3889E+07E
 ACTION:UPD 12-06-08 11:37 OP:RALL STATUS:               ID:20090527232244     I
 2009-05-27-2322-38S.PLUR1_003                                                 6
 STAT SP IPHASW D HRMM SECON CODA AMPLIT PERI AZIMU VELO AIN AR TRES W  DIS CAZ7
 LA4  SN IP       2322 49.60                             105    0.0110 28.4 175 
 LA4  SZ E        2322 49.63                  354.9 11.0      0        28.4 175 
 LA4  SE IS       2322 53.24                             105   -0.0110 28.4 175 
 LA4  SZ  AML     2322 55.33        11.6 0.82                          28.4 175 
                                                                                
 2009  527 2342 55.4 L  21.965 -99.445 10.0  RAL  1 0.0 3.5LRAL                1
 GAP=360        0.30       3.6     2.2  0.0 -0.2689E+01  0.2716E+07  0.3889E+07E
 ACTION:UPD 12-06-08 11:37 OP:RALL STATUS:               ID:20090527234255     I
 2009-05-27-2342-57S.PLUR1_003                                                 6
 STAT SP IPHASW D HRMM SECON CODA AMPLIT PERI AZIMU VELO AIN AR TRES W  DIS CAZ7
 LZ4  SN IP       2343  7.20                              95    0.0110 72.5 165 
 LZ4  SZ E        2343  7.25                  345.5  6.4      0        72.5 165 
 LZ4  SE IS       2343 15.78                              95   -0.0110 72.5 165 
 LZ4  SZ  AML     2343 16.55      2450.5 0.48                          72.5 165 
                                                                                
 2009  528 0151 12.7 L  21.235 -99.413 10.0  RAL  1 0.0 1.0LRAL                1
 GAP=360        0.30       2.4     3.6  0.0  0.8449E+01  0.2716E+07  0.3889E+07E
 ACTION:UPD 12-06-08 11:37 OP:RALL STATUS:               ID:20090528015112     I
 2009-05-28-0151-07S.PLUR1_003                                                 6
 STAT SP IPHASW D HRMM SECON CODA AMPLIT PERI AZIMU VELO AIN AR TRES W  DIS CAZ7
 LZ4  SZ E         151 16.04                  234.6 20.4      0        18.3  55 
 LZ4  SN IP        151 16.28                             116    0.0110 18.3  55 
 LZ4  SE IS        151 18.84                             116   -0.0110 18.3  55 
 LZ4  SZ  AML      151 19.19        26.5 0.40                          18.3  55 
                                                                                
 2009  528 0230 12.5 L  21.325 -99.293 10.0  RAL  1 0.1 0.4LRAL                1
 GAP=360        0.36       0.3     0.3999.9  0.3289E-01  0.2716E+07  0.3889E+07E
 ACTION:UPD 12-06-08 11:37 OP:RALL STATUS:               ID:20090528023012     I
 2009-05-28-0230-05S.PLUR1_003                                                 6
 STAT SP IPHASW D HRMM SECON CODA AMPLIT PERI AZIMU VELO AIN AR TRES W  DIS CAZ7
 LZ4  SZ E         230 14.54                  255.6 19.8      1        2.53  74 
 LZ4  SN IP        230 14.56                             166    0.1810 2.53  74 
 LZ4  SE IS        230 15.58                             166   -0.1810 2.53  74 
 LZ4  SZ  AML      230 16.83        13.2 0.90                          2.53  74 
                                                                                
 2009  528 0413 54.4 L  21.285 -99.423 10.0  RAL  1 0.0 0.8LRAL                1
 GAP=360        0.30       1.3     4.3  0.0  0.5402E+01  0.2716E+07  0.3889E+07E
 ACTION:UPD 12-06-08 11:37 OP:RALL STATUS:               ID:20090528041354     I
 2009-05-28-0413-48S.PLUR1_003                                                 6
 STAT SP IPHASW D HRMM SECON CODA AMPLIT PERI AZIMU VELO AIN AR TRES W  DIS CAZ7
 LZ4  SZ E         413 57.56                  252.5 24.6      0        16.7  72 
 LZ4  SN IP        413 57.71                             119    0.0010 16.7  72 
 LZ4  SE IS        414  0.12                             119    0.0010 16.7  72 
 LZ4  SZ  AML      414  0.44        17.0 0.68                          16.7  72 
                                                                                
 2009  528 0857 28.1 L  21.305 -99.289 10.0  RAL  1 0.1 0.8LRAL                1
 GAP=360        0.43      13.2    10.2  0.0  0.1351E+03  0.2716E+07  0.3889E+07E
 ACTION:UPD 12-06-08 11:37 OP:RALL STATUS:               ID:20090528085728     I
 2009-05-28-0857-20S.PLUR1_003                                                 6
 STAT SP IPHASW D HRMM SECON CODA AMPLIT PERI AZIMU VELO AIN AR TRES W  DIS CAZ7
 LZ4  SZ E         857 30.19                  215.8 29.3      0        3.54  36 
 LZ4  SN IP        857 30.20                             161    0.2110 3.54  36 
 LZ4  SE IS        857 31.19                             161   -0.2110 3.54  36 
 LZ4  SZ  AML      857 31.40        35.4 0.26                          3.54  36 
                                                                                
 2009  528 1117 54.6 L  21.258 -99.248 10.0  RAL  1 0.1 0.3LRAL                1
 GAP=360        0.46     237.0   999.9  0.0  0.2680E+06  0.2716E+07  0.3889E+07E
 ACTION:UPD 12-06-08 11:37 OP:RALL STATUS:               ID:20090528111754     I
 2009-05-28-1117-47S.PLUR1_003                                                 6
 STAT SP IPHASW D HRMM SECON CODA AMPLIT PERI AZIMU VELO AIN AR TRES W  DIS CAZ7
 LG3  SZ E        1117 56.66                  166.8 26.0      1        2.01 346 
 LG3  SN IP       1117 56.71                             169    0.1810 2.01 346 
 LG3  SE IS       1117 57.72                             169   -0.1810 2.01 346 
 LG3  SZ  AML     1117 57.83        11.6 0.10                          2.01 346 
                                                                                
 2009  528 1813 13.2 L  21.689 -99.453 10.0  RAL  1 0.0 1.6LRAL                1
 GAP=360        0.30       3.4     2.1  0.0 -0.5331E+01  0.2716E+07  0.3889E+07E
 ACTION:UPD 12-06-08 11:37 OP:RALL STATUS:               ID:20090528181313     I
 2009-05-28-1813-11S.PLUR1_003                                                 6
 STAT SP IPHASW D HRMM SECON CODA AMPLIT PERI AZIMU VELO AIN AR TRES W  DIS CAZ7
 LZ4  SN IP       1813 20.60                              99    0.0110 44.0 154 
 LZ4  SZ E        1813 20.60                  334.5 20.6      0        44.0 154 
 LZ4  SE IS       1813 25.96                              99   -0.0110 44.0 154 
 LZ4  SZ  AML     1813 27.85        47.5 0.72                          44.0 154 
                                                                                
 2009  528 1931  3.0 L  21.307 -99.275 10.0  RAL  1 0.0 0.6LRAL                1
 GAP=360        0.33      15.9     3.5  0.0  0.5624E+02  0.2716E+07  0.3889E+07E
 ACTION:UPD 12-06-08 11:37 OP:RALL STATUS:               ID:20090528193103     I
 2009-05-28-1930-57S.PLUR1_003                                                 6
 STAT SP IPHASW D HRMM SECON CODA AMPLIT PERI AZIMU VELO AIN AR TRES W  DIS CAZ7
 LZ4  SN IP       1931  4.94                             165    0.1010 2.70  12 
 LZ4  SZ E        1931  4.98                  191.7 19.3      0        2.70  12 
 LZ4  SE IS       1931  6.12                             165   -0.1010 2.70  12 
 LZ4  SZ  AML     1931  6.72        24.0 0.10                          2.70  12 
                                                                                
 2009  529 0530  6.5 L  21.641 -99.662 10.0  RAL  1 0.0 1.1LRAL                1
 GAP=360        0.30       1.9     3.7  0.0 -0.5424E+01  0.2716E+07  0.3889E+07E
 ACTION:UPD 12-06-08 11:37 OP:RALL STATUS:               ID:20090529053006     I
 2009-05-29-0529-58S.PLUR1_003                                                 6
 STAT SP IPHASW D HRMM SECON CODA AMPLIT PERI AZIMU VELO AIN AR TRES W  DIS CAZ7
 LA4  SZ E         530 13.28                  295.5 13.3      0        40.5 115 
 LA4  SN IP        530 13.31                             100    0.0110 40.5 115 
 LA4  SE IS        530 18.28                             100   -0.0110 40.5 115 
 LA4  SZ  AML      530 24.05        16.5 0.34                          40.5 115 
                                                                                
 2009  529 0831 25.7 L  21.742 -99.283 10.0  RAL  1 0.0 0.9LRAL                1
 GAP=360        0.30       3.8     0.9  0.0  0.1401E+01  0.2716E+07  0.3889E+07E
 ACTION:UPD 12-06-08 11:37 OP:RALL STATUS:               ID:20090529083125     I
 2009-05-29-0831-18S.PLUR1_003                                                 6
 STAT SP IPHASW D HRMM SECON CODA AMPLIT PERI AZIMU VELO AIN AR TRES W  DIS CAZ7
 LA4  SN IP        831 30.75                             105    0.0110 28.8 185 
 LA4  SZ E         831 30.93                    5.3  9.5      0        28.8 185 
 LA4  SE IS        831 34.43                             105   -0.0110 28.8 185 
 LA4  SZ  AML      831 36.53        16.1 0.34                          28.8 185 
                                                                                
 2009  529 0949 28.1 L  21.351 -99.296 10.0  RAL  1 0.1 1.3LRAL                1
 GAP=360        0.46      10.9    14.7  0.0 -0.1595E+03  0.2716E+07  0.3889E+07E
 ACTION:UPD 12-06-08 11:37 OP:RALL STATUS:               ID:20090529094928     I
 2009-05-29-0949-20S.PLUR1_003                                                 6
 STAT SP IPHASW D HRMM SECON CODA AMPLIT PERI AZIMU VELO AIN AR TRES W  DIS CAZ7
 LZ4  SZ E         949 30.26                  308.5 22.5      0        3.56 128 
 LZ4  SN IP        949 30.28                             161    0.2410 3.56 128 
 LZ4  SE IS        949 31.21                             161   -0.2410 3.56 128 
 LZ4  SZ  AML      949 31.33       117.1 0.14                          3.56 128 
                                                                                
 2009  529 0959 58.9 L  21.558 -99.402 10.0  RAL  1 0.0 0.5LRAL                1
 GAP=360        0.30       3.0     3.8  0.0 -0.1148E+02  0.2716E+07  0.3889E+07E
 ACTION:UPD 12-06-08 11:37 OP:RALL STATUS:               ID:20090529095958     I
 2009-05-29-0959-49S.PLUR1_003                                                 6
 STAT SP IPHASW D HRMM SECON CODA AMPLIT PERI AZIMU VELO AIN AR TRES W  DIS CAZ7
 LA4  SN IP       10 0  1.70                             127    0.0210 12.7 131 
 LA4  SZ E        10 0  1.86                  310.6 12.1      0        12.7 131 
 LA4  SE IS       10 0  3.70                             127   -0.0210 12.7 131 
 LA4  SZ  AML     10 0  5.72        10.8 0.80                          12.7 131 
                                                                                
