 2009  5 1 0418 28.7 L  21.325 -99.266 10.0  RAL  1 0.2 0.4LRAL                1
 GAP=360        2.21     999.9   999.9  0.0  0.7869E+08  0.2858E+02 -0.3548E+02E
 ACTION:UPD 12-06-08 11:37 OP:RALL STATUS:               ID:20090501041828     I
 2009-05-01-0418-21S.PLUR1_003                                                 6
 STAT SP IPHASW D HRMM SECON CODA AMPLIT PERI AZIMU VELO AIN AR TRES W  DIS CAZ7
 LZ4  SN IP        418 30.86                             176    0.3710 0.72 330 
 LZ4  SZ E         418 30.88                  160.2 17.7     10        0.72 330 
 LZ4  SE IS        418 31.45                             176   -0.3710 0.72 330 
 LZ4  SZ  AML      418 32.29        13.1 0.16                          0.72 330 
                                                                                
 2009  5 1 0542 20.1 L  21.256 -99.263 10.0  RAL  1 0.1 0.1LRAL                1
 GAP=360        0.63      30.4    17.0  0.0  0.5182E+03  0.2858E+02 -0.3548E+02E
 ACTION:UPD 12-06-08 11:37 OP:RALL STATUS:               ID:20090501054220     I
 2009-05-01-0542-13S.PLUR1_003                                                 6
 STAT SP IPHASW D HRMM SECON CODA AMPLIT PERI AZIMU VELO AIN AR TRES W  DIS CAZ7
 LG3  SZ E         542 22.32                  208.8 12.8      1        2.45  28 
 LG3  SN IP        542 22.34                             167    0.3310 2.45  28 
 LG3  SE IS        542 23.06                             167   -0.3310 2.45  28 
 LG3  SZ  AML      542 23.42         7.2 0.10                          2.45  28 
                                                                                
 2009  5 1 0553 45.4 R  22.146 -98.371 10.0  RAL  1 0.0 1.9LRAL                1
 GAP=360        0.30       4.1     4.4  0.0  0.5937E+01  0.2858E+02 -0.3548E+02E
 ACTION:UPD 12-06-08 11:37 OP:RALL STATUS:               ID:20090501055345     I
 2009-05-01-0553-59S.PLUR1_003                                                 6
 STAT SP IPHASW D HRMM SECON CODA AMPLIT PERI AZIMU VELO AIN AR TRES W  DIS CAZ7
 LZ4  SZ E         554  5.87                   45.7 99.9      0         130 226 
 LZ4  SN IP        554  5.92                              52    0.0110  130 226 
 LZ4  SE IS        554 20.90                              52   -0.0110  130 226 
 LZ4  SZ  AML      554 24.89        34.6 0.28                           130 226 
                                                                                
 2009  5 1 0602 18.5 L  21.488 -99.315 10.0  RAL  1 0.5 0.1LRAL                1
 GAP=360        5.71     999.9   999.9  0.0  0.2363E+08  0.2858E+02 -0.3548E+02E
 ACTION:UPD 12-06-08 11:37 OP:RALL STATUS:               ID:20090501060218     I
 2009-05-01-0602-06S.PLUR1_003                                                 6
 STAT SP IPHASW D HRMM SECON CODA AMPLIT PERI AZIMU VELO AIN AR TRES W  DIS CAZ7
 LA4  SZ E         6 2 20.78                  282.3 24.7    -26        0.75 129 
 LA4  SN IP        6 2 20.82                             176    0.4610 0.75 129 
 LA4  SE IS        6 2 21.24                             176   -0.4610 0.75 129 
 LA4  SZ  AML      6 2 21.32         6.9 0.46                          0.75 129 
                                                                                
 2009  5 1 0651 14.1 R  20.308 -99.868 10.0  RAL  1 0.0 2.3LRAL                1
 GAP=360        0.30       4.4     3.9  0.0  0.4973E+01  0.2858E+02 -0.3548E+02E
 ACTION:UPD 12-06-08 11:37 OP:RALL STATUS:               ID:20090501065114     I
 2009-05-01-0651-28S.PLUR1_003                                                 6
 STAT SP IPHASW D HRMM SECON CODA AMPLIT PERI AZIMU VELO AIN AR TRES W  DIS CAZ7
 LZ4  SN IP        651 34.60                              52    0.0110  129  29 
 LZ4  SZ E         651 34.61                  208.9 43.5      0         129  29 
 LZ4  SE IS        651 49.55                              52   -0.0110  129  29 
 LZ4  SZ  AML      651 56.41        77.5 0.28                           129  29 
                                                                                
 2009  5 1 0815 20.3 L  20.741 -98.248  0.0  RAL  2 0.7 2.3LRAL                1
 GAP=353        7.94     549.6   905.8999.9 -0.4934E+06  0.1761E+07 -0.1065E+07E
 ACTION:UPD 12-06-08 11:37 OP:RALL STATUS:               ID:20090501081520     I
 2009-05-01-0815-30S.PLUR1_009                                                 6
 STAT SP IPHASW D HRMM SECON CODA AMPLIT PERI AZIMU VELO AIN AR TRES W  DIS CAZ7
 LG3  SZ E         815 38.30                   93.3 18.9    -25         120 300 
 LG3  SN IP        815 38.58                              63   -1.2510  120 300 
 LG3  SE IS        815 52.47                              63   -1.6210  120 300 
 LG3  SZ  AML      815 56.65        95.4 0.56                           120 300 
 LA4  SZ E         815 43.38                  151.3 12.8     25         138 307 
 LA4  SN IP        815 43.49                              63    0.9510  138 307 
 LA4  SE IS        816  0.69                              63    1.9110  138 307 
 LA4  SZ  AML      816  3.36        76.7 0.42                           138 307 
                                                                                
 2009  5 1 1202 57.6 L  21.245 -99.219 10.0  RAL  1 0.0 1.2LRAL                1
 GAP=360        0.30       4.4     2.6  0.0 -0.1128E+02  0.1761E+07 -0.1065E+07E
 ACTION:UPD 12-06-08 11:37 OP:RALL STATUS:               ID:20090501120257     I
 2009-05-01-1202-51S.PLUR1_003                                                 6
 STAT SP IPHASW D HRMM SECON CODA AMPLIT PERI AZIMU VELO AIN AR TRES W  DIS CAZ7
 LZ4  SN IP       12 3  0.24                             132    0.0210 10.9 331 
 LZ4  SZ E        12 3  0.26                  151.0 12.3      0        10.9 331 
 LZ4  SE IS       12 3  2.07                             132   -0.0210 10.9 331 
 LZ4  SZ  AML     12 3  2.21        61.4 0.30                          10.9 331 
                                                                                
 2009  5 1 1327 28.9 L  21.268 -99.233 10.0  RAL  1 0.2 1.1LRAL                1
 GAP=360        1.49      33.6    88.9  0.0 -0.2990E+04  0.1761E+07 -0.1065E+07E
 ACTION:UPD 12-06-08 11:37 OP:RALL STATUS:               ID:20090501132728     I
 2009-05-01-1327-22S.PLUR1_003                                                 6
 STAT SP IPHASW D HRMM SECON CODA AMPLIT PERI AZIMU VELO AIN AR TRES W  DIS CAZ7
 LG3  SZ E        1327 31.06                  105.4 14.7     -6        2.21 292 
 LG3  SN IP       1327 31.10                             168    0.2910 2.21 292 
 LG3  SE IS       1327 31.90                             168   -0.2910 2.21 292 
 LG3  SZ  AML     1327 32.58        76.7 0.30                          2.21 292 
                                                                                
 2009  5 1 1455 56.9 L  21.749 -99.378 10.0  RAL  1 0.0 0.9LRAL                1
 GAP=360        0.30       3.7     1.3  0.0 -0.3464E+01  0.1761E+07 -0.1065E+07E
 ACTION:UPD 12-06-08 11:37 OP:RALL STATUS:               ID:20090501145556     I
 2009-05-01-1455-48S.PLUR1_003                                                 6
 STAT SP IPHASW D HRMM SECON CODA AMPLIT PERI AZIMU VELO AIN AR TRES W  DIS CAZ7
 LA4  SN IP       1456  2.16                             104    0.0110 30.3 166 
 LA4  SZ E        1456  2.21                  346.3  8.5      0        30.3 166 
 LA4  SE IS       1456  6.00                             104   -0.0110 30.3 166 
 LA4  SZ  AML     1456  7.32        16.3 0.32                          30.3 166 
                                                                                
 2009  5 1 1516  2.4 L  21.572 -99.314 10.0  RAL  1 0.0 0.1LRAL                1
 GAP=360        0.30       5.3     0.4  0.0 -0.1450E+01  0.1761E+07 -0.1065E+07E
 ACTION:UPD 12-06-08 11:37 OP:RALL STATUS:               ID:20090501151602     I
 2009-05-01-1515-52S.PLUR1_003                                                 6
 STAT SP IPHASW D HRMM SECON CODA AMPLIT PERI AZIMU VELO AIN AR TRES W  DIS CAZ7
 LA4  SN IP       1516  4.83                             135    0.0010 9.79 177 
 LA4  SZ E        1516  4.84                  357.2  9.4      0        9.79 177 
 LA4  SE IS       1516  6.62                             135    0.0010 9.79 177 
 LA4  SZ  AML     1516  7.47         5.8 0.38                          9.79 177 
                                                                                
 2009  5 2 0022 44.0 L  22.015 -99.380 10.0  RAL  1 0.0 2.1LRAL                1
 GAP=360        0.30       3.7     1.7  0.0 -0.1523E+01  0.1761E+07 -0.1065E+07E
 ACTION:UPD 12-06-08 11:37 OP:RALL STATUS:               ID:20090502002244     I
 2009-05-02-0022-40S.PLUR1_003                                                 6
 STAT SP IPHASW D HRMM SECON CODA AMPLIT PERI AZIMU VELO AIN AR TRES W  DIS CAZ7
 LA4  SN IP        022 53.71                              96    0.0110 59.2 173 
 LA4  SZ E         022 53.76                  352.9  8.0      0        59.2 173 
 LA4  SE IS        023  0.80                              96   -0.0110 59.2 173 
 LA4  SZ  AML      023  3.73       113.2 0.34                          59.2 173 
                                                                                
 2009  5 2 0258  3.7 L  21.334 -99.265 10.0  RAL  1 0.6 1.6LRAL                1
 GAP=360        7.39     773.1   999.9  0.0 -0.2046E+07  0.1761E+07 -0.1065E+07E
 ACTION:UPD 12-06-08 11:37 OP:RALL STATUS:               ID:20090502025803     I
 2009-05-02-0257-56S.PLUR1_003                                                 6
 STAT SP IPHASW D HRMM SECON CODA AMPLIT PERI AZIMU VELO AIN AR TRES W  DIS CAZ7
 LZ4  SZ E         258  6.05                   90.3 10.3     35        0.60 235 
 LZ4  SN IP        258  6.08                             177    0.5410 0.60 235 
 LZ4  SE IS        258  6.33                             177   -0.5410 0.60 235 
 LZ4  SZ  AML      258  6.64       232.2 0.26                          0.60 235 
                                                                                
 2009  5 2 0335 22.3 L  21.315 -99.292 10.0  RAL  1 0.1 0.1LRAL                1
 GAP=360        0.48      12.7    18.7  0.0  0.2368E+03  0.1761E+07 -0.1065E+07E
 ACTION:UPD 12-06-08 11:37 OP:RALL STATUS:               ID:20090502033522     I
 2009-05-02-0335-16S.PLUR1_003                                                 6
 STAT SP IPHASW D HRMM SECON CODA AMPLIT PERI AZIMU VELO AIN AR TRES W  DIS CAZ7
 LZ4  SZ E         335 24.10                  233.9 43.1      0        2.95  54 
 LZ4  SN IP        335 24.49                             164    0.2510 2.95  54 
 LZ4  SZ  AML      335 24.99         7.0 0.58                          2.95  54 
 LZ4  SE IS        335 25.37                             164   -0.2510 2.95  54 
                                                                                
 2009  5 2 0423 54.0 L  21.271 -99.250 10.0  RAL  1 0.5 0.2LRAL                1
 GAP=360        6.74     382.4   999.9  0.0 -0.1279E+07  0.1761E+07 -0.1065E+07E
 ACTION:UPD 12-06-08 11:37 OP:RALL STATUS:               ID:20090502042354     I
 2009-05-02-0423-48S.PLUR1_003                                                 6
 STAT SP IPHASW D HRMM SECON CODA AMPLIT PERI AZIMU VELO AIN AR TRES W  DIS CAZ7
 LG3  SZ E         423 55.97                  186.8  5.6     32        0.52 335 
 LG3  SN IP        423 56.03                             177    0.1910 0.52 335 
 LG3  SE IS        423 57.00                             177   -0.1910 0.52 335 
 LG3  SZ  AML      423 57.71         8.7 0.16                          0.52 335 
                                                                                
 2009  5 2 0800 47.9 L  21.303 -99.186 10.0  RAL  1 0.0 0.5LRAL                1
 GAP=360        0.30       1.8     5.5  0.0 -0.1007E+02  0.1761E+07 -0.1065E+07E
 ACTION:UPD 12-06-08 11:37 OP:RALL STATUS:               ID:20090502080047     I
 2009-05-02-0800-43S.PLUR1_003                                                 6
 STAT SP IPHASW D HRMM SECON CODA AMPLIT PERI AZIMU VELO AIN AR TRES W  DIS CAZ7
 LZ4  SZ E         8 0 50.27                  109.6 50.3      0        9.22 290 
 LZ4  SN IP        8 0 50.32                             137    0.0210 9.22 290 
 LZ4  SE IS        8 0 52.02                             137   -0.0210 9.22 290 
 LZ4  SZ  AML      8 0 54.36        13.3 0.60                          9.22 290 
                                                                                
 2009  5 2 0909 30.7 L  21.345 -99.263 10.0  RAL  1 0.1 0.3LRAL                1
 GAP=360        0.55     649.1   999.9  0.0 -0.1124E+07  0.1761E+07 -0.1065E+07E
 ACTION:UPD 12-06-08 11:37 OP:RALL STATUS:               ID:20090502090930     I
 2009-05-02-0909-24S.PLUR1_003                                                 6
 STAT SP IPHASW D HRMM SECON CODA AMPLIT PERI AZIMU VELO AIN AR TRES W  DIS CAZ7
 LZ4  SN IP        9 9 32.90                             171    0.3210 1.67 203 
 LZ4  SZ E         9 9 32.92                   23.4 19.6      0        1.67 203 
 LZ4  SE IS        9 9 33.62                             171   -0.3210 1.67 203 
 LZ4  SZ  AML      9 9 33.91        11.6 0.28                          1.67 203 
                                                                                
 2009  5 2 0927  3.0 L  21.253 -99.224 10.0  RAL  1 0.1 0.2LRAL                1
 GAP=360        0.42       9.8    12.1  0.0 -0.1184E+03  0.1761E+07 -0.1065E+07E
 ACTION:UPD 12-06-08 11:37 OP:RALL STATUS:               ID:20090502092703     I
 2009-05-02-0926-56S.PLUR1_003                                                 6
 STAT SP IPHASW D HRMM SECON CODA AMPLIT PERI AZIMU VELO AIN AR TRES W  DIS CAZ7
 LG3  SZ E         927  5.08                  130.7 14.8      0        3.87 311 
 LG3  SN IP        927  5.12                             160    0.2010 3.87 311 
 LG3  SE IS        927  6.15                             160   -0.2010 3.87 311 
 LG3  SZ  AML      927  6.76         8.6 0.66                          3.87 311 
                                                                                
 2009  5 2 1555 42.3 L  21.796 -99.434 10.0  RAL  1 0.0 0.9LRAL                1
 GAP=360        0.30       3.5     1.7  0.0 -0.4708E+01  0.1761E+07 -0.1065E+07E
 ACTION:UPD 12-06-08 11:37 OP:RALL STATUS:               ID:20090502155542     I
 2009-05-02-1555-37S.PLUR1_003                                                 6
 STAT SP IPHASW D HRMM SECON CODA AMPLIT PERI AZIMU VELO AIN AR TRES W  DIS CAZ7
 LA4  SN IP       1555 48.56                             101    0.0110 36.9 159 
 LA4  SZ E        1555 48.65                  339.5 10.2      0        36.9 159 
 LA4  SE IS       1555 53.13                             101   -0.0110 36.9 159 
 LA4  SZ  AML     1555 56.84        13.9 0.30                          36.9 159 
                                                                                
 2009  5 2 1927 39.9 L  21.325 -99.257 10.0  RAL  1 0.3 0.4LRAL                1
 GAP=360        2.55     201.1   397.8  0.0  0.7996E+05  0.1761E+07 -0.1065E+07E
 ACTION:UPD 12-06-08 11:37 OP:RALL STATUS:               ID:20090502192739     I
 2009-05-02-1927-33S.PLUR1_003                                                 6
 STAT SP IPHASW D HRMM SECON CODA AMPLIT PERI AZIMU VELO AIN AR TRES W  DIS CAZ7
 LZ4  SZ E        1927 42.28                  107.4  9.7    -10        1.45 299 
 LZ4  SN IP       1927 42.39                             172    0.6110 1.45 299 
 LZ4  SE IS       1927 42.52                             172   -0.6110 1.45 299 
 LZ4  SZ  AML     1927 43.06        14.1 0.54                          1.45 299 
                                                                                
 2009  5 3 0618 29.6 L  21.798 -99.487 10.0  RAL  1 0.0 0.7LRAL                1
 GAP=360        0.30       3.4     2.1  0.0 -0.5835E+01  0.1761E+07 -0.1065E+07E
 ACTION:UPD 12-06-08 11:37 OP:RALL STATUS:               ID:20090503061829     I
 2009-05-03-0618-22S.PLUR1_003                                                 6
 STAT SP IPHASW D HRMM SECON CODA AMPLIT PERI AZIMU VELO AIN AR TRES W  DIS CAZ7
 LA4  SZ E         618 36.17                  332.2 10.0      0        39.3 152 
 LA4  SN IP        618 36.28                             100    0.0210 39.3 152 
 LA4  SE IS        618 41.12                             100   -0.0210 39.3 152 
 LA4  SZ  AML      618 44.08         8.3 0.46                          39.3 152 
                                                                                
 2009  5 3 0838  5.3 L  21.472 -99.328 10.0  RAL  1 0.2 0.4LRAL                1
 GAP=360        0.71      22.4    37.0  0.0  0.8263E+03  0.1761E+07 -0.1065E+07E
 ACTION:UPD 12-06-08 11:37 OP:RALL STATUS:               ID:20090503083805     I
 2009-05-03-0837-53S.PLUR1_003                                                 6
 STAT SP IPHASW D HRMM SECON CODA AMPLIT PERI AZIMU VELO AIN AR TRES W  DIS CAZ7
 LA4  SZ E         838  7.57                  237.0 22.0      0        2.31  57 
 LA4  SN IP        838  7.59                             167    0.4410 2.31  57 
 LA4  SE IS        838  8.09                             167   -0.4410 2.31  57 
 LA4  SZ  AML      838  8.13        14.7 0.24                          2.31  57 
                                                                                
 2009  5 3 1337 46.2 L  21.474 -99.327 10.0  RAL  1 0.2 0.0LRAL                1
 GAP=360        0.70      21.6    39.1  0.0  0.8439E+03  0.1761E+07 -0.1065E+07E
 ACTION:UPD 12-06-08 11:37 OP:RALL STATUS:               ID:20090503133746     I
 2009-05-03-1337-34S.PLUR1_003                                                 6
 STAT SP IPHASW D HRMM SECON CODA AMPLIT PERI AZIMU VELO AIN AR TRES W  DIS CAZ7
 LA4  SZ E        1337 48.42                  239.3 23.1      0        2.18  59 
 LA4  SN IP       1337 48.46                             168    0.4310 2.18  59 
 LA4  SE IS       1337 48.98                             168   -0.4310 2.18  59 
 LA4  SZ  AML     1337 49.07         5.0 0.18                          2.18  59 
                                                                                
 2009  5 3 15 6 57.1 L                       RAL  1                            1
 ACTION:UPD 12-06-08 11:37 OP:RALL STATUS:               ID:20090503150657     I
 2009-05-03-1506-57S.PLUR1_003                                                 6
 STAT SP IPHASW D HRMM SECON CODA AMPLIT PERI AZIMU VELO AIN AR TRES W  DIS CAZ7
 LZ4  SZ E        15 7  6.00                  341.7 10.1                        
 LZ4  SN IP       15 7  6.01                                                    
 LZ4  SZ  AML     15 7  7.10        34.6 0.16                                   
                                                                                
 2009  5 3 1606 31.3 L  21.568 -99.534 10.0  RAL  1 0.0 0.9LRAL                1
 GAP=360        0.30       2.7     3.0  0.0 -0.7127E+01  0.1761E+07 -0.1065E+07E
 ACTION:UPD 12-06-08 11:37 OP:RALL STATUS:               ID:20090503160631     I
 2009-05-03-1606-32S.PLUR1_003                                                 6
 STAT SP IPHASW D HRMM SECON CODA AMPLIT PERI AZIMU VELO AIN AR TRES W  DIS CAZ7
 LZ4  SZ E        16 6 37.73                  313.8 10.0      0        38.0 134 
 LZ4  SN IP       16 6 37.75                             100    0.0210 38.0 134 
 LZ4  SE IS       16 6 42.42                             100   -0.0210 38.0 134 
 LZ4  SZ  AML     16 6 43.50        12.6 0.64                          38.0 134 
                                                                                
