 2009  220 0802 43.5 L  21.328 -99.277 10.0  RAL  1 0.2 2.0LRAL                1
 GAP=360        3.00     999.9   201.9  0.0 -0.4051E+06 -0.1232E+02 -0.1669E+02E
 ACTION:UPD 12-06-08 11:37 OP:RALL STATUS:               ID:20090220080243     I
 2009-02-20-0802-35S.PLUR1_003                                                 6
 STAT SP IPHASW D HRMM SECON CODA AMPLIT PERI AZIMU VELO AIN AR TRES W  DIS CAZ7
 LZ4  SZ E         8 2 45.42                  265.0 28.0     14        0.80  71 
 LZ4  SN IP        8 2 45.42                             176    0.1310 0.80  71 
 LZ4  SE IS        8 2 46.50                             176   -0.1310 0.80  71 
 LZ4  SZ  AML      8 2 47.04       553.3 0.14                          0.80  71 
                                                                                
 2009  220 1048 12.5 L  21.107 -99.176 10.0  RAL  1 0.0 0.9LRAL                1
 GAP=360        0.30       3.6     1.7  0.0 -0.5267E+01 -0.1232E+02 -0.1669E+02E
 ACTION:UPD 12-06-08 11:37 OP:RALL STATUS:               ID:20090220104812     I
 2009-02-20-1048-11S.PLUR1_003                                                 6
 STAT SP IPHASW D HRMM SECON CODA AMPLIT PERI AZIMU VELO AIN AR TRES W  DIS CAZ7
 LZ4  SN IP       1048 17.25                             107    0.0210 26.6 339 
 LZ4  SZ E        1048 17.38                  158.7 15.3      0        26.6 339 
 LZ4  SE IS       1048 20.67                             107   -0.0210 26.6 339 
 LZ4  SZ  AML     1048 22.56        15.2 0.80                          26.6 339 
                                                                                
 2009  220 2056 59.8 L  21.342 -99.292 10.0  RAL  1 0.2 1.5LRAL                1
 GAP=360        0.87      19.9    41.6  0.0 -0.8297E+03 -0.1232E+02 -0.1669E+02E
 ACTION:UPD 12-06-08 11:37 OP:RALL STATUS:               ID:20090220205659     I
 2009-02-20-2056-52S.PLUR1_003                                                 6
 STAT SP IPHASW D HRMM SECON CODA AMPLIT PERI AZIMU VELO AIN AR TRES W  DIS CAZ7
 LZ4  SN IP       2057  2.23                             166    0.5510 2.64 117 
 LZ4  SZ E        2057  2.24                  297.2  6.3      0        2.64 117 
 LZ4  SE IS       2057  2.50                             166   -0.5510 2.64 117 
 LZ4  SZ  AML     2057  2.54       175.6 0.18                          2.64 117 
                                                                                
 2009  221 0508  2.8 L  21.323 -99.232 10.0  RAL  1 0.0 1.1LRAL                1
 GAP=360        0.30       2.3    10.7  0.0 -0.2512E+02 -0.1232E+02 -0.1669E+02E
 ACTION:UPD 12-06-08 11:37 OP:RALL STATUS:               ID:20090221050802     I
 2009-02-21-0507-54S.PLUR1_003                                                 6
 STAT SP IPHASW D HRMM SECON CODA AMPLIT PERI AZIMU VELO AIN AR TRES W  DIS CAZ7
 LZ4  SZ E         5 8  4.78                  103.2 12.9      0        4.01 283 
 LZ4  SN IP        5 8  4.79                             159    0.0310 4.01 283 
 LZ4  SE IS        5 8  6.15                             159   -0.0310 4.01 283 
 LZ4  SZ  AML      5 8  6.27        66.7 0.10                          4.01 283 
                                                                                
 2009  221 1811 53.4 L  21.607 -99.356 10.0  RAL  1 0.0 0.5LRAL                1
 GAP=360        0.30       4.2     1.6  0.0 -0.6524E+01 -0.1232E+02 -0.1669E+02E
 ACTION:UPD 12-06-08 11:37 OP:RALL STATUS:               ID:20090221181153     I
 2009-02-21-1811-42S.PLUR1_003                                                 6
 STAT SP IPHASW D HRMM SECON CODA AMPLIT PERI AZIMU VELO AIN AR TRES W  DIS CAZ7
 LA4  SZ E        1811 56.47                  340.5  7.0      0        14.5 160 
 LA4  SN IP       1811 56.48                             123    0.0010 14.5 160 
 LA4  SE IS       1811 58.68                             123    0.0010 14.5 160 
 LA4  SZ  AML     1811 59.32        11.4 0.28                          14.5 160 
                                                                                
 2009  221 1835 11.6 L  21.608 -99.354 10.0  RAL  1 0.0 0.0LRAL                1
 GAP=360        0.30       4.2     1.6  0.0 -0.6299E+01 -0.1232E+02 -0.1669E+02E
 ACTION:UPD 12-06-08 11:37 OP:RALL STATUS:               ID:20090221183511     I
 2009-02-21-1835-02S.PLUR1_003                                                 6
 STAT SP IPHASW D HRMM SECON CODA AMPLIT PERI AZIMU VELO AIN AR TRES W  DIS CAZ7
 LA4  SZ E        1835 14.59                  341.3  7.5      0        14.5 161 
 LA4  SN IP       1835 14.59                             123    0.0010 14.5 161 
 LA4  SE IS       1835 16.79                             123    0.0010 14.5 161 
 LA4  SZ  AML     1835 19.04         3.2 0.58                          14.5 161 
                                                                                
 2009  221 2332 51.8 L  21.351 -99.281 10.0  RAL  1 0.1 0.1LRAL                1
 GAP=360        0.54      25.6    14.5  0.0 -0.3696E+03 -0.1232E+02 -0.1669E+02E
 ACTION:UPD 12-06-08 11:37 OP:RALL STATUS:               ID:20090221233251     I
 2009-02-21-2332-45S.PLUR1_003                                                 6
 STAT SP IPHASW D HRMM SECON CODA AMPLIT PERI AZIMU VELO AIN AR TRES W  DIS CAZ7
 LZ4  SN IP       2332 54.01                             167    0.3010 2.47 152 
 LZ4  SZ E        2332 54.09                  332.2 61.5      0        2.47 152 
 LZ4  SE IS       2332 54.77                             167   -0.3010 2.47 152 
 LZ4  SZ  AML     2332 55.02         6.8 0.24                          2.47 152 
                                                                                
 2009  222 0631 20.5 L  21.495 -99.289 10.0  RAL  1 0.2 0.1LRAL                1
 GAP=360        0.80      23.0    39.8  0.0  0.9148E+03 -0.1232E+02 -0.1669E+02E
 ACTION:UPD 12-06-08 11:37 OP:RALL STATUS:               ID:20090222063120     I
 2009-02-22-0631-08S.PLUR1_003                                                 6
 STAT SP IPHASW D HRMM SECON CODA AMPLIT PERI AZIMU VELO AIN AR TRES W  DIS CAZ7
 LA4  SZ E         631 22.81                   58.2  7.0      0        2.43 238 
 LA4  SN IP        631 22.88                             167    0.5010 2.43 238 
 LA4  SE IS        631 23.26                             167   -0.5010 2.43 238 
 LA4  SZ  AML      631 23.65         6.8 0.24                          2.43 238 
                                                                                
 2009  222  652 26.8 L                       RAL  1                            1
 ACTION:UPD 12-06-08 11:37 OP:RALL STATUS:               ID:20090222065226     I
 2009-02-22-0652-26S.PLUR1_003                                                 6
 STAT SP IPHASW D HRMM SECON CODA AMPLIT PERI AZIMU VELO AIN AR TRES W  DIS CAZ7
 LZ4  SZ E         652 33.04                                                    
 LZ4  SN IP        652 33.10                                                    
 LZ4  SE IS        652 35.72                                                    
 LZ4  SZ  AML      652 36.51        12.4 0.64                                   
                                                                                
 2009  222 0949 35.6 L  21.941 -99.445 10.0  RAL  2 0.4 2.7LRAL                1
 GAP=360        4.63      70.7    27.4588.3 -0.1403E+04  0.1026E+05 -0.3433E+05E
 ACTION:UPD 12-06-08 11:37 OP:RALL STATUS:               ID:20090222094935     I
 2009-02-22-0949-29S.PLUR1_006                                                 6
 STAT SP IPHASW D HRMM SECON CODA AMPLIT PERI AZIMU VELO AIN AR TRES W  DIS CAZ7
 LA4  SN IP        949 43.94                              97   -0.3810 52.6 164 
 LA4  SZ E         949 44.00                  357.0 11.2     13        52.6 164 
 LA4  SZ  AML      949 50.96       736.3 0.42                          52.6 164 
 LA4  SE IS        949 51.81                              97    1.1410 52.6 164 
 LZ4  SZ E         949 47.40                  328.2  7.1    -16        70.0 165 
 LZ4  SN IP        949 47.40                              95    0.4010 70.0 165 
 LZ4  SE IS        949 54.14                              95   -1.1710 70.0 165 
 LZ4  SZ  AML      949 59.77       346.8 0.24                          70.0 165 
                                                                                
 2009  222 1216 12.8 L  21.596 -99.217 10.0  RAL  1 0.0 0.5LRAL                1
 GAP=360        0.30       3.4     2.8  0.0  0.9513E+01  0.1026E+05 -0.3433E+05E
 ACTION:UPD 12-06-08 11:37 OP:RALL STATUS:               ID:20090222121612     I
 2009-02-22-1216-04S.PLUR1_003                                                 6
 STAT SP IPHASW D HRMM SECON CODA AMPLIT PERI AZIMU VELO AIN AR TRES W  DIS CAZ7
 LA4  SN IP       1216 15.99                             121    0.0110 15.7 218 
 LA4  SZ E        1216 16.10                   37.5  7.7      0        15.7 218 
 LA4  SE IS       1216 18.29                             121   -0.0110 15.7 218 
 LA4  SZ  AML     1216 19.99        10.5 0.24                          15.7 218 
                                                                                
 2009  222 1241  3.7 L  21.511 -99.244 10.0  RAL  1 0.0 0.3LRAL                1
 GAP=360        0.30       2.6     6.2  0.0  0.1606E+02  0.1026E+05 -0.3433E+05E
 ACTION:UPD 12-06-08 11:37 OP:RALL STATUS:               ID:20090222124103     I
 2009-02-22-1240-51S.PLUR1_003                                                 6
 STAT SP IPHASW D HRMM SECON CODA AMPLIT PERI AZIMU VELO AIN AR TRES W  DIS CAZ7
 LA4  SZ E        1241  5.88                   65.8  5.9      0        7.37 246 
 LA4  SN IP       1241  5.89                             144    0.0210 7.37 246 
 LA4  SE IS       1241  7.46                             144   -0.0210 7.37 246 
 LA4  SZ  AML     1241  7.98         9.6 0.42                          7.37 246 
                                                                                
 2009  222 1512 28.4 L  21.326 -99.226 10.0  RAL  1 0.0 0.2LRAL                1
 GAP=360        0.30       1.1     9.9  0.0 -0.1051E+02  0.1026E+05 -0.3433E+05E
 ACTION:UPD 12-06-08 11:37 OP:RALL STATUS:               ID:20090222151228     I
 2009-02-22-1512-22S.PLUR1_003                                                 6
 STAT SP IPHASW D HRMM SECON CODA AMPLIT PERI AZIMU VELO AIN AR TRES W  DIS CAZ7
 LZ4  SN IP       1512 30.35                             156    0.0210 4.49 277 
 LZ4  SZ E        1512 30.37                   96.6 18.1      0        4.49 277 
 LZ4  SE IS       1512 31.75                             156   -0.0210 4.49 277 
 LZ4  SZ  AML     1512 32.42         7.9 0.40                          4.49 277 
                                                                                
 2009  223 0027 14.7 L  21.306 -99.257 10.0  RAL  1 0.1 0.4LRAL                1
 GAP=360        0.39      15.6     7.8  0.0 -0.1208E+03  0.1026E+05 -0.3433E+05E
 ACTION:UPD 12-06-08 11:37 OP:RALL STATUS:               ID:20090223002714     I
 2009-02-23-0027-08S.PLUR1_003                                                 6
 STAT SP IPHASW D HRMM SECON CODA AMPLIT PERI AZIMU VELO AIN AR TRES W  DIS CAZ7
 LZ4  SZ E         027 16.61                  155.1 13.5      0        3.01 335 
 LZ4  SN IP        027 16.75                             164    0.1710 3.01 335 
 LZ4  SE IS        027 17.80                             164   -0.1710 3.01 335 
 LZ4  SZ  AML      027 21.09        15.0 0.74                          3.01 335 
                                                                                
 2009  223 1108 49.0 L  21.474 -99.302 14.2  RAL  2 0.4 0.6LRAL                1
 GAP=202        5.66       2.9     8.5 47.0  0.1234E+02 -0.4712E+01  0.3385E+01E
 ACTION:UPD 12-06-08 11:37 OP:RALL STATUS:               ID:20090223110849     I
 2009-02-23-1108-38S.PLUR1_006                                                 6
 STAT SP IPHASW D HRMM SECON CODA AMPLIT PERI AZIMU VELO AIN AR TRES W  DIS CAZ7
 LA4  SZ E        11 8 52.08                  143.2  7.3     -2        1.23 326 
 LA4  SN IP       11 8 52.11                             175    0.6610 1.23 326 
 LA4  SE IS       11 8 53.42                             175    0.1410 1.23 326 
 LA4  SZ  AML     11 8 53.49         9.1 0.22                          1.23 326 
 LZ4  SN IP       11 8 52.62                             130    0.0410 16.3 168 
 LZ4  SZ E        11 8 52.64                  320.9  7.6    -26        16.3 168 
 LZ4  SE IS       11 8 54.38                             130   -0.8410 16.3 168 
 LZ4  SZ  AML     11 8 54.85        16.6 0.18                          16.3 168 
                                                                                
 2009  223 1909 28.5 L  21.350 -99.280 10.0  RAL  1 0.1 1.0LRAL                1
 GAP=360        0.56      27.5    16.3  0.0 -0.4475E+03 -0.4712E+01  0.3385E+01E
 ACTION:UPD 12-06-08 11:37 OP:RALL STATUS:               ID:20090223190928     I
 2009-02-23-1909-21S.PLUR1_003                                                 6
 STAT SP IPHASW D HRMM SECON CODA AMPLIT PERI AZIMU VELO AIN AR TRES W  DIS CAZ7
 LZ4  SZ E        19 9 30.66                  331.2 26.5      0        2.36 151 
 LZ4  SN IP       19 9 30.68                             167    0.3210 2.36 151 
 LZ4  SE IS       19 9 31.40                             167   -0.3210 2.36 151 
 LZ4  SZ  AML     19 9 31.48        53.9 0.18                          2.36 151 
                                                                                
 2009  223 2013 28.4 L  21.181 -99.209  3.1  RAL  2 0.4 1.0LRAL                1
 GAP=356        6.01      45.9    20.6 38.8 -0.8169E+03 -0.6508E+02  0.1394E+03E
 ACTION:UPD 12-06-08 11:37 OP:RALL STATUS:               ID:20090223201328     I
 2009-02-23-2013-22S.PLUR1_006                                                 6
 STAT SP IPHASW D HRMM SECON CODA AMPLIT PERI AZIMU VELO AIN AR TRES W  DIS CAZ7
 LZ4  SZ E        2013 31.90                  171.9 11.4     13        17.8 339 
 LZ4  SN IP       2013 31.94                             100    0.3710 17.8 339 
 LZ4  SE IS       2013 33.43                             100   -0.4610 17.8 339 
 LZ4  SZ  AML     2013 33.64        78.2 0.20                          17.8 339 
 LA4  SN IP       2013 34.61                              63    0.1310 35.1 343 
 LA4  SZ E        2013 34.82                  136.4  8.5    -25        35.1 343 
 LA4  SE IS       2013 38.89                              63   -0.0410 35.1 343 
 LA4  SZ  AML     2013 40.36         6.3 0.36                          35.1 343 
                                                                                
 2009  224 0239  6.0 L  21.348 -99.274  4.0  RAL  2 0.1 0.9LRAL                1
 GAP=180        1.23       0.5     1.7  7.2  0.6003E+00  0.1103E+00 -0.1988E+00E
 ACTION:UPD 12-06-08 11:37 OP:RALL STATUS:               ID:20090224023906     I
 2009-02-24-0238-55S.PLUR1_006                                                 6
 STAT SP IPHASW D HRMM SECON CODA AMPLIT PERI AZIMU VELO AIN AR TRES W  DIS CAZ7
 LZ4  SZ E         239  6.64                  346.2 22.6      0        1.97 167 
 LZ4  SN IP        239  6.65                             158   -0.2610 1.97 167 
 LZ4  SE IS        239  7.65                             158    0.0510 1.97 167 
 LZ4  SZ  AML      239  7.76       272.1 0.16                          1.97 167 
 LA4  SZ E         239  8.57                  161.3  6.6     -4        15.4 346 
 LA4  SN IP        239  8.57                             108   -0.2510 15.4 346 
 LA4  SE IS        239 11.35                             108    0.4610 15.4 346 
 LA4  SZ  AML      239 11.64        10.7 0.10                          15.4 346 
                                                                                
 2009  224 0619 35.3 L  21.222 -99.226  0.0  RAL  2 0.3 1.1LRAL                1
 GAP=356        5.34      46.9    19.1497.8 -0.8475E+03 -0.5163E+04  0.1313E+05E
 ACTION:UPD 12-06-08 11:37 OP:RALL STATUS:               ID:20090224061935     I
 2009-02-24-0619-28S.PLUR1_006                                                 6
 STAT SP IPHASW D HRMM SECON CODA AMPLIT PERI AZIMU VELO AIN AR TRES W  DIS CAZ7
 LZ4  SZ E         619 37.88                  169.0  9.4     10        12.9 339 
 LZ4  SN IP        619 37.88                              95    0.3410 12.9 339 
 LZ4  SE IS        619 38.79                              95   -0.4110 12.9 339 
 LZ4  SZ  AML      619 40.57       132.6 0.32                          12.9 339 
 LA4  SN IP        619 40.79                              92    0.2210 30.2 343 
 LA4  SZ E         619 40.80                  139.3  7.3    -23        30.2 343 
 LA4  SE IS        619 44.29                              92   -0.1510 30.2 343 
 LA4  SZ  AML      619 48.84        12.6 0.44                          30.2 343 
                                                                                
 2009  224 0709 51.4 L  21.343 -99.290 10.0  RAL  1 0.2 1.1LRAL                1
 GAP=360        0.88      24.4    42.4  0.0 -0.1037E+04 -0.5163E+04  0.1313E+05E
 ACTION:UPD 12-06-08 11:37 OP:RALL STATUS:               ID:20090224070951     I
 2009-02-24-0709-44S.PLUR1_003                                                 6
 STAT SP IPHASW D HRMM SECON CODA AMPLIT PERI AZIMU VELO AIN AR TRES W  DIS CAZ7
 LZ4  SN IP        7 9 53.81                             166    0.5610 2.51 122 
 LZ4  SZ E         7 9 53.84                  301.7  7.8      0        2.51 122 
 LZ4  SE IS        7 9 54.06                             166   -0.5610 2.51 122 
 LZ4  SZ  AML      7 9 54.15        76.3 0.16                          2.51 122 
                                                                                
 2009  224 1023  3.9 L  21.719 -99.522  5.0  RAL  2 0.2 1.0LRAL                1
 GAP=351        3.61      97.7    81.0245.0 -0.7828E+04 -0.1911E+05  0.2314E+05E
 ACTION:UPD 12-06-08 11:37 OP:RALL STATUS:               ID:20090224102303     I
 2009-02-24-1022-56S.PLUR1_006                                                 6
 STAT SP IPHASW D HRMM SECON CODA AMPLIT PERI AZIMU VELO AIN AR TRES W  DIS CAZ7
 LA4  SZ E        1023  9.79                  329.5 11.7     10        34.2 140 
 LA4  SN IP       1023  9.81                              63    0.4810 34.2 140 
 LA4  SE IS       1023 13.29                              63   -0.0310 34.2 140 
 LA4  SZ  AML     1023 14.62        12.7 0.24                          34.2 140 
 LZ4  SN IP       1023 11.98                              63    0.1410 50.3 149 
 LZ4  SZ E        1023 12.19                  314.5 12.6    -13        50.3 149 
 LZ4  SE IS       1023 17.06                              63   -0.5910 50.3 149 
 LZ4  SZ  AML     1023 20.17        15.6 0.46                          50.3 149 
                                                                                
