 2009  513 1912  6.3 L  21.374 -99.449 10.0  RAL  1 0.0 0.8LRAL                1
 GAP=360        0.30       1.1     4.3  0.0 -0.4231E+01  0.3283E+00 -0.4848E+00E
 ACTION:UPD 12-06-08 11:37 OP:RALL STATUS:               ID:20090513191206     I
 2009-05-13-1912-02S.PLUR1_003                                                 6
 STAT SP IPHASW D HRMM SECON CODA AMPLIT PERI AZIMU VELO AIN AR TRES W  DIS CAZ7
 LZ4  SN IP       1912  9.94                             115    0.0210 19.2 104 
 LZ4  SZ E        1912  9.98                  284.3 19.4      0        19.2 104 
 LZ4  SE IS       1912 12.56                             115   -0.0210 19.2 104 
 LZ4  SZ  AML     1912 13.59        17.6 0.58                          19.2 104 
                                                                                
 2009  513 2020 16.8 L  21.517 -99.341 10.0  RAL  1 0.0 0.0LRAL                1
 GAP=360        0.32       7.0     6.6  0.0 -0.4591E+02  0.3283E+00 -0.4848E+00E
 ACTION:UPD 12-06-08 11:37 OP:RALL STATUS:               ID:20090513202016     I
 2009-05-13-2020-06S.PLUR1_003                                                 6
 STAT SP IPHASW D HRMM SECON CODA AMPLIT PERI AZIMU VELO AIN AR TRES W  DIS CAZ7
 LA4  SN IP       2020 18.94                             154    0.0910 4.97 138 
 LA4  SZ E        2020 18.96                  318.5 11.8      0        4.97 138 
 LA4  SE IS       2020 20.24                             154   -0.0910 4.97 138 
 LA4  SZ  AML     2020 21.16         5.2 0.22                          4.97 138 
                                                                                
 2009  514 0218 14.8 L  21.839 -99.468 10.0  RAL  1 0.0 0.7LRAL                1
 GAP=360        0.30       3.5     1.9  0.0 -0.4914E+01  0.3283E+00 -0.4848E+00E
 ACTION:UPD 12-06-08 11:37 OP:RALL STATUS:               ID:20090514021814     I
 2009-05-14-0218-12S.PLUR1_003                                                 6
 STAT SP IPHASW D HRMM SECON CODA AMPLIT PERI AZIMU VELO AIN AR TRES W  DIS CAZ7
 LA4  SZ E         218 21.97                  337.4 10.4      0        42.6 157 
 LA4  SN IP        218 22.00                              99    0.0110 42.6 157 
 LA4  SE IS        218 27.21                              99   -0.0110 42.6 157 
 LA4  SZ  AML      218 27.81         7.0 0.28                          42.6 157 
                                                                                
 2009  514 0827 23.0 L  21.550 -99.068 10.0  RAL  1 0.0 0.7LRAL                1
 GAP=360        0.30       2.9     2.8  0.0  0.7387E+01  0.3283E+00 -0.4848E+00E
 ACTION:UPD 12-06-08 11:37 OP:RALL STATUS:               ID:20090514082723     I
 2009-05-14-0827-23S.PLUR1_003                                                 6
 STAT SP IPHASW D HRMM SECON CODA AMPLIT PERI AZIMU VELO AIN AR TRES W  DIS CAZ7
 LZ4  SZ E         827 28.40                   40.8 57.5      0        32.0 221 
 LZ4  SN IP        827 28.52                             103    0.0210 32.0 221 
 LZ4  SE IS        827 32.52                             103   -0.0210 32.0 221 
 LZ4  SZ  AML      827 32.70         9.8 0.56                          32.0 221 
                                                                                
 2009  514 1030  7.2 L  21.831 -99.443 10.0  RAL  1 0.0 0.4LRAL                1
 GAP=360        0.30       3.5     1.7  0.0 -0.4459E+01  0.3283E+00 -0.4848E+00E
 ACTION:UPD 12-06-08 11:37 OP:RALL STATUS:               ID:20090514103007     I
 2009-05-14-1030-05S.PLUR1_003                                                 6
 STAT SP IPHASW D HRMM SECON CODA AMPLIT PERI AZIMU VELO AIN AR TRES W  DIS CAZ7
 LA4  SZ E        1030 14.01                  340.2  8.1      0        40.9 160 
 LA4  SN IP       1030 14.07                             100    0.0110 40.9 160 
 LA4  SE IS       1030 19.09                             100   -0.0110 40.9 160 
 LA4  SZ  AML     1030 19.45         4.0 0.44                          40.9 160 
                                                                                
 2009  514 1235 36.0 L  21.311 -99.257 10.0  RAL  1 0.2 1.7LRAL                1
 GAP=360        0.80      36.3    22.8  0.0 -0.8287E+03  0.3283E+00 -0.4848E+00E
 ACTION:UPD 12-06-08 11:37 OP:RALL STATUS:               ID:20090514123536     I
 2009-05-14-1235-29S.PLUR1_003                                                 6
 STAT SP IPHASW D HRMM SECON CODA AMPLIT PERI AZIMU VELO AIN AR TRES W  DIS CAZ7
 LZ4  SZ E        1235 38.39                  149.6 13.4      0        2.53 330 
 LZ4  SN IP       1235 38.39                             166    0.5110 2.53 330 
 LZ4  SE IS       1235 38.75                             166   -0.5110 2.53 330 
 LZ4  SZ  AML     1235 38.83       302.1 0.10                          2.53 330 
                                                                                
 2009  515 0851 58.4 L  21.518 -99.458 10.0  RAL  1 0.0 1.2LRAL                1
 GAP=360        0.30       2.8     2.9  0.0 -0.7573E+01  0.3283E+00 -0.4848E+00E
 ACTION:UPD 12-06-08 11:37 OP:RALL STATUS:               ID:20090515085158     I
 2009-05-15-0851-54S.PLUR1_003                                                 6
 STAT SP IPHASW D HRMM SECON CODA AMPLIT PERI AZIMU VELO AIN AR TRES W  DIS CAZ7
 LZ4  SZ E         852  3.39                  316.7 11.5      0        28.4 137 
 LZ4  SN IP        852  3.39                             105    0.0010 28.4 137 
 LZ4  SE IS        852  7.04                             105    0.0010 28.4 137 
 LZ4  SZ  AML      852  7.37        29.1 0.18                          28.4 137 
                                                                                
 2009  515 1045 21.5 L  21.342 -99.512 10.0  RAL  1 0.0 0.7LRAL                1
 GAP=360        0.30       2.4     3.3  0.0  0.7437E+01  0.3283E+00 -0.4848E+00E
 ACTION:UPD 12-06-08 11:37 OP:RALL STATUS:               ID:20090515104521     I
 2009-05-15-1045-12S.PLUR1_003                                                 6
 STAT SP IPHASW D HRMM SECON CODA AMPLIT PERI AZIMU VELO AIN AR TRES W  DIS CAZ7
 LA4  SZ E        1045 26.19                  233.3 14.8      0        26.3  53 
 LA4  SN IP       1045 26.21                             107    0.0010 26.3  53 
 LA4  SE IS       1045 29.63                             107    0.0010 26.3  53 
 LA4  SZ  AML     1045 31.32        10.5 0.52                          26.3  53 
                                                                                
 2009  515 1220  6.3 L  21.617 -99.387 10.0  RAL  1 0.0 0.7LRAL                1
 GAP=360        0.30       3.7     2.2  0.0 -0.7939E+01  0.3283E+00 -0.4848E+00E
 ACTION:UPD 12-06-08 11:37 OP:RALL STATUS:               ID:20090515122006     I
 2009-05-15-1219-56S.PLUR1_003                                                 6
 STAT SP IPHASW D HRMM SECON CODA AMPLIT PERI AZIMU VELO AIN AR TRES W  DIS CAZ7
 LA4  SZ E        1220  9.60                  331.3 10.0      0        16.8 151 
 LA4  SN IP       1220  9.62                             119    0.0110 16.8 151 
 LA4  SE IS       1220 12.04                             119   -0.0110 16.8 151 
 LA4  SZ  AML     1220 13.22        14.8 0.22                          16.8 151 
                                                                                
 2009  515 1341 49.8 L  21.729 -99.366 10.0  RAL  1 0.0 0.6LRAL                1
 GAP=360        0.30       3.8     1.2  0.0 -0.3208E+01  0.3283E+00 -0.4848E+00E
 ACTION:UPD 12-06-08 11:37 OP:RALL STATUS:               ID:20090515134149     I
 2009-05-15-1341-43S.PLUR1_003                                                 6
 STAT SP IPHASW D HRMM SECON CODA AMPLIT PERI AZIMU VELO AIN AR TRES W  DIS CAZ7
 LA4  SZ E        1341 54.77                  347.7  8.8      0        27.7 168 
 LA4  SN IP       1341 54.77                             106    0.0110 27.7 168 
 LA4  SE IS       1341 58.33                             106   -0.0110 27.7 168 
 LA4  SZ  AML     1342  0.15         8.2 0.22                          27.7 168 
                                                                                
 2009  516 0101 22.8 L  21.316 -99.284 10.0  RAL  1 0.2 1.4LRAL                1
 GAP=360        1.09      46.6    48.1  0.0  0.2239E+04  0.3283E+00 -0.4848E+00E
 ACTION:UPD 12-06-08 11:37 OP:RALL STATUS:               ID:20090516010122     I
 2009-05-16-0101-15S.PLUR1_003                                                 6
 STAT SP IPHASW D HRMM SECON CODA AMPLIT PERI AZIMU VELO AIN AR TRES W  DIS CAZ7
 LZ4  SN IP        1 1 25.25                             168    0.6210 2.21  44 
 LZ4  SZ E         1 1 25.26                  221.5  9.7     -1        2.21  44 
 LZ4  SE IS        1 1 25.38                             168   -0.6210 2.21  44 
 LZ4  SZ  AML      1 1 25.60       140.1 0.16                          2.21  44 
                                                                                
 2009  516 1752 59.1 L  21.316 -99.266 10.0  RAL  1 0.2 1.2LRAL                1
 GAP=360        1.82     999.9   999.9  0.0  0.2151E+08  0.3283E+00 -0.4848E+00E
 ACTION:UPD 12-06-08 11:37 OP:RALL STATUS:               ID:20090516175259     I
 2009-05-16-1752-52S.PLUR1_003                                                 6
 STAT SP IPHASW D HRMM SECON CODA AMPLIT PERI AZIMU VELO AIN AR TRES W  DIS CAZ7
 LZ4  SN IP       1753  1.46                             171    0.5010 1.69 348 
 LZ4  SZ E        1753  1.48                  160.4  8.8     -7        1.69 348 
 LZ4  SE IS       1753  1.81                             171   -0.5010 1.69 348 
 LZ4  SZ  AML     1753  2.07        86.8 0.30                          1.69 348 
                                                                                
 2009  516 1814 25.1 L  21.556 -99.460 10.0  RAL  1 0.0 1.6LRAL                1
 GAP=360        0.30       3.0     2.6  0.0 -0.7272E+01  0.3283E+00 -0.4848E+00E
 ACTION:UPD 12-06-08 11:37 OP:RALL STATUS:               ID:20090516181425     I
 2009-05-16-1814-24S.PLUR1_003                                                 6
 STAT SP IPHASW D HRMM SECON CODA AMPLIT PERI AZIMU VELO AIN AR TRES W  DIS CAZ7
 LZ4  SZ E        1814 30.64                  321.7  9.8      0        31.8 142 
 LZ4  SN IP       1814 30.65                             103    0.0210 31.8 142 
 LZ4  SE IS       1814 34.63                             103   -0.0210 31.8 142 
 LZ4  SZ  AML     1814 35.12        77.7 0.18                          31.8 142 
                                                                                
 2009  516 2010 42.1 L  21.235 -99.357 10.0  RAL  1 0.0 1.2LRAL                1
 GAP=360        0.30       3.8     1.1  0.0  0.2663E+01  0.3283E+00 -0.4848E+00E
 ACTION:UPD 12-06-08 11:37 OP:RALL STATUS:               ID:20090516201042     I
 2009-05-16-2010-32S.PLUR1_003                                                 6
 STAT SP IPHASW D HRMM SECON CODA AMPLIT PERI AZIMU VELO AIN AR TRES W  DIS CAZ7
 LA4  SZ E        2010 47.00                  190.2 13.3      0        28.0  10 
 LA4  SN IP       2010 47.03                             106    0.0110 28.0  10 
 LA4  SE IS       2010 50.62                             106   -0.0110 28.0  10 
 LA4  SZ  AML     2010 51.91        30.8 0.46                          28.0  10 
                                                                                
 2009  517 0035 29.8 L  21.269 -99.261 10.0  RAL  2 0.4 1.3LRAL                1
 GAP=299        3.01       1.7     6.8 19.4  0.9099E+01  0.2328E+01 -0.4868E+00E
 ACTION:UPD 12-06-08 11:37 OP:RALL STATUS:               ID:20090517003529     I
 2009-05-17-0035-19S.PLUR1_006                                                 6
 STAT SP IPHASW D HRMM SECON CODA AMPLIT PERI AZIMU VELO AIN AR TRES W  DIS CAZ7
 LG3  SZ E         035 32.58                  238.2 19.0      9        1.18  49 
 LG3  SN IP        035 32.62                             175    0.9210 1.18  49 
 LG3  SE IS        035 34.21                             175    1.1510 1.18  49 
 LG3  SZ  AML      035 35.17       158.6 0.22                          1.18  49 
 LA4  SZ E         035 33.50                  163.0 10.5     -4        24.3 348 
 LA4  SN IP        035 33.50                             113   -0.7410 24.3 348 
 LA4  SE IS        035 36.14                             113   -1.3210 24.3 348 
 LA4  SZ  AML      035 37.29        27.8 0.22                          24.3 348 
                                                                                
 2009  517 0116 30.1 L  21.521 -99.481 10.0  RAL  1 0.0 1.2LRAL                1
 GAP=360        0.30       2.7     3.0  0.0 -0.7568E+01  0.2328E+01 -0.4868E+00E
 ACTION:UPD 12-06-08 11:37 OP:RALL STATUS:               ID:20090517011630     I
 2009-05-17-0116-26S.PLUR1_003                                                 6
 STAT SP IPHASW D HRMM SECON CODA AMPLIT PERI AZIMU VELO AIN AR TRES W  DIS CAZ7
 LZ4  SZ E         116 35.42                  313.8 12.6      0        30.4 134 
 LZ4  SN IP        116 35.47                             104    0.0310 30.4 134 
 LZ4  SE IS        116 39.29                             104   -0.0310 30.4 134 
 LZ4  SZ  AML      116 39.95        32.2 0.28                          30.4 134 
                                                                                
 2009  517 0313 23.1 L  21.220 -99.272 10.0  RAL  1 0.0 0.9LRAL                1
 GAP=360        0.30       3.8     1.0  0.0 -0.1923E+01  0.2328E+01 -0.4868E+00E
 ACTION:UPD 12-06-08 11:37 OP:RALL STATUS:               ID:20090517031323     I
 2009-05-17-0313-13S.PLUR1_003                                                 6
 STAT SP IPHASW D HRMM SECON CODA AMPLIT PERI AZIMU VELO AIN AR TRES W  DIS CAZ7
 LA4  SZ E         313 28.21                  172.6 15.4      0        29.4 353 
 LA4  SN IP        313 28.25                             105    0.0110 29.4 353 
 LA4  SE IS        313 32.00                             105   -0.0110 29.4 353 
 LA4  SZ  AML      313 33.12        16.4 0.62                          29.4 353 
                                                                                
 2009  518 0558 34.4 L  21.204 -99.283 10.0  RAL  1 0.0 0.6LRAL                1
 GAP=360        0.30       4.4     0.6  0.0  0.2147E+01  0.2328E+01 -0.4868E+00E
 ACTION:UPD 12-06-08 11:37 OP:RALL STATUS:               ID:20090518055834     I
 2009-05-18-0558-29S.PLUR1_003                                                 6
 STAT SP IPHASW D HRMM SECON CODA AMPLIT PERI AZIMU VELO AIN AR TRES W  DIS CAZ7
 LZ4  SZ E         558 37.32                  185.9 24.0      0        14.1   6 
 LZ4  SN IP        558 37.35                             124    0.0010 14.1   6 
 LZ4  SE IS        558 39.51                             124    0.0010 14.1   6 
 LZ4  SZ  AML      558 39.88        14.4 0.50                          14.1   6 
                                                                                
 2009  518 0642 12.1 L  21.493 -99.308 10.0  RAL  1 0.1-0.1LRAL                1
 GAP=360        0.73     999.9   999.9  0.0 -0.3067E+08  0.2328E+01 -0.4868E+00E
 ACTION:UPD 12-06-08 11:37 OP:RALL STATUS:               ID:20090518064212     I
 2009-05-18-0642-01S.PLUR1_003                                                 6
 STAT SP IPHASW D HRMM SECON CODA AMPLIT PERI AZIMU VELO AIN AR TRES W  DIS CAZ7
 LA4  SN IP        642 14.36                             174    0.3710 1.08 183 
 LA4  SZ E         642 14.36                    4.9  9.7      2        1.08 183 
 LA4  SE IS        642 14.98                             174   -0.3710 1.08 183 
 LA4  SZ  AML      642 15.62         4.9 0.40                          1.08 183 
                                                                                
 2009  518 0653 41.8 L  21.625 -99.328 10.0  RAL  1 0.0 1.1LRAL                1
 GAP=360        0.30       4.3     0.7  0.0 -0.2514E+01  0.2328E+01 -0.4868E+00E
 ACTION:UPD 12-06-08 11:37 OP:RALL STATUS:               ID:20090518065341     I
 2009-05-18-0653-31S.PLUR1_003                                                 6
 STAT SP IPHASW D HRMM SECON CODA AMPLIT PERI AZIMU VELO AIN AR TRES W  DIS CAZ7
 LA4  SZ E         653 45.03                  352.7 10.9      0        15.8 173 
 LA4  SN IP        653 45.03                             120    0.0310 15.8 173 
 LA4  SE IS        653 47.31                             120   -0.0310 15.8 173 
 LA4  SZ  AML      653 48.68        38.2 0.42                          15.8 173 
                                                                                
 2009  518 1530 41.3 L                       RAL  0                            1
 ACTION:UPD 12-06-08 11:37 OP:RALL STATUS:               ID:20090518153041     I
 2009-05-18-1530-41S.PLUR1_003                                                 6
 STAT SP IPHASW D HRMM SECON CODA AMPLIT PERI AZIMU VELO AIN AR TRES W  DIS CAZ7
                                                                                
 2009  518 1544 49.2 L  21.731 -99.337 10.0  RAL  1 0.0 3.5LRAL                1
 GAP=360        0.30       3.7     1.4  0.0 -0.2083E+01  0.2328E+01 -0.4868E+00E
 ACTION:UPD 12-06-08 11:37 OP:RALL STATUS:               ID:20090518154449     I
 2009-05-18-1544-47S.PLUR1_003                                                 6
 STAT SP IPHASW D HRMM SECON CODA AMPLIT PERI AZIMU VELO AIN AR TRES W  DIS CAZ7
 LZ4  SN IP       1544 56.74                              98    0.0110 44.9 171 
 LZ4  SZ E        1544 56.84                  351.1  7.5      0        44.9 171 
 LZ4  SE IS       1545  2.21                              98   -0.0110 44.9 171 
 LZ4  SZ  AML     1545  3.59      4589.8 0.38                          44.9 171 
                                                                                
 2009  518 1744 59.9 L  21.706 -99.647  5.1  RAL  2 1.2 3.5LRAL                1
 GAP=346       20.72     356.3   460.4999.9 -0.1596E+06 -0.4858E+06  0.3745E+06E
 ACTION:UPD 12-06-08 11:37 OP:RALL STATUS:               ID:20090518174459     I
 2009-05-18-1744-52S.PLUR1_006                                                 6
 STAT SP IPHASW D HRMM SECON CODA AMPLIT PERI AZIMU VELO AIN AR TRES W  DIS CAZ7
 LA4  SN IP       1745  6.67                              63   -0.0710 42.8 125 
 LA4  SZ E        1745  6.84                    3.9  9.5     59        42.8 125 
 LA4  SE IS       1745 10.35                              63   -1.3510 42.8 125 
 LA4  SZ  AML     1745 11.11      6783.2 0.40                          42.8 125 
 LG3  SZ E        1745 11.10                  237.2 13.6    -81        62.8 139 
 LG3  SN IP       1745 11.17                              63    1.3210 62.8 139 
 LG3  SE IS       1745 17.17                              63    0.1010 62.8 139 
 LG3  SZ  AML     1745 20.67      2279.8 0.46                          62.8 139 
                                                                                
 2009  518 1824 16.5 L  21.733 -99.340 10.0  RAL  1 0.0 0.8LRAL                1
 GAP=360        0.30       3.8     0.9  0.0 -0.1783E+01 -0.4858E+06  0.3745E+06E
 ACTION:UPD 12-06-08 11:37 OP:RALL STATUS:               ID:20090518182416     I
 2009-05-18-1824-10S.PLUR1_003                                                 6
 STAT SP IPHASW D HRMM SECON CODA AMPLIT PERI AZIMU VELO AIN AR TRES W  DIS CAZ7
 LA4  SZ E        1824 21.42                  353.3 10.8      0        27.8 173 
 LA4  SN IP       1824 21.43                             106    0.0110 27.8 173 
 LA4  SE IS       1824 25.00                             106   -0.0110 27.8 173 
 LA4  SZ  AML     1824 25.56        14.0 0.54                          27.8 173 
                                                                                
