 2009  917 1113 34.8 L  21.244 -99.276 10.0  RAL  1 0.0-0.1LRAL                1
 GAP=360        0.35       9.5     7.1  0.0  0.6735E+02  0.1205E+03  0.2149E+03E
 ACTION:UPD 12-06-08 11:37 OP:RALL STATUS:               ID:20090917111334     I
 2009-09-17-1113-27S.PLUR1_003                                                 6
 STAT SP IPHASW D HRMM SECON CODA AMPLIT PERI AZIMU VELO AIN AR TRES W  DIS CAZ7
 LG3  SZ E        1113 36.84                  214.8 11.4      0        4.24  35 
 LG3  SN IP       1113 36.89                             158    0.1310 4.24  35 
 LG3  SE IS       1113 38.08                             158   -0.1310 4.24  35 
 LG3  SZ  AML     1113 38.75         4.1 0.18                          4.24  35 
                                                                                
 2009  918 0235 56.0 L  21.254 -99.229 10.0  RAL  1 0.1 0.5LRAL                1
 GAP=360        0.48      13.2    14.6  0.0 -0.1925E+03  0.1205E+03  0.2149E+03E
 ACTION:UPD 12-06-08 11:37 OP:RALL STATUS:               ID:20090918023556     I
 2009-09-18-0235-49S.PLUR1_003                                                 6
 STAT SP IPHASW D HRMM SECON CODA AMPLIT PERI AZIMU VELO AIN AR TRES W  DIS CAZ7
 LG3  SN IP        235 58.18                             162    0.2510 3.43 314 
 LG3  SZ E         235 58.21                  134.2 12.9      0        3.43 314 
 LG3  SE IS        235 59.09                             162   -0.2510 3.43 314 
 LG3  SZ  AML      235 59.29        18.1 0.22                          3.43 314 
                                                                                
 2009  919 0502 36.6 L  21.249 -99.101 10.0  RAL  1 0.0 0.1LRAL                1
 GAP=360        0.30       0.9     4.5  0.0 -0.3494E+01  0.1205E+03  0.2149E+03E
 ACTION:UPD 12-06-08 11:37 OP:RALL STATUS:               ID:20090919050236     I
 2009-09-19-0502-32S.PLUR1_003                                                 6
 STAT SP IPHASW D HRMM SECON CODA AMPLIT PERI AZIMU VELO AIN AR TRES W  DIS CAZ7
 LG3  SN IP        5 2 39.78                             120    0.0010 16.0 281 
 LG3  SZ E         5 2 39.86                  100.5 11.2      0        16.0 281 
 LG3  SE IS        5 2 42.13                             120    0.0010 16.0 281 
 LG3  SZ  AML      5 2 42.28         4.3 0.22                          16.0 281 
                                                                                
 2009  919 1043 51.8 L  21.254 -99.246 10.0  RAL  1 0.0-0.1LRAL                1
 GAP=360        0.33      16.9     4.8  0.0 -0.8108E+02  0.1205E+03  0.2149E+03E
 ACTION:UPD 12-06-08 11:37 OP:RALL STATUS:               ID:20090919104351     I
 2009-09-19-1043-45S.PLUR1_003                                                 6
 STAT SP IPHASW D HRMM SECON CODA AMPLIT PERI AZIMU VELO AIN AR TRES W  DIS CAZ7
 LG3  SN IP       1043 53.79                             166    0.1010 2.52 345 
 LG3  SZ E        1043 53.81                  165.2 15.9      0        2.52 345 
 LG3  SE IS       1043 54.98                             166   -0.1010 2.52 345 
 LG3  SZ  AML     1043 56.25         4.5 0.48                          2.52 345 
                                                                                
 2009  921 0944 43.6 L  21.275 -99.259 10.0  RAL  1 0.2 0.1LRAL                1
 GAP=360        1.65     999.9     7.5  0.0 -0.5719E+05  0.1205E+03  0.2149E+03E
 ACTION:UPD 12-06-08 11:37 OP:RALL STATUS:               ID:20090921094443     I
 2009-09-21-0944-36S.PLUR1_003                                                 6
 STAT SP IPHASW D HRMM SECON CODA AMPLIT PERI AZIMU VELO AIN AR TRES W  DIS CAZ7
 LG3  SZ E         944 45.64                  260.1 12.2     -7        0.67  88 
 LG3  SN IP        944 45.70                             176    0.2710 0.67  88 
 LG3  SE IS        944 46.51                             176   -0.2710 0.67  88 
 LG3  SZ  AML      944 47.35         6.8 0.26                          0.67  88 
                                                                                
 2009  921 1102 49.7 L  21.173 -98.911 10.0  RAL  1 0.0 0.8LRAL                1
 GAP=360        0.30       1.5     3.9  0.0 -0.4167E+01  0.1205E+03  0.2149E+03E
 ACTION:UPD 12-06-08 11:37 OP:RALL STATUS:               ID:20090921110249     I
 2009-09-21-1102-46S.PLUR1_003                                                 6
 STAT SP IPHASW D HRMM SECON CODA AMPLIT PERI AZIMU VELO AIN AR TRES W  DIS CAZ7
 LG3  SZ E        11 2 56.00                  107.8 14.1      0        37.2 288 
 LG3  SN IP       11 2 56.02                             101    0.0110 37.2 288 
 LG3  SE IS       11 3  0.63                             101   -0.0110 37.2 288 
 LG3  SZ  AML     11 3  1.52        10.2 0.10                          37.2 288 
                                                                                
 2009  923 0537 32.5 L  21.092 -99.379 10.0  RAL  1 0.0 1.0LRAL                1
 GAP=360        0.30       3.3     2.3  0.0  0.7248E+01  0.1205E+03  0.2149E+03E
 ACTION:UPD 12-06-08 11:37 OP:RALL STATUS:               ID:20090923053732     I
 2009-09-23-0537-27S.PLUR1_003                                                 6
 STAT SP IPHASW D HRMM SECON CODA AMPLIT PERI AZIMU VELO AIN AR TRES W  DIS CAZ7
 LG3  SZ E         537 36.81                  212.9  8.6      0        24.2  33 
 LG3  SN IP        537 36.92                             109    0.0010 24.2  33 
 LG3  SE IS        537 40.12                             109    0.0010 24.2  33 
 LG3  SZ  AML      537 41.41        21.0 0.20                          24.2  33 
                                                                                
 2009  925 0827 56.6 L  21.201 -99.447 10.0  RAL  1 0.0 0.6LRAL                1
 GAP=360        0.30       1.6     3.9  0.0  0.5817E+01  0.1205E+03  0.2149E+03E
 ACTION:UPD 12-06-08 11:37 OP:RALL STATUS:               ID:20090925082756     I
 2009-09-25-0827-51S.PLUR1_003                                                 6
 STAT SP IPHASW D HRMM SECON CODA AMPLIT PERI AZIMU VELO AIN AR TRES W  DIS CAZ7
 LG3  SN IP        828  0.67                             111    0.0010 21.8  68 
 LG3  SZ E         828  0.70                  247.7 24.9      0        21.8  68 
 LG3  SE IS        828  3.62                             111    0.0010 21.8  68 
 LG3  SZ  AML      828  3.75        10.9 0.18                          21.8  68 
                                                                                
 2009  927 0854 56.6 L  20.929 -98.481  1.8  RAL  2 1.0 2.0LRAL                1
 GAP=353        4.98     162.0    38.8  0.0  0.5787E+03 -0.9450E-01 -0.3681E-01E
 ACTION:UPD 12-06-08 11:37 OP:RALL STATUS:               ID:20090927085456     I
 2009-09-27-0855-06S.PLUR1_006                                                 6
 STAT SP IPHASW D HRMM SECON CODA AMPLIT PERI AZIMU VELO AIN AR TRES W  DIS CAZ7
 LG3  SZ E         855 15.73                  117.9 14.1      2        88.9 296 
 LG3  SN IP        855 15.74                              63    4.57 0 88.9 296 
 LG3  SE IS        855 18.20                              63   -3.6010 88.9 296 
 LG3  SZ  AML      855 18.65       102.9 0.40                          88.9 296 
 LD5  SZ E         855 24.63                  110.4  9.7      2        91.8 288 
 LD5  SN IP        855 24.69                              63   13.08 0 91.8 288 
 LD5  SE IS        855 26.15                              63    3.6010 91.8 288 
 LD5  SZ  AML      855 27.92        42.2 0.44                          91.8 288 
                                                                                
 2009  927 0859 57.6 L  21.274 -99.241 10.0  RAL  1 0.1-0.1LRAL                1
 GAP=360        0.55     999.9   267.1  0.0  0.3119E+06 -0.9450E-01 -0.3681E-01E
 ACTION:UPD 12-06-08 11:37 OP:RALL STATUS:               ID:20090927085957     I
 2009-09-27-0859-50S.PLUR1_003                                                 6
 STAT SP IPHASW D HRMM SECON CODA AMPLIT PERI AZIMU VELO AIN AR TRES W  DIS CAZ7
 LG3  SZ E         859 59.69                  101.0 20.2      2        1.23 279 
 LG3  SN IP        859 59.70                             173    0.1910 1.23 279 
 LG3  SE IS        9 0  0.68                             173   -0.1910 1.23 279 
 LG3  SZ  AML      9 0  1.07         4.7 0.36                          1.23 279 
                                                                                
 2009  927 0904 22.0 L  21.186 -99.316 10.0  RAL  1 0.3 0.5LRAL                1
 GAP=360        3.03     999.9   999.9  0.0  0.3544E+07 -0.9450E-01 -0.3681E-01E
 ACTION:UPD 12-06-08 11:37 OP:RALL STATUS:               ID:20090927090422     I
 2009-09-27-0904-05S.PLUR1_006                                                 6
 STAT SP IPHASW D HRMM SECON CODA AMPLIT PERI AZIMU VELO AIN AR TRES W  DIS CAZ7
 LD5  SZ E         9 4 23.76                  108.3 12.0     14        0.44 274 
 LD5  SN IP        9 4 24.13                             178    0.2910 0.44 274 
 LD5  SE IS        9 4 24.88                             178   -0.2910 0.44 274 
 LD5  SZ  AML      9 4 26.76        17.6 0.40                          0.44 274 
                                                                                
 2009  927 1917 51.6 L  21.239 -99.280 10.0  RAL  1 0.0 0.5LRAL                1
 GAP=360        0.32       7.5     5.7  0.0  0.4239E+02 -0.9450E-01 -0.3681E-01E
 ACTION:UPD 12-06-08 11:37 OP:RALL STATUS:               ID:20090927191751     I
 2009-09-27-1917-45S.PLUR1_003                                                 6
 STAT SP IPHASW D HRMM SECON CODA AMPLIT PERI AZIMU VELO AIN AR TRES W  DIS CAZ7
 LG3  SZ E        1917 53.63                  215.1 15.7      0        4.97  35 
 LG3  SN IP       1917 53.67                             154    0.0810 4.97  35 
 LG3  SE IS       1917 54.99                             154   -0.0810 4.97  35 
 LG3  SZ  AML     1917 55.90        18.0 0.42                          4.97  35 
                                                                                
 2009  927 2210 37.6 L  21.290 -99.232 10.0  RAL  1 0.2 0.1LRAL                1
 GAP=360        0.66      20.1    28.0  0.0  0.5624E+03 -0.9450E-01 -0.3681E-01E
 ACTION:UPD 12-06-08 11:37 OP:RALL STATUS:               ID:20090927221037     I
 2009-09-27-2210-30S.PLUR1_003                                                 6
 STAT SP IPHASW D HRMM SECON CODA AMPLIT PERI AZIMU VELO AIN AR TRES W  DIS CAZ7
 LG3  SN IP       2210 39.89                             166    0.3910 2.66 233 
 LG3  SZ E        2210 39.89                   52.5 26.9      0        2.66 233 
 LG3  SE IS       2210 40.49                             166   -0.3910 2.66 233 
 LG3  SZ  AML     2210 40.59         6.2 0.10                          2.66 233 
                                                                                
 2009  928 0337 25.0 L  21.279 -99.239 10.0  RAL  1 0.1 0.2LRAL                1
 GAP=360        0.57     999.9   852.2  0.0 -0.2591E+07 -0.9450E-01 -0.3681E-01E
 ACTION:UPD 12-06-08 11:37 OP:RALL STATUS:               ID:20090928033725     I
 2009-09-28-0337-17S.PLUR1_003                                                 6
 STAT SP IPHASW D HRMM SECON CODA AMPLIT PERI AZIMU VELO AIN AR TRES W  DIS CAZ7
 LG3  SZ E         337 27.15                   76.3 21.6      0        1.40 256 
 LG3  SN IP        337 27.16                             172    0.3310 1.40 256 
 LG3  SE IS        337 27.87                             172   -0.3310 1.40 256 
 LG3  SZ  AML      337 27.97         8.4 0.40                          1.40 256 
                                                                                
 2009  928 1016 42.5 L  21.260 -99.251 10.0  RAL  1 0.2 0.1LRAL                1
 GAP=360        1.51     117.5    10.0  0.0 -0.1180E+04 -0.9450E-01 -0.3681E-01E
 ACTION:UPD 12-06-08 11:37 OP:RALL STATUS:               ID:20090928101642     I
 2009-09-28-1016-35S.PLUR1_003                                                 6
 STAT SP IPHASW D HRMM SECON CODA AMPLIT PERI AZIMU VELO AIN AR TRES W  DIS CAZ7
 LG3  SN IP       1016 44.68                             171    0.3010 1.69 355 
 LG3  SZ E        1016 44.69                  182.2 17.1      7        1.69 355 
 LG3  SE IS       1016 45.44                             171   -0.3010 1.69 355 
 LG3  SZ  AML     1016 45.56         6.3 0.10                          1.69 355 
                                                                                
 2009  928 1432 20.1 L  20.976 -98.873 10.0  RAL  1 0.0 0.5LRAL                1
 GAP=360        0.30       2.1     3.5  0.0 -0.6039E+01 -0.9450E-01 -0.3681E-01E
 ACTION:UPD 12-06-08 11:37 OP:RALL STATUS:               ID:20090928143220     I
 2009-09-28-1432-22S.PLUR1_006                                                 6
 STAT SP IPHASW D HRMM SECON CODA AMPLIT PERI AZIMU VELO AIN AR TRES W  DIS CAZ7
 LO8  SZ E        1432 26.85                  119.9  6.5      0        40.7 300 
 LO8  SN IP       1432 27.06                             100    0.0210 40.7 300 
 LO8  SE IS       1432 32.07                             100   -0.0210 40.7 300 
 LO8  SZ  AML     1432 32.35         4.4 0.30                          40.7 300 
                                                                                
 2009  930 0801 32.9 L  21.270 -99.242 10.0  RAL  1 0.2                        1
 GAP=360        1.33     999.9   999.9  0.0  0.9571E+07 -0.9450E-01 -0.3681E-01E
 ACTION:UPD 12-06-08 11:37 OP:RALL STATUS:               ID:20090930080132     I
 2009-09-30-0801-26S.PLUR1_003                                                 6
 STAT SP IPHASW D HRMM SECON CODA AMPLIT PERI AZIMU VELO AIN AR TRES W  DIS CAZ7
 LG3  SN IP        8 1 35.08                             173    0.3110 1.28 299 
 LG3  SZ E         8 1 35.09                  113.6 29.5     -5        1.28 299 
 LG3  SE IS        8 1 35.82                             173   -0.3110 1.28 299 
                                                                                
 2009  930 1134 21.9 L  21.276 -99.263 10.0  RAL  1 0.2 0.1LRAL                1
 GAP=360        0.72     999.9   999.9  0.0  0.3057E+08 -0.9450E-01 -0.3681E-01E
 ACTION:UPD 12-06-08 11:37 OP:RALL STATUS:               ID:20090930113421     I
 2009-09-30-1134-14S.PLUR1_003                                                 6
 STAT SP IPHASW D HRMM SECON CODA AMPLIT PERI AZIMU VELO AIN AR TRES W  DIS CAZ7
 LG3  SN IP       1134 24.20                             174    0.4410 1.14  93 
 LG3  SZ E        1134 24.24                  272.5 22.2      0        1.14  93 
 LG3  SE IS       1134 24.67                             174   -0.4410 1.14  93 
 LG3  SZ  AML     1134 25.10         6.7 0.26                          1.14  93 
                                                                                
 2009  930 2149 37.2 L  21.098 -99.195 34.6  RAL  2 1.3 0.4LRAL                1
 GAP=353        7.45      21.5    66.3999.9 -0.7391E+03 -0.3726E+05  0.4074E+04E
 ACTION:UPD 12-06-08 11:37 OP:RALL STATUS:               ID:20090930214937     I
 2009-09-30-2149-39S.PLUR1_006                                                 6
 STAT SP IPHASW D HRMM SECON CODA AMPLIT PERI AZIMU VELO AIN AR TRES W  DIS CAZ7
 LO8  SN IP       2149 46.12                              94    3.4010 7.06 344 
 LO8  SZ E        2149 46.14                  147.5  6.8    -16        7.06 344 
 LO8  SE IS       2149 49.08                              94    2.3110 7.06 344 
 LO8  SZ  AML     2149 49.33         1.2 0.10                          7.06 344 
 LT7  SN IP       2149 43.90                              92   -0.8110 35.6 337 
 LT7  SZ E        2149 43.92                  155.0  8.0     -1        35.6 337 
 LT7  SE IS       2149 45.31                              92   -4.9110 35.6 337 
 LT7  SZ  AML     2149 45.46         8.8 0.18                          35.6 337 
                                                                                
