 2009  4 1 0328 59.6 L  21.031 -99.333 10.0  RAL  1 0.0 0.9LRAL                1
 GAP=360        0.30       3.7     1.2  0.0  0.2764E+01  0.8173E+00 -0.1827E+01E
 ACTION:UPD 12-06-08 11:37 OP:RALL STATUS:               ID:20090401032859     I
 2009-04-01-0329-00S.PLUR1_003                                                 6
 STAT SP IPHASW D HRMM SECON CODA AMPLIT PERI AZIMU VELO AIN AR TRES W  DIS CAZ7
 LZ4  SZ E         329  5.43                  191.2 19.6      0        33.8  11 
 LZ4  SN IP        329  5.45                             102    0.0110 33.8  11 
 LZ4  SE IS        329  9.68                             102   -0.0110 33.8  11 
 LZ4  SZ  AML      329 10.05        14.4 0.62                          33.8  11 
                                                                                
 2009  4 1 0350 32.2 L  21.320 -98.957 10.0  RAL  1 0.0 0.9LRAL                1
 GAP=360        0.30       0.8     4.1  0.0 -0.5647E+00  0.8173E+00 -0.1827E+01E
 ACTION:UPD 12-06-08 11:37 OP:RALL STATUS:               ID:20090401035032     I
 2009-04-01-0350-32S.PLUR1_003                                                 6
 STAT SP IPHASW D HRMM SECON CODA AMPLIT PERI AZIMU VELO AIN AR TRES W  DIS CAZ7
 LZ4  SZ E         350 37.69                   92.1 39.7      0        32.4 272 
 LZ4  SN IP        350 37.79                             103    0.0110 32.4 272 
 LZ4  SE IS        350 41.87                             103   -0.0110 32.4 272 
 LZ4  SZ  AML      350 42.16        15.5 0.80                          32.4 272 
                                                                                
 2009  4 1 0523 16.1 L  21.251 -99.219 10.0  RAL  1 0.0 1.5LRAL                1
 GAP=360        0.30       4.4     2.8  0.0 -0.1231E+02  0.8173E+00 -0.1827E+01E
 ACTION:UPD 12-06-08 11:37 OP:RALL STATUS:               ID:20090401052316     I
 2009-04-01-0523-09S.PLUR1_003                                                 6
 STAT SP IPHASW D HRMM SECON CODA AMPLIT PERI AZIMU VELO AIN AR TRES W  DIS CAZ7
 LZ4  SN IP        523 18.65                             134    0.0110 10.2 329 
 LZ4  SZ E         523 18.66                  149.4 13.9      0        10.2 329 
 LZ4  SE IS        523 20.45                             134   -0.0110 10.2 329 
 LZ4  SZ  AML      523 21.46       141.0 0.36                          10.2 329 
                                                                                
 2009  4 1 0539 44.3 L  21.338 -99.295 10.0  RAL  1 0.1 0.5LRAL                1
 GAP=360        0.36       4.9    18.2  0.0 -0.8882E+02  0.8173E+00 -0.1827E+01E
 ACTION:UPD 12-06-08 11:37 OP:RALL STATUS:               ID:20090401053944     I
 2009-04-01-0539-36S.PLUR1_003                                                 6
 STAT SP IPHASW D HRMM SECON CODA AMPLIT PERI AZIMU VELO AIN AR TRES W  DIS CAZ7
 LZ4  SZ E         539 46.31                  286.1 14.8      0        2.75 106 
 LZ4  SN IP        539 46.36                             165    0.1410 2.75 106 
 LZ4  SE IS        539 47.45                             165   -0.1410 2.75 106 
 LZ4  SZ  AML      539 47.91        17.9 0.66                          2.75 106 
                                                                                
 2009  4 1 0544 47.5 L  21.264 -99.240  5.7  RAL  3 0.4 0.7LRAL                1
 GAP=240        4.77       2.5     7.1 22.1  0.1339E+02  0.2155E+01 -0.1695E+00E
 ACTION:UPD 12-06-08 11:37 OP:RALL STATUS:               ID:20090401054447     I
 2009-04-01-0544-35S.PLUR1_009                                                 6
 STAT SP IPHASW D HRMM SECON CODA AMPLIT PERI AZIMU VELO AIN AR TRES W  DIS CAZ7
 LG3  SZ E         544 48.78                  134.0 10.8      0        1.79 315 
 LG3  SN IP        544 48.87                             164    0.1510 1.79 315 
 LG3  SE IS        544 49.87                             164    0.2610 1.79 315 
 LG3  SZ  AML      544 50.21       161.3 0.22                          1.79 315 
 LD5  SZ E         544 49.02                   27.4  8.0    -16        11.9 224 
 LD5  SN IP        544 49.04                             107   -0.8210 11.9 224 
 LD5  SE IS        544 50.04                             107   -1.5510 11.9 224 
 LD5  SZ  AML      544 51.47         6.5 0.32                          11.9 224 
 LA4  SZ E         544 52.24                  145.3  9.2    -17        25.3 344 
 LA4  SN IP        544 52.26                              93    0.3310 25.3 344 
 LA4  SE IS        544 56.78                              93    1.6210 25.3 344 
 LA4  SZ  AML      544 58.13        10.0 0.36                          25.3 344 
                                                                                
 2009  4 1 0812 12.0 L  21.332 -99.285 10.0  RAL  1 0.0 0.2LRAL                1
 GAP=360        0.39     455.1     4.8  0.0 -0.1963E+04  0.2155E+01 -0.1695E+00E
 ACTION:UPD 12-06-08 11:37 OP:RALL STATUS:               ID:20090401081212     I
 2009-04-01-0812-06S.PLUR1_003                                                 6
 STAT SP IPHASW D HRMM SECON CODA AMPLIT PERI AZIMU VELO AIN AR TRES W  DIS CAZ7
 LZ4  SZ E         812 13.89                  272.7 34.2      0        1.58  94 
 LZ4  SN IP        812 13.92                             171    0.1210 1.58  94 
 LZ4  SE IS        812 15.03                             171   -0.1210 1.58  94 
 LZ4  SZ  AML      812 15.38         9.4 0.68                          1.58  94 
                                                                                
 2009  4 1 1109 13.3 L  21.274 -99.235 10.0  RAL  1 0.0 0.5LRAL                1
 GAP=360        0.30       5.5     3.4  0.0 -0.1853E+02  0.2155E+01 -0.1695E+00E
 ACTION:UPD 12-06-08 11:37 OP:RALL STATUS:               ID:20090401110913     I
 2009-04-01-1109-07S.PLUR1_003                                                 6
 STAT SP IPHASW D HRMM SECON CODA AMPLIT PERI AZIMU VELO AIN AR TRES W  DIS CAZ7
 LZ4  SZ E        11 9 15.50                  150.3 24.8      0        7.28 330 
 LZ4  SN IP       11 9 15.54                             144    0.0210 7.28 330 
 LZ4  SE IS       11 9 17.10                             144   -0.0210 7.28 330 
 LZ4  SZ  AML     11 9 17.66        15.4 0.32                          7.28 330 
                                                                                
 2009  4 1 1242 32.7 L  21.586 -99.095 10.0  RAL  1 0.0 1.0LRAL                1
 GAP=360        0.30       3.2     2.3  0.0  0.6669E+01  0.2155E+01 -0.1695E+00E
 ACTION:UPD 12-06-08 11:37 OP:RALL STATUS:               ID:20090401124232     I
 2009-04-01-1242-30S.PLUR1_003                                                 6
 STAT SP IPHASW D HRMM SECON CODA AMPLIT PERI AZIMU VELO AIN AR TRES W  DIS CAZ7
 LZ4  SN IP       1242 38.46                             102    0.0210 33.6 213 
 LZ4  SZ E        1242 38.49                   32.5 18.6      0        33.6 213 
 LZ4  SE IS       1242 42.64                             102   -0.0210 33.6 213 
 LZ4  SZ  AML     1242 43.49        17.8 0.14                          33.6 213 
                                                                                
 2009  4 1 1304 43.0 L  21.547 -99.387 10.0  RAL  1 0.0 1.1LRAL                1
 GAP=360        0.30       3.3     4.1  0.0 -0.1343E+02  0.2155E+01 -0.1695E+00E
 ACTION:UPD 12-06-08 11:37 OP:RALL STATUS:               ID:20090401130443     I
 2009-04-01-1304-30S.PLUR1_003                                                 6
 STAT SP IPHASW D HRMM SECON CODA AMPLIT PERI AZIMU VELO AIN AR TRES W  DIS CAZ7
 LA4  SZ E        13 4 45.54                  310.7 18.4      0        10.7 131 
 LA4  SN IP       13 4 45.57                             133    0.0110 10.7 131 
 LA4  SE IS       13 4 47.41                             133   -0.0110 10.7 131 
 LA4  SZ  AML     13 4 49.03        55.1 0.72                          10.7 131 
                                                                                
 2009  4 1 1502 44.1 L  21.317 -99.298 10.0  RAL  1 0.1 0.7LRAL                1
 GAP=360        0.39       7.2    15.0  0.0  0.1079E+03  0.2155E+01 -0.1695E+00E
 ACTION:UPD 12-06-08 11:37 OP:RALL STATUS:               ID:20090401150244     I
 2009-04-01-1502-36S.PLUR1_003                                                 6
 STAT SP IPHASW D HRMM SECON CODA AMPLIT PERI AZIMU VELO AIN AR TRES W  DIS CAZ7
 LZ4  SZ E        15 2 46.16                  242.8 40.5      0        3.36  63 
 LZ4  SN IP       15 2 46.17                             162    0.1710 3.36  63 
 LZ4  SE IS       15 2 47.22                             162   -0.1710 3.36  63 
 LZ4  SZ  AML     15 2 47.64        28.0 0.30                          3.36  63 
                                                                                
 2009  4 1 1854 54.2 L  20.857 -98.956 10.0  RAL  1 0.0 1.5LRAL                1
 GAP=360        0.30       3.3     2.5  0.0 -0.5404E+01  0.2155E+01 -0.1695E+00E
 ACTION:UPD 12-06-08 11:37 OP:RALL STATUS:               ID:20090401185454     I
 2009-04-01-1854-55S.PLUR1_003                                                 6
 STAT SP IPHASW D HRMM SECON CODA AMPLIT PERI AZIMU VELO AIN AR TRES W  DIS CAZ7
 LZ4  SZ E        1855  4.32                  148.1 10.9      0        61.8 328 
 LZ4  SN IP       1855  4.33                              96    0.0110 61.8 328 
 LZ4  SE IS       1855 11.69                              96   -0.0110 61.8 328 
 LZ4  SZ  AML     1855 17.32        27.6 0.30                          61.8 328 
                                                                                
 2009  4 1 1917 35.3 L  21.377 -98.605 10.0  RAL  1 0.0 1.5LRAL                1
 GAP=360        0.30       2.0     3.9  0.0 -0.1738E+01  0.2155E+01 -0.1695E+00E
 ACTION:UPD 12-06-08 11:37 OP:RALL STATUS:               ID:20090401191735     I
 2009-04-01-1917-34S.PLUR1_003                                                 6
 STAT SP IPHASW D HRMM SECON CODA AMPLIT PERI AZIMU VELO AIN AR TRES W  DIS CAZ7
 LA4  SZ E        1917 47.08                   99.1 10.8      0        74.0 279 
 LA4  SN IP       1917 47.33                              95    0.0110 74.0 279 
 LA4  SE IS       1917 56.08                              95   -0.0110 74.0 279 
 LA4  SZ  AML     1918  0.27        25.1 0.44                          74.0 279 
                                                                                
 2009  4 1 2036 16.3 L  21.305 -99.298 10.0  RAL  1 0.2 0.7LRAL                1
 GAP=360        0.99      22.8    26.0  0.0  0.5934E+03  0.2155E+01 -0.1695E+00E
 ACTION:UPD 12-06-08 11:37 OP:RALL STATUS:               ID:20090401203616     I
 2009-04-01-2036-09S.PLUR1_003                                                 6
 STAT SP IPHASW D HRMM SECON CODA AMPLIT PERI AZIMU VELO AIN AR TRES W  DIS CAZ7
 LZ4  SZ E        2036 18.90                  226.4 29.8      0        4.11  47 
 LZ4  SN IP       2036 18.91                             158    0.6410 4.11  47 
 LZ4  SE IS       2036 19.06                             158   -0.6410 4.11  47 
 LZ4  SZ  AML     2036 19.14        23.7 0.24                          4.11  47 
                                                                                
 2009  4 2 0117 55.6 L  21.271 -99.199 10.0  RAL  1 0.0 0.4LRAL                1
 GAP=360        0.30       3.5     4.2  0.0 -0.1473E+02  0.2155E+01 -0.1695E+00E
 ACTION:UPD 12-06-08 11:37 OP:RALL STATUS:               ID:20090402011755     I
 2009-04-02-0117-50S.PLUR1_003                                                 6
 STAT SP IPHASW D HRMM SECON CODA AMPLIT PERI AZIMU VELO AIN AR TRES W  DIS CAZ7
 LZ4  SZ E         117 58.10                  132.2 15.1      0        9.82 312 
 LZ4  SN IP        117 58.11                             135    0.0210 9.82 312 
 LZ4  SE IS        117 59.86                             135   -0.0210 9.82 312 
 LZ4  SZ  AML      118  2.89        10.9 0.60                          9.82 312 
                                                                                
 2009  4 2 0123 47.6 L  21.307 -99.261 10.0  RAL  1 0.1 0.4LRAL                1
 GAP=360        0.40      18.5     6.7  0.0 -0.1239E+03  0.2155E+01 -0.1695E+00E
 ACTION:UPD 12-06-08 11:37 OP:RALL STATUS:               ID:20090402012347     I
 2009-04-02-0123-40S.PLUR1_003                                                 6
 STAT SP IPHASW D HRMM SECON CODA AMPLIT PERI AZIMU VELO AIN AR TRES W  DIS CAZ7
 LZ4  SN IP        123 49.63                             165    0.1810 2.73 341 
 LZ4  SZ E         123 49.64                  161.5 11.2      0        2.73 341 
 LZ4  SE IS        123 50.64                             165   -0.1810 2.73 341 
 LZ4  SZ  AML      123 52.13        13.2 0.28                          2.73 341 
                                                                                
 2009  4 2 0132 58.1 L  21.256 -99.229 10.0  RAL  1 0.0 0.5LRAL                1
 GAP=360        0.30       4.8     2.7  0.0 -0.1272E+02  0.2155E+01 -0.1695E+00E
 ACTION:UPD 12-06-08 11:37 OP:RALL STATUS:               ID:20090402013258     I
 2009-04-02-0132-53S.PLUR1_003                                                 6
 STAT SP IPHASW D HRMM SECON CODA AMPLIT PERI AZIMU VELO AIN AR TRES W  DIS CAZ7
 LZ4  SZ E         133  0.47                  152.9 12.3      0        9.29 333 
 LZ4  SN IP        133  0.50                             137    0.0110 9.29 333 
 LZ4  SE IS        133  2.22                             137   -0.0110 9.29 333 
 LZ4  SZ  AML      133  4.01        14.2 0.70                          9.29 333 
                                                                                
 2009  4 2 0147  1.9 L  21.265 -99.255 10.0  RAL  1 0.2 0.8LRAL                1
 GAP=360        1.82     509.9   999.9  0.0 -0.8747E+06  0.2155E+01 -0.1695E+00E
 ACTION:UPD 12-06-08 11:37 OP:RALL STATUS:               ID:20090402014701     I
 2009-04-02-0146-55S.PLUR1_003                                                 6
 STAT SP IPHASW D HRMM SECON CODA AMPLIT PERI AZIMU VELO AIN AR TRES W  DIS CAZ7
 LG3  SZ E         147  4.20                  198.7 15.1      8        1.19  11 
 LG3  SN IP        147  4.23                             173    0.4810 1.19  11 
 LG3  SE IS        147  4.63                             173   -0.4810 1.19  11 
 LG3  SZ  AML      147  4.92        32.4 0.32                          1.19  11 
                                                                                
 2009  4 2 0249 18.3 L  21.302 -99.242 10.0  RAL  1 0.1 0.2LRAL                1
 GAP=360        0.35       8.6     8.1  0.0 -0.6939E+02  0.2155E+01 -0.1695E+00E
 ACTION:UPD 12-06-08 11:37 OP:RALL STATUS:               ID:20090402024918     I
 2009-04-02-0249-12S.PLUR1_003                                                 6
 STAT SP IPHASW D HRMM SECON CODA AMPLIT PERI AZIMU VELO AIN AR TRES W  DIS CAZ7
 LZ4  SZ IP        249 20.38                             157    0.1310 4.31 319 
 LZ4  SN E         249 20.41                  138.8 71.1      0        4.31 319 
 LZ4  SE IS        249 21.55                             157   -0.1310 4.31 319 
 LZ4  SN  AML      249 21.73         7.7 0.24                          4.31 319 
                                                                                
 2009  4 2 1052 19.3 L  21.352 -99.279 10.0  RAL  1 0.2 1.0LRAL                1
 GAP=360        0.96     897.8   999.9  0.0  0.1829E+07  0.2155E+01 -0.1695E+00E
 ACTION:UPD 12-06-08 11:37 OP:RALL STATUS:               ID:20090402105219     I
 2009-04-02-1052-12S.PLUR1_003                                                 6
 STAT SP IPHASW D HRMM SECON CODA AMPLIT PERI AZIMU VELO AIN AR TRES W  DIS CAZ7
 LZ4  SZ E        1052 21.63                  333.2  7.2     -2        2.51 156 
 LZ4  SN IP       1052 21.64                             166    0.4610 2.51 156 
 LZ4  SE IS       1052 22.09                             166   -0.4610 2.51 156 
 LZ4  SZ  AML     1052 22.71        59.5 0.18                          2.51 156 
                                                                                
 2009  4 2 1232 48.3 L  21.312 -99.254 10.0  RAL  1 0.2 0.5LRAL                1
 GAP=360        0.71      28.1    22.8  0.0 -0.6396E+03  0.2155E+01 -0.1695E+00E
 ACTION:UPD 12-06-08 11:37 OP:RALL STATUS:               ID:20090402123248     I
 2009-04-02-1232-41S.PLUR1_003                                                 6
 STAT SP IPHASW D HRMM SECON CODA AMPLIT PERI AZIMU VELO AIN AR TRES W  DIS CAZ7
 LZ4  SZ E        1232 50.60                  142.9 16.4      0        2.66 323 
 LZ4  SN IP       1232 50.62                             166    0.4310 2.66 323 
 LZ4  SE IS       1232 51.13                             166   -0.4310 2.66 323 
 LZ4  SZ  AML     1232 51.22        16.2 0.18                          2.66 323 
                                                                                
 2009  4 2 1702 26.2 L  21.525 -99.340 10.0  RAL  1 0.0 0.6LRAL                1
 GAP=360        0.31       6.6     5.0  0.0 -0.3295E+02  0.2155E+01 -0.1695E+00E
 ACTION:UPD 12-06-08 11:37 OP:RALL STATUS:               ID:20090402170226     I
 2009-04-02-1702-15S.PLUR1_003                                                 6
 STAT SP IPHASW D HRMM SECON CODA AMPLIT PERI AZIMU VELO AIN AR TRES W  DIS CAZ7
 LA4  SZ E        17 2 28.28                  325.2  9.0      0        5.54 145 
 LA4  SN IP       17 2 28.30                             152    0.0610 5.54 145 
 LA4  SE IS       17 2 29.69                             152   -0.0610 5.54 145 
 LA4  SZ  AML     17 2 29.99        18.7 0.42                          5.54 145 
                                                                                
 2009  4 3 0215 11.0 L  21.511 -99.345 10.0  RAL  1 0.0 0.0LRAL                1
 GAP=360        0.33       6.1     8.1  0.0 -0.4920E+02  0.2155E+01 -0.1695E+00E
 ACTION:UPD 12-06-08 11:37 OP:RALL STATUS:               ID:20090403021511     I
 2009-04-03-0215-00S.PLUR1_003                                                 6
 STAT SP IPHASW D HRMM SECON CODA AMPLIT PERI AZIMU VELO AIN AR TRES W  DIS CAZ7
 LA4  SN IP        215 13.06                             155    0.0910 4.77 129 
 LA4  SZ E         215 13.09                  308.7 13.3      0        4.77 129 
 LA4  SE IS        215 14.34                             155   -0.0910 4.77 129 
 LA4  SZ  AML      215 15.29         5.2 0.30                          4.77 129 
                                                                                
 2009  4 3 0629 11.0 L  21.358 -99.435 10.0  RAL  1 0.0 0.7LRAL                1
 GAP=360        0.30       0.8     4.4  0.0 -0.3112E+01  0.2155E+01 -0.1695E+00E
 ACTION:UPD 12-06-08 11:37 OP:RALL STATUS:               ID:20090403062911     I
 2009-04-03-0629-07S.PLUR1_003                                                 6
 STAT SP IPHASW D HRMM SECON CODA AMPLIT PERI AZIMU VELO AIN AR TRES W  DIS CAZ7
 LZ4  SZ E         629 14.39                  279.8 18.0      0        17.4 100 
 LZ4  SN IP        629 14.41                             117    0.0210 17.4 100 
 LZ4  SE IS        629 16.85                             117   -0.0210 17.4 100 
 LZ4  SZ  AML      629 17.47        13.2 0.34                          17.4 100 
                                                                                
