 2009  412 2227 41.5 L  21.222 -99.195 10.0  RAL  1 0.0 0.8LRAL                1
 GAP=360        0.30       3.7     2.6  0.0 -0.9452E+01  0.2988E+08 -0.5115E+08E
 ACTION:UPD 12-06-08 11:37 OP:RALL STATUS:               ID:20090412222741     I
 2009-04-12-2227-37S.PLUR1_003                                                 6
 STAT SP IPHASW D HRMM SECON CODA AMPLIT PERI AZIMU VELO AIN AR TRES W  DIS CAZ7
 LZ4  SZ E        2227 44.44                  147.4 17.2      0        14.3 327 
 LZ4  SN IP       2227 44.55                             123    0.0110 14.3 327 
 LZ4  SE IS       2227 46.71                             123   -0.0110 14.3 327 
 LZ4  SZ  AML     2227 47.83        19.8 0.14                          14.3 327 
                                                                                
 2009  412 2313 34.5 L  21.282 -99.200 10.0  RAL  1 0.0 1.0LRAL                1
 GAP=360        0.30       1.1     8.4  0.0  0.8842E+01  0.2988E+08 -0.5115E+08E
 ACTION:UPD 12-06-08 11:37 OP:RALL STATUS:               ID:20090412231334     I
 2009-04-12-2313-28S.PLUR1_003                                                 6
 STAT SP IPHASW D HRMM SECON CODA AMPLIT PERI AZIMU VELO AIN AR TRES W  DIS CAZ7
 LG3  SN IP       2313 36.58                             152    0.0210 5.48 262 
 LG3  SZ E        2313 36.65                   82.3 12.1      0        5.48 262 
 LG3  SE IS       2313 38.05                             152   -0.0210 5.48 262 
 LG3  SZ  AML     2313 38.22        47.4 0.10                          5.48 262 
                                                                                
 2009  413 0118 47.1 L  21.317 -99.286 10.0  RAL  1 0.2 1.7LRAL                1
 GAP=360        0.90      35.1    41.9  0.0  0.1471E+04  0.2988E+08 -0.5115E+08E
 ACTION:UPD 12-06-08 11:37 OP:RALL STATUS:               ID:20090413011847     I
 2009-04-13-0118-40S.PLUR1_003                                                 6
 STAT SP IPHASW D HRMM SECON CODA AMPLIT PERI AZIMU VELO AIN AR TRES W  DIS CAZ7
 LZ4  SZ E         118 49.53                  228.0 30.6      0        2.25  48 
 LZ4  SN IP        118 49.56                             168    0.5710 2.25  48 
 LZ4  SE IS        118 49.78                             168   -0.5710 2.25  48 
 LZ4  SZ  AML      118 49.92       282.8 0.26                          2.25  48 
                                                                                
 2009  413 0724 37.5 L  21.337 -99.289 10.0  RAL  1 0.1 0.9LRAL                1
 GAP=360        0.43     786.6   299.4  0.0  0.2355E+06  0.2988E+08 -0.5115E+08E
 ACTION:UPD 12-06-08 11:37 OP:RALL STATUS:               ID:20090413072437     I
 2009-04-13-0724-30S.PLUR1_003                                                 6
 STAT SP IPHASW D HRMM SECON CODA AMPLIT PERI AZIMU VELO AIN AR TRES W  DIS CAZ7
 LZ4  SZ E         724 39.56                  288.0 24.2      0        2.12 108 
 LZ4  SN IP        724 39.57                             168    0.2110 2.12 108 
 LZ4  SE IS        724 40.51                             168   -0.2110 2.12 108 
 LZ4  SZ  AML      724 40.88        42.8 0.14                          2.12 108 
                                                                                
 2009  413 0729  5.9 L  21.307 -99.288 10.0  RAL  1 0.1 0.0LRAL                1
 GAP=360        0.47      15.9    12.4  0.0  0.1980E+03  0.2988E+08 -0.5115E+08E
 ACTION:UPD 12-06-08 11:37 OP:RALL STATUS:               ID:20090413072905     I
 2009-04-13-0729-00S.PLUR1_003                                                 6
 STAT SP IPHASW D HRMM SECON CODA AMPLIT PERI AZIMU VELO AIN AR TRES W  DIS CAZ7
 LZ4  SN IP        729  8.09                             163    0.2510 3.20  36 
 LZ4  SZ E         729  8.09                  216.0 10.4      0        3.20  36 
 LZ4  SE IS        729  8.99                             163   -0.2510 3.20  36 
 LZ4  SZ  AML      729  9.38         4.9 0.12                          3.20  36 
                                                                                
 2009  413 0807 27.4 L  21.349 -99.423 10.0  RAL  1 0.0 0.6LRAL                1
 GAP=360        0.30       0.7     4.6  0.0 -0.2489E+01  0.2988E+08 -0.5115E+08E
 ACTION:UPD 12-06-08 11:37 OP:RALL STATUS:               ID:20090413080727     I
 2009-04-13-0807-23S.PLUR1_003                                                 6
 STAT SP IPHASW D HRMM SECON CODA AMPLIT PERI AZIMU VELO AIN AR TRES W  DIS CAZ7
 LZ4  SZ E         8 7 30.48                  277.4 43.4      0        16.0  97 
 LZ4  SN IP        8 7 30.66                             120    0.0210 16.0  97 
 LZ4  SE IS        8 7 32.96                             120   -0.0210 16.0  97 
 LZ4  SZ  AML      8 7 33.71        11.5 0.18                          16.0  97 
                                                                                
 2009  413 0811 17.8 L  21.232 -99.313 10.0  RAL  1 0.0 0.3LRAL                1
 GAP=360        0.30       3.7     5.2  0.0  0.1898E+02  0.2988E+08 -0.5115E+08E
 ACTION:UPD 12-06-08 11:37 OP:RALL STATUS:               ID:20090413081117     I
 2009-04-13-0811-11S.PLUR1_003                                                 6
 STAT SP IPHASW D HRMM SECON CODA AMPLIT PERI AZIMU VELO AIN AR TRES W  DIS CAZ7
 LG3  SN IP        811 20.06                             142    0.0310 7.92  53 
 LG3  SZ E         811 20.08                  232.6 20.7      0        7.92  53 
 LG3  SE IS        811 21.66                             142   -0.0310 7.92  53 
 LG3  SZ  AML      811 21.82         8.9 0.10                          7.92  53 
                                                                                
 2009  413 0954 16.2 L  21.318 -99.283 10.0  RAL  1 0.2 0.6LRAL                1
 GAP=360        0.90     999.9   999.9  0.0 -0.1692E+07  0.2988E+08 -0.5115E+08E
 ACTION:UPD 12-06-08 11:37 OP:RALL STATUS:               ID:20090413095416     I
 2009-04-13-0954-09S.PLUR1_003                                                 6
 STAT SP IPHASW D HRMM SECON CODA AMPLIT PERI AZIMU VELO AIN AR TRES W  DIS CAZ7
 LZ4  SZ E         954 18.63                  225.0 29.6      0        1.94  45 
 LZ4  SN IP        954 18.67                             169    0.5710 1.94  45 
 LZ4  SE IS        954 18.88                             169   -0.5710 1.94  45 
 LZ4  SZ  AML      954 19.02        21.2 0.24                          1.94  45 
                                                                                
 2009  413 1511 44.5 L  21.340 -98.652 10.0  RAL  1 0.0 1.6LRAL                1
 GAP=360        0.30       2.0     3.9  0.0 -0.2511E+01  0.2988E+08 -0.5115E+08E
 ACTION:UPD 12-06-08 11:37 OP:RALL STATUS:               ID:20090413151144     I
 2009-04-13-1511-43S.PLUR1_003                                                 6
 STAT SP IPHASW D HRMM SECON CODA AMPLIT PERI AZIMU VELO AIN AR TRES W  DIS CAZ7
 LA4  SZ E        1511 55.76                  103.0  9.9      0        70.0 283 
 LA4  SN IP       1511 55.92                              95    0.0110 70.0 283 
 LA4  SE IS       1512  4.22                              95   -0.0110 70.0 283 
 LA4  SZ  AML     1512  8.55        30.7 0.30                          70.0 283 
                                                                                
 2009  413 2351  8.4 L  21.487 -99.314 10.0  RAL  1 0.4 0.9LRAL                1
 GAP=360        4.59     999.9   999.9  0.0  0.3080E+07  0.2988E+08 -0.5115E+08E
 ACTION:UPD 12-06-08 11:37 OP:RALL STATUS:               ID:20090413235108     I
 2009-04-13-2350-56S.PLUR1_003                                                 6
 STAT SP IPHASW D HRMM SECON CODA AMPLIT PERI AZIMU VELO AIN AR TRES W  DIS CAZ7
 LA4  SZ E        2351 10.72                  289.5 24.8    -21        0.63 131 
 LA4  SN IP       2351 10.75                             177    0.4610 0.63 131 
 LA4  SE IS       2351 11.18                             177   -0.4610 0.63 131 
 LA4  SZ  AML     2351 11.21        44.2 0.10                          0.63 131 
                                                                                
 2009  414 0236 16.9 L  21.485 -99.318 10.0  RAL  1 0.2 0.2LRAL                1
 GAP=360        1.25      22.6   182.6  0.0 -0.4130E+04  0.2988E+08 -0.5115E+08E
 ACTION:UPD 12-06-08 11:37 OP:RALL STATUS:               ID:20090414023616     I
 2009-04-14-0236-05S.PLUR1_003                                                 6
 STAT SP IPHASW D HRMM SECON CODA AMPLIT PERI AZIMU VELO AIN AR TRES W  DIS CAZ7
 LA4  SZ E         236 19.17                  282.3 27.7      5        0.95  98 
 LA4  SN IP        236 19.20                             175    0.4710 0.95  98 
 LA4  SE IS        236 19.61                             175   -0.4710 0.95  98 
 LA4  SZ  AML      236 19.71         8.9 0.22                          0.95  98 
                                                                                
 2009  414 0603 54.9 L  21.498 -99.321 10.0  RAL  1 0.2-0.2LRAL                1
 GAP=360        0.77      40.1    32.7  0.0 -0.1309E+04  0.2988E+08 -0.5115E+08E
 ACTION:UPD 12-06-08 11:37 OP:RALL STATUS:               ID:20090414060354     I
 2009-04-14-0603-43S.PLUR1_003                                                 6
 STAT SP IPHASW D HRMM SECON CODA AMPLIT PERI AZIMU VELO AIN AR TRES W  DIS CAZ7
 LA4  SN IP        6 3 57.26                             169    0.4810 2.02 143 
 LA4  SZ E         6 3 57.26                  322.8 13.2      0        2.02 143 
 LA4  SE IS        6 3 57.67                             169   -0.4810 2.02 143 
 LA4  SZ  AML      6 3 57.79         3.6 0.22                          2.02 143 
                                                                                
 2009  414 0608 56.0 L  21.512 -99.322 10.0  RAL  1 0.0 0.9LRAL                1
 GAP=360        0.30       3.9     1.3  0.0 -0.4327E+01  0.2988E+08 -0.5115E+08E
 ACTION:UPD 12-06-08 11:37 OP:RALL STATUS:               ID:20090414060856     I
 2009-04-14-0608-51S.PLUR1_003                                                 6
 STAT SP IPHASW D HRMM SECON CODA AMPLIT PERI AZIMU VELO AIN AR TRES W  DIS CAZ7
 LZ4  SN IP        6 8 59.89                             112    0.0210 20.8 165 
 LZ4  SZ E         6 8 59.97                  344.8  7.4      0        20.8 165 
 LZ4  SE IS        6 9  2.68                             112   -0.0210 20.8 165 
 LZ4  SZ  AML      6 9  3.52        18.5 0.16                          20.8 165 
                                                                                
 2009  414 0758 14.2 L  21.327 -99.204 10.0  RAL  1 0.0-0.1LRAL                1
 GAP=360        0.30       0.5     7.1  0.0 -0.3188E+01  0.2988E+08 -0.5115E+08E
 ACTION:UPD 12-06-08 11:37 OP:RALL STATUS:               ID:20090414075814     I
 2009-04-14-0758-08S.PLUR1_003                                                 6
 STAT SP IPHASW D HRMM SECON CODA AMPLIT PERI AZIMU VELO AIN AR TRES W  DIS CAZ7
 LZ4  SZ E         758 16.31                   93.9 16.7      0        6.84 274 
 LZ4  SN IP        758 16.31                             146    0.0110 6.84 274 
 LZ4  SE IS        758 17.87                             146   -0.0110 6.84 274 
 LZ4  SZ  AML      758 18.72         4.1 0.10                          6.84 274 
                                                                                
 2009  414 0847  0.9 L  21.281 -99.238 10.0  RAL  1 0.3 0.9LRAL                1
 GAP=360        3.59     106.7   304.5  0.0  0.3248E+05  0.2988E+08 -0.5115E+08E
 ACTION:UPD 12-06-08 11:37 OP:RALL STATUS:               ID:20090414084700     I
 2009-04-14-0846-54S.PLUR1_003                                                 6
 STAT SP IPHASW D HRMM SECON CODA AMPLIT PERI AZIMU VELO AIN AR TRES W  DIS CAZ7
 LG3  SN IP        847  3.08                             172    0.3410 1.56 249 
 LG3  SZ E         847  3.11                   86.3 14.1     17        1.56 249 
 LG3  SE IS        847  3.77                             172   -0.3410 1.56 249 
 LG3  SZ  AML      847  3.91        45.6 0.28                          1.56 249 
                                                                                
 2009  414 1309 48.0 L  21.570 -99.364 10.0  RAL  1 0.0 0.0LRAL                1
 GAP=360        0.30       4.3     2.8  0.0 -0.1165E+02  0.2988E+08 -0.5115E+08E
 ACTION:UPD 12-06-08 11:37 OP:RALL STATUS:               ID:20090414130948     I
 2009-04-14-1309-38S.PLUR1_003                                                 6
 STAT SP IPHASW D HRMM SECON CODA AMPLIT PERI AZIMU VELO AIN AR TRES W  DIS CAZ7
 LA4  SZ E        13 9 50.60                  329.2  9.8      0        11.1 149 
 LA4  SN IP       13 9 50.66                             132    0.0210 11.1 149 
 LA4  SE IS       13 9 52.51                             132   -0.0210 11.1 149 
 LA4  SZ  AML     13 9 54.76         4.1 0.40                          11.1 149 
                                                                                
 2009  414 1410 34.3 L  21.520 -99.463 10.0  RAL  1 0.0 0.8LRAL                1
 GAP=360        0.30       2.8     2.9  0.0 -0.7533E+01  0.2988E+08 -0.5115E+08E
 ACTION:UPD 12-06-08 11:37 OP:RALL STATUS:               ID:20090414141034     I
 2009-04-14-1410-34S.PLUR1_003                                                 6
 STAT SP IPHASW D HRMM SECON CODA AMPLIT PERI AZIMU VELO AIN AR TRES W  DIS CAZ7
 LZ4  SN IP       1410 39.45                             105    0.0010 29.0 136 
 LZ4  SZ E        1410 39.52                  316.3 10.9      0        29.0 136 
 LZ4  SE IS       1410 43.17                             105    0.0010 29.0 136 
 LZ4  SZ  AML     1410 45.80        13.3 0.62                          29.0 136 
                                                                                
 2009  414 1426 48.2 L  21.577 -99.410 10.0  RAL  1 0.0 1.2LRAL                1
 GAP=360        0.30       3.4     2.1  0.0 -0.6225E+01  0.2988E+08 -0.5115E+08E
 ACTION:UPD 12-06-08 11:37 OP:RALL STATUS:               ID:20090414142648     I
 2009-04-14-1426-45S.PLUR1_003                                                 6
 STAT SP IPHASW D HRMM SECON CODA AMPLIT PERI AZIMU VELO AIN AR TRES W  DIS CAZ7
 LZ4  SN IP       1426 53.56                             104    0.0210 30.9 152 
 LZ4  SZ E        1426 53.65                  332.0 11.8      0        30.9 152 
 LZ4  SE IS       1426 57.45                             104   -0.0210 30.9 152 
 LZ4  SZ  AML     1427  0.91        31.7 0.56                          30.9 152 
                                                                                
 2009  414 1442 52.8 L  21.251 -99.247 10.0  RAL  1 0.0 1.9LRAL                1
 GAP=360        0.30       5.3     1.5  0.0 -0.7966E+01  0.2988E+08 -0.5115E+08E
 ACTION:UPD 12-06-08 11:37 OP:RALL STATUS:               ID:20090414144252     I
 2009-04-14-1442-45S.PLUR1_003                                                 6
 STAT SP IPHASW D HRMM SECON CODA AMPLIT PERI AZIMU VELO AIN AR TRES W  DIS CAZ7
 LZ4  SZ E        1442 55.13                  165.0 13.9      0        9.16 345 
 LZ4  SN IP       1442 55.15                             137    0.0110 9.16 345 
 LZ4  SE IS       1442 56.86                             137   -0.0110 9.16 345 
 LZ4  SZ  AML     1442 57.83       368.9 0.24                          9.16 345 
                                                                                
 2009  414 1459 54.5 L  21.339 -99.492 10.0  RAL  1 0.0 0.4LRAL                1
 GAP=360        0.30       2.6     3.2  0.0  0.7775E+01  0.2988E+08 -0.5115E+08E
 ACTION:UPD 12-06-08 11:37 OP:RALL STATUS:               ID:20090414145954     I
 2009-04-14-1459-48S.PLUR1_003                                                 6
 STAT SP IPHASW D HRMM SECON CODA AMPLIT PERI AZIMU VELO AIN AR TRES W  DIS CAZ7
 LA4  SZ E        1459 58.98                  229.9 17.1      0        24.9  50 
 LA4  SZ IP       1459 59.01                             108    0.0010 24.9  50 
 LA4  SN IP       1459 59.01                             108           24.9  50 
 LA4  SE IS       15 0  2.28                             108    0.0010 24.9  50 
 LA4  SZ  AML     15 0  2.58         5.4 0.42                          24.9  50 
                                                                                
 2009  414 1516 10.4 L  21.413 -99.469 10.0  RAL  1 0.0 1.2LRAL                1
 GAP=360        0.30       1.8     4.0  0.0  0.6949E+01  0.2988E+08 -0.5115E+08E
 ACTION:UPD 12-06-08 11:37 OP:RALL STATUS:               ID:20090414151610     I
 2009-04-14-1515-59S.PLUR1_003                                                 6
 STAT SP IPHASW D HRMM SECON CODA AMPLIT PERI AZIMU VELO AIN AR TRES W  DIS CAZ7
 LA4  SZ E        1516 13.68                  244.6 49.7      0        18.3  65 
 LA4  SN IP       1516 13.93                             116    0.0010 18.3  65 
 LA4  SE IS       1516 16.51                             116    0.0010 18.3  65 
 LA4  SZ  AML     1516 18.93        46.8 0.78                          18.3  65 
                                                                                
 2009  414 1532 14.3 L  21.194 -99.151  3.0  RAL  2 0.1 1.7LRAL                1
 GAP=338        1.27       5.5     6.3  7.5 -0.3206E+02 -0.7358E+01  0.4844E+01E
 ACTION:UPD 12-06-08 11:37 OP:RALL STATUS:               ID:20090414153214     I
 2009-04-14-1532-07S.PLUR1_009                                                 6
 STAT SP IPHASW D HRMM SECON CODA AMPLIT PERI AZIMU VELO AIN AR TRES W  DIS CAZ7
 LG3  SZ E        1532 17.19                  132.0 14.4      2        13.9 310 
 LG3  SN IP       1532 17.21                             103    0.3910 13.9 310 
 LG3  SE IS       1532 18.24                             103   -0.4310 13.9 310 
 LG3  SZ  AML     1532 18.40       632.0 0.26                          13.9 310 
 LA4  SZ E        1532 20.61                  147.8  8.0     -4        36.0 333 
 LA4  SN IP       1532 20.62                              63    0.1010 36.0 333 
 LA4  SE IS       1532 25.03                              63   -0.0510 36.0 333 
 LA4  SZ  AML     1532 25.85        27.0 0.42                          36.0 333 
                                                                                
 2009  414 1613 50.4 L  21.805 -99.396 10.0  RAL  1 0.0 0.6LRAL                1
 GAP=360        0.30       3.7     1.4  0.0 -0.3415E+01 -0.7358E+01  0.4844E+01E
 ACTION:UPD 12-06-08 11:37 OP:RALL STATUS:               ID:20090414161350     I
 2009-04-14-1613-47S.PLUR1_003                                                 6
 STAT SP IPHASW D HRMM SECON CODA AMPLIT PERI AZIMU VELO AIN AR TRES W  DIS CAZ7
 LA4  SZ E        1613 56.72                  345.8  8.9      0        36.7 166 
 LA4  SN IP       1613 56.72                             101    0.0110 36.7 166 
 LA4  SE IS       1614  1.27                             101   -0.0110 36.7 166 
 LA4  SZ  AML     1614  6.43         6.6 0.66                          36.7 166 
                                                                                
 2009  414 1837 21.6 L  21.286 -99.266 10.0  RAL  1 0.0 0.3LRAL                1
 GAP=360        0.30       8.5     0.7  0.0 -0.5528E+01 -0.7358E+01  0.4844E+01E
 ACTION:UPD 12-06-08 11:37 OP:RALL STATUS:               ID:20090414183721     I
 2009-04-14-1837-15S.PLUR1_003                                                 6
 STAT SP IPHASW D HRMM SECON CODA AMPLIT PERI AZIMU VELO AIN AR TRES W  DIS CAZ7
 LZ4  SN IP       1837 23.66                             154    0.0110 4.94 356 
 LZ4  SZ E        1837 23.69                  175.9 16.0      0        4.94 356 
 LZ4  SE IS       1837 25.10                             154   -0.0110 4.94 356 
 LZ4  SZ  AML     1837 25.32        11.3 0.16                          4.94 356 
                                                                                
