 2009  5 7 0003 34.3 L  21.367 -99.248 10.0  RAL  1 0.0 0.2LRAL                1
 GAP=360        0.32       8.6     5.2  0.0  0.4440E+02  0.2199E+07 -0.1299E+07E
 ACTION:UPD 12-06-08 11:37 OP:RALL STATUS:               ID:20090507000334     I
 2009-05-07-0003-28S.PLUR1_003                                                 6
 STAT SP IPHASW D HRMM SECON CODA AMPLIT PERI AZIMU VELO AIN AR TRES W  DIS CAZ7
 LZ4  SZ E         0 3 36.31                   29.1 10.0      0        4.53 209 
 LZ4  SN IP        0 3 36.34                             156    0.0810 4.53 209 
 LZ4  SE IS        0 3 37.62                             156   -0.0810 4.53 209 
 LZ4  SZ  AML      0 3 38.83         9.0 0.38                          4.53 209 
                                                                                
 2009  5 7 0117 44.6 L  21.299 -99.254 10.0  RAL  1 0.0 1.9LRAL                1
 GAP=360        0.35      11.2     5.4  0.0 -0.6058E+02  0.2199E+07 -0.1299E+07E
 ACTION:UPD 12-06-08 11:37 OP:RALL STATUS:               ID:20090507011744     I
 2009-05-07-0117-37S.PLUR1_003                                                 6
 STAT SP IPHASW D HRMM SECON CODA AMPLIT PERI AZIMU VELO AIN AR TRES W  DIS CAZ7
 LZ4  SN IP        117 46.67                             159    0.1210 3.88 336 
 LZ4  SZ E         117 46.69                  155.6 12.9      0        3.88 336 
 LZ4  SE IS        117 47.84                             159   -0.1210 3.88 336 
 LZ4  SZ  AML      117 48.25       400.7 0.10                          3.88 336 
                                                                                
 2009  5 7 0253 46.7 L  21.155 -99.210 27.0  RAL  2 0.3 0.9LRAL                1
 GAP=345        2.02       1.9     6.9 15.9  0.1162E+02  0.3283E+00 -0.4848E+00E
 ACTION:UPD 12-06-08 11:37 OP:RALL STATUS:               ID:20090507025346     I
 2009-05-07-0253-41S.PLUR1_006                                                 6
 STAT SP IPHASW D HRMM SECON CODA AMPLIT PERI AZIMU VELO AIN AR TRES W  DIS CAZ7
 LO8  SZ E         253 52.29                  150.2  6.4      1        0.56 329 
 LO8  SN IP        253 52.35                             179    1.1910 0.56 329 
 LO8  SE IS        253 54.36                             179   -0.0610 0.56 329 
 LO8  SZ  AML      253 54.92         6.5 0.32                          0.56 329 
 LA4  SN IP        253 54.25                             121    0.1710 37.8 344 
 LA4  SZ E         253 54.39                  160.2  6.8     -3        37.8 344 
 LA4  SE IS        253 58.16                             121   -1.3010 37.8 344 
 LA4  SZ  AML      253 58.73        23.7 0.30                          37.8 344 
                                                                                
 2009  5 7 0359 22.3 L  21.447 -99.284 10.0  RAL  1 0.0-0.2LRAL                1
 GAP=360        0.32       7.9     5.4  0.0 -0.4253E+02  0.3283E+00 -0.4848E+00E
 ACTION:UPD 12-06-08 11:37 OP:RALL STATUS:               ID:20090507035922     I
 2009-05-07-0359-11S.PLUR1_003                                                 6
 STAT SP IPHASW D HRMM SECON CODA AMPLIT PERI AZIMU VELO AIN AR TRES W  DIS CAZ7
 LA4  SZ E         359 24.38                  147.7 13.0      0        4.83 328 
 LA4  SN IP        359 24.40                             155    0.0810 4.83 328 
 LA4  SE IS        359 25.71                             155   -0.0810 4.83 328 
 LA4  SZ  AML      359 25.92         3.4 0.20                          4.83 328 
                                                                                
 2009  5 7 0501 22.3 L  21.294 -99.249 10.0  RAL  1 0.0 0.2LRAL                1
 GAP=360        0.31       8.5     4.6  0.0 -0.3908E+02  0.3283E+00 -0.4848E+00E
 ACTION:UPD 12-06-08 11:37 OP:RALL STATUS:               ID:20090507050122     I
 2009-05-07-0501-16S.PLUR1_003                                                 6
 STAT SP IPHASW D HRMM SECON CODA AMPLIT PERI AZIMU VELO AIN AR TRES W  DIS CAZ7
 LZ4  SZ E         5 1 24.34                  153.0 15.1      0        4.63 333 
 LZ4  SN IP        5 1 24.37                             156    0.0710 4.63 333 
 LZ4  SE IS        5 1 25.68                             156   -0.0710 4.63 333 
 LZ4  SZ  AML      5 1 27.86         7.9 0.50                          4.63 333 
                                                                                
 2009  5 7 0526 41.5 L  21.307 -99.255 10.0  RAL  1 0.1 0.3LRAL                1
 GAP=360        0.45      17.3    11.0  0.0 -0.1905E+03  0.3283E+00 -0.4848E+00E
 ACTION:UPD 12-06-08 11:37 OP:RALL STATUS:               ID:20090507052641     I
 2009-05-07-0526-35S.PLUR1_003                                                 6
 STAT SP IPHASW D HRMM SECON CODA AMPLIT PERI AZIMU VELO AIN AR TRES W  DIS CAZ7
 LZ4  SZ E         526 43.63                  149.2 13.3      0        3.02 329 
 LZ4  SN IP        526 43.65                             164    0.2310 3.02 329 
 LZ4  SE IS        526 44.57                             164   -0.2310 3.02 329 
 LZ4  SZ  AML      526 45.78        10.2 0.34                          3.02 329 
                                                                                
 2009  5 7 0612 15.0 L  21.361 -99.289 10.0  RAL  1 0.1 0.2LRAL                1
 GAP=360        0.38      11.5     7.6  0.0 -0.8737E+02  0.3283E+00 -0.4848E+00E
 ACTION:UPD 12-06-08 11:37 OP:RALL STATUS:               ID:20090507061215     I
 2009-05-07-0612-09S.PLUR1_003                                                 6
 STAT SP IPHASW D HRMM SECON CODA AMPLIT PERI AZIMU VELO AIN AR TRES W  DIS CAZ7
 LZ4  SN IP        612 17.13                             159    0.1610 3.86 148 
 LZ4  SZ E         612 17.19                  328.5 45.5      0        3.86 148 
 LZ4  SE IS        612 18.22                             159   -0.1610 3.86 148 
 LZ4  SZ  AML      612 19.22         7.9 0.66                          3.86 148 
                                                                                
 2009  5 7 0621 21.5 L  21.707 -99.270 10.0  RAL  1 0.0 0.9LRAL                1
 GAP=360        0.30       3.7     1.2  0.0 -0.2884E-06  0.3283E+00 -0.4848E+00E
 ACTION:UPD 12-06-08 11:37 OP:RALL STATUS:               ID:20090507062121     I
 2009-05-07-0621-24S.PLUR1_003                                                 6
 STAT SP IPHASW D HRMM SECON CODA AMPLIT PERI AZIMU VELO AIN AR TRES W  DIS CAZ7
 LZ4  SZ E         621 28.44                    0.0 13.7      0        41.7 180 
 LZ4  SN IP        621 28.49                              99    0.0110 41.7 180 
 LZ4  SE IS        621 33.60                              99   -0.0110 41.7 180 
 LZ4  SZ  AML      621 36.81        10.5 0.64                          41.7 180 
                                                                                
 2009  5 7 0714  8.3 L  21.261 -99.250 10.0  RAL  1 0.1 0.0LRAL                1
 GAP=360        0.36     393.1   999.9  0.0  0.1108E+07  0.3283E+00 -0.4848E+00E
 ACTION:UPD 12-06-08 11:37 OP:RALL STATUS:               ID:20090507071408     I
 2009-05-07-0714-02S.PLUR1_003                                                 6
 STAT SP IPHASW D HRMM SECON CODA AMPLIT PERI AZIMU VELO AIN AR TRES W  DIS CAZ7
 LG3  SN IP        714 10.33                             171    0.1310 1.68 351 
 LG3  SZ E         714 10.35                  170.9  5.9      0        1.68 351 
 LG3  SE IS        714 11.43                             171   -0.1310 1.68 351 
 LG3  SZ  AML      714 11.60         5.1 0.26                          1.68 351 
                                                                                
 2009  5 7 0757 51.1 L  21.686 -99.433 10.0  RAL  1 0.0 0.7LRAL                1
 GAP=360        0.30       3.4     2.2  0.0 -0.6762E+01  0.3283E+00 -0.4848E+00E
 ACTION:UPD 12-06-08 11:37 OP:RALL STATUS:               ID:20090507075751     I
 2009-05-07-0757-45S.PLUR1_003                                                 6
 STAT SP IPHASW D HRMM SECON CODA AMPLIT PERI AZIMU VELO AIN AR TRES W  DIS CAZ7
 LA4  SZ E         757 55.41                  330.1 23.6      0        25.8 150 
 LA4  SN IP        757 55.68                             107    0.0010 25.8 150 
 LA4  SE IS        757 59.05                             107    0.0010 25.8 150 
 LA4  SZ  AML      758  2.95         9.7 0.66                          25.8 150 
                                                                                
 2009  5 7 1915 23.3 L  21.575 -99.395 10.0  RAL  1 0.0 0.6LRAL                1
 GAP=360        0.30       3.4     3.2  0.0 -0.1093E+02  0.3283E+00 -0.4848E+00E
 ACTION:UPD 12-06-08 11:37 OP:RALL STATUS:               ID:20090507191523     I
 2009-05-07-1915-14S.PLUR1_003                                                 6
 STAT SP IPHASW D HRMM SECON CODA AMPLIT PERI AZIMU VELO AIN AR TRES W  DIS CAZ7
 LA4  SN IP       1915 26.20                             125    0.0210 13.5 139 
 LA4  SZ E        1915 26.54                  318.6 16.0      0        13.5 139 
 LA4  SE IS       1915 28.28                             125   -0.0210 13.5 139 
 LA4  SZ  AML     1915 29.82        15.1 0.64                          13.5 139 
                                                                                
 2009  5 7 2013 29.5 L  21.243 -99.354 10.0  RAL  1 0.0 0.4LRAL                1
 GAP=360        0.30       3.8     1.0  0.0  0.2587E+01  0.3283E+00 -0.4848E+00E
 ACTION:UPD 12-06-08 11:37 OP:RALL STATUS:               ID:20090507201329     I
 2009-05-07-2013-24S.PLUR1_003                                                 6
 STAT SP IPHASW D HRMM SECON CODA AMPLIT PERI AZIMU VELO AIN AR TRES W  DIS CAZ7
 LA4  SZ E        2013 34.24                  189.8 17.1      0        27.1  10 
 LA4  SN IP       2013 34.34                             106    0.0110 27.1  10 
 LA4  SE IS       2013 37.83                             106   -0.0110 27.1  10 
 LA4  SZ  AML     2013 40.53         5.4 0.36                          27.1  10 
                                                                                
 2009  5 8 0512 15.7 L  21.480 -99.327 10.0  RAL  1 0.2 1.1LRAL                1
 GAP=360        0.97      14.5    68.2  0.0  0.9920E+03  0.3283E+00 -0.4848E+00E
 ACTION:UPD 12-06-08 11:37 OP:RALL STATUS:               ID:20090508051215     I
 2009-05-08-0512-04S.PLUR1_003                                                 6
 STAT SP IPHASW D HRMM SECON CODA AMPLIT PERI AZIMU VELO AIN AR TRES W  DIS CAZ7
 LA4  SN IP        512 18.08                             169    0.4710 1.97  77 
 LA4  SZ E         512 18.09                  260.0 26.0      3        1.97  77 
 LA4  SE IS        512 18.50                             169   -0.4710 1.97  77 
 LA4  SZ  AML      512 18.60        63.6 0.18                          1.97  77 
                                                                                
 2009  5 8 1806  0.4 L  21.524 -99.450 10.0  RAL  1 0.0 1.3LRAL                1
 GAP=360        0.30       2.9     2.8  0.0 -0.7518E+01  0.3283E+00 -0.4848E+00E
 ACTION:UPD 12-06-08 11:37 OP:RALL STATUS:               ID:20090508180600     I
 2009-05-08-1805-56S.PLUR1_003                                                 6
 STAT SP IPHASW D HRMM SECON CODA AMPLIT PERI AZIMU VELO AIN AR TRES W  DIS CAZ7
 LZ4  SZ E        18 6  5.40                  318.9 14.6      0        28.4 139 
 LZ4  SN IP       18 6  5.43                             105    0.0010 28.4 139 
 LZ4  SE IS       18 6  9.08                             105    0.0010 28.4 139 
 LZ4  SZ  AML     18 6  9.74        43.7 0.16                          28.4 139 
                                                                                
 2009  5 8 1945 37.6 L  21.314 -99.469 10.0  RAL  1 0.0 0.8LRAL                1
 GAP=360        0.30       2.9     2.8  0.0  0.7810E+01  0.3283E+00 -0.4848E+00E
 ACTION:UPD 12-06-08 11:37 OP:RALL STATUS:               ID:20090508194537     I
 2009-05-08-1945-28S.PLUR1_003                                                 6
 STAT SP IPHASW D HRMM SECON CODA AMPLIT PERI AZIMU VELO AIN AR TRES W  DIS CAZ7
 LA4  SN IP       1945 42.12                             108    0.0010 25.1  42 
 LA4  SZ E        1945 42.13                  221.6 13.4      0        25.1  42 
 LA4  SE IS       1945 45.41                             108    0.0010 25.1  42 
 LA4  SZ  AML     1945 47.02        13.2 0.62                          25.1  42 
                                                                                
 2009  5 9 0042 10.7 L  21.257 -99.232 10.0  RAL  1 0.2 0.8LRAL                1
 GAP=360        0.67      21.7    24.0  0.0 -0.5194E+03  0.3283E+00 -0.4848E+00E
 ACTION:UPD 12-06-08 11:37 OP:RALL STATUS:               ID:20090509004210     I
 2009-05-09-0042-03S.PLUR1_003                                                 6
 STAT SP IPHASW D HRMM SECON CODA AMPLIT PERI AZIMU VELO AIN AR TRES W  DIS CAZ7
 LG3  SZ E         042 12.99                  134.1 16.6      0        2.91 314 
 LG3  SN IP        042 13.00                             164    0.4110 2.91 314 
 LG3  SE IS        042 13.58                             164   -0.4110 2.91 314 
 LG3  SZ  AML      042 13.71        31.3 0.22                          2.91 314 
                                                                                
 2009  5 9 0149 33.7 L  21.249 -99.231 10.0  RAL  1 0.0 0.7LRAL                1
 GAP=360        0.30       4.8     2.3  0.0 -0.1076E+02  0.3283E+00 -0.4848E+00E
 ACTION:UPD 12-06-08 11:37 OP:RALL STATUS:               ID:20090509014933     I
 2009-05-09-0149-27S.PLUR1_003                                                 6
 STAT SP IPHASW D HRMM SECON CODA AMPLIT PERI AZIMU VELO AIN AR TRES W  DIS CAZ7
 LZ4  SZ E         149 36.18                  156.5 13.2      0        9.90 337 
 LZ4  SN IP        149 36.18                             135    0.0210 9.90 337 
 LZ4  SE IS        149 37.93                             135   -0.0210 9.90 337 
 LZ4  SZ  AML      149 38.62        22.3 0.32                          9.90 337 
                                                                                
 2009  5 9 0559 33.4 L  21.158 -99.185 10.0  RAL  1 0.0 1.2LRAL                1
 GAP=360        0.30       3.6     1.9  0.0 -0.6320E+01  0.3283E+00 -0.4848E+00E
 ACTION:UPD 12-06-08 11:37 OP:RALL STATUS:               ID:20090509055933     I
 2009-05-09-0559-28S.PLUR1_003                                                 6
 STAT SP IPHASW D HRMM SECON CODA AMPLIT PERI AZIMU VELO AIN AR TRES W  DIS CAZ7
 LZ4  SZ E         559 37.21                  155.4 12.0      0        21.1 335 
 LZ4  SN IP        559 37.31                             112    0.0010 21.1 335 
 LZ4  SE IS        559 40.17                             112    0.0010 21.1 335 
 LZ4  SZ  AML      559 41.06        36.1 0.80                          21.1 335 
                                                                                
 2009  5 9 0740 12.1 L  21.147 -99.148 10.0  RAL  1 0.0 0.1LRAL                1
 GAP=360        0.30       1.4     7.1  0.0 -0.9556E+01  0.3283E+00 -0.4848E+00E
 ACTION:UPD 12-06-08 11:37 OP:RALL STATUS:               ID:20090509074012     I
 2009-05-09-0740-06S.PLUR1_003                                                 6
 STAT SP IPHASW D HRMM SECON CODA AMPLIT PERI AZIMU VELO AIN AR TRES W  DIS CAZ7
 LO8  SN IP        740 14.34                             147    0.0210 6.85 282 
 LO8  SZ E         740 14.40                  101.5  7.8      0        6.85 282 
 LO8  SE IS        740 15.91                             147   -0.0210 6.85 282 
 LO8  SZ  AML      740 16.19         5.6 0.20                          6.85 282 
                                                                                
 2009  5 9 1359 44.2 L  21.196 -99.109 10.0  RAL  1 0.0 0.5LRAL                1
 GAP=360        0.30       3.2     2.4  0.0 -0.6499E+01  0.3283E+00 -0.4848E+00E
 ACTION:UPD 12-06-08 11:37 OP:RALL STATUS:               ID:20090509135944     I
 2009-05-09-1359-41S.PLUR1_003                                                 6
 STAT SP IPHASW D HRMM SECON CODA AMPLIT PERI AZIMU VELO AIN AR TRES W  DIS CAZ7
 LA4  SN IP       1359 50.66                             100    0.0210 38.0 327 
 LA4  SZ E        1359 50.70                  146.9  8.8      0        38.0 327 
 LA4  SE IS       1359 55.34                             100   -0.0210 38.0 327 
 LA4  SZ  AML     1359 57.35         4.9 0.50                          38.0 327 
                                                                                
 2009  5 9 1440 22.7 L  21.188 -99.200 10.0  RAL  1 0.0 1.0LRAL                1
 GAP=360        0.30       3.8     1.9  0.0 -0.6909E+01  0.3283E+00 -0.4848E+00E
 ACTION:UPD 12-06-08 11:37 OP:RALL STATUS:               ID:20090509144022     I
 2009-05-09-1440-16S.PLUR1_003                                                 6
 STAT SP IPHASW D HRMM SECON CODA AMPLIT PERI AZIMU VELO AIN AR TRES W  DIS CAZ7
 LZ4  SZ E        1440 25.88                  155.5 37.1      0        17.4 336 
 LZ4  SN IP       1440 26.07                             117    0.0010 17.4 336 
 LZ4  SE IS       1440 28.55                             117    0.0010 17.4 336 
 LZ4  SZ  AML     1440 28.84        32.7 0.38                          17.4 336 
                                                                                
 2009  5 9 1621 45.3 L  21.205 -99.095 10.0  RAL  1 0.0 0.5LRAL                1
 GAP=360        0.30       3.1     2.5  0.0 -0.6745E+01  0.3283E+00 -0.4848E+00E
 ACTION:UPD 12-06-08 11:37 OP:RALL STATUS:               ID:20090509162145     I
 2009-05-09-1621-42S.PLUR1_003                                                 6
 STAT SP IPHASW D HRMM SECON CODA AMPLIT PERI AZIMU VELO AIN AR TRES W  DIS CAZ7
 LA4  SN IP       1621 51.80                             100    0.0210 38.0 324 
 LA4  SZ E        1621 51.82                  144.2  9.2      0        38.0 324 
 LA4  SE IS       1621 56.48                             100   -0.0210 38.0 324 
 LA4  SZ  AML     1621 57.64         4.6 0.56                          38.0 324 
                                                                                
 2009  5 9 1707  4.1 L  21.526 -99.311 10.0  RAL  1 0.0 0.7LRAL                1
 GAP=360        0.30       8.9     0.5  0.0 -0.4045E+01  0.3283E+00 -0.4848E+00E
 ACTION:UPD 12-06-08 11:37 OP:RALL STATUS:               ID:20090509170704     I
 2009-05-09-1706-52S.PLUR1_003                                                 6
 STAT SP IPHASW D HRMM SECON CODA AMPLIT PERI AZIMU VELO AIN AR TRES W  DIS CAZ7
 LA4  SN IP       17 7  6.15                             156    0.0110 4.68 177 
 LA4  SZ E        17 7  6.17                  357.3  9.7      0        4.68 177 
 LA4  SE IS       17 7  7.59                             156   -0.0110 4.68 177 
 LA4  SZ  AML     17 7  8.49        26.2 0.32                          4.68 177 
                                                                                
 2009  5 9 1920 45.7 L  21.314 -99.262 10.0  RAL  1 0.2 0.4LRAL                1
 GAP=360        0.79     774.3   999.9  0.0  0.1641E+07  0.3283E+00 -0.4848E+00E
 ACTION:UPD 12-06-08 11:37 OP:RALL STATUS:               ID:20090509192045     I
 2009-05-09-1920-39S.PLUR1_003                                                 6
 STAT SP IPHASW D HRMM SECON CODA AMPLIT PERI AZIMU VELO AIN AR TRES W  DIS CAZ7
 LZ4  SN IP       1920 48.05                             169    0.4910 1.99 337 
 LZ4  SZ E        1920 48.05                  157.2 17.1      0        1.99 337 
 LZ4  SE IS       1920 48.42                             169   -0.4910 1.99 337 
 LZ4  SZ  AML     1920 48.51        12.6 0.12                          1.99 337 
                                                                                
