 2009  529 1212  4.1 L  21.273 -99.265 10.0  RAL  2 0.4 0.5LRAL                1
 GAP=270        3.82      22.0     8.8 33.2 -0.7473E+02  0.9774E+02 -0.5020E+03E
 ACTION:UPD 12-06-08 11:37 OP:RALL STATUS:               ID:20090529121204     I
 2009-05-29-1211-56S.PLUR1_006                                                 6
 STAT SP IPHASW D HRMM SECON CODA AMPLIT PERI AZIMU VELO AIN AR TRES W  DIS CAZ7
 LG3  SN IP       1212  6.73                             175    0.7610 1.35  79 
 LG3  SZ E        1212  6.74                  257.0 24.2     -1        1.35  79 
 LG3  SE IS       1212  8.28                             175    0.9510 1.35  79 
 LG3  SZ  AML     1212  8.69        20.9 0.10                          1.35  79 
 LA4  SZ E        1212  7.78                  152.7  6.7    -15        23.7 349 
 LA4  SN IP       1212  7.85                             111   -0.5710 23.7 349 
 LA4  SE IS       1212 10.42                             111   -1.1510 23.7 349 
 LA4  SZ  AML     1212 10.80         7.5 0.26                          23.7 349 
                                                                                
 2009  529 1830 18.0 L  21.309 -99.251 10.0  RAL  1 0.1 1.3LRAL                1
 GAP=360        0.52      18.3    15.4  0.0 -0.2804E+03  0.9774E+02 -0.5020E+03E
 ACTION:UPD 12-06-08 11:37 OP:RALL STATUS:               ID:20090529183018     I
 2009-05-29-1830-11S.PLUR1_003                                                 6
 STAT SP IPHASW D HRMM SECON CODA AMPLIT PERI AZIMU VELO AIN AR TRES W  DIS CAZ7
 LZ4  SZ E        1830 20.22                  141.9 11.9      0        3.03 322 
 LZ4  SN IP       1830 20.22                             164    0.2910 3.03 322 
 LZ4  SE IS       1830 21.02                             164   -0.2910 3.03 322 
 LZ4  SZ  AML     1830 21.29       120.4 0.16                          3.03 322 
                                                                                
 2009  529 2053 39.9 L  21.270 -99.277  4.5  RAL  2 0.0 0.8LRAL                1
 GAP=276        0.30       0.2     0.7  0.9  0.9660E-01  0.1058E+00  0.1950E-01E
 ACTION:UPD 12-06-08 11:37 OP:RALL STATUS:               ID:20090529205339     I
 2009-05-29-2053-32S.PLUR1_006                                                 6
 STAT SP IPHASW D HRMM SECON CODA AMPLIT PERI AZIMU VELO AIN AR TRES W  DIS CAZ7
 LG3  SZ E        2053 40.99                  256.5 17.7      0        2.61  76 
 LG3  SN IP       2053 41.01                             155    0.0710 2.61  76 
 LG3  SE IS       2053 41.69                             155   -0.0410 2.61  76 
 LG3  SZ  AML     2053 41.91       116.0 0.10                          2.61  76 
 LA4  SZ E        2053 44.01                  172.0  7.6      0        23.9 352 
 LA4  SN IP       2053 44.06                              63   -0.0310 23.9 352 
 LA4  SE IS       2053 47.20                              63    0.0110 23.9 352 
 LA4  SZ  AML     2053 48.23         7.1 0.20                          23.9 352 
                                                                                
 2009  530 1656 41.9 L  21.775 -99.603 10.0  RAL  1 0.0 0.4LRAL                1
 GAP=360        0.30       2.8     2.9  0.0 -0.6842E+01  0.1058E+00  0.1950E-01E
 ACTION:UPD 12-06-08 11:37 OP:RALL STATUS:               ID:20090530165641     I
 2009-05-30-1656-41S.PLUR1_003                                                 6
 STAT SP IPHASW D HRMM SECON CODA AMPLIT PERI AZIMU VELO AIN AR TRES W  DIS CAZ7
 LA4  SZ E        1656 49.35                  316.7 12.4      0        44.4 137 
 LA4  SN IP       1656 49.37                              99    0.0210 44.4 137 
 LA4  SE IS       1656 54.77                              99   -0.0210 44.4 137 
 LA4  SZ  AML     1656 54.82         3.5 0.40                          44.4 137 
                                                                                
 2009  531 0027 52.8 L  21.685 -99.274 10.0  RAL  1 0.0 0.7LRAL                1
 GAP=360        0.30       3.9     0.9  0.0  0.2632E+01  0.1058E+00  0.1950E-01E
 ACTION:UPD 12-06-08 11:37 OP:RALL STATUS:               ID:20090531002752     I
 2009-05-31-0027-45S.PLUR1_003                                                 6
 STAT SP IPHASW D HRMM SECON CODA AMPLIT PERI AZIMU VELO AIN AR TRES W  DIS CAZ7
 LA4  SN IP        027 56.97                             110    0.0210 22.6 189 
 LA4  SZ E         027 57.00                    9.3  8.8      0        22.6 189 
 LA4  SE IS        027 59.97                             110   -0.0210 22.6 189 
 LA4  SZ  AML      028  1.31        11.9 0.42                          22.6 189 
                                                                                
 2009  531 0222 58.6 L  21.658 -99.375 10.0  RAL  1 0.0 1.1LRAL                1
 GAP=360        0.30       3.8     1.5  0.0 -0.5386E+01  0.1058E+00  0.1950E-01E
 ACTION:UPD 12-06-08 11:37 OP:RALL STATUS:               ID:20090531022258     I
 2009-05-31-0222-48S.PLUR1_003                                                 6
 STAT SP IPHASW D HRMM SECON CODA AMPLIT PERI AZIMU VELO AIN AR TRES W  DIS CAZ7
 LA4  SZ E         223  2.41                  340.4  9.3      0        20.4 160 
 LA4  SN IP        223  2.44                             113    0.0010 20.4 160 
 LA4  SE IS        223  5.24                             113    0.0010 20.4 160 
 LA4  SZ  AML      223  6.29        34.5 0.20                          20.4 160 
                                                                                
 2009  531 0611 32.6 L  21.512 -99.269 10.0  RAL  1 0.0 0.6LRAL                1
 GAP=360        0.30       4.0     0.6  0.0  0.6033E-01  0.1058E+00  0.1950E-01E
 ACTION:UPD 12-06-08 11:37 OP:RALL STATUS:               ID:20090531061132     I
 2009-05-31-0611-29S.PLUR1_003                                                 6
 STAT SP IPHASW D HRMM SECON CODA AMPLIT PERI AZIMU VELO AIN AR TRES W  DIS CAZ7
 LZ4  SN IP        611 36.41                             113    0.0210 20.1 180 
 LZ4  SZ E         611 36.42                    0.2 10.8      0        20.1 180 
 LZ4  SE IS        611 39.14                             113   -0.0210 20.1 180 
 LZ4  SZ  AML      611 40.22        10.4 0.20                          20.1 180 
                                                                                
 2009  531 0630  5.1 L  21.318 -99.291 10.0  RAL  1 0.1 0.0LRAL                1
 GAP=360        0.57      15.1    26.0  0.0  0.3932E+03  0.1058E+00  0.1950E-01E
 ACTION:UPD 12-06-08 11:37 OP:RALL STATUS:               ID:20090531063005     I
 2009-05-31-0629-59S.PLUR1_003                                                 6
 STAT SP IPHASW D HRMM SECON CODA AMPLIT PERI AZIMU VELO AIN AR TRES W  DIS CAZ7
 LZ4  SZ E         630  7.19                  238.0 14.5      0        2.67  58 
 LZ4  SN IP        630  7.30                             165    0.3310 2.67  58 
 LZ4  SE IS        630  8.01                             165   -0.3310 2.67  58 
 LZ4  SZ  AML      630  8.44         5.7 0.32                          2.67  58 
                                                                                
 2009  531 1833 18.9 L  21.305 -99.262 10.0  RAL  1 0.0 0.7LRAL                1
 GAP=360        0.35      15.0     4.5  0.0 -0.6697E+02  0.1058E+00  0.1950E-01E
 ACTION:UPD 12-06-08 11:37 OP:RALL STATUS:               ID:20090531183318     I
 2009-05-31-1833-11S.PLUR1_003                                                 6
 STAT SP IPHASW D HRMM SECON CODA AMPLIT PERI AZIMU VELO AIN AR TRES W  DIS CAZ7
 LZ4  SN IP       1833 20.88                             164    0.1210 2.99 344 
 LZ4  SZ E        1833 20.90                  164.4  9.5      0        2.99 344 
 LZ4  SE IS       1833 22.02                             164   -0.1210 2.99 344 
 LZ4  SZ  AML     1833 22.42        29.5 0.24                          2.99 344 
                                                                                
 2009  531 2100 48.6 L  21.269 -99.233 10.0  RAL  1 0.2 1.3LRAL                1
 GAP=360        2.24     869.4   199.3  0.0  0.1732E+06  0.1058E+00  0.1950E-01E
 ACTION:UPD 12-06-08 11:37 OP:RALL STATUS:               ID:20090531210048     I
 2009-05-31-2100-41S.PLUR1_003                                                 6
 STAT SP IPHASW D HRMM SECON CODA AMPLIT PERI AZIMU VELO AIN AR TRES W  DIS CAZ7
 LG3  SZ E        21 0 50.91                  101.0 31.3     -9        2.14 291 
 LG3  SN IP       21 0 50.92                             168    0.4710 2.14 291 
 LG3  SE IS       21 0 51.36                             168   -0.4710 2.14 291 
 LG3  SZ  AML     21 0 51.42       122.2 0.10                          2.14 291 
                                                                                
