 2009  3 1 0324 44.0 L  21.427 -99.208 10.0  RAL  1 0.0 0.3LRAL                1
 GAP=360        0.30       2.4     4.4  0.0 -0.1054E+02 -0.1565E+08 -0.4597E+06E
 ACTION:UPD 12-06-08 11:37 OP:RALL STATUS:               ID:20090301032444     I
 2009-03-01-0324-35S.PLUR1_003                                                 6
 STAT SP IPHASW D HRMM SECON CODA AMPLIT PERI AZIMU VELO AIN AR TRES W  DIS CAZ7
 LA4  SN IP        324 46.72                             128    0.0210 12.2 301 
 LA4  SZ E         324 46.74                  120.7 11.2      0        12.2 301 
 LA4  SE IS        324 48.68                             128   -0.0210 12.2 301 
 LA4  SZ  AML      324 49.75         6.6 0.50                          12.2 301 
                                                                                
 2009  3 1 0449 43.8 L  21.190 -99.184 10.0  RAL  1 0.0 1.4LRAL                1
 GAP=360        0.30       3.6     2.2  0.0 -0.7758E+01 -0.1565E+08 -0.4597E+06E
 ACTION:UPD 12-06-08 11:37 OP:RALL STATUS:               ID:20090301044943     I
 2009-03-01-0449-38S.PLUR1_003                                                 6
 STAT SP IPHASW D HRMM SECON CODA AMPLIT PERI AZIMU VELO AIN AR TRES W  DIS CAZ7
 LZ4  SZ E         449 47.32                  150.3 31.4      0        17.9 330 
 LZ4  SN IP        449 47.32                             116    0.0110 17.9 330 
 LZ4  SE IS        449 49.85                             116   -0.0110 17.9 330 
 LZ4  SZ  AML      449 50.05        79.5 0.22                          17.9 330 
                                                                                
 2009  3 1 0618 24.4 L  21.485 -99.292 10.0  RAL  1 0.0 0.4LRAL                1
 GAP=360        0.30       2.0    24.1  0.0  0.4745E+02 -0.1565E+08 -0.4597E+06E
 ACTION:UPD 12-06-08 11:37 OP:RALL STATUS:               ID:20090301061824     I
 2009-03-01-0618-13S.PLUR1_003                                                 6
 STAT SP IPHASW D HRMM SECON CODA AMPLIT PERI AZIMU VELO AIN AR TRES W  DIS CAZ7
 LA4  SN IP        618 26.35                             170    0.0410 1.76 265 
 LA4  SZ E         618 26.58                   85.0  4.8      0        1.76 265 
 LA4  SE IS        618 27.64                             170   -0.0410 1.76 265 
 LA4  SZ  AML      618 27.96        12.5 0.24                          1.76 265 
                                                                                
 2009  3 1 0645 10.0 L  21.333 -99.257 10.0  RAL  1 0.0 0.5LRAL                1
 GAP=360        0.34     999.9   784.3  0.0 -0.3760E+07 -0.1565E+08 -0.4597E+06E
 ACTION:UPD 12-06-08 11:37 OP:RALL STATUS:               ID:20090301064510     I
 2009-03-01-0645-03S.PLUR1_003                                                 6
 STAT SP IPHASW D HRMM SECON CODA AMPLIT PERI AZIMU VELO AIN AR TRES W  DIS CAZ7
 LZ4  SZ E         645 11.94                   81.8 99.9      0        1.34 262 
 LZ4  SN IP        645 11.97                             173    0.1110 1.34 262 
 LZ4  SE IS        645 13.09                             173   -0.1110 1.34 262 
 LZ4  SZ  AML      645 15.43        16.8 0.66                          1.34 262 
                                                                                
 2009  3 1 0647 55.5 L  21.653 -99.393 30.7  RAL  2 0.5 2.3LRAL                1
 GAP=355        6.88      65.5    32.0805.6 -0.1881E+04  0.1584E+05 -0.3447E+05E
 ACTION:UPD 12-06-08 11:37 OP:RALL STATUS:               ID:20090301064755     I
 2009-03-01-0647-48S.PLUR1_006                                                 6
 STAT SP IPHASW D HRMM SECON CODA AMPLIT PERI AZIMU VELO AIN AR TRES W  DIS CAZ7
 LA4  SZ E         648  2.35                  352.3 39.8     17        20.6 155 
 LA4  SN IP        648  2.37                              94    0.9610 20.6 155 
 LA4  SE IS        648  5.86                              94    0.1610 20.6 155 
 LA4  SZ  AML      648  8.06       241.5 0.34                          20.6 155 
 LZ4  SZ E         648  3.14                  312.3  7.4    -27        37.8 160 
 LZ4  SN IP        648  3.16                              92    0.0010 37.8 160 
 LZ4  SE IS        648  7.62                              92   -1.1210 37.8 160 
 LZ4  SZ  AML      648  7.82       416.1 0.24                          37.8 160 
                                                                                
 2009  3 1 1129 51.5 L  21.266 -99.227  1.9  RAL  2 0.1 0.3LRAL                1
 GAP=324        0.42       0.3     0.5  3.5 -0.1228E+00 -0.7796E-01  0.2469E-01E
 ACTION:UPD 12-06-08 11:37 OP:RALL STATUS:               ID:20090301112951     I
 2009-03-01-1129-43S.PLUR1_006                                                 6
 STAT SP IPHASW D HRMM SECON CODA AMPLIT PERI AZIMU VELO AIN AR TRES W  DIS CAZ7
 LG3  SZ E        1129 52.10                  112.3 16.1      0        2.88 292 
 LG3  SN IP       1129 52.14                             137   -0.0810 2.88 292 
 LG3  SE IS       1129 52.72                             137   -0.0410 2.88 292 
 LG3  SZ  AML     1129 53.20        37.4 0.12                          2.88 292 
 LZ4  SN IP       1129 52.91                             109   -0.1410 8.45 328 
 LZ4  SZ E        1129 52.92                  148.6 12.9      0        8.45 328 
 LZ4  SE IS       1129 54.44                             109    0.2510 8.45 328 
 LZ4  SZ  AML     1129 54.85        12.6 0.24                          8.45 328 
                                                                                
 2009  3 1 1239 53.9 L  21.348 -99.275 10.0  RAL  1 0.2 0.5LRAL                1
 GAP=360        1.41      86.3    29.0  0.0 -0.2507E+04 -0.7796E-01  0.2469E-01E
 ACTION:UPD 12-06-08 11:37 OP:RALL STATUS:               ID:20090301123953     I
 2009-03-01-1239-47S.PLUR1_003                                                 6
 STAT SP IPHASW D HRMM SECON CODA AMPLIT PERI AZIMU VELO AIN AR TRES W  DIS CAZ7
 LZ4  SN IP       1239 56.27                             169    0.5110 2.04 163 
 LZ4  SZ E        1239 56.32                  337.1 22.2     -4        2.04 163 
 LZ4  SE IS       1239 56.61                             169   -0.5110 2.04 163 
 LZ4  SZ  AML     1239 56.88        18.9 0.30                          2.04 163 
                                                                                
 2009  3 1 1719 20.9 L  21.328 -99.286 10.0  RAL  1 0.1 0.5LRAL                1
 GAP=360        0.39       5.8    29.8  0.0  0.1739E+03 -0.7796E-01  0.2469E-01E
 ACTION:UPD 12-06-08 11:37 OP:RALL STATUS:               ID:20090301171920     I
 2009-03-01-1719-14S.PLUR1_003                                                 6
 STAT SP IPHASW D HRMM SECON CODA AMPLIT PERI AZIMU VELO AIN AR TRES W  DIS CAZ7
 LZ4  SZ E        1719 22.87                  258.1 10.2      0        1.78  78 
 LZ4  SN IP       1719 22.90                             170    0.1710 1.78  78 
 LZ4  SE IS       1719 23.92                             170   -0.1710 1.78  78 
 LZ4  SZ  AML     1719 24.11        16.3 0.14                          1.78  78 
                                                                                
 2009  3 1 1734  0.9 L  21.493 -99.308 10.0  RAL  1 0.1 0.1LRAL                1
 GAP=360        1.39     999.9   999.9  0.0 -0.1151E+09 -0.7796E-01  0.2469E-01E
 ACTION:UPD 12-06-08 11:37 OP:RALL STATUS:               ID:20090301173400     I
 2009-03-01-1733-49S.PLUR1_003                                                 6
 STAT SP IPHASW D HRMM SECON CODA AMPLIT PERI AZIMU VELO AIN AR TRES W  DIS CAZ7
 LA4  SN IP       1734  2.78                             174    0.0610 1.08 183 
 LA4  SZ E        1734  2.80                  356.5  7.5      6        1.08 183 
 LA4  SE IS       1734  4.02                             174   -0.0610 1.08 183 
 LA4  SZ  AML     1734  4.37         7.7 0.52                          1.08 183 
                                                                                
 2009  3 1 1817 27.8 L  21.441 -99.254 10.0  RAL  1 0.0 0.1LRAL                1
 GAP=360        0.30       4.1     5.2  0.0 -0.2115E+02 -0.7796E-01  0.2469E-01E
 ACTION:UPD 12-06-08 11:37 OP:RALL STATUS:               ID:20090301181727     I
 2009-03-01-1817-16S.PLUR1_003                                                 6
 STAT SP IPHASW D HRMM SECON CODA AMPLIT PERI AZIMU VELO AIN AR TRES W  DIS CAZ7
 LA4  SZ E        1817 29.99                  129.7 13.1      0        7.40 310 
 LA4  SN IP       1817 30.00                             144    0.0310 7.40 310 
 LA4  SE IS       1817 31.56                             144   -0.0310 7.40 310 
 LA4  SZ  AML     1817 32.14         5.2 0.56                          7.40 310 
                                                                                
 2009  3 2 0129  9.6 L  21.279 -99.238 10.0  RAL  1 0.0 0.4LRAL                1
 GAP=360        0.30       6.0     3.6  0.0 -0.2127E+02 -0.7796E-01  0.2469E-01E
 ACTION:UPD 12-06-08 11:37 OP:RALL STATUS:               ID:20090302012909     I
 2009-03-02-0129-03S.PLUR1_003                                                 6
 STAT SP IPHASW D HRMM SECON CODA AMPLIT PERI AZIMU VELO AIN AR TRES W  DIS CAZ7
 LZ4  SZ E         129 11.69                  150.8 15.6      0        6.61 331 
 LZ4  SN IP        129 11.72                             147    0.0310 6.61 331 
 LZ4  SE IS        129 13.22                             147   -0.0310 6.61 331 
 LZ4  SZ  AML      129 14.79        11.6 1.02                          6.61 331 
                                                                                
 2009  3 2 0136 50.4 Ly 21.252 -99.271  9.5  RAL  2 0.2 1.4LRAL                1
 GAP=350        3.71      28.3     2.9 32.1  0.6258E+01  0.1499E+01 -0.4230E+02E
 ACTION:UPD 12-06-08 11:37 OP:RALL STATUS:               ID:20090302013650     I
 2009-03-02-0136-43S.PLUR1_006                                                 6
 STAT SP IPHASW D HRMM SECON CODA AMPLIT PERI AZIMU VELO AIN AR TRES W  DIS CAZ7
 LZ4  SZ E         136 52.62                  184.7 24.5      3        8.76   1 
 LZ4  SN IP        136 52.64                             137   -0.0710 8.76   1 
 LZ4  SE IS        136 53.85                             137   -0.5210 8.76   1 
 LZ4  SZ  AML      136 53.93       281.8 0.22                          8.76   1 
 LA4  SN IP        136 55.22                             106    0.1610 26.0 351 
 LA4  SZ E         136 55.23                  153.9  7.1    -16        26.0 351 
 LA4  SE IS        136 58.87                             106    0.4310 26.0 351 
 LA4  SZ  AML      136 59.49        25.6 0.38                          26.0 351 
                                                                                
 2009  3 2 0141 26.5 L  21.306 -99.277 10.0  RAL  1 0.0 0.8LRAL                1
 GAP=360        0.33      15.0     4.4  0.0  0.6675E+02  0.1499E+01 -0.4230E+02E
 ACTION:UPD 12-06-08 11:37 OP:RALL STATUS:               ID:20090302014126     I
 2009-03-02-0141-19S.PLUR1_003                                                 6
 STAT SP IPHASW D HRMM SECON CODA AMPLIT PERI AZIMU VELO AIN AR TRES W  DIS CAZ7
 LZ4  SZ E         141 28.52                  195.4 19.6      0        2.80  15 
 LZ4  SN IP        141 28.53                             165    0.0910 2.80  15 
 LZ4  SE IS        141 29.72                             165   -0.0910 2.80  15 
 LZ4  SZ  AML      141 30.24        36.6 0.22                          2.80  15 
                                                                                
 2009  3 2 0539 26.2 L  21.381 -99.157 48.2  RAL  3 1.5 1.7LRAL                1
 GAP=275       25.87     214.1   392.6377.6  0.7784E+05  0.9599E+05  0.5031E+05E
 ACTION:UPD 12-06-08 11:37 OP:RALL STATUS:               ID:20090302053926     I
 2009-03-02-0539-19S.PLUR1_009                                                 6
 STAT SP IPHASW D HRMM SECON CODA AMPLIT PERI AZIMU VELO AIN AR TRES W  DIS CAZ7
 LZ4  SN IP        539 31.27                             150   -2.1910 13.0 244 
 LZ4  SZ E         539 31.34                  347.7 10.4     77        13.0 244 
 LZ4  SE IS        539 38.58                             150   -0.2010 13.0 244 
 LZ4  SZ  AML      539 39.06        73.5 0.30                          13.0 244 
 LG3  SN IP        539 35.95                             150    2.3810 15.3 220 
 LG3  SZ E         539 36.02                  118.8 13.9     78        15.3 220 
 LG3  SE IS        539 40.32                             150    1.3410 15.3 220 
 LG3  SZ  AML      539 40.63        39.1 0.16                          15.3 220 
 LA4  SZ E         539 30.90                  225.4 19.5    100        19.4 306 
 LA4  SN IP        539 33.65                             147   -0.1110 19.4 306 
 LA4  SE IS        539 38.08                             147   -1.2210 19.4 306 
 LA4  SZ  AML      539 38.54        59.1 0.56                          19.4 306 
                                                                                
 2009  3 2 1852 31.9 L  21.536 -99.361 10.0  RAL  1 0.0 0.9LRAL                1
 GAP=360        0.30       4.4     4.4  0.0 -0.1940E+02  0.9599E+05  0.5031E+05E
 ACTION:UPD 12-06-08 11:37 OP:RALL STATUS:               ID:20090302185231     I
 2009-03-02-1852-20S.PLUR1_003                                                 6
 STAT SP IPHASW D HRMM SECON CODA AMPLIT PERI AZIMU VELO AIN AR TRES W  DIS CAZ7
 LA4  SN IP       1852 34.19                             142    0.0210 7.93 137 
 LA4  SZ E        1852 34.22                  317.1  9.9      0        7.93 137 
 LA4  SE IS       1852 35.80                             142   -0.0210 7.93 137 
 LA4  SZ  AML     1852 35.90        39.7 0.10                          7.93 137 
                                                                                
 2009  3 3 1024 37.4 L  21.688 -99.396  0.0  RAL  2 0.1 0.8LRAL                1
 GAP=357        2.04      19.7     9.0387.5 -0.1543E+03  0.2070E+04 -0.4944E+04E
 ACTION:UPD 12-06-08 11:37 OP:RALL STATUS:               ID:20090303102437     I
 2009-03-03-1024-29S.PLUR1_006                                                 6
 STAT SP IPHASW D HRMM SECON CODA AMPLIT PERI AZIMU VELO AIN AR TRES W  DIS CAZ7
 LA4  SZ E        1024 41.40                  343.2  8.9      5        24.3 158 
 LA4  SN IP       1024 41.42                              93   -0.2010 24.3 158 
 LA4  SE IS       1024 44.58                              93   -0.1410 24.3 158 
 LA4  SZ  AML     1024 45.51        11.5 0.20                          24.3 158 
 LZ4  SN IP       1024 45.04                              91    0.4010 41.6 162 
 LZ4  SZ E        1024 45.29                  333.4 12.1     -7        41.6 162 
 LZ4  SE IS       1024 49.89                              91   -0.0610 41.6 162 
 LZ4  SZ  AML     1024 52.46        13.7 0.64                          41.6 162 
                                                                                
 2009  3 3 1416  7.2 L  21.351 -99.295 10.0  RAL  1 0.1 0.9LRAL                1
 GAP=360        0.40      10.1    12.9  0.0 -0.1303E+03  0.2070E+04 -0.4944E+04E
 ACTION:UPD 12-06-08 11:37 OP:RALL STATUS:               ID:20090303141607     I
 2009-03-03-1416-00S.PLUR1_003                                                 6
 STAT SP IPHASW D HRMM SECON CODA AMPLIT PERI AZIMU VELO AIN AR TRES W  DIS CAZ7
 LZ4  SZ E        1416  9.31                  310.1 57.2      0        3.48 130 
 LZ4  SN IP       1416  9.33                             161    0.1910 3.48 130 
 LZ4  SE IS       1416 10.36                             161   -0.1910 3.48 130 
 LZ4  SZ  AML     1416 10.42        46.8 0.26                          3.48 130 
                                                                                
 2009  3 3 1546 14.3 L  21.300 -99.253 10.0  RAL  1 0.1 0.5LRAL                1
 GAP=360        0.36      11.5     6.2  0.0 -0.7103E+02  0.2070E+04 -0.4944E+04E
 ACTION:UPD 12-06-08 11:37 OP:RALL STATUS:               ID:20090303154614     I
 2009-03-03-1546-08S.PLUR1_003                                                 6
 STAT SP IPHASW D HRMM SECON CODA AMPLIT PERI AZIMU VELO AIN AR TRES W  DIS CAZ7
 LZ4  SZ E        1546 16.29                  153.3 19.5      0        3.88 333 
 LZ4  SN IP       1546 16.35                             159    0.1410 3.88 333 
 LZ4  SE IS       1546 17.48                             159   -0.1410 3.88 333 
 LZ4  SZ  AML     1546 17.97        18.2 0.32                          3.88 333 
                                                                                
 2009  3 3 1635 29.9 L  21.273 -99.234  7.4  RAL  2 0.2 1.3LRAL                1
 GAP=308        1.08       0.3     0.9  9.6 -0.1330E+00 -0.5449E-01 -0.7292E-02E
 ACTION:UPD 12-06-08 11:37 OP:RALL STATUS:               ID:20090303163529     I
 2009-03-03-1635-22S.PLUR1_006                                                 6
 STAT SP IPHASW D HRMM SECON CODA AMPLIT PERI AZIMU VELO AIN AR TRES W  DIS CAZ7
 LG3  SZ E        1635 30.87                   97.3 13.9      0        1.89 279 
 LG3  SN IP       1635 30.87                             166   -0.5210 1.89 279 
 LG3  SE IS       1635 32.19                             166   -0.2810 1.89 279 
 LG3  SZ  AML     1635 32.96       104.2 0.26                          1.89 279 
 LZ4  SZ E        1635 31.78                  150.3 16.2      0        7.35 330 
 LZ4  SN IP       1635 31.80                             133    0.0010 7.35 330 
 LZ4  SE IS       1635 33.97                             133    0.7910 7.35 330 
 LZ4  SZ  AML     1635 34.59       122.0 0.18                          7.35 330 
                                                                                
 2009  3 3 1811 35.5 L  21.302 -99.284 10.0  RAL  1 0.1 0.8LRAL                1
 GAP=360        0.37      12.7     6.3  0.0  0.7976E+02 -0.5449E-01 -0.7292E-02E
 ACTION:UPD 12-06-08 11:37 OP:RALL STATUS:               ID:20090303181135     I
 2009-03-03-1811-28S.PLUR1_003                                                 6
 STAT SP IPHASW D HRMM SECON CODA AMPLIT PERI AZIMU VELO AIN AR TRES W  DIS CAZ7
 LZ4  SN IP       1811 37.52                             161    0.1510 3.55  25 
 LZ4  SZ E        1811 37.56                  204.6 34.4      0        3.55  25 
 LZ4  SE IS       1811 38.63                             161   -0.1510 3.55  25 
 LZ4  SZ  AML     1811 39.07        34.8 0.18                          3.55  25 
                                                                                
