 2009  5 9 1945 58.9 L  21.590 -99.330 10.0  RAL  1 0.0 0.5LRAL                1
 GAP=360        0.30       4.7     1.0  0.0 -0.4270E+01  0.3283E+00 -0.4848E+00E
 ACTION:UPD 12-06-08 11:37 OP:RALL STATUS:               ID:20090509194558     I
 2009-05-09-1945-48S.PLUR1_003                                                 6
 STAT SP IPHASW D HRMM SECON CODA AMPLIT PERI AZIMU VELO AIN AR TRES W  DIS CAZ7
 LA4  SZ E        1946  1.59                  349.7  8.3      0        12.0 170 
 LA4  SN IP       1946  1.60                             129    0.0010 12.0 170 
 LA4  SE IS       1946  3.57                             129    0.0010 12.0 170 
 LA4  SZ  AML     1946  3.63        12.4 0.34                          12.0 170 
                                                                                
 2009  5 9 2302  8.8 L  21.370 -99.212 10.0  RAL  1 0.0 0.4LRAL                1
 GAP=360        0.30       3.7     5.5  0.0  0.2005E+02  0.3283E+00 -0.4848E+00E
 ACTION:UPD 12-06-08 11:37 OP:RALL STATUS:               ID:20090509230208     I
 2009-05-09-2302-03S.PLUR1_003                                                 6
 STAT SP IPHASW D HRMM SECON CODA AMPLIT PERI AZIMU VELO AIN AR TRES W  DIS CAZ7
 LZ4  SZ E        23 2 11.04                   54.4 17.3      0        7.40 234 
 LZ4  SN IP       23 2 11.06                             144    0.0210 7.40 234 
 LZ4  SE IS       23 2 12.62                             144   -0.0210 7.40 234 
 LZ4  SZ  AML     23 2 12.91        11.8 0.38                          7.40 234 
                                                                                
 2009  510 1803 11.0 L  21.587 -99.323 10.0  RAL  1 0.0 0.1LRAL                1
 GAP=360        0.30       4.8     0.7  0.0 -0.3136E+01  0.3283E+00 -0.4848E+00E
 ACTION:UPD 12-06-08 11:37 OP:RALL STATUS:               ID:20090510180311     I
 2009-05-10-1803-01S.PLUR1_003                                                 6
 STAT SP IPHASW D HRMM SECON CODA AMPLIT PERI AZIMU VELO AIN AR TRES W  DIS CAZ7
 LA4  SZ E        18 3 13.65                  352.8  9.4      0        11.5 173 
 LA4  SN IP       18 3 13.68                             130    0.0010 11.5 173 
 LA4  SE IS       18 3 15.61                             130    0.0010 11.5 173 
 LA4  SZ  AML     18 3 16.21         4.9 0.10                          11.5 173 
                                                                                
 2009  511 0708 39.9 L  21.275 -99.230 10.0  RAL  1 0.0 0.5LRAL                1
 GAP=360        0.30       5.2     3.7  0.0 -0.1952E+02  0.3283E+00 -0.4848E+00E
 ACTION:UPD 12-06-08 11:37 OP:RALL STATUS:               ID:20090511070839     I
 2009-05-11-0708-34S.PLUR1_003                                                 6
 STAT SP IPHASW D HRMM SECON CODA AMPLIT PERI AZIMU VELO AIN AR TRES W  DIS CAZ7
 LZ4  SZ E         7 8 42.11                  146.4 13.0      0        7.39 326 
 LZ4  SN IP        7 8 42.15                             144    0.0210 7.39 326 
 LZ4  SE IS        7 8 43.71                             144   -0.0210 7.39 326 
 LZ4  SZ  AML      7 8 44.14        13.6 0.30                          7.39 326 
                                                                                
 2009  511 0948 47.9 L  21.498 -99.316 10.0  RAL  1 0.2-0.1LRAL                1
 GAP=360        0.69     767.2   999.9  0.0  0.1451E+07  0.3283E+00 -0.4848E+00E
 ACTION:UPD 12-06-08 11:37 OP:RALL STATUS:               ID:20090511094847     I
 2009-05-11-0948-36S.PLUR1_003                                                 6
 STAT SP IPHASW D HRMM SECON CODA AMPLIT PERI AZIMU VELO AIN AR TRES W  DIS CAZ7
 LA4  SN IP        948 50.15                             170    0.4210 1.78 155 
 LA4  SZ E         948 50.17                  334.9  8.8      0        1.78 155 
 LA4  SZ  AML      948 50.55         4.5 0.46                          1.78 155 
 LA4  SE IS        948 50.67                             170   -0.4210 1.78 155 
                                                                                
 2009  511 1456 24.6 L  21.248 -99.238 10.0  RAL  1 0.0 0.4LRAL                1
 GAP=360        0.30       5.0     1.9  0.0 -0.9297E+01  0.3283E+00 -0.4848E+00E
 ACTION:UPD 12-06-08 11:37 OP:RALL STATUS:               ID:20090511145624     I
 2009-05-11-1456-19S.PLUR1_003                                                 6
 STAT SP IPHASW D HRMM SECON CODA AMPLIT PERI AZIMU VELO AIN AR TRES W  DIS CAZ7
 LZ4  SN IP       1456 27.05                             135    0.0210 9.78 341 
 LZ4  SZ E        1456 27.08                  160.6 32.9      0        9.78 341 
 LZ4  SE IS       1456 28.80                             135   -0.0210 9.78 341 
 LZ4  SZ  AML     1456 28.96        11.5 0.18                          9.78 341 
                                                                                
 2009  511 1641 59.5 L  21.256 -99.223 10.0  RAL  1 0.1 0.8LRAL                1
 GAP=360        0.38       8.2    12.1  0.0 -0.9967E+02  0.3283E+00 -0.4848E+00E
 ACTION:UPD 12-06-08 11:37 OP:RALL STATUS:               ID:20090511164159     I
 2009-05-11-1641-53S.PLUR1_003                                                 6
 STAT SP IPHASW D HRMM SECON CODA AMPLIT PERI AZIMU VELO AIN AR TRES W  DIS CAZ7
 LG3  SN IP       1642  1.64                             160    0.1610 3.76 306 
 LG3  SZ E        1642  1.68                  125.9 20.0      0        3.76 306 
 LG3  SE IS       1642  2.74                             160   -0.1610 3.76 306 
 LG3  SZ  AML     1642  2.93        33.8 0.26                          3.76 306 
                                                                                
 2009  511 2350 50.4 L  21.314 -99.244 10.0  RAL  1 0.1 0.2LRAL                1
 GAP=360        0.47      11.5    17.5  0.0 -0.2018E+03  0.3283E+00 -0.4848E+00E
 ACTION:UPD 12-06-08 11:37 OP:RALL STATUS:               ID:20090511235050     I
 2009-05-11-2350-44S.PLUR1_003                                                 6
 STAT SP IPHASW D HRMM SECON CODA AMPLIT PERI AZIMU VELO AIN AR TRES W  DIS CAZ7
 LZ4  SZ E        2350 52.54                  125.3 27.1      0        3.19 305 
 LZ4  SN IP       2350 52.55                             163    0.2510 3.19 305 
 LZ4  SE IS       2350 53.44                             163   -0.2510 3.19 305 
 LZ4  SZ  AML     2350 53.56         8.5 0.18                          3.19 305 
                                                                                
 2009  512 0313 57.0 L  21.719 -99.350 10.0  RAL  1 0.0 0.7LRAL                1
 GAP=360        0.30       3.8     1.0  0.0 -0.2467E+01  0.3283E+00 -0.4848E+00E
 ACTION:UPD 12-06-08 11:37 OP:RALL STATUS:               ID:20090512031357     I
 2009-05-12-0313-50S.PLUR1_003                                                 6
 STAT SP IPHASW D HRMM SECON CODA AMPLIT PERI AZIMU VELO AIN AR TRES W  DIS CAZ7
 LA4  SN IP        314  1.76                             107    0.0110 26.4 171 
 LA4  SZ E         314  1.82                  350.8 13.1      0        26.4 171 
 LA4  SE IS        314  5.18                             107   -0.0110 26.4 171 
 LA4  SZ  AML      314  9.19        10.7 0.68                          26.4 171 
                                                                                
 2009  512 0511 41.5 L  20.894 -98.867 10.0  RAL  1 0.0 1.2LRAL                1
 GAP=360        0.30       3.0     2.9  0.0 -0.5864E+01  0.3283E+00 -0.4848E+00E
 ACTION:UPD 12-06-08 11:37 OP:RALL STATUS:               ID:20090512051141     I
 2009-05-12-0511-50S.PLUR1_003                                                 6
 STAT SP IPHASW D HRMM SECON CODA AMPLIT PERI AZIMU VELO AIN AR TRES W  DIS CAZ7
 LZ4  SZ E         511 51.74                  139.1 13.0      0        64.0 319 
 LZ4  SN IP        511 51.97                              95    0.0110 64.0 319 
 LZ4  SE IS        511 59.58                              95   -0.0110 64.0 319 
 LZ4  SZ  AML      512  1.19        14.7 0.32                          64.0 319 
                                                                                
 2009  512 0544 38.9 L  21.190 -99.304 10.0  RAL  1 0.0 0.8LRAL                1
 GAP=360        0.30       4.2     1.1  0.0  0.4163E+01  0.3283E+00 -0.4848E+00E
 ACTION:UPD 12-06-08 11:37 OP:RALL STATUS:               ID:20090512054438     I
 2009-05-12-0544-34S.PLUR1_003                                                 6
 STAT SP IPHASW D HRMM SECON CODA AMPLIT PERI AZIMU VELO AIN AR TRES W  DIS CAZ7
 LZ4  SN IP        544 42.10                             120    0.0010 16.0  13 
 LZ4  SZ E         544 42.12                  192.8 99.9      0        16.0  13 
 LZ4  SE IS        544 44.44                             120    0.0010 16.0  13 
 LZ4  SZ  AML      544 45.87        17.7 0.90                          16.0  13 
                                                                                
 2009  512 0750 11.6 L  21.275 -99.212 10.0  RAL  1 0.0 1.2LRAL                1
 GAP=360        0.30       4.1     4.2  0.0 -0.1725E+02  0.3283E+00 -0.4848E+00E
 ACTION:UPD 12-06-08 11:37 OP:RALL STATUS:               ID:20090512075011     I
 2009-05-12-0750-05S.PLUR1_003                                                 6
 STAT SP IPHASW D HRMM SECON CODA AMPLIT PERI AZIMU VELO AIN AR TRES W  DIS CAZ7
 LZ4  SZ E         750 13.97                  136.3 15.6      0        8.60 316 
 LZ4  SN IP        750 13.98                             139    0.0210 8.60 316 
 LZ4  SE IS        750 15.64                             139   -0.0210 8.60 316 
 LZ4  SZ  AML      750 16.65        64.8 0.22                          8.60 316 
                                                                                
 2009  512 0851 37.4 L  21.490 -99.322 10.0  RAL  1 0.2 1.1LRAL                1
 GAP=360        0.76      31.0    64.8  0.0 -0.2011E+04  0.3283E+00 -0.4848E+00E
 ACTION:UPD 12-06-08 11:37 OP:RALL STATUS:               ID:20090512085137     I
 2009-05-12-0851-25S.PLUR1_003                                                 6
 STAT SP IPHASW D HRMM SECON CODA AMPLIT PERI AZIMU VELO AIN AR TRES W  DIS CAZ7
 LA4  SZ E         851 39.72                  297.2 22.2      0        1.46 117 
 LA4  SN IP        851 39.72                             172    0.4710 1.46 117 
 LA4  SE IS        851 40.14                             172   -0.4710 1.46 117 
 LA4  SZ  AML      851 40.24        76.9 0.18                          1.46 117 
                                                                                
 2009  512 0908 50.9 L  21.493 -99.329 10.0  RAL  1 0.2 1.2LRAL                1
 GAP=360        0.77      19.5    42.8  0.0 -0.8327E+03  0.3283E+00 -0.4848E+00E
 ACTION:UPD 12-06-08 11:37 OP:RALL STATUS:               ID:20090512090850     I
 2009-05-12-0908-38S.PLUR1_003                                                 6
 STAT SP IPHASW D HRMM SECON CODA AMPLIT PERI AZIMU VELO AIN AR TRES W  DIS CAZ7
 LA4  SZ E         9 8 53.20                  296.0 20.5      0        2.30 116 
 LA4  SN IP        9 8 53.23                             168    0.4810 2.30 116 
 LA4  SE IS        9 8 53.65                             168   -0.4810 2.30 116 
 LA4  SZ  AML      9 8 53.72        79.8 0.20                          2.30 116 
                                                                                
 2009  512 0937 13.5 L  21.159 -99.190 10.0  RAL  1 0.0 0.5LRAL                1
 GAP=360        0.30       3.6     1.6  0.0 -0.4351E+01  0.3283E+00 -0.4848E+00E
 ACTION:UPD 12-06-08 11:37 OP:RALL STATUS:               ID:20090512093713     I
 2009-05-12-0937-10S.PLUR1_003                                                 6
 STAT SP IPHASW D HRMM SECON CODA AMPLIT PERI AZIMU VELO AIN AR TRES W  DIS CAZ7
 LA4  SZ E         937 19.90                  161.0 16.0      0        38.0 341 
 LA4  SN IP        937 20.03                             100    0.0110 38.0 341 
 LA4  SE IS        937 24.73                             100   -0.0110 38.0 341 
 LA4  SZ  AML      937 25.79         5.0 0.54                          38.0 341 
                                                                                
 2009  512 1145 49.3 L  21.349 -99.279 10.0  RAL  1 0.1 0.4LRAL                1
 GAP=360        0.67      35.0    18.3  0.0 -0.6390E+03  0.3283E+00 -0.4848E+00E
 ACTION:UPD 12-06-08 11:37 OP:RALL STATUS:               ID:20090512114549     I
 2009-05-12-1145-42S.PLUR1_003                                                 6
 STAT SP IPHASW D HRMM SECON CODA AMPLIT PERI AZIMU VELO AIN AR TRES W  DIS CAZ7
 LZ4  SZ E        1145 51.50                  332.9 33.2      0        2.26 154 
 LZ4  SN IP       1145 51.51                             168    0.3710 2.26 154 
 LZ4  SE IS       1145 52.13                             168   -0.3710 2.26 154 
 LZ4  SZ  AML     1145 52.20        14.4 0.16                          2.26 154 
                                                                                
 2009  512 2329 59.1 L  21.601 -99.320 10.0  RAL  1 0.0 0.5LRAL                1
 GAP=360        0.30       4.6     0.5  0.0 -0.1878E+01  0.3283E+00 -0.4848E+00E
 ACTION:UPD 12-06-08 11:37 OP:RALL STATUS:               ID:20090512232959     I
 2009-05-12-2329-49S.PLUR1_003                                                 6
 STAT SP IPHASW D HRMM SECON CODA AMPLIT PERI AZIMU VELO AIN AR TRES W  DIS CAZ7
 LA4  SZ E        2330  1.94                  355.2 12.3      0        13.0 175 
 LA4  SN IP       2330  1.95                             126    0.0010 13.0 175 
 LA4  SZ  AML     2330  3.98        10.5 0.16                          13.0 175 
 LA4  SE IS       2330  4.02                             126    0.0010 13.0 175 
                                                                                
 2009  513 0006 54.8 L  21.706 -99.231 10.0  RAL  1 0.0 0.9LRAL                1
 GAP=360        0.30       3.7     1.2  0.0  0.1301E+01  0.3283E+00 -0.4848E+00E
 ACTION:UPD 12-06-08 11:37 OP:RALL STATUS:               ID:20090513000654     I
 2009-05-13-0006-52S.PLUR1_003                                                 6
 STAT SP IPHASW D HRMM SECON CODA AMPLIT PERI AZIMU VELO AIN AR TRES W  DIS CAZ7
 LZ4  SZ E         0 7  1.80                    5.4 10.8      0        41.8 185 
 LZ4  SN IP        0 7  1.80                              99    0.0110 41.8 185 
 LZ4  SE IS        0 7  6.92                              99   -0.0110 41.8 185 
 LZ4  SZ  AML      0 7  7.02        11.6 0.10                          41.8 185 
                                                                                
 2009  513 0155 23.0 L  21.699 -99.534 10.0  RAL  1 0.0 0.6LRAL                1
 GAP=360        0.30       2.8     2.9  0.0 -0.7396E+01  0.3283E+00 -0.4848E+00E
 ACTION:UPD 12-06-08 11:37 OP:RALL STATUS:               ID:20090513015523     I
 2009-05-13-0155-18S.PLUR1_003                                                 6
 STAT SP IPHASW D HRMM SECON CODA AMPLIT PERI AZIMU VELO AIN AR TRES W  DIS CAZ7
 LA4  SZ E         155 28.50                  315.7 13.7      0        33.3 136 
 LA4  SN IP        155 28.73                             102    0.0210 33.3 136 
 LA4  SE IS        155 32.88                             102   -0.0210 33.3 136 
 LA4  SZ  AML      155 33.81         6.7 0.56                          33.3 136 
                                                                                
 2009  513 0635 15.1 L  21.288 -99.278 10.0  RAL  1 0.0 0.0LRAL                1
 GAP=360        0.30       8.6     1.7  0.0  0.1488E+02  0.3283E+00 -0.4848E+00E
 ACTION:UPD 12-06-08 11:37 OP:RALL STATUS:               ID:20090513063515     I
 2009-05-13-0635-09S.PLUR1_003                                                 6
 STAT SP IPHASW D HRMM SECON CODA AMPLIT PERI AZIMU VELO AIN AR TRES W  DIS CAZ7
 LZ4  SZ E         635 17.02                  190.6 17.5      0        4.78  11 
 LZ4  SN IP        635 17.10                             155    0.0210 4.78  11 
 LZ4  SE IS        635 18.52                             155   -0.0210 4.78  11 
 LZ4  SZ  AML      635 22.00         5.7 0.48                          4.78  11 
                                                                                
 2009  513 0824 15.7 L  21.265 -99.230 10.0  RAL  1 0.1 0.5LRAL                1
 GAP=360        0.50      12.0    24.5  0.0 -0.2929E+03  0.3283E+00 -0.4848E+00E
 ACTION:UPD 12-06-08 11:37 OP:RALL STATUS:               ID:20090513082415     I
 2009-05-13-0824-08S.PLUR1_003                                                 6
 STAT SP IPHASW D HRMM SECON CODA AMPLIT PERI AZIMU VELO AIN AR TRES W  DIS CAZ7
 LG3  SZ E         824 17.82                  117.6 19.6      0        2.60 298 
 LG3  SN IP        824 17.83                             166    0.2710 2.60 298 
 LG3  SE IS        824 18.67                             166   -0.2710 2.60 298 
 LG3  SZ  AML      824 18.88        15.5 0.24                          2.60 298 
                                                                                
 2009  513 0939 31.1 L  21.311 -99.254 10.0  RAL  1 0.2 0.5LRAL                1
 GAP=360        0.81      31.6    24.7  0.0 -0.7810E+03  0.3283E+00 -0.4848E+00E
 ACTION:UPD 12-06-08 11:37 OP:RALL STATUS:               ID:20090513093931     I
 2009-05-13-0939-24S.PLUR1_003                                                 6
 STAT SP IPHASW D HRMM SECON CODA AMPLIT PERI AZIMU VELO AIN AR TRES W  DIS CAZ7
 LZ4  SN IP        939 33.54                             165    0.5110 2.75 324 
 LZ4  SZ E         939 33.55                  143.9 20.6      0        2.75 324 
 LZ4  SZ  AML      939 33.86        16.4 0.28                          2.75 324 
 LZ4  SE IS        939 33.90                             165   -0.5110 2.75 324 
                                                                                
 2009  513 1102 14.2 L  21.341 -99.421 10.0  RAL  1 0.0 0.6LRAL                1
 GAP=360        0.30       0.5     4.6  0.0 -0.1359E+01  0.3283E+00 -0.4848E+00E
 ACTION:UPD 12-06-08 11:37 OP:RALL STATUS:               ID:20090513110214     I
 2009-05-13-1102-10S.PLUR1_003                                                 6
 STAT SP IPHASW D HRMM SECON CODA AMPLIT PERI AZIMU VELO AIN AR TRES W  DIS CAZ7
 LZ4  SZ E        11 2 17.39                  274.0 26.6      0        15.8  94 
 LZ4  SN IP       11 2 17.40                             120    0.0210 15.8  94 
 LZ4  SE IS       11 2 19.68                             120   -0.0210 15.8  94 
 LZ4  SZ  AML     11 2 20.30        13.5 0.44                          15.8  94 
                                                                                
 2009  513 1757  6.5 L  21.796 -99.305 10.0  RAL  1 0.0 1.1LRAL                1
 GAP=360        0.30       3.8     1.0  0.0  0.1525E+00  0.3283E+00 -0.4848E+00E
 ACTION:UPD 12-06-08 11:37 OP:RALL STATUS:               ID:20090513175706     I
 2009-05-13-1757-01S.PLUR1_003                                                 6
 STAT SP IPHASW D HRMM SECON CODA AMPLIT PERI AZIMU VELO AIN AR TRES W  DIS CAZ7
 LA4  SN IP       1757 12.50                             102    0.0110 34.6 181 
 LA4  SZ E        1757 12.52                    0.6 11.4      0        34.6 181 
 LA4  SE IS       1757 16.83                             102   -0.0110 34.6 181 
 LA4  SZ  AML     1757 20.01        21.8 0.64                          34.6 181 
                                                                                
