 2009  211 0141 45.9 L  21.309 -99.251 10.0  RAL  1 0.1 0.6LRAL                1
 GAP=360        0.60      19.9    16.9  0.0 -0.3363E+03  0.8117E+02 -0.2838E+03E
 ACTION:UPD 12-06-08 11:37 OP:RALL STATUS:               ID:20090211014145     I
 2009-02-11-0141-39S.PLUR1_003                                                 6
 STAT SP IPHASW D HRMM SECON CODA AMPLIT PERI AZIMU VELO AIN AR TRES W  DIS CAZ7
 LZ4  SN IP        141 48.15                             163    0.3510 3.16 322 
 LZ4  SZ E         141 48.19                  141.5  7.2      0        3.16 322 
 LZ4  SE IS        141 48.84                             163   -0.3510 3.16 322 
 LZ4  SZ  AML      141 49.54        23.1 0.44                          3.16 322 
                                                                                
 2009  211 0503 22.5 L  21.244 -99.278 10.0  RAL  1 0.0 0.2LRAL                1
 GAP=360        0.30       5.3     0.6  0.0  0.2694E+01  0.8117E+02 -0.2838E+03E
 ACTION:UPD 12-06-08 11:37 OP:RALL STATUS:               ID:20090211050322     I
 2009-02-11-0503-17S.PLUR1_003                                                 6
 STAT SP IPHASW D HRMM SECON CODA AMPLIT PERI AZIMU VELO AIN AR TRES W  DIS CAZ7
 LZ4  SZ IP        5 3 24.89                             136    0.0010 9.67   5 
 LZ4  SN E         5 3 25.03                  185.2 48.0      0        9.67   5 
 LZ4  SE IS        5 3 26.66                             136    0.0010 9.67   5 
 LZ4  SN  AML      5 3 26.94         7.3 0.12                          9.67   5 
                                                                                
 2009  211 0619 39.0 L  21.626 -99.386 10.0  RAL  1 0.0 0.3LRAL                1
 GAP=360        0.30       3.7     2.1  0.0 -0.7367E+01  0.8117E+02 -0.2838E+03E
 ACTION:UPD 12-06-08 11:37 OP:RALL STATUS:               ID:20090211061939     I
 2009-02-11-0619-32S.PLUR1_003                                                 6
 STAT SP IPHASW D HRMM SECON CODA AMPLIT PERI AZIMU VELO AIN AR TRES W  DIS CAZ7
 LA4  SN IP        619 42.41                             117    0.0010 17.7 153 
 LA4  SZ E         619 42.46                  333.2 12.5      0        17.7 153 
 LA4  SE IS        619 44.92                             117    0.0010 17.7 153 
 LA4  SZ  AML      619 46.98         6.1 0.26                          17.7 153 
                                                                                
 2009  211 2350 40.1 L  21.767 -99.470 10.0  RAL  1 0.0 0.8LRAL                1
 GAP=360        0.30       3.4     2.1  0.0 -0.6002E+01  0.8117E+02 -0.2838E+03E
 ACTION:UPD 12-06-08 11:37 OP:RALL STATUS:               ID:20090211235040     I
 2009-02-11-2350-35S.PLUR1_003                                                 6
 STAT SP IPHASW D HRMM SECON CODA AMPLIT PERI AZIMU VELO AIN AR TRES W  DIS CAZ7
 LA4  SN IP       2350 46.25                             101    0.0210 35.5 152 
 LA4  SZ E        2350 46.27                  332.1 10.3      0        35.5 152 
 LA4  SE IS       2350 50.66                             101   -0.0210 35.5 152 
 LA4  SZ  AML     2350 51.73        10.3 0.66                          35.5 152 
                                                                                
 2009  212 1034 30.8 L  21.989 -99.713 10.0  RAL  1 0.0 1.7LRAL                1
 GAP=360        0.30       3.4     2.9  0.0 -0.4270E+01  0.8117E+02 -0.2838E+03E
 ACTION:UPD 12-06-08 11:37 OP:RALL STATUS:               ID:20090212103430     I
 2009-02-12-1034-37S.PLUR1_003                                                 6
 STAT SP IPHASW D HRMM SECON CODA AMPLIT PERI AZIMU VELO AIN AR TRES W  DIS CAZ7
 LZ4  SN IP       1034 44.69                              94    0.0110 86.1 148 
 LZ4  SZ E        1034 44.83                  327.9 29.2      0        86.1 148 
 LZ4  SE IS       1034 54.81                              94   -0.0110 86.1 148 
 LZ4  SZ  AML     1034 59.04        38.0 0.30                          86.1 148 
                                                                                
 2009  212 1137 27.6 L  22.045 -99.739 10.0  RAL  1 0.0 2.4LRAL                1
 GAP=360        0.30       3.4     3.0  0.0 -0.3842E+01  0.8117E+02 -0.2838E+03E
 ACTION:UPD 12-06-08 11:37 OP:RALL STATUS:               ID:20090212113727     I
 2009-02-12-1137-33S.PLUR1_003                                                 6
 STAT SP IPHASW D HRMM SECON CODA AMPLIT PERI AZIMU VELO AIN AR TRES W  DIS CAZ7
 LZ4  SZ E        1137 42.44                  328.5  8.9      0        92.8 148 
 LZ4  SN IP       1137 42.53                              94    0.0110 92.8 148 
 LZ4  SE IS       1137 53.40                              94   -0.0110 92.8 148 
 LZ4  SZ  AML     1137 55.46       140.8 0.50                          92.8 148 
                                                                                
 2009  212 1210 40.9 L  21.172 -99.299 10.0  RAL  1 0.1-0.4LRAL                1
 GAP=360        0.63      17.7    26.9  0.0 -0.4763E+03  0.8117E+02 -0.2838E+03E
 ACTION:UPD 12-06-08 11:37 OP:RALL STATUS:               ID:20090212121040     I
 2009-02-12-1210-29S.PLUR1_003                                                 6
 STAT SP IPHASW D HRMM SECON CODA AMPLIT PERI AZIMU VELO AIN AR TRES W  DIS CAZ7
 LD5  SN IP       1210 43.19                             165    0.3810 2.74 305 
 LD5  SZ E        1210 43.27                  125.1 22.6      0        2.74 305 
 LD5  SE IS       1210 43.81                             165   -0.3810 2.74 305 
 LD5  SZ  AML     1210 43.97         2.1 0.38                          2.74 305 
                                                                                
 2009  213 0326 53.2 L  21.261 -99.252 10.0  RAL  1 0.0 0.7LRAL                1
 GAP=360        0.30       5.8     1.5  0.0 -0.8666E+01  0.8117E+02 -0.2838E+03E
 ACTION:UPD 12-06-08 11:37 OP:RALL STATUS:               ID:20090213032653     I
 2009-02-13-0326-34S.PLUR1_003                                                 6
 STAT SP IPHASW D HRMM SECON CODA AMPLIT PERI AZIMU VELO AIN AR TRES W  DIS CAZ7
 LZ4  SZ E         326 55.49                  166.6 24.1      0        7.90 347 
 LZ4  SN IP        326 55.51                             142    0.0210 7.90 347 
 LZ4  SE IS        326 57.12                             142   -0.0210 7.90 347 
 LZ4  SZ  AML      326 57.99        24.7 0.10                          7.90 347 
                                                                                
 2009  213 0356 22.6 L  21.307 -99.288 10.0  RAL  1 0.1-0.1LRAL                1
 GAP=360        0.46      15.2    12.3  0.0  0.1869E+03  0.8117E+02 -0.2838E+03E
 ACTION:UPD 12-06-08 11:37 OP:RALL STATUS:               ID:20090213035622     I
 2009-02-13-0356-16S.PLUR1_003                                                 6
 STAT SP IPHASW D HRMM SECON CODA AMPLIT PERI AZIMU VELO AIN AR TRES W  DIS CAZ7
 LZ4  SZ IP        356 24.71                             163    0.2410 3.24  37 
 LZ4  SN E         356 24.78                  217.0 54.5      0        3.24  37 
 LZ4  SE IS        356 25.63                             163   -0.2410 3.24  37 
 LZ4  SN  AML      356 25.72         4.4 0.18                          3.24  37 
                                                                                
 2009  213 0431 54.9 L  21.349 -99.260 10.0  RAL  1 0.1 0.6LRAL                1
 GAP=360        0.61     568.3   999.9  0.0 -0.7229E+06  0.8117E+02 -0.2838E+03E
 ACTION:UPD 12-06-08 11:37 OP:RALL STATUS:               ID:20090213043154     I
 2009-02-13-0431-48S.PLUR1_003                                                 6
 STAT SP IPHASW D HRMM SECON CODA AMPLIT PERI AZIMU VELO AIN AR TRES W  DIS CAZ7
 LZ4  SZ E         431 57.14                   27.1 17.8      0        2.26 207 
 LZ4  SN IP        431 57.17                             168    0.3610 2.26 207 
 LZ4  SE IS        431 57.81                             168   -0.3610 2.26 207 
 LZ4  SZ  AML      431 58.19        20.6 0.18                          2.26 207 
                                                                                
 2009  213 0945 42.2 L  21.200 -99.219 10.0  RAL  1 0.0 0.8LRAL                1
 GAP=360        0.30       4.1     1.6  0.0 -0.6260E+01  0.8117E+02 -0.2838E+03E
 ACTION:UPD 12-06-08 11:37 OP:RALL STATUS:               ID:20090213094542     I
 2009-02-13-0945-38S.PLUR1_003                                                 6
 STAT SP IPHASW D HRMM SECON CODA AMPLIT PERI AZIMU VELO AIN AR TRES W  DIS CAZ7
 LZ4  SN IP        945 45.32                             121    0.0010 15.4 340 
 LZ4  SZ E         945 45.37                  160.3 16.4      0        15.4 340 
 LZ4  SE IS        945 47.60                             121    0.0010 15.4 340 
 LZ4  SZ  AML      945 48.71        18.0 0.10                          15.4 340 
                                                                                
 2009  213 1004 55.0 L  21.276 -99.020 10.0  RAL  1 0.0 0.7LRAL                1
 GAP=360        0.30       1.1     4.0  0.0 -0.3447E+01  0.8117E+02 -0.2838E+03E
 ACTION:UPD 12-06-08 11:37 OP:RALL STATUS:               ID:20090213100455     I
 2009-02-13-1004-54S.PLUR1_003                                                 6
 STAT SP IPHASW D HRMM SECON CODA AMPLIT PERI AZIMU VELO AIN AR TRES W  DIS CAZ7
 LZ4  SN IP       10 4 59.79                             107    0.0110 26.6 283 
 LZ4  SZ E        10 4 59.96                  103.1 21.3      0        26.6 283 
 LZ4  SE IS       10 5  3.22                             107   -0.0110 26.6 283 
 LZ4  SZ  AML     10 5  4.30        10.9 0.66                          26.6 283 
                                                                                
 2009  213 2229  7.7 L  21.337 -99.264 10.0  RAL  2 0.6 0.7LRAL                1
 GAP=236       10.85      69.0    26.5 98.7 -0.1333E+04  0.1305E+04 -0.4477E+04E
 ACTION:UPD 12-06-08 11:37 OP:RALL STATUS:               ID:20090213222907     I
 2009-02-13-2228-59S.PLUR1_006                                                 6
 STAT SP IPHASW D HRMM SECON CODA AMPLIT PERI AZIMU VELO AIN AR TRES W  DIS CAZ7
 LZ4  SN IP       2229  9.44                             177   -0.0810 0.94 220 
 LZ4  SZ E        2229  9.46                  347.8 12.4     52        0.94 220 
 LZ4  SE IS       2229 10.04                             177   -0.8210 0.94 220 
 LZ4  SZ  AML     2229 10.35        80.7 0.18                          0.94 220 
 LA4  SZ E        2229 11.39                  156.8  6.5     -6        16.9 344 
 LA4  SN IP       2229 11.39                             117    0.3710 16.9 344 
 LA4  SE IS       2229 14.00                             117    0.5410 16.9 344 
 LA4  SZ  AML     2229 14.36         5.9 0.18                          16.9 344 
                                                                                
 2009  214 0830 47.4 L  21.354 -99.283 10.0  RAL  1 0.1 0.5LRAL                1
 GAP=360        0.43      17.1    10.4  0.0 -0.1766E+03  0.1305E+04 -0.4477E+04E
 ACTION:UPD 12-06-08 11:37 OP:RALL STATUS:               ID:20090214083047     I
 2009-02-14-0830-41S.PLUR1_003                                                 6
 STAT SP IPHASW D HRMM SECON CODA AMPLIT PERI AZIMU VELO AIN AR TRES W  DIS CAZ7
 LZ4  SZ E         830 49.51                  330.5 13.5      0        2.94 150 
 LZ4  SN IP        830 49.53                             164    0.2110 2.94 150 
 LZ4  SE IS        830 50.49                             164   -0.2110 2.94 150 
 LZ4  SZ  AML      830 51.25        18.3 0.24                          2.94 150 
                                                                                
 2009  214 2134 58.4 L  21.588 -99.313 10.0  RAL  1 0.0 0.1LRAL                1
 GAP=360        0.30       4.8     0.4  0.0 -0.1004E+01  0.1305E+04 -0.4477E+04E
 ACTION:UPD 12-06-08 11:37 OP:RALL STATUS:               ID:20090214213458     I
 2009-02-14-2134-48S.PLUR1_003                                                 6
 STAT SP IPHASW D HRMM SECON CODA AMPLIT PERI AZIMU VELO AIN AR TRES W  DIS CAZ7
 LA4  SZ E        2135  0.92                  357.7  8.7      0        11.6 178 
 LA4  SN IP       2135  1.03                             130    0.0010 11.6 178 
 LA4  SE IS       2135  2.97                             130    0.0010 11.6 178 
 LA4  SZ  AML     2135  2.98         5.2 0.10                          11.6 178 
                                                                                
 2009  215 0138 51.7 L  21.312 -99.284 10.0  RAL  1 0.2 1.1LRAL                1
 GAP=360        0.67      27.5    21.5  0.0  0.5907E+03  0.1305E+04 -0.4477E+04E
 ACTION:UPD 12-06-08 11:37 OP:RALL STATUS:               ID:20090215013851     I
 2009-02-15-0138-45S.PLUR1_003                                                 6
 STAT SP IPHASW D HRMM SECON CODA AMPLIT PERI AZIMU VELO AIN AR TRES W  DIS CAZ7
 LZ4  SN IP        138 53.94                             166    0.4110 2.62  36 
 LZ4  SZ E         138 53.97                  216.1 27.8      0        2.62  36 
 LZ4  SE IS        138 54.50                             166   -0.4110 2.62  36 
 LZ4  SZ  AML      138 54.60        71.3 0.16                          2.62  36 
                                                                                
 2009  215 0249 51.5 Ll 21.328 -99.276  4.9  RAL  2 0.3 2.3LRAL                1
 GAP=281        4.37       1.4     7.2 12.2  0.3667E+01  0.7295E+01 -0.4340E+00E
 ACTION:UPD 12-06-08 11:37 OP:RALL STATUS:               ID:20090215024951     I
 2009-02-15-0249-40S.PLUR1_006                                                 6
 STAT SP IPHASW D HRMM SECON CODA AMPLIT PERI AZIMU VELO AIN AR TRES W  DIS CAZ7
 LZ4  SZ E         249 52.15                  266.1 12.1     18        0.69  68 
 LZ4  SN IP        249 52.18                             173   -0.3510 0.69  68 
 LZ4  SE IS        249 53.28                             173   -0.0110 0.69  68 
 LZ4  SZ  AML      249 53.33      3662.9 0.24                          0.69  68 
 LA4  SN IP        249 54.36                              63   -0.3510 17.5 349 
 LA4  SZ E         249 54.39                  158.9  8.6     -9        17.5 349 
 LA4  SE IS        249 57.77                              63    0.7110 17.5 349 
 LA4  SZ  AML      250  1.23       359.4 0.58                          17.5 349 
                                                                                
 2009  215 0411 55.0 L  21.349 -99.298 10.0  RAL  1 0.1 0.4LRAL                1
 GAP=360        0.37       7.9    12.4  0.0 -0.9841E+02  0.7295E+01 -0.4340E+00E
 ACTION:UPD 12-06-08 11:37 OP:RALL STATUS:               ID:20090215041155     I
 2009-02-15-0411-49S.PLUR1_003                                                 6
 STAT SP IPHASW D HRMM SECON CODA AMPLIT PERI AZIMU VELO AIN AR TRES W  DIS CAZ7
 LZ4  SN IP        411 57.03                             161    0.1510 3.60 124 
 LZ4  SZ E         411 57.06                  304.3 99.9      0        3.60 124 
 LZ4  SE IS        411 58.13                             161   -0.1510 3.60 124 
 LZ4  SZ  AML      411 58.22        14.5 0.22                          3.60 124 
                                                                                
 2009  215 0818 57.1 L  21.331 -99.261 10.0  RAL  1 0.2 0.3LRAL                1
 GAP=360        1.86     999.9   155.4  0.0  0.3227E+06  0.7295E+01 -0.4340E+00E
 ACTION:UPD 12-06-08 11:37 OP:RALL STATUS:               ID:20090215081857     I
 2009-02-15-0818-50S.PLUR1_003                                                 6
 STAT SP IPHASW D HRMM SECON CODA AMPLIT PERI AZIMU VELO AIN AR TRES W  DIS CAZ7
 LZ4  SZ E         818 59.13                   78.2 15.6     -7        0.90 267 
 LZ4  SN IP        818 59.27                             175    0.3410 0.90 267 
 LZ4  SE IS        818 59.94                             175   -0.3410 0.90 267 
 LZ4  SZ  AML      819  1.06        11.4 0.24                          0.90 267 
                                                                                
 2009  215 0826 36.4 L  21.606 -99.325 10.0  RAL  1 0.0 0.3LRAL                1
 GAP=360        0.30       4.5     0.7  0.0 -0.2547E+01  0.7295E+01 -0.4340E+00E
 ACTION:UPD 12-06-08 11:37 OP:RALL STATUS:               ID:20090215082636     I
 2009-02-15-0826-27S.PLUR1_003                                                 6
 STAT SP IPHASW D HRMM SECON CODA AMPLIT PERI AZIMU VELO AIN AR TRES W  DIS CAZ7
 LA4  SN IP        826 39.34                             125    0.0010 13.7 173 
 LA4  SZ E         826 39.36                  353.2  7.6      0        13.7 173 
 LA4  SE IS        826 41.47                             125    0.0010 13.7 173 
 LA4  SZ  AML      826 41.61         7.4 0.12                          13.7 173 
                                                                                
 2009  215 1215 21.5 L  21.313 -99.301 10.0  RAL  1 0.1 0.3LRAL                1
 GAP=360        0.35       6.7    11.7  0.0  0.7789E+02  0.7295E+01 -0.4340E+00E
 ACTION:UPD 12-06-08 11:37 OP:RALL STATUS:               ID:20090215121521     I
 2009-02-15-1215-15S.PLUR1_003                                                 6
 STAT SP IPHASW D HRMM SECON CODA AMPLIT PERI AZIMU VELO AIN AR TRES W  DIS CAZ7
 LZ4  SZ E        1215 23.54                  238.6 10.0      0        3.78  59 
 LZ4  SN IP       1215 23.55                             160    0.1310 3.78  59 
 LZ4  SE IS       1215 24.70                             160   -0.1310 3.78  59 
 LZ4  SZ  AML     1215 25.18        10.2 0.18                          3.78  59 
                                                                                
 2009  215 1232 37.3 L  21.332 -99.271 10.0  RAL  1 0.9 0.7LRAL                1
 GAP=360       11.40     999.9   999.9  0.0  0.3518E+08  0.7295E+01 -0.4340E+00E
 ACTION:UPD 12-06-08 11:37 OP:RALL STATUS:               ID:20090215123237     I
 2009-02-15-1232-29S.PLUR1_003                                                 6
 STAT SP IPHASW D HRMM SECON CODA AMPLIT PERI AZIMU VELO AIN AR TRES W  DIS CAZ7
 LZ4  SZ E        1232 39.30                  268.6 10.1    -53        0.20 143 
 LZ4  SN IP       1232 39.35                             179    0.1910 0.20 143 
 LZ4  SE IS       1232 40.30                             179   -0.1910 0.20 143 
 LZ4  SZ  AML     1232 41.04        26.1 0.16                          0.20 143 
                                                                                
 2009  215 1826  1.3 L  21.361 -99.387 10.0  RAL  1 0.0 0.5LRAL                1
 GAP=360        0.30       1.3     4.8  0.0 -0.5888E+01  0.7295E+01 -0.4340E+00E
 ACTION:UPD 12-06-08 11:37 OP:RALL STATUS:               ID:20090215182601     I
 2009-02-15-1825-56S.PLUR1_003                                                 6
 STAT SP IPHASW D HRMM SECON CODA AMPLIT PERI AZIMU VELO AIN AR TRES W  DIS CAZ7
 LZ4  SZ E        1826  4.08                  285.5 19.9      0        12.6 105 
 LZ4  SN IP       1826  4.12                             127    0.0010 12.6 105 
 LZ4  SE IS       1826  6.14                             127    0.0010 12.6 105 
 LZ4  SZ  AML     1826  6.61        11.1 0.16                          12.6 105 
                                                                                
