 2009  419 2326 58.2 L  21.316 -99.279 10.0  RAL  1 0.2 0.9LRAL                1
 GAP=360        1.34     999.9   999.9  0.0 -0.4208E+07  0.8384E+03  0.2952E+03E
 ACTION:UPD 12-06-08 11:37 OP:RALL STATUS:               ID:20090419232658     I
 2009-04-19-2326-51S.PLUR1_003                                                 6
 STAT SP IPHASW D HRMM SECON CODA AMPLIT PERI AZIMU VELO AIN AR TRES W  DIS CAZ7
 LZ4  SN IP       2327  0.61                             169    0.5910 1.92  30 
 LZ4  SZ E        2327  0.63                  215.1 11.8      5        1.92  30 
 LZ4  SE IS       2327  0.79                             169   -0.5910 1.92  30 
 LZ4  SZ  AML     2327  1.14        42.5 0.16                          1.92  30 
                                                                                
 2009  419 2355 33.8 L                       RAL  0                            1
 ACTION:UPD 12-06-08 11:37 OP:RALL STATUS:               ID:20090419235533     I
 2009-04-19-2355-33S.PLUR1_003                                                 6
 STAT SP IPHASW D HRMM SECON CODA AMPLIT PERI AZIMU VELO AIN AR TRES W  DIS CAZ7
                                                                                
 2009  420 0153  8.8 L  21.340 -99.290 10.0  RAL  1 0.2 0.4LRAL                1
 GAP=360        0.88      22.1    48.5  0.0 -0.1070E+04  0.8384E+03  0.2952E+03E
 ACTION:UPD 12-06-08 11:37 OP:RALL STATUS:               ID:20090420015308     I
 2009-04-20-0153-01S.PLUR1_003                                                 6
 STAT SP IPHASW D HRMM SECON CODA AMPLIT PERI AZIMU VELO AIN AR TRES W  DIS CAZ7
 LZ4  SN IP        153 11.27                             167    0.5610 2.32 116 
 LZ4  SZ E         153 11.27                  296.0 19.7      0        2.32 116 
 LZ4  SE IS        153 11.51                             167   -0.5610 2.32 116 
 LZ4  SZ  AML      153 11.62        14.4 0.18                          2.32 116 
                                                                                
 2009  420 1032 42.7 L  21.539 -99.308 10.0  RAL  1 0.0 1.5LRAL                1
 GAP=360        0.30       3.9     1.0  0.0 -0.2750E+01  0.8384E+03  0.2952E+03E
 ACTION:UPD 12-06-08 11:37 OP:RALL STATUS:               ID:20090420103242     I
 2009-04-20-1032-37S.PLUR1_003                                                 6
 STAT SP IPHASW D HRMM SECON CODA AMPLIT PERI AZIMU VELO AIN AR TRES W  DIS CAZ7
 LZ4  SN IP       1032 47.00                             109    0.0110 23.4 170 
 LZ4  SZ E        1032 47.01                  350.1 13.8      0        23.4 170 
 LZ4  SE IS       1032 50.08                             109   -0.0110 23.4 170 
 LZ4  SZ  AML     1032 50.68        76.0 0.26                          23.4 170 
                                                                                
 2009  420 1134  7.3 L  21.216 -99.685 10.0  RAL  2 1.5 2.0LRAL                1
 GAP=331       15.53      79.4   181.7999.9  0.1147E+05  0.1369E+07  0.4956E+06E
 ACTION:UPD 12-06-08 11:37 OP:RALL STATUS:               ID:20090420113407     I
 2009-04-20-1134-00S.PLUR1_006                                                 6
 STAT SP IPHASW D HRMM SECON CODA AMPLIT PERI AZIMU VELO AIN AR TRES W  DIS CAZ7
 LG3  SZ E        1134 18.30                  196.9 13.0    -64        45.3  82 
 LG3  SN IP       1134 18.58                              91    3.7010 45.3  82 
 LG3  SE IS       1134 22.00                              91    1.5810 45.3  82 
 LG3  SZ  AML     1134 23.20        29.4 0.40                          45.3  82 
 LA4  SZ E        1134 15.26                  255.7 21.9     23        48.9  53 
 LA4  SN IP       1134 15.28                              91   -0.1510 48.9  53 
 LA4  SE IS       1134 16.25                              91   -5.1310 48.9  53 
 LA4  SZ  AML     1134 17.05       438.3 0.54                          48.9  53 
                                                                                
 2009  420 1702 19.1 L  21.500 -99.321 10.0  RAL  1 0.2 0.5LRAL                1
 GAP=360        0.76     790.4   999.9  0.0  0.9975E+06  0.1369E+07  0.4956E+06E
 ACTION:UPD 12-06-08 11:37 OP:RALL STATUS:               ID:20090420170219     I
 2009-04-20-1702-07S.PLUR1_003                                                 6
 STAT SP IPHASW D HRMM SECON CODA AMPLIT PERI AZIMU VELO AIN AR TRES W  DIS CAZ7
 LA4  SZ E        17 2 21.44                  324.2 10.1      0        2.20 144 
 LA4  SN IP       17 2 21.44                             168    0.4710 2.20 144 
 LA4  SE IS       17 2 21.87                             168   -0.4710 2.20 144 
 LA4  SZ  AML     17 2 21.95        16.8 0.18                          2.20 144 
                                                                                
 2009  420 1711  5.1 L  21.313 -99.298 10.0  RAL  1 0.1 0.6LRAL                1
 GAP=360        0.38       8.0    13.0  0.0  0.1039E+03  0.1369E+07  0.4956E+06E
 ACTION:UPD 12-06-08 11:37 OP:RALL STATUS:               ID:20090420171105     I
 2009-04-20-1710-58S.PLUR1_003                                                 6
 STAT SP IPHASW D HRMM SECON CODA AMPLIT PERI AZIMU VELO AIN AR TRES W  DIS CAZ7
 LZ4  SZ E        1711  7.13                  236.7 34.8      0        3.50  57 
 LZ4  SN IP       1711  7.15                             161    0.1610 3.50  57 
 LZ4  SE IS       1711  8.24                             161   -0.1610 3.50  57 
 LZ4  SZ  AML     1711  8.52        21.6 0.20                          3.50  57 
                                                                                
 2009  420 1729 41.9 L  21.501 -99.322 10.0  RAL  1 0.2 0.9LRAL                1
 GAP=360        0.77      36.1    27.7  0.0 -0.1001E+04  0.1369E+07  0.4956E+06E
 ACTION:UPD 12-06-08 11:37 OP:RALL STATUS:               ID:20090420172941     I
 2009-04-20-1729-29S.PLUR1_003                                                 6
 STAT SP IPHASW D HRMM SECON CODA AMPLIT PERI AZIMU VELO AIN AR TRES W  DIS CAZ7
 LA4  SZ E        1729 44.30                  324.4 10.0      0        2.32 144 
 LA4  SN IP       1729 44.31                             167    0.4810 2.32 144 
 LA4  SE IS       1729 44.72                             167   -0.4810 2.32 144 
 LA4  SZ  AML     1729 44.82        42.3 0.40                          2.32 144 
                                                                                
 2009  420 2127 37.1 L  21.334 -99.274 10.0  RAL  1 0.3 0.5LRAL                1
 GAP=360        4.12     915.8   999.9  0.0  0.1690E+07  0.1369E+07  0.4956E+06E
 ACTION:UPD 12-06-08 11:37 OP:RALL STATUS:               ID:20090420212737     I
 2009-04-20-2127-30S.PLUR1_003                                                 6
 STAT SP IPHASW D HRMM SECON CODA AMPLIT PERI AZIMU VELO AIN AR TRES W  DIS CAZ7
 LZ4  SZ E        2127 39.16                  287.4 18.1    -18        0.64 127 
 LZ4  SN IP       2127 39.20                             176    0.2910 0.64 127 
 LZ4  SE IS       2127 39.95                             176   -0.2910 0.64 127 
 LZ4  SZ  AML     2127 40.71        18.7 0.68                          0.64 127 
                                                                                
 2009  420 2334 32.3 L  21.529 -99.387 10.0  RAL  1 0.0 0.5LRAL                1
 GAP=360        0.30       2.8     4.9  0.0 -0.1385E+02  0.1369E+07  0.4956E+06E
 ACTION:UPD 12-06-08 11:37 OP:RALL STATUS:               ID:20090420233432     I
 2009-04-20-2334-23S.PLUR1_003                                                 6
 STAT SP IPHASW D HRMM SECON CODA AMPLIT PERI AZIMU VELO AIN AR TRES W  DIS CAZ7
 LA4  SZ E        2334 34.73                  301.8 13.6      0        9.50 122 
 LA4  SN IP       2334 34.75                             136    0.0110 9.50 122 
 LA4  SE IS       2334 36.49                             136   -0.0110 9.50 122 
 LA4  SZ  AML     2334 37.95        14.2 0.54                          9.50 122 
                                                                                
 2009  421 0330 59.0 L  21.327 -99.283 10.0  RAL  1 0.4 0.3LRAL                1
 GAP=360        3.70     765.0   623.0  0.0 -0.4765E+06  0.1369E+07  0.4956E+06E
 ACTION:UPD 12-06-08 11:37 OP:RALL STATUS:               ID:20090421033059     I
 2009-04-21-0330-52S.PLUR1_003                                                 6
 STAT SP IPHASW D HRMM SECON CODA AMPLIT PERI AZIMU VELO AIN AR TRES W  DIS CAZ7
 LZ4  SZ E         331  1.41                  269.3  9.5     17        1.52  72 
 LZ4  SN IP        331  1.42                             172    0.5610 1.52  72 
 LZ4  SE IS        331  1.65                             172   -0.5610 1.52  72 
 LZ4  SZ  AML      331  1.74        12.0 0.18                          1.52  72 
                                                                                
 2009  421 0554 53.9 L  21.319 -99.268 10.0  RAL  1 0.1 0.5LRAL                1
 GAP=360        0.53     136.6   999.9  0.0  0.2236E+06  0.1369E+07  0.4956E+06E
 ACTION:UPD 12-06-08 11:37 OP:RALL STATUS:               ID:20090421055453     I
 2009-04-21-0554-47S.PLUR1_003                                                 6
 STAT SP IPHASW D HRMM SECON CODA AMPLIT PERI AZIMU VELO AIN AR TRES W  DIS CAZ7
 LZ4  SZ E         554 55.91                  174.7 16.6      2        1.32 353 
 LZ4  SN IP        554 55.91                             173    0.1610 1.32 353 
 LZ4  SE IS        554 56.93                             173   -0.1610 1.32 353 
 LZ4  SZ  AML      554 57.51        17.2 0.54                          1.32 353 
                                                                                
 2009  421 0635 57.1 L  21.325 -99.290 10.0  RAL  1 0.1 0.7LRAL                1
 GAP=360        0.57      10.1    34.2  0.0  0.3446E+03  0.1369E+07  0.4956E+06E
 ACTION:UPD 12-06-08 11:37 OP:RALL STATUS:               ID:20090421063557     I
 2009-04-21-0635-50S.PLUR1_003                                                 6
 STAT SP IPHASW D HRMM SECON CODA AMPLIT PERI AZIMU VELO AIN AR TRES W  DIS CAZ7
 LZ4  SZ E         635 59.22                  252.6 18.1      0        2.23  72 
 LZ4  SN IP        635 59.32                             168    0.3310 2.23  72 
 LZ4  SE IS        636  0.03                             168   -0.3310 2.23  72 
 LZ4  SZ  AML      636  0.46        27.9 0.16                          2.23  72 
                                                                                
 2009  421 0658  4.3 L  21.283 -99.275 10.0  RAL  1 0.1 0.0LRAL                1
 GAP=360        0.43       7.8    23.2  0.0 -0.1806E+03  0.1369E+07  0.4956E+06E
 ACTION:UPD 12-06-08 11:37 OP:RALL STATUS:               ID:20090421065804     I
 2009-04-21-0657-57S.PLUR1_003                                                 6
 STAT SP IPHASW D HRMM SECON CODA AMPLIT PERI AZIMU VELO AIN AR TRES W  DIS CAZ7
 LG3  SN IP        658  6.36                             167    0.2110 2.47 110 
 LG3  SZ E         658  6.46                  289.7 66.1      0        2.47 110 
 LG3  SE IS        658  7.33                             167   -0.2110 2.47 110 
 LG3  SZ  AML      658  7.48         5.9 0.26                          2.47 110 
                                                                                
 2009  421 0739 12.3 L  21.242 -99.272 10.0  RAL  1 0.0 0.4LRAL                1
 GAP=360        0.33       9.6     5.6  0.0  0.5408E+02  0.1369E+07  0.4956E+06E
 ACTION:UPD 12-06-08 11:37 OP:RALL STATUS:               ID:20090421073912     I
 2009-04-21-0739-05S.PLUR1_003                                                 6
 STAT SP IPHASW D HRMM SECON CODA AMPLIT PERI AZIMU VELO AIN AR TRES W  DIS CAZ7
 LG3  SZ E         739 14.29                  208.8 12.6      0        4.20  29 
 LG3  SN IP        739 14.33                             158    0.1010 4.20  29 
 LG3  SE IS        739 15.58                             158   -0.1010 4.20  29 
 LG3  SZ  AML      739 15.69        12.1 0.10                          4.20  29 
                                                                                
 2009  421 0903  0.5 L  21.456 -99.381 10.0  RAL  1 0.0 0.6LRAL                1
 GAP=360        0.30       3.2     2.9  0.0 -0.8864E+01  0.1369E+07  0.4956E+06E
 ACTION:UPD 12-06-08 11:37 OP:RALL STATUS:               ID:20090421090300     I
 2009-04-21-0902-57S.PLUR1_003                                                 6
 STAT SP IPHASW D HRMM SECON CODA AMPLIT PERI AZIMU VELO AIN AR TRES W  DIS CAZ7
 LZ4  SZ E         9 3  3.91                  320.1 22.6      0        18.1 140 
 LZ4  SN IP        9 3  4.04                             116    0.0110 18.1 140 
 LZ4  SE IS        9 3  6.58                             116   -0.0110 18.1 140 
 LZ4  SZ  AML      9 3  6.98        12.2 0.52                          18.1 140 
                                                                                
 2009  421 1006 27.7 L  21.387 -99.390 10.0  RAL  1 0.0 0.0LRAL                1
 GAP=360        0.30       3.6     3.0  0.0  0.1059E+02  0.1369E+07  0.4956E+06E
 ACTION:UPD 12-06-08 11:37 OP:RALL STATUS:               ID:20090421100627     I
 2009-04-21-1006-18S.PLUR1_003                                                 6
 STAT SP IPHASW D HRMM SECON CODA AMPLIT PERI AZIMU VELO AIN AR TRES W  DIS CAZ7
 LA4  SZ E        10 6 30.61                  218.3 11.6      0        13.6  38 
 LA4  SN IP       10 6 30.64                             125   -0.0110 13.6  38 
 LA4  SE IS       10 6 32.78                             125    0.0110 13.6  38 
 LA4  SZ  AML     10 6 34.65         3.6 0.30                          13.6  38 
                                                                                
 2009  421 1231  9.5 L  21.313 -99.253 10.0  RAL  1 0.2 1.0LRAL                1
 GAP=360        0.75      28.1    26.2  0.0 -0.7375E+03  0.1369E+07  0.4956E+06E
 ACTION:UPD 12-06-08 11:37 OP:RALL STATUS:               ID:20090421123109     I
 2009-04-21-1231-02S.PLUR1_003                                                 6
 STAT SP IPHASW D HRMM SECON CODA AMPLIT PERI AZIMU VELO AIN AR TRES W  DIS CAZ7
 LZ4  SN IP       1231 11.81                             165    0.4710 2.68 319 
 LZ4  SZ E        1231 11.84                  139.0 14.1      0        2.68 319 
 LZ4  SE IS       1231 12.25                             165   -0.4710 2.68 319 
 LZ4  SZ  AML     1231 12.65        57.0 0.38                          2.68 319 
                                                                                
 2009  421 1446 31.7 L  21.700 -99.327 10.0  RAL  1 0.0 0.5LRAL                1
 GAP=360        0.30       3.9     0.7  0.0 -0.1233E+01  0.1369E+07  0.4956E+06E
 ACTION:UPD 12-06-08 11:37 OP:RALL STATUS:               ID:20090421144631     I
 2009-04-21-1446-25S.PLUR1_003                                                 6
 STAT SP IPHASW D HRMM SECON CODA AMPLIT PERI AZIMU VELO AIN AR TRES W  DIS CAZ7
 LA4  SN IP       1446 36.03                             109    0.0110 24.0 176 
 LA4  SZ E        1446 36.06                  355.6  8.9      0        24.0 176 
 LA4  SE IS       1446 39.19                             109   -0.0110 24.0 176 
 LA4  SZ  AML     1446 39.69         6.7 0.24                          24.0 176 
                                                                                
 2009  421 1759 42.8 L  21.520 -99.324 10.0  RAL  1 0.0 0.7LRAL                1
 GAP=360        0.31       9.3     3.9  0.0 -0.3600E+02  0.1369E+07  0.4956E+06E
 ACTION:UPD 12-06-08 11:37 OP:RALL STATUS:               ID:20090421175942     I
 2009-04-21-1759-30S.PLUR1_003                                                 6
 STAT SP IPHASW D HRMM SECON CODA AMPLIT PERI AZIMU VELO AIN AR TRES W  DIS CAZ7
 LA4  SZ E        1759 44.85                  338.7  8.6      0        4.29 159 
 LA4  SN IP       1759 44.86                             157    0.0510 4.29 159 
 LA4  SE IS       1759 46.20                             157   -0.0510 4.29 159 
 LA4  SZ  AML     1759 46.49        28.3 0.22                          4.29 159 
                                                                                
 2009  422 0002 14.3 L  21.331 -99.270 10.0  RAL  1 0.3 0.7LRAL                1
 GAP=360        3.67     999.9   999.9  0.0  0.7009E+09  0.1369E+07  0.4956E+06E
 ACTION:UPD 12-06-08 11:37 OP:RALL STATUS:               ID:20090422000214     I
 2009-04-22-0002-07S.PLUR1_003                                                 6
 STAT SP IPHASW D HRMM SECON CODA AMPLIT PERI AZIMU VELO AIN AR TRES W  DIS CAZ7
 LZ4  SZ E         0 2 16.28                  276.1 57.1    -16        0.10 114 
 LZ4  SN IP        0 2 16.35                             180    0.2210 0.10 114 
 LZ4  SE IS        0 2 17.24                             180   -0.2210 0.10 114 
 LZ4  SZ  AML      0 2 17.66        30.0 0.34                          0.10 114 
                                                                                
 2009  422 0051 38.3 L  21.328 -99.275 10.0  RAL  1 0.3 0.3LRAL                1
 GAP=360        4.09     999.9   999.9  0.0 -0.4237E+09  0.1369E+07  0.4956E+06E
 ACTION:UPD 12-06-08 11:37 OP:RALL STATUS:               ID:20090422005138     I
 2009-04-22-0051-31S.PLUR1_003                                                 6
 STAT SP IPHASW D HRMM SECON CODA AMPLIT PERI AZIMU VELO AIN AR TRES W  DIS CAZ7
 LZ4  SN IP        051 40.34                             177    0.1910 0.60  64 
 LZ4  SZ E         051 40.36                  263.3 67.1     19        0.60  64 
 LZ4  SE IS        051 41.30                             177   -0.1910 0.60  64 
 LZ4  SZ  AML      051 41.76        12.4 0.56                          0.60  64 
                                                                                
 2009  422 0106 59.9 L  21.308 -99.283 10.0  RAL  1 0.0 0.2LRAL                1
 GAP=360        0.33       7.4     7.1  0.0 -0.5183E+02  0.1369E+07  0.4956E+06E
 ACTION:UPD 12-06-08 11:37 OP:RALL STATUS:               ID:20090422010659     I
 2009-04-22-0106-53S.PLUR1_003                                                 6
 STAT SP IPHASW D HRMM SECON CODA AMPLIT PERI AZIMU VELO AIN AR TRES W  DIS CAZ7
 LG3  SZ E         1 7  2.00                  318.2 23.6      0        4.76 138 
 LG3  SN IP        1 7  2.03                             155    0.1010 4.76 138 
 LG3  SE IS        1 7  3.30                             155   -0.1010 4.76 138 
 LG3  SZ  AML      1 7  3.48         7.3 0.10                          4.76 138 
                                                                                
 2009  422 0543 10.1 L  21.445 -99.383 10.0  RAL  1 0.0 1.3LRAL                1
 GAP=360        0.30       3.1     3.1  0.0 -0.9200E+01  0.1369E+07  0.4956E+06E
 ACTION:UPD 12-06-08 11:37 OP:RALL STATUS:               ID:20090422054310     I
 2009-04-22-0543-04S.PLUR1_003                                                 6
 STAT SP IPHASW D HRMM SECON CODA AMPLIT PERI AZIMU VELO AIN AR TRES W  DIS CAZ7
 LZ4  SZ E         543 13.50                  317.0 11.0      0        17.3 137 
 LZ4  SN IP        543 13.52                             117    0.0110 17.3 137 
 LZ4  SE IS        543 15.98                             117   -0.0110 17.3 137 
 LZ4  SZ  AML      543 16.29        54.7 0.50                          17.3 137 
                                                                                
