 2009  615 0708  2.7 L  21.263 -99.440 10.0  RAL  1 0.0 1.1LRAL                1
 GAP=360        0.30       1.7     4.0  0.0  0.6267E+01 -0.2163E+02  0.1384E+01E
 ACTION:UPD 12-06-08 11:37 OP:RALL STATUS:               ID:20090615070802     I
 2009-06-15-0707-57S.PLUR1_003                                                 6
 STAT SP IPHASW D HRMM SECON CODA AMPLIT PERI AZIMU VELO AIN AR TRES W  DIS CAZ7
 LZ4  SZ E         7 8  6.31                  247.1 29.3      0        19.2  67 
 LZ4  SN IP        7 8  6.34                             115    0.0010 19.2  67 
 LZ4  SE IS        7 8  9.00                             115    0.0010 19.2  67 
 LZ4  SZ  AML      7 8  9.21        34.2 0.58                          19.2  67 
                                                                                
 2009  615 0923 15.0 L  21.549 -99.467 10.0  RAL  1 0.0 0.6LRAL                1
 GAP=360        0.30       3.0     2.7  0.0 -0.7388E+01 -0.2163E+02  0.1384E+01E
 ACTION:UPD 12-06-08 11:37 OP:RALL STATUS:               ID:20090615092315     I
 2009-06-15-0923-15S.PLUR1_003                                                 6
 STAT SP IPHASW D HRMM SECON CODA AMPLIT PERI AZIMU VELO AIN AR TRES W  DIS CAZ7
 LZ4  SZ E         923 20.49                  319.7  9.0      0        31.6 140 
 LZ4  SN IP        923 20.50                             103    0.0210 31.6 140 
 LZ4  SE IS        923 24.46                             103   -0.0210 31.6 140 
 LZ4  SZ  AML      923 26.21         7.6 0.18                          31.6 140 
                                                                                
 2009  615 1216 59.7 L  21.509 -99.335 10.0  RAL  1 0.1 0.2LRAL                1
 GAP=360        0.38       9.8    10.1  0.0 -0.9804E+02 -0.2163E+02  0.1384E+01E
 ACTION:UPD 12-06-08 11:37 OP:RALL STATUS:               ID:20090615121659     I
 2009-06-15-1216-48S.PLUR1_003                                                 6
 STAT SP IPHASW D HRMM SECON CODA AMPLIT PERI AZIMU VELO AIN AR TRES W  DIS CAZ7
 LA4  SZ E        1217  1.80                  316.2 12.3      0        3.83 136 
 LA4  SN IP       1217  1.84                             160    0.1610 3.83 136 
 LA4  SE IS       1217  2.95                             160   -0.1610 3.83 136 
 LA4  SZ  AML     1217  3.06         8.1 0.22                          3.83 136 
                                                                                
 2009  615 1221 11.3 L  21.406 -99.497 10.0  RAL  1 0.0 0.6LRAL                1
 GAP=360        0.30       1.7     3.9  0.0  0.6201E+01 -0.2163E+02  0.1384E+01E
 ACTION:UPD 12-06-08 11:37 OP:RALL STATUS:               ID:20090615122111     I
 2009-06-15-1221-02S.PLUR1_003                                                 6
 STAT SP IPHASW D HRMM SECON CODA AMPLIT PERI AZIMU VELO AIN AR TRES W  DIS CAZ7
 LA4  SZ E        1221 15.19                  246.1 18.1      0        21.3  66 
 LA4  SN IP       1221 15.24                             112    0.0010 21.3  66 
 LA4  SE IS       1221 18.13                             112    0.0010 21.3  66 
 LA4  SZ  AML     1221 18.92        11.1 0.60                          21.3  66 
                                                                                
 2009  616 0152 46.9 L  21.636 -99.343 10.0  RAL  1 0.0 0.4LRAL                1
 GAP=360        0.30       4.1     1.0  0.0 -0.3822E+01 -0.2163E+02  0.1384E+01E
 ACTION:UPD 12-06-08 11:37 OP:RALL STATUS:               ID:20090616015246     I
 2009-06-16-0152-38S.PLUR1_003                                                 6
 STAT SP IPHASW D HRMM SECON CODA AMPLIT PERI AZIMU VELO AIN AR TRES W  DIS CAZ7
 LA4  SZ E         152 50.25                  348.1 10.4      0        17.2 168 
 LA4  SN IP        152 50.30                             118    0.0310 17.2 168 
 LA4  SE IS        152 52.72                             118   -0.0310 17.2 168 
 LA4  SZ  AML      152 54.75         7.2 0.42                          17.2 168 
                                                                                
 2009  616 0308 38.2 L  21.311 -99.264 10.0  RAL  1 0.1 1.5LRAL                1
 GAP=360        0.38      21.5     6.6  0.0 -0.1420E+03 -0.2163E+02  0.1384E+01E
 ACTION:UPD 12-06-08 11:37 OP:RALL STATUS:               ID:20090616030838     I
 2009-06-16-0308-31S.PLUR1_003                                                 6
 STAT SP IPHASW D HRMM SECON CODA AMPLIT PERI AZIMU VELO AIN AR TRES W  DIS CAZ7
 LZ4  SZ E         3 8 40.19                  164.0  7.9      0        2.24 344 
 LZ4  SN IP        3 8 40.22                             168    0.1610 2.24 344 
 LZ4  SE IS        3 8 41.26                             168   -0.1610 2.24 344 
 LZ4  SZ  AML      3 8 41.76       186.9 0.40                          2.24 344 
                                                                                
 2009  616 1721  3.5 L  21.509 -99.328 10.0  RAL  1 0.1 0.2LRAL                1
 GAP=360        0.43      14.0    10.7  0.0 -0.1501E+03 -0.2163E+02  0.1384E+01E
 ACTION:UPD 12-06-08 11:37 OP:RALL STATUS:               ID:20090616172103     I
 2009-06-16-1720-52S.PLUR1_003                                                 6
 STAT SP IPHASW D HRMM SECON CODA AMPLIT PERI AZIMU VELO AIN AR TRES W  DIS CAZ7
 LA4  SZ E        1721  5.62                  324.7  9.2      0        3.38 145 
 LA4  SN IP       1721  5.66                             162    0.2110 3.38 145 
 LA4  SE IS       1721  6.65                             162   -0.2110 3.38 145 
 LA4  SZ  AML     1721  8.02         8.5 0.38                          3.38 145 
                                                                                
 2009  616 1828 42.4 L  21.506 -99.436 10.0  RAL  1 0.0 2.4LRAL                1
 GAP=360        0.30       2.9     2.8  0.0 -0.7730E+01 -0.2163E+02  0.1384E+01E
 ACTION:UPD 12-06-08 11:37 OP:RALL STATUS:               ID:20090616182842     I
 2009-06-16-1828-37S.PLUR1_003                                                 6
 STAT SP IPHASW D HRMM SECON CODA AMPLIT PERI AZIMU VELO AIN AR TRES W  DIS CAZ7
 LZ4  SZ E        1828 46.91                  318.4 15.0      0        25.9 138 
 LZ4  SN IP       1828 47.00                             107    0.0010 25.9 138 
 LZ4  SE IS       1828 50.38                             107    0.0010 25.9 138 
 LZ4  SZ  AML     1828 52.74       528.4 0.42                          25.9 138 
                                                                                
 2009  616 2124 42.9 L  21.431 -99.441 10.0  RAL  1 0.0 0.5LRAL                1
 GAP=360        0.30       2.2     3.6  0.0 -0.7542E+01 -0.2163E+02  0.1384E+01E
 ACTION:UPD 12-06-08 11:37 OP:RALL STATUS:               ID:20090616212442     I
 2009-06-16-2124-40S.PLUR1_003                                                 6
 STAT SP IPHASW D HRMM SECON CODA AMPLIT PERI AZIMU VELO AIN AR TRES W  DIS CAZ7
 LZ4  SN IP       2124 46.76                             112    0.0010 20.9 122 
 LZ4  SZ E        2124 46.78                  302.0 24.5      0        20.9 122 
 LZ4  SE IS       2124 49.60                             112    0.0010 20.9 122 
 LZ4  SZ  AML     2124 49.96         7.6 0.26                          20.9 122 
                                                                                
 2009  616 2129 24.8 L  21.134 -99.181 64.3  RAL  2 1.5 2.0LRAL                1
 GAP=329       15.84      22.2    54.8189.7  0.7440E+03 -0.2651E+02  0.1824E+02E
 ACTION:UPD 12-06-08 11:37 OP:RALL STATUS:               ID:20090616212924     I
 2009-06-16-2129-20S.PLUR1_006                                                 6
 STAT SP IPHASW D HRMM SECON CODA AMPLIT PERI AZIMU VELO AIN AR TRES W  DIS CAZ7
 LO8  SZ E        2129 37.16                  128.6  6.6     -1        4.36 311 
 LO8  SN IP       2129 37.30                             179    3.3710 4.36 311 
 LO8  SE IS       2129 42.90                             179    2.3310 4.36 311 
 LO8  SZ  AML     2129 43.98        16.4 0.32                          4.36 311 
 LA4  SN IP       2129 34.79                             157   -0.6610 40.9 341 
 LA4  SZ E        2129 34.83                  231.4 14.1     70        40.9 341 
 LA4  SE IS       2129 38.17                             157   -5.0410 40.9 341 
 LA4  SZ  AML     2129 38.97       440.2 0.46                          40.9 341 
                                                                                
 2009  617 0139 22.1 L  21.332 -99.281 10.0  RAL  1 0.1 0.1LRAL                1
 GAP=360        0.96     999.9   229.5  0.0  0.2460E+06 -0.2651E+02  0.1824E+02E
 ACTION:UPD 12-06-08 11:37 OP:RALL STATUS:               ID:20090617013922     I
 2009-06-17-0139-15S.PLUR1_003                                                 6
 STAT SP IPHASW D HRMM SECON CODA AMPLIT PERI AZIMU VELO AIN AR TRES W  DIS CAZ7
 LZ4  SZ E         139 24.00                  280.1 21.9      4        1.23  96 
 LZ4  SN IP        139 24.08                             173    0.1810 1.23  96 
 LZ4  SE IS        139 25.06                             173   -0.1810 1.23  96 
 LZ4  SZ  AML      139 26.45         7.8 0.52                          1.23  96 
                                                                                
 2009  617 0246 14.4 L  21.249 -99.145 10.0  RAL  1 0.0                        1
 GAP=360        0.30       2.5     3.8  0.0 -0.9150E+01 -0.2651E+02  0.1824E+02E
 ACTION:UPD 12-06-08 11:37 OP:RALL STATUS:               ID:20090617024614     I
 2009-06-17-0246-10S.PLUR1_003                                                 6
 STAT SP IPHASW D HRMM SECON CODA AMPLIT PERI AZIMU VELO AIN AR TRES W  DIS CAZ7
 LZ4  SZ E         246 17.55                  125.1 16.1      0        15.8 305 
 LZ4  SN IP        246 17.56                             120    0.0110 15.8 305 
 LZ4  SE IS        246 19.87                             120   -0.0110 15.8 305 
                                                                                
 2009  617 0305 13.1 L  21.326 -99.105 10.0  RAL  1 0.0 0.8LRAL                1
 GAP=360        0.30       0.5     4.5  0.0 -0.5738E+00 -0.2651E+02  0.1824E+02E
 ACTION:UPD 12-06-08 11:37 OP:RALL STATUS:               ID:20090617030513     I
 2009-06-17-0305-09S.PLUR1_003                                                 6
 STAT SP IPHASW D HRMM SECON CODA AMPLIT PERI AZIMU VELO AIN AR TRES W  DIS CAZ7
 LZ4  SN IP        3 5 16.50                             118    0.0210 17.0 272 
 LZ4  SZ E         3 5 16.55                   91.7 25.4      0        17.0 272 
 LZ4  SE IS        3 5 18.91                             118   -0.0210 17.0 272 
 LZ4  SZ  AML      3 5 19.28        17.1 0.88                          17.0 272 
                                                                                
 2009  617 0418 15.8 L  21.723 -99.865 10.0  RAL  1 0.0 1.6LRAL                1
 GAP=360        0.30       2.7     3.5  0.0 -0.5036E+01 -0.2651E+02  0.1824E+02E
 ACTION:UPD 12-06-08 11:37 OP:RALL STATUS:               ID:20090617041815     I
 2009-06-17-0418-20S.PLUR1_003                                                 6
 STAT SP IPHASW D HRMM SECON CODA AMPLIT PERI AZIMU VELO AIN AR TRES W  DIS CAZ7
 LZ4  SZ E         418 27.81                  305.2 10.6      0        75.5 125 
 LZ4  SN IP        418 28.00                              94    0.0110 75.5 125 
 LZ4  SE IS        418 36.91                              94   -0.0110 75.5 125 
 LZ4  SZ  AML      418 40.71        32.8 0.24                          75.5 125 
                                                                                
 2009  617 0719 53.4 L  21.981 -99.524 10.0  RAL  1 0.0 1.7LRAL                1
 GAP=360        0.30       3.5     2.1  0.0 -0.4307E+01 -0.2651E+02  0.1824E+02E
 ACTION:UPD 12-06-08 11:37 OP:RALL STATUS:               ID:20090617071953     I
 2009-06-17-0719-50S.PLUR1_003                                                 6
 STAT SP IPHASW D HRMM SECON CODA AMPLIT PERI AZIMU VELO AIN AR TRES W  DIS CAZ7
 LA4  SN IP        720  3.16                              96    0.0110 59.4 158 
 LA4  SZ E         720  3.17                  338.0 11.1      0        59.4 158 
 LA4  SE IS        720 10.26                              96   -0.0110 59.4 158 
 LA4  SZ  AML      720 14.66        46.3 0.44                          59.4 158 
                                                                                
 2009  617 1447 52.1 L  21.304 -99.252 10.0  RAL  1 0.1 0.0LRAL                1
 GAP=360        0.37      12.3     7.7  0.0 -0.9443E+02 -0.2651E+02  0.1824E+02E
 ACTION:UPD 12-06-08 11:37 OP:RALL STATUS:               ID:20090617144752     I
 2009-06-17-1447-45S.PLUR1_003                                                 6
 STAT SP IPHASW D HRMM SECON CODA AMPLIT PERI AZIMU VELO AIN AR TRES W  DIS CAZ7
 LZ4  SZ E        1447 54.11                  149.6 47.0      0        3.49 330 
 LZ4  SN IP       1447 54.19                             161    0.1510 3.49 330 
 LZ4  SE IS       1447 55.30                             161   -0.1510 3.49 330 
 LZ4  SZ  AML     1447 55.43         5.1 0.10                          3.49 330 
                                                                                
 2009  618 0518 42.2 L  21.334 -99.177 10.0  RAL  1 0.0 0.8LRAL                1
 GAP=360        0.30       0.3     5.7  0.0  0.1184E+01 -0.2651E+02  0.1824E+02E
 ACTION:UPD 12-06-08 11:37 OP:RALL STATUS:               ID:20090618051842     I
 2009-06-18-0518-35S.PLUR1_003                                                 6
 STAT SP IPHASW D HRMM SECON CODA AMPLIT PERI AZIMU VELO AIN AR TRES W  DIS CAZ7
 LZ4  SZ E         518 44.65                   87.7 19.2      0        9.65 268 
 LZ4  SN IP        518 44.65                             136    0.0010 9.65 268 
 LZ4  SE IS        518 46.42                             136    0.0010 9.65 268 
 LZ4  SZ  AML      518 46.98        24.1 0.20                          9.65 268 
                                                                                
 2009  618 0625 29.3 L  21.825 -99.429 10.0  RAL  1 0.0 1.3LRAL                1
 GAP=360        0.30       3.6     1.9  0.0 -0.3465E+01 -0.2651E+02  0.1824E+02E
 ACTION:UPD 12-06-08 11:37 OP:RALL STATUS:               ID:20090618062529     I
 2009-06-18-0625-31S.PLUR1_003                                                 6
 STAT SP IPHASW D HRMM SECON CODA AMPLIT PERI AZIMU VELO AIN AR TRES W  DIS CAZ7
 LZ4  SN IP        625 38.75                              96    0.0110 57.2 163 
 LZ4  SZ E         625 38.83                  343.3  9.7      0        57.2 163 
 LZ4  SE IS        625 45.60                              96   -0.0110 57.2 163 
 LZ4  SZ  AML      625 47.16        22.7 0.20                          57.2 163 
                                                                                
 2009  618 0822 30.9 L  21.252 -99.234 10.0  RAL  1 0.1 0.5LRAL                1
 GAP=360        0.48      16.3    13.1  0.0 -0.2141E+03 -0.2651E+02  0.1824E+02E
 ACTION:UPD 12-06-08 11:37 OP:RALL STATUS:               ID:20090618082230     I
 2009-06-18-0822-23S.PLUR1_003                                                 6
 STAT SP IPHASW D HRMM SECON CODA AMPLIT PERI AZIMU VELO AIN AR TRES W  DIS CAZ7
 LG3  SZ E         822 33.06                  143.2 10.8      0        3.21 323 
 LG3  SN IP        822 33.08                             163    0.2610 3.21 323 
 LG3  SE IS        822 33.97                             163   -0.2610 3.21 323 
 LG3  SZ  AML      822 34.26        17.8 0.24                          3.21 323 
                                                                                
 2009  618 1058 56.6 L  21.547 -98.716 10.0  RAL  1 0.0 1.2LRAL                1
 GAP=360        0.30       2.1     3.7  0.0  0.4271E+01 -0.2651E+02  0.1824E+02E
 ACTION:UPD 12-06-08 11:37 OP:RALL STATUS:               ID:20090618105856     I
 2009-06-18-1058-57S.PLUR1_003                                                 6
 STAT SP IPHASW D HRMM SECON CODA AMPLIT PERI AZIMU VELO AIN AR TRES W  DIS CAZ7
 LZ4  SN IP       1059  6.78                              96    0.0110 62.2 247 
 LZ4  SZ E        1059  6.82                   67.3 14.0      0        62.2 247 
 LZ4  SE IS       1059 14.19                              96   -0.0110 62.2 247 
 LZ4  SZ  AML     1059 16.93        16.5 0.20                          62.2 247 
                                                                                
 2009  618 1548 25.2 L  21.518 -99.330 10.0  RAL  1 0.0 0.1LRAL                1
 GAP=360        0.35       9.7     5.9  0.0 -0.5689E+02 -0.2651E+02  0.1824E+02E
 ACTION:UPD 12-06-08 11:37 OP:RALL STATUS:               ID:20090618154825     I
 2009-06-18-1548-13S.PLUR1_003                                                 6
 STAT SP IPHASW D HRMM SECON CODA AMPLIT PERI AZIMU VELO AIN AR TRES W  DIS CAZ7
 LA4  SZ E        1548 27.29                  330.4 12.8      0        4.39 150 
 LA4  SN IP       1548 27.34                             157    0.1210 4.39 150 
 LA4  SZ  AML     1548 28.12         6.0 0.90                          4.39 150 
 LA4  SE IS       1548 28.54                             157   -0.1210 4.39 150 
                                                                                
 2009  619 1232 37.1 L  21.238 -99.546 10.0  RAL  1 0.0 1.4LRAL                1
 GAP=360        0.30       1.5     3.9  0.0  0.4770E+01 -0.2651E+02  0.1824E+02E
 ACTION:UPD 12-06-08 11:37 OP:RALL STATUS:               ID:20090619123237     I
 2009-06-19-1232-33S.PLUR1_003                                                 6
 STAT SP IPHASW D HRMM SECON CODA AMPLIT PERI AZIMU VELO AIN AR TRES W  DIS CAZ7
 LZ4  SN EP       1232 42.41                             104    0.0210 30.5  70 
 LZ4  SZ E        1232 42.46                  250.3 13.5      0        30.5  70 
 LZ4  SE IS       1232 46.26                             104   -0.0210 30.5  70 
 LZ4  SZ  AML     1232 46.94        50.3 0.38                          30.5  70 
                                                                                
 2009  619 1539  9.9 L  21.475 -99.426 10.0  RAL  1 0.0 1.4LRAL                1
 GAP=360        0.30       0.5     5.1  0.0  0.1887E+01 -0.2651E+02  0.1824E+02E
 ACTION:UPD 12-06-08 11:37 OP:RALL STATUS:               ID:20090619153909     I
 2009-06-19-1538-57S.PLUR1_003                                                 6
 STAT SP IPHASW D HRMM SECON CODA AMPLIT PERI AZIMU VELO AIN AR TRES W  DIS CAZ7
 LA4  SZ E        1539 12.37                  265.5 12.9      0        12.1  85 
 LA4  SN IP       1539 12.62                             129    0.0010 12.1  85 
 LA4  SE IS       1539 14.61                             129    0.0010 12.1  85 
 LA4  SZ  AML     1539 15.87        85.1 0.48                          12.1  85 
                                                                                
 2009  619 1855 29.7 L  21.476 -99.415 10.0  RAL  1 0.0 0.2LRAL                1
 GAP=360        0.30       0.5     5.3  0.0  0.2026E+01 -0.2651E+02  0.1824E+02E
 ACTION:UPD 12-06-08 11:37 OP:RALL STATUS:               ID:20090619185529     I
 2009-06-19-1855-20S.PLUR1_003                                                 6
 STAT SP IPHASW D HRMM SECON CODA AMPLIT PERI AZIMU VELO AIN AR TRES W  DIS CAZ7
 LA4  SZ E        1855 32.20                  265.6 14.7      0        11.0  86 
 LA4  SN IP       1855 32.31                             132    0.0010 11.0  86 
 LA4  SE IS       1855 34.20                             132    0.0010 11.0  86 
 LA4  SZ  AML     1855 34.55         6.0 0.26                          11.0  86 
                                                                                
