 2009 1022 1509 11.4 L  21.911 -98.926  7.5  RAL  2 1.9 1.4LRAL                1
 GAP=344       30.33     487.8   363.4999.9  0.1540E+06 -0.4388E+07 -0.6078E+07E
 ACTION:UPD 12-06-08 11:37 OP:RALL STATUS:               ID:20091022150911     I
 2009-10-22-1509-18S.PLUR1_006                                                 6
 STAT SP IPHASW D HRMM SECON CODA AMPLIT PERI AZIMU VELO AIN AR TRES W  DIS CAZ7
 LT7  SZ E        15 9 23.58                  338.7  9.4     57        70.6 216 
 LT7  SN IP       15 9 23.60                              92    0.8110 70.6 216 
 LT7  SE IS       15 9 27.71                              92   -3.4210 70.6 216 
 LT7  SZ  AML     15 9 28.13        52.6 0.26                          70.6 216 
 LO8  SZ E        15 9 28.15                  155.0  6.7    135        88.4 200 
 LO8  SN IP       15 9 28.16                              92    2.5610 88.4 200 
 LO8  SE IS       15 9 36.05                              92    0.0510 88.4 200 
 LO8  SZ  AML     15 9 37.67         7.7 0.60                          88.4 200 
                                                                                
 2009 1022 1634 29.7 L  22.055 -98.854  7.1  RAL  2 1.8 1.4LRAL                1
 GAP=347       28.53     581.0   417.1999.9  0.2112E+06 -0.9467E+07 -0.1380E+08E
 ACTION:UPD 12-06-08 11:37 OP:RALL STATUS:               ID:20091022163429     I
 2009-10-22-1634-40S.PLUR1_006                                                 6
 STAT SP IPHASW D HRMM SECON CODA AMPLIT PERI AZIMU VELO AIN AR TRES W  DIS CAZ7
 LT7  SN IP       1634 45.10                              92    1.3310 87.8 214 
 LT7  SZ E        1634 45.20                  325.3  8.2     68        87.8 214 
 LT7  SE IS       1634 50.54                              92   -3.5310 87.8 214 
 LT7  SZ  AML     1634 51.62        19.7 0.60                          87.8 214 
 LO8  SN IP       1634 49.28                              91    2.6610  106 201 
 LO8  SZ E        1634 49.43                  140.1  6.3    120         106 201 
 LO8  SE IS       1634 58.52                              91   -0.4710  106 201 
 LO8  SZ  AML     1635  4.81        10.5 0.66                           106 201 
                                                                                
 2009 1023 0803  9.2 L  21.280 -99.242 10.0  RAL  1 0.2 0.5LRAL                1
 GAP=360        1.83     999.9   999.9  0.0 -0.2306E+08 -0.9467E+07 -0.1380E+08E
 ACTION:UPD 12-06-08 11:37 OP:RALL STATUS:               ID:20091023080309     I
 2009-10-23-0803-02S.PLUR1_003                                                 6
 STAT SP IPHASW D HRMM SECON CODA AMPLIT PERI AZIMU VELO AIN AR TRES W  DIS CAZ7
 LG3  SN IP        8 3 11.39                             173    0.3610 1.20 245 
 LG3  SZ E         8 3 11.41                   72.8 30.2      8        1.20 245 
 LG3  SE IS        8 3 12.02                             173   -0.3610 1.20 245 
 LG3  SZ  AML      8 3 12.34        19.5 0.10                          1.20 245 
                                                                                
 2009 1023 1301 32.5 L  21.226 -99.276 10.0  RAL  1 0.0 0.9LRAL                1
 GAP=360        0.30       6.7     3.2  0.0  0.2125E+02 -0.9467E+07 -0.1380E+08E
 ACTION:UPD 12-06-08 11:37 OP:RALL STATUS:               ID:20091023130132     I
 2009-10-23-1301-27S.PLUR1_003                                                 6
 STAT SP IPHASW D HRMM SECON CODA AMPLIT PERI AZIMU VELO AIN AR TRES W  DIS CAZ7
 LG3  SZ E        13 1 34.61                  204.0 23.2      0        6.08  24 
 LG3  SN IP       13 1 34.61                             149    0.0210 6.08  24 
 LG3  SE IS       13 1 36.10                             149   -0.0210 6.08  24 
 LG3  SZ  AML     13 1 36.69        40.5 0.28                          6.08  24 
                                                                                
 2009 1025 0645  7.0 L  21.243 -99.285 10.0  RAL  1 0.0 0.2LRAL                1
 GAP=360        0.32       6.8     6.9  0.0  0.4685E+02 -0.9467E+07 -0.1380E+08E
 ACTION:UPD 12-06-08 11:37 OP:RALL STATUS:               ID:20091025064507     I
 2009-10-25-0645-00S.PLUR1_003                                                 6
 STAT SP IPHASW D HRMM SECON CODA AMPLIT PERI AZIMU VELO AIN AR TRES W  DIS CAZ7
 LG3  SZ E         645  9.10                  223.5 21.0      0        4.95  43 
 LG3  SN IP        645  9.10                             154    0.0910 4.95  43 
 LG3  SE IS        645 10.40                             154   -0.0910 4.95  43 
 LG3  SZ  AML      645 10.84         7.7 0.10                          4.95  43 
                                                                                
 2009 1025 1004 31.0 L  20.908 -99.581 10.0  RAL  1 0.0 1.4LRAL                1
 GAP=360        0.30       3.0     2.8  0.0  0.6330E+01 -0.9467E+07 -0.1380E+08E
 ACTION:UPD 12-06-08 11:37 OP:RALL STATUS:               ID:20091025100431     I
 2009-10-25-1004-30S.PLUR1_003                                                 6
 STAT SP IPHASW D HRMM SECON CODA AMPLIT PERI AZIMU VELO AIN AR TRES W  DIS CAZ7
 LG3  SZ E        10 4 39.79                  220.0 12.7      0        53.1  40 
 LG3  SN IP       10 4 39.83                              97    0.0110 53.1  40 
 LG3  SE IS       10 4 46.22                              97   -0.0110 53.1  40 
 LG3  SZ  AML     10 4 47.50        28.2 0.28                          53.1  40 
                                                                                
 2009 1025 1931  1.4 L  21.260 -99.251 10.0  RAL  1 0.1 1.3LRAL                1
 GAP=360        0.55     250.2   999.9  0.0  0.6206E+06 -0.9467E+07 -0.1380E+08E
 ACTION:UPD 12-06-08 11:37 OP:RALL STATUS:               ID:20091025193101     I
 2009-10-25-1930-55S.PLUR1_003                                                 6
 STAT SP IPHASW D HRMM SECON CODA AMPLIT PERI AZIMU VELO AIN AR TRES W  DIS CAZ7
 LG3  SZ E        1931  3.59                  174.6 17.7      0        1.75 355 
 LG3  SN IP       1931  3.60                             170    0.3110 1.75 355 
 LG3  SE IS       1931  4.34                             170   -0.3110 1.75 355 
 LG3  SZ  AML     1931  4.40       115.2 0.10                          1.75 355 
                                                                                
 2009 1026 0423 25.8 L  21.263 -99.286 10.0  RAL  1 0.0 0.3LRAL                1
 GAP=360        0.34       4.7    12.6  0.0  0.5966E+02 -0.9467E+07 -0.1380E+08E
 ACTION:UPD 12-06-08 11:37 OP:RALL STATUS:               ID:20091026042325     I
 2009-10-26-0423-18S.PLUR1_003                                                 6
 STAT SP IPHASW D HRMM SECON CODA AMPLIT PERI AZIMU VELO AIN AR TRES W  DIS CAZ7
 LG3  SN IP        423 27.83                             160    0.1210 3.72  68 
 LG3  SZ E         423 27.85                  248.1 16.8      0        3.72  68 
 LG3  SE IS        423 29.02                             160   -0.1210 3.72  68 
 LG3  SZ  AML      423 29.15        10.9 0.14                          3.72  68 
                                                                                
 2009 1027 0458 32.7 L  20.988 -99.667 10.0  RAL  1 0.0 1.6LRAL                1
 GAP=360        0.30       2.5     3.3  0.0  0.6141E+01 -0.9467E+07 -0.1380E+08E
 ACTION:UPD 12-06-08 11:37 OP:RALL STATUS:               ID:20091027045832     I
 2009-10-27-0458-32S.PLUR1_003                                                 6
 STAT SP IPHASW D HRMM SECON CODA AMPLIT PERI AZIMU VELO AIN AR TRES W  DIS CAZ7
 LG3  SN IP        458 41.51                              97    0.0110 53.5  53 
 LG3  SZ E         458 41.80                  233.6 11.3      0        53.5  53 
 LG3  SE IS        458 47.94                              97   -0.0110 53.5  53 
 LG3  SZ  AML      458 49.77        44.7 0.34                          53.5  53 
                                                                                
 2009 1027 0631 37.5 L  21.264 -99.231 10.0  RAL  1 0.2                        1
 GAP=360        0.73      19.3    34.5  0.0 -0.6646E+03 -0.9467E+07 -0.1380E+08E
 ACTION:UPD 12-06-08 11:37 OP:RALL STATUS:               ID:20091027063137     I
 2009-10-27-0631-31S.PLUR1_003                                                 6
 STAT SP IPHASW D HRMM SECON CODA AMPLIT PERI AZIMU VELO AIN AR TRES W  DIS CAZ7
 LG3  SZ E         631 39.82                  120.9 14.9      0        2.60 301 
 LG3  SN IP        631 39.85                             166    0.4510 2.60 301 
 LG3  SE IS        631 40.34                             166   -0.4510 2.60 301 
                                                                                
 2009 1027 0717 15.1 L  21.257 -99.242 10.0  RAL  1 0.1 0.7LRAL                1
 GAP=360        0.55      27.6    15.9  0.0 -0.4394E+03 -0.9467E+07 -0.1380E+08E
 ACTION:UPD 12-06-08 11:37 OP:RALL STATUS:               ID:20091027071715     I
 2009-10-27-0717-07S.PLUR1_003                                                 6
 STAT SP IPHASW D HRMM SECON CODA AMPLIT PERI AZIMU VELO AIN AR TRES W  DIS CAZ7
 LG3  SZ E         717 17.24                  151.7 53.3      0        2.35 332 
 LG3  SN IP        717 17.26                             167    0.3210 2.35 332 
 LG3  SE IS        717 18.01                             167   -0.3210 2.35 332 
 LG3  SZ  AML      717 18.07        26.7 0.12                          2.35 332 
                                                                                
 2009 1027 1129 54.4 L  21.243 -99.306 10.0  RAL  1 0.0 1.1LRAL                1
 GAP=360        0.30       3.8     6.2  0.0  0.2360E+02 -0.9467E+07 -0.1380E+08E
 ACTION:UPD 12-06-08 11:37 OP:RALL STATUS:               ID:20091027112954     I
 2009-10-27-1129-47S.PLUR1_003                                                 6
 STAT SP IPHASW D HRMM SECON CODA AMPLIT PERI AZIMU VELO AIN AR TRES W  DIS CAZ7
 LG3  SZ E        1129 56.52                  236.6 15.1      0        6.59  57 
 LG3  SN IP       1129 56.54                             147    0.0310 6.59  57 
 LG3  SE IS       1129 58.04                             147   -0.0310 6.59  57 
 LG3  SZ  AML     1129 58.67        66.3 0.38                          6.59  57 
                                                                                
 2009 1027 2221  1.2 L  21.282 -99.237 10.0  RAL  1 0.2 0.3LRAL                1
 GAP=360        0.66     999.9   880.3  0.0 -0.1483E+07 -0.9467E+07 -0.1380E+08E
 ACTION:UPD 12-06-08 11:37 OP:RALL STATUS:               ID:20091027222101     I
 2009-10-27-2220-54S.PLUR1_003                                                 6
 STAT SP IPHASW D HRMM SECON CODA AMPLIT PERI AZIMU VELO AIN AR TRES W  DIS CAZ7
 LG3  SN IP       2221  3.48                             171    0.4010 1.73 246 
 LG3  SZ E        2221  3.49                   65.5 31.5      0        1.73 246 
 LG3  SE IS       2221  4.05                             171   -0.4010 1.73 246 
 LG3  SZ  AML     2221  4.18        11.1 0.12                          1.73 246 
                                                                                
 2009 1029 1211  5.8 L  20.959 -99.500 10.0  RAL  1 0.0 1.2LRAL                1
 GAP=360        0.30       3.1     2.6  0.0  0.6529E+01 -0.9467E+07 -0.1380E+08E
 ACTION:UPD 12-06-08 11:37 OP:RALL STATUS:               ID:20091029121105     I
 2009-10-29-1211-05S.PLUR1_003                                                 6
 STAT SP IPHASW D HRMM SECON CODA AMPLIT PERI AZIMU VELO AIN AR TRES W  DIS CAZ7
 LG3  SN IP       1211 13.13                              99    0.0210 43.5  36 
 LG3  SZ E        1211 13.13                  216.2  6.8      0        43.5  36 
 LG3  SE IS       1211 18.43                              99   -0.0210 43.5  36 
 LG3  SZ  AML     1211 19.49        22.6 0.26                          43.5  36 
                                                                                
 2009 1029 1719 49.9 L  21.272 -99.263 10.0  RAL  1 0.1 0.6LRAL                1
 GAP=360        0.86     999.9   960.2  0.0 -0.2610E+07 -0.9467E+07 -0.1380E+08E
 ACTION:UPD 12-06-08 11:37 OP:RALL STATUS:               ID:20091029171949     I
 2009-10-29-1719-43S.PLUR1_003                                                 6
 STAT SP IPHASW D HRMM SECON CODA AMPLIT PERI AZIMU VELO AIN AR TRES W  DIS CAZ7
 LG3  SZ E        1719 51.98                  253.3 42.8      3        1.17  70 
 LG3  SN IP       1719 52.01                             174    0.2410 1.17  70 
 LG3  SE IS       1719 52.88                             174   -0.2410 1.17  70 
 LG3  SZ  AML     1719 53.10        22.0 0.20                          1.17  70 
                                                                                
 2009 1031 1819 35.8 L  21.228 -99.265 15.3  RAL  2 0.3 0.7LRAL                1
 GAP=328        1.49       4.5     1.2 12.8  0.4570E+01 -0.2022E+00 -0.1610E+01E
 ACTION:UPD 12-06-08 11:37 OP:RALL STATUS:               ID:20091031181935     I
 2009-10-31-1819-30S.PLUR1_006                                                 6
 STAT SP IPHASW D HRMM SECON CODA AMPLIT PERI AZIMU VELO AIN AR TRES W  DIS CAZ7
 LG3  SN IP       1819 39.43                             161    0.8610 5.43  13 
 LG3  SZ E        1819 39.46                  192.6 14.9      0        5.43  13 
 LG3  SE IS       1819 40.77                             161    0.1510 5.43  13 
 LG3  SZ  AML     1819 41.83        41.6 0.32                          5.43  13 
 LT7  SN IP       1819 39.88                             127    0.0310 19.6 341 
 LT7  SZ E        1819 39.97                  163.0  6.8      2        19.6 341 
 LT7  SE IS       1819 41.80                             127   -1.0410 19.6 341 
 LT7  SZ  AML     1819 42.17         4.3 0.32                          19.6 341 
                                                                                
 2009 1031 2214 54.2 L  20.949 -99.542 10.0  RAL  3 1.5 1.1LRAL                1
 GAP=329       20.12     133.9   139.2999.9  0.1626E+05  0.1506E+06  0.1375E+06E
 ACTION:UPD 12-06-08 11:37 OP:RALL STATUS:               ID:20091031221454     I
 2009-10-31-2214-55S.PLUR1_009                                                 6
 STAT SP IPHASW D HRMM SECON CODA AMPLIT PERI AZIMU VELO AIN AR TRES W  DIS CAZ7
 LO8  SN IP       2215  5.16                              98    3.9610 41.4  56 
 LO8  SZ E        2215  5.18                  130.9  5.9    -99        41.4  56 
 LO8  SE IS       2215  8.22                              98    1.9110 41.4  56 
 LO8  SZ  AML     2215  9.65         2.7 0.28                          41.4  56 
 LG3  SZ E        2215  3.05                  215.4 12.4     -3        47.0  40 
 LG3  SN IP       2215  3.17                              97    1.1210 47.0  40 
 LG3  SE IS       2215  4.46                              97   -3.3210 47.0  40 
 LG3  SZ  AML     2215  4.59       122.7 0.14                          47.0  40 
 LT7  SN IP       2215  3.62                              96    0.5010 54.2  24 
 LT7  SZ E        2215  3.63                  169.0  9.2    -34        54.2  24 
 LT7  SE IS       2215  5.47                              96   -4.1710 54.2  24 
 LT7  SZ  AML     2215  5.87         9.4 0.32                          54.2  24 
                                                                                
