 2009  1 9 1644 37.8 L  21.661 -99.500  2.5  RAL  2 0.2 1.1LRAL                1
 GAP=346        1.32      29.4    17.4 67.7 -0.4902E+03 -0.1082E+04  0.1871E+04E
 ACTION:UPD 12-06-08 11:37 OP:RALL STATUS:               ID:20090109164437     I
 2009-01-09-1644-35S.PLUR1_006                                                 6
 STAT SP IPHASW D HRMM SECON CODA AMPLIT PERI AZIMU VELO AIN AR TRES W  DIS CAZ7
 LZ4  SZ E        1644 44.75                  325.1  8.5     -1        43.6 147 
 LZ4  SN IP       1644 44.77                              63   -0.5010 43.6 147 
 LZ4  SE IS       1644 50.01                              63   -0.7010 43.6 147 
 LZ4  SZ  AML     1644 51.11        64.7 0.26                          43.6 147 
 LD5  SZ E        1644 47.67                  340.7 20.5      0        55.7 160 
 LD5  SN IP       1644 47.68                              63    0.5410 55.7 160 
 LD5  SE IS       1644 54.62                              63    0.6610 55.7 160 
 LD5  SZ  AML     1644 56.10         3.6 0.30                          55.7 160 
                                                                                
 2009  1 9 2103 47.7 L  21.679 -99.460 10.0  RAL  1 0.0 0.5LRAL                1
 GAP=360        0.30       3.1     2.5  0.0 -0.7350E+01 -0.1082E+04  0.1871E+04E
 ACTION:UPD 12-06-08 11:37 OP:RALL STATUS:               ID:20090109210347     I
 2009-01-09-2103-42S.PLUR1_003                                                 6
 STAT SP IPHASW D HRMM SECON CODA AMPLIT PERI AZIMU VELO AIN AR TRES W  DIS CAZ7
 LA4  SZ E        21 3 51.07                  324.1 13.0      0        26.7 144 
 LA4  SN IP       21 3 52.47                             107    0.0010 26.7 144 
 LA4  SE IS       21 3 55.94                             107    0.0010 26.7 144 
 LA4  SZ  AML     21 3 56.71         6.6 0.22                          26.7 144 
                                                                                
 2009  1 9 2231 39.9 L  21.349 -99.292 10.0  RAL  1 0.2 1.2LRAL                1
 GAP=360        0.65      18.6    23.1  0.0 -0.4300E+03 -0.1082E+04  0.1871E+04E
 ACTION:UPD 12-06-08 11:37 OP:RALL STATUS:               ID:20090109223139     I
 2009-01-09-2231-32S.PLUR1_003                                                 6
 STAT SP IPHASW D HRMM SECON CODA AMPLIT PERI AZIMU VELO AIN AR TRES W  DIS CAZ7
 LZ4  SZ E        2231 42.20                  310.9  7.6      0        3.07 131 
 LZ4  SN IP       2231 42.20                             163    0.3910 3.07 131 
 LZ4  SE IS       2231 42.80                             163   -0.3910 3.07 131 
 LZ4  SZ  AML     2231 43.07        86.3 0.18                          3.07 131 
                                                                                
 2009  1 9 2243 19.8 L  21.591 -99.296 10.0  RAL  1 0.0 0.6LRAL                1
 GAP=360        0.30       4.7     0.7  0.0  0.2820E+01 -0.1082E+04  0.1871E+04E
 ACTION:UPD 12-06-08 11:37 OP:RALL STATUS:               ID:20090109224319     I
 2009-01-09-2243-09S.PLUR1_003                                                 6
 STAT SP IPHASW D HRMM SECON CODA AMPLIT PERI AZIMU VELO AIN AR TRES W  DIS CAZ7
 LA4  SZ E        2243 22.39                    6.7  8.7      0        11.9 187 
 LA4  SN IP       2243 22.53                             129    0.0010 11.9 187 
 LA4  SE IS       2243 24.50                             129    0.0010 11.9 187 
 LA4  SZ  AML     2243 24.90        13.7 0.22                          11.9 187 
                                                                                
 2009  110 0136 19.1 L  21.310 -99.291 10.0  RAL  1 0.1 0.5LRAL                1
 GAP=360        0.60      18.1    19.0  0.0  0.3435E+03 -0.1082E+04  0.1871E+04E
 ACTION:UPD 12-06-08 11:37 OP:RALL STATUS:               ID:20090110013619     I
 2009-01-10-0136-12S.PLUR1_003                                                 6
 STAT SP IPHASW D HRMM SECON CODA AMPLIT PERI AZIMU VELO AIN AR TRES W  DIS CAZ7
 LZ4  SZ E         136 21.33                  224.3 99.9      0        3.21  44 
 LZ4  SN IP        136 21.34                             163    0.3610 3.21  44 
 LZ4  SE IS        136 22.02                             163   -0.3610 3.21  44 
 LZ4  SZ  AML      136 22.34        15.6 0.16                          3.21  44 
                                                                                
 2009  110 0149  4.6 L  21.257 -99.336 10.0  RAL  4 0.7 1.7LRAL                1
 GAP=198       11.11       7.7     6.8 70.1  0.1057E+02  0.9034E+01 -0.4956E+02E
 ACTION:UPD 12-06-08 11:37 OP:RALL STATUS:               ID:20090110014904     I
 2009-01-10-0148-53S.PLUR1_012                                                 6
 STAT SP IPHASW D HRMM SECON CODA AMPLIT PERI AZIMU VELO AIN AR TRES W  DIS CAZ7
 LD5  SZ E         149  7.94                    1.7  9.4     14        7.98 168 
 LD5  SN IP        149  7.95                             151    1.1210 7.98 168 
 LD5  SE IS        149 10.15                             151    1.6710 7.98 168 
 LD5  SZ  AML      149 11.51        16.4 0.18                          7.98 168 
 LG3  SZ E         149  7.07                  218.8 17.1    -37        8.90  77 
 LG3  SN IP        149  7.08                             147    0.1410 8.90  77 
 LG3  SE IS        149  8.41                             147   -0.2610 8.90  77 
 LG3  SZ  AML      149  9.41       407.0 0.26                          8.90  77 
 LZ4  SN IP        149  6.63                             141   -0.4910 10.7  40 
 LZ4  SZ E         149  6.65                  273.6 14.4     53        10.7  40 
 LZ4  SE IS        149  7.61                             141   -1.3710 10.7  40 
 LZ4  SZ  AML      149  7.70      2652.3 0.22                          10.7  40 
 LA4  SZ E         149  8.82                  160.8  6.6    -25        25.2   6 
 LA4  SN IP        149  8.83                             116   -0.2910 25.2   6 
 LA4  SE IS        149 11.92                             116   -0.5110 25.2   6 
 LA4  SZ  AML      149 14.92        74.5 0.36                          25.2   6 
                                                                                
 2009  110 0357 42.0 L  21.270 -99.239 10.0  RAL  1 0.2 0.0LRAL                1
 GAP=360        0.67     999.9   874.1  0.0  0.1454E+07  0.9034E+01 -0.4956E+02E
 ACTION:UPD 12-06-08 11:37 OP:RALL STATUS:               ID:20090110035742     I
 2009-01-10-0357-35S.PLUR1_003                                                 6
 STAT SP IPHASW D HRMM SECON CODA AMPLIT PERI AZIMU VELO AIN AR TRES W  DIS CAZ7
 LG3  SZ E         357 44.16                  114.4 21.8      0        1.53 294 
 LG3  SN IP        357 44.25                             172    0.4110 1.53 294 
 LG3  SE IS        357 44.80                             172   -0.4110 1.53 294 
 LG3  SZ  AML      357 45.08         5.2 0.24                          1.53 294 
                                                                                
 2009  110 0710 35.9 L  21.303 -99.292 10.0  RAL  1 0.1 0.4LRAL                1
 GAP=360        0.38      10.9     8.8  0.0  0.9610E+02  0.9034E+01 -0.4956E+02E
 ACTION:UPD 12-06-08 11:37 OP:RALL STATUS:               ID:20090110071035     I
 2009-01-10-0710-29S.PLUR1_003                                                 6
 STAT SP IPHASW D HRMM SECON CODA AMPLIT PERI AZIMU VELO AIN AR TRES W  DIS CAZ7
 LZ4  SZ E         710 37.95                  217.1 37.4      0        3.81  37 
 LZ4  SN IP        710 37.98                             160    0.1610 3.81  37 
 LZ4  SE IS        710 39.07                             160   -0.1610 3.81  37 
 LZ4  SZ  AML      710 39.99        14.6 0.86                          3.81  37 
                                                                                
 2009  110 0749 52.1 L  21.620 -99.336 10.0  RAL  1 0.0 0.0LRAL                1
 GAP=360        0.30       4.3     0.9  0.0 -0.3502E+01  0.9034E+01 -0.4956E+02E
 ACTION:UPD 12-06-08 11:37 OP:RALL STATUS:               ID:20090110074952     I
 2009-01-10-0749-43S.PLUR1_003                                                 6
 STAT SP IPHASW D HRMM SECON CODA AMPLIT PERI AZIMU VELO AIN AR TRES W  DIS CAZ7
 LA4  SZ E         749 55.17                  349.7  8.2      0        15.4 170 
 LA4  SN IP        749 55.22                             121    0.0010 15.4 170 
 LA4  SE IS        749 57.51                             121    0.0010 15.4 170 
 LA4  SZ  AML      749 59.37         3.4 0.28                          15.4 170 
                                                                                
 2009  110 0842 40.7 L  21.267 -99.253 11.3  RAL  2 0.3 0.3LRAL                1
 GAP=232        1.46       1.9     0.9 15.9 -0.1535E+00 -0.1926E+00  0.3458E+01E
 ACTION:UPD 12-06-08 11:37 OP:RALL STATUS:               ID:20090110084240     I
 2009-01-10-0842-30S.PLUR1_006                                                 6
 STAT SP IPHASW D HRMM SECON CODA AMPLIT PERI AZIMU VELO AIN AR TRES W  DIS CAZ7
 LZ4  SZ E         842 43.74                  164.6  9.5      0        7.27 346 
 LZ4  SN IP        842 43.75                             146    0.6810 7.27 346 
 LZ4  SE IS        842 45.28                             146    0.4910 7.27 346 
 LZ4  SZ  AML      842 45.67        26.2 0.32                          7.27 346 
 LD5  SZ E         842 43.31                   36.4 10.0     -1        11.3 218 
 LD5  SN IP        842 43.33                             133   -0.1510 11.3 218 
 LD5  SE IS        842 44.47                             133   -1.0210 11.3 218 
 LD5  SZ  AML      842 45.77         1.9 0.18                          11.3 218 
                                                                                
 2009  110 0909 44.6 L  21.592 -99.353 10.0  RAL  1 0.0 0.2LRAL                1
 GAP=360        0.30       4.3     1.8  0.0 -0.7541E+01 -0.1926E+00  0.3458E+01E
 ACTION:UPD 12-06-08 11:37 OP:RALL STATUS:               ID:20090110090944     I
 2009-01-10-0909-35S.PLUR1_003                                                 6
 STAT SP IPHASW D HRMM SECON CODA AMPLIT PERI AZIMU VELO AIN AR TRES W  DIS CAZ7
 LA4  SZ E         9 9 47.29                  339.3 15.1      0        12.9 159 
 LA4  SN IP        9 9 47.40                             127    0.0110 12.9 159 
 LA4  SE IS        9 9 49.44                             127   -0.0110 12.9 159 
 LA4  SZ  AML      9 9 49.62         6.0 0.36                          12.9 159 
                                                                                
 2009  110 1059 43.5 L  21.210 -99.460  4.6  RAL  2 0.8 0.8LRAL                1
 GAP=345       11.81      57.5   121.7314.6  0.6606E+04 -0.2934E+05 -0.1339E+05E
 ACTION:UPD 12-06-08 11:37 OP:RALL STATUS:               ID:20090110105943     I
 2009-01-10-1059-39S.PLUR1_006                                                 6
 STAT SP IPHASW D HRMM SECON CODA AMPLIT PERI AZIMU VELO AIN AR TRES W  DIS CAZ7
 LG3  SZ E        1059 48.71                  215.6 19.4    -35        22.7  71 
 LG3  SN IP       1059 48.77                              63    1.2210 22.7  71 
 LG3  SE IS       1059 50.11                              63   -0.3910 22.7  71 
 LG3  SZ  AML     1059 50.78         9.1 0.20                          22.7  71 
 LZ4  SZ E        1059 48.33                  280.2 35.0     44        23.8  56 
 LZ4  SN IP       1059 48.34                              63    0.6310 23.8  56 
 LZ4  SE IS       1059 49.33                              63   -1.4610 23.8  56 
 LZ4  SZ  AML     1059 49.94        25.8 0.18                          23.8  56 
                                                                                
 2009  110 1918 45.9 L  21.349 -99.298 10.0  RAL  1 0.1 0.7LRAL                1
 GAP=360        0.42       8.8    14.2  0.0 -0.1250E+03 -0.2934E+05 -0.1339E+05E
 ACTION:UPD 12-06-08 11:37 OP:RALL STATUS:               ID:20090110191845     I
 2009-01-10-1918-39S.PLUR1_003                                                 6
 STAT SP IPHASW D HRMM SECON CODA AMPLIT PERI AZIMU VELO AIN AR TRES W  DIS CAZ7
 LZ4  SZ E        1918 47.90                  303.7 18.5      0        3.54 124 
 LZ4  SN IP       1918 48.05                             161    0.2010 3.54 124 
 LZ4  SE IS       1918 49.06                             161   -0.2010 3.54 124 
 LZ4  SZ  AML     1918 49.31        25.2 0.40                          3.54 124 
                                                                                
 2009  110 2155 58.0 L  21.528 -99.490 10.0  RAL  1 0.0 1.1LRAL                1
 GAP=360        0.30       2.7     3.0  0.0 -0.7479E+01 -0.2934E+05 -0.1339E+05E
 ACTION:UPD 12-06-08 11:37 OP:RALL STATUS:               ID:20090110215558     I
 2009-01-10-2155-58S.PLUR1_003                                                 6
 STAT SP IPHASW D HRMM SECON CODA AMPLIT PERI AZIMU VELO AIN AR TRES W  DIS CAZ7
 LZ4  SN IP       2156  3.49                             103    0.0210 31.6 134 
 LZ4  SZ E        2156  3.49                  313.7 18.9      0        31.6 134 
 LZ4  SE IS       2156  7.45                             103   -0.0210 31.6 134 
 LZ4  SZ  AML     2156  7.57        25.1 0.10                          31.6 134 
                                                                                
 2009  110 22 7 20.3 L                       RAL  0                            1
 ACTION:UPD 12-06-08 11:37 OP:RALL STATUS:               ID:20090110220720     I
 2009-01-10-2207-20S.PLUR1_003                                                 6
 STAT SP IPHASW D HRMM SECON CODA AMPLIT PERI AZIMU VELO AIN AR TRES W  DIS CAZ7
                                                                                
 2009  110 2311 30.6 L  21.385 -99.435 32.3  RAL  3 0.3 1.0LRAL                1
 GAP=259        5.82       6.9     9.9 65.9  0.1487E+01  0.5600E+02  0.1977E+02E
 ACTION:UPD 12-06-08 11:37 OP:RALL STATUS:               ID:20090110231130     I
 2009-01-10-2311-22S.PLUR1_009                                                 6
 STAT SP IPHASW D HRMM SECON CODA AMPLIT PERI AZIMU VELO AIN AR TRES W  DIS CAZ7
 LA4  SZ E        2311 36.38                  217.5 15.6    -12        17.0  50 
 LA4  SN IP       2311 36.42                             146    0.0810 17.0  50 
 LA4  SE IS       2311 40.64                             146    0.1010 17.0  50 
 LA4  SZ  AML     2311 42.74        18.0 0.24                          17.0  50 
 LZ4  SN IP       2311 36.51                             144    0.1010 18.2 109 
 LZ4  SZ E        2311 36.52                  309.6  9.8     20        18.2 109 
 LZ4  SE IS       2311 40.77                             144    0.1010 18.2 109 
 LZ4  SZ  AML     2311 42.76        50.0 0.18                          18.2 109 
 LD5  SZ E        2311 36.82                  308.0 16.0    -23        25.0 152 
 LD5  SN IP       2311 36.93                             132   -0.0410 25.0 152 
 LD5  SE IS       2311 41.31                             132   -0.3310 25.0 152 
 LD5  SZ  AML     2311 43.32         4.2 0.36                          25.0 152 
                                                                                
 2009  111 0046 47.2 L  21.423 -99.407 10.0  RAL  1 0.0 0.2LRAL                1
 GAP=360        0.30       2.6     4.3  0.0  0.1109E+02  0.5600E+02  0.1977E+02E
 ACTION:UPD 12-06-08 11:37 OP:RALL STATUS:               ID:20090111004647     I
 2009-01-11-0046-38S.PLUR1_003                                                 6
 STAT SP IPHASW D HRMM SECON CODA AMPLIT PERI AZIMU VELO AIN AR TRES W  DIS CAZ7
 LA4  SN IP        046 49.95                             129    0.0210 12.1  57 
 LA4  SZ E         046 49.96                  236.7 11.2      0        12.1  57 
 LA4  SE IS        046 51.90                             129   -0.0210 12.1  57 
 LA4  SZ  AML      046 53.75         5.8 0.58                          12.1  57 
                                                                                
 2009  111 0323 11.4 L  21.321 -99.276 10.0  RAL  1 0.4 0.9LRAL                1
 GAP=360        4.31     999.9   999.9  0.0 -0.1762E+08  0.5600E+02  0.1977E+02E
 ACTION:UPD 12-06-08 11:37 OP:RALL STATUS:               ID:20090111032311     I
 2009-01-11-0323-04S.PLUR1_003                                                 6
 STAT SP IPHASW D HRMM SECON CODA AMPLIT PERI AZIMU VELO AIN AR TRES W  DIS CAZ7
 LZ4  SZ E         323 13.62                  190.5 17.1    -19        1.22  31 
 LZ4  SN IP        323 13.63                             173    0.3910 1.22  31 
 LZ4  SE IS        323 14.20                             173   -0.3910 1.22  31 
 LZ4  SZ  AML      323 14.92        43.0 0.24                          1.22  31 
                                                                                
 2009  111 0345 30.8 L  21.317 -99.264 10.0  RAL  1 0.1 0.3LRAL                1
 GAP=360        0.51      39.2    15.5  0.0 -0.6076E+03  0.5600E+02  0.1977E+02E
 ACTION:UPD 12-06-08 11:37 OP:RALL STATUS:               ID:20090111034530     I
 2009-01-11-0345-24S.PLUR1_003                                                 6
 STAT SP IPHASW D HRMM SECON CODA AMPLIT PERI AZIMU VELO AIN AR TRES W  DIS CAZ7
 LZ4  SZ E         345 32.85                  160.6 62.2      1        1.60 340 
 LZ4  SN IP        345 32.91                             171    0.2610 1.60 340 
 LZ4  SE IS        345 33.74                             171   -0.2610 1.60 340 
 LZ4  SZ  AML      345 34.83        12.4 0.62                          1.60 340 
                                                                                
 2009  111 0355 47.6 L  21.275 -99.245  3.2  RAL  2 0.2 0.0LRAL                1
 GAP=295        2.94      12.3     5.6 22.1 -0.6483E+02  0.4930E+02 -0.1156E+03E
 ACTION:UPD 12-06-08 11:37 OP:RALL STATUS:               ID:20090111035547     I
 2009-01-11-0355-38S.PLUR1_006                                                 6
 STAT SP IPHASW D HRMM SECON CODA AMPLIT PERI AZIMU VELO AIN AR TRES W  DIS CAZ7
 LG3  SN IP        355 48.11                             169   -0.2510 0.81 272 
 LG3  SZ E         355 48.20                   80.9 34.2    -10        0.81 272 
 LG3  SE IS        355 48.85                             169   -0.0810 0.81 272 
 LG3  SZ  AML      355 49.04        10.0 0.16                          0.81 272 
 LZ4  SZ E         355 48.90                  166.0 48.4      9        6.66 337 
 LZ4  SN IP        355 49.02                             123    0.0510 6.66 337 
 LZ4  SE IS        355 50.26                             123    0.2810 6.66 337 
 LZ4  SZ  AML      355 50.33        13.0 0.40                          6.66 337 
                                                                                
 2009  111 0946  8.4 L  21.323 -99.252 12.1  RAL  2 0.2 0.5LRAL                1
 GAP=243        1.30       0.4     0.7 11.8 -0.2055E+00 -0.2909E-01  0.1006E-01E
 ACTION:UPD 12-06-08 11:37 OP:RALL STATUS:               ID:20090111094608     I
 2009-01-11-0946-01S.PLUR1_006                                                 6
 STAT SP IPHASW D HRMM SECON CODA AMPLIT PERI AZIMU VELO AIN AR TRES W  DIS CAZ7
 LZ4  SN IP        946 10.87                             172    0.2910 1.98 297 
 LZ4  SZ E         946 10.95                  115.9 17.3      0        1.98 297 
 LZ4  SZ  AML      946 12.81        15.7 0.30                          1.98 297 
 LZ4  SE IS        946 12.86                             172    0.6910 1.98 297 
 LG3  SN EP        946 10.57                             157   -0.1710 5.21 180 
 LG3  SZ E         946 10.58                  357.5 43.6      3        5.21 180 
 LG3  SE IS        946 11.64                             157   -0.8110 5.21 180 
 LG3  SZ  AML      946 12.33        13.1 0.10                          5.21 180 
                                                                                
