 2009  228 0849 24.3 L  21.636 -99.353 10.0  RAL  1 0.0 0.7LRAL                1
 GAP=360        0.30       4.0     1.3  0.0 -0.4642E+01 -0.5054E+04  0.6011E+04E
 ACTION:UPD 12-06-08 11:37 OP:RALL STATUS:               ID:20090228084924     I
 2009-02-28-0849-14S.PLUR1_003                                                 6
 STAT SP IPHASW D HRMM SECON CODA AMPLIT PERI AZIMU VELO AIN AR TRES W  DIS CAZ7
 LA4  SZ E         849 27.74                  344.9  9.9      0        17.4 165 
 LA4  SN IP        849 27.75                             118    0.0010 17.4 165 
 LA4  SE IS        849 30.24                             118    0.0010 17.4 165 
 LA4  SZ  AML      849 31.10        14.1 0.18                          17.4 165 
                                                                                
 2009  228 1000  0.4 L  21.520 -99.366 10.0  RAL  1 0.0 0.1LRAL                1
 GAP=360        0.30       3.7     5.7  0.0 -0.2101E+02 -0.5054E+04  0.6011E+04E
 ACTION:UPD 12-06-08 11:37 OP:RALL STATUS:               ID:20090228100000     I
 2009-02-28-0959-49S.PLUR1_003                                                 6
 STAT SP IPHASW D HRMM SECON CODA AMPLIT PERI AZIMU VELO AIN AR TRES W  DIS CAZ7
 LA4  SN IP       10 0  2.64                             145    0.0310 7.15 125 
 LA4  SZ E        10 0  2.66                  304.6  8.2      0        7.15 125 
 LA4  SE IS       10 0  4.19                             145   -0.0310 7.15 125 
 LA4  SZ  AML     10 0  4.79         5.5 0.10                          7.15 125 
                                                                                
 2009  228 1011 35.2 L  21.338 -99.240 10.0  RAL  1 0.0 0.2LRAL                1
 GAP=360        0.31       3.4    13.7  0.0  0.4707E+02 -0.5054E+04  0.6011E+04E
 ACTION:UPD 12-06-08 11:37 OP:RALL STATUS:               ID:20090228101135     I
 2009-02-28-1011-29S.PLUR1_003                                                 6
 STAT SP IPHASW D HRMM SECON CODA AMPLIT PERI AZIMU VELO AIN AR TRES W  DIS CAZ7
 LZ4  SN IP       1011 37.22                             163    0.0710 3.19 255 
 LZ4  SZ E        1011 37.33                   74.9 23.5      0        3.19 255 
 LZ4  SE IS       1011 38.47                             163   -0.0710 3.19 255 
 LZ4  SZ  AML     1011 39.63         8.8 0.24                          3.19 255 
                                                                                
 2009  228 1126  6.3 L  21.317 -98.746  5.4  RAL  2 0.5 0.9LRAL                1
 GAP=353        7.75      28.3   419.6999.9  0.5140E+04 -0.1565E+08 -0.4597E+06E
 ACTION:UPD 12-06-08 11:37 OP:RALL STATUS:               ID:20090228112606     I
 2009-02-28-1126-10S.PLUR1_006                                                 6
 STAT SP IPHASW D HRMM SECON CODA AMPLIT PERI AZIMU VELO AIN AR TRES W  DIS CAZ7
 LG3  SN IP       1126 14.87                              91   -0.0910 52.7 265 
 LG3  SZ E        1126 14.93                  110.9 11.9     26        52.7 265 
 LG3  SE IS       1126 20.13                              91   -1.1710 52.7 265 
 LG3  SZ  AML     1126 20.37         7.3 0.30                          52.7 265 
 LZ4  SZ E        1126 15.94                   64.9 16.6    -26        54.3 272 
 LZ4  SN IP       1126 16.05                              91    0.8510 54.3 272 
 LZ4  SE IS       1126 22.12                              91    0.4110 54.3 272 
 LZ4  SZ  AML     1126 22.78        11.6 0.18                          54.3 272 
                                                                                
 2009  228 1218 44.1 R  20.416 -99.070 10.0  RAL  1 0.0 2.4LRAL                1
 GAP=360        0.30       3.7     3.4  0.0 -0.8455E+00 -0.1565E+08 -0.4597E+06E
 ACTION:UPD 12-06-08 11:37 OP:RALL STATUS:               ID:20090228121844     I
 2009-02-28-1218-51S.PLUR1_003                                                 6
 STAT SP IPHASW D HRMM SECON CODA AMPLIT PERI AZIMU VELO AIN AR TRES W  DIS CAZ7
 LA4  SN EP       1219  3.38                              93    0.0010  121 348 
 LA4  SZ E        1219  3.61                  168.1 10.8      0         121 348 
 LA4  SE IS       1219 17.44                              93    0.0010  121 348 
 LA4  SZ  AML     1219 19.17       119.7 0.80                           121 348 
                                                                                
 2009  228 1249 17.2 L  21.532 -99.322 10.0  RAL  1 0.0 0.4LRAL                1
 GAP=360        0.30       7.6     2.0  0.0 -0.1525E+02 -0.1565E+08 -0.4597E+06E
 ACTION:UPD 12-06-08 11:37 OP:RALL STATUS:               ID:20090228124917     I
 2009-02-28-1249-06S.PLUR1_003                                                 6
 STAT SP IPHASW D HRMM SECON CODA AMPLIT PERI AZIMU VELO AIN AR TRES W  DIS CAZ7
 LA4  SZ E        1249 19.25                  346.1 10.2      0        5.55 166 
 LA4  SN IP       1249 19.29                             152    0.0210 5.55 166 
 LA4  SE IS       1249 20.76                             152   -0.0210 5.55 166 
 LA4  SZ  AML     1249 21.51        13.4 0.32                          5.55 166 
                                                                                
 2009  228 1808 37.7 L  21.262 -99.277 10.0  RAL  1 0.3 1.4LRAL                1
 GAP=360        1.73      40.6    73.4  0.0  0.2984E+04 -0.1565E+08 -0.4597E+06E
 ACTION:UPD 12-06-08 11:37 OP:RALL STATUS:               ID:20090228180837     I
 2009-02-28-1808-31S.PLUR1_003                                                 6
 STAT SP IPHASW D HRMM SECON CODA AMPLIT PERI AZIMU VELO AIN AR TRES W  DIS CAZ7
 LG3  SZ E        18 8 40.22                  246.1  8.0      7        2.92  59 
 LG3  SN IP       18 8 40.23                             164    0.6310 2.92  59 
 LG3  SE IS       18 8 40.36                             164   -0.6310 2.92  59 
 LG3  SZ  AML     18 8 40.72       133.0 0.20                          2.92  59 
                                                                                
 2009  228 1811 58.4 L  21.268 -99.417 10.0  RAL  1 0.0 0.5LRAL                1
 GAP=360        0.30       3.5     1.9  0.0  0.6047E+01 -0.1565E+08 -0.4597E+06E
 ACTION:UPD 12-06-08 11:37 OP:RALL STATUS:               ID:20090228181158     I
 2009-02-28-1811-49S.PLUR1_003                                                 6
 STAT SP IPHASW D HRMM SECON CODA AMPLIT PERI AZIMU VELO AIN AR TRES W  DIS CAZ7
 LA4  SZ E        1812  3.10                  205.2 16.0      0        26.4  25 
 LA4  SN IP       1812  3.15                             107    0.0210 26.4  25 
 LA4  SE IS       1812  6.54                             107   -0.0210 26.4  25 
 LA4  SZ  AML     1812  6.79         7.3 0.20                          26.4  25 
                                                                                
 2009  228 1832 17.4 L  21.327 -99.289 10.0  RAL  1 0.1 0.8LRAL                1
 GAP=360        0.38       5.1    25.3  0.0  0.1288E+03 -0.1565E+08 -0.4597E+06E
 ACTION:UPD 12-06-08 11:37 OP:RALL STATUS:               ID:20090228183217     I
 2009-02-28-1832-09S.PLUR1_003                                                 6
 STAT SP IPHASW D HRMM SECON CODA AMPLIT PERI AZIMU VELO AIN AR TRES W  DIS CAZ7
 LZ4  SZ E        1832 19.39                  257.8 22.2      0        2.06  78 
 LZ4  SN IP       1832 19.40                             169    0.1610 2.06  78 
 LZ4  SE IS       1832 20.44                             169   -0.1610 2.06  78 
 LZ4  SZ  AML     1832 20.53        33.5 0.22                          2.06  78 
                                                                                
 2009  228 2009  1.7 L  21.457 -99.260 10.0  RAL  1 0.0 0.4LRAL                1
 GAP=360        0.30       3.8     7.0  0.0 -0.2631E+02 -0.1565E+08 -0.4597E+06E
 ACTION:UPD 12-06-08 11:37 OP:RALL STATUS:               ID:20090228200901     I
 2009-02-28-2008-34S.PLUR1_003                                                 6
 STAT SP IPHASW D HRMM SECON CODA AMPLIT PERI AZIMU VELO AIN AR TRES W  DIS CAZ7
 LA4  SN IP       20 9  3.83                             150    0.0410 5.93 300 
 LA4  SZ E        20 9  3.97                  120.2 11.0      0        5.93 300 
 LA4  SE IS       20 9  5.28                             150   -0.0410 5.93 300 
 LA4  SZ  AML     20 9  5.63        12.3 0.26                          5.93 300 
                                                                                
