 2009  610 0426 13.2 L  21.332 -99.268 10.0  RAL  1 0.8 0.3LRAL                1
 GAP=360       10.55     999.9   999.9  0.0 -0.1207E+11  0.1751E+00  0.2764E+00E
 ACTION:UPD 12-06-08 11:37 OP:RALL STATUS:               ID:20090610042613     I
 2009-06-10-0426-06S.PLUR1_003                                                 6
 STAT SP IPHASW D HRMM SECON CODA AMPLIT PERI AZIMU VELO AIN AR TRES W  DIS CAZ7
 LZ4  SN IP        426 15.57                             179    0.5510 0.26 229 
 LZ4  SZ E         426 15.57                   98.9  9.8     50        0.26 229 
 LZ4  SE IS        426 15.80                             179   -0.5510 0.26 229 
 LZ4  SZ  AML      426 15.89        11.1 0.12                          0.26 229 
                                                                                
 2009  610 0715 20.4 L  21.511 -99.446 10.0  RAL  1 0.0 1.5LRAL                1
 GAP=360        0.30       2.9     2.8  0.0 -0.7659E+01  0.1751E+00  0.2764E+00E
 ACTION:UPD 12-06-08 11:37 OP:RALL STATUS:               ID:20090610071520     I
 2009-06-10-0715-16S.PLUR1_003                                                 6
 STAT SP IPHASW D HRMM SECON CODA AMPLIT PERI AZIMU VELO AIN AR TRES W  DIS CAZ7
 LZ4  SZ E         715 25.19                  317.6 11.5      0        27.0 138 
 LZ4  SN IP        715 25.22                             106    0.0010 27.0 138 
 LZ4  SE IS        715 28.72                             106    0.0010 27.0 138 
 LZ4  SZ  AML      715 30.18        69.3 0.18                          27.0 138 
                                                                                
 2009  610 2251 41.7 L  21.679 -99.401 10.0  RAL  1 0.0 1.7LRAL                1
 GAP=360        0.30       3.6     1.7  0.0 -0.4399E+01  0.1751E+00  0.2764E+00E
 ACTION:UPD 12-06-08 11:37 OP:RALL STATUS:               ID:20090610225141     I
 2009-06-10-2251-40S.PLUR1_003                                                 6
 STAT SP IPHASW D HRMM SECON CODA AMPLIT PERI AZIMU VELO AIN AR TRES W  DIS CAZ7
 LZ4  SN IP       2251 48.61                              99    0.0110 40.8 160 
 LZ4  SZ E        2251 49.11                  340.5  7.0      0        40.8 160 
 LZ4  SE IS       2251 53.62                              99   -0.0110 40.8 160 
 LZ4  SZ  AML     2251 55.13        79.3 0.18                          40.8 160 
                                                                                
 2009  611 1015  0.2 L  21.332 -99.276 10.0  RAL  1 0.3 0.4LRAL                1
 GAP=360        3.20     753.0   888.0  0.0  0.6685E+06  0.1751E+00  0.2764E+00E
 ACTION:UPD 12-06-08 11:37 OP:RALL STATUS:               ID:20090611101500     I
 2009-06-11-1014-53S.PLUR1_003                                                 6
 STAT SP IPHASW D HRMM SECON CODA AMPLIT PERI AZIMU VELO AIN AR TRES W  DIS CAZ7
 LZ4  SZ E        1015  2.21                  269.8 23.3    -14        0.68 105 
 LZ4  SN IP       1015  2.23                             176    0.2110 0.68 105 
 LZ4  SE IS       1015  3.14                             176   -0.2110 0.68 105 
 LZ4  SZ  AML     1015  4.02        15.8 0.14                          0.68 105 
                                                                                
 2009  611 1144 10.8 L  21.315 -99.263 10.0  RAL  1 0.2-0.2LRAL                1
 GAP=360        2.49     999.9   999.9  0.0  0.1874E+08  0.1751E+00  0.2764E+00E
 ACTION:UPD 12-06-08 11:37 OP:RALL STATUS:               ID:20090611114410     I
 2009-06-11-1144-04S.PLUR1_003                                                 6
 STAT SP IPHASW D HRMM SECON CODA AMPLIT PERI AZIMU VELO AIN AR TRES W  DIS CAZ7
 LZ4  SN IP       1144 12.90                             170    0.2710 1.91 339 
 LZ4  SZ E        1144 12.91                  170.4 11.3     12        1.91 339 
 LZ4  SE IS       1144 13.72                             170   -0.2710 1.91 339 
 LZ4  SZ  AML     1144 14.47         3.9 0.34                          1.91 339 
                                                                                
 2009  611 1259 55.8 R  22.354 -98.652 10.0  RAL  1 0.0 1.9LRAL                1
 GAP=360        0.30       4.4     4.0  0.0  0.5056E+01  0.1751E+00  0.2764E+00E
 ACTION:UPD 12-06-08 11:37 OP:RALL STATUS:               ID:20090611125955     I
 2009-06-11-1300-07S.PLUR1_003                                                 6
 STAT SP IPHASW D HRMM SECON CODA AMPLIT PERI AZIMU VELO AIN AR TRES W  DIS CAZ7
 LZ4  SZ E        13 0 16.42                   29.3 10.9      0         130 210 
 LZ4  SN IP       13 0 16.46                              52    0.0110  130 210 
 LZ4  SE IS       13 0 31.49                              52   -0.0110  130 210 
 LZ4  SZ  AML     13 0 35.16        35.7 0.14                           130 210 
                                                                                
 2009  611 2334  9.6 L  21.462 -99.298 10.0  RAL  1 0.1 0.2LRAL                1
 GAP=360        0.47      21.0    11.1  0.0 -0.2327E+03  0.1751E+00  0.2764E+00E
 ACTION:UPD 12-06-08 11:37 OP:RALL STATUS:               ID:20090611233409     I
 2009-06-11-2333-58S.PLUR1_003                                                 6
 STAT SP IPHASW D HRMM SECON CODA AMPLIT PERI AZIMU VELO AIN AR TRES W  DIS CAZ7
 LA4  SN IP       2334 11.74                             166    0.2410 2.66 334 
 LA4  SZ E        2334 11.75                  153.7  8.8      0        2.66 334 
 LA4  SE IS       2334 12.64                             166   -0.2410 2.66 334 
 LA4  SZ  AML     2334 12.96         9.6 0.42                          2.66 334 
                                                                                
 2009  612 0406  2.0 L  21.750 -99.426 10.0  RAL  1 0.0 0.9LRAL                1
 GAP=360        0.30       3.5     1.8  0.0 -0.5227E+01  0.1751E+00  0.2764E+00E
 ACTION:UPD 12-06-08 11:37 OP:RALL STATUS:               ID:20090612040602     I
 2009-06-12-0405-54S.PLUR1_003                                                 6
 STAT SP IPHASW D HRMM SECON CODA AMPLIT PERI AZIMU VELO AIN AR TRES W  DIS CAZ7
 LA4  SN IP        4 6  7.56                             103    0.0210 31.9 158 
 LA4  SZ E         4 6  7.58                  337.7  7.3      0        31.9 158 
 LA4  SE IS        4 6 11.57                             103   -0.0210 31.9 158 
 LA4  SZ  AML      4 6 12.84        15.9 0.46                          31.9 158 
                                                                                
 2009  612 0410 49.6 L  21.261 -99.251 10.0  RAL  1 0.2 0.4LRAL                1
 GAP=360        2.25     999.9   999.9  0.0  0.8378E+08  0.1751E+00  0.2764E+00E
 ACTION:UPD 12-06-08 11:37 OP:RALL STATUS:               ID:20090612041049     I
 2009-06-12-0410-42S.PLUR1_003                                                 6
 STAT SP IPHASW D HRMM SECON CODA AMPLIT PERI AZIMU VELO AIN AR TRES W  DIS CAZ7
 LG3  SN IP        410 51.86                             171    0.4210 1.66 355 
 LG3  SZ E         410 51.89                  185.3 12.3     10        1.66 355 
 LG3  SE IS        410 52.38                             171   -0.4210 1.66 355 
 LG3  SZ  AML      410 53.45        15.5 0.18                          1.66 355 
                                                                                
 2009  612 1335 35.2 L  21.285 -99.210 10.0  RAL  1 0.0 0.1LRAL                1
 GAP=360        0.30       3.6     1.9  0.0 -0.6209E+01  0.1751E+00  0.2764E+00E
 ACTION:UPD 12-06-08 11:37 OP:RALL STATUS:               ID:20090612133535     I
 2009-06-12-1335-29S.PLUR1_003                                                 6
 STAT SP IPHASW D HRMM SECON CODA AMPLIT PERI AZIMU VELO AIN AR TRES W  DIS CAZ7
 LA4  SZ E        1335 39.66                  154.9  7.2      0        24.3 335 
 LA4  SN IP       1335 39.66                             109    0.0310 24.3 335 
 LA4  SE IS       1335 42.82                             109   -0.0310 24.3 335 
 LA4  SZ  AML     1335 43.73         2.9 0.28                          24.3 335 
                                                                                
 2009  612 2227 14.2 L  21.716 -99.326 10.0  RAL  1 0.0 1.0LRAL                1
 GAP=360        0.30       3.9     0.8  0.0 -0.1095E+01  0.1751E+00  0.2764E+00E
 ACTION:UPD 12-06-08 11:37 OP:RALL STATUS:               ID:20090612222714     I
 2009-06-12-2227-07S.PLUR1_003                                                 6
 STAT SP IPHASW D HRMM SECON CODA AMPLIT PERI AZIMU VELO AIN AR TRES W  DIS CAZ7
 LA4  SN IP       2227 18.81                             107    0.0110 25.8 176 
 LA4  SZ E        2227 18.86                  356.0  9.1      0        25.8 176 
 LA4  SE IS       2227 22.16                             107   -0.0110 25.8 176 
 LA4  SZ  AML     2227 22.50        22.1 0.28                          25.8 176 
                                                                                
 2009  613 0232 51.8 L  21.322 -99.269 10.0  RAL  1 0.3 0.3LRAL                1
 GAP=360        3.24     999.9   999.9  0.0  0.2046E+10  0.1751E+00  0.2764E+00E
 ACTION:UPD 12-06-08 11:37 OP:RALL STATUS:               ID:20090613023251     I
 2009-06-13-0232-44S.PLUR1_003                                                 6
 STAT SP IPHASW D HRMM SECON CODA AMPLIT PERI AZIMU VELO AIN AR TRES W  DIS CAZ7
 LZ4  SN IP        232 54.12                             175    0.5110 0.95 359 
 LZ4  SZ E         232 54.12                  163.8 22.9    -14        0.95 359 
 LZ4  SE IS        232 54.45                             175   -0.5110 0.95 359 
 LZ4  SZ  AML      232 55.35        10.8 0.38                          0.95 359 
                                                                                
 2009  613 1038 21.8 L  21.142 -99.172 10.0  RAL  1 0.0 1.9LRAL                1
 GAP=360        0.30       3.5     1.9  0.0 -0.6285E+01  0.1751E+00  0.2764E+00E
 ACTION:UPD 12-06-08 11:37 OP:RALL STATUS:               ID:20090613103821     I
 2009-06-13-1038-19S.PLUR1_003                                                 6
 STAT SP IPHASW D HRMM SECON CODA AMPLIT PERI AZIMU VELO AIN AR TRES W  DIS CAZ7
 LZ4  SN IP       1038 26.04                             110    0.0010 23.2 334 
 LZ4  SZ E        1038 26.07                  154.3 15.7      0        23.2 334 
 LZ4  SE IS       1038 29.13                             110    0.0010 23.2 334 
 LZ4  SZ  AML     1038 29.49       175.6 0.22                          23.2 334 
                                                                                
 2009  613 1332 17.9 L  21.272 -99.220  3.2  RAL  2 0.4 1.0LRAL                1
 GAP=298        3.05       1.4     8.0 18.7 -0.7307E+01 -0.2163E+02  0.1384E+01E
 ACTION:UPD 12-06-08 11:37 OP:RALL STATUS:               ID:20090613133217     I
 2009-06-13-1332-10S.PLUR1_006                                                 6
 STAT SP IPHASW D HRMM SECON CODA AMPLIT PERI AZIMU VELO AIN AR TRES W  DIS CAZ7
 LG3  SZ E        1332 17.86                   92.1 14.3     -3        3.38 277 
 LG3  SN IP       1332 17.90                             142   -0.9210 3.38 277 
 LG3  SE IS       1332 19.76                             142    0.2410 3.38 277 
 LG3  SZ  AML     1332 19.91       132.8 0.28                          3.38 277 
 LA4  SZ E        1332 21.62                  169.6  7.9     11        25.2 339 
 LA4  SN IP       1332 21.67                             100   -0.6510 25.2 339 
 LA4  SE IS       1332 26.91                             100    1.3310 25.2 339 
 LA4  SZ  AML     1332 27.89        19.3 0.66                          25.2 339 
                                                                                
 2009  613 1741 31.9 L  21.248 -99.245 10.0  RAL  1 0.0 0.8LRAL                1
 GAP=360        0.30       5.1     1.5  0.0 -0.7796E+01 -0.2163E+02  0.1384E+01E
 ACTION:UPD 12-06-08 11:37 OP:RALL STATUS:               ID:20090613174131     I
 2009-06-13-1741-25S.PLUR1_003                                                 6
 STAT SP IPHASW D HRMM SECON CODA AMPLIT PERI AZIMU VELO AIN AR TRES W  DIS CAZ7
 LZ4  SN IP       1741 34.32                             136    0.0110 9.52 345 
 LZ4  SZ E        1741 34.33                  164.6 19.3      0        9.52 345 
 LZ4  SE IS       1741 36.06                             136   -0.0110 9.52 345 
 LZ4  SZ  AML     1741 36.82        28.7 0.24                          9.52 345 
                                                                                
 2009  613 2036  1.0 L  21.252 -99.227 10.0  RAL  1 0.1 0.7LRAL                1
 GAP=360        0.45      11.6    12.9  0.0 -0.1499E+03 -0.2163E+02  0.1384E+01E
 ACTION:UPD 12-06-08 11:37 OP:RALL STATUS:               ID:20090613203601     I
 2009-06-13-2035-54S.PLUR1_003                                                 6
 STAT SP IPHASW D HRMM SECON CODA AMPLIT PERI AZIMU VELO AIN AR TRES W  DIS CAZ7
 LG3  SZ E        2036  3.11                  134.1 10.3      0        3.73 314 
 LG3  SN IP       2036  3.19                             160    0.2310 3.73 314 
 LG3  SE IS       2036  4.15                             160   -0.2310 3.73 314 
 LG3  SZ  AML     2036  4.49        28.4 0.20                          3.73 314 
                                                                                
 2009  613 2043 53.8 L  21.289 -99.257 10.0  RAL  1 0.0 0.5LRAL                1
 GAP=360        0.30       8.4     2.6  0.0 -0.2190E+02 -0.2163E+02  0.1384E+01E
 ACTION:UPD 12-06-08 11:37 OP:RALL STATUS:               ID:20090613204353     I
 2009-06-13-2043-47S.PLUR1_003                                                 6
 STAT SP IPHASW D HRMM SECON CODA AMPLIT PERI AZIMU VELO AIN AR TRES W  DIS CAZ7
 LZ4  SZ E        2043 55.75                  163.9 15.7      0        4.80 344 
 LZ4  SN IP       2043 55.79                             155    0.0210 4.80 344 
 LZ4  SE IS       2043 57.20                             155   -0.0210 4.80 344 
 LZ4  SZ  AML     2043 59.60        17.1 0.32                          4.80 344 
                                                                                
 2009  613 2338 37.9 L  21.263 -99.232 10.0  RAL  1 0.2 1.2LRAL                1
 GAP=360        0.65      18.4    31.3  0.0 -0.5739E+03 -0.2163E+02  0.1384E+01E
 ACTION:UPD 12-06-08 11:37 OP:RALL STATUS:               ID:20090613233837     I
 2009-06-13-2338-30S.PLUR1_003                                                 6
 STAT SP IPHASW D HRMM SECON CODA AMPLIT PERI AZIMU VELO AIN AR TRES W  DIS CAZ7
 LG3  SZ E        2338 40.15                  122.2 13.8      0        2.53 302 
 LG3  SN IP       2338 40.17                             166    0.3910 2.53 302 
 LG3  SE IS       2338 40.77                             166   -0.3910 2.53 302 
 LG3  SN  AML     2338 40.98       104.1 0.16                          2.53 302 
 LG3  SZ  AML     2338 41.27        59.2 0.44                          2.53 302 
                                                                                
 2009  614 0115 52.4 L  21.250 -99.278 10.0  RAL  1 0.1 0.5LRAL                1
 GAP=360        0.37       9.8     9.7  0.0  0.9525E+02 -0.2163E+02  0.1384E+01E
 ACTION:UPD 12-06-08 11:37 OP:RALL STATUS:               ID:20090614011552     I
 2009-06-14-0115-46S.PLUR1_003                                                 6
 STAT SP IPHASW D HRMM SECON CODA AMPLIT PERI AZIMU VELO AIN AR TRES W  DIS CAZ7
 LG3  SZ E         115 54.54                  222.9 17.0      0        3.87  43 
 LG3  SN IP        115 54.55                             159    0.1610 3.87  43 
 LG3  SE IS        115 55.67                             159   -0.1610 3.87  43 
 LG3  SZ  AML      115 55.82        18.1 0.22                          3.87  43 
                                                                                
 2009  614 0219 18.8 L  21.665 -99.373 10.0  RAL  1 0.0 0.4LRAL                1
 GAP=360        0.30       3.8     1.5  0.0 -0.5041E+01 -0.2163E+02  0.1384E+01E
 ACTION:UPD 12-06-08 11:37 OP:RALL STATUS:               ID:20090614021918     I
 2009-06-14-0219-11S.PLUR1_003                                                 6
 STAT SP IPHASW D HRMM SECON CODA AMPLIT PERI AZIMU VELO AIN AR TRES W  DIS CAZ7
 LA4  SZ E         219 22.75                  341.9  8.7      0        21.1 162 
 LA4  SN IP        219 22.77                             112    0.0210 21.1 162 
 LA4  SE IS        219 25.60                             112   -0.0210 21.1 162 
 LA4  SZ  AML      219 26.31         6.0 0.32                          21.1 162 
                                                                                
 2009  614 0408 44.4 L  21.714 -99.315 10.0  RAL  1 0.0 1.3LRAL                1
 GAP=360        0.30       3.9     0.7  0.0 -0.3581E+00 -0.2163E+02  0.1384E+01E
 ACTION:UPD 12-06-08 11:37 OP:RALL STATUS:               ID:20090614040844     I
 2009-06-14-0408-35S.PLUR1_003                                                 6
 STAT SP IPHASW D HRMM SECON CODA AMPLIT PERI AZIMU VELO AIN AR TRES W  DIS CAZ7
 LA4  SZ E         4 8 48.94                  358.7  9.5      0        25.5 179 
 LA4  SN IP        4 8 48.96                             108    0.0110 25.5 179 
 LA4  SE IS        4 8 52.28                             108   -0.0110 25.5 179 
 LA4  SZ  AML      4 8 52.65        46.1 0.28                          25.5 179 
                                                                                
 2009  614 2220 58.8 L  21.322 -99.272 10.0  RAL  1 0.2 0.9LRAL                1
 GAP=360        2.37     128.9   999.9  0.0 -0.2122E+06 -0.2163E+02  0.1384E+01E
 ACTION:UPD 12-06-08 11:37 OP:RALL STATUS:               ID:20090614222058     I
 2009-06-14-2220-51S.PLUR1_003                                                 6
 STAT SP IPHASW D HRMM SECON CODA AMPLIT PERI AZIMU VELO AIN AR TRES W  DIS CAZ7
 LZ4  SZ E        2221  0.77                  185.3 21.8    -10        0.98  17 
 LZ4  SN IP       2221  0.77                             175    0.1010 0.98  17 
 LZ4  SE IS       2221  1.92                             175   -0.1010 0.98  17 
 LZ4  SZ  AML     2221  2.47        47.2 0.10                          0.98  17 
                                                                                
 2009  615 0220 35.2 L  21.502 -99.313 10.0  RAL  1 0.0 0.2LRAL                1
 GAP=360        0.32      20.4     4.3  0.0 -0.8765E+02 -0.2163E+02  0.1384E+01E
 ACTION:UPD 12-06-08 11:37 OP:RALL STATUS:               ID:20090615022035     I
 2009-06-15-0220-24S.PLUR1_003                                                 6
 STAT SP IPHASW D HRMM SECON CODA AMPLIT PERI AZIMU VELO AIN AR TRES W  DIS CAZ7
 LA4  SN IP        220 37.20                             169    0.0910 2.07 169 
 LA4  SZ E         220 37.21                  348.9  8.0      0        2.07 169 
 LA4  SE IS        220 38.39                             169   -0.0910 2.07 169 
 LA4  SZ  AML      220 39.18         9.1 0.16                          2.07 169 
                                                                                
 2009  615 0304 39.7 L  21.300 -99.448 10.0  RAL  1 0.0 0.8LRAL                1
 GAP=360        0.30       0.9     4.3  0.0  0.3152E+01 -0.2163E+02  0.1384E+01E
 ACTION:UPD 12-06-08 11:37 OP:RALL STATUS:               ID:20090615030439     I
 2009-06-15-0304-34S.PLUR1_003                                                 6
 STAT SP IPHASW D HRMM SECON CODA AMPLIT PERI AZIMU VELO AIN AR TRES W  DIS CAZ7
 LZ4  SZ E         3 4 43.12                  259.7 23.1      0        18.8  80 
 LZ4  SN IP        3 4 43.29                             115    0.0210 18.8  80 
 LZ4  SE IS        3 4 45.88                             115   -0.0210 18.8  80 
 LZ4  SZ  AML      3 4 46.96        17.4 0.40                          18.8  80 
                                                                                
