 2009  116 0324  7.5 L  21.328 -99.292 10.0  RAL  1 0.1 0.4LRAL                1
 GAP=360        0.39     999.9   352.5  0.0 -0.9607E+06  0.1158E+06  0.4488E+05E
 ACTION:UPD 12-06-08 11:37 OP:RALL STATUS:               ID:20090116032407     I
 2009-01-16-0324-00S.PLUR1_003                                                 6
 STAT SP IPHASW D HRMM SECON CODA AMPLIT PERI AZIMU VELO AIN AR TRES W  DIS CAZ7
 LZ4  SN IP        324  9.51                             167    0.1610 2.33  84 
 LZ4  SZ E         324  9.52                  264.1 51.0      1        2.33  84 
 LZ4  SZ  AML      324 10.44        13.4 0.44                          2.33  84 
 LZ4  SE IS        324 10.56                             167   -0.1610 2.33  84 
                                                                                
 2009  116 0424 38.1 L  21.276 -99.249 10.0  RAL  2 0.7 0.2LRAL                1
 GAP=292       11.53       6.9     7.2104.8 -0.1571E+01  0.6093E+00 -0.3491E+01E
 ACTION:UPD 12-06-08 11:37 OP:RALL STATUS:               ID:20090116042438     I
 2009-01-16-0424-30S.PLUR1_006                                                 6
 STAT SP IPHASW D HRMM SECON CODA AMPLIT PERI AZIMU VELO AIN AR TRES W  DIS CAZ7
 LG3  SZ E         424 39.93                   78.4 26.6    -13        0.33 273 
 LG3  SN IP        424 39.95                             179   -0.0310 0.33 273 
 LG3  SE IS        424 40.56                             179   -0.7710 0.33 273 
 LG3  SZ  AML      424 40.88         7.3 0.22                          0.33 273 
 LZ4  SN IP        424 40.64                             147    0.3910 6.47 341 
 LZ4  SZ E         424 40.70                  215.5 28.9     54        6.47 341 
 LZ4  SE IS        424 42.20                             147    0.4010 6.47 341 
 LZ4  SZ  AML      424 42.81        10.9 0.92                          6.47 341 
                                                                                
 2009  116 0718 48.3 L  21.257 -99.248 10.0  RAL  1 0.1 0.1LRAL                1
 GAP=360        0.39     471.4   999.9  0.0  0.1027E+07  0.6093E+00 -0.3491E+01E
 ACTION:UPD 12-06-08 11:37 OP:RALL STATUS:               ID:20090116071848     I
 2009-01-16-0718-41S.PLUR1_003                                                 6
 STAT SP IPHASW D HRMM SECON CODA AMPLIT PERI AZIMU VELO AIN AR TRES W  DIS CAZ7
 LG3  SZ E         718 50.26                  166.3 17.4      0        2.18 346 
 LG3  SN IP        718 50.32                             168    0.1710 2.18 346 
 LG3  SE IS        718 51.36                             168   -0.1710 2.18 346 
 LG3  SZ  AML      718 51.61         7.2 0.46                          2.18 346 
                                                                                
 2009  116 0753 26.2 L  21.282 -99.255 10.0  RAL  2 0.5 0.0LRAL                1
 GAP=187        8.82      41.2    16.5 80.8 -0.6471E+03  0.5121E+02 -0.1350E+03E
 ACTION:UPD 12-06-08 11:37 OP:RALL STATUS:               ID:20090116075326     I
 2009-01-16-0753-19S.PLUR1_006                                                 6
 STAT SP IPHASW D HRMM SECON CODA AMPLIT PERI AZIMU VELO AIN AR TRES W  DIS CAZ7
 LG3  SN IP        753 28.25                             174    0.1910 0.79 158 
 LG3  SZ E         753 28.26                  298.1 37.3    -39        0.79 158 
 LG3  SE IS        753 29.46                             174    0.0410 0.79 158 
 LG3  SZ  AML      753 29.63         2.4 0.20                          0.79 158 
 LZ4  SZ E         753 28.24                  148.1 40.2    -16        5.57 345 
 LZ4  SN IP        753 28.33                             151    0.0810 5.57 345 
 LZ4  SE IS        753 29.44                             151   -0.3110 5.57 345 
 LZ4  SZ  AML      753 29.81         9.3 0.24                          5.57 345 
                                                                                
 2009  116 0904  7.3 L  21.398 -99.725 10.0  RAL  2 1.0 1.2LRAL                1
 GAP=354       17.10     195.1   984.5999.9 -0.1847E+06 -0.1779E+07  0.3403E+06E
 ACTION:UPD 12-06-08 11:37 OP:RALL STATUS:               ID:20090116090407     I
 2009-01-16-0904-07S.PLUR1_006                                                 6
 STAT SP IPHASW D HRMM SECON CODA AMPLIT PERI AZIMU VELO AIN AR TRES W  DIS CAZ7
 LZ4  SZ E         9 4 15.65                  331.5  7.4     52        47.8  99 
 LZ4  SN IP        9 4 15.73                              63    0.4110 47.8  99 
 LZ4  SE IS        9 4 19.97                              63   -1.1710 47.8  99 
 LZ4  SZ  AML      9 4 21.89        27.4 0.22                          47.8  99 
 LG3  SZ E         9 4 16.62                  220.9 11.7    -64        50.9 105 
 LG3  SN IP        9 4 17.00                              63    1.2110 50.9 105 
 LG3  SE IS        9 4 21.51                              63   -0.4510 50.9 105 
 LG3  SZ  AML      9 4 24.97        16.3 0.42                          50.9 105 
                                                                                
 2009  116 1104 27.5 L  21.209 -99.200 10.0  RAL  1 0.0 0.0LRAL                1
 GAP=360        0.30       4.4     3.5  0.0 -0.1539E+02 -0.1779E+07  0.3403E+06E
 ACTION:UPD 12-06-08 11:37 OP:RALL STATUS:               ID:20090116110427     I
 2009-01-16-1104-22S.PLUR1_003                                                 6
 STAT SP IPHASW D HRMM SECON CODA AMPLIT PERI AZIMU VELO AIN AR TRES W  DIS CAZ7
 LG3  SN IP       11 4 29.97                             137    0.0210 9.23 324 
 LG3  SZ E        11 4 30.45                  143.5 13.7      0        9.23 324 
 LG3  SE IS       11 4 31.68                             137   -0.0210 9.23 324 
 LG3  SZ  AML     11 4 31.88         4.3 0.22                          9.23 324 
                                                                                
 2009  116 1254 12.3 L  21.254 -99.556  4.9  RAL  2 0.8 0.9LRAL                1
 GAP=348       11.54      39.8   250.7999.9  0.7922E+04  0.1742E+07  0.2209E+06E
 ACTION:UPD 12-06-08 11:37 OP:RALL STATUS:               ID:20090116125412     I
 2009-01-16-1254-09S.PLUR1_006                                                 6
 STAT SP IPHASW D HRMM SECON CODA AMPLIT PERI AZIMU VELO AIN AR TRES W  DIS CAZ7
 LZ4  SZ E        1254 18.48                  306.9 13.5     53        30.9  74 
 LZ4  SN IP       1254 18.48                              92    0.9310 30.9  74 
 LZ4  SE IS       1254 19.49                              92   -1.9310 30.9  74 
 LZ4  SZ  AML     1254 19.50        36.5 0.16                          30.9  74 
 LG3  SZ E        1254 19.18                  251.1 21.5    -14        31.6  86 
 LG3  SN IP       1254 19.27                              92    1.6110 31.6  86 
 LG3  SZ  AML     1254 20.99         7.6 0.28                          31.6  86 
 LG3  SE IS       1254 21.00                              92   -0.6110 31.6  86 
                                                                                
 2009  116 1715 36.4 L  21.328 -99.252 10.0  RAL  1 0.0 0.2LRAL                1
 GAP=360        0.33       4.0    24.6  0.0 -0.9859E+02  0.1742E+07  0.2209E+06E
 ACTION:UPD 12-06-08 11:37 OP:RALL STATUS:               ID:20090116171536     I
 2009-01-16-1715-30S.PLUR1_003                                                 6
 STAT SP IPHASW D HRMM SECON CODA AMPLIT PERI AZIMU VELO AIN AR TRES W  DIS CAZ7
 LZ4  SZ E        1715 38.12                   99.9 10.1      0        1.83 280 
 LZ4  SN IP       1715 38.34                             170    0.0910 1.83 280 
 LZ4  SE IS       1715 39.51                             170   -0.0910 1.83 280 
 LZ4  SZ  AML     1715 41.15         8.8 0.64                          1.83 280 
                                                                                
 2009  116 1821 56.9 L  21.792 -99.367 10.0  RAL  1 0.0 0.2LRAL                1
 GAP=360        0.30       3.7     1.2  0.0 -0.2464E+01  0.1742E+07  0.2209E+06E
 ACTION:UPD 12-06-08 11:37 OP:RALL STATUS:               ID:20090116182156     I
 2009-01-16-1821-53S.PLUR1_003                                                 6
 STAT SP IPHASW D HRMM SECON CODA AMPLIT PERI AZIMU VELO AIN AR TRES W  DIS CAZ7
 LA4  SZ E        1822  2.74                  350.1 10.8      0        34.7 170 
 LA4  SN IP       1822  2.83                             102    0.0110 34.7 170 
 LA4  SE IS       1822  7.16                             102   -0.0110 34.7 170 
 LA4  SZ  AML     1822  8.73         2.9 0.32                          34.7 170 
                                                                                
 2009  116 1954 11.8 L  21.417 -99.261 10.0  RAL  1 0.0-0.2LRAL                1
 GAP=360        0.30       4.7     3.3  0.0 -0.1553E+02  0.1742E+07  0.2209E+06E
 ACTION:UPD 12-06-08 11:37 OP:RALL STATUS:               ID:20090116195411     I
 2009-01-16-1954-01S.PLUR1_003                                                 6
 STAT SP IPHASW D HRMM SECON CODA AMPLIT PERI AZIMU VELO AIN AR TRES W  DIS CAZ7
 LA4  SZ E        1954 14.10                  146.2 11.2      0        8.89 326 
 LA4  SN IP       1954 14.14                             138    0.0210 8.89 326 
 LA4  SE IS       1954 15.82                             138   -0.0210 8.89 326 
 LA4  SZ  AML     1954 16.52         2.5 0.18                          8.89 326 
                                                                                
 2009  117 0150 32.6 L  21.323 -99.271 10.0  RAL  1 0.1 0.1LRAL                1
 GAP=360        0.69     124.6   999.9  0.0 -0.2286E+06  0.1742E+07  0.2209E+06E
 ACTION:UPD 12-06-08 11:37 OP:RALL STATUS:               ID:20090117015032     I
 2009-01-17-0150-26S.PLUR1_003                                                 6
 STAT SP IPHASW D HRMM SECON CODA AMPLIT PERI AZIMU VELO AIN AR TRES W  DIS CAZ7
 LZ4  SZ E         150 34.55                  184.5 34.4     -2        0.91   7 
 LZ4  SN IP        150 34.55                             175    0.0810 0.91   7 
 LZ4  SE IS        150 35.73                             175   -0.0810 0.91   7 
 LZ4  SZ  AML      150 36.24         7.2 0.14                          0.91   7 
                                                                                
 2009  117  259 16.9 L                       RAL  0                            1
 ACTION:UPD 12-06-08 11:37 OP:RALL STATUS:               ID:20090117025916     I
 2009-01-17-0259-16S.PLUR1_006                                                 6
 STAT SP IPHASW D HRMM SECON CODA AMPLIT PERI AZIMU VELO AIN AR TRES W  DIS CAZ7
                                                                                
 2009  117 1101 21.7 L  21.275 -98.781 10.0  RAL  1 0.0 0.9LRAL                1
 GAP=360        0.30       1.3     4.0  0.0 -0.3665E-01  0.1742E+07  0.2209E+06E
 ACTION:UPD 12-06-08 11:37 OP:RALL STATUS:               ID:20090117110121     I
 2009-01-17-1101-23S.PLUR1_003                                                 6
 STAT SP IPHASW D HRMM SECON CODA AMPLIT PERI AZIMU VELO AIN AR TRES W  DIS CAZ7
 LG3  SZ E        11 1 29.82                   90.0 12.2      0        48.9 270 
 LG3  SN IP       11 1 29.89                              98    0.0110 48.9 270 
 LG3  SE IS       11 1 35.82                              98   -0.0110 48.9 270 
 LG3  SZ  AML     11 1 36.32        10.7 0.10                          48.9 270 
                                                                                
 2009  117 1336  7.0 L  20.232 -99.185 10.0  RAL  1 0.0 1.2LRAL                1
 GAP=360        0.30       3.7     3.0  0.0 -0.8490E+00  0.1742E+07  0.2209E+06E
 ACTION:UPD 12-06-08 11:37 OP:RALL STATUS:               ID:20090117133607     I
 2009-01-17-1336-14S.PLUR1_003                                                 6
 STAT SP IPHASW D HRMM SECON CODA AMPLIT PERI AZIMU VELO AIN AR TRES W  DIS CAZ7
 LD5  SZ E        1336 23.37                  172.4 17.4      0         107 352 
 LD5  SN IP       1336 24.09                              93    0.0010  107 352 
 LD5  SE IS       1336 36.54                              93    0.0010  107 352 
 LD5  SZ  AML     1336 37.69         8.4 0.20                           107 352 
                                                                                
 2009  117 2227 11.8 R                       RAL  0                            1
 ACTION:UPD 12-06-08 11:37 OP:RALL STATUS:               ID:20090117222711     I
 2009-01-17-2227-11S.PLUR1_003                                                 6
 STAT SP IPHASW D HRMM SECON CODA AMPLIT PERI AZIMU VELO AIN AR TRES W  DIS CAZ7
                                                                                
 2009  117 2251 43.7 L  22.007 -99.510 10.0  RAL  1 0.0 0.9LRAL                1
 GAP=360        0.30       3.5     2.1  0.0 -0.3871E+01  0.1742E+07  0.2209E+06E
 ACTION:UPD 12-06-08 11:37 OP:RALL STATUS:               ID:20090117225143     I
 2009-01-17-2251-41S.PLUR1_003                                                 6
 STAT SP IPHASW D HRMM SECON CODA AMPLIT PERI AZIMU VELO AIN AR TRES W  DIS CAZ7
 LA4  SZ E        2251 53.69                  340.3 13.4      0        61.6 160 
 LA4  SN IP       2251 53.82                              96    0.0110 61.6 160 
 LA4  SE IS       2252  1.17                              96   -0.0110 61.6 160 
 LA4  SZ  AML     2252  2.30         8.1 0.62                          61.6 160 
                                                                                
 2009  118 0106 55.8 L  21.568 -99.349 10.0  RAL  1 0.0 0.2LRAL                1
 GAP=360        0.30       4.8     2.3  0.0 -0.1067E+02  0.1742E+07  0.2209E+06E
 ACTION:UPD 12-06-08 11:37 OP:RALL STATUS:               ID:20090118010655     I
 2009-01-18-0106-46S.PLUR1_003                                                 6
 STAT SP IPHASW D HRMM SECON CODA AMPLIT PERI AZIMU VELO AIN AR TRES W  DIS CAZ7
 LA4  SZ E         1 6 58.25                  336.2 10.5      0        10.1 156 
 LA4  SN IP        1 6 58.28                             134    0.0210 10.1 156 
 LA4  SE IS        1 7  0.06                             134   -0.0210 10.1 156 
 LA4  SZ  AML      1 7  0.30         7.1 0.28                          10.1 156 
                                                                                
 2009  118 0235 33.4 L  21.276 -99.266 10.0  RAL  1 0.3 0.8LRAL                1
 GAP=360        2.30     329.2   239.7  0.0  0.7888E+05  0.1742E+07  0.2209E+06E
 ACTION:UPD 12-06-08 11:37 OP:RALL STATUS:               ID:20090118023533     I
 2009-01-18-0235-26S.PLUR1_003                                                 6
 STAT SP IPHASW D HRMM SECON CODA AMPLIT PERI AZIMU VELO AIN AR TRES W  DIS CAZ7
 LG3  SZ E         235 35.86                  261.6 11.7     -9        1.41  92 
 LG3  SN IP        235 35.87                             172    0.5610 1.41  92 
 LG3  SE IS        235 36.11                             172   -0.5610 1.41  92 
 LG3  SZ  AML      235 36.77        32.8 0.10                          1.41  92 
                                                                                
 2009  118 0257 58.0 L  21.323 -99.299 10.0  RAL  1 0.0 1.1LRAL                1
 GAP=360        0.33       3.9    14.7  0.0  0.5781E+02  0.1742E+07  0.2209E+06E
 ACTION:UPD 12-06-08 11:37 OP:RALL STATUS:               ID:20090118025758     I
 2009-01-18-0257-51S.PLUR1_003                                                 6
 STAT SP IPHASW D HRMM SECON CODA AMPLIT PERI AZIMU VELO AIN AR TRES W  DIS CAZ7
 LZ4  SZ E         257 59.98                  253.9  8.9      0        3.16  74 
 LZ4  SN IP        258  0.00                             163    0.1010 3.16  74 
 LZ4  SE IS        258  1.18                             163   -0.1010 3.16  74 
 LZ4  SZ  AML      258  1.61        66.2 0.28                          3.16  74 
                                                                                
 2009  118 0322  0.2 L  21.304 -99.245 10.0  RAL  1 0.1 0.5LRAL                1
 GAP=360        0.38      10.3     9.4  0.0 -0.9726E+02  0.1742E+07  0.2209E+06E
 ACTION:UPD 12-06-08 11:37 OP:RALL STATUS:               ID:20090118032200     I
 2009-01-18-0321-53S.PLUR1_003                                                 6
 STAT SP IPHASW D HRMM SECON CODA AMPLIT PERI AZIMU VELO AIN AR TRES W  DIS CAZ7
 LZ4  SZ E         322  2.34                  139.5 35.4      0        3.85 320 
 LZ4  SN IP        322  2.35                             159    0.1610 3.85 320 
 LZ4  SE IS        322  3.44                             159   -0.1610 3.85 320 
 LZ4  SZ  AML      322  3.55        15.9 0.14                          3.85 320 
                                                                                
 2009  118 0536 50.3 R  21.335 -99.777  6.6  RAL  2 1.2 1.0LRAL                1
 GAP=354       21.18      94.3   999.9999.9 -0.7324E+05  0.3193E+08 -0.1739E+07E
 ACTION:UPD 12-06-08 11:37 OP:RALL STATUS:               ID:20090118053650     I
 2009-01-18-0536-51S.PLUR1_006                                                 6
 STAT SP IPHASW D HRMM SECON CODA AMPLIT PERI AZIMU VELO AIN AR TRES W  DIS CAZ7
 LZ4  SN IP        536 59.59                              92    0.6210 52.6  90 
 LZ4  SZ E         536 59.68                  341.8 10.2     71        52.6  90 
 LZ4  SE IS        537  3.72                              92   -1.5710 52.6  90 
 LZ4  SZ  AML      537  4.37        17.1 0.26                          52.6  90 
 LG3  SZ E         537  0.53                  202.3 46.0    -74        54.8  97 
 LG3  SN IP        537  0.61                              92    1.2910 54.8  97 
 LG3  SE IS        537  5.55                              92   -0.3410 54.8  97 
 LG3  SZ  AML      537  7.16         7.2 0.22                          54.8  97 
                                                                                
 2009  118 1416 39.9 L  21.358 -99.290 10.0  RAL  1 0.1 0.6LRAL                1
 GAP=360        0.42      12.6     9.9  0.0 -0.1254E+03  0.3193E+08 -0.1739E+07E
 ACTION:UPD 12-06-08 11:37 OP:RALL STATUS:               ID:20090118141639     I
 2009-01-18-1416-33S.PLUR1_003                                                 6
 STAT SP IPHASW D HRMM SECON CODA AMPLIT PERI AZIMU VELO AIN AR TRES W  DIS CAZ7
 LZ4  SN IP       1416 42.01                             160    0.2010 3.67 144 
 LZ4  SZ E        1416 42.02                  323.8 17.9      0        3.67 144 
 LZ4  SE IS       1416 43.01                             160   -0.2010 3.67 144 
 LZ4  SZ  AML     1416 43.55        19.4 0.10                          3.67 144 
                                                                                
 2009  118 2205 54.3 L  21.162 -99.252 10.0  RAL  2 0.6 0.8LRAL                1
 GAP=355        8.79     104.5     9.7178.8 -0.1974E+03 -0.2077E+03  0.1203E+05E
 ACTION:UPD 12-06-08 11:37 OP:RALL STATUS:               ID:20090118220554     I
 2009-01-18-2205-49S.PLUR1_006                                                 6
 STAT SP IPHASW D HRMM SECON CODA AMPLIT PERI AZIMU VELO AIN AR TRES W  DIS CAZ7
 LG3  SZ E        22 5 58.10                  179.3 19.3      0        12.6 360 
 LG3  SN IP       22 5 58.14                             123    1.0310 12.6 360 
 LG3  SE IS       22 5 59.23                             123    0.0910 12.6 360 
 LG3  SZ  AML     22 5 59.38        12.7 0.46                          12.6 360 
 LZ4  SN IP       22 5 58.10                             112    0.1810 18.8 354 
 LZ4  SZ E        22 5 58.11                  216.5 24.4     42        18.8 354 
 LZ4  SE IS       22 5 59.24                             112   -1.3110 18.8 354 
 LZ4  SZ  AML     22 5 59.67        30.7 0.20                          18.8 354 
                                                                                
