 2009 11 1 0546 14.1 L  21.277 -99.244 10.0  RAL  1 0.2 0.0LRAL                1
 GAP=360        1.32     219.6   238.6  0.0 -0.5239E+05  0.1506E+06  0.1375E+06E
 ACTION:UPD 12-06-08 11:37 OP:RALL STATUS:               ID:20091101054614     I
 2009-11-01-0546-07S.PLUR1_003                                                 6
 STAT SP IPHASW D HRMM SECON CODA AMPLIT PERI AZIMU VELO AIN AR TRES W  DIS CAZ7
 LG3  SZ E         546 16.35                   88.0 29.2      6        0.90 262 
 LG3  SN IP        546 16.36                             175    0.3710 0.90 262 
 LG3  SE IS        546 16.97                             175   -0.3710 0.90 262 
 LG3  SZ  AML      546 17.30         5.5 0.40                          0.90 262 
                                                                                
 2009 11 1 0602 44.6 L  21.248 -99.274 10.0  RAL  1 0.1 0.1LRAL                1
 GAP=360        0.38      11.2     9.0  0.0  0.1002E+03  0.1506E+06  0.1375E+06E
 ACTION:UPD 12-06-08 11:37 OP:RALL STATUS:               ID:20091101060244     I
 2009-11-01-0602-37S.PLUR1_003                                                 6
 STAT SP IPHASW D HRMM SECON CODA AMPLIT PERI AZIMU VELO AIN AR TRES W  DIS CAZ7
 LG3  SN IP        6 2 46.76                             160    0.1610 3.76  37 
 LG3  SZ E         6 2 46.79                  216.8 21.0      0        3.76  37 
 LG3  SE IS        6 2 47.86                             160   -0.1610 3.76  37 
 LG3  SZ  AML      6 2 49.14         6.5 0.28                          3.76  37 
                                                                                
 2009 11 1 1132 10.6 L  20.862 -99.438 10.0  RAL  1 0.0 0.6LRAL                1
 GAP=360        0.30       3.5     2.0  0.0  0.4686E+01  0.1506E+06  0.1375E+06E
 ACTION:UPD 12-06-08 11:37 OP:RALL STATUS:               ID:20091101113210     I
 2009-11-01-1132-15S.PLUR1_003                                                 6
 STAT SP IPHASW D HRMM SECON CODA AMPLIT PERI AZIMU VELO AIN AR TRES W  DIS CAZ7
 LG3  SN IP       1132 18.85                              97    0.0110 49.7  23 
 LG3  SZ E        1132 18.91                  202.8  9.5      0        49.7  23 
 LG3  SE IS       1132 24.86                              97   -0.0110 49.7  23 
 LG3  SZ  AML     1132 25.41         4.4 0.44                          49.7  23 
                                                                                
 2009 11 6 0841 20.3 L  21.256 -99.258 10.0  RAL  1 0.1-0.1LRAL                1
 GAP=360        0.39      21.8     6.0  0.0  0.1312E+03  0.1506E+06  0.1375E+06E
 ACTION:UPD 12-06-08 11:37 OP:RALL STATUS:               ID:20091106084120     I
 2009-11-06-0841-19S.PLUR1_003                                                 6
 STAT SP IPHASW D HRMM SECON CODA AMPLIT PERI AZIMU VELO AIN AR TRES W  DIS CAZ7
 LG3  SN IP        841 22.35                             168    0.1710 2.29  14 
 LG3  SZ E         841 22.35                  194.4 12.9      0        2.29  14 
 LG3  SE IS        841 23.39                             168   -0.1710 2.29  14 
 LG3  SZ  AML      841 23.68         4.9 0.28                          2.29  14 
                                                                                
 2009 11 8 0856 26.5 L  21.278 -99.241 10.0  RAL  1 0.2 0.3LRAL                1
 GAP=360        0.98     173.3   167.8  0.0 -0.2907E+05  0.1506E+06  0.1375E+06E
 ACTION:UPD 12-06-08 11:37 OP:RALL STATUS:               ID:20091108085626     I
 2009-11-08-0856-18S.PLUR1_003                                                 6
 STAT SP IPHASW D HRMM SECON CODA AMPLIT PERI AZIMU VELO AIN AR TRES W  DIS CAZ7
 LG3  SZ E         856 28.80                   78.7 33.9      3        1.18 256 
 LG3  SN IP        856 28.84                             174    0.4510 1.18 256 
 LG3  SE IS        856 29.29                             174   -0.4510 1.18 256 
 LG3  SZ  AML      856 29.34        11.4 0.10                          1.18 256 
                                                                                
 2009 11 8 1241 50.0 L  21.243 -99.276 10.0  RAL  1 0.0 0.1LRAL                1
 GAP=360        0.34       9.0     6.7  0.0  0.6068E+02  0.1506E+06  0.1375E+06E
 ACTION:UPD 12-06-08 11:37 OP:RALL STATUS:               ID:20091108124150     I
 2009-11-08-1241-44S.PLUR1_003                                                 6
 STAT SP IPHASW D HRMM SECON CODA AMPLIT PERI AZIMU VELO AIN AR TRES W  DIS CAZ7
 LG3  SZ E        1241 52.01                  214.7 16.5      0        4.36  35 
 LG3  SN IP       1241 52.13                             157    0.1210 4.36  35 
 LG3  SE IS       1241 53.35                             157   -0.1210 4.36  35 
 LG3  SZ  AML     1241 53.67         6.8 0.30                          4.36  35 
                                                                                
 2009 11 8 2245 30.2 L  21.361 -99.367 10.0  RAL  1 0.0 0.2LRAL                1
 GAP=360        0.30       3.2     2.5  0.0 -0.7273E+01  0.1506E+06  0.1375E+06E
 ACTION:UPD 12-06-08 11:37 OP:RALL STATUS:               ID:20091108224530     I
 2009-11-08-2245-29S.PLUR1_003                                                 6
 STAT SP IPHASW D HRMM SECON CODA AMPLIT PERI AZIMU VELO AIN AR TRES W  DIS CAZ7
 LO8  SZ E        2245 35.02                  324.4 11.0      0        27.5 144 
 LO8  SN IP       2245 35.05                             106    0.0010 27.5 144 
 LO8  SE IS       2245 38.62                             106    0.0010 27.5 144 
 LO8  SZ  AML     2245 40.22         3.2 0.28                          27.5 144 
                                                                                
 2009 11 9 1055 58.4 L  21.276 -99.247 10.0  RAL  1 0.3 0.0LRAL                1
 GAP=360        3.13     999.9   999.9  0.0  0.3932E+11  0.1506E+06  0.1375E+06E
 ACTION:UPD 12-06-08 11:37 OP:RALL STATUS:               ID:20091109105558     I
 2009-11-09-1055-52S.PLUR1_003                                                 6
 STAT SP IPHASW D HRMM SECON CODA AMPLIT PERI AZIMU VELO AIN AR TRES W  DIS CAZ7
 LG3  SN IP       1056  0.74                             177    0.4410 0.60 270 
 LG3  SZ E        1056  0.74                   75.6 30.7    -14        0.60 270 
 LG3  SE IS       1056  1.22                             177   -0.4410 0.60 270 
 LG3  SZ  AML     1056  1.54         5.8 0.18                          0.60 270 
                                                                                
 2009 1112 0635  2.3 L  21.124 -99.209 10.0  RAL  1 0.0 0.6LRAL                1
 GAP=360        0.30       4.0     1.2  0.0 -0.4572E+01  0.1506E+06  0.1375E+06E
 ACTION:UPD 12-06-08 11:37 OP:RALL STATUS:               ID:20091112063502     I
 2009-11-12-0634-56S.PLUR1_003                                                 6
 STAT SP IPHASW D HRMM SECON CODA AMPLIT PERI AZIMU VELO AIN AR TRES W  DIS CAZ7
 LG3  SZ E         635  5.66                  165.1 10.6      0        17.4 345 
 LG3  SN IP        635  5.72                             118    0.0010 17.4 345 
 LG3  SE IS        635  8.21                             118    0.0010 17.4 345 
 LG3  SZ  AML      635  9.28        12.3 0.18                          17.4 345 
                                                                                
 2009 1112 0740 41.2 L  21.084 -99.709 10.0  RAL  1 0.0 1.4LRAL                1
 GAP=360        0.30       2.0     3.7  0.0  0.4840E+01  0.1506E+06  0.1375E+06E
 ACTION:UPD 12-06-08 11:37 OP:RALL STATUS:               ID:20091112074041     I
 2009-11-12-0740-40S.PLUR1_003                                                 6
 STAT SP IPHASW D HRMM SECON CODA AMPLIT PERI AZIMU VELO AIN AR TRES W  DIS CAZ7
 LG3  SN IP        740 49.83                              97    0.0110 51.9  66 
 LG3  SZ E         740 49.85                  246.0 18.7      0        51.9  66 
 LG3  SE IS        740 56.09                              97   -0.0110 51.9  66 
 LG3  SZ  AML      740 57.06        26.5 0.26                          51.9  66 
                                                                                
 2009 1112 1905 49.3 L  21.404 -99.343 10.0  RAL  1 0.2-0.2LRAL                1
 GAP=360        0.81      25.2    49.6  0.0 -0.1250E+04  0.1506E+06  0.1375E+06E
 ACTION:UPD 12-06-08 11:37 OP:RALL STATUS:               ID:20091112190549     I
 2009-11-12-1905-47S.PLUR1_003                                                 6
 STAT SP IPHASW D HRMM SECON CODA AMPLIT PERI AZIMU VELO AIN AR TRES W  DIS CAZ7
 LT7  SZ E        19 5 51.59                  298.6 16.0      0        1.96 119 
 LT7  SN IP       19 5 51.62                             169    0.5110 1.96 119 
 LT7  SE IS       19 5 51.92                             169   -0.5110 1.96 119 
 LT7  SZ  AML     19 5 52.08         3.2 0.20                          1.96 119 
                                                                                
 2009 1115 1949 35.8 L  21.535 -99.274 10.0  RAL  1 0.0 0.7LRAL                1
 GAP=360        0.30       3.7     1.3  0.0 -0.2049E+01  0.1506E+06  0.1375E+06E
 ACTION:UPD 12-06-08 11:37 OP:RALL STATUS:               ID:20091115194935     I
 2009-11-15-1949-38S.PLUR1_003                                                 6
 STAT SP IPHASW D HRMM SECON CODA AMPLIT PERI AZIMU VELO AIN AR TRES W  DIS CAZ7
 LO8  SZ E        1949 42.54                  351.4 10.8      0        42.0 171 
 LO8  SN IP       1949 42.87                              99    0.0110 42.0 171 
 LO8  SE IS       1949 48.04                              99   -0.0110 42.0 171 
 LO8  SZ  AML     1949 48.96         6.7 0.30                          42.0 171 
                                                                                
 2009 1115 2032 36.5 L  20.891 -98.835 10.0  RAL  1 0.0 0.4LRAL                1
 GAP=360        0.30       2.5     3.3  0.0 -0.6359E+01  0.1506E+06  0.1375E+06E
 ACTION:UPD 12-06-08 11:37 OP:RALL STATUS:               ID:20091115203236     I
 2009-11-15-2032-39S.PLUR1_006                                                 6
 STAT SP IPHASW D HRMM SECON CODA AMPLIT PERI AZIMU VELO AIN AR TRES W  DIS CAZ7
 LO8  SZ E        2032 44.69                  127.1  6.5      0        49.3 307 
 LO8  SN IP       2032 44.69                              98    0.0210 49.3 307 
 LO8  SE IS       2032 50.66                              98   -0.0210 49.3 307 
 LO8  SZ  AML     2032 53.40         3.1 0.36                          49.3 307 
                                                                                
 2009 1115 2135 45.5 L  21.520 -99.226 10.0  RAL  1 0.0 0.3LRAL                1
 GAP=360        0.30       3.8     1.1  0.0 -0.4653E+00  0.1506E+06  0.1375E+06E
 ACTION:UPD 12-06-08 11:37 OP:RALL STATUS:               ID:20091115213545     I
 2009-11-15-2135-47S.PLUR1_003                                                 6
 STAT SP IPHASW D HRMM SECON CODA AMPLIT PERI AZIMU VELO AIN AR TRES W  DIS CAZ7
 LO8  SZ E        2135 52.29                  358.1 14.6      0        40.0 178 
 LO8  SN IP       2135 52.30                             100    0.0110 40.0 178 
 LO8  SE IS       2135 57.24                             100   -0.0110 40.0 178 
 LO8  SZ  AML     2135 58.86         2.7 0.52                          40.0 178 
                                                                                
 2009 1119 1845 46.1 L  21.132 -99.550 10.0  RAL  1 0.0 0.4LRAL                1
 GAP=360        0.30       1.0     4.0  0.0  0.1255E+01  0.1506E+06  0.1375E+06E
 ACTION:UPD 12-06-08 11:37 OP:RALL STATUS:               ID:20091119184546     I
 2009-11-19-1845-42S.PLUR1_003                                                 6
 STAT SP IPHASW D HRMM SECON CODA AMPLIT PERI AZIMU VELO AIN AR TRES W  DIS CAZ7
 LO8  SZ E        1845 52.01                  265.1  7.1      0        35.1  85 
 LO8  SN IP       1845 52.20                             102    0.0110 35.1  85 
 LO8  SE IS       1845 56.60                             102   -0.0110 35.1  85 
 LO8  SZ  AML     1845 57.66         4.5 0.28                          35.1  85 
                                                                                
 2009 1120 1843 37.7 L  21.381 -99.304 10.0  RAL  1 0.1-0.3LRAL                1
 GAP=360        0.57      14.7    22.7  0.0 -0.3338E+03  0.1506E+06  0.1375E+06E
 ACTION:UPD 12-06-08 11:37 OP:RALL STATUS:               ID:20091120184337     I
 2009-11-20-1843-35S.PLUR1_003                                                 6
 STAT SP IPHASW D HRMM SECON CODA AMPLIT PERI AZIMU VELO AIN AR TRES W  DIS CAZ7
 LT7  SN IP       1843 39.91                             164    0.3310 2.85 305 
 LT7  SZ E        1843 39.92                  124.7 13.6      0        2.85 305 
 LT7  SE IS       1843 40.60                             164   -0.3310 2.85 305 
 LT7  SZ  AML     1843 40.84         2.7 0.20                          2.85 305 
                                                                                
 2009 1127 0702  7.8 L  21.260 -99.228 10.0  RAL  1 0.1-0.4LRAL                1
 GAP=360        0.46      11.4    18.1  0.0 -0.2054E+03  0.1506E+06  0.1375E+06E
 ACTION:UPD 12-06-08 11:37 OP:RALL STATUS:               ID:20091127070207     I
 2009-11-27-0702-01S.PLUR1_003                                                 6
 STAT SP IPHASW D HRMM SECON CODA AMPLIT PERI AZIMU VELO AIN AR TRES W  DIS CAZ7
 LG3  SN IP        7 2 10.00                             163    0.2410 3.08 304 
 LG3  SZ E         7 2 10.01                  123.9 27.7      0        3.08 304 
 LG3  SE IS        7 2 10.92                             163   -0.2410 3.08 304 
 LG3  SZ  AML      7 2 10.97         2.0 0.20                          3.08 304 
                                                                                
 2009 1127 1532 42.8 L  20.949 -99.601 10.0  RAL  3 1.6 1.0LRAL                1
 GAP=330       21.44     154.6   182.4999.9  0.2503E+05  0.3539E+06  0.2859E+06E
 ACTION:UPD 12-06-08 11:37 OP:RALL STATUS:               ID:20091127153242     I
 2009-11-27-1532-45S.PLUR1_009                                                 6
 STAT SP IPHASW D HRMM SECON CODA AMPLIT PERI AZIMU VELO AIN AR TRES W  DIS CAZ7
 LO8  SZ E        1532 54.92                  126.9  6.5    -99        46.6  60 
 LO8  SN IP       1532 54.93                              96    4.3310 46.6  60 
 LO8  SE IS       1532 58.25                              96    1.9510 46.6  60 
 LO8  SZ  AML     1533  2.18         2.8 0.50                          46.6  60 
 LG3  SZ E        1532 53.02                  215.7 13.9     -8        51.2  45 
 LG3  SN IP       1532 53.13                              95    1.8410 51.2  45 
 LG3  SE IS       1532 54.52                              95   -2.9710 51.2  45 
 LG3  SZ  AML     1532 55.43        57.2 0.20                          51.2  45 
 LT7  SN IP       1532 52.10                              95   -0.0610 57.1  30 
 LT7  SZ E        1532 52.11                  179.3  8.2    -30        57.1  30 
 LT7  SE IS       1532 53.89                              95   -5.1110 57.1  30 
 LT7  SZ  AML     1532 55.19         7.6 0.72                          57.1  30 
                                                                                
 2009 1127 1809 45.8 L  21.323 -99.314 10.0  RAL  1 0.0 0.3LRAL                1
 GAP=360        0.30       5.7     1.0  0.0 -0.5675E+01  0.3539E+06  0.2859E+06E
 ACTION:UPD 12-06-08 11:37 OP:RALL STATUS:               ID:20091127180945     I
 2009-11-27-1809-44S.PLUR1_003                                                 6
 STAT SP IPHASW D HRMM SECON CODA AMPLIT PERI AZIMU VELO AIN AR TRES W  DIS CAZ7
 LT7  SN IP       18 9 48.06                             140    0.0110 8.14 351 
 LT7  SZ E        18 9 48.07                  170.7  7.2      0        8.14 351 
 LT7  SE IS       18 9 49.67                             140   -0.0110 8.14 351 
 LT7  SZ  AML     18 9 51.22         8.6 0.34                          8.14 351 
                                                                                
 2009 1129 1622 45.9 L  22.166 -98.407 20.8  RAL  2 1.7 1.8LRAL                1
 GAP=349       25.04     999.9   999.9999.9  0.2339E+07  0.4890E+07  0.4851E+07E
 ACTION:UPD 12-06-08 11:37 OP:RALL STATUS:               ID:20091129162245     I
 2009-11-29-1622-59S.PLUR1_006                                                 6
 STAT SP IPHASW D HRMM SECON CODA AMPLIT PERI AZIMU VELO AIN AR TRES W  DIS CAZ7
 LT7  SZ E        1623  4.06                  332.1  8.5     76         128 228 
 LT7  SN IP       1623  4.12                              57   -1.0410  128 228 
 LT7  SE IS       1623 15.65                              57   -3.5710  128 228 
 LT7  SZ  AML     1623 18.32        29.1 0.38                           128 228 
 LO8  SZ E        1623  8.05                  129.8  7.6     93         139 217 
 LO8  SN IP       1623  8.89                              57    2.2510  139 217 
 LO8  SE IS       1623 24.13                              57    2.3610  139 217 
 LO8  SZ  AML     1623 28.47        26.2 0.38                           139 217 
                                                                                
 2009 1130 2042 16.8 L  21.393 -99.320 10.0  RAL  1 0.3 0.1LRAL                1
 GAP=360        1.89     273.5   505.9  0.0  0.1383E+06  0.4890E+07  0.4851E+07E
 ACTION:UPD 12-06-08 11:37 OP:RALL STATUS:               ID:20091130204216     I
 2009-11-30-2042-14S.PLUR1_003                                                 6
 STAT SP IPHASW D HRMM SECON CODA AMPLIT PERI AZIMU VELO AIN AR TRES W  DIS CAZ7
 LT7  SZ E        2042 19.13                  103.1 15.5     -7        0.69 291 
 LT7  SN IP       2042 19.16                             176    0.5810 0.69 291 
 LT7  SZ  AML     2042 19.25         7.3 0.36                          0.69 291 
 LT7  SE IS       2042 19.29                             176   -0.5810 0.69 291 
                                                                                
