 2009  4 6 2303 19.7 L  21.545 -99.383 10.0  RAL  1 0.0 0.2LRAL                1
 GAP=360        0.30       3.4     4.1  0.0 -0.1408E+02 -0.1000E+02  0.1344E+01E
 ACTION:UPD 12-06-08 11:37 OP:RALL STATUS:               ID:20090406230319     I
 2009-04-06-2303-09S.PLUR1_003                                                 6
 STAT SP IPHASW D HRMM SECON CODA AMPLIT PERI AZIMU VELO AIN AR TRES W  DIS CAZ7
 LA4  SN IP       23 3 22.27                             134    0.0210 10.3 131 
 LA4  SZ E        23 3 22.29                  311.5  7.9      0        10.3 131 
 LA4  SE IS       23 3 24.07                             134   -0.0210 10.3 131 
 LA4  SZ  AML     23 3 24.44         5.7 0.22                          10.3 131 
                                                                                
 2009  4 7 0148 19.1 L  21.508 -99.171 10.0  RAL  1 0.0 0.3LRAL                1
 GAP=360        0.30       0.9     4.6  0.0  0.3785E+01 -0.1000E+02  0.1344E+01E
 ACTION:UPD 12-06-08 11:37 OP:RALL STATUS:               ID:20090407014819     I
 2009-04-07-0148-09S.PLUR1_003                                                 6
 STAT SP IPHASW D HRMM SECON CODA AMPLIT PERI AZIMU VELO AIN AR TRES W  DIS CAZ7
 LA4  SZ E         148 22.08                   79.2  5.5      0        14.5 259 
 LA4  SN IP        148 22.09                             123    0.0010 14.5 259 
 LA4  SE IS        148 24.30                             123    0.0010 14.5 259 
 LA4  SZ  AML      148 24.73         6.5 0.18                          14.5 259 
                                                                                
 2009  4 7 1027  5.8 L  21.321 -99.268 10.0  RAL  1 0.0-0.1LRAL                1
 GAP=360        0.34     374.2   999.9  0.0  0.1224E+07 -0.1000E+02  0.1344E+01E
 ACTION:UPD 12-06-08 11:37 OP:RALL STATUS:               ID:20090407102705     I
 2009-04-07-1026-59S.PLUR1_003                                                 6
 STAT SP IPHASW D HRMM SECON CODA AMPLIT PERI AZIMU VELO AIN AR TRES W  DIS CAZ7
 LZ4  SZ E        1027  7.73                  172.4 25.5      0        1.12 352 
 LZ4  SN IP       1027  7.74                             174    0.1110 1.12 352 
 LZ4  SE IS       1027  8.86                             174   -0.1110 1.12 352 
 LZ4  SZ  AML     1027  9.17         4.3 0.50                          1.12 352 
                                                                                
 2009  4 7 1038 17.4 L  21.334 -99.281 10.0  RAL  1 0.1 1.0LRAL                1
 GAP=360        0.64     999.9   999.9  0.0  0.6192E+07 -0.1000E+02  0.1344E+01E
 ACTION:UPD 12-06-08 11:37 OP:RALL STATUS:               ID:20090407103817     I
 2009-04-07-1038-10S.PLUR1_003                                                 6
 STAT SP IPHASW D HRMM SECON CODA AMPLIT PERI AZIMU VELO AIN AR TRES W  DIS CAZ7
 LZ4  SZ E        1038 19.62                  286.0 31.6      0        1.23 106 
 LZ4  SN IP       1038 19.66                             173    0.3810 1.23 106 
 LZ4  SE IS       1038 20.24                             173   -0.3810 1.23 106 
 LZ4  SZ  AML     1038 20.54        59.7 0.16                          1.23 106 
                                                                                
 2009  4 7 1112 45.8 L  21.245 -99.265 10.0  RAL  1 0.0 0.2LRAL                1
 GAP=360        0.34      12.2     4.9  0.0  0.6038E+02 -0.1000E+02  0.1344E+01E
 ACTION:UPD 12-06-08 11:37 OP:RALL STATUS:               ID:20090407111245     I
 2009-04-07-1112-39S.PLUR1_003                                                 6
 STAT SP IPHASW D HRMM SECON CODA AMPLIT PERI AZIMU VELO AIN AR TRES W  DIS CAZ7
 LG3  SZ E        1112 47.76                  200.6 13.6      0        3.57  21 
 LG3  SN IP       1112 47.84                             161    0.1110 3.57  21 
 LG3  SE IS       1112 49.03                             161   -0.1110 3.57  21 
 LG3  SZ  AML     1112 49.28         9.3 0.48                          3.57  21 
                                                                                
 2009  4 7 1136 29.1 L  21.608 -99.292 10.0  RAL  1 0.0 0.3LRAL                1
 GAP=360        0.30       4.4     0.7  0.0  0.2661E+01 -0.1000E+02  0.1344E+01E
 ACTION:UPD 12-06-08 11:37 OP:RALL STATUS:               ID:20090407113629     I
 2009-04-07-1136-19S.PLUR1_003                                                 6
 STAT SP IPHASW D HRMM SECON CODA AMPLIT PERI AZIMU VELO AIN AR TRES W  DIS CAZ7
 LA4  SN IP       1136 32.08                             124    0.0010 13.9 187 
 LA4  SZ E        1136 32.09                    7.2  8.7      0        13.9 187 
 LA4  SE IS       1136 34.23                             124    0.0010 13.9 187 
 LA4  SZ  AML     1136 34.57         7.6 0.10                          13.9 187 
                                                                                
 2009  4 7 1326 19.4 L  21.345 -99.301 10.0  RAL  1 0.0 0.3LRAL                1
 GAP=360        0.35       5.7    12.6  0.0 -0.7248E+02 -0.1000E+02  0.1344E+01E
 ACTION:UPD 12-06-08 11:37 OP:RALL STATUS:               ID:20090407132619     I
 2009-04-07-1326-13S.PLUR1_003                                                 6
 STAT SP IPHASW D HRMM SECON CODA AMPLIT PERI AZIMU VELO AIN AR TRES W  DIS CAZ7
 LZ4  SZ E        1326 21.36                  296.0 36.7      0        3.60 116 
 LZ4  SN IP       1326 21.40                             161    0.1210 3.60 116 
 LZ4  SE IS       1326 22.56                             161   -0.1210 3.60 116 
 LZ4  SZ  AML     1326 22.93        10.4 0.44                          3.60 116 
                                                                                
 2009  4 7 2002 49.2 L  22.130 -98.910 10.0  RAL  1 0.0 0.9LRAL                1
 GAP=360        0.30       3.4     2.8  0.0  0.4295E+01 -0.1000E+02  0.1344E+01E
 ACTION:UPD 12-06-08 11:37 OP:RALL STATUS:               ID:20090407200249     I
 2009-04-07-2002-49S.PLUR1_003                                                 6
 STAT SP IPHASW D HRMM SECON CODA AMPLIT PERI AZIMU VELO AIN AR TRES W  DIS CAZ7
 LA4  SZ E        20 3  2.22                   29.9 18.1      0        82.6 210 
 LA4  SN IP       20 3  2.57                              94    0.0110 82.6 210 
 LA4  SE IS       20 3 12.29                              94   -0.0110 82.6 210 
 LA4  SZ  AML     20 3 12.81         5.5 0.30                          82.6 210 
                                                                                
 2009  4 7 2041 11.3 L  21.331 -99.274 10.0  RAL  1 0.1 0.7LRAL                1
 GAP=360        0.40     999.9   999.9  0.0 -0.7552E+08 -0.1000E+02  0.1344E+01E
 ACTION:UPD 12-06-08 11:37 OP:RALL STATUS:               ID:20090407204111     I
 2009-04-07-2041-04S.PLUR1_003                                                 6
 STAT SP IPHASW D HRMM SECON CODA AMPLIT PERI AZIMU VELO AIN AR TRES W  DIS CAZ7
 LZ4  SZ E        2041 13.17                  267.5 24.8      0        0.46  88 
 LZ4  SN IP       2041 13.27                             177    0.1810 0.46  88 
 LZ4  SE IS       2041 14.25                             177   -0.1810 0.46  88 
 LZ4  SZ  AML     2041 15.82        28.6 0.28                          0.46  88 
                                                                                
 2009  4 7 2242 50.7 L  21.309 -99.250 10.0  RAL  1 0.1 0.7LRAL                1
 GAP=360        0.56      18.7    16.5  0.0 -0.3081E+03 -0.1000E+02  0.1344E+01E
 ACTION:UPD 12-06-08 11:37 OP:RALL STATUS:               ID:20090407224250     I
 2009-04-07-2242-43S.PLUR1_003                                                 6
 STAT SP IPHASW D HRMM SECON CODA AMPLIT PERI AZIMU VELO AIN AR TRES W  DIS CAZ7
 LZ4  SZ E        2242 52.94                  140.5 11.7      0        3.13 321 
 LZ4  SN IP       2242 52.95                             163    0.3210 3.13 321 
 LZ4  SE IS       2242 53.69                             163   -0.3210 3.13 321 
 LZ4  SZ  AML     2242 53.96        24.2 0.22                          3.13 321 
                                                                                
 2009  4 8 0353 31.0 L  21.445 -99.314 10.0  RAL  1 0.0 0.6LRAL                1
 GAP=360        0.30       4.3     1.7  0.0 -0.7019E+01 -0.1000E+02  0.1344E+01E
 ACTION:UPD 12-06-08 11:37 OP:RALL STATUS:               ID:20090408035331     I
 2009-04-08-0353-27S.PLUR1_003                                                 6
 STAT SP IPHASW D HRMM SECON CODA AMPLIT PERI AZIMU VELO AIN AR TRES W  DIS CAZ7
 LZ4  SZ E         353 33.91                  340.0 33.7      0        13.4 160 
 LZ4  SN IP        353 33.93                             125    0.0110 13.4 160 
 LZ4  SE IS        353 36.02                             125   -0.0110 13.4 160 
 LZ4  SZ  AML      353 36.61        12.8 0.72                          13.4 160 
                                                                                
 2009  4 8 0525 30.4 L  21.335 -99.282 10.0  RAL  1 0.2 0.6LRAL                1
 GAP=360        0.93     999.9   999.9  0.0  0.5269E+07 -0.1000E+02  0.1344E+01E
 ACTION:UPD 12-06-08 11:37 OP:RALL STATUS:               ID:20090408052530     I
 2009-04-08-0525-23S.PLUR1_003                                                 6
 STAT SP IPHASW D HRMM SECON CODA AMPLIT PERI AZIMU VELO AIN AR TRES W  DIS CAZ7
 LZ4  SN IP        525 32.83                             173    0.6010 1.34 111 
 LZ4  SZ E         525 32.84                  291.5  6.2      0        1.34 111 
 LZ4  SE IS        525 32.98                             173   -0.6010 1.34 111 
 LZ4  SZ  AML      525 33.03        23.2 0.14                          1.34 111 
                                                                                
 2009  4 8 0602  5.6 L  21.325 -99.291 10.0  RAL  1 0.1 0.2LRAL                1
 GAP=360        0.40       6.7    22.9  0.0  0.1535E+03 -0.1000E+02  0.1344E+01E
 ACTION:UPD 12-06-08 11:37 OP:RALL STATUS:               ID:20090408060205     I
 2009-04-08-0601-59S.PLUR1_003                                                 6
 STAT SP IPHASW D HRMM SECON CODA AMPLIT PERI AZIMU VELO AIN AR TRES W  DIS CAZ7
 LZ4  SN IP        6 2  7.60                             167    0.1810 2.33  73 
 LZ4  SZ E         6 2  7.64                  252.6 24.7      0        2.33  73 
 LZ4  SE IS        6 2  8.61                             167   -0.1810 2.33  73 
 LZ4  SZ  AML      6 2 10.15         8.3 0.54                          2.33  73 
                                                                                
 2009  4 8 0719 28.6 L  21.312 -99.280 10.0  RAL  1 0.1 0.3LRAL                1
 GAP=360        0.61      30.2    17.8  0.0  0.5368E+03 -0.1000E+02  0.1344E+01E
 ACTION:UPD 12-06-08 11:37 OP:RALL STATUS:               ID:20090408071928     I
 2009-04-08-0719-22S.PLUR1_003                                                 6
 STAT SP IPHASW D HRMM SECON CODA AMPLIT PERI AZIMU VELO AIN AR TRES W  DIS CAZ7
 LZ4  SZ E         719 30.77                  208.8 24.4      0        2.33  29 
 LZ4  SN IP        719 30.80                             167    0.3610 2.33  29 
 LZ4  SE IS        719 31.45                             167   -0.3610 2.33  29 
 LZ4  SZ  AML      719 32.86        10.1 0.52                          2.33  29 
                                                                                
 2009  4 8 1345 10.7 L  21.466 -99.393 10.0  RAL  1 0.0 0.8LRAL                1
 GAP=360        0.30       3.1     2.9  0.0 -0.8524E+01 -0.1000E+02  0.1344E+01E
 ACTION:UPD 12-06-08 11:37 OP:RALL STATUS:               ID:20090408134510     I
 2009-04-08-1345-07S.PLUR1_003                                                 6
 STAT SP IPHASW D HRMM SECON CODA AMPLIT PERI AZIMU VELO AIN AR TRES W  DIS CAZ7
 LZ4  SN IP       1345 14.41                             114    0.0110 19.7 139 
 LZ4  SZ E        1345 14.42                  319.5 13.1      0        19.7 139 
 LZ4  SE IS       1345 17.12                             114   -0.0110 19.7 139 
 LZ4  SZ  AML     1345 18.01        17.5 0.16                          19.7 139 
                                                                                
 2009  4 8 1421 59.4 L  21.279 -99.336 10.0  RAL  1 0.0 0.2LRAL                1
 GAP=360        0.30       3.9     0.8  0.0  0.1976E+01 -0.1000E+02  0.1344E+01E
 ACTION:UPD 12-06-08 11:37 OP:RALL STATUS:               ID:20090408142159     I
 2009-04-08-1421-52S.PLUR1_003                                                 6
 STAT SP IPHASW D HRMM SECON CODA AMPLIT PERI AZIMU VELO AIN AR TRES W  DIS CAZ7
 LA4  SZ E        1422  3.53                  187.0 11.8      0        22.8   7 
 LA4  SN IP       1422  3.57                             110    0.0110 22.8   7 
 LA4  SE IS       1422  6.60                             110   -0.0110 22.8   7 
 LA4  SZ  AML     1422  6.70         4.0 0.18                          22.8   7 
                                                                                
 2009  4 9  230  5.5 L                       RAL  0                            1
 ACTION:UPD 12-06-08 11:37 OP:RALL STATUS:               ID:20090409023005     I
 2009-04-09-0230-05S.PLUR1_003                                                 6
 STAT SP IPHASW D HRMM SECON CODA AMPLIT PERI AZIMU VELO AIN AR TRES W  DIS CAZ7
                                                                                
 2009  4 9 0325 58.0 L  21.246 -99.236 10.0  RAL  1 0.0 0.4LRAL                1
 GAP=360        0.30       4.9     1.9  0.0 -0.9317E+01 -0.1000E+02  0.1344E+01E
 ACTION:UPD 12-06-08 11:37 OP:RALL STATUS:               ID:20090409032558     I
 2009-04-09-0325-52S.PLUR1_003                                                 6
 STAT SP IPHASW D HRMM SECON CODA AMPLIT PERI AZIMU VELO AIN AR TRES W  DIS CAZ7
 LZ4  SZ E         326  0.48                  159.9 13.7      0        10.0 340 
 LZ4  SN IP        326  0.51                             134    0.0210 10.0 340 
 LZ4  SE IS        326  2.28                             134   -0.0210 10.0 340 
 LZ4  SZ  AML      326  2.64         9.6 0.28                          10.0 340 
                                                                                
 2009  4 9 0508 22.9 L  21.323 -99.304 10.0  RAL  1 0.0 0.1LRAL                1
 GAP=360        0.30       2.5    11.6  0.0  0.2901E+02 -0.1000E+02  0.1344E+01E
 ACTION:UPD 12-06-08 11:37 OP:RALL STATUS:               ID:20090409050822     I
 2009-04-09-0508-16S.PLUR1_003                                                 6
 STAT SP IPHASW D HRMM SECON CODA AMPLIT PERI AZIMU VELO AIN AR TRES W  DIS CAZ7
 LZ4  SZ IP        5 8 24.85                             160    0.0310 3.68  77 
 LZ4  SN E         5 8 24.94                  256.9 37.8      0        3.68  77 
 LZ4  SE IS        5 8 26.20                             160   -0.0310 3.68  77 
 LZ4  SN  AML      5 8 26.63         6.9 0.14                          3.68  77 
                                                                                
 2009  4 9 1102 43.1 L  21.183 -99.260 10.0  RAL  1 0.0 0.3LRAL                1
 GAP=360        0.30       4.2     0.5  0.0 -0.1108E+01 -0.1000E+02  0.1344E+01E
 ACTION:UPD 12-06-08 11:37 OP:RALL STATUS:               ID:20090409110243     I
 2009-04-09-1102-39S.PLUR1_003                                                 6
 STAT SP IPHASW D HRMM SECON CODA AMPLIT PERI AZIMU VELO AIN AR TRES W  DIS CAZ7
 LZ4  SZ E        11 2 46.42                  176.7 48.2      0        16.4 357 
 LZ4  SN IP       11 2 46.43                             119    0.0210 16.4 357 
 LZ4  SE IS       11 2 48.77                             119   -0.0210 16.4 357 
 LZ4  SZ  AML     11 2 48.88         5.5 0.16                          16.4 357 
                                                                                
 2009  4 9 2319 20.5 L  21.269 -99.245 10.0  RAL  1 0.0 1.4LRAL                1
 GAP=360        0.30       5.9     2.4  0.0 -0.1391E+02 -0.1000E+02  0.1344E+01E
 ACTION:UPD 12-06-08 11:37 OP:RALL STATUS:               ID:20090409231920     I
 2009-04-09-2319-13S.PLUR1_003                                                 6
 STAT SP IPHASW D HRMM SECON CODA AMPLIT PERI AZIMU VELO AIN AR TRES W  DIS CAZ7
 LZ4  SZ E        2319 22.72                  159.6 13.2      0        7.33 340 
 LZ4  SN IP       2319 22.76                             144    0.0210 7.33 340 
 LZ4  SE IS       2319 24.33                             144   -0.0210 7.33 340 
 LZ4  SZ  AML     2319 26.26       118.0 0.24                          7.33 340 
                                                                                
 2009  4 9 2358 59.2 L  21.224 -98.946 10.0  RAL  2 1.0 1.1LRAL                1
 GAP=335       13.43      26.7   122.3609.4  0.9849E+03 -0.4888E+05 -0.3924E+04E
 ACTION:UPD 12-06-08 11:37 OP:RALL STATUS:               ID:20090409235859     I
 2009-04-09-2358-56S.PLUR1_006                                                 6
 STAT SP IPHASW D HRMM SECON CODA AMPLIT PERI AZIMU VELO AIN AR TRES W  DIS CAZ7
 LO8  SN IP       2359  6.34                             105    2.0410 28.7 256 
 LO8  SZ E        2359  6.35                  138.8  6.4     63        28.7 256 
 LO8  SE IS       2359  8.45                             105    0.4510 28.7 256 
 LO8  SZ  AML     2359  9.66         2.9 0.32                          28.7 256 
 LG3  SZ E        2359  5.14                   95.8 18.8     -3        32.4 280 
 LG3  SN IP       2359  5.17                             103    0.3310 32.4 280 
 LG3  SE IS       2359  6.11                             103   -2.8210 32.4 280 
 LG3  SZ  AML     2359  6.15       212.5 0.14                          32.4 280 
                                                                                
 2009  410 0545 17.0 L  21.355 -99.388 10.0  RAL  1 0.0                        1
 GAP=360        0.30       1.0     4.9  0.0 -0.4693E+01 -0.4888E+05 -0.3924E+04E
 ACTION:UPD 12-06-08 11:37 OP:RALL STATUS:               ID:20090410054517     I
 2009-04-10-0545-12S.PLUR1_003                                                 6
 STAT SP IPHASW D HRMM SECON CODA AMPLIT PERI AZIMU VELO AIN AR TRES W  DIS CAZ7
 LZ4  SZ E         545 19.71                  282.1 19.7      0        12.6 102 
 LZ4  SN IP        545 19.76                             127    0.0010 12.6 102 
 LZ4  SE IS        545 21.78                             127    0.0010 12.6 102 
                                                                                
 2009  410 0601 44.6 L  21.344 -99.269 10.0  RAL  1 0.1 0.9LRAL                1
 GAP=360        0.57      22.5   999.9  0.0  0.2859E+05 -0.4888E+05 -0.3924E+04E
 ACTION:UPD 12-06-08 11:37 OP:RALL STATUS:               ID:20090410060144     I
 2009-04-10-0601-37S.PLUR1_003                                                 6
 STAT SP IPHASW D HRMM SECON CODA AMPLIT PERI AZIMU VELO AIN AR TRES W  DIS CAZ7
 LZ4  SZ E         6 1 46.74                    0.6 11.3      0        1.40 181 
 LZ4  SN IP        6 1 46.74                             172    0.3210 1.40 181 
 LZ4  SE IS        6 1 47.44                             172   -0.3210 1.40 181 
 LZ4  SZ  AML      6 1 48.35        48.9 0.18                          1.40 181 
                                                                                
