 2009  415 0825 15.5 L  21.514 -99.229 10.0  RAL  1 0.0 0.9LRAL                1
 GAP=360        0.30       3.9     1.0  0.0  0.3418E+01 -0.7358E+01  0.4844E+01E
 ACTION:UPD 12-06-08 11:37 OP:RALL STATUS:               ID:20090415082515     I
 2009-04-15-0825-10S.PLUR1_003                                                 6
 STAT SP IPHASW D HRMM SECON CODA AMPLIT PERI AZIMU VELO AIN AR TRES W  DIS CAZ7
 LZ4  SZ E         825 19.41                   11.8 10.1      0        20.7 192 
 LZ4  SN IP        825 19.42                             112    0.0210 20.7 192 
 LZ4  SE IS        825 22.21                             112   -0.0210 20.7 192 
 LZ4  SZ  AML      825 22.74        22.5 0.30                          20.7 192 
                                                                                
 2009  415 1117 20.1 L  21.284 -99.217 10.0  RAL  1 0.0 0.5LRAL                1
 GAP=360        0.30       4.3     4.9  0.0 -0.2076E+02 -0.7358E+01  0.4844E+01E
 ACTION:UPD 12-06-08 11:37 OP:RALL STATUS:               ID:20090415111720     I
 2009-04-15-1117-14S.PLUR1_003                                                 6
 STAT SP IPHASW D HRMM SECON CODA AMPLIT PERI AZIMU VELO AIN AR TRES W  DIS CAZ7
 LZ4  SN IP       1117 22.38                             143    0.0310 7.52 313 
 LZ4  SZ E        1117 22.39                  133.1 16.0      0        7.52 313 
 LZ4  SE IS       1117 23.94                             143   -0.0310 7.52 313 
 LZ4  SZ  AML     1117 24.39        14.2 0.28                          7.52 313 
                                                                                
 2009  415 1208 30.5 L  21.264 -99.238  3.0  RAL  1 0.0 0.4LRAL                1
 GAP=360        0.28       3.9     4.8  0.0 -0.1884E+02  0.8231E-02 -0.7668E-02E
 ACTION:UPD 12-06-08 11:37 OP:RALL STATUS:               ID:20090415120830     I
 2009-04-15-1208-22S.PLUR1_003                                                 6
 STAT SP IPHASW D HRMM SECON CODA AMPLIT PERI AZIMU VELO AIN AR TRES W  DIS CAZ7
 LG3  SN IP       12 8 31.29                             154   -0.0310 2.04 311 
 LG3  SZ E        12 8 31.34                  130.7 11.3      0        2.04 311 
 LG3  SZ IP       12 8 31.34                             154    0.0210 2.04 311 
 LG3  SE IS       12 8 31.91                             154    0.0110 2.04 311 
 LG3  SZ  AML     12 8 31.99        32.7 0.20                          2.04 311 
                                                                                
 2009  415 1329 52.6 L  21.726 -99.465 10.0  RAL  1 0.0 1.4LRAL                1
 GAP=360        0.30       3.3     2.2  0.0 -0.6629E+01  0.8231E-02 -0.7668E-02E
 ACTION:UPD 12-06-08 11:37 OP:RALL STATUS:               ID:20090415132952     I
 2009-04-15-1329-43S.PLUR1_003                                                 6
 STAT SP IPHASW D HRMM SECON CODA AMPLIT PERI AZIMU VELO AIN AR TRES W  DIS CAZ7
 LA4  SZ E        1329 58.00                  329.0 10.2      0        31.3 149 
 LA4  SN IP       1329 58.06                             104    0.0210 31.3 149 
 LA4  SE IS       1330  1.99                             104   -0.0210 31.3 149 
 LA4  SZ  AML     1330  3.17        46.3 0.56                          31.3 149 
                                                                                
 2009  415 2227 49.8 L  21.277 -99.274 10.0  RAL  1 0.0 0.4LRAL                1
 GAP=360        0.30       7.3     0.7  0.0  0.4685E+01  0.8231E-02 -0.7668E-02E
 ACTION:UPD 12-06-08 11:37 OP:RALL STATUS:               ID:20090415222749     I
 2009-04-15-2227-44S.PLUR1_003                                                 6
 STAT SP IPHASW D HRMM SECON CODA AMPLIT PERI AZIMU VELO AIN AR TRES W  DIS CAZ7
 LZ4  SZ E        2227 51.78                  184.7 13.4      0        5.95   5 
 LZ4  SN IP       2227 51.89                             150    0.0110 5.95   5 
 LZ4  SZ  AML     2227 53.23        11.1 0.60                          5.95   5 
 LZ4  SE IS       2227 53.39                             150   -0.0110 5.95   5 
                                                                                
 2009  415 2251  8.1 L  21.290 -99.205 10.0  RAL  1 0.0 0.7LRAL                1
 GAP=360        0.30       3.3     5.3  0.0 -0.1733E+02  0.8231E-02 -0.7668E-02E
 ACTION:UPD 12-06-08 11:37 OP:RALL STATUS:               ID:20090415225108     I
 2009-04-15-2251-02S.PLUR1_003                                                 6
 STAT SP IPHASW D HRMM SECON CODA AMPLIT PERI AZIMU VELO AIN AR TRES W  DIS CAZ7
 LZ4  SN IP       2251 10.35                             141    0.0210 8.07 304 
 LZ4  SZ E        2251 10.36                  123.9 18.0      0        8.07 304 
 LZ4  SE IS       2251 11.97                             141   -0.0210 8.07 304 
 LZ4  SZ  AML     2251 12.00        22.3 0.10                          8.07 304 
                                                                                
 2009  415 2343 17.5 L  21.252 -99.232 10.0  RAL  1 0.1 0.7LRAL                1
 GAP=360        0.47      14.6    12.9  0.0 -0.1881E+03  0.8231E-02 -0.7668E-02E
 ACTION:UPD 12-06-08 11:37 OP:RALL STATUS:               ID:20090415234317     I
 2009-04-15-2343-11S.PLUR1_003                                                 6
 STAT SP IPHASW D HRMM SECON CODA AMPLIT PERI AZIMU VELO AIN AR TRES W  DIS CAZ7
 LG3  SN IP       2343 19.69                             162    0.2510 3.38 320 
 LG3  SZ E        2343 19.72                  140.4 16.7      0        3.38 320 
 LG3  SE IS       2343 20.61                             162   -0.2510 3.38 320 
 LG3  SZ  AML     2343 20.95        29.0 0.22                          3.38 320 
                                                                                
 2009  416 0023 19.9 L  21.481 -99.393 28.7  RAL  3 1.8 1.9LRAL                1
 GAP=296       32.77      24.5    79.4253.5 -0.1349E+03  0.8384E+03  0.2952E+03E
 ACTION:UPD 12-06-08 11:37 OP:RALL STATUS:               ID:20090416002319     I
 2009-04-16-0023-10S.PLUR1_009                                                 6
 STAT SP IPHASW D HRMM SECON CODA AMPLIT PERI AZIMU VELO AIN AR TRES W  DIS CAZ7
 LA4  SZ E         023 24.31                  270.5 14.1      3        8.74  88 
 LA4  SN IP        023 24.41                             163   -0.3110 8.74  88 
 LA4  SE IS        023 28.15                             163   -0.1310 8.74  88 
 LA4  SZ  AML      023 32.82       214.6 0.46                          8.74  88 
 LG3  SN IP        023 25.87                             135   -0.2810 27.0 147 
 LG3  SZ E         023 25.92                  219.3 12.8    -99        27.0 147 
 LG3  SE IS        023 30.81                             135    0.0710 27.0 147 
 LG3  SZ  AML      023 33.38       332.0 0.36                          27.0 147 
 LO8  SZ E         023 27.60                  127.7  7.1    155        40.1 152 
 LO8  SN IP        023 27.63                             122   -0.0610 40.1 152 
 LO8  SE IS        023 34.13                             122    0.7210 40.1 152 
 LO8  SZ  AML      023 36.80        21.2 0.44                          40.1 152 
                                                                                
 2009  416 0112 34.9 L  21.625 -99.350 10.0  RAL  1 0.0 1.3LRAL                1
 GAP=360        0.30       3.7     1.4  0.0 -0.3525E+01  0.8384E+03  0.2952E+03E
 ACTION:UPD 12-06-08 11:37 OP:RALL STATUS:               ID:20090416011234     I
 2009-04-16-0112-32S.PLUR1_003                                                 6
 STAT SP IPHASW D HRMM SECON CODA AMPLIT PERI AZIMU VELO AIN AR TRES W  DIS CAZ7
 LZ4  SN IP        112 40.66                             102    0.0110 33.7 166 
 LZ4  SZ E         112 40.69                  345.6  8.5      0        33.7 166 
 LZ4  SE IS        112 44.87                             102   -0.0110 33.7 166 
 LZ4  SZ  AML      112 44.92        35.6 0.52                          33.7 166 
                                                                                
 2009  416 0204 56.7 L  21.253 -99.457 10.0  RAL  1 0.0 0.7LRAL                1
 GAP=360        0.30       3.3     2.2  0.0  0.6693E+01  0.8384E+03  0.2952E+03E
 ACTION:UPD 12-06-08 11:37 OP:RALL STATUS:               ID:20090416020456     I
 2009-04-16-0204-51S.PLUR1_003                                                 6
 STAT SP IPHASW D HRMM SECON CODA AMPLIT PERI AZIMU VELO AIN AR TRES W  DIS CAZ7
 LA4  SZ E         2 5  1.91                  211.0 20.0      0        29.7  31 
 LA4  SN IP        2 5  1.93                             104    0.0210 29.7  31 
 LA4  SE IS        2 5  5.69                             104   -0.0210 29.7  31 
 LA4  SZ  AML      2 5 10.21         8.9 0.58                          29.7  31 
                                                                                
 2009  416 0542 47.8 L  21.271 -99.264 10.0  RAL  1 0.3 0.2LRAL                1
 GAP=360        3.72     999.9   999.9  0.0 -0.7940E+08  0.8384E+03  0.2952E+03E
 ACTION:UPD 12-06-08 11:37 OP:RALL STATUS:               ID:20090416054247     I
 2009-04-16-0542-40S.PLUR1_003                                                 6
 STAT SP IPHASW D HRMM SECON CODA AMPLIT PERI AZIMU VELO AIN AR TRES W  DIS CAZ7
 LG3  SN IP        542 50.21                             173    0.5310 1.33  65 
 LG3  SZ E         542 50.21                  262.8 10.5     17        1.33  65 
 LG3  SE IS        542 50.51                             173   -0.5310 1.33  65 
 LG3  SZ  AML      542 50.73         9.9 0.10                          1.33  65 
                                                                                
 2009  416 1601 39.9 L  21.322 -99.247 10.0  RAL  1 0.1 0.4LRAL                1
 GAP=360        0.40     771.2   353.5  0.0  0.2726E+06  0.8384E+03  0.2952E+03E
 ACTION:UPD 12-06-08 11:37 OP:RALL STATUS:               ID:20090416160139     I
 2009-04-16-1601-33S.PLUR1_003                                                 6
 STAT SP IPHASW D HRMM SECON CODA AMPLIT PERI AZIMU VELO AIN AR TRES W  DIS CAZ7
 LZ4  SN IP       16 1 41.99                             166    0.1810 2.54 292 
 LZ4  SZ E        16 1 42.01                  111.7 36.6      0        2.54 292 
 LZ4  SE IS       16 1 43.00                             166   -0.1810 2.54 292 
 LZ4  SZ  AML     16 1 43.52        14.5 0.10                          2.54 292 
                                                                                
 2009  416 2110 23.0 L  21.318 -99.295 10.0  RAL  1 0.1 0.5LRAL                1
 GAP=360        0.41       8.5    17.0  0.0  0.1445E+03  0.8384E+03  0.2952E+03E
 ACTION:UPD 12-06-08 11:37 OP:RALL STATUS:               ID:20090416211023     I
 2009-04-16-2110-16S.PLUR1_003                                                 6
 STAT SP IPHASW D HRMM SECON CODA AMPLIT PERI AZIMU VELO AIN AR TRES W  DIS CAZ7
 LZ4  SZ E        2110 24.88                  241.7 30.8      0        3.02  62 
 LZ4  SN IP       2110 25.10                             164    0.1910 3.02  62 
 LZ4  SE IS       2110 26.11                             164   -0.1910 3.02  62 
 LZ4  SZ  AML     2110 26.24        15.8 0.22                          3.02  62 
                                                                                
 2009  416 2129  1.8 L  21.363 -99.242 10.0  RAL  1 0.1 0.4LRAL                1
 GAP=360        0.37       8.8     7.8  0.0  0.6866E+02  0.8384E+03  0.2952E+03E
 ACTION:UPD 12-06-08 11:37 OP:RALL STATUS:               ID:20090416212901     I
 2009-04-16-2128-55S.PLUR1_003                                                 6
 STAT SP IPHASW D HRMM SECON CODA AMPLIT PERI AZIMU VELO AIN AR TRES W  DIS CAZ7
 LZ4  SZ E        2129  3.87                   39.3 11.0      0        4.56 219 
 LZ4  SN IP       2129  3.93                             156    0.1510 4.56 219 
 LZ4  SE IS       2129  5.07                             156   -0.1510 4.56 219 
 LZ4  SZ  AML     2129  7.06        12.3 0.64                          4.56 219 
                                                                                
 2009  416 2331  6.0 L  21.592 -99.431 10.0  RAL  1 0.0 2.6LRAL                1
 GAP=360        0.30       3.3     2.2  0.0 -0.6380E+01  0.8384E+03  0.2952E+03E
 ACTION:UPD 12-06-08 11:37 OP:RALL STATUS:               ID:20090416233106     I
 2009-04-16-2331-02S.PLUR1_003                                                 6
 STAT SP IPHASW D HRMM SECON CODA AMPLIT PERI AZIMU VELO AIN AR TRES W  DIS CAZ7
 LZ4  SN IP       2331 11.73                             102    0.0210 33.4 150 
 LZ4  SZ E        2331 11.74                  330.0 14.0      0        33.4 150 
 LZ4  SE IS       2331 15.89                             102   -0.0210 33.4 150 
 LZ4  SZ  AML     2331 16.39       767.1 0.16                          33.4 150 
                                                                                
 2009  417 1026 23.4 L  21.316 -99.266 10.0  RAL  1 0.1 0.6LRAL                1
 GAP=360        0.39     721.6   999.9  0.0  0.2852E+07  0.8384E+03  0.2952E+03E
 ACTION:UPD 12-06-08 11:37 OP:RALL STATUS:               ID:20090417102623     I
 2009-04-17-1026-16S.PLUR1_003                                                 6
 STAT SP IPHASW D HRMM SECON CODA AMPLIT PERI AZIMU VELO AIN AR TRES W  DIS CAZ7
 LZ4  SZ E        1026 25.37                  168.4 12.9      0        1.73 348 
 LZ4  SN IP       1026 25.38                             170    0.1710 1.73 348 
 LZ4  SE IS       1026 26.40                             170   -0.1710 1.73 348 
 LZ4  SZ  AML     1026 26.91        20.0 0.10                          1.73 348 
                                                                                
 2009  417 1121 37.8 L  21.263 -99.251 10.0  RAL  1 0.1 0.1LRAL                1
 GAP=360        0.96      50.2   332.4  0.0 -0.1665E+05  0.8384E+03  0.2952E+03E
 ACTION:UPD 12-06-08 11:37 OP:RALL STATUS:               ID:20090417112137     I
 2009-04-17-1121-31S.PLUR1_003                                                 6
 STAT SP IPHASW D HRMM SECON CODA AMPLIT PERI AZIMU VELO AIN AR TRES W  DIS CAZ7
 LG3  SZ E        1121 39.96                  168.6 19.4     -3        1.41 353 
 LG3  SN IP       1121 39.96                             172    0.2610 1.41 353 
 LG3  SE IS       1121 40.80                             172   -0.2610 1.41 353 
 LG3  SZ  AML     1121 41.44         7.0 0.10                          1.41 353 
                                                                                
 2009  417 1153 39.3 L  21.544 -99.492 10.0  RAL  1 0.0 1.1LRAL                1
 GAP=360        0.30       2.8     2.9  0.0 -0.7404E+01  0.8384E+03  0.2952E+03E
 ACTION:UPD 12-06-08 11:37 OP:RALL STATUS:               ID:20090417115339     I
 2009-04-17-1153-39S.PLUR1_003                                                 6
 STAT SP IPHASW D HRMM SECON CODA AMPLIT PERI AZIMU VELO AIN AR TRES W  DIS CAZ7
 LZ4  SN IP       1153 44.97                             103    0.0210 33.0 136 
 LZ4  SZ E        1153 45.06                  315.6 13.2      0        33.0 136 
 LZ4  SE IS       1153 49.08                             103   -0.0210 33.0 136 
 LZ4  SZ  AML     1153 49.42        21.2 0.14                          33.0 136 
                                                                                
 2009  417 1326 29.8 L  21.610 -99.376 10.0  RAL  1 0.0 0.3LRAL                1
 GAP=360        0.30       3.9     2.1  0.0 -0.7842E+01  0.8384E+03  0.2952E+03E
 ACTION:UPD 12-06-08 11:37 OP:RALL STATUS:               ID:20090417132629     I
 2009-04-17-1326-20S.PLUR1_003                                                 6
 STAT SP IPHASW D HRMM SECON CODA AMPLIT PERI AZIMU VELO AIN AR TRES W  DIS CAZ7
 LA4  SN IP       1326 33.01                             121    0.0110 15.6 154 
 LA4  SZ E        1326 33.06                  333.7  8.9      0        15.6 154 
 LA4  SE IS       1326 35.31                             121   -0.0110 15.6 154 
 LA4  SZ  AML     1326 35.55         5.8 0.10                          15.6 154 
                                                                                
 2009  417 1450  3.3 L  21.859 -99.414 10.0  RAL  1 0.0 0.5LRAL                1
 GAP=360        0.30       3.6     1.5  0.0 -0.3368E+01  0.8384E+03  0.2952E+03E
 ACTION:UPD 12-06-08 11:37 OP:RALL STATUS:               ID:20090417145003     I
 2009-04-17-1450-01S.PLUR1_003                                                 6
 STAT SP IPHASW D HRMM SECON CODA AMPLIT PERI AZIMU VELO AIN AR TRES W  DIS CAZ7
 LA4  SZ E        1450 10.56                  345.4  8.6      0        43.0 165 
 LA4  SN IP       1450 10.57                              99    0.0110 43.0 165 
 LA4  SE IS       1450 15.83                              99   -0.0110 43.0 165 
 LA4  SZ  AML     1450 17.70         4.0 0.24                          43.0 165 
                                                                                
 2009  417 1740 46.0 L  21.348 -99.263 10.0  RAL  1 0.1 1.1LRAL                1
 GAP=360        0.43     509.6   999.9  0.0 -0.8957E+06  0.8384E+03  0.2952E+03E
 ACTION:UPD 12-06-08 11:37 OP:RALL STATUS:               ID:20090417174046     I
 2009-04-17-1740-38S.PLUR1_003                                                 6
 STAT SP IPHASW D HRMM SECON CODA AMPLIT PERI AZIMU VELO AIN AR TRES W  DIS CAZ7
 LZ4  SZ E        1740 48.09                   18.2 13.3      0        2.01 198 
 LZ4  SN IP       1740 48.11                             169    0.2110 2.01 198 
 LZ4  SE IS       1740 49.05                             169   -0.2110 2.01 198 
 LZ4  SZ  AML     1740 49.88        77.1 0.24                          2.01 198 
                                                                                
 2009  417 1836 39.1 L  21.391 -99.271 10.0  RAL  1 0.0 0.7LRAL                1
 GAP=360        0.30       4.6     1.9  0.0 -0.8892E+01  0.8384E+03  0.2952E+03E
 ACTION:UPD 12-06-08 11:37 OP:RALL STATUS:               ID:20090417183639     I
 2009-04-17-1836-27S.PLUR1_003                                                 6
 STAT SP IPHASW D HRMM SECON CODA AMPLIT PERI AZIMU VELO AIN AR TRES W  DIS CAZ7
 LA4  SZ E        1836 41.72                  158.9  7.1      0        10.9 339 
 LA4  SN IP       1836 41.74                             132    0.0110 10.9 339 
 LA4  SE IS       1836 43.60                             132   -0.0110 10.9 339 
 LA4  SZ  AML     1836 45.68        18.1 0.28                          10.9 339 
                                                                                
 2009  417 1932 37.5 L  21.541 -99.494 10.0  RAL  1 0.0 1.3LRAL                1
 GAP=360        0.30       2.8     3.0  0.0 -0.7410E+01  0.8384E+03  0.2952E+03E
 ACTION:UPD 12-06-08 11:37 OP:RALL STATUS:               ID:20090417193237     I
 2009-04-17-1932-37S.PLUR1_003                                                 6
 STAT SP IPHASW D HRMM SECON CODA AMPLIT PERI AZIMU VELO AIN AR TRES W  DIS CAZ7
 LZ4  SZ E        1932 43.18                  315.0  9.6      0        32.9 135 
 LZ4  SN IP       1932 43.20                             103    0.0210 32.9 135 
 LZ4  SE IS       1932 47.30                             103   -0.0210 32.9 135 
 LZ4  SZ  AML     1932 47.63        33.0 0.14                          32.9 135 
                                                                                
