 2009  5 3 1735 33.1 L  21.702 -99.540 10.0  RAL  1 0.0 0.5LRAL                1
 GAP=360        0.30       2.8     3.0  0.0 -0.7353E+01  0.1761E+07 -0.1065E+07E
 ACTION:UPD 12-06-08 11:37 OP:RALL STATUS:               ID:20090503173533     I
 2009-05-03-1735-29S.PLUR1_003                                                 6
 STAT SP IPHASW D HRMM SECON CODA AMPLIT PERI AZIMU VELO AIN AR TRES W  DIS CAZ7
 LA4  SN IP       1735 38.95                             102    0.0210 34.0 135 
 LA4  SZ E        1735 39.20                  315.3 16.5      0        34.0 135 
 LA4  SE IS       1735 43.18                             102   -0.0210 34.0 135 
 LA4  SZ  AML     1735 45.42         5.4 0.40                          34.0 135 
                                                                                
 2009  5 3 2041 36.4 L  21.244 -99.392 10.0  RAL  1 0.0 1.5LRAL                1
 GAP=360        0.30       2.6     3.7  0.0  0.9501E+01  0.1761E+07 -0.1065E+07E
 ACTION:UPD 12-06-08 11:37 OP:RALL STATUS:               ID:20090503204136     I
 2009-05-03-2041-29S.PLUR1_003                                                 6
 STAT SP IPHASW D HRMM SECON CODA AMPLIT PERI AZIMU VELO AIN AR TRES W  DIS CAZ7
 LZ4  SZ E        2041 39.38                  233.1 68.0      0        15.9  53 
 LZ4  SN IP       2041 39.64                             120   -0.0210 15.9  53 
 LZ4  SE IS       2041 42.01                             120    0.0210 15.9  53 
 LZ4  SZ  AML     2041 42.34       103.5 0.52                          15.9  53 
                                                                                
 2009  5 3 2150 12.6 L  21.733 -99.229 10.0  RAL  1 0.0 1.3LRAL                1
 GAP=360        0.30       3.7     1.3  0.0  0.1278E+01  0.1761E+07 -0.1065E+07E
 ACTION:UPD 12-06-08 11:37 OP:RALL STATUS:               ID:20090503215012     I
 2009-05-03-2150-13S.PLUR1_003                                                 6
 STAT SP IPHASW D HRMM SECON CODA AMPLIT PERI AZIMU VELO AIN AR TRES W  DIS CAZ7
 LZ4  SN IP       2150 20.07                              98    0.0110 44.7 185 
 LZ4  SZ E        2150 20.41                    5.4 11.4      0        44.7 185 
 LZ4  SE IS       2150 25.52                              98   -0.0110 44.7 185 
 LZ4  SZ  AML     2150 27.38        23.6 0.26                          44.7 185 
                                                                                
 2009  5 3 2319 46.0 L  21.633 -99.455 10.0  RAL  1 0.0 1.3LRAL                1
 GAP=360        0.30       2.9     2.9  0.0 -0.8158E+01  0.1761E+07 -0.1065E+07E
 ACTION:UPD 12-06-08 11:37 OP:RALL STATUS:               ID:20090503231946     I
 2009-05-03-2319-36S.PLUR1_003                                                 6
 STAT SP IPHASW D HRMM SECON CODA AMPLIT PERI AZIMU VELO AIN AR TRES W  DIS CAZ7
 LA4  SZ E        2319 50.10                  317.6  9.2      0        22.5 138 
 LA4  SN IP       2319 50.11                             111    0.0010 22.5 138 
 LA4  SE IS       2319 53.12                             111    0.0010 22.5 138 
 LA4  SZ  AML     2319 56.50        45.0 0.36                          22.5 138 
                                                                                
 2009  5 4 0153 12.8 L  21.320 -99.270 10.0  RAL  1 0.1 0.4LRAL                1
 GAP=360        1.80     138.4   999.9  0.0  0.2156E+06  0.1761E+07 -0.1065E+07E
 ACTION:UPD 12-06-08 11:37 OP:RALL STATUS:               ID:20090504015312     I
 2009-05-04-0153-06S.PLUR1_003                                                 6
 STAT SP IPHASW D HRMM SECON CODA AMPLIT PERI AZIMU VELO AIN AR TRES W  DIS CAZ7
 LZ4  SZ E         153 14.68                  174.0 19.9     -7        1.16   2 
 LZ4  SN IP        153 14.71                             174    0.0810 1.16   2 
 LZ4  SE IS        153 15.89                             174   -0.0810 1.16   2 
 LZ4  SZ  AML      153 16.01        14.3 0.22                          1.16   2 
                                                                                
 2009  5 4 0207 59.5 L  21.198 -99.306 10.0  RAL  1 0.0 1.0LRAL                1
 GAP=360        0.30       3.8     0.9  0.0 -0.1289E+00  0.1761E+07 -0.1065E+07E
 ACTION:UPD 12-06-08 11:37 OP:RALL STATUS:               ID:20090504020759     I
 2009-05-04-0207-51S.PLUR1_003                                                 6
 STAT SP IPHASW D HRMM SECON CODA AMPLIT PERI AZIMU VELO AIN AR TRES W  DIS CAZ7
 LA4  SZ E         2 8  4.94                  179.5 14.7      0        31.7 359 
 LA4  SN IP        2 8  4.97                             103    0.0110 31.7 359 
 LA4  SE IS        2 8  8.97                             103   -0.0110 31.7 359 
 LA4  SZ  AML      2 8 15.99        16.1 0.34                          31.7 359 
                                                                                
 2009  5 4 0340 11.6 L  21.318 -99.270 10.0  RAL  1 0.2 0.6LRAL                1
 GAP=360        1.76     151.6   340.5  0.0  0.5160E+05  0.1761E+07 -0.1065E+07E
 ACTION:UPD 12-06-08 11:37 OP:RALL STATUS:               ID:20090504034011     I
 2009-05-04-0340-05S.PLUR1_003                                                 6
 STAT SP IPHASW D HRMM SECON CODA AMPLIT PERI AZIMU VELO AIN AR TRES W  DIS CAZ7
 LZ4  SZ E         340 13.99                  188.0 85.1      7        1.47   1 
 LZ4  SN IP        340 14.01                             172    0.5310 1.47   1 
 LZ4  SE IS        340 14.29                             172   -0.5310 1.47   1 
 LZ4  SZ  AML      340 14.76        20.0 0.74                          1.47   1 
                                                                                
 2009  5 4 0938 44.9 L  21.337 -99.287 10.0  RAL  1 0.1 0.5LRAL                1
 GAP=360        0.46      11.0    31.9  0.0 -0.3523E+03  0.1761E+07 -0.1065E+07E
 ACTION:UPD 12-06-08 11:37 OP:RALL STATUS:               ID:20090504093844     I
 2009-05-04-0938-38S.PLUR1_003                                                 6
 STAT SP IPHASW D HRMM SECON CODA AMPLIT PERI AZIMU VELO AIN AR TRES W  DIS CAZ7
 LZ4  SN IP        938 47.02                             170    0.2410 1.90 110 
 LZ4  SZ E         938 47.02                  290.4 22.7      0        1.90 110 
 LZ4  SE IS        938 47.90                             170   -0.2410 1.90 110 
 LZ4  SZ  AML      938 50.26        16.5 0.56                          1.90 110 
                                                                                
 2009  5 4 1226 12.2 L  21.488 -99.315 10.0  RAL  1 0.5 0.5LRAL                1
 GAP=360        5.71     999.9   999.9  0.0  0.2363E+08  0.1761E+07 -0.1065E+07E
 ACTION:UPD 12-06-08 11:37 OP:RALL STATUS:               ID:20090504122612     I
 2009-05-04-1226-00S.PLUR1_003                                                 6
 STAT SP IPHASW D HRMM SECON CODA AMPLIT PERI AZIMU VELO AIN AR TRES W  DIS CAZ7
 LA4  SZ E        1226 14.46                  282.3 19.6    -26        0.75 129 
 LA4  SN IP       1226 14.47                             176    0.4610 0.75 129 
 LA4  SE IS       1226 14.89                             176   -0.4610 0.75 129 
 LA4  SZ  AML     1226 14.98        16.6 0.18                          0.75 129 
                                                                                
 2009  5 4 1510 58.3 L  21.307 -99.277 10.0  RAL  1 0.1 0.3LRAL                1
 GAP=360        0.36      16.8     5.1  0.0  0.8581E+02  0.1761E+07 -0.1065E+07E
 ACTION:UPD 12-06-08 11:37 OP:RALL STATUS:               ID:20090504151058     I
 2009-05-04-1510-52S.PLUR1_003                                                 6
 STAT SP IPHASW D HRMM SECON CODA AMPLIT PERI AZIMU VELO AIN AR TRES W  DIS CAZ7
 LZ4  SN IP       1511  0.35                             165    0.1310 2.71  16 
 LZ4  SZ E        1511  0.37                  195.9 25.7      0        2.71  16 
 LZ4  SE IS       1511  1.46                             165   -0.1310 2.71  16 
 LZ4  SZ  AML     1511  2.00        11.0 0.26                          2.71  16 
                                                                                
 2009  5 5 0200  8.1 L  21.738 -99.366 10.0  RAL  1 0.0 1.0LRAL                1
 GAP=360        0.30       3.8     1.2  0.0 -0.3079E+01  0.1761E+07 -0.1065E+07E
 ACTION:UPD 12-06-08 11:37 OP:RALL STATUS:               ID:20090505020008     I
 2009-05-05-0200-02S.PLUR1_003                                                 6
 STAT SP IPHASW D HRMM SECON CODA AMPLIT PERI AZIMU VELO AIN AR TRES W  DIS CAZ7
 LA4  SZ E         2 0 13.15                  348.1  8.9      0        28.7 168 
 LA4  SN IP        2 0 13.20                             105    0.0110 28.7 168 
 LA4  SE IS        2 0 16.87                             105   -0.0110 28.7 168 
 LA4  SZ  AML      2 0 18.40        19.9 0.52                          28.7 168 
                                                                                
 2009  5 5 0609 23.7 L  21.725 -99.421 10.0  RAL  1 0.0 1.8LRAL                1
 GAP=360        0.30       3.5     1.8  0.0 -0.4289E+01  0.1761E+07 -0.1065E+07E
 ACTION:UPD 12-06-08 11:37 OP:RALL STATUS:               ID:20090505060923     I
 2009-05-05-0609-22S.PLUR1_003                                                 6
 STAT SP IPHASW D HRMM SECON CODA AMPLIT PERI AZIMU VELO AIN AR TRES W  DIS CAZ7
 LZ4  SN IP        6 9 31.44                              98    0.0110 46.4 160 
 LZ4  SZ E         6 9 32.01                  340.3 15.0      0        46.4 160 
 LZ4  SE IS        6 9 37.07                              98   -0.0110 46.4 160 
 LZ4  SZ  AML      6 9 37.99        73.8 0.16                          46.4 160 
                                                                                
 2009  5 5 0741 42.4 L  21.632 -99.641  5.5  RAL  2 1.1 1.6LRAL                1
 GAP=341       18.23      84.4   128.5149.9 -0.7625E+04  0.1438E+04  0.1077E+04E
 ACTION:UPD 12-06-08 11:37 OP:RALL STATUS:               ID:20090505074142     I
 2009-05-05-0741-34S.PLUR1_006                                                 6
 STAT SP IPHASW D HRMM SECON CODA AMPLIT PERI AZIMU VELO AIN AR TRES W  DIS CAZ7
 LA4  SN IP        741 48.68                              92   -0.1310 38.1 115 
 LA4  SZ E         741 48.70                  342.6  8.6     47        38.1 115 
 LA4  SE IS        741 51.65                              92   -1.8310 38.1 115 
 LA4  SZ  AML      741 53.64        83.2 0.36                          38.1 115 
 LG3  SZ E         741 53.00                  239.5 17.7    -74        56.3 134 
 LG3  SN IP        741 53.01                              63    1.3710 56.3 134 
 LG3  SE IS        741 58.98                              63    0.5910 56.3 134 
 LG3  SZ  AML      742  0.55        33.5 0.34                          56.3 134 
                                                                                
 2009  5 5 0849 40.3 L  21.310 -99.286 10.0  RAL  1 0.1 0.3LRAL                1
 GAP=360        0.53      20.1    15.8  0.0  0.3173E+03  0.1438E+04  0.1077E+04E
 ACTION:UPD 12-06-08 11:37 OP:RALL STATUS:               ID:20090505084940     I
 2009-05-05-0849-34S.PLUR1_003                                                 6
 STAT SP IPHASW D HRMM SECON CODA AMPLIT PERI AZIMU VELO AIN AR TRES W  DIS CAZ7
 LZ4  SZ E         849 42.30                  216.1 35.3      0        2.85  36 
 LZ4  SN IP        849 42.50                             165    0.3010 2.85  36 
 LZ4  SE IS        849 43.28                             165   -0.3010 2.85  36 
 LZ4  SZ  AML      849 43.60        10.4 0.68                          2.85  36 
                                                                                
 2009  5 5 0937  8.1 L  21.284 -99.224 10.0  RAL  1 0.0 0.3LRAL                1
 GAP=360        0.30       4.9     4.8  0.0 -0.2324E+02  0.1438E+04  0.1077E+04E
 ACTION:UPD 12-06-08 11:37 OP:RALL STATUS:               ID:20090505093708     I
 2009-05-05-0937-02S.PLUR1_003                                                 6
 STAT SP IPHASW D HRMM SECON CODA AMPLIT PERI AZIMU VELO AIN AR TRES W  DIS CAZ7
 LZ4  SZ E         937 10.26                  137.5 29.2      0        6.98 318 
 LZ4  SN IP        937 10.33                             145    0.0410 6.98 318 
 LZ4  SE IS        937 11.84                             145   -0.0410 6.98 318 
 LZ4  SZ  AML      937 12.95         8.6 0.70                          6.98 318 
                                                                                
 2009  5 5 1815 16.9 L  21.407 -99.304 10.0  RAL  1 0.0 0.1LRAL                1
 GAP=360        0.30       5.7     0.4  0.0 -0.1953E+01  0.1438E+04  0.1077E+04E
 ACTION:UPD 12-06-08 11:37 OP:RALL STATUS:               ID:20090505181516     I
 2009-05-05-1815-06S.PLUR1_003                                                 6
 STAT SP IPHASW D HRMM SECON CODA AMPLIT PERI AZIMU VELO AIN AR TRES W  DIS CAZ7
 LA4  SZ E        1815 19.18                  176.8 10.8      0        8.51 357 
 LA4  SN IP       1815 19.20                             140    0.0010 8.51 357 
 LA4  SE IS       1815 20.89                             140    0.0010 8.51 357 
 LA4  SZ  AML     1815 20.96         5.0 0.10                          8.51 357 
                                                                                
 2009  5 5 2141 57.3 L  21.294 -99.236 10.0  RAL  1 0.0 1.4LRAL                1
 GAP=360        0.32       6.5     6.0  0.0 -0.3877E+02  0.1438E+04  0.1077E+04E
 ACTION:UPD 12-06-08 11:37 OP:RALL STATUS:               ID:20090505214157     I
 2009-05-05-2141-49S.PLUR1_003                                                 6
 STAT SP IPHASW D HRMM SECON CODA AMPLIT PERI AZIMU VELO AIN AR TRES W  DIS CAZ7
 LZ4  SN IP       2141 59.45                             152    0.0810 5.33 319 
 LZ4  SZ E        2141 59.46                  139.1 17.2      0        5.33 319 
 LZ4  SE IS       2142  0.78                             152   -0.0810 5.33 319 
 LZ4  SZ  AML     2142  1.11       128.7 0.18                          5.33 319 
                                                                                
 2009  5 6 0120 13.8 L  21.491 -99.323 10.0  RAL  1 0.2 0.4LRAL                1
 GAP=360        0.76      30.3    55.7  0.0 -0.1687E+04  0.1438E+04  0.1077E+04E
 ACTION:UPD 12-06-08 11:37 OP:RALL STATUS:               ID:20090506012013     I
 2009-05-06-0120-02S.PLUR1_003                                                 6
 STAT SP IPHASW D HRMM SECON CODA AMPLIT PERI AZIMU VELO AIN AR TRES W  DIS CAZ7
 LA4  SZ E         120 16.10                  300.2 24.7      0        1.65 120 
 LA4  SN IP        120 16.10                             171    0.4710 1.65 120 
 LA4  SE IS        120 16.52                             171   -0.4710 1.65 120 
 LA4  SZ  AML      120 16.63        13.5 0.16                          1.65 120 
                                                                                
 2009  5 6 0132 27.5 L  21.517 -99.606 10.0  RAL  1 0.0 0.9LRAL                1
 GAP=360        0.30       2.1     3.5  0.0 -0.6124E+01  0.1438E+04  0.1077E+04E
 ACTION:UPD 12-06-08 11:37 OP:RALL STATUS:               ID:20090506013227     I
 2009-05-06-0132-30S.PLUR1_003                                                 6
 STAT SP IPHASW D HRMM SECON CODA AMPLIT PERI AZIMU VELO AIN AR TRES W  DIS CAZ7
 LZ4  SN IP        132 34.39                             100    0.0210 40.5 121 
 LZ4  SZ E         132 34.40                  300.6 22.3      0        40.5 121 
 LZ4  SE IS        132 39.35                             100   -0.0210 40.5 121 
 LZ4  SZ  AML      132 41.00        11.2 0.76                          40.5 121 
                                                                                
 2009  5 6 0330 18.7 R  20.261 -99.762 10.0  RAL  1 0.0 2.7LRAL                1
 GAP=360        0.30       4.5     3.8  0.0  0.4300E+01  0.1438E+04  0.1077E+04E
 ACTION:UPD 12-06-08 11:37 OP:RALL STATUS:               ID:20090506033018     I
 2009-05-06-0330-30S.PLUR1_003                                                 6
 STAT SP IPHASW D HRMM SECON CODA AMPLIT PERI AZIMU VELO AIN AR TRES W  DIS CAZ7
 LZ4  SN IP        330 39.21                              52    0.0110  129  23 
 LZ4  SZ E         330 39.28                  203.5 15.5      0         129  23 
 LZ4  SE IS        330 54.15                              52   -0.0110  129  23 
 LZ4  SZ  AML      330 58.17       197.0 0.28                           129  23 
                                                                                
 2009  5 6 0418 22.8 L  21.343 -99.274 10.0  RAL  1 0.2 0.3LRAL                1
 GAP=360        0.73     944.8   999.9  0.0  0.3309E+07  0.1438E+04  0.1077E+04E
 ACTION:UPD 12-06-08 11:37 OP:RALL STATUS:               ID:20090506041822     I
 2009-05-06-0418-16S.PLUR1_003                                                 6
 STAT SP IPHASW D HRMM SECON CODA AMPLIT PERI AZIMU VELO AIN AR TRES W  DIS CAZ7
 LZ4  SN IP        418 25.06                             172    0.4510 1.46 163 
 LZ4  SZ E         418 25.08                  342.8 11.9      0        1.46 163 
 LZ4  SE IS        418 25.50                             172   -0.4510 1.46 163 
 LZ4  SZ  AML      418 25.81        11.7 0.72                          1.46 163 
                                                                                
 2009  5 6 0504 30.3 L  20.724 -98.194  0.1  RAL  2 0.7 2.7LRAL                1
 GAP=353        8.21     601.9   999.9999.9 -0.6061E+06  0.2199E+07 -0.1299E+07E
 ACTION:UPD 12-06-08 11:37 OP:RALL STATUS:               ID:20090506050430     I
 2009-05-06-0504-40S.PLUR1_009                                                 6
 STAT SP IPHASW D HRMM SECON CODA AMPLIT PERI AZIMU VELO AIN AR TRES W  DIS CAZ7
 LG3  SZ E         5 4 49.77                   91.7 13.9    -26         126 299 
 LG3  SN IP        5 4 49.83                              63   -0.9110  126 299 
 LG3  SE IS        5 5  4.06                              63   -1.6010  126 299 
 LG3  SZ  AML      5 5  8.26       259.1 0.62                           126 299 
 LA4  SZ E         5 4 53.79                  152.0 10.3     26         143 306 
 LA4  SN IP        5 4 53.92                              63    0.5010  143 306 
 LA4  SE IS        5 5 12.30                              63    2.0010  143 306 
 LA4  SZ  AML      5 5 15.01       198.6 0.40                           143 306 
                                                                                
 2009  5 6 0937 54.3 L  21.278 -99.247 10.0  RAL  1 0.4 0.7LRAL                1
 GAP=360        4.44     999.9   999.9  0.0 -0.4515E+09  0.2199E+07 -0.1299E+07E
 ACTION:UPD 12-06-08 11:37 OP:RALL STATUS:               ID:20090506093754     I
 2009-05-06-0937-46S.PLUR1_003                                                 6
 STAT SP IPHASW D HRMM SECON CODA AMPLIT PERI AZIMU VELO AIN AR TRES W  DIS CAZ7
 LG3  SN IP        937 56.74                             176    0.5410 0.67 247 
 LG3  SZ E         937 56.75                   87.7 20.1     21        0.67 247 
 LG3  SE IS        937 57.02                             176   -0.5410 0.67 247 
 LG3  SZ  AML      937 57.17        31.5 0.20                          0.67 247 
                                                                                
