 2009  3 4 1024  6.2 L  21.553 -99.666  5.1  RAL  3 1.3 1.2LRAL                1
 GAP=336       23.20     127.4   322.0690.8 -0.3616E+05 -0.1960E+06  0.7115E+05E
 ACTION:UPD 12-06-08 11:37 OP:RALL STATUS:               ID:20090304102406     I
 2009-03-04-1023-57S.PLUR1_009                                                 6
 STAT SP IPHASW D HRMM SECON CODA AMPLIT PERI AZIMU VELO AIN AR TRES W  DIS CAZ7
 LA4  SZ E        1024 12.57                  329.9  8.3     48        37.8 102 
 LA4  SN IP       1024 12.60                              63    0.3510 37.8 102 
 LA4  SE IS       1024 13.97                              63   -2.6710 37.8 102 
 LA4  SZ  AML     1024 14.82        65.6 0.32                          37.8 102 
 LZ4  SN IP       1024 14.97                              63    1.1610 47.9 121 
 LZ4  SZ E        1024 15.00                  322.6 11.0     22        47.9 121 
 LZ4  SE IS       1024 19.06                              63   -0.2910 47.9 121 
 LZ4  SZ  AML     1024 19.53        19.0 0.36                          47.9 121 
 LG3  SN IP       1024 15.90                              63    1.3310 52.8 126 
 LG3  SZ E        1024 15.92                  183.5  4.8    -99        52.8 126 
 LG3  SE IS       1024 20.80                              63    0.1310 52.8 126 
 LG3  SZ  AML     1024 21.56         6.3 0.28                          52.8 126 
                                                                                
 2009  3 4 1655  4.1 L  21.403 -99.136 10.0  RAL  1 0.0 0.6LRAL                1
 GAP=360        0.30       2.1     4.0  0.0  0.8324E+01 -0.1960E+06  0.7115E+05E
 ACTION:UPD 12-06-08 11:37 OP:RALL STATUS:               ID:20090304165504     I
 2009-03-04-1654-47S.PLUR1_003                                                 6
 STAT SP IPHASW D HRMM SECON CODA AMPLIT PERI AZIMU VELO AIN AR TRES W  DIS CAZ7
 LZ4  SN IP       1655  7.34                             120    0.0110 16.0 240 
 LZ4  SZ E        1655  7.64                   60.2  9.6      0        16.0 240 
 LZ4  SE IS       1655  9.67                             120   -0.0110 16.0 240 
 LZ4  SZ  AML     1655  9.80        11.2 0.16                          16.0 240 
                                                                                
 2009  3 4 1831 11.5 L  20.388 -98.614  0.0  RAL  2 0.4 2.1LRAL                1
 GAP=358        4.88     999.9   999.9999.9 -0.1783E+07  0.4066E+07 -0.6099E+07E
 ACTION:UPD 12-06-08 11:37 OP:RALL STATUS:               ID:20090304183111     I
 2009-03-04-1831-23S.PLUR1_009                                                 6
 STAT SP IPHASW D HRMM SECON CODA AMPLIT PERI AZIMU VELO AIN AR TRES W  DIS CAZ7
 LZ4  SZ E        1831 31.55                  131.2 24.1    -15         125 327 
 LZ4  SN IP       1831 31.57                              63   -0.1910  125 327 
 LZ4  SE IS       1831 45.61                              63   -0.9310  125 327 
 LZ4  SZ  AML     1831 48.99        66.1 0.24                           125 327 
 LA4  SN IP       1831 34.46                              63    0.1310  141 329 
 LA4  SZ E        1831 34.52                  165.9  9.8     17         141 329 
 LA4  SE IS       1831 51.96                              63    0.9810  141 329 
 LA4  SZ  AML     1831 54.57        39.2 0.46                           141 329 
                                                                                
 2009  3 5 0310 56.4 L  21.420 -99.314  0.0  RAL  2 0.5 0.7LRAL                1
 GAP=209        3.78       6.7     2.3195.8 -0.3306E+01 -0.5549E+02  0.6615E+03E
 ACTION:UPD 12-06-08 11:37 OP:RALL STATUS:               ID:20090305031056     I
 2009-03-05-0310-42S.PLUR1_006                                                 6
 STAT SP IPHASW D HRMM SECON CODA AMPLIT PERI AZIMU VELO AIN AR TRES W  DIS CAZ7
 LA4  SN IP        310 56.77                              99   -0.9110 7.11   4 
 LA4  SZ E         310 56.78                  175.9  9.9     -7        7.11   4 
 LA4  SE IS        310 57.30                              99   -1.3010 7.11   4 
 LA4  SZ  AML      310 57.40        60.7 0.24                          7.11   4 
 LZ4  SN IP        310 58.86                              96    0.5310 10.8 155 
 LZ4  SZ E         310 58.88                  323.4  7.7    -11        10.8 155 
 LZ4  SE IS        311  1.40                              96    1.6810 10.8 155 
 LZ4  SZ  AML      311  1.60        13.6 0.18                          10.8 155 
                                                                                
 2009  3 5 0342 17.1 L  21.465 -99.372 10.0  RAL  1 0.0 0.2LRAL                1
 GAP=360        0.30       2.0     6.8  0.0  0.1366E+02 -0.5549E+02  0.6615E+03E
 ACTION:UPD 12-06-08 11:37 OP:RALL STATUS:               ID:20090305034217     I
 2009-03-05-0342-06S.PLUR1_003                                                 6
 STAT SP IPHASW D HRMM SECON CODA AMPLIT PERI AZIMU VELO AIN AR TRES W  DIS CAZ7
 LA4  SN IP        342 19.30                             146    0.0110 6.82  72 
 LA4  SZ E         342 19.45                  252.5  7.9      0        6.82  72 
 LA4  SE IS        342 20.85                             146   -0.0110 6.82  72 
 LA4  SZ  AML      342 21.06         6.9 0.22                          6.82  72 
                                                                                
 2009  3 5 0630 31.8 L  21.307 -99.280 10.0  RAL  1 0.1 0.3LRAL                1
 GAP=360        0.43      18.7     8.5  0.0  0.1594E+03 -0.5549E+02  0.6615E+03E
 ACTION:UPD 12-06-08 11:37 OP:RALL STATUS:               ID:20090305063031     I
 2009-03-05-0630-26S.PLUR1_003                                                 6
 STAT SP IPHASW D HRMM SECON CODA AMPLIT PERI AZIMU VELO AIN AR TRES W  DIS CAZ7
 LZ4  SZ E         630 33.90                  203.1 15.4      0        2.81  23 
 LZ4  SN IP        630 33.91                             165    0.2110 2.81  23 
 LZ4  SE IS        630 34.87                             165   -0.2110 2.81  23 
 LZ4  SZ  AML      630 36.09        10.6 0.38                          2.81  23 
                                                                                
 2009  3 5 0718 51.5 L  21.717 -99.427 10.0  RAL  2 0.2 2.0LRAL                1
 GAP=356        2.77      29.5    14.8 93.7 -0.3864E+03  0.8101E+03 -0.1724E+04E
 ACTION:UPD 12-06-08 11:37 OP:RALL STATUS:               ID:20090305071851     I
 2009-03-05-0718-42S.PLUR1_006                                                 6
 STAT SP IPHASW D HRMM SECON CODA AMPLIT PERI AZIMU VELO AIN AR TRES W  DIS CAZ7
 LA4  SZ E         718 56.79                  343.1  8.7      8        28.6 155 
 LA4  SN IP        718 56.80                             107    0.3110 28.6 155 
 LA4  SE IS        719  0.21                             107    0.0410 28.6 155 
 LA4  SZ  AML      719  2.02       139.9 0.28                          28.6 155 
 LZ4  SN IP        718 59.03                              99   -0.0710 45.8 159 
 LZ4  SZ E         718 59.06                  328.8  6.6     -9        45.8 159 
 LZ4  SE IS        719  4.40                              99   -0.2810 45.8 159 
 LZ4  SZ  AML      719  5.07       147.3 0.42                          45.8 159 
                                                                                
 2009  3 5 0812 51.5 L  21.199 -99.351 10.0  RAL  1 0.0 0.6LRAL                1
 GAP=360        0.30       3.6     2.3  0.0  0.8063E+01  0.8101E+03 -0.1724E+04E
 ACTION:UPD 12-06-08 11:37 OP:RALL STATUS:               ID:20090305081251     I
 2009-03-05-0812-48S.PLUR1_003                                                 6
 STAT SP IPHASW D HRMM SECON CODA AMPLIT PERI AZIMU VELO AIN AR TRES W  DIS CAZ7
 LZ4  SZ E         812 54.80                  209.9 65.3      0        16.9  30 
 LZ4  SN IP        812 54.84                             118    0.0110 16.9  30 
 LZ4  SE IS        812 57.26                             118   -0.0110 16.9  30 
 LZ4  SZ  AML      812 57.81        13.0 0.70                          16.9  30 
                                                                                
 2009  3 5 0835 37.0 L  21.328 -99.245 10.0  RAL  1 0.0 0.5LRAL                1
 GAP=360        0.30     999.9   247.3  0.0  0.3640E+06  0.8101E+03 -0.1724E+04E
 ACTION:UPD 12-06-08 11:37 OP:RALL STATUS:               ID:20090305083537     I
 2009-03-05-0835-31S.PLUR1_003                                                 6
 STAT SP IPHASW D HRMM SECON CODA AMPLIT PERI AZIMU VELO AIN AR TRES W  DIS CAZ7
 LZ4  SZ E         835 38.89                   98.3 19.4      0        2.53 278 
 LZ4  SN IP        835 38.89                             166    0.0410 2.53 278 
 LZ4  SE IS        835 40.18                             166   -0.0410 2.53 278 
 LZ4  SZ  AML      835 40.82        15.8 0.10                          2.53 278 
                                                                                
 2009  3 5 0843 17.1 L  21.348 -99.296 10.0  RAL  1 0.1                        1
 GAP=360        0.46      10.5    16.4  0.0 -0.1719E+03  0.8101E+03 -0.1724E+04E
 ACTION:UPD 12-06-08 11:37 OP:RALL STATUS:               ID:20090305084317     I
 2009-03-05-0843-11S.PLUR1_003                                                 6
 STAT SP IPHASW D HRMM SECON CODA AMPLIT PERI AZIMU VELO AIN AR TRES W  DIS CAZ7
 LZ4  SZ E         843 19.19                  304.4 20.0      0        3.35 124 
 LZ4  SN IP        843 19.24                             162    0.2410 3.35 124 
 LZ4  SE IS        843 20.16                             162   -0.2410 3.35 124 
                                                                                
 2009  3 5 1437  4.4 L  21.450 -99.415 10.0  RAL  1 0.0 0.5LRAL                1
 GAP=360        0.30       1.6     4.9  0.0  0.7637E+01  0.8101E+03 -0.1724E+04E
 ACTION:UPD 12-06-08 11:37 OP:RALL STATUS:               ID:20090305143704     I
 2009-03-05-1436-55S.PLUR1_003                                                 6
 STAT SP IPHASW D HRMM SECON CODA AMPLIT PERI AZIMU VELO AIN AR TRES W  DIS CAZ7
 LA4  SZ E        1437  6.98                  251.3  9.4      0        11.5  71 
 LA4  SN IP       1437  7.05                             130    0.0110 11.5  71 
 LA4  SE IS       1437  8.97                             130   -0.0110 11.5  71 
 LA4  SZ  AML     1437 10.42        12.1 0.56                          11.5  71 
                                                                                
 2009  3 5 2308 27.1 L  21.340 -99.288 10.0  RAL  1 0.1 1.1LRAL                1
 GAP=360        0.66      18.5    37.2  0.0 -0.6876E+03  0.8101E+03 -0.1724E+04E
 ACTION:UPD 12-06-08 11:37 OP:RALL STATUS:               ID:20090305230827     I
 2009-03-05-2308-20S.PLUR1_003                                                 6
 STAT SP IPHASW D HRMM SECON CODA AMPLIT PERI AZIMU VELO AIN AR TRES W  DIS CAZ7
 LZ4  SZ E        23 8 29.29                  297.0 21.9      0        2.21 118 
 LZ4  SN IP       23 8 29.30                             168    0.3710 2.21 118 
 LZ4  SE IS       23 8 29.92                             168   -0.3710 2.21 118 
 LZ4  SZ  AML     23 8 30.05        74.4 0.18                          2.21 118 
                                                                                
 2009  3 5 2330  6.0 L  21.321 -99.266 10.0  RAL  1 0.2 0.9LRAL                1
 GAP=360        0.94     999.9   999.9  0.0  0.9438E+07  0.8101E+03 -0.1724E+04E
 ACTION:UPD 12-06-08 11:37 OP:RALL STATUS:               ID:20090305233006     I
 2009-03-05-2329-58S.PLUR1_003                                                 6
 STAT SP IPHASW D HRMM SECON CODA AMPLIT PERI AZIMU VELO AIN AR TRES W  DIS CAZ7
 LZ4  SN IP       2330  8.46                             174    0.6010 1.10 343 
 LZ4  SZ E        2330  8.52                  162.8 13.2      0        1.10 343 
 LZ4  SE IS       2330  8.60                             174   -0.6010 1.10 343 
 LZ4  SZ  AML     2330  8.68        42.5 0.32                          1.10 343 
                                                                                
 2009  3 5 2337 33.4 L  21.502 -99.328 10.0  RAL  1 0.2 0.7LRAL                1
 GAP=360        0.69      24.1    24.4  0.0 -0.5883E+03  0.8101E+03 -0.1724E+04E
 ACTION:UPD 12-06-08 11:37 OP:RALL STATUS:               ID:20090305233733     I
 2009-03-05-2337-21S.PLUR1_003                                                 6
 STAT SP IPHASW D HRMM SECON CODA AMPLIT PERI AZIMU VELO AIN AR TRES W  DIS CAZ7
 LA4  SZ E        2337 35.69                  316.6  8.3      0        2.81 137 
 LA4  SN IP       2337 35.70                             165    0.4210 2.81 137 
 LA4  SE IS       2337 36.24                             165   -0.4210 2.81 137 
 LA4  SZ  AML     2337 36.29        29.9 0.20                          2.81 137 
                                                                                
 2009  3 6 0331 57.6 L  21.502 -99.322 10.0  RAL  1 0.2 0.2LRAL                1
 GAP=360        0.66      29.8    21.1  0.0 -0.6297E+03  0.8101E+03 -0.1724E+04E
 ACTION:UPD 12-06-08 11:37 OP:RALL STATUS:               ID:20090306033157     I
 2009-03-06-0331-46S.PLUR1_003                                                 6
 STAT SP IPHASW D HRMM SECON CODA AMPLIT PERI AZIMU VELO AIN AR TRES W  DIS CAZ7
 LA4  SN IP        331 59.91                             167    0.4010 2.47 147 
 LA4  SZ E         331 59.93                  326.6  8.7      0        2.47 147 
 LA4  SE IS        332  0.49                             167   -0.4010 2.47 147 
 LA4  SZ  AML      332  0.57         8.4 0.32                          2.47 147 
                                                                                
 2009  3 6 0421 45.3 L  21.340 -99.288 10.0  RAL  1 0.1 0.8LRAL                1
 GAP=360        0.55      15.2    32.3  0.0 -0.4905E+03  0.8101E+03 -0.1724E+04E
 ACTION:UPD 12-06-08 11:37 OP:RALL STATUS:               ID:20090306042145     I
 2009-03-06-0421-37S.PLUR1_003                                                 6
 STAT SP IPHASW D HRMM SECON CODA AMPLIT PERI AZIMU VELO AIN AR TRES W  DIS CAZ7
 LZ4  SZ E         421 47.46                  296.7 20.5      0        2.16 117 
 LZ4  SN IP        421 47.47                             168    0.3210 2.16 117 
 LZ4  SE IS        421 48.20                             168   -0.3210 2.16 117 
 LZ4  SZ  AML      421 48.33        37.2 0.22                          2.16 117 
                                                                                
 2009  3 6 1044 40.2 R  22.210 -99.554  5.1  RAL  2 0.1 2.1LRAL                1
 GAP=359        0.93     887.6   298.0999.9 -0.2645E+06 -0.5354E+06  0.1595E+07E
 ACTION:UPD 12-06-08 11:37 OP:RALL STATUS:               ID:20090306104440     I
 2009-03-06-1044-39S.PLUR1_006                                                 6
 STAT SP IPHASW D HRMM SECON CODA AMPLIT PERI AZIMU VELO AIN AR TRES W  DIS CAZ7
 LA4  SN IP       1044 53.93                              63    0.1010 84.3 162 
 LA4  SZ E        1044 54.11                  345.1 11.9      3        84.3 162 
 LA4  SE IS       1045  3.55                              63   -0.1910 84.3 162 
 LA4  SZ  AML     1045  8.86        70.5 0.48                          84.3 162 
 LZ4  SN IP       1044 56.42                              63   -0.1010  102 163 
 LZ4  SZ E        1044 56.70                  340.1  8.9     -2         102 163 
 LZ4  SE IS       1045  8.59                              63    0.1910  102 163 
 LZ4  SZ  AML     1045 14.70        97.1 0.96                           102 163 
                                                                                
 2009  3 6 1108  9.5 L  21.271 -99.406 10.0  RAL  1 0.0 0.5LRAL                1
 GAP=360        0.30       1.9     4.2  0.0  0.7502E+01 -0.5354E+06  0.1595E+07E
 ACTION:UPD 12-06-08 11:37 OP:RALL STATUS:               ID:20090306110809     I
 2009-03-06-1108-06S.PLUR1_003                                                 6
 STAT SP IPHASW D HRMM SECON CODA AMPLIT PERI AZIMU VELO AIN AR TRES W  DIS CAZ7
 LZ4  SZ E        11 8 12.64                  245.0 15.9      0        15.6  65 
 LZ4  SN IP       11 8 12.66                             120    0.0110 15.6  65 
 LZ4  SE IS       11 8 14.96                             120   -0.0110 15.6  65 
 LZ4  SZ  AML     11 8 15.39        10.0 0.48                          15.6  65 
                                                                                
 2009  3 6 1128  0.8 R  21.233 -99.357 10.0  RAL  1 0.0 1.0LRAL                1
 GAP=360        0.30       3.4     3.1  0.0  0.1037E+02 -0.5354E+06  0.1595E+07E
 ACTION:UPD 12-06-08 11:37 OP:RALL STATUS:               ID:20090306112800     I
 2009-03-06-1127-51S.PLUR1_006                                                 6
 STAT SP IPHASW D HRMM SECON CODA AMPLIT PERI AZIMU VELO AIN AR TRES W  DIS CAZ7
 LZ4  SN IP       1128  3.74                             124   -0.0110 14.1  40 
 LZ4  SE IP       1128  3.74                                           14.1  40 
 LZ4  SZ E        1128  3.78                  220.1 46.3      0        14.1  40 
 LZ4  SE IS       1128  5.93                             124    0.0110 14.1  40 
 LZ4  SZ  AML     1128  6.07        37.9 0.22                          14.1  40 
                                                                                
 2009  3 6 1349 28.7 L  21.351 -99.282 10.0  RAL  1 0.1 1.1LRAL                1
 GAP=360        0.55     439.2   889.6  0.0  0.3907E+06 -0.5354E+06  0.1595E+07E
 ACTION:UPD 12-06-08 11:37 OP:RALL STATUS:               ID:20090306134928     I
 2009-03-06-1349-22S.PLUR1_003                                                 6
 STAT SP IPHASW D HRMM SECON CODA AMPLIT PERI AZIMU VELO AIN AR TRES W  DIS CAZ7
 LZ4  SN IP       1349 30.92                             166    0.3110 2.61 150 
 LZ4  SZ E        1349 31.02                  330.4  8.4      0        2.61 150 
 LZ4  SE IS       1349 31.67                             166   -0.3110 2.61 150 
 LZ4  SZ  AML     1349 31.68        69.0 0.18                          2.61 150 
                                                                                
 2009  3 6 2034 52.3 L  22.136 -99.430 10.0  RAL  1 0.0 1.4LRAL                1
 GAP=360        0.30       3.7     2.1  0.0 -0.1848E+01 -0.5354E+06  0.1595E+07E
 ACTION:UPD 12-06-08 11:37 OP:RALL STATUS:               ID:20090306203452     I
 2009-03-06-2034-51S.PLUR1_003                                                 6
 STAT SP IPHASW D HRMM SECON CODA AMPLIT PERI AZIMU VELO AIN AR TRES W  DIS CAZ7
 LA4  SZ E        2035  3.56                  350.2 13.2      0        73.3 170 
 LA4  SN IP       2035  4.25                              95    0.0110 73.3 170 
 LA4  SE IS       2035 12.93                              95   -0.0110 73.3 170 
 LA4  SZ  AML     2035 19.45        22.5 0.66                          73.3 170 
                                                                                
 2009  3 7 0314 19.0 L  21.477 -99.311 10.0  RAL  1 0.2-0.3LRAL                1
 GAP=360        0.72     999.9   999.9  0.0 -0.6735E+07 -0.5354E+06  0.1595E+07E
 ACTION:UPD 12-06-08 11:37 OP:RALL STATUS:               ID:20090307031419     I
 2009-03-07-0314-07S.PLUR1_003                                                 6
 STAT SP IPHASW D HRMM SECON CODA AMPLIT PERI AZIMU VELO AIN AR TRES W  DIS CAZ7
 LA4  SZ E         314 21.30                  193.6  9.4      0        0.74  14 
 LA4  SN IP        314 21.31                             176    0.4410 0.74  14 
 LA4  SE IS        314 21.77                             176   -0.4410 0.74  14 
 LA4  SZ  AML      314 22.16         2.8 0.16                          0.74  14 
                                                                                
