 2009  2 4 0843  3.1 L  21.255 -99.241 10.0  RAL  1 0.1-0.2LRAL                1
 GAP=360        0.47      21.1    11.9  0.0 -0.2516E+03 -0.1796E+05  0.4301E+04E
 ACTION:UPD 12-06-08 11:37 OP:RALL STATUS:               ID:20090204084303     I
 2009-02-04-0842-56S.PLUR1_003                                                 6
 STAT SP IPHASW D HRMM SECON CODA AMPLIT PERI AZIMU VELO AIN AR TRES W  DIS CAZ7
 LG3  SZ E         843  5.18                  152.1 10.9      0        2.63 332 
 LG3  SN IP        843  5.24                             166    0.2410 2.63 332 
 LG3  SE IS        843  6.14                             166   -0.2410 2.63 332 
 LG3  SZ  AML      843  6.32         3.3 0.42                          2.63 332 
                                                                                
 2009  2 4 1629 44.6 L  21.323 -99.243 10.0  RAL  1 0.1 0.2LRAL                1
 GAP=360        0.37       4.9    17.4  0.0 -0.8469E+02 -0.1796E+05  0.4301E+04E
 ACTION:UPD 12-06-08 11:37 OP:RALL STATUS:               ID:20090204162944     I
 2009-02-04-1629-38S.PLUR1_003                                                 6
 STAT SP IPHASW D HRMM SECON CODA AMPLIT PERI AZIMU VELO AIN AR TRES W  DIS CAZ7
 LZ4  SN IP       1629 46.60                             164    0.1510 2.89 287 
 LZ4  SZ E        1629 46.78                  106.7 13.7      0        2.89 287 
 LZ4  SE IS       1629 47.69                             164   -0.1510 2.89 287 
 LZ4  SZ  AML     1629 48.00         8.7 0.10                          2.89 287 
                                                                                
 2009  2 4 2303 35.2 L  21.608 -99.232 10.0  RAL  1 0.0 0.2LRAL                1
 GAP=360        0.30       3.7     2.3  0.0  0.8472E+01 -0.1796E+05  0.4301E+04E
 ACTION:UPD 12-06-08 11:37 OP:RALL STATUS:               ID:20090204230335     I
 2009-02-04-2303-26S.PLUR1_003                                                 6
 STAT SP IPHASW D HRMM SECON CODA AMPLIT PERI AZIMU VELO AIN AR TRES W  DIS CAZ7
 LA4  SZ E        23 3 38.41                   30.2  4.7      0        15.9 210 
 LA4  SN IP       23 3 38.47                             120    0.0110 15.9 210 
 LA4  SE IS       23 3 40.80                             120   -0.0110 15.9 210 
 LA4  SZ  AML     23 3 42.45         4.8 0.86                          15.9 210 
                                                                                
 2009  2 5 0213 44.5 L  21.518 -99.348 10.0  RAL  1 0.0 0.1LRAL                1
 GAP=360        0.31       5.5     6.3  0.0 -0.3496E+02 -0.1796E+05  0.4301E+04E
 ACTION:UPD 12-06-08 11:37 OP:RALL STATUS:               ID:20090205021344     I
 2009-02-05-0213-34S.PLUR1_003                                                 6
 STAT SP IPHASW D HRMM SECON CODA AMPLIT PERI AZIMU VELO AIN AR TRES W  DIS CAZ7
 LA4  SZ E         213 46.60                  313.3  9.0      0        5.62 133 
 LA4  SN IP        213 46.60                             151    0.0610 5.62 133 
 LA4  SE IS        213 47.98                             151   -0.0610 5.62 133 
 LA4  SZ  AML      213 48.70         6.4 0.22                          5.62 133 
                                                                                
 2009  2 5 1919 50.6 L  21.268 -99.269 10.0  RAL  1 0.2 0.9LRAL                1
 GAP=360        0.87      28.4    57.2  0.0  0.1622E+04 -0.1796E+05  0.4301E+04E
 ACTION:UPD 12-06-08 11:37 OP:RALL STATUS:               ID:20090205191950     I
 2009-02-05-1919-44S.PLUR1_003                                                 6
 STAT SP IPHASW D HRMM SECON CODA AMPLIT PERI AZIMU VELO AIN AR TRES W  DIS CAZ7
 LG3  SZ E        1919 53.07                  242.0 17.7      0        1.91  62 
 LG3  SN IP       1919 53.07                             170    0.5610 1.91  62 
 LG3  SE IS       1919 53.33                             170   -0.5610 1.91  62 
 LG3  SZ  AML     1919 53.99        45.1 0.10                          1.91  62 
                                                                                
 2009  2 6 0345 49.2 L  21.305 -99.279 10.0  RAL  1 0.1 0.8LRAL                1
 GAP=360        0.36      14.7     5.3  0.0  0.7804E+02 -0.1796E+05  0.4301E+04E
 ACTION:UPD 12-06-08 11:37 OP:RALL STATUS:               ID:20090206034549     I
 2009-02-06-0345-42S.PLUR1_003                                                 6
 STAT SP IPHASW D HRMM SECON CODA AMPLIT PERI AZIMU VELO AIN AR TRES W  DIS CAZ7
 LZ4  SN IP        345 51.26                             163    0.1310 3.08  19 
 LZ4  SZ E         345 51.29                  198.6 21.4      0        3.08  19 
 LZ4  SE IS        345 52.38                             163   -0.1310 3.08  19 
 LZ4  SZ  AML      345 52.52        32.9 0.18                          3.08  19 
                                                                                
 2009  2 6 0851 11.7 L  21.343 -99.299 10.0  RAL  1 0.1-0.1LRAL                1
 GAP=360        0.38       6.2    15.0  0.0 -0.9293E+02 -0.1796E+05  0.4301E+04E
 ACTION:UPD 12-06-08 11:37 OP:RALL STATUS:               ID:20090206085111     I
 2009-02-06-0851-05S.PLUR1_003                                                 6
 STAT SP IPHASW D HRMM SECON CODA AMPLIT PERI AZIMU VELO AIN AR TRES W  DIS CAZ7
 LZ4  SZ E         851 13.73                  293.8 23.1      0        3.32 114 
 LZ4  SN IP        851 13.75                             162    0.1610 3.32 114 
 LZ4  SE IS        851 14.83                             162   -0.1610 3.32 114 
 LZ4  SZ  AML      851 14.98         4.3 0.16                          3.32 114 
                                                                                
 2009  2 6 1406 59.4 L  21.363 -99.313 10.0  RAL  1 0.0 0.4LRAL                1
 GAP=360        0.31       4.8     6.6  0.0 -0.3167E+02 -0.1796E+05  0.4301E+04E
 ACTION:UPD 12-06-08 11:37 OP:RALL STATUS:               ID:20090206140659     I
 2009-02-06-1406-53S.PLUR1_003                                                 6
 STAT SP IPHASW D HRMM SECON CODA AMPLIT PERI AZIMU VELO AIN AR TRES W  DIS CAZ7
 LZ4  SN IP       14 7  1.56                             150    0.0610 5.77 128 
 LZ4  SZ E        14 7  1.56                  307.9 99.9      0        5.77 128 
 LZ4  SE IS       14 7  2.95                             150   -0.0610 5.77 128 
 LZ4  SZ  AML     14 7  5.18        11.7 0.56                          5.77 128 
                                                                                
 2009  2 6 1616 46.2 L  21.337 -99.255 10.0  RAL  1 0.3 0.4LRAL                1
 GAP=360        1.84     194.6   274.9  0.0 -0.5347E+05 -0.1796E+05  0.4301E+04E
 ACTION:UPD 12-06-08 11:37 OP:RALL STATUS:               ID:20090206161646     I
 2009-02-06-1616-39S.PLUR1_003                                                 6
 STAT SP IPHASW D HRMM SECON CODA AMPLIT PERI AZIMU VELO AIN AR TRES W  DIS CAZ7
 LZ4  SZ E        1616 48.63                   71.5  8.4      8        1.65 244 
 LZ4  SN IP       1616 48.67                             171    0.6010 1.65 244 
 LZ4  SE IS       1616 48.82                             171   -0.6010 1.65 244 
 LZ4  SZ  AML     1616 49.07        14.2 0.22                          1.65 244 
                                                                                
 2009  2 6 1628 42.7 L  21.649 -99.291 10.0  RAL  2 0.2 1.0LRAL                1
 GAP=350        2.63      23.2     4.6 42.4  0.5851E+02 -0.4537E+02 -0.3537E+03E
 ACTION:UPD 12-06-08 11:37 OP:RALL STATUS:               ID:20090206162842     I
 2009-02-06-1628-32S.PLUR1_006                                                 6
 STAT SP IPHASW D HRMM SECON CODA AMPLIT PERI AZIMU VELO AIN AR TRES W  DIS CAZ7
 LA4  SZ E        1628 45.56                   17.0 12.0     11        18.3 186 
 LA4  SN IP       1628 45.66                             117   -0.6010 18.3 186 
 LA4  SE IS       1628 48.82                             117   -0.0310 18.3 186 
 LA4  SZ  AML     1628 51.86        27.5 0.36                          18.3 186 
 LZ4  SZ E        1628 48.69                  351.4 12.5     -4        35.2 176 
 LZ4  SN IP       1628 48.86                             101    0.1110 35.2 176 
 LZ4  SE IS       1628 53.68                             101    0.5210 35.2 176 
 LZ4  SZ  AML     1628 54.63        15.3 0.24                          35.2 176 
                                                                                
 2009  2 6 1846 37.1 L  21.310 -99.130 10.0  RAL  2 0.6 0.3LRAL                1
 GAP=316        4.36       5.2    16.6 62.4  0.1004E+02 -0.2494E+03  0.1636E+02E
 ACTION:UPD 12-06-08 11:37 OP:RALL STATUS:               ID:20090206184637     I
 2009-02-06-1846-27S.PLUR1_006                                                 6
 STAT SP IPHASW D HRMM SECON CODA AMPLIT PERI AZIMU VELO AIN AR TRES W  DIS CAZ7
 LZ4  SZ E        1846 41.56                   82.8 30.1    -15        14.7 279 
 LZ4  SN IP       1846 41.56                             126    1.4710 14.7 279 
 LZ4  SE IS       1846 43.15                             126    0.8410 14.7 279 
 LZ4  SZ  AML     1846 44.19        21.0 0.16                          14.7 279 
 LD5  SN IP       1846 41.20                             112   -0.2010 24.0 235 
 LD5  SZ E        1846 41.21                   54.1 10.2      0        24.0 235 
 LD5  SE IS       1846 42.47                             112   -2.1010 24.0 235 
 LD5  SZ  AML     1846 44.09         1.6 0.38                          24.0 235 
                                                                                
 2009  2 6 2026 47.3 L  21.238 -99.260 10.0  RAL  1 0.0 0.2LRAL                1
 GAP=360        0.30       5.1     0.6  0.0 -0.2756E+01 -0.2494E+03  0.1636E+02E
 ACTION:UPD 12-06-08 11:37 OP:RALL STATUS:               ID:20090206202647     I
 2009-02-06-2026-42S.PLUR1_003                                                 6
 STAT SP IPHASW D HRMM SECON CODA AMPLIT PERI AZIMU VELO AIN AR TRES W  DIS CAZ7
 LZ4  SZ E        2026 49.72                  174.3  9.8      0        10.3 354 
 LZ4  SN IP       2026 49.79                             134    0.0010 10.3 354 
 LZ4  SE IS       2026 51.61                             134    0.0010 10.3 354 
 LZ4  SZ  AML     2026 52.31         6.4 0.10                          10.3 354 
                                                                                
 2009  2 7 2005  1.2 L  21.616 -99.426 10.0  RAL  1 0.0 1.2LRAL                1
 GAP=360        0.30       3.2     2.8  0.0 -0.8657E+01 -0.2494E+03  0.1636E+02E
 ACTION:UPD 12-06-08 11:37 OP:RALL STATUS:               ID:20090207200501     I
 2009-02-07-2004-51S.PLUR1_003                                                 6
 STAT SP IPHASW D HRMM SECON CODA AMPLIT PERI AZIMU VELO AIN AR TRES W  DIS CAZ7
 LA4  SZ E        20 5  4.76                  320.5 10.1      0        19.0 140 
 LA4  SN IP       20 5  4.86                             115    0.0110 19.0 140 
 LA4  SE IS       20 5  7.50                             115   -0.0110 19.0 140 
 LA4  SZ  AML     20 5  7.98        39.7 0.30                          19.0 140 
                                                                                
 2009  2 7 2308 42.1 L  21.348 -99.289 10.0  RAL  1 0.1 1.1LRAL                1
 GAP=360        0.59      19.5    21.9  0.0 -0.4267E+03 -0.2494E+03  0.1636E+02E
 ACTION:UPD 12-06-08 11:37 OP:RALL STATUS:               ID:20090207230842     I
 2009-02-07-2308-34S.PLUR1_003                                                 6
 STAT SP IPHASW D HRMM SECON CODA AMPLIT PERI AZIMU VELO AIN AR TRES W  DIS CAZ7
 LZ4  SZ E        23 8 44.31                  313.6 21.1      0        2.78 134 
 LZ4  SN IP       23 8 44.35                             165    0.3410 2.78 134 
 LZ4  SE IS       23 8 45.04                             165   -0.3410 2.78 134 
 LZ4  SZ  AML     23 8 45.10        76.6 0.16                          2.78 134 
                                                                                
 2009  2 8 1626  1.7 L  21.182 -99.310 10.0  RAL  1 0.3-0.2LRAL                1
 GAP=360        3.02     999.9   999.9  0.0  0.6596E+08 -0.2494E+03  0.1636E+02E
 ACTION:UPD 12-06-08 11:37 OP:RALL STATUS:               ID:20090208162601     I
 2009-02-08-1625-49S.PLUR1_003                                                 6
 STAT SP IPHASW D HRMM SECON CODA AMPLIT PERI AZIMU VELO AIN AR TRES W  DIS CAZ7
 LD5  SN IP       1626  4.00                             174    0.4810 1.16 295 
 LD5  SZ E        1626  4.01                  101.3 11.3    -13        1.16 295 
 LD5  SE IS       1626  4.39                             174   -0.4810 1.16 295 
 LD5  SZ  AML     1626  4.48         3.8 0.16                          1.16 295 
                                                                                
 2009  2 8 1822 30.7 R  22.474 -99.581  9.8  RAL  2 0.3 2.3LRAL                1
 GAP=360        4.66      42.3    38.1 31.8 -0.1615E+03  0.8117E+02 -0.2838E+03E
 ACTION:UPD 12-06-08 11:37 OP:RALL STATUS:               ID:20090208182230     I
 2009-02-08-1822-34S.PLUR1_006                                                 6
 STAT SP IPHASW D HRMM SECON CODA AMPLIT PERI AZIMU VELO AIN AR TRES W  DIS CAZ7
 LA4  SZ E        1822 48.75                    0.6  9.1     15         113 166 
 LA4  SN IP       1822 48.82                              93    0.0710  113 166 
 LA4  SE IS       1823  1.91                              93   -0.0410  113 166 
 LA4  SZ  AML     1823  8.47        65.2 0.84                           113 166 
 LZ4  SN IP       1822 51.30                              52   -0.0610  131 166 
 LZ4  SZ E        1822 51.38                  328.6  8.4    -16         131 166 
 LZ4  SE IS       1823  6.50                              52    0.0410  131 166 
 LZ4  SZ  AML     1823 12.68       103.8 0.74                           131 166 
                                                                                
 2009  2 8 1827 48.4 L  22.465 -99.508 10.0  RAL  1 0.0 1.8LRAL                1
 GAP=360        0.30       3.7     3.1  0.0 -0.1097E+01  0.8117E+02 -0.2838E+03E
 ACTION:UPD 12-06-08 11:37 OP:RALL STATUS:               ID:20090208182748     I
 2009-02-08-1827-51S.PLUR1_009                                                 6
 STAT SP IPHASW D HRMM SECON CODA AMPLIT PERI AZIMU VELO AIN AR TRES W  DIS CAZ7
 LA4  SZ E        1828  5.22                  349.3 10.8      0         111 169 
 LA4  SN IP       1828  6.06                              93    0.0010  111 169 
 LA4  SE IS       1828 18.97                              93    0.0010  111 169 
 LA4  SZ  AML     1828 19.41        32.4 0.18                           111 169 
                                                                                
 2009  2 8 2210 25.7 L  21.331 -99.272 10.0  RAL  1 0.2 0.7LRAL                1
 GAP=360        3.14     999.9   280.8  0.0 -0.1396E+07  0.8117E+02 -0.2838E+03E
 ACTION:UPD 12-06-08 11:37 OP:RALL STATUS:               ID:20090208221025     I
 2009-02-08-2210-18S.PLUR1_003                                                 6
 STAT SP IPHASW D HRMM SECON CODA AMPLIT PERI AZIMU VELO AIN AR TRES W  DIS CAZ7
 LZ4  SZ E        2210 27.63                  267.1 15.7    -14        0.31 102 
 LZ4  SN IP       2210 27.68                             178    0.1810 0.31 102 
 LZ4  SE IS       2210 28.65                             178   -0.1810 0.31 102 
 LZ4  SZ  AML     2210 28.99        29.7 0.46                          0.31 102 
                                                                                
 2009  2 8 2344 38.4 L  21.531 -99.343 10.0  RAL  1 0.0 0.9LRAL                1
 GAP=360        0.30       3.7     1.5  0.0 -0.5001E+01  0.8117E+02 -0.2838E+03E
 ACTION:UPD 12-06-08 11:37 OP:RALL STATUS:               ID:20090208234438     I
 2009-02-08-2344-36S.PLUR1_003                                                 6
 STAT SP IPHASW D HRMM SECON CODA AMPLIT PERI AZIMU VELO AIN AR TRES W  DIS CAZ7
 LZ4  SZ E        2344 42.59                  341.1 19.8      0        23.4 161 
 LZ4  SN IP       2344 42.64                             109    0.0210 23.4 161 
 LZ4  SE IS       2344 45.71                             109   -0.0210 23.4 161 
 LZ4  SZ  AML     2344 48.54        16.7 0.50                          23.4 161 
                                                                                
 2009  2 9 0225 15.7 L  21.302 -99.298 10.0  RAL  1 0.1 0.8LRAL                1
 GAP=360        0.35       8.4     8.3  0.0  0.6962E+02  0.8117E+02 -0.2838E+03E
 ACTION:UPD 12-06-08 11:37 OP:RALL STATUS:               ID:20090209022515     I
 2009-02-09-0225-08S.PLUR1_003                                                 6
 STAT SP IPHASW D HRMM SECON CODA AMPLIT PERI AZIMU VELO AIN AR TRES W  DIS CAZ7
 LZ4  SN IP        225 17.81                             157    0.1310 4.32  42 
 LZ4  SZ E         225 18.07                  222.5 20.4      0        4.32  42 
 LZ4  SE IS        225 18.98                             157   -0.1310 4.32  42 
 LZ4  SZ  AML      225 19.28        31.3 0.16                          4.32  42 
                                                                                
 2009  2 9 0726 11.0 L  21.503 -99.332 10.0  RAL  1 0.1 0.4LRAL                1
 GAP=360        0.49      13.9    16.7  0.0 -0.2308E+03  0.8117E+02 -0.2838E+03E
 ACTION:UPD 12-06-08 11:37 OP:RALL STATUS:               ID:20090209072611     I
 2009-02-09-0725-59S.PLUR1_003                                                 6
 STAT SP IPHASW D HRMM SECON CODA AMPLIT PERI AZIMU VELO AIN AR TRES W  DIS CAZ7
 LA4  SN IP        726 13.16                             163    0.2610 3.16 132 
 LA4  SZ E         726 13.19                  311.8 16.6      0        3.16 132 
 LA4  SE IS        726 14.04                             163   -0.2610 3.16 132 
 LA4  SZ  AML      726 14.20        13.9 0.30                          3.16 132 
                                                                                
 2009  2 9 1248 15.0 L  21.355 -99.281 10.0  RAL  1 0.1 0.4LRAL                1
 GAP=360        0.44      18.1     8.3  0.0 -0.1502E+03  0.8117E+02 -0.2838E+03E
 ACTION:UPD 12-06-08 11:37 OP:RALL STATUS:               ID:20090209124815     I
 2009-02-09-1248-09S.PLUR1_003                                                 6
 STAT SP IPHASW D HRMM SECON CODA AMPLIT PERI AZIMU VELO AIN AR TRES W  DIS CAZ7
 LZ4  SZ E        1248 17.09                  336.9  7.3      0        2.97 157 
 LZ4  SN IP       1248 17.10                             164    0.2210 2.97 157 
 LZ4  SE IS       1248 18.05                             164   -0.2210 2.97 157 
 LZ4  SZ  AML     1248 18.09        13.1 0.72                          2.97 157 
                                                                                
 2009  210 0313 51.0 L  21.335 -99.287 10.0  RAL  1 0.1 0.3LRAL                1
 GAP=360        0.41       7.4    28.7  0.0 -0.2111E+03  0.8117E+02 -0.2838E+03E
 ACTION:UPD 12-06-08 11:37 OP:RALL STATUS:               ID:20090210031351     I
 2009-02-10-0313-44S.PLUR1_003                                                 6
 STAT SP IPHASW D HRMM SECON CODA AMPLIT PERI AZIMU VELO AIN AR TRES W  DIS CAZ7
 LZ4  SZ E         313 53.02                  285.4 28.6      0        1.92 105 
 LZ4  SN IP        313 53.03                             169    0.1910 1.92 105 
 LZ4  SE IS        313 54.01                             169   -0.1910 1.92 105 
 LZ4  SZ  AML      313 55.46         9.9 0.50                          1.92 105 
                                                                                
