 2009  820 0041 29.2 R  21.525 -97.916 10.0  RAL  1 0.0 2.0LRAL                1
 GAP=360        0.30       3.7     5.0  0.0  0.1793E+01  0.9921E-01 -0.9950E-02E
 ACTION:UPD 12-06-08 11:37 OP:RALL STATUS:               ID:20090820004129     I
 2009-08-20-0041-42S.PLUR1_003                                                 6
 STAT SP IPHASW D HRMM SECON CODA AMPLIT PERI AZIMU VELO AIN AR TRES W  DIS CAZ7
 LG3  SZ E         041 50.66                   78.5 15.0      0         141 259 
 LG3  SN IP        041 51.23                              52    0.0110  141 259 
 LG3  SE IS        042  7.27                              52   -0.0110  141 259 
 LG3  SZ  AML      042 11.62        38.4 0.36                           141 259 
                                                                                
 2009  820 1613 22.0 L  21.267 -99.251 10.0  RAL  1 0.1 1.1LRAL                1
 GAP=360        0.63     999.9   999.9  0.0  0.1379E+08  0.9921E-01 -0.9950E-02E
 ACTION:UPD 12-06-08 11:37 OP:RALL STATUS:               ID:20090820161322     I
 2009-08-20-1613-15S.PLUR1_003                                                 6
 STAT SP IPHASW D HRMM SECON CODA AMPLIT PERI AZIMU VELO AIN AR TRES W  DIS CAZ7
 LG3  SN IP       1613 24.25                             175    0.3610 0.91 353 
 LG3  SZ E        1613 24.29                  172.0 17.5      0        0.91 353 
 LG3  SE IS       1613 24.88                             175   -0.3610 0.91 353 
 LG3  SZ  AML     1613 25.07        72.4 0.22                          0.91 353 
                                                                                
 2009  822 0723 14.7 L  21.133 -99.111 10.0  RAL  1 0.0 2.3LRAL                1
 GAP=360        0.30       2.9     2.9  0.0 -0.8275E+01  0.9921E-01 -0.9950E-02E
 ACTION:UPD 12-06-08 11:37 OP:RALL STATUS:               ID:20090822072314     I
 2009-08-22-0723-09S.PLUR1_003                                                 6
 STAT SP IPHASW D HRMM SECON CODA AMPLIT PERI AZIMU VELO AIN AR TRES W  DIS CAZ7
 LG3  SZ E         723 18.70                  137.1 12.4      0        21.6 317 
 LG3  SN IP        723 18.72                             112    0.0010 21.6 317 
 LG3  SE IS        723 21.64                             112    0.0010 21.6 317 
 LG3  SZ  AML      723 25.17       488.7 0.34                          21.6 317 
                                                                                
 2009  822 1222 59.6 L  21.184 -99.327 10.0  RAL  1 0.3 1.4LRAL                1
 GAP=360        4.05     999.9   999.9  0.0 -0.3798E+09  0.9921E-01 -0.9950E-02E
 ACTION:UPD 12-06-08 11:37 OP:RALL STATUS:               ID:20090822122259     I
 2009-08-22-1222-56S.PLUR1_003                                                 6
 STAT SP IPHASW D HRMM SECON CODA AMPLIT PERI AZIMU VELO AIN AR TRES W  DIS CAZ7
 LD5  SN IP       1223  1.52                             176    0.0510 0.72  71 
 LD5  SZ E        1223  1.54                  270.0 10.9     19        0.72  71 
 LD5  SE IS       1223  2.75                             176   -0.0510 0.72  71 
 LD5  SZ  AML     1223  3.88       137.7 0.28                          0.72  71 
                                                                                
 2009  823 2028 13.2 L  21.253 -99.241 10.0  RAL  1 0.1 0.6LRAL                1
 GAP=360        0.42      18.4     9.2  0.0 -0.1703E+03  0.9921E-01 -0.9950E-02E
 ACTION:UPD 12-06-08 11:37 OP:RALL STATUS:               ID:20090823202813     I
 2009-08-23-2028-07S.PLUR1_003                                                 6
 STAT SP IPHASW D HRMM SECON CODA AMPLIT PERI AZIMU VELO AIN AR TRES W  DIS CAZ7
 LG3  SZ E        2028 15.30                  154.9 10.8      0        2.77 335 
 LG3  SN IP       2028 15.35                             165    0.2010 2.77 335 
 LG3  SE IS       2028 16.34                             165   -0.2010 2.77 335 
 LG3  SZ  AML     2028 16.50        22.1 0.24                          2.77 335 
                                                                                
 2009  825 1402 13.5 L  21.154 -99.205 10.0  RAL  2 0.5 0.4LRAL                1
 GAP=340        8.94      15.8    23.4 73.3 -0.3677E+03  0.3204E+03 -0.2149E+03E
 ACTION:UPD 12-06-08 11:37 OP:RALL STATUS:               ID:20090825140213     I
 2009-08-25-1402-07S.PLUR1_006                                                 6
 STAT SP IPHASW D HRMM SECON CODA AMPLIT PERI AZIMU VELO AIN AR TRES W  DIS CAZ7
 LO8  SZ E        14 2 15.42                  129.2  5.9      3        0.99 306 
 LO8  SN IP       14 2 15.45                             175    0.0410 0.99 306 
 LO8  SE IS       14 2 17.08                             175    0.2910 0.99 306 
 LO8  SZ  AML     14 2 17.22        12.1 0.24                          0.99 306 
 LD5  SZ E        14 2 16.58                   63.1  7.4    -42        12.4 287 
 LD5  SN IP       14 2 16.61                             128    0.3410 12.4 287 
 LD5  SE IS       14 2 17.60                             128   -0.6810 12.4 287 
 LD5  SZ  AML     14 2 17.77        10.9 0.24                          12.4 287 
                                                                                
 2009  826 0449 43.6 L  21.449 -99.250 10.0  RAL  1 0.0 0.2LRAL                1
 GAP=360        0.30       4.1     0.5  0.0  0.2795E+00  0.3204E+03 -0.2149E+03E
 ACTION:UPD 12-06-08 11:37 OP:RALL STATUS:               ID:20090826044943     I
 2009-08-26-0449-40S.PLUR1_003                                                 6
 STAT SP IPHASW D HRMM SECON CODA AMPLIT PERI AZIMU VELO AIN AR TRES W  DIS CAZ7
 LG3  SZ E         449 47.07                    0.9  5.6      0        19.2 181 
 LG3  SN IP        449 47.23                             115    0.0210 19.2 181 
 LG3  SE IS        449 49.87                             115   -0.0210 19.2 181 
 LG3  SZ  AML      449 52.22         4.8 0.44                          19.2 181 
                                                                                
 2009  827 0202 25.9 L  20.745 -98.669 10.0  RAL  1 0.0 1.3LRAL                1
 GAP=360        0.30       3.0     3.3  0.0 -0.4794E+01  0.3204E+03 -0.2149E+03E
 ACTION:UPD 12-06-08 11:37 OP:RALL STATUS:               ID:20090827020225     I
 2009-08-27-0202-31S.PLUR1_003                                                 6
 STAT SP IPHASW D HRMM SECON CODA AMPLIT PERI AZIMU VELO AIN AR TRES W  DIS CAZ7
 LG3  SZ E         2 2 39.36                  134.0 11.0      0        84.5 314 
 LG3  SN IP        2 2 39.60                              94    0.0110 84.5 314 
 LG3  SE IS        2 2 49.54                              94   -0.0110 84.5 314 
 LG3  SZ  AML      2 2 50.58        15.1 0.12                          84.5 314 
                                                                                
 2009  827 2046 17.8 L  21.234 -99.322 10.0  RAL  1 0.0 0.7LRAL                1
 GAP=360        0.30       3.1     5.2  0.0  0.1591E+02  0.3204E+03 -0.2149E+03E
 ACTION:UPD 12-06-08 11:37 OP:RALL STATUS:               ID:20090827204617     I
 2009-08-27-2046-11S.PLUR1_003                                                 6
 STAT SP IPHASW D HRMM SECON CODA AMPLIT PERI AZIMU VELO AIN AR TRES W  DIS CAZ7
 LG3  SZ E        2046 20.12                  237.5 15.5      0        8.61  57 
 LG3  SN IP       2046 20.12                             140    0.0210 8.61  57 
 LG3  SE IS       2046 21.78                             140   -0.0210 8.61  57 
 LG3  SZ  AML     2046 22.54        23.2 0.10                          8.61  57 
                                                                                
 2009  828 0238 18.6 L  21.176 -99.343 10.0  RAL  1 0.1-0.4LRAL                1
 GAP=360        0.49      11.3    23.3  0.0  0.2628E+03  0.3204E+03 -0.2149E+03E
 ACTION:UPD 12-06-08 11:37 OP:RALL STATUS:               ID:20090828023818     I
 2009-08-28-0238-17S.PLUR1_003                                                 6
 STAT SP IPHASW D HRMM SECON CODA AMPLIT PERI AZIMU VELO AIN AR TRES W  DIS CAZ7
 LD5  SZ E         238 20.68                  242.6 33.5      0        2.64  63 
 LD5  SN IP        238 20.73                             166    0.2610 2.64  63 
 LD5  SE IS        238 21.58                             166   -0.2610 2.64  63 
 LD5  SZ  AML      238 22.09         2.0 0.24                          2.64  63 
                                                                                
 2009  828 0258 43.0 L  21.190 -99.099 10.0  RAL  1 0.0 0.5LRAL                1
 GAP=360        0.30       2.1     3.8  0.0 -0.7842E+01  0.3204E+03 -0.2149E+03E
 ACTION:UPD 12-06-08 11:37 OP:RALL STATUS:               ID:20090828025843     I
 2009-08-28-0258-37S.PLUR1_003                                                 6
 STAT SP IPHASW D HRMM SECON CODA AMPLIT PERI AZIMU VELO AIN AR TRES W  DIS CAZ7
 LG3  SN IP        258 46.63                             116    0.0110 18.5 301 
 LG3  SZ E         258 46.69                  120.8 40.4      0        18.5 301 
 LG3  SE IS        258 49.23                             116   -0.0110 18.5 301 
 LG3  SZ  AML      258 51.75         9.2 0.20                          18.5 301 
                                                                                
 2009  828 1426 32.3 L  21.252 -99.232 10.0  RAL  1 0.1 1.1LRAL                1
 GAP=360        0.41      12.5    11.0  0.0 -0.1373E+03  0.3204E+03 -0.2149E+03E
 ACTION:UPD 12-06-08 11:37 OP:RALL STATUS:               ID:20090828142632     I
 2009-08-28-1426-25S.PLUR1_003                                                 6
 STAT SP IPHASW D HRMM SECON CODA AMPLIT PERI AZIMU VELO AIN AR TRES W  DIS CAZ7
 LG3  SZ E        1426 34.39                  140.6 16.7      0        3.42 321 
 LG3  SN IP       1426 34.43                             162    0.1910 3.42 321 
 LG3  SE IS       1426 35.47                             162   -0.1910 3.42 321 
 LG3  SZ  AML     1426 35.61        61.6 0.26                          3.42 321 
                                                                                
 2009  828 1531 48.2 L  21.229 -99.310 10.0  RAL  1 0.0 1.6LRAL                1
 GAP=360        0.30       4.0     4.9  0.0  0.1946E+02  0.3204E+03 -0.2149E+03E
 ACTION:UPD 12-06-08 11:37 OP:RALL STATUS:               ID:20090828153148     I
 2009-08-28-1531-41S.PLUR1_003                                                 6
 STAT SP IPHASW D HRMM SECON CODA AMPLIT PERI AZIMU VELO AIN AR TRES W  DIS CAZ7
 LG3  SZ E        1531 50.49                  229.0 15.9      0        7.93  49 
 LG3  SN IP       1531 50.54                             142    0.0310 7.93  49 
 LG3  SE IS       1531 52.14                             142   -0.0310 7.93  49 
 LG3  SZ  AML     1531 52.43       167.8 0.18                          7.93  49 
                                                                                
 2009  828 2031 30.7 L  21.286 -99.399 10.0  RAL  3 1.7 0.5LRAL                1
 GAP=249       30.13      36.6    33.1337.0 -0.3230E+03  0.1205E+03  0.2149E+03E
 ACTION:UPD 12-06-08 11:37 OP:RALL STATUS:               ID:20090828203130     I
 2009-08-28-2031-27S.PLUR1_009                                                 6
 STAT SP IPHASW D HRMM SECON CODA AMPLIT PERI AZIMU VELO AIN AR TRES W  DIS CAZ7
 LD5  SZ E        2031 35.75                    3.4 10.6     40        13.8 143 
 LD5  SN IP       2031 35.88                             128    2.2510 13.8 143 
 LD5  SE IS       2031 38.24                             128    2.4810 13.8 143 
 LD5  SZ  AML     2031 40.79         6.3 0.44                          13.8 143 
 LT7  SZ E        2031 32.13                  164.2  6.7    -47        14.2  32 
 LT7  SN IP       2031 32.15                             122   -1.5010 14.2  32 
 LT7  SE IS       2031 33.52                             122   -2.2810 14.2  32 
 LT7  SZ  AML     2031 33.53        24.3 0.18                          14.2  32 
 LO8  SZ E        2031 34.48                  145.0  6.1    -99        23.9 126 
 LO8  SN IP       2031 34.51                             111   -0.5610 23.9 126 
 LO8  SE IS       2031 37.87                             111   -0.3910 23.9 126 
 LO8  SZ  AML     2031 38.97         4.2 0.32                          23.9 126 
                                                                                
 2009  829 0113 43.8 L  21.283 -99.236 10.0  RAL  1 0.3 0.5LRAL                1
 GAP=360        3.20      93.5   223.2  0.0  0.2088E+05  0.1205E+03  0.2149E+03E
 ACTION:UPD 12-06-08 11:37 OP:RALL STATUS:               ID:20090829011343     I
 2009-08-29-0113-37S.PLUR1_003                                                 6
 STAT SP IPHASW D HRMM SECON CODA AMPLIT PERI AZIMU VELO AIN AR TRES W  DIS CAZ7
 LG3  SN IP        113 45.98                             170    0.2510 1.85 246 
 LG3  SZ E         113 45.99                   80.9 18.5     15        1.85 246 
 LG3  SE IS        113 46.84                             170   -0.2510 1.85 246 
 LG3  SZ  AML      113 47.15        16.5 0.60                          1.85 246 
                                                                                
 2009  830 0051 21.3 L  21.199 -99.106 10.0  RAL  1 0.0 0.3LRAL                1
 GAP=360        0.30       2.1     3.9  0.0 -0.7848E+01  0.1205E+03  0.2149E+03E
 ACTION:UPD 12-06-08 11:37 OP:RALL STATUS:               ID:20090830005121     I
 2009-08-30-0051-17S.PLUR1_003                                                 6
 STAT SP IPHASW D HRMM SECON CODA AMPLIT PERI AZIMU VELO AIN AR TRES W  DIS CAZ7
 LG3  SN IP        051 24.73                             118    0.0110 17.4 299 
 LG3  SZ E         051 24.81                  119.1 20.6      0        17.4 299 
 LG3  SE IS        051 27.21                             118   -0.0110 17.4 299 
 LG3  SZ  AML      051 28.58         6.1 0.26                          17.4 299 
                                                                                
 2009  830 0100 32.9 L  21.102 -99.717 10.0  RAL  1 0.0 0.9LRAL                1
 GAP=360        0.30       1.9     3.7  0.0  0.4480E+01  0.1205E+03  0.2149E+03E
 ACTION:UPD 12-06-08 11:37 OP:RALL STATUS:               ID:20090830010032     I
 2009-08-30-0100-38S.PLUR1_003                                                 6
 STAT SP IPHASW D HRMM SECON CODA AMPLIT PERI AZIMU VELO AIN AR TRES W  DIS CAZ7
 LG3  SN IP        1 0 41.50                              97    0.0110 51.9  68 
 LG3  SZ E         1 0 41.53                  248.3 16.1      0        51.9  68 
 LG3  SE IS        1 0 47.76                              97   -0.0110 51.9  68 
 LG3  SZ  AML      1 0 49.98        10.1 0.48                          51.9  68 
                                                                                
