 2009  718 0729  4.0 L  21.217 -99.296 10.0  RAL  1 0.0 1.2LRAL                1
 GAP=360        0.30       4.5     1.1  0.0  0.4636E+01  0.6971E+06  0.9278E+06E
 ACTION:UPD 12-06-08 11:37 OP:RALL STATUS:               ID:20090718072904     I
 2009-07-18-0728-57S.PLUR1_003                                                 6
 STAT SP IPHASW D HRMM SECON CODA AMPLIT PERI AZIMU VELO AIN AR TRES W  DIS CAZ7
 LZ4  SZ E         729  6.75                  192.2 10.6      0        12.9  12 
 LZ4  SN IP        729  6.77                             126    0.0010 12.9  12 
 LZ4  SE IS        729  8.82                             126    0.0010 12.9  12 
 LZ4  SZ  AML      729  9.91        55.0 0.16                          12.9  12 
                                                                                
 2009  718 1135 29.4 L  21.185 -99.200 10.0  RAL  1 0.0 0.8LRAL                1
 GAP=360        0.30       4.3     2.5  0.0 -0.1071E+02  0.6971E+06  0.9278E+06E
 ACTION:UPD 12-06-08 11:37 OP:RALL STATUS:               ID:20090718113529     I
 2009-07-18-1135-24S.PLUR1_003                                                 6
 STAT SP IPHASW D HRMM SECON CODA AMPLIT PERI AZIMU VELO AIN AR TRES W  DIS CAZ7
 LG3  SZ E        1135 32.08                  151.6 12.1      0        11.4 332 
 LG3  SN IP       1135 32.08                             131    0.0210 11.4 332 
 LG3  SE IS       1135 33.97                             131   -0.0210 11.4 332 
 LG3  SZ  AML     1135 35.05        26.6 0.38                          11.4 332 
                                                                                
 2009  718 1530 26.0 L  21.287 -99.155 10.0  RAL  1 0.0 0.6LRAL                1
 GAP=360        0.30       1.7     4.6  0.0 -0.7848E+01  0.6971E+06  0.9278E+06E
 ACTION:UPD 12-06-08 11:37 OP:RALL STATUS:               ID:20090718153026     I
 2009-07-18-1530-21S.PLUR1_003                                                 6
 STAT SP IPHASW D HRMM SECON CODA AMPLIT PERI AZIMU VELO AIN AR TRES W  DIS CAZ7
 LZ4  SZ E        1530 28.76                  111.9 26.7      0        12.8 292 
 LZ4  SN IP       1530 28.79                             127    0.0110 12.8 292 
 LZ4  SE IS       1530 30.82                             127   -0.0110 12.8 292 
 LZ4  SZ  AML     1530 31.88        13.8 0.14                          12.8 292 
                                                                                
 2009  718 1654 13.3 L  21.352 -99.300 10.0  RAL  1 0.1 0.3LRAL                1
 GAP=360        0.40       8.5    12.0  0.0 -0.1022E+03  0.6971E+06  0.9278E+06E
 ACTION:UPD 12-06-08 11:37 OP:RALL STATUS:               ID:20090718165413     I
 2009-07-18-1654-06S.PLUR1_003                                                 6
 STAT SP IPHASW D HRMM SECON CODA AMPLIT PERI AZIMU VELO AIN AR TRES W  DIS CAZ7
 LZ4  SZ E        1654 15.42                  307.3 23.4      0        3.92 127 
 LZ4  SN IP       1654 15.42                             159    0.1810 3.92 127 
 LZ4  SE IS       1654 16.47                             159   -0.1810 3.92 127 
 LZ4  SZ  AML     1654 16.95        10.4 0.38                          3.92 127 
                                                                                
 2009  719 0140 26.7 L  21.337 -99.283 10.0  RAL  1 0.1 0.5LRAL                1
 GAP=360        0.64     999.9   999.9  0.0  0.2693E+07  0.6971E+06  0.9278E+06E
 ACTION:UPD 12-06-08 11:37 OP:RALL STATUS:               ID:20090719014026     I
 2009-07-19-0140-19S.PLUR1_003                                                 6
 STAT SP IPHASW D HRMM SECON CODA AMPLIT PERI AZIMU VELO AIN AR TRES W  DIS CAZ7
 LZ4  SZ E         140 28.94                  294.5 22.2      0        1.52 115 
 LZ4  SN IP        140 28.95                             172    0.3710 1.52 115 
 LZ4  SE IS        140 29.55                             172   -0.3710 1.52 115 
 LZ4  SZ  AML      140 29.64        18.8 0.14                          1.52 115 
                                                                                
 2009  719 0247 52.0 L  21.460 -99.350 10.0  RAL  1 0.0 0.1LRAL                1
 GAP=360        0.32       4.8     8.2  0.0  0.3909E+02  0.6971E+06  0.9278E+06E
 ACTION:UPD 12-06-08 11:37 OP:RALL STATUS:               ID:20090719024752     I
 2009-07-19-0247-41S.PLUR1_003                                                 6
 STAT SP IPHASW D HRMM SECON CODA AMPLIT PERI AZIMU VELO AIN AR TRES W  DIS CAZ7
 LA4  SZ E         247 54.04                  238.0 32.2      0        5.01  58 
 LA4  SN IP        247 54.05                             154    0.0710 5.01  58 
 LA4  SE IS        247 55.38                             154   -0.0710 5.01  58 
 LA4  SZ  AML      247 56.40         7.0 0.38                          5.01  58 
                                                                                
 2009  719 0441 23.1 L  21.310 -99.260 10.0  RAL  1 0.2 0.3LRAL                1
 GAP=360        1.32      62.6    29.4  0.0 -0.1842E+04  0.6971E+06  0.9278E+06E
 ACTION:UPD 12-06-08 11:37 OP:RALL STATUS:               ID:20090719044123     I
 2009-07-19-0441-16S.PLUR1_003                                                 6
 STAT SP IPHASW D HRMM SECON CODA AMPLIT PERI AZIMU VELO AIN AR TRES W  DIS CAZ7
 LZ4  SN IP        441 25.32                             166    0.3810 2.56 336 
 LZ4  SZ E         441 25.35                  150.8 27.6     -5        2.56 336 
 LZ4  SE IS        441 25.94                             166   -0.3810 2.56 336 
 LZ4  SZ  AML      441 26.04        11.3 0.28                          2.56 336 
                                                                                
 2009  719 0702 11.7 L  21.601 -99.486 10.0  RAL  1 0.0 1.9LRAL                1
 GAP=360        0.30       3.1     2.6  0.0 -0.6871E+01  0.6971E+06  0.9278E+06E
 ACTION:UPD 12-06-08 11:37 OP:RALL STATUS:               ID:20090719070211     I
 2009-07-19-0702-08S.PLUR1_003                                                 6
 STAT SP IPHASW D HRMM SECON CODA AMPLIT PERI AZIMU VELO AIN AR TRES W  DIS CAZ7
 LZ4  SN IP        7 2 18.10                             101    0.0210 37.4 143 
 LZ4  SZ E         7 2 18.11                  323.2 11.6      0        37.4 143 
 LZ4  SE IS        7 2 22.71                             101   -0.0210 37.4 143 
 LZ4  SZ  AML      7 2 22.97       128.7 0.26                          37.4 143 
                                                                                
 2009  719 0745 45.6 L  21.467 -99.503 10.0  RAL  1 0.0 1.1LRAL                1
 GAP=360        0.30       2.1     3.5  0.0 -0.6896E+01  0.6971E+06  0.9278E+06E
 ACTION:UPD 12-06-08 11:37 OP:RALL STATUS:               ID:20090719074545     I
 2009-07-19-0745-41S.PLUR1_003                                                 6
 STAT SP IPHASW D HRMM SECON CODA AMPLIT PERI AZIMU VELO AIN AR TRES W  DIS CAZ7
 LZ4  SN IP        745 50.60                             105    0.0210 28.5 122 
 LZ4  SZ E         745 50.64                  301.9 12.2      0        28.5 122 
 LZ4  SE IS        745 54.21                             105   -0.0210 28.5 122 
 LZ4  SZ  AML      745 55.56        27.7 0.28                          28.5 122 
                                                                                
 2009  719 1044 31.6 L  21.341 -99.285 10.0  RAL  1 0.3 1.9LRAL                1
 GAP=360        2.18      81.8   129.0  0.0 -0.1055E+05  0.6971E+06  0.9278E+06E
 ACTION:UPD 12-06-08 11:37 OP:RALL STATUS:               ID:20090719104431     I
 2009-07-19-1044-24S.PLUR1_003                                                 6
 STAT SP IPHASW D HRMM SECON CODA AMPLIT PERI AZIMU VELO AIN AR TRES W  DIS CAZ7
 LZ4  SZ E        1044 34.04                  294.7 16.5     -9        1.96 124 
 LZ4  SN IP       1044 34.04                             169    0.5510 1.96 124 
 LZ4  SE IS       1044 34.29                             169   -0.5510 1.96 124 
 LZ4  SZ  AML     1044 34.38       406.8 0.14                          1.96 124 
                                                                                
 2009  719 1919 52.9 L                       RAL  0                            1
 ACTION:UPD 12-06-08 11:37 OP:RALL STATUS:               ID:20090719191952     I
 2009-07-19-1919-52S.PLUR1_003                                                 6
 STAT SP IPHASW D HRMM SECON CODA AMPLIT PERI AZIMU VELO AIN AR TRES W  DIS CAZ7
                                                                                
 2009  723 0507 49.1 L  21.206 -99.100 10.0  RAL  1 0.0 1.0LRAL                1
 GAP=360        0.30       1.9     4.0  0.0 -0.7214E+01  0.6971E+06  0.9278E+06E
 ACTION:UPD 12-06-08 11:37 OP:RALL STATUS:               ID:20090723050749     I
 2009-07-23-0507-43S.PLUR1_003                                                 6
 STAT SP IPHASW D HRMM SECON CODA AMPLIT PERI AZIMU VELO AIN AR TRES W  DIS CAZ7
 LG3  SZ E         5 7 52.50                  116.0 14.7      0        17.6 296 
 LG3  SN IP        5 7 52.52                             117    0.0010 17.6 296 
 LG3  SE IS        5 7 55.03                             117    0.0010 17.6 296 
 LG3  SZ  AML      5 7 57.26        28.9 0.30                          17.6 296 
                                                                                
 2009  724 0028 17.8 L  21.256 -99.274 10.0  RAL  1 0.2 1.4LRAL                1
 GAP=360        0.70      20.9    23.6  0.0  0.4932E+03  0.6971E+06  0.9278E+06E
 ACTION:UPD 12-06-08 11:37 OP:RALL STATUS:               ID:20090724002817     I
 2009-07-24-0028-10S.PLUR1_003                                                 6
 STAT SP IPHASW D HRMM SECON CODA AMPLIT PERI AZIMU VELO AIN AR TRES W  DIS CAZ7
 LG3  SZ E         028 20.16                  226.5 19.6      0        3.11  46 
 LG3  SN IP        028 20.17                             163    0.4310 3.11  46 
 LG3  SE IS        028 20.72                             163   -0.4310 3.11  46 
 LG3  SZ  AML      028 20.87       134.5 0.26                          3.11  46 
                                                                                
 2009  724 0404 21.3 L  21.379 -99.133 10.0  RAL  1 0.0 0.4LRAL                1
 GAP=360        0.30       2.9     3.3  0.0  0.9387E+01  0.6971E+06  0.9278E+06E
 ACTION:UPD 12-06-08 11:37 OP:RALL STATUS:               ID:20090724040421     I
 2009-07-24-0404-17S.PLUR1_003                                                 6
 STAT SP IPHASW D HRMM SECON CODA AMPLIT PERI AZIMU VELO AIN AR TRES W  DIS CAZ7
 LG3  SN IP        4 4 24.68                             119    0.0110 16.8 227 
 LG3  SZ E         4 4 24.69                   47.2 13.8      0        16.8 227 
 LG3  SE IS        4 4 27.10                             119   -0.0110 16.8 227 
 LG3  SZ  AML      4 4 29.41         7.2 0.30                          16.8 227 
                                                                                
 2009  724 0904  8.9 L  21.192 -99.326 10.0  RAL  1 0.5-0.3LRAL                1
 GAP=360        6.35     999.9   999.9  0.0  0.3882E+07  0.6971E+06  0.9278E+06E
 ACTION:UPD 12-06-08 11:37 OP:RALL STATUS:               ID:20090724090408     I
 2009-07-24-0904-07S.PLUR1_003                                                 6
 STAT SP IPHASW D HRMM SECON CODA AMPLIT PERI AZIMU VELO AIN AR TRES W  DIS CAZ7
 LD5  SZ E         9 4 10.93                  286.9 11.5    -29        0.82 137 
 LD5  SN IP        9 4 11.01                             175    0.2810 0.82 137 
 LD5  SE IS        9 4 11.78                             175   -0.2810 0.82 137 
 LD5  SZ  AML      9 4 12.68         2.9 0.44                          0.82 137 
                                                                                
 2009  724 1247 12.0 L  21.149 -99.089 10.0  RAL  1 0.0 0.7LRAL                1
 GAP=360        0.30       2.6     3.3  0.0 -0.8095E+01  0.6971E+06  0.9278E+06E
 ACTION:UPD 12-06-08 11:37 OP:RALL STATUS:               ID:20090724124712     I
 2009-07-24-1247-09S.PLUR1_003                                                 6
 STAT SP IPHASW D HRMM SECON CODA AMPLIT PERI AZIMU VELO AIN AR TRES W  DIS CAZ7
 LG3  SN IP       1247 16.05                             111    0.0010 22.0 310 
 LG3  SZ E        1247 16.07                  129.5 10.5      0        22.0 310 
 LG3  SE IS       1247 19.01                             111    0.0010 22.0 310 
 LG3  SZ  AML     1247 22.49        11.1 0.34                          22.0 310 
                                                                                
 2009  724 1746 60.0 L  21.193 -99.344 10.0  RAL  1 0.0-0.3LRAL                1
 GAP=360        0.35       4.9    18.8  0.0 -0.9171E+02  0.6971E+06  0.9278E+06E
 ACTION:UPD 12-06-08 11:37 OP:RALL STATUS:               ID:20090724174660     I
 2009-07-24-1746-58S.PLUR1_003                                                 6
 STAT SP IPHASW D HRMM SECON CODA AMPLIT PERI AZIMU VELO AIN AR TRES W  DIS CAZ7
 LD5  SZ E        1747  1.92                  285.6 11.4      0        2.55 106 
 LD5  SN IP       1747  1.96                             166    0.1310 2.55 106 
 LD5  SE IS       1747  3.08                             166   -0.1310 2.55 106 
 LD5  SZ  AML     1747  4.29         2.8 0.24                          2.55 106 
                                                                                
 2009  726 1347 37.3 L  20.674 -99.700 10.0  RAL  1 0.0 2.1LRAL                1
 GAP=360        0.30       3.3     2.9  0.0  0.4682E+01  0.6971E+06  0.9278E+06E
 ACTION:UPD 12-06-08 11:37 OP:RALL STATUS:               ID:20090726134737     I
 2009-07-26-1347-41S.PLUR1_003                                                 6
 STAT SP IPHASW D HRMM SECON CODA AMPLIT PERI AZIMU VELO AIN AR TRES W  DIS CAZ7
 LG3  SZ E        1347 50.30                  215.0 11.4      0        81.2  35 
 LG3  SN IP       1347 50.45                              94    0.0110 81.2  35 
 LG3  SE IS       1348  0.02                              94   -0.0110 81.2  35 
 LG3  SZ  AML     1348  7.22        95.4 0.54                          81.2  35 
                                                                                
 2009  726 1847 24.1 L  21.995 -99.284  5.7  RAL  2 0.2 1.7LRAL                1
 GAP=359        1.63      37.8     6.9999.9  0.7874E+02 -0.4858E+04 -0.8635E+05E
 ACTION:UPD 12-06-08 11:37 OP:RALL STATUS:               ID:20090726184724     I
 2009-07-26-1847-28S.PLUR1_012                                                 6
 STAT SP IPHASW D HRMM SECON CODA AMPLIT PERI AZIMU VELO AIN AR TRES W  DIS CAZ7
 LA4  SZ E        1847 33.08                    7.1  6.8      4        56.7 183 
 LA4  SN IP       1847 33.09                              91   -0.3010 56.7 183 
 LA4  SE IS       1847 39.74                              91   -0.4310 56.7 183 
 LA4  SZ  AML     1847 43.30       206.6 0.42                          56.7 183 
 LT7  SN IP       1847 35.19                              91    0.3010 66.5 184 
 LT7  SZ E        1847 35.21                  358.5  9.6      5        66.5 184 
 LT7  SE IS       1847 43.20                              91    0.4310 66.5 184 
 LT7  SZ  AML     1847 47.29         9.2 0.46                          66.5 184 
                                                                                
 2009  727 21 8 26.9 L                       RAL  0                            1
 ACTION:UPD 12-06-08 11:37 OP:RALL STATUS:               ID:20090727210826     I
 2009-07-27-2108-26S.PLUR1_012                                                 6
 STAT SP IPHASW D HRMM SECON CODA AMPLIT PERI AZIMU VELO AIN AR TRES W  DIS CAZ7
                                                                                
 2009  727 2347 39.6 L  21.293 -99.341 10.0  RAL  2 0.2 0.3LRAL                1
 GAP=198        3.05       8.4     2.5 37.4 -0.4995E+01  0.4398E+01 -0.5016E+02E
 ACTION:UPD 12-06-08 11:37 OP:RALL STATUS:               ID:20090727234739     I
 2009-07-27-2347-36S.PLUR1_006                                                 6
 STAT SP IPHASW D HRMM SECON CODA AMPLIT PERI AZIMU VELO AIN AR TRES W  DIS CAZ7
 LT7  SZ E        2347 41.75                  176.4  9.9    -10        11.5   8 
 LT7  SN IP       2347 41.75                             132   -0.4210 11.5   8 
 LT7  SE IS       2347 43.70                             132   -0.3610 11.5   8 
 LT7  SZ  AML     2347 43.95        14.5 0.28                          11.5   8 
 LD5  SZ E        2347 42.46                  340.8 38.3     -8        11.9 170 
 LD5  SN IP       2347 42.47                             139    0.2010 11.9 170 
 LD5  SE IS       2347 44.82                             139    0.5810 11.9 170 
 LD5  SZ  AML     2347 45.87         4.8 0.32                          11.9 170 
                                                                                
 2009  729 0017 27.4 L  20.984 -99.641 10.0  RAL  1 0.0 1.5LRAL                1
 GAP=360        0.30       2.6     3.2  0.0  0.6342E+01  0.4398E+01 -0.5016E+02E
 ACTION:UPD 12-06-08 11:37 OP:RALL STATUS:               ID:20090729001727     I
 2009-07-29-0017-26S.PLUR1_003                                                 6
 STAT SP IPHASW D HRMM SECON CODA AMPLIT PERI AZIMU VELO AIN AR TRES W  DIS CAZ7
 LG3  SZ E         017 35.87                  231.4 11.6      0        51.7  51 
 LG3  SN IP        017 35.95                              97    0.0110 51.7  51 
 LG3  SE IS        017 42.18                              97   -0.0110 51.7  51 
 LG3  SZ  AML      017 42.45        35.4 0.40                          51.7  51 
                                                                                
 2009  730 0001 26.0 L  21.058 -99.705 10.0  RAL  1 0.0 1.4LRAL                1
 GAP=360        0.30       2.1     3.6  0.0  0.5234E+01  0.4398E+01 -0.5016E+02E
 ACTION:UPD 12-06-08 11:37 OP:RALL STATUS:               ID:20090730000126     I
 2009-07-30-0001-26S.PLUR1_003                                                 6
 STAT SP IPHASW D HRMM SECON CODA AMPLIT PERI AZIMU VELO AIN AR TRES W  DIS CAZ7
 LG3  SZ E         0 1 34.78                  243.0 13.1      0        52.8  63 
 LG3  SN IP        0 1 34.78                              97    0.0110 52.8  63 
 LG3  SE IS        0 1 41.14                              97   -0.0110 52.8  63 
 LG3  SZ  AML      0 1 44.00        25.9 0.72                          52.8  63 
                                                                                
 2009  730 0313 18.3 L  21.262 -99.278 10.0  RAL  1 0.1 0.5LRAL                1
 GAP=360        0.49      10.6    19.9  0.0  0.2112E+03  0.4398E+01 -0.5016E+02E
 ACTION:UPD 12-06-08 11:37 OP:RALL STATUS:               ID:20090730031318     I
 2009-07-30-0313-11S.PLUR1_003                                                 6
 STAT SP IPHASW D HRMM SECON CODA AMPLIT PERI AZIMU VELO AIN AR TRES W  DIS CAZ7
 LG3  SZ E         313 20.43                  240.2 26.7      0        3.08  60 
 LG3  SN IP        313 20.46                             163    0.2610 3.08  60 
 LG3  SE IS        313 21.34                             163   -0.2610 3.08  60 
 LG3  SZ  AML      313 21.86        17.5 0.16                          3.08  60 
                                                                                
