 2009  2 1 0109 44.0 L  21.316 -99.258 10.0  RAL  1 0.2-0.9LRAL                1
 GAP=360        0.88     986.5   999.9  0.0  0.1575E+07  0.7910E+00  0.2385E+00E
 ACTION:UPD 12-06-08 11:37 OP:RALL STATUS:               ID:20090201010944     I
 2009-02-01-0109-37S.PLUR1_003                                                 6
 STAT SP IPHASW D HRMM SECON CODA AMPLIT PERI AZIMU VELO AIN AR TRES W  DIS CAZ7
 LZ4  SN IP        1 9 46.42                             169    0.5410 1.99 325 
 LZ4  SZ E         1 9 46.45                  145.6 60.5      1        1.99 325 
 LZ4  SE IS        1 9 46.69                             169   -0.5410 1.99 325 
 LZ4  SZ  AML      1 9 47.07         0.7 0.01                          1.99 325 
                                                                                
 2009  2 1 0231 47.2 L  21.262 -99.267 10.0  RAL  1 0.2 0.9LRAL                1
 GAP=360        0.88      39.0    42.1  0.0  0.1642E+04  0.7910E+00  0.2385E+00E
 ACTION:UPD 12-06-08 11:37 OP:RALL STATUS:               ID:20090201023147     I
 2009-02-01-0231-40S.PLUR1_003                                                 6
 STAT SP IPHASW D HRMM SECON CODA AMPLIT PERI AZIMU VELO AIN AR TRES W  DIS CAZ7
 LG3  SZ E         231 49.55                  225.2 27.6      0        2.12  45 
 LG3  SN IP        231 49.62                             169    0.5610 2.12  45 
 LG3  SE IS        231 49.87                             169   -0.5610 2.12  45 
 LG3  SZ  AML      231 49.99        40.7 0.10                          2.12  45 
                                                                                
 2009  2 1 0615  4.9 L  21.670 -99.506 10.0  RAL  1 0.0 1.8LRAL                1
 GAP=360        0.30       3.2     2.4  0.0 -0.6237E+01  0.7910E+00  0.2385E+00E
 ACTION:UPD 12-06-08 11:37 OP:RALL STATUS:               ID:20090201061504     I
 2009-02-01-0615-03S.PLUR1_003                                                 6
 STAT SP IPHASW D HRMM SECON CODA AMPLIT PERI AZIMU VELO AIN AR TRES W  DIS CAZ7
 LZ4  SZ E         615 12.42                  327.0  8.6      0        44.8 147 
 LZ4  SN IP        615 12.43                              98    0.0210 44.8 147 
 LZ4  SE IS        615 17.88                              98   -0.0210 44.8 147 
 LZ4  SZ  AML      615 19.49        75.0 0.38                          44.8 147 
                                                                                
 2009  2 1 0621  2.0 L  21.332 -99.225 10.0  RAL  1 0.0 0.2LRAL                1
 GAP=360        0.30       0.3     9.6  0.0  0.2224E+01  0.7910E+00  0.2385E+00E
 ACTION:UPD 12-06-08 11:37 OP:RALL STATUS:               ID:20090201062102     I
 2009-02-01-0620-55S.PLUR1_003                                                 6
 STAT SP IPHASW D HRMM SECON CODA AMPLIT PERI AZIMU VELO AIN AR TRES W  DIS CAZ7
 LZ4  SN IP        621  3.97                             156    0.0110 4.63 269 
 LZ4  SZ E         621  4.05                   88.5 37.7      0        4.63 269 
 LZ4  SE IS        621  5.40                             156   -0.0110 4.63 269 
 LZ4  SZ  AML      621  5.80         8.1 0.28                          4.63 269 
                                                                                
 2009  2 1 1240 27.4 L  21.321 -99.289 10.0  RAL  1 0.2 0.3LRAL                1
 GAP=360        0.71      19.0    38.3  0.0  0.7267E+03  0.7910E+00  0.2385E+00E
 ACTION:UPD 12-06-08 11:37 OP:RALL STATUS:               ID:20090201124027     I
 2009-02-01-1240-21S.PLUR1_003                                                 6
 STAT SP IPHASW D HRMM SECON CODA AMPLIT PERI AZIMU VELO AIN AR TRES W  DIS CAZ7
 LZ4  SZ E        1240 29.64                  242.0 39.2      0        2.33  62 
 LZ4  SN IP       1240 29.69                             167    0.4410 2.33  62 
 LZ4  SE IS       1240 30.18                             167   -0.4410 2.33  62 
 LZ4  SZ  AML     1240 30.30        12.2 0.38                          2.33  62 
                                                                                
 2009  2 1 1644 41.8 L  21.187 -99.310 10.0  RAL  1 0.2-0.3LRAL                1
 GAP=360        1.84     999.9   999.9  0.0 -0.2089E+09  0.7910E+00  0.2385E+00E
 ACTION:UPD 12-06-08 11:37 OP:RALL STATUS:               ID:20090201164441     I
 2009-02-01-1644-29S.PLUR1_003                                                 6
 STAT SP IPHASW D HRMM SECON CODA AMPLIT PERI AZIMU VELO AIN AR TRES W  DIS CAZ7
 LD5  SN IP       1644 44.05                             174    0.3710 1.10 267 
 LD5  SZ E        1644 44.06                   78.8 22.7     -7        1.10 267 
 LD5  SE IS       1644 44.66                             174   -0.3710 1.10 267 
 LD5  SZ  AML     1644 44.71         2.6 0.14                          1.10 267 
                                                                                
 2009  2 2 1050 35.3 L  21.355 -99.448  5.1  RAL  2 0.6 0.8LRAL                1
 GAP=345        9.93      26.5    98.8248.6 -0.2290E+04 -0.1796E+05  0.4301E+04E
 ACTION:UPD 12-06-08 11:37 OP:RALL STATUS:               ID:20090202105035     I
 2009-02-02-1050-29S.PLUR1_006                                                 6
 STAT SP IPHASW D HRMM SECON CODA AMPLIT PERI AZIMU VELO AIN AR TRES W  DIS CAZ7
 LZ4  SZ E        1050 38.97                  297.0 21.9     19        18.7  98 
 LZ4  SN IP       1050 38.99                              63    0.6210 18.7  98 
 LZ4  SE IS       1050 39.75                              63   -0.8610 18.7  98 
 LZ4  SZ  AML     1050 39.86        55.7 0.16                          18.7  98 
 LG3  SZ E        1050 39.70                  249.1 27.8    -43        22.1 113 
 LG3  SN IP       1050 39.74                              63    0.8310 22.1 113 
 LG3  SE IS       1050 40.94                              63   -0.5910 22.1 113 
 LG3  SZ  AML     1050 41.12         5.5 0.18                          22.1 113 
                                                                                
 2009  2 2 1110 44.1 L  21.306 -99.262 10.0  RAL  1 0.1 0.2LRAL                1
 GAP=360        0.36      16.1     5.1  0.0 -0.8257E+02 -0.1796E+05  0.4301E+04E
 ACTION:UPD 12-06-08 11:37 OP:RALL STATUS:               ID:20090202111044     I
 2009-02-02-1110-37S.PLUR1_003                                                 6
 STAT SP IPHASW D HRMM SECON CODA AMPLIT PERI AZIMU VELO AIN AR TRES W  DIS CAZ7
 LZ4  SN IP       1110 46.14                             165    0.1310 2.84 343 
 LZ4  SZ E        1110 46.15                  163.4 48.0      0        2.84 343 
 LZ4  SE IS       1110 47.25                             165   -0.1310 2.84 343 
 LZ4  SZ  AML     1110 47.81         8.4 0.18                          2.84 343 
                                                                                
 2009  2 2 1259 24.6 L  21.356 -99.281 10.0  RAL  1 0.1 0.0LRAL                1
 GAP=360        0.39      15.5     7.1  0.0 -0.1104E+03 -0.1796E+05  0.4301E+04E
 ACTION:UPD 12-06-08 11:37 OP:RALL STATUS:               ID:20090202125924     I
 2009-02-02-1259-18S.PLUR1_003                                                 6
 STAT SP IPHASW D HRMM SECON CODA AMPLIT PERI AZIMU VELO AIN AR TRES W  DIS CAZ7
 LZ4  SZ E        1259 26.61                  336.8 15.9      0        3.08 157 
 LZ4  SN IP       1259 26.67                             163    0.1710 3.08 157 
 LZ4  SE IS       1259 27.72                             163   -0.1710 3.08 157 
 LZ4  SZ  AML     1259 28.43         5.5 0.28                          3.08 157 
                                                                                
 2009  2 2 1637 20.4 L  21.334 -99.287 10.0  RAL  1 0.1 0.5LRAL                1
 GAP=360        0.36       4.3    26.3  0.0 -0.1124E+03 -0.1796E+05  0.4301E+04E
 ACTION:UPD 12-06-08 11:37 OP:RALL STATUS:               ID:20090202163720     I
 2009-02-02-1637-14S.PLUR1_003                                                 6
 STAT SP IPHASW D HRMM SECON CODA AMPLIT PERI AZIMU VELO AIN AR TRES W  DIS CAZ7
 LZ4  SZ E        1637 22.37                  279.9 24.2      0        1.87 100 
 LZ4  SN IP       1637 22.39                             170    0.1310 1.87 100 
 LZ4  SE IS       1637 23.48                             170   -0.1310 1.87 100 
 LZ4  SZ  AML     1637 23.58        18.4 0.24                          1.87 100 
                                                                                
 2009  2 2 2159 32.7 L  21.193 -99.340 10.0  RAL  1 0.1-0.1LRAL                1
 GAP=360        0.42       7.8    25.5  0.0 -0.1996E+03 -0.1796E+05  0.4301E+04E
 ACTION:UPD 12-06-08 11:37 OP:RALL STATUS:               ID:20090202215932     I
 2009-02-02-2159-20S.PLUR1_003                                                 6
 STAT SP IPHASW D HRMM SECON CODA AMPLIT PERI AZIMU VELO AIN AR TRES W  DIS CAZ7
 LD5  SZ E        2159 34.71                  288.2 32.2      0        2.20 108 
 LD5  SN IP       2159 34.72                             168    0.2010 2.20 108 
 LD5  SE IS       2159 35.68                             168   -0.2010 2.20 108 
 LD5  SZ  AML     2159 35.99         4.9 0.16                          2.20 108 
                                                                                
 2009  2 3 0053 39.5 L  21.242 -99.215 10.0  RAL  1 0.0 0.6LRAL                1
 GAP=360        0.30       4.3     2.6  0.0 -0.1103E+02 -0.1796E+05  0.4301E+04E
 ACTION:UPD 12-06-08 11:37 OP:RALL STATUS:               ID:20090203005339     I
 2009-02-03-0053-34S.PLUR1_003                                                 6
 STAT SP IPHASW D HRMM SECON CODA AMPLIT PERI AZIMU VELO AIN AR TRES W  DIS CAZ7
 LZ4  SZ E         053 42.11                  150.2 18.3      0        11.3 330 
 LZ4  SN IP        053 42.14                             131    0.0210 11.3 330 
 LZ4  SZ  AML      053 43.92        14.1 0.34                          11.3 330 
 LZ4  SE IS        053 44.01                             131   -0.0210 11.3 330 
                                                                                
 2009  2 3 0249 45.5 L  21.826 -99.501 10.0  RAL  1 0.0 1.2LRAL                1
 GAP=360        0.30       3.4     2.2  0.0 -0.5682E+01 -0.1796E+05  0.4301E+04E
 ACTION:UPD 12-06-08 11:37 OP:RALL STATUS:               ID:20090203024945     I
 2009-02-03-0249-39S.PLUR1_003                                                 6
 STAT SP IPHASW D HRMM SECON CODA AMPLIT PERI AZIMU VELO AIN AR TRES W  DIS CAZ7
 LA4  SZ E         249 52.69                  332.4  7.5      0        42.8 152 
 LA4  SN IP        249 52.72                              99    0.0110 42.8 152 
 LA4  SE IS        249 57.95                              99   -0.0110 42.8 152 
 LA4  SZ  AML      249 58.66        21.0 0.26                          42.8 152 
                                                                                
 2009  2 3 1516 34.2 L  21.311 -99.165 10.0  RAL  1 0.0 0.6LRAL                1
 GAP=360        0.30       1.0     5.2  0.0 -0.5002E+01 -0.1796E+05  0.4301E+04E
 ACTION:UPD 12-06-08 11:37 OP:RALL STATUS:               ID:20090203151634     I
 2009-02-03-1516-27S.PLUR1_003                                                 6
 STAT SP IPHASW D HRMM SECON CODA AMPLIT PERI AZIMU VELO AIN AR TRES W  DIS CAZ7
 LZ4  SZ E        1516 36.76                  101.3 14.1      0        11.0 281 
 LZ4  SN IP       1516 36.76                             131    0.0010 11.0 281 
 LZ4  SE IS       1516 38.64                             131    0.0010 11.0 281 
 LZ4  SZ  AML     1516 38.89        16.5 0.26                          11.0 281 
                                                                                
 2009  2 3 1529  5.0 L  21.199 -99.321 10.0  RAL  1 0.1-0.2LRAL                1
 GAP=360        0.48      44.2     2.2  0.0 -0.9514E+02 -0.1796E+05  0.4301E+04E
 ACTION:UPD 12-06-08 11:37 OP:RALL STATUS:               ID:20090203152905     I
 2009-02-03-1528-53S.PLUR1_003                                                 6
 STAT SP IPHASW D HRMM SECON CODA AMPLIT PERI AZIMU VELO AIN AR TRES W  DIS CAZ7
 LD5  SZ E        1529  7.09                  357.6 11.0      0        1.41 177 
 LD5  SN IP       1529  7.09                             172    0.2510 1.41 177 
 LD5  SE IS       1529  7.93                             172   -0.2510 1.41 177 
 LD5  SZ  AML     1529  8.06         3.7 0.14                          1.41 177 
                                                                                
 2009  2 3 1817 18.2 L  21.543 -99.319 10.0  RAL  1 0.0 0.0LRAL                1
 GAP=360        0.30       6.7     1.1  0.0 -0.7365E+01 -0.1796E+05  0.4301E+04E
 ACTION:UPD 12-06-08 11:37 OP:RALL STATUS:               ID:20090203181718     I
 2009-02-03-1817-07S.PLUR1_003                                                 6
 STAT SP IPHASW D HRMM SECON CODA AMPLIT PERI AZIMU VELO AIN AR TRES W  DIS CAZ7
 LA4  SZ E        1817 20.39                  351.4  7.7      0        6.61 171 
 LA4  SN IP       1817 20.40                             147    0.0110 6.61 171 
 LA4  SE IS       1817 21.94                             147   -0.0110 6.61 171 
 LA4  SZ  AML     1817 22.03         4.9 0.10                          6.61 171 
                                                                                
 2009  2 3 1946 23.4 L  21.305 -99.213 10.0  RAL  1 0.0 0.5LRAL                1
 GAP=360        0.30       3.0     6.6  0.0 -0.1953E+02 -0.1796E+05  0.4301E+04E
 ACTION:UPD 12-06-08 11:37 OP:RALL STATUS:               ID:20090203194623     I
 2009-02-03-1946-17S.PLUR1_003                                                 6
 STAT SP IPHASW D HRMM SECON CODA AMPLIT PERI AZIMU VELO AIN AR TRES W  DIS CAZ7
 LZ4  SN IP       1946 25.58                             147    0.0210 6.55 296 
 LZ4  SZ E        1946 25.72                  115.5 14.5      0        6.55 296 
 LZ4  SE IS       1946 27.09                             147   -0.0210 6.55 296 
 LZ4  SZ  AML     1946 27.34        15.7 0.16                          6.55 296 
                                                                                
 2009  2 3 2217 29.8 L  21.327 -99.286 10.0  RAL  1 0.1 0.9LRAL                1
 GAP=360        0.40       7.5    31.2  0.0  0.2343E+03 -0.1796E+05  0.4301E+04E
 ACTION:UPD 12-06-08 11:37 OP:RALL STATUS:               ID:20090203221729     I
 2009-02-03-2217-23S.PLUR1_003                                                 6
 STAT SP IPHASW D HRMM SECON CODA AMPLIT PERI AZIMU VELO AIN AR TRES W  DIS CAZ7
 LZ4  SN IP       2217 31.86                             170    0.1910 1.76  76 
 LZ4  SZ E        2217 31.88                  255.5  9.5      0        1.76  76 
 LZ4  SE IS       2217 32.84                             170   -0.1910 1.76  76 
 LZ4  SZ  AML     2217 33.06        42.2 0.16                          1.76  76 
                                                                                
 2009  2 4 0007  1.3 L  22.000 -99.685 10.0  RAL  1 0.0 1.9LRAL                1
 GAP=360        0.30       3.2     2.8  0.0 -0.5317E+01 -0.1796E+05  0.4301E+04E
 ACTION:UPD 12-06-08 11:37 OP:RALL STATUS:               ID:20090204000701     I
 2009-02-04-0007-00S.PLUR1_003                                                 6
 STAT SP IPHASW D HRMM SECON CODA AMPLIT PERI AZIMU VELO AIN AR TRES W  DIS CAZ7
 LA4  SN IP        0 7 12.55                              95    0.0110 69.1 146 
 LA4  SZ E         0 7 12.57                  325.8  8.2      0        69.1 146 
 LA4  SE IS        0 7 20.75                              95   -0.0110 69.1 146 
 LA4  SZ  AML      0 7 24.29        74.9 0.42                          69.1 146 
                                                                                
 2009  2 4 0020 10.9 L  21.350 -99.278 10.0  RAL  1 0.2 0.9LRAL                1
 GAP=360        0.98      51.8    23.3  0.0 -0.1208E+04 -0.1796E+05  0.4301E+04E
 ACTION:UPD 12-06-08 11:37 OP:RALL STATUS:               ID:20090204002010     I
 2009-02-04-0020-03S.PLUR1_003                                                 6
 STAT SP IPHASW D HRMM SECON CODA AMPLIT PERI AZIMU VELO AIN AR TRES W  DIS CAZ7
 LZ4  SZ E         020 13.25                  334.2  6.4     -2        2.31 157 
 LZ4  SN IP        020 13.25                             167    0.4610 2.31 157 
 LZ4  SE IS        020 13.69                             167   -0.4610 2.31 157 
 LZ4  SZ  AML      020 14.02        42.3 0.18                          2.31 157 
                                                                                
 2009  2 4 0146  0.0 L  21.356 -99.241 10.0  RAL  1 0.1 0.7LRAL                1
 GAP=360        0.37       8.5     9.9  0.0  0.8370E+02 -0.1796E+05  0.4301E+04E
 ACTION:UPD 12-06-08 11:37 OP:RALL STATUS:               ID:20090204014600     I
 2009-02-04-0145-53S.PLUR1_003                                                 6
 STAT SP IPHASW D HRMM SECON CODA AMPLIT PERI AZIMU VELO AIN AR TRES W  DIS CAZ7
 LZ4  SN IP        146  2.14                             158    0.1510 4.10 227 
 LZ4  SZ E         146  2.15                   47.2 59.0      0        4.10 227 
 LZ4  SN E         146  2.15                                           4.10 227 
 LZ4  SE IS        146  3.26                             158   -0.1510 4.10 227 
 LZ4  SZ  AML      146  4.08        24.7 0.26                          4.10 227 
                                                                                
 2009  2 4 0431 29.6 L  21.351 -99.277 10.0  RAL  1 0.1 0.6LRAL                1
 GAP=360        0.42      22.6     8.3  0.0 -0.1882E+03 -0.1796E+05  0.4301E+04E
 ACTION:UPD 12-06-08 11:37 OP:RALL STATUS:               ID:20090204043129     I
 2009-02-04-0431-22S.PLUR1_003                                                 6
 STAT SP IPHASW D HRMM SECON CODA AMPLIT PERI AZIMU VELO AIN AR TRES W  DIS CAZ7
 LZ4  SZ E         431 31.62                  341.1 17.6      0        2.32 161 
 LZ4  SN IP        431 31.63                             167    0.2010 2.32 161 
 LZ4  SE IS        431 32.59                             167   -0.2010 2.32 161 
 LZ4  SZ  AML      431 32.98        23.5 0.22                          2.32 161 
                                                                                
 2009  2 4 0511 52.1 L  21.205 -99.339 10.0  RAL  1 0.2-0.4LRAL                1
 GAP=360        0.67      22.4    23.3  0.0 -0.5210E+03 -0.1796E+05  0.4301E+04E
 ACTION:UPD 12-06-08 11:37 OP:RALL STATUS:               ID:20090204051152     I
 2009-02-04-0511-40S.PLUR1_003                                                 6
 STAT SP IPHASW D HRMM SECON CODA AMPLIT PERI AZIMU VELO AIN AR TRES W  DIS CAZ7
 LD5  SZ E         511 54.36                  315.9  8.2      0        2.85 136 
 LD5  SN IP        511 54.36                             165    0.4010 2.85 136 
 LD5  SE IS        511 54.93                             165   -0.4010 2.85 136 
 LD5  SZ  AML      511 54.99         2.3 0.18                          2.85 136 
                                                                                
 2009  2 4 0624 15.4 L  21.205 -99.340 10.0  RAL  1 0.2 0.1LRAL                1
 GAP=360        0.65      20.8    23.2  0.0 -0.4815E+03 -0.1796E+05  0.4301E+04E
 ACTION:UPD 12-06-08 11:37 OP:RALL STATUS:               ID:20090204062415     I
 2009-02-04-0624-02S.PLUR1_003                                                 6
 STAT SP IPHASW D HRMM SECON CODA AMPLIT PERI AZIMU VELO AIN AR TRES W  DIS CAZ7
 LD5  SN IP        624 17.66                             164    0.3910 2.88 134 
 LD5  SZ E         624 17.67                  313.8  9.6      0        2.88 134 
 LD5  SE IS        624 18.26                             164   -0.3910 2.88 134 
 LD5  SZ  AML      624 18.32         6.4 0.20                          2.88 134 
                                                                                
