 2009  6 5 1536 55.5 L  21.705 -99.217 10.0  RAL  1 0.0 1.5LRAL                1
 GAP=360        0.30       3.7     1.3  0.0  0.1797E+01  0.1058E+00  0.1950E-01E
 ACTION:UPD 12-06-08 11:37 OP:RALL STATUS:               ID:20090605153655     I
 2009-06-05-1536-53S.PLUR1_003                                                 6
 STAT SP IPHASW D HRMM SECON CODA AMPLIT PERI AZIMU VELO AIN AR TRES W  DIS CAZ7
 LZ4  SN IP       1537  2.55                              99    0.0110 41.8 188 
 LZ4  SZ E        1537  2.75                    7.5 13.7      0        41.8 188 
 LZ4  SE IS       1537  7.67                              99   -0.0110 41.8 188 
 LZ4  SZ  AML     1537  8.89        44.0 0.50                          41.8 188 
                                                                                
 2009  6 5 1814 36.3 L  21.617 -99.328 10.0  RAL  1 0.0 1.8LRAL                1
 GAP=360        0.30       4.3     0.7  0.0 -0.2673E+01  0.1058E+00  0.1950E-01E
 ACTION:UPD 12-06-08 11:37 OP:RALL STATUS:               ID:20090605181436     I
 2009-06-05-1814-24S.PLUR1_003                                                 6
 STAT SP IPHASW D HRMM SECON CODA AMPLIT PERI AZIMU VELO AIN AR TRES W  DIS CAZ7
 LA4  SZ E        1814 39.38                  352.4  9.9      0        14.8 172 
 LA4  SN IP       1814 39.40                             122    0.0010 14.8 172 
 LA4  SE IS       1814 41.64                             122    0.0010 14.8 172 
 LA4  SZ  AML     1814 43.12       231.4 0.42                          14.8 172 
                                                                                
 2009  6 5 2113 56.5 R  21.815 -99.282 10.0  RAL  1 0.0 1.5LRAL                1
 GAP=360        0.30       3.7     1.5  0.0 -0.3153E+00  0.1058E+00  0.1950E-01E
 ACTION:UPD 12-06-08 11:37 OP:RALL STATUS:               ID:20090605211356     I
 2009-06-05-2113-56S.PLUR1_003                                                 6
 STAT SP IPHASW D HRMM SECON CODA AMPLIT PERI AZIMU VELO AIN AR TRES W  DIS CAZ7
 LZ4  SN IP       2114  5.40                              97    0.0110 53.6 179 
 LZ4  SZ E        2114  5.41                  358.6 15.0      0        53.6 179 
 LZ4  SE IS       2114 11.85                              97   -0.0110 53.6 179 
 LZ4  SZ  AML     2114 12.60        35.1 0.16                          53.6 179 
                                                                                
 2009  6 5 2352  6.4 L  21.772 -99.493 10.0  RAL  1 0.0 1.2LRAL                1
 GAP=360        0.30       3.3     2.3  0.0 -0.6311E+01  0.1058E+00  0.1950E-01E
 ACTION:UPD 12-06-08 11:37 OP:RALL STATUS:               ID:20090605235206     I
 2009-06-05-2351-58S.PLUR1_003                                                 6
 STAT SP IPHASW D HRMM SECON CODA AMPLIT PERI AZIMU VELO AIN AR TRES W  DIS CAZ7
 LA4  SZ E        2352 12.69                  329.2 11.3      0        37.2 149 
 LA4  SN IP       2352 12.73                             101    0.0210 37.2 149 
 LA4  SE IS       2352 17.33                             101   -0.0210 37.2 149 
 LA4  SZ  AML     2352 20.50        23.6 0.38                          37.2 149 
                                                                                
 2009  6 6 0205 41.1 L  21.679 -99.294 10.0  RAL  1 0.0 0.8LRAL                1
 GAP=360        0.30       4.0     0.7  0.0  0.1193E+01  0.1058E+00  0.1950E-01E
 ACTION:UPD 12-06-08 11:37 OP:RALL STATUS:               ID:20090606020541     I
 2009-06-06-0205-33S.PLUR1_003                                                 6
 STAT SP IPHASW D HRMM SECON CODA AMPLIT PERI AZIMU VELO AIN AR TRES W  DIS CAZ7
 LA4  SZ E         2 5 45.10                    4.1 14.8      0        21.7 184 
 LA4  SN IP        2 5 45.18                             111    0.0110 21.7 184 
 LA4  SE IS        2 5 48.09                             111   -0.0110 21.7 184 
 LA4  SZ  AML      2 5 49.62        16.7 0.38                          21.7 184 
                                                                                
 2009  6 6 0249 31.9 L  21.321 -99.237 10.0  RAL  1 0.0 0.3LRAL                1
 GAP=360        0.31       3.7    12.0  0.0 -0.4460E+02  0.1058E+00  0.1950E-01E
 ACTION:UPD 12-06-08 11:37 OP:RALL STATUS:               ID:20090606024931     I
 2009-06-06-0249-26S.PLUR1_003                                                 6
 STAT SP IPHASW D HRMM SECON CODA AMPLIT PERI AZIMU VELO AIN AR TRES W  DIS CAZ7
 LZ4  SN IP        249 33.89                             161    0.0710 3.60 288 
 LZ4  SZ E         249 33.91                  108.4 32.0      0        3.60 288 
 LZ4  SE IS        249 35.16                             161   -0.0710 3.60 288 
 LZ4  SZ  AML      249 36.27        10.4 0.30                          3.60 288 
                                                                                
 2009  6 6 0307 42.3 L  21.306 -99.259 10.0  RAL  1 0.1 1.1LRAL                1
 GAP=360        0.38      15.9     6.8  0.0 -0.1080E+03  0.1058E+00  0.1950E-01E
 ACTION:UPD 12-06-08 11:37 OP:RALL STATUS:               ID:20090606030742     I
 2009-06-06-0307-35S.PLUR1_003                                                 6
 STAT SP IPHASW D HRMM SECON CODA AMPLIT PERI AZIMU VELO AIN AR TRES W  DIS CAZ7
 LZ4  SZ E         3 7 44.30                  158.3 10.3      0        2.97 338 
 LZ4  SN IP        3 7 44.32                             164    0.1610 2.97 338 
 LZ4  SE IS        3 7 45.38                             164   -0.1610 2.97 338 
 LZ4  SZ  AML      3 7 45.66        70.1 0.36                          2.97 338 
                                                                                
 2009  6 6 0528  9.0 L  21.285 -99.234 10.0  RAL  1 0.2 0.7LRAL                1
 GAP=360        0.66      19.5    38.3  0.0  0.7470E+03  0.1058E+00  0.1950E-01E
 ACTION:UPD 12-06-08 11:37 OP:RALL STATUS:               ID:20090606052809     I
 2009-06-06-0528-02S.PLUR1_003                                                 6
 STAT SP IPHASW D HRMM SECON CODA AMPLIT PERI AZIMU VELO AIN AR TRES W  DIS CAZ7
 LG3  SN IP        528 11.24                             168    0.4010 2.16 241 
 LG3  SZ E         528 11.24                   61.3 36.2      0        2.16 241 
 LG3  SE IS        528 11.82                             168   -0.4010 2.16 241 
 LG3  SZ  AML      528 11.97        30.4 0.10                          2.16 241 
                                                                                
 2009  6 6 0546 21.5 L  21.212 -99.279  4.5  RAL  2 0.1 0.8LRAL                1
 GAP=333        0.60       2.9     1.2  2.4  0.3151E+01  0.1751E+00  0.2764E+00E
 ACTION:UPD 12-06-08 11:37 OP:RALL STATUS:               ID:20090606054621     I
 2009-06-06-0546-14S.PLUR1_006                                                 6
 STAT SP IPHASW D HRMM SECON CODA AMPLIT PERI AZIMU VELO AIN AR TRES W  DIS CAZ7
 LG3  SZ E         546 23.40                  200.4 41.7      0        7.60  21 
 LG3  SN IP        546 23.41                             124    0.3010 7.60  21 
 LG3  SE IS        546 24.01                             124   -0.3110 7.60  21 
 LG3  SZ  AML      546 24.14       102.4 0.10                          7.60  21 
 LA4  SN IP        546 26.74                              63    0.0510 30.3 354 
 LA4  SZ E         546 26.90                  175.3 10.1      1        30.3 354 
 LA4  SE IS        546 30.47                              63   -0.0410 30.3 354 
 LA4  SZ  AML      546 32.32         4.7 0.50                          30.3 354 
                                                                                
 2009  6 8 0007 51.5 L  21.343 -99.292 10.0  RAL  1 0.1 0.4LRAL                1
 GAP=360        0.51      12.3    23.4  0.0 -0.2874E+03  0.1751E+00  0.2764E+00E
 ACTION:UPD 12-06-08 11:37 OP:RALL STATUS:               ID:20090608000751     I
 2009-06-08-0007-45S.PLUR1_003                                                 6
 STAT SP IPHASW D HRMM SECON CODA AMPLIT PERI AZIMU VELO AIN AR TRES W  DIS CAZ7
 LZ4  SN IP        0 7 53.67                             165    0.2810 2.72 119 
 LZ4  SZ E         0 7 53.69                  299.4 20.1      0        2.72 119 
 LZ4  SE IS        0 7 54.48                             165   -0.2810 2.72 119 
 LZ4  SZ  AML      0 7 55.59        14.7 0.58                          2.72 119 
                                                                                
 2009  6 8 0310  7.4 L  21.524 -99.285 10.0  RAL  1 0.0 0.9LRAL                1
 GAP=360        0.30       4.0     0.7  0.0 -0.1224E+01  0.1751E+00  0.2764E+00E
 ACTION:UPD 12-06-08 11:37 OP:RALL STATUS:               ID:20090608031007     I
 2009-06-08-0310-02S.PLUR1_003                                                 6
 STAT SP IPHASW D HRMM SECON CODA AMPLIT PERI AZIMU VELO AIN AR TRES W  DIS CAZ7
 LZ4  SN IP        310 11.35                             112    0.0110 21.5 176 
 LZ4  SZ E         310 11.52                  355.8 10.8      0        21.5 176 
 LZ4  SE IS        310 14.23                             112   -0.0110 21.5 176 
 LZ4  SZ  AML      310 15.59        20.9 0.72                          21.5 176 
                                                                                
 2009  6 8 0750 35.9 L  21.779 -99.197 10.0  RAL  1 0.0 1.3LRAL                1
 GAP=360        0.30       3.7     1.5  0.0  0.1951E+01  0.1751E+00  0.2764E+00E
 ACTION:UPD 12-06-08 11:37 OP:RALL STATUS:               ID:20090608075035     I
 2009-06-08-0750-36S.PLUR1_003                                                 6
 STAT SP IPHASW D HRMM SECON CODA AMPLIT PERI AZIMU VELO AIN AR TRES W  DIS CAZ7
 LZ4  SN IP        750 44.18                              97    0.0110 50.1 189 
 LZ4  SZ E         750 44.22                    8.6 14.4      0        50.1 189 
 LZ4  SE IS        750 50.24                              97   -0.0110 50.1 189 
 LZ4  SZ  AML      750 52.41        22.6 0.34                          50.1 189 
                                                                                
 2009  6 8 1033 49.8 L  21.415 -99.785 10.0  RAL  1 0.0 1.1LRAL                1
 GAP=360        0.30       1.7     3.9  0.0 -0.3225E+01  0.1751E+00  0.2764E+00E
 ACTION:UPD 12-06-08 11:37 OP:RALL STATUS:               ID:20090608103349     I
 2009-06-08-1033-52S.PLUR1_003                                                 6
 STAT SP IPHASW D HRMM SECON CODA AMPLIT PERI AZIMU VELO AIN AR TRES W  DIS CAZ7
 LG3  SN IP       1033 59.28                              96    0.0110 57.4 106 
 LG3  SZ E        1033 59.39                  285.7 15.7      0        57.4 106 
 LG3  SE IS       1034  6.16                              96   -0.0110 57.4 106 
 LG3  SZ  AML     1034  8.12        13.6 0.40                          57.4 106 
                                                                                
 2009  6 8 1055 17.8 L  21.300 -99.295 10.0  RAL  1 0.0 0.3LRAL                1
 GAP=360        0.34       8.6     7.2  0.0  0.6249E+02  0.1751E+00  0.2764E+00E
 ACTION:UPD 12-06-08 11:37 OP:RALL STATUS:               ID:20090608105517     I
 2009-06-08-1055-11S.PLUR1_003                                                 6
 STAT SP IPHASW D HRMM SECON CODA AMPLIT PERI AZIMU VELO AIN AR TRES W  DIS CAZ7
 LZ4  SZ E        1055 19.83                  218.1 44.6      0        4.37  38 
 LZ4  SN IP       1055 19.88                             157    0.1210 4.37  38 
 LZ4  SE IS       1055 21.08                             157   -0.1210 4.37  38 
 LZ4  SZ  AML     1055 22.37        10.7 0.82                          4.37  38 
                                                                                
 2009  6 8 1626 22.2 L  21.629 -99.277 10.0  RAL  1 0.0 0.8LRAL                1
 GAP=360        0.30       3.8     0.9  0.0 -0.3587E+00  0.1751E+00  0.2764E+00E
 ACTION:UPD 12-06-08 11:37 OP:RALL STATUS:               ID:20090608162622     I
 2009-06-08-1626-22S.PLUR1_003                                                 6
 STAT SP IPHASW D HRMM SECON CODA AMPLIT PERI AZIMU VELO AIN AR TRES W  DIS CAZ7
 LZ4  SN IP       1626 27.88                             103    0.0110 33.0 179 
 LZ4  SZ E        1626 27.92                  358.6 18.7      0        33.0 179 
 LZ4  SE IS       1626 32.02                             103   -0.0110 33.0 179 
 LZ4  SZ  AML     1626 32.24         9.9 0.24                          33.0 179 
                                                                                
 2009  6 8 1802 14.1 L  21.619 -99.370 10.0  RAL  1 0.0 1.2LRAL                1
 GAP=360        0.30       3.9     1.8  0.0 -0.6910E+01  0.1751E+00  0.2764E+00E
 ACTION:UPD 12-06-08 11:37 OP:RALL STATUS:               ID:20090608180214     I
 2009-06-08-1802-03S.PLUR1_003                                                 6
 STAT SP IPHASW D HRMM SECON CODA AMPLIT PERI AZIMU VELO AIN AR TRES W  DIS CAZ7
 LA4  SZ E        18 2 17.33                  337.0  8.5      0        16.3 157 
 LA4  SN IP       18 2 17.37                             120    0.0010 16.3 157 
 LA4  SE IS       18 2 19.74                             120    0.0010 16.3 157 
 LA4  SZ  AML     18 2 20.83        47.1 0.32                          16.3 157 
                                                                                
 2009  6 8 1910 21.6 L  21.519 -99.316 10.0  RAL  1 0.0 1.3LRAL                1
 GAP=360        0.30      10.1     2.0  0.0 -0.1987E+02  0.1751E+00  0.2764E+00E
 ACTION:UPD 12-06-08 11:37 OP:RALL STATUS:               ID:20090608191021     I
 2009-06-08-1910-09S.PLUR1_003                                                 6
 STAT SP IPHASW D HRMM SECON CODA AMPLIT PERI AZIMU VELO AIN AR TRES W  DIS CAZ7
 LA4  SZ E        1910 23.55                  349.8  8.0      0        4.01 170 
 LA4  SN IP       1910 23.55                             159    0.0310 4.01 170 
 LA4  SE IS       1910 24.93                             159   -0.0310 4.01 170 
 LA4  SZ  AML     1910 25.01        94.7 0.24                          4.01 170 
                                                                                
 2009  6 8 2241 59.8 L  21.349 -99.292 10.0  RAL  1 0.2 1.2LRAL                1
 GAP=360        0.71      20.2    24.6  0.0 -0.4958E+03  0.1751E+00  0.2764E+00E
 ACTION:UPD 12-06-08 11:37 OP:RALL STATUS:               ID:20090608224159     I
 2009-06-08-2241-52S.PLUR1_003                                                 6
 STAT SP IPHASW D HRMM SECON CODA AMPLIT PERI AZIMU VELO AIN AR TRES W  DIS CAZ7
 LZ4  SZ E        2242  2.11                  311.3 14.9      0        3.11 131 
 LZ4  SN IP       2242  2.14                             163    0.4310 3.11 131 
 LZ4  SE IS       2242  2.66                             163   -0.4310 3.11 131 
 LZ4  SZ  AML     2242  3.30        86.3 0.18                          3.11 131 
                                                                                
 2009  6 9 0019  1.9 L  21.275 -99.248 10.0  RAL  1 0.0 0.0LRAL                1
 GAP=360        0.30       6.4     2.5  0.0 -0.1590E+02  0.1751E+00  0.2764E+00E
 ACTION:UPD 12-06-08 11:37 OP:RALL STATUS:               ID:20090609001901     I
 2009-06-09-0018-56S.PLUR1_003                                                 6
 STAT SP IPHASW D HRMM SECON CODA AMPLIT PERI AZIMU VELO AIN AR TRES W  DIS CAZ7
 LZ4  SZ E         019  3.99                  160.3 19.6      0        6.56 340 
 LZ4  SN IP        019  4.02                             147    0.0210 6.56 340 
 LZ4  SE IS        019  5.53                             147   -0.0210 6.56 340 
 LZ4  SZ  AML      019  5.78         5.1 0.26                          6.56 340 
                                                                                
 2009  6 9 0518 41.1 L  21.300 -99.257 10.0  RAL  1 0.0 0.3LRAL                1
 GAP=360        0.33      11.5     4.7  0.0 -0.5403E+02  0.1751E+00  0.2764E+00E
 ACTION:UPD 12-06-08 11:37 OP:RALL STATUS:               ID:20090609051841     I
 2009-06-09-0518-35S.PLUR1_003                                                 6
 STAT SP IPHASW D HRMM SECON CODA AMPLIT PERI AZIMU VELO AIN AR TRES W  DIS CAZ7
 LZ4  SZ E         518 43.08                  159.1 16.9      0        3.70 339 
 LZ4  SN IP        518 43.10                             160    0.1010 3.70 339 
 LZ4  SE IS        518 44.30                             160   -0.1010 3.70 339 
 LZ4  SZ  AML      518 45.91        11.4 0.54                          3.70 339 
                                                                                
 2009  6 9 0608  4.6 L  21.351 -99.283 10.0  RAL  1 0.1 0.5LRAL                1
 GAP=360        0.51      21.6    15.1  0.0 -0.3252E+03  0.1751E+00  0.2764E+00E
 ACTION:UPD 12-06-08 11:37 OP:RALL STATUS:               ID:20090609060804     I
 2009-06-09-0607-57S.PLUR1_003                                                 6
 STAT SP IPHASW D HRMM SECON CODA AMPLIT PERI AZIMU VELO AIN AR TRES W  DIS CAZ7
 LZ4  SZ E         6 8  6.70                  326.9 12.0      0        2.64 147 
 LZ4  SN IP        6 8  6.73                             166    0.2810 2.64 147 
 LZ4  SE IS        6 8  7.54                             166   -0.2810 2.64 147 
 LZ4  SZ  AML      6 8  8.02        17.5 0.32                          2.64 147 
                                                                                
 2009  6 9 0803 45.9 L  21.256 -99.244 10.0  RAL  1 0.2 0.3LRAL                1
 GAP=360        1.45     999.9   999.9  0.0  0.4388E+07  0.1751E+00  0.2764E+00E
 ACTION:UPD 12-06-08 11:37 OP:RALL STATUS:               ID:20090609080345     I
 2009-06-09-0803-39S.PLUR1_003                                                 6
 STAT SP IPHASW D HRMM SECON CODA AMPLIT PERI AZIMU VELO AIN AR TRES W  DIS CAZ7
 LG3  SN IP        8 3 48.16                             167    0.3610 2.35 339 
 LG3  SZ E         8 3 48.16                  152.8 14.6     -5        2.35 339 
 LG3  SE IS        8 3 48.82                             167   -0.3610 2.35 339 
 LG3  SZ  AML      8 3 48.96        10.9 0.10                          2.35 339 
                                                                                
 2009  610 0138 18.2 L  21.685 -99.338 10.0  RAL  1 0.0 1.6LRAL                1
 GAP=360        0.30       3.9     0.8  0.0 -0.2194E+01  0.1751E+00  0.2764E+00E
 ACTION:UPD 12-06-08 11:37 OP:RALL STATUS:               ID:20090610013818     I
 2009-06-10-0138-08S.PLUR1_003                                                 6
 STAT SP IPHASW D HRMM SECON CODA AMPLIT PERI AZIMU VELO AIN AR TRES W  DIS CAZ7
 LA4  SZ E         138 22.35                  352.3  8.0      0        22.5 172 
 LA4  SN IP        138 22.39                             111    0.0110 22.5 172 
 LA4  SE IS        138 25.38                             111   -0.0110 22.5 172 
 LA4  SZ  AML      138 27.26        86.3 0.40                          22.5 172 
                                                                                
 2009  610 0151 58.8 L  20.988 -99.249 10.0  RAL  1 0.0 0.8LRAL                1
 GAP=360        0.30       3.8     1.1  0.0 -0.7853E+00  0.1751E+00  0.2764E+00E
 ACTION:UPD 12-06-08 11:37 OP:RALL STATUS:               ID:20090610015158     I
 2009-06-10-0152-01S.PLUR1_003                                                 6
 STAT SP IPHASW D HRMM SECON CODA AMPLIT PERI AZIMU VELO AIN AR TRES W  DIS CAZ7
 LZ4  SN IP        152  5.28                             100    0.0110 38.0 357 
 LZ4  SZ E         152  5.29                  176.8 37.9      0        38.0 357 
 LZ4  SE IS        152  9.98                             100   -0.0110 38.0 357 
 LZ4  SZ  AML      152 10.83        10.5 0.50                          38.0 357 
                                                                                
