 2009  111 1007 16.4 L  21.329 -99.411 10.0  RAL  1 0.0 0.4LRAL                1
 GAP=360        0.30       0.4     4.7  0.0  0.2326E+00 -0.2909E-01  0.1006E-01E
 ACTION:UPD 12-06-08 11:37 OP:RALL STATUS:               ID:20090111100716     I
 2009-01-11-1007-13S.PLUR1_003                                                 6
 STAT SP IPHASW D HRMM SECON CODA AMPLIT PERI AZIMU VELO AIN AR TRES W  DIS CAZ7
 LZ4  SZ E        10 7 19.42                  269.4 19.2      0        14.7  89 
 LZ4  SN IP       10 7 19.49                             122    0.0310 14.7  89 
 LZ4  SE IS       10 7 21.66                             122   -0.0310 14.7  89 
 LZ4  SZ  AML     10 7 22.37         8.7 0.60                          14.7  89 
                                                                                
 2009  111 2058  1.7 L  21.264 -99.269 10.0  RAL  1 0.2 0.6LRAL                1
 GAP=360        0.86      33.4    45.5  0.0  0.1519E+04 -0.2909E-01  0.1006E-01E
 ACTION:UPD 12-06-08 11:37 OP:RALL STATUS:               ID:20090111205801     I
 2009-01-11-2057-54S.PLUR1_003                                                 6
 STAT SP IPHASW D HRMM SECON CODA AMPLIT PERI AZIMU VELO AIN AR TRES W  DIS CAZ7
 LG3  SN IP       2058  4.16                             169    0.5510 2.12  52 
 LG3  SZ E        2058  4.17                  231.8 15.6      0        2.12  52 
 LG3  SE IS       2058  4.44                             169   -0.5510 2.12  52 
 LG3  SZ  AML     2058  4.59        21.9 0.26                          2.12  52 
                                                                                
 2009  111 2354 14.2 L  21.503 -99.322 10.0  RAL  1 0.1 0.2LRAL                1
 GAP=360        0.61      27.7    18.4  0.0 -0.5099E+03 -0.2909E-01  0.1006E-01E
 ACTION:UPD 12-06-08 11:37 OP:RALL STATUS:               ID:20090111235414     I
 2009-01-11-2354-02S.PLUR1_003                                                 6
 STAT SP IPHASW D HRMM SECON CODA AMPLIT PERI AZIMU VELO AIN AR TRES W  DIS CAZ7
 LA4  SN IP       2354 16.43                             166    0.3610 2.50 148 
 LA4  SZ E        2354 16.44                  328.3  7.9      0        2.50 148 
 LA4  SE IS       2354 17.09                             166   -0.3610 2.50 148 
 LA4  SZ  AML     2354 17.25         7.8 0.26                          2.50 148 
                                                                                
 2009  112 0224 20.8 L  21.251 -99.196 17.0  RAL  2 0.7 0.7LRAL                1
 GAP=306        3.96       3.0     6.5 38.2 -0.1285E+02 -0.1317E+02  0.5441E+01E
 ACTION:UPD 12-06-08 11:37 OP:RALL STATUS:               ID:20090112022420     I
 2009-01-12-0224-09S.PLUR1_006                                                 6
 STAT SP IPHASW D HRMM SECON CODA AMPLIT PERI AZIMU VELO AIN AR TRES W  DIS CAZ7
 LG3  SZ E         224 25.93                  114.0 13.8      0        6.46 296 
 LG3  SN IP        224 25.96                             160    2.0510 6.46 296 
 LG3  SE IS        224 27.58                             160    1.4010 6.46 296 
 LG3  SZ  AML      224 29.29        23.1 0.84                          6.46 296 
 LD5  SN IP        224 23.98                             139   -0.5710 14.7 241 
 LD5  SZ E         224 23.99                   61.8  9.1      1        14.7 241 
 LD5  SE IS        224 24.40                             139   -2.8910 14.7 241 
 LD5  SZ  AML      224 24.80         9.9 0.18                          14.7 241 
                                                                                
 2009  112  228 27.1 L                       RAL  1                            1
 ACTION:UPD 12-06-08 11:37 OP:RALL STATUS:               ID:20090112022827     I
 2009-01-12-0228-27S.PLUR1_003                                                 6
 STAT SP IPHASW D HRMM SECON CODA AMPLIT PERI AZIMU VELO AIN AR TRES W  DIS CAZ7
 LZ4  SZ E         228 34.51                                                    
 LZ4  SN IP        228 34.53                                                    
 LZ4  SE IS        228 36.59                                                    
                                                                                
 2009  112 0310  9.2 L  21.110 -99.226 10.0  RAL  1 0.0-0.3LRAL                1
 GAP=360        0.30       3.0     3.7  0.0 -0.1118E+02 -0.1317E+02  0.5441E+01E
 ACTION:UPD 12-06-08 11:37 OP:RALL STATUS:               ID:20090112031009     I
 2009-01-12-0309-59S.PLUR1_003                                                 6
 STAT SP IPHASW D HRMM SECON CODA AMPLIT PERI AZIMU VELO AIN AR TRES W  DIS CAZ7
 LD5  SN IP        310 12.02                             126    0.0210 13.0 311 
 LD5  SZ E         310 12.79                  130.9  7.0      0        13.0 311 
 LD5  SE IS        310 14.04                             126   -0.0210 13.0 311 
 LD5  SZ  AML      310 14.09         1.9 0.12                          13.0 311 
                                                                                
 2009  112 0328  1.8 L  21.608 -99.389 27.2  RAL  2 0.1 0.9LRAL                1
 GAP=359        1.45      40.0    17.3 56.5 -0.6787E+03  0.8876E+03 -0.2081E+04E
 ACTION:UPD 12-06-08 11:37 OP:RALL STATUS:               ID:20090112032801     I
 2009-01-12-0328-04S.PLUR1_006                                                 6
 STAT SP IPHASW D HRMM SECON CODA AMPLIT PERI AZIMU VELO AIN AR TRES W  DIS CAZ7
 LZ4  SN IP        328  8.60                             130   -0.0310 33.1 158 
 LZ4  SZ E         328  8.71                  333.6  7.2     -3        33.1 158 
 LZ4  SE IS        328 13.53                             130   -0.0710 33.1 158 
 LZ4  SZ  AML      328 16.96        19.6 0.90                          33.1 158 
 LG3  SN IP        328  9.42                             124    0.0010 39.4 159 
 LG3  SZ E         328  9.45                  344.3  7.4      5        39.4 159 
 LG3  SE IS        328 15.05                             124    0.0910 39.4 159 
 LG3  SZ  AML      328 17.12         7.1 0.32                          39.4 159 
                                                                                
 2009  112 0341  2.4 L  21.358 -99.294 10.0  RAL  1 0.1 0.4LRAL                1
 GAP=360        0.37       9.7     9.1  0.0 -0.8819E+02  0.8876E+03 -0.2081E+04E
 ACTION:UPD 12-06-08 11:37 OP:RALL STATUS:               ID:20090112034102     I
 2009-01-12-0340-56S.PLUR1_003                                                 6
 STAT SP IPHASW D HRMM SECON CODA AMPLIT PERI AZIMU VELO AIN AR TRES W  DIS CAZ7
 LZ4  SZ E         341  4.47                  319.1 24.7      0        3.92 139 
 LZ4  SN IP        341  4.51                             159    0.1510 3.92 139 
 LZ4  SE IS        341  5.63                             159   -0.1510 3.92 139 
 LZ4  SZ  AML      341  7.00        14.1 0.44                          3.92 139 
                                                                                
 2009  112 0401 31.2 L  21.265 -99.197 19.2  RAL  2 0.7 0.0LRAL                1
 GAP=314        3.98       2.4     9.0 38.3 -0.9345E+01 -0.2211E+02  0.3558E+01E
 ACTION:UPD 12-06-08 11:37 OP:RALL STATUS:               ID:20090112040131     I
 2009-01-12-0401-20S.PLUR1_006                                                 6
 STAT SP IPHASW D HRMM SECON CODA AMPLIT PERI AZIMU VELO AIN AR TRES W  DIS CAZ7
 LG3  SZ E         4 1 36.17                  100.4 12.5      0        5.88 282 
 LG3  SN IP        4 1 36.19                             160    1.5810 5.88 282 
 LG3  SE IS        4 1 38.64                             160    1.5410 5.88 282 
 LD5  SN IP        4 1 35.21                             139   -0.0810 15.4 236 
 LD5  SZ E         4 1 35.23                   60.5  9.4      5        15.4 236 
 LD5  SE IS        4 1 35.24                             139   -3.0410 15.4 236 
 LD5  SZ  AML      4 1 35.71         2.4 0.38                          15.4 236 
                                                                                
 2009  112 0705 21.0 L  21.195 -99.167  6.0  RAL  2 0.3 0.5LRAL                1
 GAP=350        2.63      17.5    17.0188.7 -0.2914E+03 -0.2115E+04  0.2166E+04E
 ACTION:UPD 12-06-08 11:37 OP:RALL STATUS:               ID:20090112070521     I
 2009-01-12-0705-16S.PLUR1_006                                                 6
 STAT SP IPHASW D HRMM SECON CODA AMPLIT PERI AZIMU VELO AIN AR TRES W  DIS CAZ7
 LG3  SZ E         7 5 24.33                  141.0 21.2      6        12.5 315 
 LG3  SN IP        7 5 24.35                              98    0.8610 12.5 315 
 LG3  SE IS        7 5 25.39                              98    0.0910 12.5 315 
 LG3  SZ  AML      7 5 25.56         7.8 0.22                          12.5 315 
 LZ4  SN IP        7 5 24.50                              95    0.1310 18.4 325 
 LZ4  SZ E         7 5 24.54                  135.7 22.1     -8        18.4 325 
 LZ4  SE IS        7 5 25.73                              95   -1.0810 18.4 325 
 LZ4  SZ  AML      7 5 25.83        18.9 0.16                          18.4 325 
                                                                                
 2009  112 1411 13.4 L  21.335 -99.244 10.0  RAL  1 0.0 0.6LRAL                1
 GAP=360        0.31       2.8    16.2  0.0  0.4573E+02 -0.2115E+04  0.2166E+04E
 ACTION:UPD 12-06-08 11:37 OP:RALL STATUS:               ID:20090112141113     I
 2009-01-12-1411-07S.PLUR1_003                                                 6
 STAT SP IPHASW D HRMM SECON CODA AMPLIT PERI AZIMU VELO AIN AR TRES W  DIS CAZ7
 LZ4  SZ E        1411 14.91                   79.4 24.8      0        2.64 259 
 LZ4  SN IP       1411 15.34                             166    0.0510 2.64 259 
 LZ4  SE IS       1411 16.61                             166   -0.0510 2.64 259 
 LZ4  SZ  AML     1411 16.74        23.1 0.38                          2.64 259 
                                                                                
 2009  112 1956  5.4 L  21.332 -99.283 10.0  RAL  1 0.1 0.6LRAL                1
 GAP=360        1.24     294.4   150.6  0.0  0.4432E+05 -0.2115E+04  0.2166E+04E
 ACTION:UPD 12-06-08 11:37 OP:RALL STATUS:               ID:20090112195605     I
 2009-01-12-1955-58S.PLUR1_003                                                 6
 STAT SP IPHASW D HRMM SECON CODA AMPLIT PERI AZIMU VELO AIN AR TRES W  DIS CAZ7
 LZ4  SZ E        1956  7.42                  268.9 26.0     -4        1.38  94 
 LZ4  SN IP       1956  7.47                             172    0.2510 1.38  94 
 LZ4  SE IS       1956  8.32                             172   -0.2510 1.38  94 
 LZ4  SZ  AML     1956  8.94        21.1 0.40                          1.38  94 
                                                                                
 2009  112 2017 50.9 L  21.640 -99.335 10.0  RAL  1 0.0 0.6LRAL                1
 GAP=360        0.30       4.1     0.8  0.0 -0.2822E+01 -0.2115E+04  0.2166E+04E
 ACTION:UPD 12-06-08 11:37 OP:RALL STATUS:               ID:20090112201750     I
 2009-01-12-2017-42S.PLUR1_003                                                 6
 STAT SP IPHASW D HRMM SECON CODA AMPLIT PERI AZIMU VELO AIN AR TRES W  DIS CAZ7
 LA4  SZ E        2017 54.36                  351.2 11.1      0        17.5 171 
 LA4  SN IP       2017 54.36                             117    0.0210 17.5 171 
 LA4  SE IS       2017 56.82                             117   -0.0210 17.5 171 
 LA4  SZ  AML     2017 57.34        12.0 0.20                          17.5 171 
                                                                                
 2009  112 2101 36.2 L  21.374 -99.561 10.0  RAL  1 0.0 0.6LRAL                1
 GAP=360        0.30       1.8     3.8  0.0  0.5848E+01 -0.2115E+04  0.2166E+04E
 ACTION:UPD 12-06-08 11:37 OP:RALL STATUS:               ID:20090112210136     I
 2009-01-12-2101-30S.PLUR1_003                                                 6
 STAT SP IPHASW D HRMM SECON CODA AMPLIT PERI AZIMU VELO AIN AR TRES W  DIS CAZ7
 LA4  SZ E        21 1 41.13                  245.1 12.5      0        28.8  65 
 LA4  SN IP       21 1 41.25                             105    0.0210 28.8  65 
 LA4  SE IS       21 1 44.91                             105   -0.0210 28.8  65 
 LA4  SZ  AML     21 1 46.77         7.7 0.54                          28.8  65 
                                                                                
 2009  112 2111 48.0 L  21.295 -99.300 10.0  RAL  1 0.0 0.9LRAL                1
 GAP=360        0.32       7.0     6.1  0.0  0.4234E+02 -0.2115E+04  0.2166E+04E
 ACTION:UPD 12-06-08 11:37 OP:RALL STATUS:               ID:20090112211148     I
 2009-01-12-2111-41S.PLUR1_003                                                 6
 STAT SP IPHASW D HRMM SECON CODA AMPLIT PERI AZIMU VELO AIN AR TRES W  DIS CAZ7
 LZ4  SN IP       2111 50.08                             154    0.0810 5.04  39 
 LZ4  SZ E        2111 50.12                  219.0 17.9      0        5.04  39 
 LZ4  SE IS       2111 51.39                             154   -0.0810 5.04  39 
 LZ4  SZ  AML     2111 51.59        38.0 0.14                          5.04  39 
                                                                                
 2009  112 2151 19.1 L  21.616 -99.344 10.0  RAL  1 0.0 0.8LRAL                1
 GAP=360        0.30       4.2     1.2  0.0 -0.4703E+01 -0.2115E+04  0.2166E+04E
 ACTION:UPD 12-06-08 11:37 OP:RALL STATUS:               ID:20090112215119     I
 2009-01-12-2151-08S.PLUR1_003                                                 6
 STAT SP IPHASW D HRMM SECON CODA AMPLIT PERI AZIMU VELO AIN AR TRES W  DIS CAZ7
 LA4  SZ E        2151 22.21                  346.1  7.3      0        15.1 166 
 LA4  SN IP       2151 22.22                             122    0.0010 15.1 166 
 LA4  SE IS       2151 24.48                             122    0.0010 15.1 166 
 LA4  SZ  AML     2151 24.83        20.0 0.32                          15.1 166 
                                                                                
 2009  112 2200 18.1 L  21.486 -99.317 10.0  RAL  1 0.2-0.3LRAL                1
 GAP=360        0.71     999.9   999.9  0.0  0.2484E+07 -0.2115E+04  0.2166E+04E
 ACTION:UPD 12-06-08 11:37 OP:RALL STATUS:               ID:20090112220018     I
 2009-01-12-2200-06S.PLUR1_003                                                 6
 STAT SP IPHASW D HRMM SECON CODA AMPLIT PERI AZIMU VELO AIN AR TRES W  DIS CAZ7
 LA4  SZ E        22 0 20.33                  291.2 13.2      1        0.83 111 
 LA4  SN IP       22 0 20.38                             175    0.4310 0.83 111 
 LA4  SE IS       22 0 20.88                             175   -0.4310 0.83 111 
 LA4  SZ  AML     22 0 20.95         3.1 0.36                          0.83 111 
                                                                                
 2009  113 0016 45.2 L  21.731 -99.408 10.0  RAL  1 0.0 0.7LRAL                1
 GAP=360        0.30       3.6     1.6  0.0 -0.4994E+01 -0.2115E+04  0.2166E+04E
 ACTION:UPD 12-06-08 11:37 OP:RALL STATUS:               ID:20090113001645     I
 2009-01-13-0016-40S.PLUR1_003                                                 6
 STAT SP IPHASW D HRMM SECON CODA AMPLIT PERI AZIMU VELO AIN AR TRES W  DIS CAZ7
 LA4  SZ E         016 50.19                  339.5 20.9      0        29.3 159 
 LA4  SN IP        016 50.38                             105    0.0210 29.3 159 
 LA4  SE IS        016 54.10                             105   -0.0210 29.3 159 
 LA4  SZ  AML      016 54.71         9.9 0.40                          29.3 159 
                                                                                
 2009  113 0231 24.5 L  21.340 -99.270 10.0  RAL  1 0.1 0.4LRAL                1
 GAP=360        0.41     690.7   999.9  0.0  0.7361E+07 -0.2115E+04  0.2166E+04E
 ACTION:UPD 12-06-08 11:37 OP:RALL STATUS:               ID:20090113023124     I
 2009-01-13-0231-18S.PLUR1_003                                                 6
 STAT SP IPHASW D HRMM SECON CODA AMPLIT PERI AZIMU VELO AIN AR TRES W  DIS CAZ7
 LZ4  SN IP        231 26.48                             174    0.1610 1.07 176 
 LZ4  SZ E         231 26.49                  355.0 16.7      0        1.07 176 
 LZ4  SE IS        231 27.50                             174   -0.1610 1.07 176 
 LZ4  SZ  AML      231 28.39        13.5 0.60                          1.07 176 
                                                                                
 2009  113 1146 56.5 L  21.247 -99.232 10.0  RAL  1 0.1 0.4LRAL                1
 GAP=360        0.39      11.6     8.3  0.0 -0.9703E+02 -0.2115E+04  0.2166E+04E
 ACTION:UPD 12-06-08 11:37 OP:RALL STATUS:               ID:20090113114656     I
 2009-01-13-1146-50S.PLUR1_003                                                 6
 STAT SP IPHASW D HRMM SECON CODA AMPLIT PERI AZIMU VELO AIN AR TRES W  DIS CAZ7
 LG3  SZ E        1146 58.59                  146.2 24.1      0        3.89 326 
 LG3  SN IP       1146 58.66                             159    0.1810 3.89 326 
 LG3  SE IS       1146 59.74                             159   -0.1810 3.89 326 
 LG3  SZ  AML     1146 59.86        12.3 0.34                          3.89 326 
                                                                                
 2009  113 1332 21.5 L  21.402 -99.202 10.0  RAL  1 0.0 0.7LRAL                1
 GAP=360        0.30       3.8     3.6  0.0  0.1355E+02 -0.2115E+04  0.2166E+04E
 ACTION:UPD 12-06-08 11:37 OP:RALL STATUS:               ID:20090113133221     I
 2009-01-13-1332-16S.PLUR1_003                                                 6
 STAT SP IPHASW D HRMM SECON CODA AMPLIT PERI AZIMU VELO AIN AR TRES W  DIS CAZ7
 LZ4  SN IP       1332 24.00                             133    0.0110 10.6 222 
 LZ4  SZ E        1332 24.02                   41.8 23.8      0        10.6 222 
 LZ4  SE IS       1332 25.82                             133   -0.0110 10.6 222 
 LZ4  SZ  AML     1332 26.02        20.9 0.20                          10.6 222 
                                                                                
 2009  113 1749 22.4 L  21.270 -99.239 10.0  RAL  1 0.2 0.5LRAL                1
 GAP=360        2.34     999.9   999.9  0.0  0.2244E+08 -0.2115E+04  0.2166E+04E
 ACTION:UPD 12-06-08 11:37 OP:RALL STATUS:               ID:20090113174922     I
 2009-01-13-1749-15S.PLUR1_003                                                 6
 STAT SP IPHASW D HRMM SECON CODA AMPLIT PERI AZIMU VELO AIN AR TRES W  DIS CAZ7
 LG3  SN IP       1749 24.64                             172    0.3510 1.55 296 
 LG3  SZ E        1749 24.75                  104.8 20.7    -10        1.55 296 
 LG3  SE IS       1749 25.31                             172   -0.3510 1.55 296 
 LG3  SZ  AML     1749 25.42        18.8 0.18                          1.55 296 
                                                                                
 2009  113 1932 55.1 L  21.489 -99.324 10.0  RAL  1 0.2 0.4LRAL                1
 GAP=360        0.85      25.0    68.7  0.0 -0.1715E+04 -0.2115E+04  0.2166E+04E
 ACTION:UPD 12-06-08 11:37 OP:RALL STATUS:               ID:20090113193255     I
 2009-01-13-1932-42S.PLUR1_003                                                 6
 STAT SP IPHASW D HRMM SECON CODA AMPLIT PERI AZIMU VELO AIN AR TRES W  DIS CAZ7
 LA4  SZ E        1932 57.51                  291.3  8.1      0        1.63 111 
 LA4  SN IP       1932 57.51                             171    0.5410 1.63 111 
 LA4  SE IS       1932 57.79                             171   -0.5410 1.63 111 
 LA4  SZ  AML     1932 58.21        14.1 0.24                          1.63 111 
                                                                                
