 2009  1 1 0116 16.8 L  21.391 -99.535 10.0  RAL  1 0.0 0.3LRAL                1
 GAP=360        0.30       1.7     3.8  0.0  0.5831E+01 -0.4467E+01 -0.4239E+02E
 ACTION:UPD 12-06-08 11:37 OP:RALL STATUS:               ID:20090101011616     I
 2009-01-01-0116-10S.PLUR1_003                                                 6
 STAT SP IPHASW D HRMM SECON CODA AMPLIT PERI AZIMU VELO AIN AR TRES W  DIS CAZ7
 LA4  SZ E         116 21.38                  246.4 35.0      0        25.6  66 
 LA4  SN IP        116 21.44                             107    0.0210 25.6  66 
 LA4  SE IS        116 24.75                             107   -0.0210 25.6  66 
 LA4  SZ  AML      116 25.34         4.0 0.22                          25.6  66 
                                                                                
 2009  1 1 1012 22.8 L  21.255 -99.238 10.0  RAL  1 0.0 1.1LRAL                1
 GAP=360        0.30       5.2     2.2  0.0 -0.1124E+02 -0.4467E+01 -0.4239E+02E
 ACTION:UPD 12-06-08 11:37 OP:RALL STATUS:               ID:20090101101222     I
 2009-01-01-1012-16S.PLUR1_003                                                 6
 STAT SP IPHASW D HRMM SECON CODA AMPLIT PERI AZIMU VELO AIN AR TRES W  DIS CAZ7
 LZ4  SN IP       1012 25.16                             138    0.0210 8.96 339 
 LZ4  SZ E        1012 25.18                  158.6  8.7      0        8.96 339 
 LZ4  SE IS       1012 26.83                             138   -0.0210 8.96 339 
 LZ4  SZ  AML     1012 27.99        56.8 0.30                          8.96 339 
                                                                                
 2009  1 1 1235 57.5 L  21.351 -99.282 10.0  RAL  1 0.1 0.7LRAL                1
 GAP=360        0.62     542.3   999.9  0.0  0.5790E+06 -0.4467E+01 -0.4239E+02E
 ACTION:UPD 12-06-08 11:37 OP:RALL STATUS:               ID:20090101123557     I
 2009-01-01-1235-50S.PLUR1_003                                                 6
 STAT SP IPHASW D HRMM SECON CODA AMPLIT PERI AZIMU VELO AIN AR TRES W  DIS CAZ7
 LZ4  SZ E        1235 59.69                  329.8 23.0      0        2.58 150 
 LZ4  SN IP       1235 59.72                             166    0.3710 2.58 150 
 LZ4  SE IS       1236  0.35                             166   -0.3710 2.58 150 
 LZ4  SZ  AML     1236  0.46        29.5 0.18                          2.58 150 
                                                                                
 2009  1 1 1830  8.8 L  21.290 -99.283 10.0  RAL  1 0.0 0.4LRAL                1
 GAP=360        0.30       8.5     2.8  0.0  0.2349E+02 -0.4467E+01 -0.4239E+02E
 ACTION:UPD 12-06-08 11:37 OP:RALL STATUS:               ID:20090101183008     I
 2009-01-01-1830-02S.PLUR1_003                                                 6
 STAT SP IPHASW D HRMM SECON CODA AMPLIT PERI AZIMU VELO AIN AR TRES W  DIS CAZ7
 LZ4  SN IP       1830 10.86                             155    0.0310 4.72  17 
 LZ4  SZ E        1830 10.87                  196.8 13.4      0        4.72  17 
 LZ4  SE IS       1830 12.26                             155   -0.0310 4.72  17 
 LZ4  SZ  AML     1830 14.74        12.6 0.44                          4.72  17 
                                                                                
 2009  1 1 2019 22.4 L  21.442 -99.313 10.0  RAL  1 0.0 0.3LRAL                1
 GAP=360        0.30       3.6     1.5  0.0 -0.4398E+01 -0.4467E+01 -0.4239E+02E
 ACTION:UPD 12-06-08 11:37 OP:RALL STATUS:               ID:20090101201922     I
 2009-01-01-2019-22S.PLUR1_003                                                 6
 STAT SP IPHASW D HRMM SECON CODA AMPLIT PERI AZIMU VELO AIN AR TRES W  DIS CAZ7
 LO8  SN IP       2019 28.16                             103    0.0110 32.9 162 
 LO8  SZ E        2019 28.55                  341.7  7.8      0        32.9 162 
 LO8  SE IS       2019 32.30                             103   -0.0110 32.9 162 
 LO8  SZ  AML     2019 32.45         3.9 0.40                          32.9 162 
                                                                                
 2009  1 1 2317 57.5 L  21.370 -99.293 10.0  RAL  1 0.0-0.1LRAL                1
 GAP=360        0.30       4.6     0.8  0.0 -0.3044E+01 -0.4467E+01 -0.4239E+02E
 ACTION:UPD 12-06-08 11:37 OP:RALL STATUS:               ID:20090101231757     I
 2009-01-01-2317-47S.PLUR1_003                                                 6
 STAT SP IPHASW D HRMM SECON CODA AMPLIT PERI AZIMU VELO AIN AR TRES W  DIS CAZ7
 LA4  SN IP       2318  0.32                             127    0.0010 12.7 352 
 LA4  SZ E        2318  0.34                  172.3  8.0      0        12.7 352 
 LA4  SE IS       2318  2.36                             127    0.0010 12.7 352 
 LA4  SZ  AML     2318  2.47         2.7 0.10                          12.7 352 
                                                                                
 2009  1 1 2347 34.6 L  21.649 -99.311 10.0  RAL  1 0.0 0.4LRAL                1
 GAP=360        0.30       4.1     0.5  0.0 -0.1583E+00 -0.4467E+01 -0.4239E+02E
 ACTION:UPD 12-06-08 11:37 OP:RALL STATUS:               ID:20090101234734     I
 2009-01-01-2347-26S.PLUR1_003                                                 6
 STAT SP IPHASW D HRMM SECON CODA AMPLIT PERI AZIMU VELO AIN AR TRES W  DIS CAZ7
 LA4  SZ E        2347 38.17                  359.5  7.6      0        18.3 179 
 LA4  SN IP       2347 38.19                             116    0.0210 18.3 179 
 LA4  SE IS       2347 40.74                             116   -0.0210 18.3 179 
 LA4  SZ  AML     2347 42.29         7.4 0.46                          18.3 179 
                                                                                
 2009  1 2 0226 39.3 L  21.366 -99.287  0.0  RAL  2 0.2 0.5LRAL                1
 GAP=195        2.07       6.2     3.0 81.6 -0.1741E+02  0.1878E+03 -0.4058E+03E
 ACTION:UPD 12-06-08 11:37 OP:RALL STATUS:               ID:20090102022639     I
 2009-01-02-0226-29S.PLUR1_006                                                 6
 STAT SP IPHASW D HRMM SECON CODA AMPLIT PERI AZIMU VELO AIN AR TRES W  DIS CAZ7
 LZ4  SZ E         226 39.45                  338.1 18.8      3        4.25 155 
 LZ4  SN IP        226 39.45                             104   -0.5910 4.25 155 
 LZ4  SE IS        226 40.46                             104   -0.1410 4.25 155 
 LZ4  SZ  AML      226 40.47       118.0 0.18                          4.25 155 
 LA4  SZ E         226 41.55                  178.3  8.3      8        13.3 350 
 LA4  SN IP        226 41.60                              95    0.0010 13.3 350 
 LA4  SE IS        226 44.04                              95    0.7410 13.3 350 
 LA4  SZ  AML      226 44.94         5.2 0.18                          13.3 350 
                                                                                
 2009  1 2 0303 43.0 L  21.356 -99.256 10.0  RAL  1 0.1 0.5LRAL                1
 GAP=360        0.41      16.0     8.5  0.0  0.1359E+03  0.1878E+03 -0.4058E+03E
 ACTION:UPD 12-06-08 11:37 OP:RALL STATUS:               ID:20090102030343     I
 2009-01-02-0303-36S.PLUR1_003                                                 6
 STAT SP IPHASW D HRMM SECON CODA AMPLIT PERI AZIMU VELO AIN AR TRES W  DIS CAZ7
 LZ4  SZ E         3 3 45.11                   26.3 29.0      0        3.05 206 
 LZ4  SN IP        3 3 45.12                             164    0.1910 3.05 206 
 LZ4  SE IS        3 3 46.13                             164   -0.1910 3.05 206 
 LZ4  SZ  AML      3 3 46.20        16.2 0.18                          3.05 206 
                                                                                
 2009  1 2 0700  6.0 L  21.217 -99.400 10.0  RAL  1 0.0 1.3LRAL                1
 GAP=360        0.30       2.8     3.3  0.0  0.9040E+01  0.1878E+03 -0.4058E+03E
 ACTION:UPD 12-06-08 11:37 OP:RALL STATUS:               ID:20090102070006     I
 2009-01-02-0700-00S.PLUR1_003                                                 6
 STAT SP IPHASW D HRMM SECON CODA AMPLIT PERI AZIMU VELO AIN AR TRES W  DIS CAZ7
 LZ4  SZ E         7 0  9.52                  227.3 13.7      0        18.5  47 
 LZ4  SN IP        7 0  9.53                             116   -0.0210 18.5  47 
 LZ4  SE IS        7 0 12.17                             116    0.0210 18.5  47 
 LZ4  SZ  AML      7 0 12.67        52.7 0.48                          18.5  47 
                                                                                
 2009  1 2 0953 46.5 L  21.346 -99.294 10.0  RAL  1 0.1 0.2LRAL                1
 GAP=360        0.45      10.8    17.4  0.0 -0.1877E+03  0.1878E+03 -0.4058E+03E
 ACTION:UPD 12-06-08 11:37 OP:RALL STATUS:               ID:20090102095346     I
 2009-01-02-0953-40S.PLUR1_003                                                 6
 STAT SP IPHASW D HRMM SECON CODA AMPLIT PERI AZIMU VELO AIN AR TRES W  DIS CAZ7
 LZ4  SZ E         953 48.55                  303.5 16.6      0        3.09 123 
 LZ4  SN IP        953 48.58                             163    0.2310 3.09 123 
 LZ4  SE IS        953 49.51                             163   -0.2310 3.09 123 
 LZ4  SZ  AML      953 50.40         9.3 0.52                          3.09 123 
                                                                                
 2009  1 2 1319 59.6 L  21.288 -99.253 10.0  RAL  1 0.0 0.8LRAL                1
 GAP=360        0.30       8.0     3.2  0.0 -0.2536E+02  0.1878E+03 -0.4058E+03E
 ACTION:UPD 12-06-08 11:37 OP:RALL STATUS:               ID:20090102131959     I
 2009-01-02-1319-52S.PLUR1_003                                                 6
 STAT SP IPHASW D HRMM SECON CODA AMPLIT PERI AZIMU VELO AIN AR TRES W  DIS CAZ7
 LZ4  SZ E        1320  1.61                  159.6  8.9      0        5.01 340 
 LZ4  SN IP       1320  1.62                             154    0.0310 5.01 340 
 LZ4  SE IS       1320  3.02                             154   -0.0310 5.01 340 
 LZ4  SZ  AML     1320  3.55        32.3 0.16                          5.01 340 
                                                                                
 2009  1 2 1823 29.2 L  21.662 -99.247 10.0  RAL  1 0.0 0.4LRAL                1
 GAP=360        0.30       3.8     1.5  0.0  0.5082E+01  0.1878E+03 -0.4058E+03E
 ACTION:UPD 12-06-08 11:37 OP:RALL STATUS:               ID:20090102182329     I
 2009-01-02-1823-21S.PLUR1_003                                                 6
 STAT SP IPHASW D HRMM SECON CODA AMPLIT PERI AZIMU VELO AIN AR TRES W  DIS CAZ7
 LA4  SZ E        1823 33.10                   18.1 12.2      0        20.8 198 
 LA4  SN IP       1823 33.13                             113    0.0210 20.8 198 
 LA4  SE IS       1823 35.92                             113   -0.0210 20.8 198 
 LA4  SZ  AML     1823 38.05         6.7 0.36                          20.8 198 
                                                                                
 2009  1 3 0300 32.8 L  21.347 -99.177 10.0  RAL  1 0.0 0.5LRAL                1
 GAP=360        0.30       1.0     5.5  0.0  0.5335E+01  0.1878E+03 -0.4058E+03E
 ACTION:UPD 12-06-08 11:37 OP:RALL STATUS:               ID:20090103030032     I
 2009-01-03-0300-27S.PLUR1_003                                                 6
 STAT SP IPHASW D HRMM SECON CODA AMPLIT PERI AZIMU VELO AIN AR TRES W  DIS CAZ7
 LZ4  SZ E         3 0 35.12                   79.4  9.4      0        9.76 259 
 LZ4  SN IP        3 0 35.28                             135    0.0110 9.76 259 
 LZ4  SE IS        3 0 37.05                             135   -0.0110 9.76 259 
 LZ4  SZ  AML      3 0 37.53        11.9 0.68                          9.76 259 
                                                                                
 2009  1 3 0305 30.0 L  21.350 -99.281 10.0  RAL  1 0.2 0.3LRAL                1
 GAP=360        0.69      32.4    19.4  0.0 -0.6291E+03  0.1878E+03 -0.4058E+03E
 ACTION:UPD 12-06-08 11:37 OP:RALL STATUS:               ID:20090103030530     I
 2009-01-03-0305-23S.PLUR1_003                                                 6
 STAT SP IPHASW D HRMM SECON CODA AMPLIT PERI AZIMU VELO AIN AR TRES W  DIS CAZ7
 LZ4  SZ E         3 5 32.28                  330.8  6.3      0        2.45 151 
 LZ4  SN IP        3 5 32.31                             167    0.4210 2.45 151 
 LZ4  SE IS        3 5 32.84                             167   -0.4210 2.45 151 
 LZ4  SZ  AML      3 5 33.07        12.1 0.28                          2.45 151 
                                                                                
 2009  1 3 0416  2.3 L  21.798 -99.689  5.1  RAL  2 0.2 1.1LRAL                1
 GAP=352        2.34      83.1    90.7231.0 -0.7459E+04 -0.2059E+05  0.1886E+05E
 ACTION:UPD 12-06-08 11:37 OP:RALL STATUS:               ID:20090103041602     I
 2009-01-03-0415-57S.PLUR1_006                                                 6
 STAT SP IPHASW D HRMM SECON CODA AMPLIT PERI AZIMU VELO AIN AR TRES W  DIS CAZ7
 LA4  SZ E         416 10.86                  318.5 10.3      7        52.5 131 
 LA4  SN IP        416 10.98                              63    0.4010 52.5 131 
 LA4  SE IS        416 16.82                              63    0.1710 52.5 131 
 LA4  SZ  AML      416 19.42         9.3 0.36                          52.5 131 
 LZ4  SN IP        416 12.74                              63   -0.1710 67.6 140 
 LZ4  SZ E         416 12.78                  311.6  7.7     -7        67.6 140 
 LZ4  SE IS        416 20.26                              63   -0.4110 67.6 140 
 LZ4  SZ  AML      416 21.15        14.1 0.24                          67.6 140 
                                                                                
 2009  1 3 0639 59.4 L  21.345 -99.237 10.0  RAL  1 0.1 0.1LRAL                1
 GAP=360        0.36       5.4    12.9  0.0  0.6954E+02 -0.2059E+05  0.1886E+05E
 ACTION:UPD 12-06-08 11:37 OP:RALL STATUS:               ID:20090103063959     I
 2009-01-03-0639-53S.PLUR1_003                                                 6
 STAT SP IPHASW D HRMM SECON CODA AMPLIT PERI AZIMU VELO AIN AR TRES W  DIS CAZ7
 LZ4  SZ E         640  1.46                   65.7 99.9      0        3.69 246 
 LZ4  SN IP        640  1.48                             160    0.1310 3.69 246 
 LZ4  SZ  AML      640  2.12         6.9 0.58                          3.69 246 
 LZ4  SE IS        640  2.62                             160   -0.1310 3.69 246 
                                                                                
 2009  1 3 0710 37.5 L  21.313 -99.236 10.0  RAL  1 0.0 0.9LRAL                1
 GAP=360        0.34       6.0    10.9  0.0 -0.6479E+02 -0.2059E+05  0.1886E+05E
 ACTION:UPD 12-06-08 11:37 OP:RALL STATUS:               ID:20090103071037     I
 2009-01-03-0710-30S.PLUR1_003                                                 6
 STAT SP IPHASW D HRMM SECON CODA AMPLIT PERI AZIMU VELO AIN AR TRES W  DIS CAZ7
 LZ4  SN IP        710 39.57                             159    0.1210 3.99 301 
 LZ4  SZ E         710 39.60                  120.5 31.9      0        3.99 301 
 LZ4  SE IS        710 40.76                             159   -0.1210 3.99 301 
 LZ4  SZ  AML      710 41.16        44.8 0.30                          3.99 301 
                                                                                
 2009  1 3 1050 32.3 L  21.350 -99.291 10.0  RAL  1 0.1 0.1LRAL                1
 GAP=360        0.54      16.6    18.4  0.0 -0.3059E+03 -0.2059E+05  0.1886E+05E
 ACTION:UPD 12-06-08 11:37 OP:RALL STATUS:               ID:20090103105032     I
 2009-01-03-1050-25S.PLUR1_003                                                 6
 STAT SP IPHASW D HRMM SECON CODA AMPLIT PERI AZIMU VELO AIN AR TRES W  DIS CAZ7
 LZ4  SZ E        1050 34.44                  314.0 30.5      0        3.05 134 
 LZ4  SN IP       1050 34.46                             163    0.3110 3.05 134 
 LZ4  SE IS       1050 35.23                             163   -0.3110 3.05 134 
 LZ4  SZ  AML     1050 35.30         6.1 0.16                          3.05 134 
                                                                                
 2009  1 3 1116 39.9 L  21.320 -99.297 10.0  RAL  1 0.1 0.1LRAL                1
 GAP=360        0.39       6.9    16.6  0.0  0.1141E+03 -0.2059E+05  0.1886E+05E
 ACTION:UPD 12-06-08 11:37 OP:RALL STATUS:               ID:20090103111639     I
 2009-01-03-1116-33S.PLUR1_003                                                 6
 STAT SP IPHASW D HRMM SECON CODA AMPLIT PERI AZIMU VELO AIN AR TRES W  DIS CAZ7
 LZ4  SZ E        1116 41.99                  246.2 13.7      0        3.10  66 
 LZ4  SN IP       1116 41.99                             163    0.1710 3.10  66 
 LZ4  SE IS       1116 43.03                             163   -0.1710 3.10  66 
 LZ4  SZ  AML     1116 43.31         6.3 0.18                          3.10  66 
                                                                                
 2009  1 3 1245 29.5 L  21.196 -99.346  0.2  RAL  2 0.2 1.5LRAL                1
 GAP=340        1.66       6.4     6.0160.3  0.3617E+02  0.4479E+03  0.4734E+03E
 ACTION:UPD 12-06-08 11:37 OP:RALL STATUS:               ID:20090103124529     I
 2009-01-03-1245-22S.PLUR1_006                                                 6
 STAT SP IPHASW D HRMM SECON CODA AMPLIT PERI AZIMU VELO AIN AR TRES W  DIS CAZ7
 LG3  SZ E        1245 32.55                  224.7 21.5     -2        13.0  48 
 LG3  SN IP       1245 32.57                              95    0.7410 13.0  48 
 LG3  SE IS       1245 33.74                              95    0.2310 13.0  48 
 LG3  SZ  AML     1245 33.87        65.5 0.20                          13.0  48 
 LZ4  SZ E        1245 32.50                  211.9 73.0      4        16.8  28 
 LZ4  SN IP       1245 32.51                              94    0.0210 16.8  28 
 LZ4  SE IS       1245 33.66                              94   -0.9910 16.8  28 
 LZ4  SZ  AML     1245 34.08       192.1 0.30                          16.8  28 
                                                                                
 2009  1 3 2034 40.3 L  21.562 -99.444 10.0  RAL  1 0.0 1.0LRAL                1
 GAP=360        0.30       2.3     3.9  0.0 -0.8572E+01  0.4479E+03  0.4734E+03E
 ACTION:UPD 12-06-08 11:37 OP:RALL STATUS:               ID:20090103203440     I
 2009-01-03-2034-29S.PLUR1_003                                                 6
 STAT SP IPHASW D HRMM SECON CODA AMPLIT PERI AZIMU VELO AIN AR TRES W  DIS CAZ7
 LA4  SZ E        2034 43.59                  302.0 11.8      0        16.4 122 
 LA4  SN IP       2034 43.61                             119    0.0110 16.4 122 
 LA4  SE IS       2034 45.99                             119   -0.0110 16.4 122 
 LA4  SZ  AML     2034 47.28        29.2 0.28                          16.4 122 
                                                                                
 2009  1 3 2236 49.4 L  21.554 -99.427 10.0  RAL  1 0.0 0.4LRAL                1
 GAP=360        0.30       2.4     4.0  0.0 -0.9436E+01  0.4479E+03  0.4734E+03E
 ACTION:UPD 12-06-08 11:37 OP:RALL STATUS:               ID:20090103223649     I
 2009-01-03-2236-40S.PLUR1_003                                                 6
 STAT SP IPHASW D HRMM SECON CODA AMPLIT PERI AZIMU VELO AIN AR TRES W  DIS CAZ7
 LA4  SZ E        2236 52.45                  302.5 16.4      0        14.4 122 
 LA4  SN IP       2236 52.48                             123    0.0110 14.4 122 
 LA4  SE IS       2236 54.66                             123   -0.0110 14.4 122 
 LA4  SZ  AML     2236 56.27         8.1 0.72                          14.4 122 
                                                                                
