 2009  3 7 0520  1.8 L  21.667 -99.370 10.0  RAL  1 0.0 0.6LRAL                1
 GAP=360        0.30       3.8     1.4  0.0 -0.4810E+01 -0.5354E+06  0.1595E+07E
 ACTION:UPD 12-06-08 11:37 OP:RALL STATUS:               ID:20090307052001     I
 2009-03-07-0519-54S.PLUR1_003                                                 6
 STAT SP IPHASW D HRMM SECON CODA AMPLIT PERI AZIMU VELO AIN AR TRES W  DIS CAZ7
 LA4  SZ E         520  5.81                  342.8  8.0      0        21.2 163 
 LA4  SN IP        520  5.81                             112    0.0210 21.2 163 
 LA4  SE IS        520  8.65                             112   -0.0210 21.2 163 
 LA4  SZ  AML      520 11.42        10.1 0.66                          21.2 163 
                                                                                
 2009  3 7 0532 10.5 L  21.332 -99.266 10.0  RAL  1 0.2 0.6LRAL                1
 GAP=360        1.07     999.9   999.9  0.0 -0.1230E+08 -0.5354E+06  0.1595E+07E
 ACTION:UPD 12-06-08 11:37 OP:RALL STATUS:               ID:20090307053210     I
 2009-03-07-0532-03S.PLUR1_003                                                 6
 STAT SP IPHASW D HRMM SECON CODA AMPLIT PERI AZIMU VELO AIN AR TRES W  DIS CAZ7
 LZ4  SZ E         532 12.83                   77.6 21.0      4        0.37 254 
 LZ4  SN IP        532 12.84                             178    0.4910 0.37 254 
 LZ4  SE IS        532 13.20                             178   -0.4910 0.37 254 
 LZ4  SZ  AML      532 13.35        22.7 0.20                          0.37 254 
                                                                                
 2009  3 7 0714 40.0 L  21.354 -99.293 10.0  RAL  1 0.1 0.3LRAL                1
 GAP=360        0.45      12.2    12.5  0.0 -0.1527E+03 -0.5354E+06  0.1595E+07E
 ACTION:UPD 12-06-08 11:37 OP:RALL STATUS:               ID:20090307071440     I
 2009-03-07-0714-33S.PLUR1_003                                                 6
 STAT SP IPHASW D HRMM SECON CODA AMPLIT PERI AZIMU VELO AIN AR TRES W  DIS CAZ7
 LZ4  SZ E         714 42.11                  316.5 21.6      0        3.61 136 
 LZ4  SN IP        714 42.16                             161    0.2310 3.61 136 
 LZ4  SE IS        714 43.11                             161   -0.2310 3.61 136 
 LZ4  SZ  AML      714 43.16        11.2 0.20                          3.61 136 
                                                                                
 2009  3 7 0821 22.1 L  21.483 -99.320 10.0  RAL  1 0.1-0.5LRAL                1
 GAP=360        1.66     397.1   222.7  0.0 -0.8842E+05 -0.5354E+06  0.1595E+07E
 ACTION:UPD 12-06-08 11:37 OP:RALL STATUS:               ID:20090307082122     I
 2009-03-07-0821-11S.PLUR1_003                                                 6
 STAT SP IPHASW D HRMM SECON CODA AMPLIT PERI AZIMU VELO AIN AR TRES W  DIS CAZ7
 LA4  SZ E         821 24.08                  276.2 13.0      8        1.10  89 
 LA4  SN IP        821 24.16                             174    0.2110 1.10  89 
 LA4  SE IS        821 25.10                             174   -0.2110 1.10  89 
 LA4  SZ  AML      821 25.74         1.7 0.20                          1.10  89 
                                                                                
 2009  3 7 1320 52.4 L  21.328 -99.276 10.0  RAL  2 0.4 1.2LRAL                1
 GAP=284        3.23       1.6     5.5 20.9  0.5989E+01 -0.9990E+00 -0.1311E+01E
 ACTION:UPD 12-06-08 11:37 OP:RALL STATUS:               ID:20090307132052     I
 2009-03-07-1320-43S.PLUR1_006                                                 6
 STAT SP IPHASW D HRMM SECON CODA AMPLIT PERI AZIMU VELO AIN AR TRES W  DIS CAZ7
 LZ4  SZ E        1320 53.69                  255.4 10.6     10        0.72  65 
 LZ4  SN IP       1320 53.70                             173   -0.5710 0.72  65 
 LZ4  SE IS       1320 54.76                             173   -0.8510 0.72  65 
 LZ4  SZ  AML     1320 54.84       275.8 0.26                          0.72  65 
 LA4  SN IP       1320 55.90                             113    0.0310 17.6 349 
 LA4  SZ E        1320 55.93                  160.5  7.2     -7        17.6 349 
 LA4  SE IS       1320 59.78                             113    1.4010 17.6 349 
 LA4  SZ  AML     1321  1.62        14.0 0.32                          17.6 349 
                                                                                
 2009  3 8 0804 45.7 L  21.334 -99.274 10.0  RAL  1 0.6 0.5LRAL                1
 GAP=360        7.46     970.6   999.9  0.0  0.3118E+07 -0.9990E+00 -0.1311E+01E
 ACTION:UPD 12-06-08 11:37 OP:RALL STATUS:               ID:20090308080445     I
 2009-03-08-0804-38S.PLUR1_003                                                 6
 STAT SP IPHASW D HRMM SECON CODA AMPLIT PERI AZIMU VELO AIN AR TRES W  DIS CAZ7
 LZ4  SZ E         8 4 47.79                  343.1 23.4     36        0.53 128 
 LZ4  SN IP        8 4 47.82                             177    0.3010 0.53 128 
 LZ4  SE IS        8 4 48.55                             177   -0.3010 0.53 128 
 LZ4  SZ  AML      8 4 48.62        16.9 0.18                          0.53 128 
                                                                                
 2009  3 8 0840 14.8 L  21.267 -99.201 10.0  RAL  1 0.0 0.8LRAL                1
 GAP=360        0.30       3.7     3.9  0.0 -0.1443E+02 -0.9990E+00 -0.1311E+01E
 ACTION:UPD 12-06-08 11:37 OP:RALL STATUS:               ID:20090308084014     I
 2009-03-08-0840-09S.PLUR1_003                                                 6
 STAT SP IPHASW D HRMM SECON CODA AMPLIT PERI AZIMU VELO AIN AR TRES W  DIS CAZ7
 LZ4  SN IP        840 17.33                             134    0.0210 10.0 315 
 LZ4  SZ E         840 17.34                  135.0 16.9      0        10.0 315 
 LZ4  SE IS        840 19.10                             134   -0.0210 10.0 315 
 LZ4  SZ  AML      840 19.27        26.4 0.24                          10.0 315 
                                                                                
 2009  3 8 0848  7.8 L  21.346 -99.303 10.0  RAL  1 0.0 0.4LRAL                1
 GAP=360        0.33       4.9    11.3  0.0 -0.5514E+02 -0.9990E+00 -0.1311E+01E
 ACTION:UPD 12-06-08 11:37 OP:RALL STATUS:               ID:20090308084807     I
 2009-03-08-0848-01S.PLUR1_003                                                 6
 STAT SP IPHASW D HRMM SECON CODA AMPLIT PERI AZIMU VELO AIN AR TRES W  DIS CAZ7
 LZ4  SZ E         848  9.83                  295.0 18.0      0        3.85 115 
 LZ4  SN IP        848  9.83                             159    0.0910 3.85 115 
 LZ4  SE IS        848 11.06                             159   -0.0910 3.85 115 
 LZ4  SZ  AML      848 11.14        13.6 0.16                          3.85 115 
                                                                                
 2009  3 8 1141 42.7 L  21.632 -99.287 10.0  RAL  1 0.0 0.2LRAL                1
 GAP=360        0.30       4.2     0.8  0.0  0.2597E+01 -0.9990E+00 -0.1311E+01E
 ACTION:UPD 12-06-08 11:37 OP:RALL STATUS:               ID:20090308114142     I
 2009-03-08-1141-34S.PLUR1_003                                                 6
 STAT SP IPHASW D HRMM SECON CODA AMPLIT PERI AZIMU VELO AIN AR TRES W  DIS CAZ7
 LA4  SZ E        1141 45.96                    7.8 12.8      0        16.5 188 
 LA4  SN IP       1141 46.02                             119    0.0210 16.5 188 
 LA4  SE IS       1141 48.38                             119   -0.0210 16.5 188 
 LA4  SZ  AML     1141 48.74         5.3 0.26                          16.5 188 
                                                                                
 2009  3 8 1738 35.8 L  21.349 -99.298 10.0  RAL  1 0.1 0.4LRAL                1
 GAP=360        0.40       8.7    13.2  0.0 -0.1143E+03 -0.9990E+00 -0.1311E+01E
 ACTION:UPD 12-06-08 11:37 OP:RALL STATUS:               ID:20090308173835     I
 2009-03-08-1738-29S.PLUR1_003                                                 6
 STAT SP IPHASW D HRMM SECON CODA AMPLIT PERI AZIMU VELO AIN AR TRES W  DIS CAZ7
 LZ4  SZ E        1738 37.92                  305.3 64.7      0        3.57 125 
 LZ4  SN IP       1738 37.94                             161    0.1810 3.57 125 
 LZ4  SE IS       1738 38.99                             161   -0.1810 3.57 125 
 LZ4  SZ  AML     1738 39.70        13.3 0.52                          3.57 125 
                                                                                
 2009  3 9 0318 21.0 L  21.301 -99.246 10.0  RAL  1 0.1 0.4LRAL                1
 GAP=360        0.38      10.2     7.9  0.0 -0.8058E+02 -0.9990E+00 -0.1311E+01E
 ACTION:UPD 12-06-08 11:37 OP:RALL STATUS:               ID:20090309031821     I
 2009-03-09-0318-14S.PLUR1_003                                                 6
 STAT SP IPHASW D HRMM SECON CODA AMPLIT PERI AZIMU VELO AIN AR TRES W  DIS CAZ7
 LZ4  SZ E         318 23.07                  144.1 47.0      0        4.14 324 
 LZ4  SN IP        318 23.10                             158    0.1610 4.14 324 
 LZ4  SE IS        318 24.21                             158   -0.1610 4.14 324 
 LZ4  SZ  AML      318 24.87        14.7 0.26                          4.14 324 
                                                                                
 2009  3 9 0331 29.2 L  21.348 -99.293 10.0  RAL  1 0.1 0.7LRAL                1
 GAP=360        0.60      16.4    21.9  0.0 -0.3601E+03 -0.9990E+00 -0.1311E+01E
 ACTION:UPD 12-06-08 11:37 OP:RALL STATUS:               ID:20090309033129     I
 2009-03-09-0331-22S.PLUR1_003                                                 6
 STAT SP IPHASW D HRMM SECON CODA AMPLIT PERI AZIMU VELO AIN AR TRES W  DIS CAZ7
 LZ4  SZ E         331 31.43                  308.8 12.5      0        3.07 129 
 LZ4  SN IP        331 31.44                             163    0.3510 3.07 129 
 LZ4  SZ  AML      331 32.11        30.4 0.16                          3.07 129 
 LZ4  SE IS        331 32.12                             163   -0.3510 3.07 129 
                                                                                
 2009  3 9 1958 57.1 L  21.316 -99.251 10.0  RAL  1 0.2 2.1LRAL                1
 GAP=360        0.83      27.9    34.5  0.0 -0.9632E+03 -0.9990E+00 -0.1311E+01E
 ACTION:UPD 12-06-08 11:37 OP:RALL STATUS:               ID:20090309195857     I
 2009-03-09-1958-50S.PLUR1_003                                                 6
 STAT SP IPHASW D HRMM SECON CODA AMPLIT PERI AZIMU VELO AIN AR TRES W  DIS CAZ7
 LZ4  SZ E        1958 59.52                  131.0  9.7      0        2.57 311 
 LZ4  SN IP       1958 59.52                             166    0.5210 2.57 311 
 LZ4  SE IS       1958 59.85                             166   -0.5210 2.57 311 
 LZ4  SZ  AML     1958 59.96       631.4 0.06                          2.57 311 
                                                                                
 2009  310 0119 40.3 L  21.338 -99.293 10.0  RAL  1 0.1 0.8LRAL                1
 GAP=360        0.56       8.7    29.5  0.0 -0.2571E+03 -0.9990E+00 -0.1311E+01E
 ACTION:UPD 12-06-08 11:37 OP:RALL STATUS:               ID:20090310011940     I
 2009-03-10-0119-33S.PLUR1_003                                                 6
 STAT SP IPHASW D HRMM SECON CODA AMPLIT PERI AZIMU VELO AIN AR TRES W  DIS CAZ7
 LZ4  SZ E         119 42.52                  287.6 14.6      0        2.57 108 
 LZ4  SN IP        119 42.52                             166    0.3210 2.57 108 
 LZ4  SE IS        119 43.25                             166   -0.3210 2.57 108 
 LZ4  SZ  AML      119 43.36        34.1 0.26                          2.57 108 
                                                                                
 2009  310 0834 47.5 L  21.533 -99.345 10.0  RAL  1 0.0 0.6LRAL                1
 GAP=360        0.30       5.7     4.2  0.0 -0.2365E+02 -0.9990E+00 -0.1311E+01E
 ACTION:UPD 12-06-08 11:37 OP:RALL STATUS:               ID:20090310083447     I
 2009-03-10-0834-35S.PLUR1_003                                                 6
 STAT SP IPHASW D HRMM SECON CODA AMPLIT PERI AZIMU VELO AIN AR TRES W  DIS CAZ7
 LA4  SZ E         834 49.69                  325.5  9.0      0        6.64 145 
 LA4  SN IP        834 49.69                             147    0.0310 6.64 145 
 LA4  SE IS        834 51.19                             147   -0.0310 6.64 145 
 LA4  SZ  AML      834 52.71        17.9 0.40                          6.64 145 
                                                                                
 2009  310 1426 12.8 L  21.474 -99.328 10.0  RAL  1 0.1 0.0LRAL                1
 GAP=360        0.60      17.9    33.3  0.0  0.5965E+03 -0.9990E+00 -0.1311E+01E
 ACTION:UPD 12-06-08 11:37 OP:RALL STATUS:               ID:20090310142612     I
 2009-03-10-1426-00S.PLUR1_003                                                 6
 STAT SP IPHASW D HRMM SECON CODA AMPLIT PERI AZIMU VELO AIN AR TRES W  DIS CAZ7
 LA4  SZ E        1426 15.07                  240.0 14.4      0        2.22  60 
 LA4  SN IP       1426 15.08                             168    0.3510 2.22  60 
 LA4  SE IS       1426 15.75                             168   -0.3510 2.22  60 
 LA4  SZ  AML     1426 16.12         5.4 0.26                          2.22  60 
                                                                                
 2009  310 1634  4.9 L  21.494 -99.330 10.0  RAL  1 0.2 0.9LRAL                1
 GAP=360        0.76      18.6    39.2  0.0 -0.7288E+03 -0.9990E+00 -0.1311E+01E
 ACTION:UPD 12-06-08 11:37 OP:RALL STATUS:               ID:20090310163404     I
 2009-03-10-1633-53S.PLUR1_003                                                 6
 STAT SP IPHASW D HRMM SECON CODA AMPLIT PERI AZIMU VELO AIN AR TRES W  DIS CAZ7
 LA4  SN IP       1634  7.27                             167    0.4710 2.48 117 
 LA4  SZ E        1634  7.28                  297.0 19.6      0        2.48 117 
 LA4  SE IS       1634  7.70                             167   -0.4710 2.48 117 
 LA4  SZ  AML     1634  7.81        42.6 0.18                          2.48 117 
                                                                                
 2009  310 1646 35.3 R                       RAL  0                            1
 ACTION:UPD 12-06-08 11:37 OP:RALL STATUS:               ID:20090310164635     I
 2009-03-10-1646-35S.PLUR1_006                                                 6
 STAT SP IPHASW D HRMM SECON CODA AMPLIT PERI AZIMU VELO AIN AR TRES W  DIS CAZ7
                                                                                
 2009  311 0207 36.2 L  21.797 -99.484 10.0  RAL  1 0.0 0.4LRAL                1
 GAP=360        0.30       3.4     2.1  0.0 -0.5801E+01 -0.9990E+00 -0.1311E+01E
 ACTION:UPD 12-06-08 11:37 OP:RALL STATUS:               ID:20090311020736     I
 2009-03-11-0207-34S.PLUR1_003                                                 6
 STAT SP IPHASW D HRMM SECON CODA AMPLIT PERI AZIMU VELO AIN AR TRES W  DIS CAZ7
 LA4  SZ E         2 7 42.77                  332.5 10.0      0        39.2 152 
 LA4  SN IP        2 7 42.82                             100    0.0210 39.2 152 
 LA4  SE IS        2 7 47.64                             100   -0.0210 39.2 152 
 LA4  SZ  AML      2 7 49.79         3.7 0.56                          39.2 152 
                                                                                
 2009  311 0416 39.6 L  21.320 -99.266 10.0  RAL  1 0.1 0.5LRAL                1
 GAP=360        1.00     999.9   999.9  0.0  0.7995E+08 -0.9990E+00 -0.1311E+01E
 ACTION:UPD 12-06-08 11:37 OP:RALL STATUS:               ID:20090311041639     I
 2009-03-11-0416-32S.PLUR1_003                                                 6
 STAT SP IPHASW D HRMM SECON CODA AMPLIT PERI AZIMU VELO AIN AR TRES W  DIS CAZ7
 LZ4  SZ E         416 41.54                  164.4 36.0      4        1.24 340 
 LZ4  SN IP        416 41.80                             173    0.3310 1.24 340 
 LZ4  SE IS        416 42.49                             173   -0.3310 1.24 340 
 LZ4  SZ  AML      416 43.58        18.0 0.30                          1.24 340 
                                                                                
 2009  311 1344 32.4 L  21.309 -99.250 10.0  RAL  1 0.1 0.6LRAL                1
 GAP=360        0.50      16.0    14.4  0.0 -0.2307E+03 -0.9990E+00 -0.1311E+01E
 ACTION:UPD 12-06-08 11:37 OP:RALL STATUS:               ID:20090311134432     I
 2009-03-11-1344-25S.PLUR1_003                                                 6
 STAT SP IPHASW D HRMM SECON CODA AMPLIT PERI AZIMU VELO AIN AR TRES W  DIS CAZ7
 LZ4  SN IP       1344 34.53                             163    0.2710 3.20 320 
 LZ4  SZ E        1344 34.55                  140.1 11.1      0        3.20 320 
 LZ4  SE IS       1344 35.38                             163   -0.2710 3.20 320 
 LZ4  SZ  AML     1344 36.21        20.8 0.10                          3.20 320 
                                                                                
 2009  311 1550 44.6 L  21.756 -99.410  0.0  RAL  2 0.2 1.4LRAL                1
 GAP=358        3.09      23.8    11.2 24.7 -0.1843E+03  0.4502E+01 -0.2600E+01E
 ACTION:UPD 12-06-08 11:37 OP:RALL STATUS:               ID:20090311155044     I
 2009-03-11-1550-36S.PLUR1_006                                                 6
 STAT SP IPHASW D HRMM SECON CODA AMPLIT PERI AZIMU VELO AIN AR TRES W  DIS CAZ7
 LA4  SZ E        1550 50.04                  349.2  8.8      8        31.9 161 
 LA4  SN IP       1550 50.04                              92   -0.1610 31.9 161 
 LA4  SE IS       1550 54.21                              92   -0.0610 31.9 161 
 LA4  SZ  AML     1550 55.09        44.7 0.36                          31.9 161 
 LZ4  SN IP       1550 53.43                              63    0.2810 49.3 163 
 LZ4  SZ E        1550 53.46                  330.4  7.4    -12        49.3 163 
 LZ4  SE IS       1550 59.33                              63   -0.0510 49.3 163 
 LZ4  SZ  AML     1550 59.92        34.8 0.12                          49.3 163 
                                                                                
 2009  311 1636 56.6 L  21.340 -99.270 10.0  RAL  1 0.3                        1
 GAP=360        3.13     384.5   887.3  0.0 -0.3411E+06  0.4502E+01 -0.2600E+01E
 ACTION:UPD 12-06-08 11:37 OP:RALL STATUS:               ID:20090311163656     I
 2009-03-11-1636-50S.PLUR1_003                                                 6
 STAT SP IPHASW D HRMM SECON CODA AMPLIT PERI AZIMU VELO AIN AR TRES W  DIS CAZ7
 LZ4  SZ E        1636 59.04                  345.3 10.6    -13        1.04 180 
 LZ4  SN IP       1636 59.04                             174    0.5610 1.04 180 
 LZ4  SE IS       1636 59.27                             174   -0.5610 1.04 180 
                                                                                
 2009  311 1747 39.5 L  21.317 -99.264 10.0  RAL  1 0.1 0.6LRAL                1
 GAP=360        0.47     826.5   999.9  0.0  0.2062E+07  0.4502E+01 -0.2600E+01E
 ACTION:UPD 12-06-08 11:37 OP:RALL STATUS:               ID:20090311174739     I
 2009-03-11-1747-33S.PLUR1_003                                                 6
 STAT SP IPHASW D HRMM SECON CODA AMPLIT PERI AZIMU VELO AIN AR TRES W  DIS CAZ7
 LZ4  SZ E        1747 41.58                  159.5 13.4      0        1.66 340 
 LZ4  SN IP       1747 41.60                             171    0.2510 1.66 340 
 LZ4  SE IS       1747 42.46                             171   -0.2510 1.66 340 
 LZ4  SZ  AML     1747 42.57        23.2 0.10                          1.66 340 
                                                                                
