 2009  113 1940 42.1 L  21.312 -99.240 10.0  RAL  1 0.1 0.3LRAL                1
 GAP=360        0.38       8.1    12.4  0.0 -0.1011E+03 -0.2115E+04  0.2166E+04E
 ACTION:UPD 12-06-08 11:37 OP:RALL STATUS:               ID:20090113194042     I
 2009-01-13-1940-35S.PLUR1_003                                                 6
 STAT SP IPHASW D HRMM SECON CODA AMPLIT PERI AZIMU VELO AIN AR TRES W  DIS CAZ7
 LZ4  SN IP       1940 44.15                             160    0.1610 3.68 305 
 LZ4  SZ E        1940 44.15                  125.0 20.8      0        3.68 305 
 LZ4  SZ  AML     1940 45.03        11.9 0.52                          3.68 305 
 LZ4  SE IS       1940 45.23                             160   -0.1610 3.68 305 
                                                                                
 2009  113 2122 39.0 L  21.191 -99.304 10.0  RAL  1 0.1-0.4LRAL                1
 GAP=360        0.43       9.1    32.5  0.0  0.2957E+03 -0.2115E+04  0.2166E+04E
 ACTION:UPD 12-06-08 11:37 OP:RALL STATUS:               ID:20090113212239     I
 2009-01-13-2122-27S.PLUR1_003                                                 6
 STAT SP IPHASW D HRMM SECON CODA AMPLIT PERI AZIMU VELO AIN AR TRES W  DIS CAZ7
 LD5  SN IP       2122 41.10                             170    0.2110 1.76 253 
 LD5  SZ E        2122 41.17                   73.2 14.5      0        1.76 253 
 LD5  SE IS       2122 42.04                             170   -0.2110 1.76 253 
 LD5  SZ  AML     2122 42.88         2.2 0.26                          1.76 253 
                                                                                
 2009  113 2139 34.9 L  21.495 -99.327 10.0  RAL  1 0.2 0.3LRAL                1
 GAP=360        0.75      24.7    38.7  0.0 -0.9569E+03 -0.2115E+04  0.2166E+04E
 ACTION:UPD 12-06-08 11:37 OP:RALL STATUS:               ID:20090113213934     I
 2009-01-13-2139-23S.PLUR1_003                                                 6
 STAT SP IPHASW D HRMM SECON CODA AMPLIT PERI AZIMU VELO AIN AR TRES W  DIS CAZ7
 LA4  SZ E        2139 37.20                  304.4 16.7      0        2.29 124 
 LA4  SN IP       2139 37.25                             168    0.4710 2.29 124 
 LA4  SE IS       2139 37.69                             168   -0.4710 2.29 124 
 LA4  SZ  AML     2139 37.82        10.9 0.14                          2.29 124 
                                                                                
 2009  113 2249 34.6 L  21.318 -99.242 10.0  RAL  1 0.1 0.3LRAL                1
 GAP=360        0.40       7.7    16.0  0.0 -0.1229E+03 -0.2115E+04  0.2166E+04E
 ACTION:UPD 12-06-08 11:37 OP:RALL STATUS:               ID:20090113224934     I
 2009-01-13-2249-27S.PLUR1_003                                                 6
 STAT SP IPHASW D HRMM SECON CODA AMPLIT PERI AZIMU VELO AIN AR TRES W  DIS CAZ7
 LZ4  SN IP       2249 36.68                             163    0.1810 3.20 297 
 LZ4  SZ E        2249 36.71                  117.3 20.4      0        3.20 297 
 LZ4  SE IS       2249 37.71                             163   -0.1810 3.20 297 
 LZ4  SZ  AML     2249 38.25        11.9 0.30                          3.20 297 
                                                                                
 2009  114  435 24.2 L                       RAL  1                            1
 ACTION:UPD 12-06-08 11:37 OP:RALL STATUS:               ID:20090114043524     I
 2009-01-14-0435-24S.PLUR1_003                                                 6
 STAT SP IPHASW D HRMM SECON CODA AMPLIT PERI AZIMU VELO AIN AR TRES W  DIS CAZ7
 LA4  SZ E         435 34.65                  326.6  8.1                        
 LA4  SZ  AML      435 40.30         7.1 0.44                                   
                                                                                
 2009  114 1432 11.5 L  21.339 -99.292 10.0  RAL  1 0.1 0.8LRAL                1
 GAP=360        0.39       7.5    20.6  0.0 -0.1541E+03 -0.2115E+04  0.2166E+04E
 ACTION:UPD 12-06-08 11:37 OP:RALL STATUS:               ID:20090114143211     I
 2009-01-14-1432-04S.PLUR1_003                                                 6
 STAT SP IPHASW D HRMM SECON CODA AMPLIT PERI AZIMU VELO AIN AR TRES W  DIS CAZ7
 LZ4  SZ E        1432 13.51                  291.3  7.4      0        2.53 111 
 LZ4  SN IP       1432 13.56                             166    0.1810 2.53 111 
 LZ4  SE IS       1432 14.58                             166   -0.1810 2.53 111 
 LZ4  SZ  AML     1432 15.37        36.4 0.10                          2.53 111 
                                                                                
 2009  114 1704 48.3 R  19.027 -98.753 30.6  RAL  4 0.2 3.0LRAL                1
 GAP=358        1.05     349.7    78.6999.9 -0.2580E+05 -0.7075E+07  0.3334E+08E
 ACTION:UPD 12-06-08 11:37 OP:RALL STATUS:               ID:20090114170448     I
 2009-01-14-1705-08S.PLUR1_012                                                 6
 STAT SP IPHASW D HRMM SECON CODA AMPLIT PERI AZIMU VELO AIN AR TRES W  DIS CAZ7
 LO8  SE IS       17 5 44.95                              90    0.5910  241 349 
 LD5  SE IS       17 5 44.83                              90   -0.5910  246 346 
 LZ4  SE IS       17 5 40.77                              90   -7.68 0  261 348 
 LA4  SZ E        17 5 25.09                  167.2 10.7      0         278 348 
 LA4  SN IP       17 5 25.22                              90    0.0110  278 348 
 LA4  SZ  AML     17 5 51.23       157.7 0.46                           278 348 
 LA4  SE IS       17 5 51.35                              90   -0.79 0  278 348 
                                                                                
 2009  114 1949 58.8 L  21.498 -99.310 10.0  RAL  1 0.2 0.6LRAL                1
 GAP=360        2.42     999.9   999.9  0.0  0.8930E+08 -0.7075E+07  0.3334E+08E
 ACTION:UPD 12-06-08 11:37 OP:RALL STATUS:               ID:20090114194958     I
 2009-01-14-1949-47S.PLUR1_003                                                 6
 STAT SP IPHASW D HRMM SECON CODA AMPLIT PERI AZIMU VELO AIN AR TRES W  DIS CAZ7
 LA4  SN IP       1950  0.86                             171    0.1710 1.57 174 
 LA4  SZ E        1950  0.87                    5.8 15.2     11        1.57 174 
 LA4  SE IS       1950  1.87                             171   -0.1710 1.57 174 
 LA4  SZ  AML     1950  1.99        23.3 0.24                          1.57 174 
                                                                                
 2009  114 2326 28.8 L  21.205 -99.399 10.0  RAL  3 0.8 0.9LRAL                1
 GAP=314       13.70      38.6    45.0366.2  0.1495E+04  0.6013E+04  0.4177E+04E
 ACTION:UPD 12-06-08 11:37 OP:RALL STATUS:               ID:20090114232628     I
 2009-01-14-2326-24S.PLUR1_009                                                 6
 STAT SP IPHASW D HRMM SECON CODA AMPLIT PERI AZIMU VELO AIN AR TRES W  DIS CAZ7
 LG3  SZ E        2326 33.18                  199.2 22.9    -43        17.1  63 
 LG3  SN IP       2326 33.51                             103    1.3110 17.1  63 
 LG3  SE IS       2326 34.67                             103    0.0110 17.1  63 
 LG3  SZ  AML     2326 35.28        24.9 0.32                          17.1  63 
 LZ4  SN IP       2326 32.79                             100    0.2910 19.4  44 
 LZ4  SZ E        2326 32.80                  279.1 15.2     55        19.4  44 
 LZ4  SE IS       2326 33.92                             100   -1.2610 19.4  44 
 LZ4  SZ  AML     2326 34.22        90.1 0.16                          19.4  44 
 LA4  SN IP       2326 34.77                              94    0.3710 32.2  17 
 LA4  SZ E        2326 34.85                  161.9  9.2    -34        32.2  17 
 LA4  SE IS       2326 37.76                              94   -0.7210 32.2  17 
 LA4  SZ  AML     2326 38.81         3.8 0.10                          32.2  17 
                                                                                
 2009  115 0019 47.1 L  21.272 -99.266 10.0  RAL  1 0.1 0.6LRAL                1
 GAP=360        0.53     999.9   774.7  0.0 -0.1815E+07  0.6013E+04  0.4177E+04E
 ACTION:UPD 12-06-08 11:37 OP:RALL STATUS:               ID:20090115001947     I
 2009-01-15-0019-40S.PLUR1_003                                                 6
 STAT SP IPHASW D HRMM SECON CODA AMPLIT PERI AZIMU VELO AIN AR TRES W  DIS CAZ7
 LG3  SN IP        019 49.23                             172    0.3010 1.49  74 
 LG3  SZ E         019 49.29                  254.0 48.7      0        1.49  74 
 LG3  SZ  AML      019 49.89        21.9 0.56                          1.49  74 
 LG3  SE IS        019 50.00                             172   -0.3010 1.49  74 
                                                                                
 2009  115 0254 15.9 L  21.329 -99.266 10.0  RAL  1 0.6 0.3LRAL                1
 GAP=360        8.08     999.9   999.9  0.0  0.1271E+08  0.6013E+04  0.4177E+04E
 ACTION:UPD 12-06-08 11:37 OP:RALL STATUS:               ID:20090115025415     I
 2009-01-15-0254-09S.PLUR1_003                                                 6
 STAT SP IPHASW D HRMM SECON CODA AMPLIT PERI AZIMU VELO AIN AR TRES W  DIS CAZ7
 LZ4  SZ E         254 17.89                   81.8 35.4    -37        0.37 300 
 LZ4  SN IP        254 18.18                             178    0.4510 0.37 300 
 LZ4  SE IS        254 18.62                             178   -0.4510 0.37 300 
 LZ4  SZ  AML      254 19.44        10.1 0.62                          0.37 300 
                                                                                
 2009  115 0444 44.0 L  21.482 -99.308 29.2  RAL  2 0.1 0.6LRAL                1
 GAP=216        1.78       1.3     2.9 17.3  0.8103E+00 -0.9586E-01  0.8299E-01E
 ACTION:UPD 12-06-08 11:37 OP:RALL STATUS:               ID:20090115044444     I
 2009-01-15-0444-37S.PLUR1_006                                                 6
 STAT SP IPHASW D HRMM SECON CODA AMPLIT PERI AZIMU VELO AIN AR TRES W  DIS CAZ7
 LA4  SZ E         444 48.54                  128.8 99.9     -1        0.20 311 
 LA4  SN IP        444 48.71                             180    0.0110 0.20 311 
 LA4  SE IS        444 52.00                             180   -0.1610 0.20 311 
 LA4  SZ  AML      444 52.49         3.2 0.14                          0.20 311 
 LZ4  SZ E         444 49.31                  338.5 10.0     -7        17.2 167 
 LZ4  SN IP        444 49.33                             148   -0.0710 17.2 167 
 LZ4  SE IS        444 53.57                             148    0.2110 17.2 167 
 LZ4  SZ  AML      444 54.63        15.2 0.74                          17.2 167 
                                                                                
 2009  115 0530 58.1 L  21.274 -99.485  5.7  RAL  2 0.7 0.3LRAL                1
 GAP=345       10.01      21.7   115.4999.9  0.1838E+04  0.2191E+06  0.3099E+05E
 ACTION:UPD 12-06-08 11:37 OP:RALL STATUS:               ID:20090115053058     I
 2009-01-15-0530-54S.PLUR1_006                                                 6
 STAT SP IPHASW D HRMM SECON CODA AMPLIT PERI AZIMU VELO AIN AR TRES W  DIS CAZ7
 LZ4  SZ E         531  2.79                  299.3 11.1     45        23.2  74 
 LZ4  SN IP        531  2.79                              93    0.6110 23.2  74 
 LZ4  SE IS        531  3.67                              93   -1.5010 23.2  74 
 LZ4  SZ  AML      531  3.92        12.6 0.40                          23.2  74 
 LG3  SZ E         531  3.47                  253.1 29.2    -15        24.1  89 
 LG3  SN IP        531  3.49                              93    1.1610 24.1  89 
 LG3  SE IS        531  5.16                              93   -0.2710 24.1  89 
 LG3  SZ  AML      531  5.34         2.3 0.30                          24.1  89 
                                                                                
 2009  115 0615  0.3 L  21.507 -99.334 10.0  RAL  1 0.1 0.2LRAL                1
 GAP=360        0.38       9.9    10.6  0.0 -0.1047E+03  0.2191E+06  0.3099E+05E
 ACTION:UPD 12-06-08 11:37 OP:RALL STATUS:               ID:20090115061500     I
 2009-01-15-0614-48S.PLUR1_003                                                 6
 STAT SP IPHASW D HRMM SECON CODA AMPLIT PERI AZIMU VELO AIN AR TRES W  DIS CAZ7
 LA4  SZ E         615  2.42                  314.9  9.6      0        3.72 135 
 LA4  SN IP        615  2.45                             160    0.1610 3.72 135 
 LA4  SE IS        615  3.55                             160   -0.1610 3.72 135 
 LA4  SZ  AML      615  3.69         9.0 0.22                          3.72 135 
                                                                                
 2009  115 0641 30.2 L  21.504 -99.323 10.0  RAL  1 0.1 0.5LRAL                1
 GAP=360        0.51      21.5    14.9  0.0 -0.3210E+03  0.2191E+06  0.3099E+05E
 ACTION:UPD 12-06-08 11:37 OP:RALL STATUS:               ID:20090115064130     I
 2009-01-15-0641-18S.PLUR1_003                                                 6
 STAT SP IPHASW D HRMM SECON CODA AMPLIT PERI AZIMU VELO AIN AR TRES W  DIS CAZ7
 LA4  SZ E         641 32.40                  327.2 13.6      0        2.64 147 
 LA4  SN IP        641 32.42                             166    0.2810 2.64 147 
 LA4  SE IS        641 33.25                             166   -0.2810 2.64 147 
 LA4  SZ  AML      641 33.42        16.5 0.26                          2.64 147 
                                                                                
 2009  115 0743 18.0 L  21.269 -99.254 10.0  RAL  1 0.2 0.1LRAL                1
 GAP=360        0.73      89.0   244.5  0.0  0.2172E+05  0.2191E+06  0.3099E+05E
 ACTION:UPD 12-06-08 11:37 OP:RALL STATUS:               ID:20090115074318     I
 2009-01-15-0743-10S.PLUR1_003                                                 6
 STAT SP IPHASW D HRMM SECON CODA AMPLIT PERI AZIMU VELO AIN AR TRES W  DIS CAZ7
 LG3  SZ E         743 20.29                  192.4 38.2      1        0.73  11 
 LG3  SN IP        743 20.31                             176    0.4110 0.73  11 
 LG3  SE IS        743 20.84                             176   -0.4110 0.73  11 
 LG3  SZ  AML      743 20.97         6.8 0.10                          0.73  11 
                                                                                
 2009  115 0845  7.5 L  21.213 -99.489  8.9  RAL  2 0.9 0.2LRAL                1
 GAP=346       13.29      69.1   170.8832.0  0.1113E+05  0.1158E+06  0.4488E+05E
 ACTION:UPD 12-06-08 11:37 OP:RALL STATUS:               ID:20090115084507     I
 2009-01-15-0845-04S.PLUR1_006                                                 6
 STAT SP IPHASW D HRMM SECON CODA AMPLIT PERI AZIMU VELO AIN AR TRES W  DIS CAZ7
 LG3  SZ E         845 13.41                  210.8 11.9    -42        25.5  74 
 LG3  SN IP        845 13.43                             104    1.3610 25.5  74 
 LG3  SE IS        845 14.77                             104   -0.6210 25.5  74 
 LG3  SZ  AML      845 14.91         3.2 0.48                          25.5  74 
 LZ4  SZ E         845 12.95                  287.3 99.9     47        26.3  60 
 LZ4  SN IP        845 13.01                             104    0.8310 26.3  60 
 LZ4  SE IS        845 13.99                             104   -1.5710 26.3  60 
                                                                                
 2009  115 0857  1.4 L  21.645 -99.515 10.0  RAL  1 0.0 1.0LRAL                1
 GAP=360        0.30       3.1     2.6  0.0 -0.6574E+01  0.1158E+06  0.4488E+05E
 ACTION:UPD 12-06-08 11:37 OP:RALL STATUS:               ID:20090115085701     I
 2009-01-15-0857-04S.PLUR1_003                                                 6
 STAT SP IPHASW D HRMM SECON CODA AMPLIT PERI AZIMU VELO AIN AR TRES W  DIS CAZ7
 LZ4  SZ E         857  8.66                  323.9 18.3      0        43.1 144 
 LZ4  SN IP        857  8.67                              99    0.0210 43.1 144 
 LZ4  SE IS        857 13.92                              99   -0.0210 43.1 144 
 LZ4  SZ  AML      857 14.71        13.8 0.46                          43.1 144 
                                                                                
 2009  115 1615 28.2 L  21.322 -99.296 10.0  RAL  1 0.1 0.2LRAL                1
 GAP=360        0.41       6.5    18.9  0.0  0.1222E+03  0.1158E+06  0.4488E+05E
 ACTION:UPD 12-06-08 11:37 OP:RALL STATUS:               ID:20090115161528     I
 2009-01-15-1615-21S.PLUR1_003                                                 6
 STAT SP IPHASW D HRMM SECON CODA AMPLIT PERI AZIMU VELO AIN AR TRES W  DIS CAZ7
 LZ4  SZ E        1615 30.22                  249.9 27.2      0        2.91  70 
 LZ4  SN IP       1615 30.24                             164    0.1910 2.91  70 
 LZ4  SE IS       1615 31.24                             164   -0.1910 2.91  70 
 LZ4  SZ  AML     1615 31.56         8.6 0.16                          2.91  70 
                                                                                
 2009  115 1935 39.9 L  21.348 -99.250 10.0  RAL  1 0.1 0.5LRAL                1
 GAP=360        0.63      20.8    23.1  0.0  0.4809E+03  0.1158E+06  0.4488E+05E
 ACTION:UPD 12-06-08 11:37 OP:RALL STATUS:               ID:20090115193539     I
 2009-01-15-1935-32S.PLUR1_003                                                 6
 STAT SP IPHASW D HRMM SECON CODA AMPLIT PERI AZIMU VELO AIN AR TRES W  DIS CAZ7
 LZ4  SZ E        1935 42.16                   46.0 39.6      0        2.79 226 
 LZ4  SN IP       1935 42.17                             165    0.3710 2.79 226 
 LZ4  SE IS       1935 42.80                             165   -0.3710 2.79 226 
 LZ4  SZ  AML     1935 42.92        16.5 0.16                          2.79 226 
                                                                                
 2009  115 2305 35.8 L  21.462 -99.384 10.0  RAL  1 0.0 0.7LRAL                1
 GAP=360        0.30       3.2     2.8  0.0 -0.8653E+01  0.1158E+06  0.4488E+05E
 ACTION:UPD 12-06-08 11:37 OP:RALL STATUS:               ID:20090115230535     I
 2009-01-15-2305-32S.PLUR1_003                                                 6
 STAT SP IPHASW D HRMM SECON CODA AMPLIT PERI AZIMU VELO AIN AR TRES W  DIS CAZ7
 LZ4  SZ E        23 5 39.35                  320.9  8.9      0        18.7 141 
 LZ4  SN IP       23 5 39.39                             115    0.0110 18.7 141 
 LZ4  SE IS       23 5 42.00                             115   -0.0110 18.7 141 
 LZ4  SZ  AML     23 5 43.17        14.5 0.14                          18.7 141 
                                                                                
 2009  115 2322 52.2 L  21.335 -99.295 10.0  RAL  1 0.1 1.3LRAL                1
 GAP=360        0.66       5.1    34.2  0.0 -0.1733E+03  0.1158E+06  0.4488E+05E
 ACTION:UPD 12-06-08 11:37 OP:RALL STATUS:               ID:20090115232252     I
 2009-01-15-2322-44S.PLUR1_003                                                 6
 STAT SP IPHASW D HRMM SECON CODA AMPLIT PERI AZIMU VELO AIN AR TRES W  DIS CAZ7
 LZ4  SZ E        2322 54.44                  277.4 14.3     -1        2.70  99 
 LZ4  SN IP       2322 54.45                             165    0.3210 2.70  99 
 LZ4  SZ  AML     2322 55.06       109.7 0.42                          2.70  99 
 LZ4  SE IS       2322 55.19                             165   -0.3210 2.70  99 
                                                                                
