 2009  311 2304 21.7 L  21.326 -99.290 10.0  RAL  1 0.1 0.9LRAL                1
 GAP=360        0.36       5.1    22.7  0.0  0.1160E+03  0.4502E+01 -0.2600E+01E
 ACTION:UPD 12-06-08 11:37 OP:RALL STATUS:               ID:20090311230421     I
 2009-03-11-2304-15S.PLUR1_003                                                 6
 STAT SP IPHASW D HRMM SECON CODA AMPLIT PERI AZIMU VELO AIN AR TRES W  DIS CAZ7
 LZ4  SZ E        23 4 23.71                  256.4 28.1      0        2.19  76 
 LZ4  SN IP       23 4 23.71                             168    0.1410 2.19  76 
 LZ4  SE IS       23 4 24.79                             168   -0.1410 2.19  76 
 LZ4  SZ  AML     23 4 24.97        39.7 0.18                          2.19  76 
                                                                                
 2009  312 0334  8.7 L  21.499 -99.324 10.0  RAL  1 0.2 0.5LRAL                1
 GAP=360        0.68      28.1    28.4  0.0 -0.7974E+03  0.4502E+01 -0.2600E+01E
 ACTION:UPD 12-06-08 11:37 OP:RALL STATUS:               ID:20090312033408     I
 2009-03-12-0333-57S.PLUR1_003                                                 6
 STAT SP IPHASW D HRMM SECON CODA AMPLIT PERI AZIMU VELO AIN AR TRES W  DIS CAZ7
 LA4  SZ E         334 11.01                  316.8  9.6      0        2.34 137 
 LA4  SN IP        334 11.04                             167    0.4110 2.34 137 
 LA4  SE IS        334 11.59                             167   -0.4110 2.34 137 
 LA4  SZ  AML      334 11.73        18.3 0.38                          2.34 137 
                                                                                
 2009  312 0404 22.8 L  21.332 -99.270 10.0  RAL  1 0.0 1.1LRAL                1
 GAP=360        0.36      36.1   999.9  0.0 -0.1356E+06  0.4502E+01 -0.2600E+01E
 ACTION:UPD 12-06-08 11:37 OP:RALL STATUS:               ID:20090312040422     I
 2009-03-12-0404-15S.PLUR1_003                                                 6
 STAT SP IPHASW D HRMM SECON CODA AMPLIT PERI AZIMU VELO AIN AR TRES W  DIS CAZ7
 LZ4  SZ E         4 4 24.73                  353.8 37.9      0        0.13 174 
 LZ4  SN IP        4 4 24.77                             179    0.1110 0.13 174 
 LZ4  SE IS        4 4 25.89                             179   -0.1110 0.13 174 
 LZ4  SZ  AML      4 4 26.07        74.1 0.36                          0.13 174 
                                                                                
 2009  312 1527 27.6 L  21.405 -99.232 10.0  RAL  1 0.0 0.9LRAL                1
 GAP=360        0.30       5.0     2.5  0.0  0.1232E+02  0.4502E+01 -0.2600E+01E
 ACTION:UPD 12-06-08 11:37 OP:RALL STATUS:               ID:20090312152727     I
 2009-03-12-1527-20S.PLUR1_003                                                 6
 STAT SP IPHASW D HRMM SECON CODA AMPLIT PERI AZIMU VELO AIN AR TRES W  DIS CAZ7
 LZ4  SZ E        1527 30.00                   25.1 21.8      0        9.12 205 
 LZ4  SN IP       1527 30.02                             137    0.0110 9.12 205 
 LZ4  SE IS       1527 31.73                             137   -0.0110 9.12 205 
 LZ4  SZ  AML     1527 32.08        37.5 0.24                          9.12 205 
                                                                                
 2009  312 2024 38.3 L  21.350 -99.289 10.0  RAL  1 0.2 0.5LRAL                1
 GAP=360        0.86      27.9    28.6  0.0 -0.7984E+03  0.4502E+01 -0.2600E+01E
 ACTION:UPD 12-06-08 11:37 OP:RALL STATUS:               ID:20090312202438     I
 2009-03-12-2024-31S.PLUR1_003                                                 6
 STAT SP IPHASW D HRMM SECON CODA AMPLIT PERI AZIMU VELO AIN AR TRES W  DIS CAZ7
 LZ4  SZ E        2024 40.73                  316.3 40.9      0        2.99 136 
 LZ4  SN IP       2024 40.73                             164    0.5510 2.99 136 
 LZ4  SE IS       2024 41.02                             164   -0.5510 2.99 136 
 LZ4  SZ  AML     2024 41.11        17.1 0.16                          2.99 136 
                                                                                
 2009  313 0121 27.7 L  21.335 -99.261 10.0  RAL  1 0.3 0.7LRAL                1
 GAP=360        3.70     999.9   999.9  0.0 -0.1267E+09  0.4502E+01 -0.2600E+01E
 ACTION:UPD 12-06-08 11:37 OP:RALL STATUS:               ID:20090313012127     I
 2009-03-13-0121-21S.PLUR1_003                                                 6
 STAT SP IPHASW D HRMM SECON CODA AMPLIT PERI AZIMU VELO AIN AR TRES W  DIS CAZ7
 LZ4  SN IP        121 30.06                             174    0.5210 1.02 245 
 LZ4  SZ E         121 30.19                   81.8  9.1     17        1.02 245 
 LZ4  SE IS        121 30.36                             174   -0.5210 1.02 245 
 LZ4  SZ  AML      121 30.48        28.6 0.16                          1.02 245 
                                                                                
 2009  313 0210 48.9 L  21.349 -99.276 10.0  RAL  1 0.2 0.9LRAL                1
 GAP=360        1.55      89.9    31.5  0.0 -0.2837E+04  0.4502E+01 -0.2600E+01E
 ACTION:UPD 12-06-08 11:37 OP:RALL STATUS:               ID:20090313021048     I
 2009-03-13-0210-42S.PLUR1_003                                                 6
 STAT SP IPHASW D HRMM SECON CODA AMPLIT PERI AZIMU VELO AIN AR TRES W  DIS CAZ7
 LZ4  SN IP        210 51.35                             168    0.5810 2.15 162 
 LZ4  SZ E         210 51.39                  335.9  5.3     -5        2.15 162 
 LZ4  SZ  AML      210 51.53        44.7 0.10                          2.15 162 
 LZ4  SE IS        210 51.55                             168   -0.5810 2.15 162 
                                                                                
 2009  313 0613 14.5 L  21.344 -99.256 10.0  RAL  1 0.2 0.2LRAL                1
 GAP=360        1.02     450.6   399.6  0.0 -0.1800E+06  0.4502E+01 -0.2600E+01E
 ACTION:UPD 12-06-08 11:37 OP:RALL STATUS:               ID:20090313061314     I
 2009-03-13-0613-08S.PLUR1_003                                                 6
 STAT SP IPHASW D HRMM SECON CODA AMPLIT PERI AZIMU VELO AIN AR TRES W  DIS CAZ7
 LZ4  SZ E         613 16.97                   42.3 17.0     -1        2.07 224 
 LZ4  SN IP        613 16.99                             169    0.6010 2.07 224 
 LZ4  SZ  AML      613 17.09         8.1 0.26                          2.07 224 
 LZ4  SE IS        613 17.14                             169   -0.6010 2.07 224 
                                                                                
 2009  313 0854  1.9 L  21.317 -99.249 10.0  RAL  1 0.1 0.1LRAL                1
 GAP=360        0.64      19.5    27.6  0.0 -0.5384E+03  0.4502E+01 -0.2600E+01E
 ACTION:UPD 12-06-08 11:37 OP:RALL STATUS:               ID:20090313085401     I
 2009-03-13-0853-55S.PLUR1_003                                                 6
 STAT SP IPHASW D HRMM SECON CODA AMPLIT PERI AZIMU VELO AIN AR TRES W  DIS CAZ7
 LZ4  SN IP        854  4.21                             166    0.3810 2.62 307 
 LZ4  SZ E         854  4.23                  127.1 26.2      0        2.62 307 
 LZ4  SE IS        854  4.82                             166   -0.3810 2.62 307 
 LZ4  SZ  AML      854  4.88         7.7 0.10                          2.62 307 
                                                                                
 2009  313 0914 29.1 L  21.305 -99.274 10.0  RAL  1 0.0 0.4LRAL                1
 GAP=360        0.30      13.7     2.4  0.0  0.3238E+02  0.4502E+01 -0.2600E+01E
 ACTION:UPD 12-06-08 11:37 OP:RALL STATUS:               ID:20090313091429     I
 2009-03-13-0914-23S.PLUR1_003                                                 6
 STAT SP IPHASW D HRMM SECON CODA AMPLIT PERI AZIMU VELO AIN AR TRES W  DIS CAZ7
 LZ4  SN IP        914 31.02                             164    0.0310 2.89   9 
 LZ4  SZ E         914 31.21                  189.2 29.3      0        2.89   9 
 LZ4  SE IS        914 32.34                             164   -0.0310 2.89   9 
 LZ4  SZ  AML      914 32.80        12.8 0.66                          2.89   9 
                                                                                
 2009  313 1307 21.5 L  21.323 -99.457 10.0  RAL  1 0.0 0.6LRAL                1
 GAP=360        0.30       0.5     4.4  0.0  0.8088E+00  0.4502E+01 -0.2600E+01E
 ACTION:UPD 12-06-08 11:37 OP:RALL STATUS:               ID:20090313130721     I
 2009-03-13-1307-18S.PLUR1_003                                                 6
 STAT SP IPHASW D HRMM SECON CODA AMPLIT PERI AZIMU VELO AIN AR TRES W  DIS CAZ7
 LZ4  SZ E        13 7 25.04                  267.4 26.3      0        19.5  87 
 LZ4  SN IP       13 7 25.22                             114    0.0210 19.5  87 
 LZ4  SE IS       13 7 27.89                             114   -0.0210 19.5  87 
 LZ4  SZ  AML     13 7 30.27        11.1 0.80                          19.5  87 
                                                                                
 2009  314 0215  4.4 L  21.318 -99.239 10.0  RAL  1 0.0 0.5LRAL                1
 GAP=360        0.34       5.5    13.4  0.0 -0.7333E+02  0.4502E+01 -0.2600E+01E
 ACTION:UPD 12-06-08 11:37 OP:RALL STATUS:               ID:20090314021504     I
 2009-03-14-0214-57S.PLUR1_003                                                 6
 STAT SP IPHASW D HRMM SECON CODA AMPLIT PERI AZIMU VELO AIN AR TRES W  DIS CAZ7
 LZ4  SN IP        215  6.39                             162    0.1210 3.42 294 
 LZ4  SZ E         215  6.40                  113.7 22.5      0        3.42 294 
 LZ4  SE IS        215  7.55                             162   -0.1210 3.42 294 
 LZ4  SZ  AML      215  7.79        18.8 0.10                          3.42 294 
                                                                                
 2009  314 0451 25.5 L  21.318 -99.272 10.0  RAL  1 0.3 0.1LRAL                1
 GAP=360        3.59     999.9   999.9  0.0 -0.1304E+09  0.4502E+01 -0.2600E+01E
 ACTION:UPD 12-06-08 11:37 OP:RALL STATUS:               ID:20090314045125     I
 2009-03-14-0451-19S.PLUR1_003                                                 6
 STAT SP IPHASW D HRMM SECON CODA AMPLIT PERI AZIMU VELO AIN AR TRES W  DIS CAZ7
 LZ4  SN IP        451 27.49                             172    0.1010 1.45  10 
 LZ4  SZ E         451 27.55                  173.3 38.0    -16        1.45  10 
 LZ4  SZ  AML      451 28.60         6.5 0.40                          1.45  10 
 LZ4  SE IS        451 28.63                             172   -0.1010 1.45  10 
                                                                                
 2009  314 0535 40.3 L  21.335 -99.283 10.0  RAL  1 0.1 1.2LRAL                1
 GAP=360        0.47     999.9   473.3  0.0  0.5406E+06  0.4502E+01 -0.2600E+01E
 ACTION:UPD 12-06-08 11:37 OP:RALL STATUS:               ID:20090314053540     I
 2009-03-14-0535-33S.PLUR1_003                                                 6
 STAT SP IPHASW D HRMM SECON CODA AMPLIT PERI AZIMU VELO AIN AR TRES W  DIS CAZ7
 LZ4  SZ E         535 42.38                  289.4  8.9      0        1.45 109 
 LZ4  SN IP        535 42.41                             172    0.2410 1.45 109 
 LZ4  SE IS        535 43.27                             172   -0.2410 1.45 109 
 LZ4  SZ  AML      535 43.38        79.4 0.16                          1.45 109 
                                                                                
 2009  314 1522 54.3 L  21.310 -99.297 10.0  RAL  1 0.1 0.7LRAL                1
 GAP=360        0.39       9.2    12.0  0.0  0.1109E+03  0.4502E+01 -0.2600E+01E
 ACTION:UPD 12-06-08 11:37 OP:RALL STATUS:               ID:20090314152254     I
 2009-03-14-1522-48S.PLUR1_003                                                 6
 STAT SP IPHASW D HRMM SECON CODA AMPLIT PERI AZIMU VELO AIN AR TRES W  DIS CAZ7
 LZ4  SZ E        1522 56.38                  230.6 22.1      0        3.68  51 
 LZ4  SN IP       1522 56.43                             160    0.1710 3.68  51 
 LZ4  SE IS       1522 57.49                             160   -0.1710 3.68  51 
 LZ4  SZ  AML     1522 57.69        25.7 0.16                          3.68  51 
                                                                                
 2009  315 0241  4.5 L  21.333 -99.284 10.0  RAL  1 0.1 0.7LRAL                1
 GAP=360        0.63     835.6   197.1  0.0  0.1647E+06  0.4502E+01 -0.2600E+01E
 ACTION:UPD 12-06-08 11:37 OP:RALL STATUS:               ID:20090315024104     I
 2009-03-15-0240-57S.PLUR1_003                                                 6
 STAT SP IPHASW D HRMM SECON CODA AMPLIT PERI AZIMU VELO AIN AR TRES W  DIS CAZ7
 LZ4  SZ E         241  6.46                  281.2 23.9      2        1.55  99 
 LZ4  SN IP        241  6.48                             171    0.1810 1.55  99 
 LZ4  SE IS        241  7.47                             171   -0.1810 1.55  99 
 LZ4  SZ  AML      241  7.91        28.9 0.18                          1.55  99 
                                                                                
 2009  315 0540 55.4 L  21.264 -99.443 10.0  RAL  1 0.0 1.2LRAL                1
 GAP=360        0.30       1.6     4.0  0.0  0.6075E+01  0.4502E+01 -0.2600E+01E
 ACTION:UPD 12-06-08 11:37 OP:RALL STATUS:               ID:20090315054055     I
 2009-03-15-0540-50S.PLUR1_003                                                 6
 STAT SP IPHASW D HRMM SECON CODA AMPLIT PERI AZIMU VELO AIN AR TRES W  DIS CAZ7
 LZ4  SZ E         540 59.04                  247.8 19.6      0        19.4  68 
 LZ4  SN IP        540 59.09                             114    0.0010 19.4  68 
 LZ4  SE IS        541  1.78                             114    0.0010 19.4  68 
 LZ4  SZ  AML      541  2.45        39.4 0.32                          19.4  68 
                                                                                
 2009  315 0757  8.3 L  21.163 -99.220  0.0  RAL  2 0.1 1.4LRAL                1
 GAP=359        2.27      23.5     7.8389.9 -0.1597E+03 -0.1849E+04  0.6247E+04E
 ACTION:UPD 12-06-08 11:37 OP:RALL STATUS:               ID:20090315075708     I
 2009-03-15-0757-01S.PLUR1_006                                                 6
 STAT SP IPHASW D HRMM SECON CODA AMPLIT PERI AZIMU VELO AIN AR TRES W  DIS CAZ7
 LZ4  SN IP        757 11.88                              93    0.1910 19.3 344 
 LZ4  SZ E         757 11.89                  169.6  9.0      5        19.3 344 
 LZ4  SE IS        757 14.02                              93   -0.1410 19.3 344 
 LZ4  SZ  AML      757 15.43       146.0 0.26                          19.3 344 
 LA4  SZ E         757 14.59                  155.7  7.8     -9        36.7 345 
 LA4  SN IP        757 14.62                              92   -0.1110 36.7 345 
 LA4  SE IS        757 19.49                              92    0.0710 36.7 345 
 LA4  SZ  AML      757 19.99        18.2 0.38                          36.7 345 
                                                                                
 2009  315 0926 41.7 L  21.339 -99.234 10.0  RAL  1 0.0 0.1LRAL                1
 GAP=360        0.30       3.7     2.0  0.0 -0.7127E+01 -0.1849E+04  0.6247E+04E
 ACTION:UPD 12-06-08 11:37 OP:RALL STATUS:               ID:20090315092641     I
 2009-03-15-0926-34S.PLUR1_003                                                 6
 STAT SP IPHASW D HRMM SECON CODA AMPLIT PERI AZIMU VELO AIN AR TRES W  DIS CAZ7
 LA4  SN IP        926 45.18                             117    0.0010 17.9 334 
 LA4  SZ E         926 45.49                  154.1 10.8      0        17.9 334 
 LA4  SE IS        926 47.71                             117    0.0010 17.9 334 
 LA4  SZ  AML      926 47.87         3.9 0.48                          17.9 334 
                                                                                
 2009  315 1013 46.6 L  21.315 -99.244 10.0  RAL  1 0.1 0.8LRAL                1
 GAP=360        0.45      10.4    17.0  0.0 -0.1761E+03 -0.1849E+04  0.6247E+04E
 ACTION:UPD 12-06-08 11:37 OP:RALL STATUS:               ID:20090315101346     I
 2009-03-15-1013-40S.PLUR1_003                                                 6
 STAT SP IPHASW D HRMM SECON CODA AMPLIT PERI AZIMU VELO AIN AR TRES W  DIS CAZ7
 LZ4  SN IP       1013 48.76                             163    0.2310 3.21 303 
 LZ4  SZ E        1013 48.77                  123.1 12.2      0        3.21 303 
 LZ4  SE IS       1013 49.69                             163   -0.2310 3.21 303 
 LZ4  SZ  AML     1013 50.99        31.6 0.26                          3.21 303 
                                                                                
 2009  315 1126 28.2 L  21.327 -99.278 10.0  RAL  1 0.1 0.9LRAL                1
 GAP=360        1.10     999.9   999.9  0.0 -0.3331E+07 -0.1849E+04  0.6247E+04E
 ACTION:UPD 12-06-08 11:37 OP:RALL STATUS:               ID:20090315112628     I
 2009-03-15-1126-20S.PLUR1_003                                                 6
 STAT SP IPHASW D HRMM SECON CODA AMPLIT PERI AZIMU VELO AIN AR TRES W  DIS CAZ7
 LZ4  SZ E        1126 30.28                  250.5 11.3      5        0.96  66 
 LZ4  SN IP       1126 30.30                             175    0.3010 0.96  66 
 LZ4  SE IS       1126 31.04                             175   -0.3010 0.96  66 
 LZ4  SZ  AML     1126 31.13        42.6 0.18                          0.96  66 
                                                                                
 2009  316 1530 57.2 L  21.344 -99.292 10.0  RAL  1 0.1 0.4LRAL                1
 GAP=360        0.57      14.5    25.5  0.0 -0.3702E+03 -0.1849E+04  0.6247E+04E
 ACTION:UPD 12-06-08 11:37 OP:RALL STATUS:               ID:20090316153057     I
 2009-03-16-1530-50S.PLUR1_003                                                 6
 STAT SP IPHASW D HRMM SECON CODA AMPLIT PERI AZIMU VELO AIN AR TRES W  DIS CAZ7
 LZ4  SN IP       1530 59.39                             165    0.3310 2.71 121 
 LZ4  SZ E        1530 59.42                  301.5 12.7      0        2.71 121 
 LZ4  SE IS       1531  0.11                             165   -0.3310 2.71 121 
 LZ4  SZ  AML     1531  0.30        15.2 0.16                          2.71 121 
                                                                                
 2009  316 1841 57.7 L  21.389 -99.307 10.0  RAL  1 0.0 0.4LRAL                1
 GAP=360        0.30       5.3     3.4  0.0 -0.1818E+02 -0.1849E+04  0.6247E+04E
 ACTION:UPD 12-06-08 11:37 OP:RALL STATUS:               ID:20090316184157     I
 2009-03-16-1841-52S.PLUR1_003                                                 6
 STAT SP IPHASW D HRMM SECON CODA AMPLIT PERI AZIMU VELO AIN AR TRES W  DIS CAZ7
 LZ4  SZ E        1841 59.88                  328.9 11.3      0        7.53 149 
 LZ4  SN IP       1841 59.89                             143    0.0210 7.53 149 
 LZ4  SE IS       1842  1.47                             143   -0.0210 7.53 149 
 LZ4  SZ  AML     1842  2.12        12.3 0.76                          7.53 149 
                                                                                
 2009  317 0147 52.9 L  21.318 -99.298 10.0  RAL  1 0.1 1.1LRAL                1
 GAP=360        0.39       7.0    15.6  0.0  0.1085E+03 -0.1849E+04  0.6247E+04E
 ACTION:UPD 12-06-08 11:37 OP:RALL STATUS:               ID:20090317014752     I
 2009-03-17-0147-45S.PLUR1_003                                                 6
 STAT SP IPHASW D HRMM SECON CODA AMPLIT PERI AZIMU VELO AIN AR TRES W  DIS CAZ7
 LZ4  SN IP        147 55.02                             162    0.1710 3.26  64 
 LZ4  SZ E         147 55.04                  244.4 24.3      0        3.26  64 
 LZ4  SE IS        147 56.07                             162   -0.1710 3.26  64 
 LZ4  SZ  AML      147 56.15        66.8 0.24                          3.26  64 
                                                                                
