 2009  215 2121  2.5 L  21.348 -99.266 10.0  RAL  1 0.1 0.6LRAL                1
 GAP=360        0.38     465.3   999.9  0.0 -0.1216E+07  0.7295E+01 -0.4340E+00E
 ACTION:UPD 12-06-08 11:37 OP:RALL STATUS:               ID:20090215212102     I
 2009-02-15-2120-56S.PLUR1_003                                                 6
 STAT SP IPHASW D HRMM SECON CODA AMPLIT PERI AZIMU VELO AIN AR TRES W  DIS CAZ7
 LZ4  SZ E        2121  4.53                   11.4 40.0      0        1.93 191 
 LZ4  SN IP       2121  4.56                             169    0.1610 1.93 191 
 LZ4  SE IS       2121  5.60                             169   -0.1610 1.93 191 
 LZ4  SZ  AML     2121  5.81        19.7 0.28                          1.93 191 
                                                                                
 2009  216 0757  5.2 L  21.260 -99.615 10.0  RAL  1 0.0 0.3LRAL                1
 GAP=360        0.30       2.5     3.3  0.0  0.6800E+01  0.7295E+01 -0.4340E+00E
 ACTION:UPD 12-06-08 11:37 OP:RALL STATUS:               ID:20090216075705     I
 2009-02-16-0757-03S.PLUR1_003                                                 6
 STAT SP IPHASW D HRMM SECON CODA AMPLIT PERI AZIMU VELO AIN AR TRES W  DIS CAZ7
 LA4  SN IP        757 12.08                             100    0.0210 40.3  52 
 LA4  SZ E         757 12.14                  232.1  8.4      0        40.3  52 
 LA4  SE IS        757 17.02                             100   -0.0210 40.3  52 
 LA4  SZ  AML      757 18.28         2.6 0.18                          40.3  52 
                                                                                
 2009  216 1049 54.7 L  22.057 -99.675  5.0  RAL  2 0.4 1.7LRAL                1
 GAP=357        5.01     784.5   481.2999.9 -0.3767E+06 -0.8380E+06  0.1368E+07E
 ACTION:UPD 12-06-08 11:37 OP:RALL STATUS:               ID:20090216104954     I
 2009-02-16-1049-54S.PLUR1_006                                                 6
 STAT SP IPHASW D HRMM SECON CODA AMPLIT PERI AZIMU VELO AIN AR TRES W  DIS CAZ7
 LA4  SN IP       1050  6.19                              63   -0.5210 73.9 149 
 LA4  SZ E        1050  6.78                  343.0  9.6     14        73.9 149 
 LA4  SE IS       1050 14.25                              63   -1.2010 73.9 149 
 LA4  SZ  AML     1050 17.76        32.2 0.52                          73.9 149 
 LZ4  SZ E        1050  9.90                  314.3  9.7    -17        90.7 152 
 LZ4  SN IP       1050 10.03                              63    0.7210 90.7 152 
 LZ4  SE IS       1050 20.94                              63    1.0010 90.7 152 
 LZ4  SZ  AML     1050 23.89        41.1 0.28                          90.7 152 
                                                                                
 2009  216 1255 26.6 L  21.304 -99.289 10.0  RAL  1 0.1 1.1LRAL                1
 GAP=360        0.38      11.8     8.5  0.0  0.1003E+03 -0.8380E+06  0.1368E+07E
 ACTION:UPD 12-06-08 11:37 OP:RALL STATUS:               ID:20090216125526     I
 2009-02-16-1255-18S.PLUR1_003                                                 6
 STAT SP IPHASW D HRMM SECON CODA AMPLIT PERI AZIMU VELO AIN AR TRES W  DIS CAZ7
 LZ4  SN IP       1255 28.69                             161    0.1610 3.60  34 
 LZ4  SZ E        1255 28.70                  213.8 15.1      0        3.60  34 
 LZ4  SE IS       1255 29.78                             161   -0.1610 3.60  34 
 LZ4  SZ  AML     1255 30.10        70.5 0.12                          3.60  34 
                                                                                
 2009  216 1318 51.6 L  21.323 -99.244 10.0  RAL  1 0.1 0.5LRAL                1
 GAP=360        0.36       5.6    17.9  0.0 -0.1003E+03 -0.8380E+06  0.1368E+07E
 ACTION:UPD 12-06-08 11:37 OP:RALL STATUS:               ID:20090216131851     I
 2009-02-16-1318-44S.PLUR1_003                                                 6
 STAT SP IPHASW D HRMM SECON CODA AMPLIT PERI AZIMU VELO AIN AR TRES W  DIS CAZ7
 LZ4  SZ E        1318 53.53                  108.5 59.5      0        2.75 289 
 LZ4  SN IP       1318 53.61                             165    0.1410 2.75 289 
 LZ4  SE IS       1318 54.70                             165   -0.1410 2.75 289 
 LZ4  SZ  AML     1318 54.95        15.7 0.22                          2.75 289 
                                                                                
 2009  216 1956 25.1 R  21.991 -99.525  5.1  RAL  2 0.3 2.3LRAL                1
 GAP=358        4.04     999.9   427.0999.9 -0.4380E+06 -0.9076E+06  0.2184E+07E
 ACTION:UPD 12-06-08 11:37 OP:RALL STATUS:               ID:20090216195625     I
 2009-02-16-1956-20S.PLUR1_006                                                 6
 STAT SP IPHASW D HRMM SECON CODA AMPLIT PERI AZIMU VELO AIN AR TRES W  DIS CAZ7
 LA4  SN IP       1956 34.73                              63   -0.2410 60.4 158 
 LA4  SZ E        1956 34.75                  349.7  9.0     11        60.4 158 
 LA4  SE IS       1956 41.33                              63   -0.8510 60.4 158 
 LA4  SZ  AML     1956 45.91       193.5 0.38                          60.4 158 
 LZ4  SN IP       1956 37.97                              63    0.3310 77.7 160 
 LZ4  SZ E        1956 37.98                  325.2  7.3    -14        77.7 160 
 LZ4  SE IS       1956 47.56                              63    0.7510 77.7 160 
 LZ4  SZ  AML     1956 51.98       175.5 0.36                          77.7 160 
                                                                                
 2009  216 2039 37.1 L  21.591 -99.650 10.0  RAL  1 0.0 0.7LRAL                1
 GAP=360        0.30       1.5     3.9  0.0 -0.4292E+01 -0.9076E+06  0.2184E+07E
 ACTION:UPD 12-06-08 11:37 OP:RALL STATUS:               ID:20090216203937     I
 2009-02-16-2039-33S.PLUR1_003                                                 6
 STAT SP IPHASW D HRMM SECON CODA AMPLIT PERI AZIMU VELO AIN AR TRES W  DIS CAZ7
 LA4  SZ E        2039 43.24                  288.6 20.9      0        37.2 109 
 LA4  SN IP       2039 43.48                             101    0.0110 37.2 109 
 LA4  SE IS       2039 48.09                             101   -0.0110 37.2 109 
 LA4  SZ  AML     2039 50.17         7.2 0.86                          37.2 109 
                                                                                
 2009  217 1003 53.1 L  21.200 -99.441  0.0  RAL  2 0.6 2.2LRAL                1
 GAP=344        9.48      44.9    79.9999.9  0.3382E+04  0.1224E+06  0.6625E+05E
 ACTION:UPD 12-06-08 11:37 OP:RALL STATUS:               ID:20090217100353     I
 2009-02-17-1003-47S.PLUR1_006                                                 6
 STAT SP IPHASW D HRMM SECON CODA AMPLIT PERI AZIMU VELO AIN AR TRES W  DIS CAZ7
 LG3  SZ E        10 3 57.92                  212.9 13.8    -33        21.3  67 
 LG3  SN IP       10 3 57.93                              93    1.1310 21.3  67 
 LG3  SE IS       10 3 59.26                              93   -0.2610 21.3  67 
 LG3  SZ  AML     10 4  0.13       164.8 0.46                          21.3  67 
 LZ4  SZ E        10 3 57.56                  261.2 10.4     30        22.9  51 
 LZ4  SN IP       10 3 57.57                              93    0.4810 22.9  51 
 LZ4  SE IS       10 3 58.68                              93   -1.3410 22.9  51 
 LZ4  SZ  AML     10 3 59.19      1063.3 0.10                          22.9  51 
                                                                                
 2009  217 1039 47.9 L  21.359 -99.288 10.0  RAL  1 0.1 0.3LRAL                1
 GAP=360        0.42      13.3     8.7  0.0 -0.1163E+03  0.1224E+06  0.6625E+05E
 ACTION:UPD 12-06-08 11:37 OP:RALL STATUS:               ID:20090217103947     I
 2009-02-17-1039-41S.PLUR1_003                                                 6
 STAT SP IPHASW D HRMM SECON CODA AMPLIT PERI AZIMU VELO AIN AR TRES W  DIS CAZ7
 LZ4  SZ E        1039 49.99                  328.5 25.2      0        3.63 148 
 LZ4  SN IP       1039 50.00                             161    0.2010 3.63 148 
 LZ4  SE IS       1039 51.01                             161   -0.2010 3.63 148 
 LZ4  SZ  AML     1039 51.71        10.0 0.24                          3.63 148 
                                                                                
 2009  217 1125 39.7 L  21.333 -99.276 10.0  RAL  1 0.4 0.5LRAL                1
 GAP=360        4.94     999.9   999.9  0.0  0.6782E+09  0.1224E+06  0.6625E+05E
 ACTION:UPD 12-06-08 11:37 OP:RALL STATUS:               ID:20090217112539     I
 2009-02-17-1125-33S.PLUR1_003                                                 6
 STAT SP IPHASW D HRMM SECON CODA AMPLIT PERI AZIMU VELO AIN AR TRES W  DIS CAZ7
 LZ4  SN IP       1125 41.67                             176    0.1410 0.67 108 
 LZ4  SZ E        1125 41.70                  264.6 19.1    -23        0.67 108 
 LZ4  SE IS       1125 42.72                             176   -0.1410 0.67 108 
 LZ4  SZ  AML     1125 42.78        19.0 0.24                          0.67 108 
                                                                                
 2009  217 2022 48.7 R                       RAL  1                            1
 ACTION:UPD 12-06-08 11:37 OP:RALL STATUS:               ID:20090217202248     I
 2009-02-17-2022-48S.PLUR1_003                                                 6
 STAT SP IPHASW D HRMM SECON CODA AMPLIT PERI AZIMU VELO AIN AR TRES W  DIS CAZ7
 LA4  SZ E        2023  1.65                  171.4 10.2                        
 LA4  SZ  AML     2023 20.01         3.6 0.28                                   
                                                                                
 2009  218 0746 44.4 L  21.306 -99.239 10.0  RAL  1 0.1 0.3LRAL                1
 GAP=360        0.35       7.6     9.4  0.0 -0.7104E+02  0.1224E+06  0.6625E+05E
 ACTION:UPD 12-06-08 11:37 OP:RALL STATUS:               ID:20090218074644     I
 2009-02-18-0746-37S.PLUR1_003                                                 6
 STAT SP IPHASW D HRMM SECON CODA AMPLIT PERI AZIMU VELO AIN AR TRES W  DIS CAZ7
 LZ4  SZ E         746 46.45                  130.7 29.7      0        4.21 311 
 LZ4  SN IP        746 46.45                             158    0.1310 4.21 311 
 LZ4  SE IS        746 47.62                             158   -0.1310 4.21 311 
 LZ4  SZ  AML      746 47.85        11.1 0.26                          4.21 311 
                                                                                
 2009  218 0916 26.5 L  21.328 -99.284 10.0  RAL  1 0.1 0.2LRAL                1
 GAP=360        0.66      12.1    60.1  0.0  0.7256E+03  0.1224E+06  0.6625E+05E
 ACTION:UPD 12-06-08 11:37 OP:RALL STATUS:               ID:20090218091626     I
 2009-02-18-0916-19S.PLUR1_003                                                 6
 STAT SP IPHASW D HRMM SECON CODA AMPLIT PERI AZIMU VELO AIN AR TRES W  DIS CAZ7
 LZ4  SZ E         916 28.50                  260.4 14.3      3        1.51  78 
 LZ4  SN IP        916 28.54                             172    0.1710 1.51  78 
 LZ4  SE IS        916 29.54                             172   -0.1710 1.51  78 
 LZ4  SZ  AML      916 29.72         8.3 0.10                          1.51  78 
                                                                                
 2009  218 1044  9.7 L                       RAL  0                            1
 ACTION:UPD 12-06-08 11:37 OP:RALL STATUS:               ID:20090218104409     I
 2009-02-18-1044-09S.PLUR1_003                                                 6
 STAT SP IPHASW D HRMM SECON CODA AMPLIT PERI AZIMU VELO AIN AR TRES W  DIS CAZ7
                                                                                
 2009  218 1149 27.0 L  21.290 -99.231 10.0  RAL  1 0.0 0.3LRAL                1
 GAP=360        0.31       5.7     5.3  0.0 -0.2995E+02  0.1224E+06  0.6625E+05E
 ACTION:UPD 12-06-08 11:37 OP:RALL STATUS:               ID:20090218114927     I
 2009-02-18-1149-21S.PLUR1_003                                                 6
 STAT SP IPHASW D HRMM SECON CODA AMPLIT PERI AZIMU VELO AIN AR TRES W  DIS CAZ7
 LZ4  SN IP       1149 29.17                             149    0.0610 6.04 319 
 LZ4  SZ E        1149 29.19                  139.1 26.7      0        6.04 319 
 LZ4  SE IS       1149 30.58                             149   -0.0610 6.04 319 
 LZ4  SZ  AML     1149 32.41         9.6 0.42                          6.04 319 
                                                                                
 2009  218 1218 58.7 L  21.923 -99.726 10.0  RAL  1 0.0 0.7LRAL                1
 GAP=360        0.30       3.0     3.0  0.0 -0.5876E+01  0.1224E+06  0.6625E+05E
 ACTION:UPD 12-06-08 11:37 OP:RALL STATUS:               ID:20090218121858     I
 2009-02-18-1219-03S.PLUR1_003                                                 6
 STAT SP IPHASW D HRMM SECON CODA AMPLIT PERI AZIMU VELO AIN AR TRES W  DIS CAZ7
 LA4  SZ E        1219  9.15                  318.5  9.9      0        65.0 138 
 LA4  SN IP       1219  9.29                              95    0.0110 65.0 138 
 LA4  SE IS       1219 17.02                              95   -0.0110 65.0 138 
 LA4  SZ  AML     1219 17.14         4.5 0.44                          65.0 138 
                                                                                
 2009  218 1527 17.7 L  21.317 -99.298 10.0  RAL  1 0.1 0.5LRAL                1
 GAP=360        0.40       7.4    15.7  0.0  0.1160E+03  0.1224E+06  0.6625E+05E
 ACTION:UPD 12-06-08 11:37 OP:RALL STATUS:               ID:20090218152717     I
 2009-02-18-1527-11S.PLUR1_003                                                 6
 STAT SP IPHASW D HRMM SECON CODA AMPLIT PERI AZIMU VELO AIN AR TRES W  DIS CAZ7
 LZ4  SZ E        1527 19.76                  243.1 75.0      0        3.30  63 
 LZ4  SN IP       1527 19.79                             162    0.1810 3.30  63 
 LZ4  SE IS       1527 20.82                             162   -0.1810 3.30  63 
 LZ4  SZ  AML     1527 20.98        17.0 0.10                          3.30  63 
                                                                                
 2009  219 1322 44.3 L  21.594 -99.576 10.0  RAL  1 0.0 0.9LRAL                1
 GAP=360        0.30       1.7     3.8  0.0 -0.5573E+01  0.1224E+06  0.6625E+05E
 ACTION:UPD 12-06-08 11:37 OP:RALL STATUS:               ID:20090219132244     I
 2009-02-19-1322-35S.PLUR1_003                                                 6
 STAT SP IPHASW D HRMM SECON CODA AMPLIT PERI AZIMU VELO AIN AR TRES W  DIS CAZ7
 LA4  SZ E        1322 49.40                  293.9 28.5      0        30.2 114 
 LA4  SN IP       1322 49.62                             104    0.0210 30.2 114 
 LA4  SE IS       1322 53.44                             104   -0.0210 30.2 114 
 LA4  SZ  AML     1322 55.78        13.7 0.62                          30.2 114 
                                                                                
 2009  219 2227 43.1 R  22.058 -99.527 10.0  RAL  1 0.0 0.8LRAL                1
 GAP=360        0.30       3.5     2.2  0.0 -0.3656E+01  0.1224E+06  0.6625E+05E
 ACTION:UPD 12-06-08 11:37 OP:RALL STATUS:               ID:20090219222743     I
 2009-02-19-2227-47S.PLUR1_003                                                 6
 STAT SP IPHASW D HRMM SECON CODA AMPLIT PERI AZIMU VELO AIN AR TRES W  DIS CAZ7
 LA4  SZ E        2227 54.04                  340.5 12.9      0        67.5 160 
 LA4  SN IP       2227 54.11                              95    0.0110 67.5 160 
 LA4  SE IS       2228  2.13                              95   -0.0110 67.5 160 
 LA4  SZ  AML     2228  4.99         5.9 0.68                          67.5 160 
                                                                                
 2009  219 2335 33.5 L  21.376 -99.292 13.2  RAL  2 0.0 0.7LRAL                1
 GAP=197        0.37       1.0     0.5  3.7 -0.4756E+00  0.3849E+00 -0.8559E+00E
 ACTION:UPD 12-06-08 11:37 OP:RALL STATUS:               ID:20090219233533     I
 2009-02-19-2335-24S.PLUR1_006                                                 6
 STAT SP IPHASW D HRMM SECON CODA AMPLIT PERI AZIMU VELO AIN AR TRES W  DIS CAZ7
 LZ4  SZ E        2335 36.09                  334.3  8.0      0        5.54 155 
 LZ4  SN IP       2335 36.10                             158    0.1010 5.54 155 
 LZ4  SE IS       2335 37.88                             158    0.0610 5.54 155 
 LZ4  SZ  AML     2335 38.23        40.5 0.18                          5.54 155 
 LA4  SZ E        2335 36.48                  171.1  7.9      0        12.0 352 
 LA4  SN IP       2335 36.52                             138   -0.0310 12.0 352 
 LA4  SE IS       2335 38.66                             138   -0.1310 12.0 352 
 LA4  SZ  AML     2335 40.26        10.1 0.44                          12.0 352 
                                                                                
 2009  220 0323 35.4 L  21.353 -99.252  0.0  RAL  2 0.2 1.3LRAL                1
 GAP=238        1.25       1.6     1.3 21.1  0.1932E+01 -0.1232E+02 -0.1669E+02E
 ACTION:UPD 12-06-08 11:37 OP:RALL STATUS:               ID:20090220032335     I
 2009-02-20-0323-26S.PLUR1_006                                                 6
 STAT SP IPHASW D HRMM SECON CODA AMPLIT PERI AZIMU VELO AIN AR TRES W  DIS CAZ7
 LZ4  SN IP        323 35.60                             109   -0.3610 3.05 216 
 LZ4  SZ E         323 35.63                   35.7 15.6      0        3.05 216 
 LZ4  SE IS        323 35.85                             109   -0.5310 3.05 216 
 LZ4  SZ  AML      323 36.03      2896.1 0.26                          3.05 216 
 LA4  SN IP        323 38.22                              94    0.0810 15.6 338 
 LA4  SZ E         323 38.28                  154.9  8.2     -2        15.6 338 
 LA4  SE IS        323 40.94                              94    0.8110 15.6 338 
 LA4  SZ  AML      323 41.60        10.8 0.22                          15.6 338 
                                                                                
 2009  220 0550 25.4 L  21.513 -99.265 10.0  RAL  1 0.0 0.1LRAL                1
 GAP=360        0.31       4.6     7.1  0.0  0.3268E+02 -0.1232E+02 -0.1669E+02E
 ACTION:UPD 12-06-08 11:37 OP:RALL STATUS:               ID:20090220055025     I
 2009-02-20-0550-14S.PLUR1_003                                                 6
 STAT SP IPHASW D HRMM SECON CODA AMPLIT PERI AZIMU VELO AIN AR TRES W  DIS CAZ7
 LA4  SN IP        550 27.53                             151    0.0610 5.58 235 
 LA4  SZ E         550 28.45                   55.1  6.1      0        5.58 235 
 LA4  SE IS        550 28.92                             151   -0.0610 5.58 235 
 LA4  SZ  AML      550 29.78         6.0 0.24                          5.58 235 
                                                                                
 2009  220 0554 56.3 L  21.570 -99.447 10.0  RAL  1 0.0 0.9LRAL                1
 GAP=360        0.30       3.2     2.5  0.0 -0.6968E+01 -0.1232E+02 -0.1669E+02E
 ACTION:UPD 12-06-08 11:37 OP:RALL STATUS:               ID:20090220055456     I
 2009-02-20-0554-56S.PLUR1_003                                                 6
 STAT SP IPHASW D HRMM SECON CODA AMPLIT PERI AZIMU VELO AIN AR TRES W  DIS CAZ7
 LZ4  SN IP        555  1.91                             103    0.0210 32.2 145 
 LZ4  SZ E         555  1.96                  325.3 10.3      0        32.2 145 
 LZ4  SE IS        555  5.94                             103   -0.0210 32.2 145 
 LZ4  SZ  AML      555  6.24        14.2 0.12                          32.2 145 
                                                                                
