 2009  6 1 0102 10.4 L  21.614 -99.344 10.0  RAL  1 0.0 1.1LRAL                1
 GAP=360        0.30       3.7     1.3  0.0 -0.3401E+01  0.1058E+00  0.1950E-01E
 ACTION:UPD 12-06-08 11:37 OP:RALL STATUS:               ID:20090601010210     I
 2009-06-01-0102-10S.PLUR1_003                                                 6
 STAT SP IPHASW D HRMM SECON CODA AMPLIT PERI AZIMU VELO AIN AR TRES W  DIS CAZ7
 LZ4  SZ E         1 2 16.03                  346.3 14.0      0        32.3 166 
 LZ4  SN IP        1 2 16.04                             103    0.0110 32.3 166 
 LZ4  SE IS        1 2 20.10                             103   -0.0110 32.3 166 
 LZ4  SZ  AML      1 2 23.77        20.6 0.74                          32.3 166 
                                                                                
 2009  6 1 0123 43.7 L  21.823 -99.352 10.0  RAL  1 0.0 0.3LRAL                1
 GAP=360        0.30       3.7     1.2  0.0 -0.1650E+01  0.1058E+00  0.1950E-01E
 ACTION:UPD 12-06-08 11:37 OP:RALL STATUS:               ID:20090601012343     I
 2009-06-01-0123-41S.PLUR1_003                                                 6
 STAT SP IPHASW D HRMM SECON CODA AMPLIT PERI AZIMU VELO AIN AR TRES W  DIS CAZ7
 LA4  SZ E         123 50.16                  353.3  9.4      0        37.9 173 
 LA4  SN IP        123 50.17                             101    0.0110 37.9 173 
 LA4  SE IS        123 54.86                             101   -0.0110 37.9 173 
 LA4  SZ  AML      123 55.00         3.3 0.76                          37.9 173 
                                                                                
 2009  6 1 0330 16.1 L  21.567 -99.341 10.0  RAL  1 0.0 1.1LRAL                1
 GAP=360        0.30       5.0     2.0  0.0 -0.9605E+01  0.1058E+00  0.1950E-01E
 ACTION:UPD 12-06-08 11:37 OP:RALL STATUS:               ID:20090601033016     I
 2009-06-01-0330-04S.PLUR1_003                                                 6
 STAT SP IPHASW D HRMM SECON CODA AMPLIT PERI AZIMU VELO AIN AR TRES W  DIS CAZ7
 LA4  SZ E         330 18.54                  340.0  7.5      0        9.81 160 
 LA4  SN IP        330 18.58                             135    0.0210 9.81 160 
 LA4  SE IS        330 20.34                             135   -0.0210 9.81 160 
 LA4  SZ  AML      330 21.07        52.1 0.40                          9.81 160 
                                                                                
 2009  6 1 0405  9.1 L  21.482 -99.317 10.0  RAL  1 0.3 0.2LRAL                1
 GAP=360        3.25     999.9   999.9  0.0 -0.3344E+09  0.1058E+00  0.1950E-01E
 ACTION:UPD 12-06-08 11:37 OP:RALL STATUS:               ID:20090601040509     I
 2009-06-01-0404-57S.PLUR1_003                                                 6
 STAT SP IPHASW D HRMM SECON CODA AMPLIT PERI AZIMU VELO AIN AR TRES W  DIS CAZ7
 LA4  SN IP        4 5 11.42                             175    0.4610 0.86  81 
 LA4  SZ E         4 5 11.42                  276.2 22.1     15        0.86  81 
 LA4  SE IS        4 5 11.86                             175   -0.4610 0.86  81 
 LA4  SZ  AML      4 5 12.12         8.2 0.34                          0.86  81 
                                                                                
 2009  6 1 1608 47.9 L  21.368 -98.906 10.0  RAL  1 0.0 1.3LRAL                1
 GAP=360        0.30       1.1     4.0  0.0  0.1491E+01  0.1058E+00  0.1950E-01E
 ACTION:UPD 12-06-08 11:37 OP:RALL STATUS:               ID:20090601160847     I
 2009-06-01-1608-46S.PLUR1_003                                                 6
 STAT SP IPHASW D HRMM SECON CODA AMPLIT PERI AZIMU VELO AIN AR TRES W  DIS CAZ7
 LZ4  SN IP       16 8 54.40                             100    0.0110 37.9 264 
 LZ4  SZ E        16 8 54.46                   83.8 19.9      0        37.9 264 
 LZ4  SE IS       16 8 59.09                             100   -0.0110 37.9 264 
 LZ4  SZ  AML     16 8 59.74        28.8 0.26                          37.9 264 
                                                                                
 2009  6 1 1708 51.7 R  21.994 -99.278 10.0  RAL  1 0.0 1.5LRAL                1
 GAP=360        0.30       3.7     2.0  0.0 -0.1342E+00  0.1058E+00  0.1950E-01E
 ACTION:UPD 12-06-08 11:37 OP:RALL STATUS:               ID:20090601170851     I
 2009-06-01-1708-54S.PLUR1_003                                                 6
 STAT SP IPHASW D HRMM SECON CODA AMPLIT PERI AZIMU VELO AIN AR TRES W  DIS CAZ7
 LZ4  SN IP       17 9  3.64                              95    0.0110 73.5 179 
 LZ4  SZ E        17 9  4.00                  359.3 12.8      0        73.5 179 
 LZ4  SE IS       17 9 12.33                              95   -0.0110 73.5 179 
 LZ4  SZ  AML     17 9 15.17        25.5 0.32                          73.5 179 
                                                                                
 2009  6 1 1838 12.2 L  21.252 -99.170 10.0  RAL  1 0.0-0.1LRAL                1
 GAP=360        0.30       4.6     2.1  0.0  0.9655E+01  0.1058E+00  0.1950E-01E
 ACTION:UPD 12-06-08 11:37 OP:RALL STATUS:               ID:20090601183812     I
 2009-06-01-1838-07S.PLUR1_003                                                 6
 STAT SP IPHASW D HRMM SECON CODA AMPLIT PERI AZIMU VELO AIN AR TRES W  DIS CAZ7
 LO8  SZ E        1838 14.80                   23.4 11.4      0        11.2 203 
 LO8  SN IP       1838 14.87                             132    0.0210 11.2 203 
 LO8  SE IS       1838 16.77                             132   -0.0210 11.2 203 
 LO8  SZ  AML     1838 18.31         3.1 0.28                          11.2 203 
                                                                                
 2009  6 1 1935 12.0 L  21.994 -99.363 10.0  RAL  1 0.0 1.1LRAL                1
 GAP=360        0.30       3.7     1.6  0.0 -0.1228E+01  0.1058E+00  0.1950E-01E
 ACTION:UPD 12-06-08 11:37 OP:RALL STATUS:               ID:20090601193512     I
 2009-06-01-1935-10S.PLUR1_003                                                 6
 STAT SP IPHASW D HRMM SECON CODA AMPLIT PERI AZIMU VELO AIN AR TRES W  DIS CAZ7
 LA4  SZ E        1935 21.31                  354.4  7.4      0        56.7 174 
 LA4  SN IP       1935 21.35                              96    0.0110 56.7 174 
 LA4  SE IS       1935 28.16                              96   -0.0110 56.7 174 
 LA4  SZ  AML     1935 31.16        13.8 0.42                          56.7 174 
                                                                                
 2009  6 1 2310 38.2 L  21.659 -99.361 10.0  RAL  1 0.0 0.2LRAL                1
 GAP=360        0.30       3.9     1.3  0.0 -0.4456E+01  0.1058E+00  0.1950E-01E
 ACTION:UPD 12-06-08 11:37 OP:RALL STATUS:               ID:20090601231038     I
 2009-06-01-2310-30S.PLUR1_003                                                 6
 STAT SP IPHASW D HRMM SECON CODA AMPLIT PERI AZIMU VELO AIN AR TRES W  DIS CAZ7
 LA4  SN IP       2310 42.06                             113    0.0210 20.2 165 
 LA4  SZ E        2310 42.07                  344.6  8.1      0        20.2 165 
 LA4  SE IS       2310 44.79                             113   -0.0210 20.2 165 
 LA4  SZ  AML     2310 45.44         4.4 0.30                          20.2 165 
                                                                                
 2009  6 2 0715 18.7 L  21.156 -98.350 10.0  RAL  1 0.0 1.6LRAL                1
 GAP=360        0.30       2.5     3.9  0.0 -0.1172E+01  0.1058E+00  0.1950E-01E
 ACTION:UPD 12-06-08 11:37 OP:RALL STATUS:               ID:20090602071518     I
 2009-06-02-0715-25S.PLUR1_003                                                 6
 STAT SP IPHASW D HRMM SECON CODA AMPLIT PERI AZIMU VELO AIN AR TRES W  DIS CAZ7
 LG3  SN IP        715 33.96                              93    0.0110 94.6 278 
 LG3  SZ E         715 34.00                   97.9 14.5      0        94.6 278 
 LG3  SE IS        715 45.05                              93   -0.0110 94.6 278 
 LG3  SZ  AML      715 45.98        24.8 0.14                          94.6 278 
                                                                                
 2009  6 2 1922 40.5 L  21.328 -99.262 10.0  RAL  1 0.5 1.1LRAL                1
 GAP=360        6.63     999.9   999.9  0.0  0.1334E+09  0.1058E+00  0.1950E-01E
 ACTION:UPD 12-06-08 11:37 OP:RALL STATUS:               ID:20090602192240     I
 2009-06-02-1922-33S.PLUR1_003                                                 6
 STAT SP IPHASW D HRMM SECON CODA AMPLIT PERI AZIMU VELO AIN AR TRES W  DIS CAZ7
 LZ4  SZ E        1922 42.72                   80.7 15.6    -30        0.85 292 
 LZ4  SN IP       1922 42.76                             175    0.4010 0.85 292 
 LZ4  SZ  AML     1922 43.27        70.4 0.28                          0.85 292 
 LZ4  SE IS       1922 43.29                             175   -0.4010 0.85 292 
                                                                                
 2009  6 3 0516 25.0 L  21.321 -99.433 10.0  RAL  1 0.0 0.4LRAL                1
 GAP=360        0.30       0.5     4.5  0.0  0.1263E+01  0.1058E+00  0.1950E-01E
 ACTION:UPD 12-06-08 11:37 OP:RALL STATUS:               ID:20090603051625     I
 2009-06-03-0516-21S.PLUR1_003                                                 6
 STAT SP IPHASW D HRMM SECON CODA AMPLIT PERI AZIMU VELO AIN AR TRES W  DIS CAZ7
 LZ4  SZ E         516 28.29                  266.2 38.5      0        17.0  86 
 LZ4  SN IP        516 28.41                             118    0.0210 17.0  86 
 LZ4  SE IS        516 30.81                             118   -0.0210 17.0  86 
 LZ4  SZ  AML      516 31.83         8.4 0.26                          17.0  86 
                                                                                
 2009  6 3 0644 40.9 L  21.415 -99.338 10.0  RAL  1 0.0 0.5LRAL                1
 GAP=360        0.30       3.8     3.2  0.0 -0.1209E+02  0.1058E+00  0.1950E-01E
 ACTION:UPD 12-06-08 11:37 OP:RALL STATUS:               ID:20090603064440     I
 2009-06-03-0644-36S.PLUR1_003                                                 6
 STAT SP IPHASW D HRMM SECON CODA AMPLIT PERI AZIMU VELO AIN AR TRES W  DIS CAZ7
 LZ4  SN IP        644 43.61                             130    0.0310 11.7 143 
 LZ4  SZ E         644 43.62                  322.6 11.3      0        11.7 143 
 LZ4  SE IS        644 45.50                             130   -0.0310 11.7 143 
 LZ4  SZ  AML      644 46.24        11.6 0.48                          11.7 143 
                                                                                
 2009  6 3 0703 59.0 L  21.702 -99.299 10.0  RAL  1 0.0 1.1LRAL                1
 GAP=360        0.30       3.7     1.2  0.0 -0.1018E+01  0.1058E+00  0.1950E-01E
 ACTION:UPD 12-06-08 11:37 OP:RALL STATUS:               ID:20090603070359     I
 2009-06-03-0703-56S.PLUR1_003                                                 6
 STAT SP IPHASW D HRMM SECON CODA AMPLIT PERI AZIMU VELO AIN AR TRES W  DIS CAZ7
 LZ4  SN IP        7 4  5.93                              99    0.0110 41.2 176 
 LZ4  SZ E         7 4  5.95                  355.8 12.2      0        41.2 176 
 LZ4  SE IS        7 4 10.99                              99   -0.0110 41.2 176 
 LZ4  SZ  AML      7 4 11.18        19.2 0.32                          41.2 176 
                                                                                
 2009  6 3 0936 45.5 L  21.665 -99.429 10.0  RAL  1 0.0 0.9LRAL                1
 GAP=360        0.30       3.3     2.3  0.0 -0.7207E+01  0.1058E+00  0.1950E-01E
 ACTION:UPD 12-06-08 11:37 OP:RALL STATUS:               ID:20090603093645     I
 2009-06-03-0936-36S.PLUR1_003                                                 6
 STAT SP IPHASW D HRMM SECON CODA AMPLIT PERI AZIMU VELO AIN AR TRES W  DIS CAZ7
 LA4  SZ E         936 49.80                  328.2  9.8      0        23.7 148 
 LA4  SN IP        936 49.83                             109    0.0010 23.7 148 
 LA4  SE IS        936 52.97                             109    0.0010 23.7 148 
 LA4  SZ  AML      936 57.26        17.3 0.38                          23.7 148 
                                                                                
 2009  6 3 2341 55.0 L  21.559 -99.372 10.0  RAL  1 0.0 0.4LRAL                1
 GAP=360        0.30       4.0     3.3  0.0 -0.1332E+02  0.1058E+00  0.1950E-01E
 ACTION:UPD 12-06-08 11:37 OP:RALL STATUS:               ID:20090603234155     I
 2009-06-03-2341-45S.PLUR1_003                                                 6
 STAT SP IPHASW D HRMM SECON CODA AMPLIT PERI AZIMU VELO AIN AR TRES W  DIS CAZ7
 LA4  SZ E        2341 57.45                  322.2 12.5      0        10.6 142 
 LA4  SN IP       2341 57.57                             133    0.0110 10.6 142 
 LA4  SE IS       2341 59.40                             133   -0.0110 10.6 142 
 LA4  SZ  AML     2342  0.81        10.7 0.60                          10.6 142 
                                                                                
 2009  6 4 0659 21.5 L  21.262 -99.223 10.0  RAL  1 0.0 0.7LRAL                1
 GAP=360        0.30       4.7     3.2  0.0 -0.1468E+02  0.1058E+00  0.1950E-01E
 ACTION:UPD 12-06-08 11:37 OP:RALL STATUS:               ID:20090604065921     I
 2009-06-04-0659-14S.PLUR1_003                                                 6
 STAT SP IPHASW D HRMM SECON CODA AMPLIT PERI AZIMU VELO AIN AR TRES W  DIS CAZ7
 LZ4  SZ E         659 23.85                  147.6 11.7      0        9.06 328 
 LZ4  SN IP        659 23.85                             138    0.0210 9.06 328 
 LZ4  SE IS        659 25.54                             138   -0.0210 9.06 328 
 LZ4  SZ  AML      659 25.84        21.5 0.28                          9.06 328 
                                                                                
 2009  6 4 0841 55.0 L  21.444 -99.195 10.0  RAL  1 0.0 0.8LRAL                1
 GAP=360        0.30       3.7     2.5  0.0  0.9148E+01  0.1058E+00  0.1950E-01E
 ACTION:UPD 12-06-08 11:37 OP:RALL STATUS:               ID:20090604084155     I
 2009-06-04-0841-50S.PLUR1_003                                                 6
 STAT SP IPHASW D HRMM SECON CODA AMPLIT PERI AZIMU VELO AIN AR TRES W  DIS CAZ7
 LZ4  SN IP        841 58.01                             122    0.0110 14.7 212 
 LZ4  SZ E         841 58.17                   31.7 14.3      0        14.7 212 
 LZ4  SE IS        842  0.21                             122   -0.0110 14.7 212 
 LZ4  SZ  AML      842  1.12        21.9 0.26                          14.7 212 
                                                                                
 2009  6 4 1219  4.0 L  21.165 -99.288 10.0  RAL  1 0.0 1.0LRAL                1
 GAP=360        0.30       4.1     0.7  0.0  0.1803E+01  0.1058E+00  0.1950E-01E
 ACTION:UPD 12-06-08 11:37 OP:RALL STATUS:               ID:20090604121904     I
 2009-06-04-1218-58S.PLUR1_003                                                 6
 STAT SP IPHASW D HRMM SECON CODA AMPLIT PERI AZIMU VELO AIN AR TRES W  DIS CAZ7
 LZ4  SZ E        1219  7.47                  185.8 15.8      0        18.5   6 
 LZ4  SN IP       1219  7.58                             116    0.0210 18.5   6 
 LZ4  SE IS       1219 10.14                             116   -0.0210 18.5   6 
 LZ4  SZ  AML     1219 10.34        28.7 0.36                          18.5   6 
                                                                                
 2009  6 4 1814 45.6 L  21.717 -99.323 10.0  RAL  1 0.0 1.1LRAL                1
 GAP=360        0.30       3.9     0.8  0.0 -0.8488E+00  0.1058E+00  0.1950E-01E
 ACTION:UPD 12-06-08 11:37 OP:RALL STATUS:               ID:20090604181445     I
 2009-06-04-1814-36S.PLUR1_003                                                 6
 STAT SP IPHASW D HRMM SECON CODA AMPLIT PERI AZIMU VELO AIN AR TRES W  DIS CAZ7
 LA4  SN IP       1814 50.29                             107    0.0110 25.9 177 
 LA4  SZ E        1814 50.30                  356.9  9.8      0        25.9 177 
 LA4  SE IS       1814 53.65                             107   -0.0110 25.9 177 
 LA4  SZ  AML     1814 55.38        27.5 0.28                          25.9 177 
                                                                                
 2009  6 4 2111 27.0 L  21.315 -99.248 10.0  RAL  1 0.2 0.6LRAL                1
 GAP=360        0.70      19.9    27.5  0.0 -0.5461E+03  0.1058E+00  0.1950E-01E
 ACTION:UPD 12-06-08 11:37 OP:RALL STATUS:               ID:20090604211127     I
 2009-06-04-2111-19S.PLUR1_003                                                 6
 STAT SP IPHASW D HRMM SECON CODA AMPLIT PERI AZIMU VELO AIN AR TRES W  DIS CAZ7
 LZ4  SZ E        2111 29.26                  127.8 25.2      0        2.86 308 
 LZ4  SN IP       2111 29.30                             164    0.4310 2.86 308 
 LZ4  SE IS       2111 29.83                             164   -0.4310 2.86 308 
 LZ4  SZ  AML     2111 30.62        19.5 0.10                          2.86 308 
                                                                                
 2009  6 5 0138 28.8 L  21.513 -99.322 10.0  RAL  1 0.0-0.2LRAL                1
 GAP=360        0.33      11.9     5.4  0.0 -0.6399E+02  0.1058E+00  0.1950E-01E
 ACTION:UPD 12-06-08 11:37 OP:RALL STATUS:               ID:20090605013828     I
 2009-06-05-0138-18S.PLUR1_003                                                 6
 STAT SP IPHASW D HRMM SECON CODA AMPLIT PERI AZIMU VELO AIN AR TRES W  DIS CAZ7
 LA4  SZ E         138 30.82                  337.3  9.1      0        3.49 157 
 LA4  SN IP        138 30.83                             161    0.1010 3.49 157 
 LA4  SE IS        138 32.04                             161   -0.1010 3.49 157 
 LA4  SZ  AML      138 32.28         3.5 0.22                          3.49 157 
                                                                                
 2009  6 5 0329 27.4 L  21.610 -99.338 10.0  RAL  1 0.0 0.0LRAL                1
 GAP=360        0.30       4.3     1.1  0.0 -0.4218E+01  0.1058E+00  0.1950E-01E
 ACTION:UPD 12-06-08 11:37 OP:RALL STATUS:               ID:20090605032927     I
 2009-06-05-0329-18S.PLUR1_003                                                 6
 STAT SP IPHASW D HRMM SECON CODA AMPLIT PERI AZIMU VELO AIN AR TRES W  DIS CAZ7
 LA4  SN IP        329 30.39                             123    0.0010 14.3 168 
 LA4  SZ E         329 30.40                  348.1  6.6      0        14.3 168 
 LA4  SZ  AML      329 32.54         3.2 0.28                          14.3 168 
 LA4  SE IS        329 32.58                             123    0.0010 14.3 168 
                                                                                
 2009  6 5 1054 30.9 L  21.410 -99.427 10.0  RAL  1 0.0 0.4LRAL                1
 GAP=360        0.30       2.0     3.9  0.0 -0.7426E+01  0.1058E+00  0.1950E-01E
 ACTION:UPD 12-06-08 11:37 OP:RALL STATUS:               ID:20090605105430     I
 2009-06-05-1054-28S.PLUR1_003                                                 6
 STAT SP IPHASW D HRMM SECON CODA AMPLIT PERI AZIMU VELO AIN AR TRES W  DIS CAZ7
 LZ4  SN IP       1054 34.48                             116    0.0010 18.5 118 
 LZ4  SZ E        1054 34.55                  298.4 18.7      0        18.5 118 
 LZ4  SE IS       1054 37.07                             116    0.0010 18.5 118 
 LZ4  SZ  AML     1054 37.56         7.5 0.38                          18.5 118 
                                                                                
