 2009  317 0202 36.8 L  21.328 -99.283 10.0  RAL  1 0.1 0.9LRAL                1
 GAP=360        0.72     999.9   392.0  0.0 -0.7569E+06 -0.1849E+04  0.6247E+04E
 ACTION:UPD 12-06-08 11:37 OP:RALL STATUS:               ID:20090317020236     I
 2009-03-17-0202-29S.PLUR1_003                                                 6
 STAT SP IPHASW D HRMM SECON CODA AMPLIT PERI AZIMU VELO AIN AR TRES W  DIS CAZ7
 LZ4  SZ E         2 2 38.76                  260.2 18.5      3        1.41  77 
 LZ4  SN IP        2 2 38.78                             172    0.1810 1.41  77 
 LZ4  SE IS        2 2 39.77                             172   -0.1810 1.41  77 
 LZ4  SZ  AML      2 2 39.98        44.9 0.10                          1.41  77 
                                                                                
 2009  317 0355 54.3 L  21.321 -99.286 10.0  RAL  1 0.2 0.8LRAL                1
 GAP=360        0.91      31.9    53.7  0.0  0.1716E+04 -0.1849E+04  0.6247E+04E
 ACTION:UPD 12-06-08 11:37 OP:RALL STATUS:               ID:20090317035554     I
 2009-03-17-0355-47S.PLUR1_003                                                 6
 STAT SP IPHASW D HRMM SECON CODA AMPLIT PERI AZIMU VELO AIN AR TRES W  DIS CAZ7
 LZ4  SZ E         355 56.71                  237.5 13.4      0        2.00  57 
 LZ4  SN IP        355 56.72                             169    0.5810 2.00  57 
 LZ4  SE IS        355 56.92                             169   -0.5810 2.00  57 
 LZ4  SZ  AML      355 57.07        34.8 0.18                          2.00  57 
                                                                                
 2009  317 0451 52.2 L  21.351 -99.285 10.0  RAL  1 0.2 0.4LRAL                1
 GAP=360        0.68      26.4    21.4  0.0 -0.5643E+03 -0.1849E+04  0.6247E+04E
 ACTION:UPD 12-06-08 11:37 OP:RALL STATUS:               ID:20090317045152     I
 2009-03-17-0451-45S.PLUR1_003                                                 6
 STAT SP IPHASW D HRMM SECON CODA AMPLIT PERI AZIMU VELO AIN AR TRES W  DIS CAZ7
 LZ4  SN IP        451 54.50                             165    0.4110 2.73 143 
 LZ4  SZ E         451 54.56                  322.9 22.7      0        2.73 143 
 LZ4  SE IS        451 55.05                             165   -0.4110 2.73 143 
 LZ4  SZ  AML      451 55.80        14.2 0.76                          2.73 143 
                                                                                
 2009  317 0605 36.1 L  21.245 -99.230  7.8  RAL  2 0.0 0.3LRAL                1
 GAP=348        0.35       1.2     0.9  3.3 -0.1069E+01 -0.6066E-01  0.8114E-01E
 ACTION:UPD 12-06-08 11:37 OP:RALL STATUS:               ID:20090317060536     I
 2009-03-17-0605-28S.PLUR1_006                                                 6
 STAT SP IPHASW D HRMM SECON CODA AMPLIT PERI AZIMU VELO AIN AR TRES W  DIS CAZ7
 LG3  SZ E         6 5 37.83                  144.9 17.8      0        4.10 325 
 LG3  SN IP        6 5 37.85                             153    0.1310 4.10 325 
 LG3  SZ  AML      6 5 38.83         7.9 0.10                          4.10 325 
 LG3  SE IS        6 5 38.94                             153    0.0110 4.10 325 
 LZ4  SN IP        6 5 38.33                             125   -0.0210 10.3 336 
 LZ4  SZ E         6 5 38.59                  156.0 19.5      0        10.3 336 
 LZ4  SE IS        6 5 39.89                             125   -0.1210 10.3 336 
 LZ4  SZ  AML      6 5 41.09        11.7 0.38                          10.3 336 
                                                                                
 2009  317 0806 38.7 L  21.271 -99.230 10.0  RAL  1 0.1 0.0LRAL                1
 GAP=360        0.35     999.9   307.8  0.0  0.3512E+06 -0.6066E-01  0.8114E-01E
 ACTION:UPD 12-06-08 11:37 OP:RALL STATUS:               ID:20090317080638     I
 2009-03-17-0806-31S.PLUR1_003                                                 6
 STAT SP IPHASW D HRMM SECON CODA AMPLIT PERI AZIMU VELO AIN AR TRES W  DIS CAZ7
 LG3  SZ E         8 6 40.77                  103.2 40.1      0        2.44 283 
 LG3  SN IP        8 6 40.77                             167    0.1310 2.44 283 
 LG3  SE IS        8 6 41.89                             167   -0.1310 2.44 283 
 LG3  SZ  AML      8 6 43.08         5.4 0.38                          2.44 283 
                                                                                
 2009  317 0916 47.9 L  21.332 -99.274 10.0  RAL  1 0.2 0.3LRAL                1
 GAP=360        2.05     999.9    66.6  0.0  0.2131E+06 -0.6066E-01  0.8114E-01E
 ACTION:UPD 12-06-08 11:37 OP:RALL STATUS:               ID:20090317091647     I
 2009-03-17-0916-40S.PLUR1_006                                                 6
 STAT SP IPHASW D HRMM SECON CODA AMPLIT PERI AZIMU VELO AIN AR TRES W  DIS CAZ7
 LZ4  SZ E         916 49.75                  271.0 27.0     -9        0.48 101 
 LZ4  SN IP        916 49.85                             177    0.1210 0.48 101 
 LZ4  SE IS        916 50.94                             177   -0.1210 0.48 101 
 LZ4  SZ  AML      916 51.17        11.4 0.66                          0.48 101 
                                                                                
 2009  317 1102 53.2 L  21.275 -99.245 10.0  RAL  2 0.4 0.4LRAL                1
 GAP=301        7.32       4.3     4.0 66.7 -0.1118E+01  0.8173E+00 -0.1827E+01E
 ACTION:UPD 12-06-08 11:37 OP:RALL STATUS:               ID:20090317110253     I
 2009-03-17-1102-45S.PLUR1_006                                                 6
 STAT SP IPHASW D HRMM SECON CODA AMPLIT PERI AZIMU VELO AIN AR TRES W  DIS CAZ7
 LG3  SZ E        11 2 54.87                   95.2 17.4     -2        0.80 278 
 LG3  SN IP       11 2 54.89                             177   -0.1710 0.80 278 
 LG3  SE IS       11 2 55.67                             177   -0.7510 0.80 278 
 LG3  SZ  AML     11 2 56.28        12.8 0.24                          0.80 278 
 LZ4  SN IP       11 2 55.68                             148    0.3310 6.73 338 
 LZ4  SZ E        11 2 55.71                  193.0 13.9     35        6.73 338 
 LZ4  SE IS       11 2 57.50                             148    0.5910 6.73 338 
 LZ4  SZ  AML     11 2 57.80        10.9 0.20                          6.73 338 
                                                                                
 2009  318 0447 11.1 L  21.331 -99.275 10.0  RAL  1 0.3 0.4LRAL                1
 GAP=360        3.56     999.9   999.9  0.0  0.5311E+10  0.8173E+00 -0.1827E+01E
 ACTION:UPD 12-06-08 11:37 OP:RALL STATUS:               ID:20090318044711     I
 2009-03-18-0447-04S.PLUR1_003                                                 6
 STAT SP IPHASW D HRMM SECON CODA AMPLIT PERI AZIMU VELO AIN AR TRES W  DIS CAZ7
 LZ4  SN IP        447 13.20                             177    0.2810 0.60  91 
 LZ4  SZ E         447 13.22                  288.2 61.5     17        0.60  91 
 LZ4  SE IS        447 13.98                             177   -0.2810 0.60  91 
 LZ4  SZ  AML      447 14.60        12.8 0.46                          0.60  91 
                                                                                
 2009  318 0653  4.7 L  21.346 -99.271 10.0  RAL  1 0.3 0.5LRAL                1
 GAP=360        2.77     999.9   999.9  0.0  0.1556E+09  0.8173E+00 -0.1827E+01E
 ACTION:UPD 12-06-08 11:37 OP:RALL STATUS:               ID:20090318065304     I
 2009-03-18-0652-57S.PLUR1_003                                                 6
 STAT SP IPHASW D HRMM SECON CODA AMPLIT PERI AZIMU VELO AIN AR TRES W  DIS CAZ7
 LZ4  SN IP        653  6.98                             171    0.4510 1.73 176 
 LZ4  SZ E         653  6.99                  343.7  7.9    -12        1.73 176 
 LZ4  SE IS        653  7.44                             171   -0.4510 1.73 176 
 LZ4  SZ  AML      653  7.70        17.9 0.10                          1.73 176 
                                                                                
 2009  318 0835 32.0 L  21.269 -99.276 10.0  RAL  1 0.0 0.9LRAL                1
 GAP=360        0.30       6.5     0.7  0.0  0.4186E+01  0.8173E+00 -0.1827E+01E
 ACTION:UPD 12-06-08 11:37 OP:RALL STATUS:               ID:20090318083532     I
 2009-03-18-0835-24S.PLUR1_003                                                 6
 STAT SP IPHASW D HRMM SECON CODA AMPLIT PERI AZIMU VELO AIN AR TRES W  DIS CAZ7
 LZ4  SZ E         835 34.11                  185.2 13.3      0        6.87   5 
 LZ4  SN IP        835 34.12                             146    0.0110 6.87   5 
 LZ4  SE IS        835 35.68                             146   -0.0110 6.87   5 
 LZ4  SZ  AML      835 36.25        38.3 0.24                          6.87   5 
                                                                                
 2009  318 1030 42.7 L  21.670 -99.667 10.0  RAL  1 0.0 1.2LRAL                1
 GAP=360        0.30       2.7     3.1  0.0 -0.6318E+01  0.8173E+00 -0.1827E+01E
 ACTION:UPD 12-06-08 11:37 OP:RALL STATUS:               ID:20090318103042     I
 2009-03-18-1030-42S.PLUR1_003                                                 6
 STAT SP IPHASW D HRMM SECON CODA AMPLIT PERI AZIMU VELO AIN AR TRES W  DIS CAZ7
 LZ4  SZ E        1030 51.90                  312.4  8.0      0        55.8 132 
 LZ4  SN IP       1030 51.93                              96    0.0110 55.8 132 
 LZ4  SZ  AML     1030 58.50        17.6 0.42                          55.8 132 
 LZ4  SE IS       1030 58.61                              96   -0.0110 55.8 132 
                                                                                
 2009  319 0818 32.6 L  21.326 -99.290 10.0  RAL  1 0.1 0.6LRAL                1
 GAP=360        0.36       4.9    22.6  0.0  0.1100E+03  0.8173E+00 -0.1827E+01E
 ACTION:UPD 12-06-08 11:37 OP:RALL STATUS:               ID:20090319081832     I
 2009-03-19-0818-26S.PLUR1_003                                                 6
 STAT SP IPHASW D HRMM SECON CODA AMPLIT PERI AZIMU VELO AIN AR TRES W  DIS CAZ7
 LZ4  SZ E         818 34.54                  257.0 31.3      0        2.18  77 
 LZ4  SN IP        818 34.56                             168    0.1410 2.18  77 
 LZ4  SE IS        818 35.65                             168   -0.1410 2.18  77 
 LZ4  SZ  AML      818 35.85        20.5 0.16                          2.18  77 
                                                                                
 2009  319 1356  1.8 L  21.314 -99.276 10.0  RAL  1 0.2 1.5LRAL                1
 GAP=360        0.86     825.8   999.9  0.0 -0.2062E+07  0.8173E+00 -0.1827E+01E
 ACTION:UPD 12-06-08 11:37 OP:RALL STATUS:               ID:20090319135601     I
 2009-03-19-1355-54S.PLUR1_003                                                 6
 STAT SP IPHASW D HRMM SECON CODA AMPLIT PERI AZIMU VELO AIN AR TRES W  DIS CAZ7
 LZ4  SZ E        1356  4.17                  200.8 13.5      0        1.97  21 
 LZ4  SN IP       1356  4.19                             169    0.5410 1.97  21 
 LZ4  SE IS       1356  4.46                             169   -0.5410 1.97  21 
 LZ4  SZ  AML     1356  4.81       178.3 0.24                          1.97  21 
                                                                                
