 2009  9 3 0109  7.2 L  21.287 -99.254 10.0  RAL  1 0.2-0.3LRAL                1
 GAP=360        2.71     999.9   999.9  0.0  0.1765E+09  0.1205E+03  0.2149E+03E
 ACTION:UPD 12-06-08 11:37 OP:RALL STATUS:               ID:20090903010907     I
 2009-09-03-0109-01S.PLUR1_003                                                 6
 STAT SP IPHASW D HRMM SECON CODA AMPLIT PERI AZIMU VELO AIN AR TRES W  DIS CAZ7
 LG3  SN IP        1 9  9.20                             173    0.1710 1.26 174 
 LG3  SZ E         1 9  9.25                    7.0  4.8     13        1.26 174 
 LG3  SE IS        1 9 10.22                             173   -0.1710 1.26 174 
 LG3  SZ  AML      1 9 11.66         2.7 0.52                          1.26 174 
                                                                                
 2009  9 3 0109  7.1 L  21.297 -99.248 10.0  RAL  1 0.1-0.3LRAL                1
 GAP=360        0.37      20.5     4.6  0.0  0.9470E+02  0.1205E+03  0.2149E+03E
 ACTION:UPD 12-06-08 11:37 OP:RALL STATUS:               ID:20090903010908d    I
 2009-09-03-0109-01S.PLUR1_003                                                 6
 STAT SP IPHASW D HRMM SECON CODA AMPLIT PERI AZIMU VELO AIN AR TRES W  DIS CAZ7
 LG3  SN IP        1 9  9.16                             167    0.1510 2.36 192 
 LG3  SZ E         1 9  9.18                   11.9  4.8      0        2.36 192 
 LG3  SE IS        1 9 10.24                             167   -0.1510 2.36 192 
 LG3  SZ  AML      1 9 11.66         2.6 0.52                          2.36 192 
                                                                                
 2009  9 3 0115  7.6 L  21.252 -99.268 10.0  RAL  1 0.1-0.2LRAL                1
 GAP=360        0.50      18.5    12.0  0.0  0.2221E+03  0.1205E+03  0.2149E+03E
 ACTION:UPD 12-06-08 11:37 OP:RALL STATUS:               ID:20090903011507     I
 2009-09-03-0115-01S.PLUR1_003                                                 6
 STAT SP IPHASW D HRMM SECON CODA AMPLIT PERI AZIMU VELO AIN AR TRES W  DIS CAZ7
 LG3  SN IP        115  9.84                             163    0.2710 3.12  31 
 LG3  SZ E         115  9.91                  211.1 11.3      0        3.12  31 
 LG3  SE IS        115 10.70                             163   -0.2710 3.12  31 
 LG3  SZ  AML      115 11.73         3.3 0.12                          3.12  31 
                                                                                
 2009  9 3 1711 19.3 L  21.258 -99.266 10.0  RAL  1 0.2 0.4LRAL                1
 GAP=360        0.83      37.4    29.7  0.0  0.1111E+04  0.1205E+03  0.2149E+03E
 2009-09-03-1711-12S.PLUR1_003                                                 6
 ACTION:UPD 12-06-08 11:37 OP:RALL STATUS:               ID:20090903171119     I
 STAT SP IPHASW D HRMM SECON CODA AMPLIT PERI AZIMU VELO AIN AR TRES W  DIS CAZ7
 LG3  SZ E        1711 21.69                  216.5 13.3      0        2.37  36 
 LG3  SN IP       1711 21.70                             167    0.5210 2.37  36 
 LG3  SE IS       1711 22.04                             167   -0.5210 2.37  36 
 LG3  SZ  AML     1711 22.22        14.5 0.28                          2.37  36 
                                                                                
 2009  9 3 1753 50.5 L  21.294 -99.230 10.0  RAL  1 0.2 0.5LRAL                1
 GAP=360        0.66      19.5    23.3  0.0  0.4549E+03  0.1205E+03  0.2149E+03E
 ACTION:UPD 12-06-08 11:37 OP:RALL STATUS:               ID:20090903175350     I
 2009-09-03-1753-44S.PLUR1_003                                                 6
 STAT SP IPHASW D HRMM SECON CODA AMPLIT PERI AZIMU VELO AIN AR TRES W  DIS CAZ7
 LG3  SZ E        1753 52.77                   48.1 28.7      0        3.07 228 
 LG3  SN IP       1753 52.78                             164    0.4010 3.07 228 
 LG3  SE IS       1753 53.38                             164   -0.4010 3.07 228 
 LG3  SZ  AML     1753 53.47        17.8 0.24                          3.07 228 
                                                                                
 2009  9 4 0643  5.7 L  21.235 -99.212 10.0  RAL  1 0.0 0.1LRAL                1
 GAP=360        0.31       5.4     5.4  0.0 -0.2914E+02  0.1205E+03  0.2149E+03E
 ACTION:UPD 12-06-08 11:37 OP:RALL STATUS:               ID:20090904064305     I
 2009-09-04-0642-59S.PLUR1_003                                                 6
 STAT SP IPHASW D HRMM SECON CODA AMPLIT PERI AZIMU VELO AIN AR TRES W  DIS CAZ7
 LG3  SN IP        643  7.82                             149    0.0510 6.20 317 
 LG3  SZ E         643  7.90                  137.2 11.9      0        6.20 317 
 LG3  SE IS        643  9.26                             149   -0.0510 6.20 317 
 LG3  SZ  AML      643 11.32         6.8 0.16                          6.20 317 
                                                                                
 2009  9 4 0649 32.4 L  21.288 -99.248 10.0  RAL  1 0.1 0.3LRAL                1
 GAP=360        0.65     166.7   760.9  0.0 -0.1268E+06  0.1205E+03  0.2149E+03E
 ACTION:UPD 12-06-08 11:37 OP:RALL STATUS:               ID:20090904064932     I
 2009-09-04-0649-25S.PLUR1_003                                                 6
 STAT SP IPHASW D HRMM SECON CODA AMPLIT PERI AZIMU VELO AIN AR TRES W  DIS CAZ7
 LG3  SZ E         649 34.62                   16.6 22.8      0        1.41 198 
 LG3  SN IP        649 34.63                             172    0.3410 1.41 198 
 LG3  SE IS        649 35.31                             172   -0.3410 1.41 198 
 LG3  SZ  AML      649 35.49        10.3 0.18                          1.41 198 
                                                                                
 2009  9 5 0250 59.6 L  21.288 -99.252 10.0  RAL  1 0.2 0.1LRAL                1
 GAP=360        1.34     117.8   469.5  0.0  0.5529E+05  0.1205E+03  0.2149E+03E
 ACTION:UPD 12-06-08 11:37 OP:RALL STATUS:               ID:20090905025059     I
 2009-09-05-0250-52S.PLUR1_003                                                 6
 STAT SP IPHASW D HRMM SECON CODA AMPLIT PERI AZIMU VELO AIN AR TRES W  DIS CAZ7
 LG3  SZ E         251  1.77                    6.8  5.2      6        1.39 181 
 LG3  SN IP        251  1.81                             172    0.3610 1.39 181 
 LG3  SE IS        251  2.45                             172   -0.3610 1.39 181 
 LG3  SZ  AML      251  2.60         7.6 0.22                          1.39 181 
                                                                                
 2009  9 5 0621 21.7 L  21.247 -99.234 10.0  RAL  1 0.1 0.1LRAL                1
 GAP=360        0.36      11.3     7.0  0.0 -0.7971E+02  0.1205E+03  0.2149E+03E
 ACTION:UPD 12-06-08 11:37 OP:RALL STATUS:               ID:20090905062121     I
 2009-09-05-0621-15S.PLUR1_003                                                 6
 STAT SP IPHASW D HRMM SECON CODA AMPLIT PERI AZIMU VELO AIN AR TRES W  DIS CAZ7
 LG3  SZ E         621 23.76                  149.9 12.6      0        3.73 330 
 LG3  SN IP        621 23.78                             160    0.1310 3.73 330 
 LG3  SE IS        621 24.94                             160   -0.1310 3.73 330 
 LG3  SZ  AML      621 26.20         6.4 0.50                          3.73 330 
                                                                                
 2009  9 6 0823 38.6 L  21.259 -99.255 10.0  RAL  1 0.1 0.4LRAL                1
 GAP=360        0.76     219.9   999.9  0.0 -0.2761E+06  0.1205E+03  0.2149E+03E
 ACTION:UPD 12-06-08 11:37 OP:RALL STATUS:               ID:20090906082338     I
 2009-09-06-0823-32S.PLUR1_003                                                 6
 STAT SP IPHASW D HRMM SECON CODA AMPLIT PERI AZIMU VELO AIN AR TRES W  DIS CAZ7
 LG3  SZ E         823 40.68                  191.1 13.8      3        1.82   8 
 LG3  SN IP        823 40.69                             170    0.1710 1.82   8 
 LG3  SE IS        823 41.71                             170   -0.1710 1.82   8 
 LG3  SZ  AML      823 41.81        14.3 0.20                          1.82   8 
                                                                                
 2009  9 7 0243 42.9 L  21.275 -99.262 10.0  RAL  1 0.2 1.1LRAL                1
 GAP=360        0.86      92.1   137.1  0.0 -0.1262E+05  0.1205E+03  0.2149E+03E
 ACTION:UPD 12-06-08 11:37 OP:RALL STATUS:               ID:20090907024342     I
 2009-09-07-0243-35S.PLUR1_003                                                 6
 STAT SP IPHASW D HRMM SECON CODA AMPLIT PERI AZIMU VELO AIN AR TRES W  DIS CAZ7
 LG3  SZ E         243 45.31                  263.5 17.1      0        0.96  84 
 LG3  SN IP        243 45.32                             175    0.5410 0.96  84 
 LG3  SE IS        243 45.59                             175   -0.5410 0.96  84 
 LG3  SZ  AML      243 45.73        67.6 0.28                          0.96  84 
                                                                                
 2009  9 7 1735 33.7 L  21.259 -99.230 10.0  RAL  1 0.1 0.3LRAL                1
 GAP=360        0.50      14.3    18.9  0.0 -0.2705E+03  0.1205E+03  0.2149E+03E
 ACTION:UPD 12-06-08 11:37 OP:RALL STATUS:               ID:20090907173533     I
 2009-09-07-1735-26S.PLUR1_003                                                 6
 STAT SP IPHASW D HRMM SECON CODA AMPLIT PERI AZIMU VELO AIN AR TRES W  DIS CAZ7
 LG3  SZ E        1735 35.89                  129.1 11.1      0        2.99 309 
 LG3  SN IP       1735 35.92                             164    0.2710 2.99 309 
 LG3  SE IS       1735 36.77                             164   -0.2710 2.99 309 
 LG3  SZ  AML     1735 37.01        11.7 0.18                          2.99 309 
                                                                                
 2009  910 0059 39.0 L  21.246 -99.271 10.0  RAL  1 0.1-0.2LRAL                1
 GAP=360        0.38      11.7     7.4  0.0  0.8633E+02  0.1205E+03  0.2149E+03E
 ACTION:UPD 12-06-08 11:37 OP:RALL STATUS:               ID:20090910005939     I
 2009-09-10-0059-33S.PLUR1_003                                                 6
 STAT SP IPHASW D HRMM SECON CODA AMPLIT PERI AZIMU VELO AIN AR TRES W  DIS CAZ7
 LG3  SZ E         059 41.04                  210.5  9.5      0        3.85  30 
 LG3  SN IP        059 41.11                             160    0.1610 3.85  30 
 LG3  SE IS        059 42.22                             160   -0.1610 3.85  30 
 LG3  SZ  AML      059 43.50         3.0 0.18                          3.85  30 
                                                                                
 2009  910 0223  4.2 R  20.654 -99.669 10.0  RAL  1 0.0 2.0LRAL                1
 GAP=360        0.30       3.3     2.8  0.0  0.4487E+01  0.1205E+03  0.2149E+03E
 ACTION:UPD 12-06-08 11:37 OP:RALL STATUS:               ID:20090910022304     I
 2009-09-10-0223-07S.PLUR1_003                                                 6
 STAT SP IPHASW D HRMM SECON CODA AMPLIT PERI AZIMU VELO AIN AR TRES W  DIS CAZ7
 LG3  SZ E         223 17.21                  212.2 14.8      0        81.3  32 
 LG3  SN IP        223 17.37                              94    0.0110 81.3  32 
 LG3  SE IS        223 26.95                              94   -0.0110 81.3  32 
 LG3  SZ  AML      223 31.70        79.9 0.26                          81.3  32 
                                                                                
 2009  911 0034 47.5 L  21.249 -99.285 10.0  RAL  1 0.1-0.1LRAL                1
 GAP=360        0.37       7.7     9.5  0.0  0.7268E+02  0.1205E+03  0.2149E+03E
 ACTION:UPD 12-06-08 11:37 OP:RALL STATUS:               ID:20090911003447     I
 2009-09-11-0034-41S.PLUR1_003                                                 6
 STAT SP IPHASW D HRMM SECON CODA AMPLIT PERI AZIMU VELO AIN AR TRES W  DIS CAZ7
 LG3  SN IP        034 49.66                             157    0.1510 4.49  49 
 LG3  SZ E         034 49.66                  228.9 17.3      0        4.49  49 
 LG3  SE IS        034 50.81                             157   -0.1510 4.49  49 
 LG3  SZ  AML      034 50.98         4.5 0.18                          4.49  49 
                                                                                
 2009  911 0148 57.7 L  21.253 -99.237 10.0  RAL  1 0.1 0.0LRAL                1
 GAP=360        0.48      18.7    13.0  0.0 -0.2429E+03  0.1205E+03  0.2149E+03E
 ACTION:UPD 12-06-08 11:37 OP:RALL STATUS:               ID:20090911014857     I
 2009-09-11-0148-51S.PLUR1_003                                                 6
 STAT SP IPHASW D HRMM SECON CODA AMPLIT PERI AZIMU VELO AIN AR TRES W  DIS CAZ7
 LG3  SN IP        148 59.87                             164    0.2610 2.93 327 
 LG3  SZ E         148 59.89                  147.0 16.0      0        2.93 327 
 LG3  SE IS        149  0.75                             164   -0.2610 2.93 327 
 LG3  SZ  AML      149  0.80         5.0 0.10                          2.93 327 
                                                                                
 2009  911 0637 32.4 L  21.246 -99.242 10.0  RAL  1 0.1-0.1LRAL                1
 GAP=360        0.37      13.9     5.0  0.0 -0.6988E+02  0.1205E+03  0.2149E+03E
 ACTION:UPD 12-06-08 11:37 OP:RALL STATUS:               ID:20090911063732     I
 2009-09-11-0637-26S.PLUR1_003                                                 6
 STAT SP IPHASW D HRMM SECON CODA AMPLIT PERI AZIMU VELO AIN AR TRES W  DIS CAZ7
 LG3  SN IP        637 34.52                             162    0.1510 3.45 341 
 LG3  SZ E         637 34.52                  161.5  8.9      0        3.45 341 
 LG3  SE IS        637 35.63                             162   -0.1510 3.45 341 
 LG3  SZ  AML      637 35.76         4.6 0.44                          3.45 341 
                                                                                
 2009  911 1706 49.4 L  21.239 -99.285 10.0  RAL  1 0.0 1.0LRAL                1
 GAP=360        0.32       6.7     5.8  0.0  0.3889E+02  0.1205E+03  0.2149E+03E
 ACTION:UPD 12-06-08 11:37 OP:RALL STATUS:               ID:20090911170649     I
 2009-09-11-1706-43S.PLUR1_003                                                 6
 STAT SP IPHASW D HRMM SECON CODA AMPLIT PERI AZIMU VELO AIN AR TRES W  DIS CAZ7
 LG3  SZ E        17 6 51.54                  219.3 16.8      0        5.30  39 
 LG3  SN IP       17 6 51.55                             153    0.0710 5.30  39 
 LG3  SE IS       17 6 52.90                             153   -0.0710 5.30  39 
 LG3  SZ  AML     17 6 53.47        56.3 0.18                          5.30  39 
                                                                                
 2009  911 1913  3.4 L  21.362 -99.307 10.0  RAL  1 0.0-0.2LRAL                1
 GAP=360        0.33       9.2     5.2  0.0 -0.4806E+02  0.1205E+03  0.2149E+03E
 ACTION:UPD 12-06-08 11:37 OP:RALL STATUS:               ID:20090911191303     I
 2009-09-11-1913-01S.PLUR1_003                                                 6
 STAT SP IPHASW D HRMM SECON CODA AMPLIT PERI AZIMU VELO AIN AR TRES W  DIS CAZ7
 LT7  SZ E        1913  5.34                  151.9  8.8      0        4.23 332 
 LT7  SN IP       1913  5.35                             157    0.0910 4.23 332 
 LT7  SE IS       1913  6.56                             157   -0.0910 4.23 332 
 LT7  SZ  AML     1913  6.64         3.5 0.16                          4.23 332 
                                                                                
 2009  911 2206 25.6 L  21.316 -99.298 10.0  RAL  1 0.0 0.1LRAL                1
 GAP=360        0.30       5.1     1.9  0.0 -0.9269E+01  0.1205E+03  0.2149E+03E
 ACTION:UPD 12-06-08 11:37 OP:RALL STATUS:               ID:20090911220625     I
 2009-09-11-2206-24S.PLUR1_003                                                 6
 STAT SP IPHASW D HRMM SECON CODA AMPLIT PERI AZIMU VELO AIN AR TRES W  DIS CAZ7
 LT7  SN IP       22 6 27.96                             136    0.0210 9.29 341 
 LT7  SZ E        22 6 27.98                  161.3  7.2      0        9.29 341 
 LT7  SE IS       22 6 29.64                             136   -0.0210 9.29 341 
 LT7  SZ  AML     22 6 30.21         5.2 0.28                          9.29 341 
                                                                                
 2009  912 0029 27.9 L  21.298 -99.232 10.0  RAL  1 0.1 0.5LRAL                1
 GAP=360        0.58      18.0    16.6  0.0  0.2990E+03  0.1205E+03  0.2149E+03E
 ACTION:UPD 12-06-08 11:37 OP:RALL STATUS:               ID:20090912002927     I
 2009-09-12-0029-21S.PLUR1_003                                                 6
 STAT SP IPHASW D HRMM SECON CODA AMPLIT PERI AZIMU VELO AIN AR TRES W  DIS CAZ7
 LG3  SZ E         029 30.18                   40.8 34.8      0        3.31 221 
 LG3  SN IP        029 30.19                             162    0.3310 3.31 221 
 LG3  SE IS        029 30.93                             162   -0.3310 3.31 221 
 LG3  SZ  AML      029 31.04        17.4 0.18                          3.31 221 
                                                                                
 2009  912 1433 30.7 L  21.305 -99.357 10.0  RAL  1 0.0 0.2LRAL                1
 GAP=360        0.30       4.8     1.7  0.0  0.7764E+01  0.1205E+03  0.2149E+03E
 ACTION:UPD 12-06-08 11:37 OP:RALL STATUS:               ID:20090912143330     I
 2009-09-12-1433-30S.PLUR1_003                                                 6
 STAT SP IPHASW D HRMM SECON CODA AMPLIT PERI AZIMU VELO AIN AR TRES W  DIS CAZ7
 LT7  SZ E        1433 33.21                  197.8 11.5      0        10.5  18 
 LT7  SN IP       1433 33.22                             132    0.0110 10.5  18 
 LT7  SE IS       1433 35.01                             132   -0.0110 10.5  18 
 LT7  SZ  AML     1433 35.13         5.7 0.34                          10.5  18 
                                                                                
 2009  913 0029 11.7 L  21.387 -99.309 10.0  RAL  1 0.1-0.4LRAL                1
 GAP=360        0.65      18.8    39.9  0.0 -0.7489E+03  0.1205E+03  0.2149E+03E
 ACTION:UPD 12-06-08 11:37 OP:RALL STATUS:               ID:20090913002911     I
 2009-09-13-0029-09S.PLUR1_003                                                 6
 STAT SP IPHASW D HRMM SECON CODA AMPLIT PERI AZIMU VELO AIN AR TRES W  DIS CAZ7
 LT7  SN IP        029 13.94                             169    0.3910 1.99 297 
 LT7  SZ E         029 14.00                  116.8 11.7      0        1.99 297 
 LT7  SE IS        029 14.48                             169   -0.3910 1.99 297 
 LT7  SZ  AML      029 14.84         2.2 0.28                          1.99 297 
                                                                                
 2009  915 0237 52.7 L  21.297 -99.240 10.0  RAL  1 0.1-0.1LRAL                1
 GAP=360        0.58      26.0    15.3  0.0  0.3985E+03  0.1205E+03  0.2149E+03E
 ACTION:UPD 12-06-08 11:37 OP:RALL STATUS:               ID:20090915023752     I
 2009-09-15-0237-45S.PLUR1_003                                                 6
 STAT SP IPHASW D HRMM SECON CODA AMPLIT PERI AZIMU VELO AIN AR TRES W  DIS CAZ7
 LG3  SZ E         237 54.89                   28.7 35.6      0        2.63 209 
 LG3  SN IP        237 54.90                             166    0.3410 2.63 209 
 LG3  SE IS        237 55.61                             166   -0.3410 2.63 209 
 LG3  SZ  AML      237 55.94         4.2 0.42                          2.63 209 
                                                                                
