 2009  410 1008 35.1 L  21.341 -99.281 10.0  RAL  1 0.8 2.1LRAL                1
 GAP=360        9.71     553.8   583.3  0.0 -0.3230E+06 -0.4888E+05 -0.3924E+04E
 ACTION:UPD 12-06-08 11:37 OP:RALL STATUS:               ID:20090410100835     I
 2009-04-10-1008-28S.PLUR1_003                                                 6
 STAT SP IPHASW D HRMM SECON CODA AMPLIT PERI AZIMU VELO AIN AR TRES W  DIS CAZ7
 LZ4  SN IP       10 8 37.30                             171    0.3310 1.63 136 
 LZ4  SZ E        10 8 37.31                    1.8 13.3     46        1.63 136 
 LZ4  SE IS       10 8 38.00                             171   -0.3310 1.63 136 
 LZ4  SZ  AML     10 8 38.92       640.3 0.20                          1.63 136 
                                                                                
 2009  410 1049 14.8 L  21.276 -99.263 10.0  RAL  2 0.6 1.2LRAL                1
 GAP=257        5.89      31.5    14.3 50.0 -0.1927E+03  0.2487E+03 -0.1051E+04E
 ACTION:UPD 12-06-08 11:37 OP:RALL STATUS:               ID:20090410104914     I
 2009-04-10-1049-03S.PLUR1_006                                                 6
 STAT SP IPHASW D HRMM SECON CODA AMPLIT PERI AZIMU VELO AIN AR TRES W  DIS CAZ7
 LG3  SN IP       1049 17.79                             176    1.1410 1.09  91 
 LG3  SZ E        1049 17.80                  256.0 11.5    -14        1.09  91 
 LG3  SE IS       1049 19.40                             176    1.3910 1.09  91 
 LG3  SZ  AML     1049 19.80       112.1 0.22                          1.09  91 
 LA4  SZ E        1049 18.27                  147.6  8.0    -20        23.5 348 
 LA4  SN IP       1049 18.28                             111   -0.8010 23.5 348 
 LA4  SE IS       1049 20.48                             111   -1.7210 23.5 348 
 LA4  SZ  AML     1049 22.42        27.9 0.56                          23.5 348 
                                                                                
 2009  410 1157 16.4 L  21.347 -99.275 10.0  RAL  1 0.2 1.1LRAL                1
 GAP=360        1.56     999.9   999.9  0.0  0.8913E+07  0.2487E+03 -0.1051E+04E
 ACTION:UPD 12-06-08 11:37 OP:RALL STATUS:               ID:20090410115716     I
 2009-04-10-1157-09S.PLUR1_003                                                 6
 STAT SP IPHASW D HRMM SECON CODA AMPLIT PERI AZIMU VELO AIN AR TRES W  DIS CAZ7
 LZ4  SN IP       1157 18.52                             170    0.3110 1.91 163 
 LZ4  SZ E        1157 18.54                  336.2  6.6     -6        1.91 163 
 LZ4  SE IS       1157 19.25                             170   -0.3110 1.91 163 
 LZ4  SZ  AML     1157 20.02        71.5 0.20                          1.91 163 
                                                                                
 2009  410 1238  3.5 L  21.272 -99.252 21.8  RAL  2 0.4 0.4LRAL                1
 GAP=359        4.21       2.9     9.3 36.0  0.1911E+02  0.8034E+00 -0.2282E+01E
 ACTION:UPD 12-06-08 11:37 OP:RALL STATUS:               ID:20090410123803     I
 2009-04-10-1237-56S.PLUR1_006                                                 6
 STAT SP IPHASW D HRMM SECON CODA AMPLIT PERI AZIMU VELO AIN AR TRES W  DIS CAZ7
 LG3  SZ E        1238  8.45                  171.3 10.1      5        0.43 346 
 LG3  SN IP       1238  8.45                             179    1.2610 0.43 346 
 LG3  SE IS       1238 10.04                             179    0.1810 0.43 346 
 LG3  SZ  AML     1238 10.43        10.3 0.22                          0.43 346 
 LA4  SZ E        1238  8.92                  148.4  6.7    -16        24.2 346 
 LA4  SN IP       1238  8.95                             128    0.1110 24.2 346 
 LA4  SE IS       1238 11.17                             128   -1.5510 24.2 346 
 LA4  SZ  AML     1238 11.77         3.2 0.22                          24.2 346 
                                                                                
 2009  410 1831  1.4 L  21.727 -99.393 10.0  RAL  1 0.0 1.0LRAL                1
 GAP=360        0.30       3.7     1.5  0.0 -0.4491E+01  0.8034E+00 -0.2282E+01E
 ACTION:UPD 12-06-08 11:37 OP:RALL STATUS:               ID:20090410183101     I
 2009-04-10-1830-52S.PLUR1_003                                                 6
 STAT SP IPHASW D HRMM SECON CODA AMPLIT PERI AZIMU VELO AIN AR TRES W  DIS CAZ7
 LA4  SZ E        1831  6.20                  342.1 11.9      0        28.3 162 
 LA4  SN IP       1831  6.39                             105    0.0210 28.3 162 
 LA4  SE IS       1831 10.01                             105   -0.0210 28.3 162 
 LA4  SZ  AML     1831 12.99        18.5 0.50                          28.3 162 
                                                                                
 2009  410 2044 48.1 L  22.019 -99.259 10.0  RAL  1 0.0 1.5LRAL                1
 GAP=360        0.30       3.7     2.1  0.0  0.1492E+00  0.8034E+00 -0.2282E+01E
 ACTION:UPD 12-06-08 11:37 OP:RALL STATUS:               ID:20090410204448     I
 2009-04-10-2044-53S.PLUR1_003                                                 6
 STAT SP IPHASW D HRMM SECON CODA AMPLIT PERI AZIMU VELO AIN AR TRES W  DIS CAZ7
 LZ4  SN IP       2045  0.46                              94    0.0110 76.2 181 
 LZ4  SZ E        2045  0.53                    0.8 13.6      0        76.2 181 
 LZ4  SE IS       2045  9.46                              94   -0.0110 76.2 181 
 LZ4  SZ  AML     2045 13.91        24.8 0.52                          76.2 181 
                                                                                
 2009  410 2126 22.9 L  21.964 -99.277 10.0  RAL  1 0.0 1.3LRAL                1
 GAP=360        0.30       3.7     1.5  0.0  0.8111E+00  0.8034E+00 -0.2282E+01E
 ACTION:UPD 12-06-08 11:37 OP:RALL STATUS:               ID:20090410212622     I
 2009-04-10-2126-20S.PLUR1_003                                                 6
 STAT SP IPHASW D HRMM SECON CODA AMPLIT PERI AZIMU VELO AIN AR TRES W  DIS CAZ7
 LA4  SZ E        2126 31.50                    3.6  8.4      0        53.3 184 
 LA4  SN IP       2126 31.67                              97    0.0110 53.3 184 
 LA4  SE IS       2126 38.09                              97   -0.0110 53.3 184 
 LA4  SZ  AML     2126 42.04        20.3 0.42                          53.3 184 
                                                                                
 2009  411 0318 12.8 L  21.710 -99.318 10.0  RAL  1 0.0 1.1LRAL                1
 GAP=360        0.30       3.9     0.7  0.0 -0.5811E+00  0.8034E+00 -0.2282E+01E
 ACTION:UPD 12-06-08 11:37 OP:RALL STATUS:               ID:20090411031812     I
 2009-04-11-0318-05S.PLUR1_003                                                 6
 STAT SP IPHASW D HRMM SECON CODA AMPLIT PERI AZIMU VELO AIN AR TRES W  DIS CAZ7
 LA4  SN IP        318 17.37                             108    0.0110 25.1 178 
 LA4  SZ E         318 17.41                  357.9 10.5      0        25.1 178 
 LA4  SE IS        318 20.65                             108   -0.0110 25.1 178 
 LA4  SZ  AML      318 21.96        29.5 0.32                          25.1 178 
                                                                                
 2009  411 0333 37.2 L  21.323 -99.271 10.0  RAL  1 0.2 0.2LRAL                1
 GAP=360        1.89     666.8   999.9  0.0 -0.1395E+07  0.8034E+00 -0.2282E+01E
 ACTION:UPD 12-06-08 11:37 OP:RALL STATUS:               ID:20090411033337     I
 2009-04-11-0333-30S.PLUR1_003                                                 6
 STAT SP IPHASW D HRMM SECON CODA AMPLIT PERI AZIMU VELO AIN AR TRES W  DIS CAZ7
 LZ4  SZ E         333 39.42                  199.9 23.6      8        0.94  12 
 LZ4  SN IP        333 39.46                             175    0.4710 0.94  12 
 LZ4  SE IS        333 39.87                             175   -0.4710 0.94  12 
 LZ4  SZ  AML      333 40.22         9.3 0.34                          0.94  12 
                                                                                
 2009  411 0603 25.4 L  21.347 -99.292 10.0  RAL  1 0.2 1.9LRAL                1
 GAP=360        0.73      20.1    28.8  0.0 -0.5794E+03  0.8034E+00 -0.2282E+01E
 ACTION:UPD 12-06-08 11:37 OP:RALL STATUS:               ID:20090411060325     I
 2009-04-11-0603-18S.PLUR1_003                                                 6
 STAT SP IPHASW D HRMM SECON CODA AMPLIT PERI AZIMU VELO AIN AR TRES W  DIS CAZ7
 LZ4  SZ E         6 3 27.78                  306.9 13.4      0        2.91 127 
 LZ4  SN IP        6 3 27.79                             164    0.4510 2.91 127 
 LZ4  SE IS        6 3 28.27                             164   -0.4510 2.91 127 
 LZ4  SZ  AML      6 3 28.41       405.6 0.20                          2.91 127 
                                                                                
 2009  411 0645 48.9 L  21.274 -99.265 11.9  RAL  2 0.3 0.8LRAL                1
 GAP=267        3.01       1.9     6.5 20.8  0.9930E+01  0.1734E+01 -0.7995E+00E
 ACTION:UPD 12-06-08 11:37 OP:RALL STATUS:               ID:20090411064548     I
 2009-04-11-0645-41S.PLUR1_006                                                 6
 STAT SP IPHASW D HRMM SECON CODA AMPLIT PERI AZIMU VELO AIN AR TRES W  DIS CAZ7
 LG3  SZ E         645 51.69                  265.2 16.7      3        1.28  82 
 LG3  SN IP        645 51.77                             178    0.6610 1.28  82 
 LG3  SE IS        645 53.15                             178    0.4610 1.28  82 
 LG3  SZ  AML      645 55.27        32.1 0.48                          1.28  82 
 LA4  SN IP        645 53.09                             117   -0.2810 23.6 349 
 LA4  SZ E         645 53.11                  155.7  8.4    -12        23.6 349 
 LA4  SE IS        645 55.75                             117   -0.8410 23.6 349 
 LA4  SZ  AML      645 57.77        14.1 0.82                          23.6 349 
                                                                                
 2009  411 0741 30.3 L  21.259 -99.224 10.0  RAL  1 0.0 0.8LRAL                1
 GAP=360        0.30       4.7     3.0  0.0 -0.1395E+02  0.1734E+01 -0.7995E+00E
 ACTION:UPD 12-06-08 11:37 OP:RALL STATUS:               ID:20090411074130     I
 2009-04-11-0741-23S.PLUR1_003                                                 6
 STAT SP IPHASW D HRMM SECON CODA AMPLIT PERI AZIMU VELO AIN AR TRES W  DIS CAZ7
 LZ4  SZ E         741 32.69                  149.0 17.1      0        9.25 329 
 LZ4  SN IP        741 32.70                             137    0.0210 9.25 329 
 LZ4  SZ  AML      741 34.17        26.9 0.82                          9.25 329 
 LZ4  SE IS        741 34.41                             137   -0.0210 9.25 329 
                                                                                
 2009  411 0810 36.1 L  21.256 -99.247 10.0  RAL  1 0.1 0.4LRAL                1
 GAP=360        0.37      20.9     5.9  0.0 -0.1224E+03  0.1734E+01 -0.7995E+00E
 ACTION:UPD 12-06-08 11:37 OP:RALL STATUS:               ID:20090411081036     I
 2009-04-11-0810-29S.PLUR1_003                                                 6
 STAT SP IPHASW D HRMM SECON CODA AMPLIT PERI AZIMU VELO AIN AR TRES W  DIS CAZ7
 LG3  SN IP        810 38.17                             168    0.1510 2.28 345 
 LG3  SZ E         810 38.23                  165.3  7.4      0        2.28 345 
 LG3  SE IS        810 39.25                             168   -0.1510 2.28 345 
 LG3  SZ  AML      810 39.38        13.2 0.26                          2.28 345 
                                                                                
 2009  411 0824  1.5 L  21.271 -99.233 10.0  RAL  1 0.1 0.8LRAL                1
 GAP=360        0.41       7.1    26.9  0.0 -0.1899E+03  0.1734E+01 -0.7995E+00E
 ACTION:UPD 12-06-08 11:37 OP:RALL STATUS:               ID:20090411082401     I
 2009-04-11-0823-53S.PLUR1_003                                                 6
 STAT SP IPHASW D HRMM SECON CODA AMPLIT PERI AZIMU VELO AIN AR TRES W  DIS CAZ7
 LG3  SZ E         824  3.52                  105.7 16.3      0        2.06 286 
 LG3  SN IP        824  3.55                             169    0.1910 2.06 286 
 LG3  SE IS        824  4.55                             169   -0.1910 2.06 286 
 LG3  SZ  AML      824  4.87        39.1 0.24                          2.06 286 
                                                                                
 2009  411 0840 17.5 R  20.128 -99.946 10.0  RAL  1 0.0 3.5LRAL                1
 GAP=360        0.30       4.5     4.3  0.0  0.3099E+01  0.1734E+01 -0.7995E+00E
 ACTION:UPD 12-06-08 11:37 OP:RALL STATUS:               ID:20090411084017     I
 2009-04-11-0840-30S.PLUR1_003                                                 6
 STAT SP IPHASW D HRMM SECON CODA AMPLIT PERI AZIMU VELO AIN AR TRES W  DIS CAZ7
 LZ4  SN IP        840 40.62                              52    0.0110  151  28 
 LZ4  SZ E         840 41.06                  208.0 16.9      0         151  28 
 LZ4  SE IS        840 57.48                              52   -0.0110  151  28 
 LZ4  SZ  AML      841  0.16      1051.5 0.58                           151  28 
                                                                                
 2009  411 0922 56.1 R  20.258 -98.631 10.0  RAL  2 0.9 3.2LRAL                1
 GAP=358       16.49     999.9   999.9999.9 -0.2071E+08  0.2988E+08 -0.5115E+08E
 ACTION:UPD 12-06-08 11:37 OP:RALL STATUS:               ID:20090411092256     I
 2009-04-11-0923-04S.PLUR1_009                                                 6
 STAT SP IPHASW D HRMM SECON CODA AMPLIT PERI AZIMU VELO AIN AR TRES W  DIS CAZ7
 LG3  SZ E         923 16.58                   98.2  7.9    -51         130 330 
 LG3  SN IP        923 17.39                              52    0.7110  130 330 
 LG3  SE IS        923 32.08                              52    0.3610  130 330 
 LG3  SZ  AML      923 39.28       556.6 0.46                           130 330 
 LA4  SZ E         923 18.61                  214.1 11.5     62         153 333 
 LA4  SN IP        923 18.69                              52   -0.7810  153 333 
 LA4  SE IS        923 36.27                              52   -0.2910  153 333 
 LA4  SZ  AML      923 37.16       845.6 0.44                           153 333 
                                                                                
 2009  411 1228 36.8 L  21.602 -99.306 10.0  RAL  1 0.0 0.0LRAL                1
 GAP=360        0.30       4.6     0.4  0.0  0.5853E+00  0.2988E+08 -0.5115E+08E
 ACTION:UPD 12-06-08 11:37 OP:RALL STATUS:               ID:20090411122836     I
 2009-04-11-1228-27S.PLUR1_003                                                 6
 STAT SP IPHASW D HRMM SECON CODA AMPLIT PERI AZIMU VELO AIN AR TRES W  DIS CAZ7
 LA4  SZ E        1228 39.62                    1.5  9.0      0        13.1 182 
 LA4  SN IP       1228 39.68                             126    0.0010 13.1 182 
 LA4  SE IS       1228 41.76                             126    0.0010 13.1 182 
 LA4  SZ  AML     1228 42.04         3.3 0.30                          13.1 182 
                                                                                
 2009  411 2143 45.9 L  21.282 -99.227 10.0  RAL  1 0.0 0.5LRAL                1
 GAP=360        0.30       5.1     4.5  0.0 -0.2298E+02  0.2988E+08 -0.5115E+08E
 ACTION:UPD 12-06-08 11:37 OP:RALL STATUS:               ID:20090411214345     I
 2009-04-11-2143-40S.PLUR1_003                                                 6
 STAT SP IPHASW D HRMM SECON CODA AMPLIT PERI AZIMU VELO AIN AR TRES W  DIS CAZ7
 LZ4  SZ E        2143 48.11                  140.9 14.4      0        6.94 321 
 LZ4  SN IP       2143 48.14                             146    0.0310 6.94 321 
 LZ4  SE IS       2143 49.65                             146   -0.0310 6.94 321 
 LZ4  SZ  AML     2143 49.75        13.5 0.34                          6.94 321 
                                                                                
 2009  412 0610 36.3 L  21.351 -99.287 10.0  RAL  1 0.2 0.2LRAL                1
 GAP=360        0.66      23.5    20.2  0.0 -0.4754E+03  0.2988E+08 -0.5115E+08E
 ACTION:UPD 12-06-08 11:37 OP:RALL STATUS:               ID:20090412061036     I
 2009-04-12-0610-29S.PLUR1_003                                                 6
 STAT SP IPHASW D HRMM SECON CODA AMPLIT PERI AZIMU VELO AIN AR TRES W  DIS CAZ7
 LZ4  SZ E         610 38.60                  321.3 89.3      0        2.91 141 
 LZ4  SN IP        610 38.61                             164    0.4010 2.91 141 
 LZ4  SZ  AML      610 39.10         8.2 0.34                          2.91 141 
 LZ4  SE IS        610 39.20                             164   -0.4010 2.91 141 
                                                                                
 2009  412 1315 15.3 L  21.501 -99.329 10.0  RAL  1 0.2 0.5LRAL                1
 GAP=360        0.76      24.7    27.7  0.0 -0.6840E+03  0.2988E+08 -0.5115E+08E
 ACTION:UPD 12-06-08 11:37 OP:RALL STATUS:               ID:20090412131515     I
 2009-04-12-1315-03S.PLUR1_003                                                 6
 STAT SP IPHASW D HRMM SECON CODA AMPLIT PERI AZIMU VELO AIN AR TRES W  DIS CAZ7
 LA4  SZ E        1315 17.70                  313.7 13.4      0        2.84 134 
 LA4  SN IP       1315 17.71                             165    0.4710 2.84 134 
 LA4  SE IS       1315 18.16                             165   -0.4710 2.84 134 
 LA4  SZ  AML     1315 18.20        18.2 0.10                          2.84 134 
                                                                                
 2009  412 1732 20.4 L  21.342 -99.272 10.0  RAL  1 0.1 0.4LRAL                1
 GAP=360        0.55     530.9   999.9  0.0  0.1398E+07  0.2988E+08 -0.5115E+08E
 ACTION:UPD 12-06-08 11:37 OP:RALL STATUS:               ID:20090412173220     I
 2009-04-12-1732-13S.PLUR1_003                                                 6
 STAT SP IPHASW D HRMM SECON CODA AMPLIT PERI AZIMU VELO AIN AR TRES W  DIS CAZ7
 LZ4  SZ E        1732 22.42                  346.7 22.2      0        1.27 166 
 LZ4  SN IP       1732 22.52                             173    0.3110 1.27 166 
 LZ4  SE IS       1732 23.24                             173   -0.3110 1.27 166 
 LZ4  SZ  AML     1732 23.93        13.8 0.28                          1.27 166 
                                                                                
 2009  412 2101 54.9 L  21.578 -99.355 10.0  RAL  1 0.0 0.1LRAL                1
 GAP=360        0.30       4.4     2.2  0.0 -0.9567E+01  0.2988E+08 -0.5115E+08E
 ACTION:UPD 12-06-08 11:37 OP:RALL STATUS:               ID:20090412210154     I
 2009-04-12-2101-45S.PLUR1_003                                                 6
 STAT SP IPHASW D HRMM SECON CODA AMPLIT PERI AZIMU VELO AIN AR TRES W  DIS CAZ7
 LA4  SN IP       21 1 57.57                             130    0.0210 11.4 156 
 LA4  SZ E        21 1 57.59                  335.6 11.1      0        11.4 156 
 LA4  SE IS       21 1 59.47                             130   -0.0210 11.4 156 
 LA4  SZ  AML     21 1 59.63         4.6 0.10                          11.4 156 
                                                                                
