 2009  620 0142 38.4 L  21.654 -99.310 10.0  RAL  1 0.0 0.2LRAL                1
 GAP=360        0.30       4.1     0.5  0.0 -0.9376E-01 -0.2651E+02  0.1824E+02E
 ACTION:UPD 12-06-08 11:37 OP:RALL STATUS:               ID:20090620014238     I
 2009-06-20-0142-31S.PLUR1_003                                                 6
 STAT SP IPHASW D HRMM SECON CODA AMPLIT PERI AZIMU VELO AIN AR TRES W  DIS CAZ7
 LA4  SZ E         142 41.82                  359.7  9.4      0        18.9 180 
 LA4  SN IP        142 41.99                             115    0.0210 18.9 180 
 LA4  SE IS        142 44.60                             115   -0.0210 18.9 180 
 LA4  SZ  AML      142 45.25         4.9 0.32                          18.9 180 
                                                                                
 2009  620 0149 41.0 L  21.264 -99.240 10.0  RAL  1 0.0 1.4LRAL                1
 GAP=360        0.30       5.5     2.4  0.0 -0.1320E+02 -0.2651E+02  0.1824E+02E
 ACTION:UPD 12-06-08 11:37 OP:RALL STATUS:               ID:20090620014941     I
 2009-06-20-0149-33S.PLUR1_003                                                 6
 STAT SP IPHASW D HRMM SECON CODA AMPLIT PERI AZIMU VELO AIN AR TRES W  DIS CAZ7
 LZ4  SZ E         149 43.27                  157.8 12.4      0        8.01 338 
 LZ4  SN IP        149 43.29                             141    0.0110 8.01 338 
 LZ4  SE IS        149 44.91                             141   -0.0110 8.01 338 
 LZ4  SZ  AML      149 45.00       113.8 0.10                          8.01 338 
                                                                                
 2009  620 0917  3.1 L  21.333 -99.289 10.0  RAL  1 0.1 0.7LRAL                1
 GAP=360        0.36     999.9   367.0  0.0  0.1005E+07 -0.2651E+02  0.1824E+02E
 ACTION:UPD 12-06-08 11:37 OP:RALL STATUS:               ID:20090620091703     I
 2009-06-20-0916-55S.PLUR1_003                                                 6
 STAT SP IPHASW D HRMM SECON CODA AMPLIT PERI AZIMU VELO AIN AR TRES W  DIS CAZ7
 LZ4  SN IP        917  5.07                             169    0.1410 2.08  97 
 LZ4  SZ E         917  5.08                  276.9 32.5      0        2.08  97 
 LZ4  SE IS        917  6.15                             169   -0.1410 2.08  97 
 LZ4  SZ  AML      917  6.59        26.2 0.24                          2.08  97 
                                                                                
 2009  620 1225 21.9 L  21.183 -99.300 10.0  RAL  1 0.0 0.3LRAL                1
 GAP=360        0.30       4.4     2.3  0.0  0.1003E+02 -0.2651E+02  0.1824E+02E
 ACTION:UPD 12-06-08 11:37 OP:RALL STATUS:               ID:20090620122521     I
 2009-06-20-1225-17S.PLUR1_003                                                 6
 STAT SP IPHASW D HRMM SECON CODA AMPLIT PERI AZIMU VELO AIN AR TRES W  DIS CAZ7
 LG3  SN IP       1225 24.56                             131    0.0210 11.3  26 
 LG3  SZ E        1225 24.64                  205.7 12.7      0        11.3  26 
 LG3  SE IS       1225 26.45                             131   -0.0210 11.3  26 
 LG3  SZ  AML     1225 27.25         7.8 0.50                          11.3  26 
                                                                                
 2009  620 1449 40.1 L  21.251 -99.333 10.0  RAL  1 0.0 0.7LRAL                1
 GAP=360        0.30       3.9     0.8  0.0  0.1518E+01 -0.2651E+02  0.1824E+02E
 ACTION:UPD 12-06-08 11:37 OP:RALL STATUS:               ID:20090620144940     I
 2009-06-20-1449-30S.PLUR1_003                                                 6
 STAT SP IPHASW D HRMM SECON CODA AMPLIT PERI AZIMU VELO AIN AR TRES W  DIS CAZ7
 LA4  SZ E        1449 44.75                  185.6 13.5      0        25.9   6 
 LA4  SN IP       1449 44.77                             107    0.0110 25.9   6 
 LA4  SE IS       1449 48.13                             107   -0.0110 25.9   6 
 LA4  SZ  AML     1449 48.59        10.1 0.58                          25.9   6 
                                                                                
 2009  620 2241 53.8 L  21.623 -99.288 10.0  RAL  1 0.0 1.2LRAL                1
 GAP=360        0.30       3.8     0.9  0.0 -0.8733E+00 -0.2651E+02  0.1824E+02E
 ACTION:UPD 12-06-08 11:37 OP:RALL STATUS:               ID:20090620224153     I
 2009-06-20-2241-50S.PLUR1_003                                                 6
 STAT SP IPHASW D HRMM SECON CODA AMPLIT PERI AZIMU VELO AIN AR TRES W  DIS CAZ7
 LZ4  SN IP       2241 59.44                             103    0.0110 32.4 177 
 LZ4  SZ E        2241 59.46                  356.6  9.6      0        32.4 177 
 LZ4  SE IS       2242  3.52                             103   -0.0110 32.4 177 
 LZ4  SZ  AML     2242  4.63        27.1 0.22                          32.4 177 
                                                                                
 2009  621 0242 36.1 L  21.337 -99.284 10.0  RAL  1 0.1 0.7LRAL                1
 GAP=360        0.60      20.1    48.1  0.0 -0.9659E+03 -0.2651E+02  0.1824E+02E
 ACTION:UPD 12-06-08 11:37 OP:RALL STATUS:               ID:20090621024236     I
 2009-06-21-0242-29S.PLUR1_003                                                 6
 STAT SP IPHASW D HRMM SECON CODA AMPLIT PERI AZIMU VELO AIN AR TRES W  DIS CAZ7
 LZ4  SZ E         242 38.19                  293.8 13.6      0        1.60 114 
 LZ4  SN IP        242 38.25                             171    0.3510 1.60 114 
 LZ4  SE IS        242 38.90                             171   -0.3510 1.60 114 
 LZ4  SZ  AML      242 38.96        29.8 0.16                          1.60 114 
                                                                                
 2009  621 0333  4.6 L  21.406 -99.284 10.0  RAL  1 0.0-0.1LRAL                1
 GAP=360        0.30       5.3     1.7  0.0 -0.8963E+01 -0.2651E+02  0.1824E+02E
 ACTION:UPD 12-06-08 11:37 OP:RALL STATUS:               ID:20090621033304     I
 2009-06-21-0332-54S.PLUR1_003                                                 6
 STAT SP IPHASW D HRMM SECON CODA AMPLIT PERI AZIMU VELO AIN AR TRES W  DIS CAZ7
 LA4  SN IP        333  7.01                             138    0.0210 9.00 344 
 LA4  SZ E         333  7.04                  163.5 10.6      0        9.00 344 
 LA4  SE IS        333  8.71                             138   -0.0210 9.00 344 
 LA4  SZ  AML      333  9.20         3.8 0.12                          9.00 344 
                                                                                
 2009  622 0129 56.9 L  21.313 -99.255 10.0  RAL  1 0.2 0.7LRAL                1
 GAP=360        0.85      35.3    28.9  0.0 -0.1020E+04 -0.2651E+02  0.1824E+02E
 ACTION:UPD 12-06-08 11:37 OP:RALL STATUS:               ID:20090622012956     I
 2009-06-22-0129-49S.PLUR1_003                                                 6
 STAT SP IPHASW D HRMM SECON CODA AMPLIT PERI AZIMU VELO AIN AR TRES W  DIS CAZ7
 LZ4  SZ E         129 59.32                  142.7 15.9      0        2.52 323 
 LZ4  SN IP        129 59.33                             166    0.5410 2.52 323 
 LZ4  SE IS        129 59.63                             166   -0.5410 2.52 323 
 LZ4  SZ  AML      129 59.65        30.4 0.14                          2.52 323 
                                                                                
 2009  622 0657 16.9 L  21.726 -99.247 10.0  RAL  1 0.0 2.8LRAL                1
 GAP=360        0.30       3.7     1.2  0.0  0.7167E+00 -0.2651E+02  0.1824E+02E
 ACTION:UPD 12-06-08 11:37 OP:RALL STATUS:               ID:20090622065716     I
 2009-06-22-0657-14S.PLUR1_003                                                 6
 STAT SP IPHASW D HRMM SECON CODA AMPLIT PERI AZIMU VELO AIN AR TRES W  DIS CAZ7
 LZ4  SN IP        657 24.21                              99    0.0110 43.8 183 
 LZ4  SZ E         657 24.22                    3.0 10.7      0        43.8 183 
 LZ4  SE IS        657 29.56                              99   -0.0110 43.8 183 
 LZ4  SZ  AML      657 30.74       777.2 0.32                          43.8 183 
                                                                                
 2009  622 0826 35.5 L  21.717 -99.358 10.0  RAL  1 0.0 0.9LRAL                1
 GAP=360        0.30       3.7     1.5  0.0 -0.2813E+01 -0.2651E+02  0.1824E+02E
 ACTION:UPD 12-06-08 11:37 OP:RALL STATUS:               ID:20090622082635     I
 2009-06-22-0826-39S.PLUR1_003                                                 6
 STAT SP IPHASW D HRMM SECON CODA AMPLIT PERI AZIMU VELO AIN AR TRES W  DIS CAZ7
 LZ4  SN IP        826 42.85                              99    0.0110 43.7 168 
 LZ4  SZ E         826 42.92                  347.9 17.9      0        43.7 168 
 LZ4  SZ  AML      826 47.91        10.9 0.76                          43.7 168 
 LZ4  SE IS        826 48.19                              99   -0.0110 43.7 168 
                                                                                
 2009  622 1006 15.7 L  21.693 -99.401 10.0  RAL  1 0.0 1.3LRAL                1
 GAP=360        0.30       3.6     1.7  0.0 -0.4205E+01 -0.2651E+02  0.1824E+02E
 ACTION:UPD 12-06-08 11:37 OP:RALL STATUS:               ID:20090622100615     I
 2009-06-22-1006-14S.PLUR1_003                                                 6
 STAT SP IPHASW D HRMM SECON CODA AMPLIT PERI AZIMU VELO AIN AR TRES W  DIS CAZ7
 LZ4  SN IP       10 6 22.86                              99    0.0110 42.4 161 
 LZ4  SZ E        10 6 22.98                  341.3 10.1      0        42.4 161 
 LZ4  SE IS       10 6 28.04                              99   -0.0110 42.4 161 
 LZ4  SZ  AML     10 6 30.93        30.7 0.30                          42.4 161 
                                                                                
 2009  622 1313 57.5 L  21.376 -99.437 10.0  RAL  1 0.0 0.9LRAL                1
 GAP=360        0.30       1.2     4.2  0.0 -0.4802E+01 -0.2651E+02  0.1824E+02E
 ACTION:UPD 12-06-08 11:37 OP:RALL STATUS:               ID:20090622131357     I
 2009-06-22-1313-52S.PLUR1_003                                                 6
 STAT SP IPHASW D HRMM SECON CODA AMPLIT PERI AZIMU VELO AIN AR TRES W  DIS CAZ7
 LZ4  SZ E        1314  1.01                  286.2 13.3      0        18.1 106 
 LZ4  SN IP       1314  1.04                             116    0.0010 18.1 106 
 LZ4  SE IS       1314  3.59                             116    0.0010 18.1 106 
 LZ4  SZ  AML     1314  3.96        24.2 0.28                          18.1 106 
                                                                                
 2009  622 1459 14.2 L  21.665 -99.274 10.0  RAL  1 0.0 0.5LRAL                1
 GAP=360        0.30       4.0     0.9  0.0  0.2979E+01 -0.2651E+02  0.1824E+02E
 ACTION:UPD 12-06-08 11:37 OP:RALL STATUS:               ID:20090622145914     I
 2009-06-22-1459-06S.PLUR1_003                                                 6
 STAT SP IPHASW D HRMM SECON CODA AMPLIT PERI AZIMU VELO AIN AR TRES W  DIS CAZ7
 LA4  SZ E        1459 18.08                   10.1 11.5      0        20.4 190 
 LA4  SN IP       1459 18.08                             113    0.0210 20.4 190 
 LA4  SE IS       1459 20.84                             113   -0.0210 20.4 190 
 LA4  SZ  AML     1459 25.02         8.9 0.34                          20.4 190 
                                                                                
 2009  622 1610 59.5 L  21.329 -99.256 10.0  RAL  1 0.0 1.0LRAL                1
 GAP=360        0.31     999.9   463.7  0.0  0.1690E+07 -0.2651E+02  0.1824E+02E
 ACTION:UPD 12-06-08 11:37 OP:RALL STATUS:               ID:20090622161059     I
 2009-06-22-1610-52S.PLUR1_003                                                 6
 STAT SP IPHASW D HRMM SECON CODA AMPLIT PERI AZIMU VELO AIN AR TRES W  DIS CAZ7
 LZ4  SN IP       1611  1.39                             172    0.0710 1.40 276 
 LZ4  SZ E        1611  1.44                   96.3 15.5      0        1.40 276 
 LZ4  SE IS       1611  2.60                             172   -0.0710 1.40 276 
 LZ4  SZ  AML     1611  3.64        50.0 0.22                          1.40 276 
                                                                                
 2009  622 1629  2.8 L  21.321 -99.256 10.0  RAL  1 0.2 0.5LRAL                1
 GAP=360        0.92      39.7    56.3  0.0 -0.2239E+04 -0.2651E+02  0.1824E+02E
 ACTION:UPD 12-06-08 11:37 OP:RALL STATUS:               ID:20090622162902     I
 2009-06-22-1628-55S.PLUR1_003                                                 6
 STAT SP IPHASW D HRMM SECON CODA AMPLIT PERI AZIMU VELO AIN AR TRES W  DIS CAZ7
 LZ4  SZ E        1629  5.18                  127.1 12.9      0        1.82 307 
 LZ4  SN IP       1629  5.20                             170    0.5910 1.82 307 
 LZ4  SE IS       1629  5.38                             170   -0.5910 1.82 307 
 LZ4  SZ  AML     1629  5.50        17.2 0.50                          1.82 307 
                                                                                
 2009  622 1924  3.5 L  21.268 -99.235 10.0  RAL  1 0.2 1.5LRAL                1
 GAP=360        0.78      21.6    50.4  0.0 -0.1092E+04 -0.2651E+02  0.1824E+02E
 ACTION:UPD 12-06-08 11:37 OP:RALL STATUS:               ID:20090622192403     I
 2009-06-22-1923-56S.PLUR1_003                                                 6
 STAT SP IPHASW D HRMM SECON CODA AMPLIT PERI AZIMU VELO AIN AR TRES W  DIS CAZ7
 LG3  SZ E        1924  5.82                  114.7 28.7      0        1.99 295 
 LG3  SN IP       1924  5.83                             169    0.4910 1.99 295 
 LG3  SE IS       1924  6.23                             169   -0.4910 1.99 295 
 LG3  SZ  AML     1924  6.89       176.8 0.16                          1.99 295 
                                                                                
 2009  623 1509 12.2 L  21.332 -99.438 10.0  RAL  1 0.0 0.5LRAL                1
 GAP=360        0.30       0.5     4.5  0.0 -0.8030E-01 -0.2651E+02  0.1824E+02E
 ACTION:UPD 12-06-08 11:37 OP:RALL STATUS:               ID:20090623150912     I
 2009-06-23-1509-08S.PLUR1_003                                                 6
 STAT SP IPHASW D HRMM SECON CODA AMPLIT PERI AZIMU VELO AIN AR TRES W  DIS CAZ7
 LZ4  SZ E        15 9 15.64                  270.3 20.3      0        17.5  90 
 LZ4  SN IP       15 9 15.68                             117    0.0210 17.5  90 
 LZ4  SE IS       15 9 18.14                             117   -0.0210 17.5  90 
 LZ4  SZ  AML     15 9 18.71         8.5 0.18                          17.5  90 
                                                                                
 2009  624 0449  3.9 L  21.395 -99.481 10.0  RAL  1 0.0 0.7LRAL                1
 GAP=360        0.30       1.3     4.0  0.0 -0.4801E+01 -0.2651E+02  0.1824E+02E
 ACTION:UPD 12-06-08 11:37 OP:RALL STATUS:               ID:20090624044903     I
 2009-06-24-0449-02S.PLUR1_003                                                 6
 STAT SP IPHASW D HRMM SECON CODA AMPLIT PERI AZIMU VELO AIN AR TRES W  DIS CAZ7
 LZ4  SZ E         449  8.07                  288.0 29.5      0        23.0 108 
 LZ4  SN IP        449  8.08                             110    0.0210 23.0 108 
 LZ4  SE IS        449 11.11                             110   -0.0210 23.0 108 
 LZ4  SZ  AML      449 12.59        11.5 0.72                          23.0 108 
                                                                                
 2009  624 1034 27.7 L  21.247 -99.240 10.0  RAL  1 0.0 0.8LRAL                1
 GAP=360        0.30       5.0     1.8  0.0 -0.8880E+01 -0.2651E+02  0.1824E+02E
 ACTION:UPD 12-06-08 11:37 OP:RALL STATUS:               ID:20090624103427     I
 2009-06-24-1034-22S.PLUR1_003                                                 6
 STAT SP IPHASW D HRMM SECON CODA AMPLIT PERI AZIMU VELO AIN AR TRES W  DIS CAZ7
 LZ4  SZ E        1034 30.07                  161.7 14.1      0        9.73 342 
 LZ4  SN IP       1034 30.12                             135    0.0110 9.73 342 
 LZ4  SE IS       1034 31.87                             135   -0.0110 9.73 342 
 LZ4  SZ  AML     1034 33.37        24.3 0.52                          9.73 342 
                                                                                
 2009  624 1456 46.7 L  22.004 -99.236 10.0  RAL  1 0.0 0.7LRAL                1
 GAP=360        0.30       3.7     1.7  0.0  0.1620E+01 -0.2651E+02  0.1824E+02E
 ACTION:UPD 12-06-08 11:37 OP:RALL STATUS:               ID:20090624145646     I
 2009-06-24-1456-49S.PLUR1_003                                                 6
 STAT SP IPHASW D HRMM SECON CODA AMPLIT PERI AZIMU VELO AIN AR TRES W  DIS CAZ7
 LA4  SN IP       1456 56.25                              96    0.0110 58.1 188 
 LA4  SZ E        1456 56.45                    7.5 21.2      0        58.1 188 
 LA4  SE IS       1457  3.21                              96   -0.0110 58.1 188 
 LA4  SZ  AML     1457  7.78         5.6 0.58                          58.1 188 
                                                                                
 2009  625 0352 54.0 L  21.646 -99.464 10.0  RAL  1 0.0 0.9LRAL                1
 GAP=360        0.30       3.3     2.2  0.0 -0.6071E+01 -0.2651E+02  0.1824E+02E
 ACTION:UPD 12-06-08 11:37 OP:RALL STATUS:               ID:20090625035254     I
 2009-06-25-0352-56S.PLUR1_003                                                 6
 STAT SP IPHASW D HRMM SECON CODA AMPLIT PERI AZIMU VELO AIN AR TRES W  DIS CAZ7
 LZ4  SN IP        353  0.83                             100    0.0210 40.3 150 
 LZ4  SZ E         353  0.92                  330.1 36.1      0        40.3 150 
 LZ4  SE IS        353  5.77                             100   -0.0210 40.3 150 
 LZ4  SZ  AML      353  6.64        12.6 0.60                          40.3 150 
                                                                                
 2009  625 0722 46.6 L  21.150 -99.206 10.0  RAL  1 0.0 0.6LRAL                1
 GAP=360        0.30       3.8     1.5  0.0 -0.5058E+01 -0.2651E+02  0.1824E+02E
 ACTION:UPD 12-06-08 11:37 OP:RALL STATUS:               ID:20090625072246     I
 2009-06-25-0722-44S.PLUR1_003                                                 6
 STAT SP IPHASW D HRMM SECON CODA AMPLIT PERI AZIMU VELO AIN AR TRES W  DIS CAZ7
 LZ4  SZ E         722 50.56                  161.7 21.5      0        21.1 342 
 LZ4  SN IP        722 50.57                             112    0.0210 21.1 342 
 LZ4  SE IS        722 53.39                             112   -0.0210 21.1 342 
 LZ4  SZ  AML      722 54.77         9.8 0.78                          21.1 342 
                                                                                
 2009  625 1005 12.6 R  22.089-100.442 10.0  RAL  1 0.0 1.7LRAL                1
 GAP=360        0.30       4.2     4.8  0.0 -0.3424E+01 -0.2651E+02  0.1824E+02E
 ACTION:UPD 12-06-08 11:37 OP:RALL STATUS:               ID:20090625100512     I
 2009-06-25-1005-28S.PLUR1_003                                                 6
 STAT SP IPHASW D HRMM SECON CODA AMPLIT PERI AZIMU VELO AIN AR TRES W  DIS CAZ7
 LG3  SZ E        10 5 35.66                  306.4 23.1      0         153 126 
 LG3  SN IP       10 5 35.94                              52    0.0110  153 126 
 LG3  SE IS       10 5 52.98                              52   -0.0110  153 126 
 LG3  SZ  AML     10 5 55.11        17.2 0.28                           153 126 
                                                                                
