 2009  119 0108 19.9 L  21.652 -99.380 10.0  RAL  1 0.0 0.3LRAL                1
 GAP=360        0.30       3.8     1.7  0.0 -0.5839E+01 -0.2077E+03  0.1203E+05E
 ACTION:UPD 12-06-08 11:37 OP:RALL STATUS:               ID:20090119010819     I
 2009-01-19-0108-12S.PLUR1_003                                                 6
 STAT SP IPHASW D HRMM SECON CODA AMPLIT PERI AZIMU VELO AIN AR TRES W  DIS CAZ7
 LA4  SZ E         1 8 23.63                  338.6 11.4      0        20.1 159 
 LA4  SN IP        1 8 23.72                             114    0.0010 20.1 159 
 LA4  SE IS        1 8 26.48                             114    0.0010 20.1 159 
 LA4  SZ  AML      1 8 28.02         5.1 0.40                          20.1 159 
                                                                                
 2009  119 0426 19.0 L  21.745 -99.674 10.0  RAL  1 0.0 1.2LRAL                1
 GAP=360        0.30       3.0     3.0  0.0 -0.6028E+01 -0.2077E+03  0.1203E+05E
 ACTION:UPD 12-06-08 11:37 OP:RALL STATUS:               ID:20090119042619     I
 2009-01-19-0426-22S.PLUR1_003                                                 6
 STAT SP IPHASW D HRMM SECON CODA AMPLIT PERI AZIMU VELO AIN AR TRES W  DIS CAZ7
 LZ4  SN IP        426 29.23                              96    0.0110 62.1 138 
 LZ4  SZ E         426 30.44                  317.7  9.8      0        62.1 138 
 LZ4  SE IS        426 36.63                              96   -0.0110 62.1 138 
 LZ4  SZ  AML      426 41.56        15.7 0.52                          62.1 138 
                                                                                
 2009  119 0534 15.7 L  21.334 -99.267 10.0  RAL  1 0.4 1.8LRAL                1
 GAP=360        4.74     150.4   999.9  0.0  0.3712E+06 -0.2077E+03  0.1203E+05E
 ACTION:UPD 12-06-08 11:37 OP:RALL STATUS:               ID:20090119053415     I
 2009-01-19-0534-09S.PLUR1_003                                                 6
 STAT SP IPHASW D HRMM SECON CODA AMPLIT PERI AZIMU VELO AIN AR TRES W  DIS CAZ7
 LZ4  SZ E         534 18.15                   61.0  9.5     22        0.39 219 
 LZ4  SN IP        534 18.15                             178    0.6510 0.39 219 
 LZ4  SE IS        534 18.19                             178   -0.6510 0.39 219 
 LZ4  SZ  AML      534 18.34       344.4 0.06                          0.39 219 
                                                                                
 2009  119 0710 39.4 L  21.259 -99.251 10.0  RAL  1 0.0 0.4LRAL                1
 GAP=360        0.30       5.7     1.5  0.0 -0.8262E+01 -0.2077E+03  0.1203E+05E
 ACTION:UPD 12-06-08 11:37 OP:RALL STATUS:               ID:20090119071039     I
 2009-01-19-0710-33S.PLUR1_003                                                 6
 STAT SP IPHASW D HRMM SECON CODA AMPLIT PERI AZIMU VELO AIN AR TRES W  DIS CAZ7
 LZ4  SZ E         710 41.64                  166.7  9.8      0        8.14 347 
 LZ4  SN IP        710 41.64                             141    0.0110 8.14 347 
 LZ4  SE IS        710 43.27                             141   -0.0110 8.14 347 
 LZ4  SZ  AML      710 44.31        11.5 0.22                          8.14 347 
                                                                                
 2009  119 0744  1.3 L  21.267 -99.250 10.0  RAL  1 0.2 0.7LRAL                1
 GAP=360        1.69       2.2   797.6  0.0 -0.1024E+04 -0.2077E+03  0.1203E+05E
 ACTION:UPD 12-06-08 11:37 OP:RALL STATUS:               ID:20090119074401     I
 2009-01-19-0743-54S.PLUR1_003                                                 6
 STAT SP IPHASW D HRMM SECON CODA AMPLIT PERI AZIMU VELO AIN AR TRES W  DIS CAZ7
 LG3  SZ E         744  3.45                  169.9 10.6      8        0.97 342 
 LG3  SN IP        744  3.47                             175    0.2610 0.97 342 
 LG3  SE IS        744  4.30                             175   -0.2610 0.97 342 
 LG3  SZ  AML      744  4.40        28.9 0.30                          0.97 342 
                                                                                
 2009  119 2139 26.9 L  21.270 -99.258  8.9  RAL  2 0.2 0.6LRAL                1
 GAP=309        4.10       2.1     2.8 36.5  0.2902E+00  0.3396E+00 -0.6480E+00E
 ACTION:UPD 12-06-08 11:37 OP:RALL STATUS:               ID:20090119213926     I
 2009-01-19-2139-20S.PLUR1_006                                                 6
 STAT SP IPHASW D HRMM SECON CODA AMPLIT PERI AZIMU VELO AIN AR TRES W  DIS CAZ7
 LG3  SZ E        2139 28.87                  230.3 32.3      9        0.87  41 
 LG3  SN IP       2139 28.93                             172    0.3010 0.87  41 
 LG3  SE IS       2139 29.79                             172   -0.0810 0.87  41 
 LG3  SZ  AML     2139 29.89        17.7 0.10                          0.87  41 
 LZ4  SN IP       2139 29.01                             138    0.0510 6.86 350 
 LZ4  SZ E        2139 29.06                  152.2 15.7    -17        6.86 350 
 LZ4  SE IS       2139 30.16                             138   -0.2710 6.86 350 
 LZ4  SZ  AML     2139 30.21        32.9 0.22                          6.86 350 
                                                                                
 2009  120 0044 52.4 L  21.347 -99.241 10.0  RAL  1 0.1 0.6LRAL                1
 GAP=360        0.38       7.8    13.4  0.0  0.1049E+03  0.3396E+00 -0.6480E+00E
 ACTION:UPD 12-06-08 11:37 OP:RALL STATUS:               ID:20090120004452     I
 2009-01-20-0044-46S.PLUR1_003                                                 6
 STAT SP IPHASW D HRMM SECON CODA AMPLIT PERI AZIMU VELO AIN AR TRES W  DIS CAZ7
 LZ4  SN IP        044 54.47                             161    0.1610 3.48 238 
 LZ4  SZ E         044 54.48                   58.1 51.8      0        3.48 238 
 LZ4  SE IS        044 55.55                             161   -0.1610 3.48 238 
 LZ4  SZ  AML      044 56.79        22.2 0.24                          3.48 238 
                                                                                
 2009  120 0811 18.4 L  21.260 -99.244 10.0  RAL  1 0.1 0.3LRAL                1
 GAP=360        0.61     999.9   999.9  0.0  0.4416E+07  0.3396E+00 -0.6480E+00E
 ACTION:UPD 12-06-08 11:37 OP:RALL STATUS:               ID:20090120081118     I
 2009-01-20-0811-11S.PLUR1_003                                                 6
 STAT SP IPHASW D HRMM SECON CODA AMPLIT PERI AZIMU VELO AIN AR TRES W  DIS CAZ7
 LG3  SZ E         811 20.61                  154.0 11.9      0        1.96 335 
 LG3  SN IP        811 20.64                             169    0.3510 1.96 335 
 LG3  SE IS        811 21.31                             169   -0.3510 1.96 335 
 LG3  SZ  AML      811 21.44        10.7 0.10                          1.96 335 
                                                                                
 2009  120 0813 41.7 L  21.199 -99.134  0.0  RAL  2 0.6 0.5LRAL                1
 GAP=349       10.13      53.4    71.7999.9 -0.3705E+04 -0.5795E+05  0.4248E+05E
 ACTION:UPD 12-06-08 11:37 OP:RALL STATUS:               ID:20090120081341     I
 2009-01-20-0813-35S.PLUR1_006                                                 6
 STAT SP IPHASW D HRMM SECON CODA AMPLIT PERI AZIMU VELO AIN AR TRES W  DIS CAZ7
 LG3  SZ E         813 44.93                  153.8 16.5     29        14.9 305 
 LG3  SN IP        813 44.98                              94    0.6410 14.9 305 
 LG3  SE IS        813 45.88                              94   -0.3710 14.9 305 
 LG3  SZ  AML      813 46.00        13.8 0.28                          14.9 305 
 LZ4  SN IP        813 45.61                              93    0.3510 20.3 316 
 LZ4  SZ E         813 45.62                   96.3 16.2    -39        20.3 316 
 LZ4  SE IS        813 47.23                              93   -0.6210 20.3 316 
 LZ4  SZ  AML      813 48.30         9.4 0.18                          20.3 316 
                                                                                
 2009  120 0910 29.1 L  21.560 -99.397 10.0  RAL  1 0.0 1.1LRAL                1
 GAP=360        0.30       3.4     2.0  0.0 -0.6304E+01 -0.5795E+05  0.4248E+05E
 ACTION:UPD 12-06-08 11:37 OP:RALL STATUS:               ID:20090120091029     I
 2009-01-20-0910-26S.PLUR1_003                                                 6
 STAT SP IPHASW D HRMM SECON CODA AMPLIT PERI AZIMU VELO AIN AR TRES W  DIS CAZ7
 LZ4  SN IP        910 34.15                             105    0.0210 28.6 152 
 LZ4  SZ E         910 34.18                  332.4 19.4      0        28.6 152 
 LZ4  SE IS        910 37.78                             105   -0.0210 28.6 152 
 LZ4  SZ  AML      910 40.67        23.8 0.52                          28.6 152 
                                                                                
 2009  120 1432 10.7 L  21.351 -99.283 10.0  RAL  1 0.1 1.2LRAL                1
 GAP=360        0.60      25.6    17.0  0.0 -0.4360E+03 -0.5795E+05  0.4248E+05E
 ACTION:UPD 12-06-08 11:37 OP:RALL STATUS:               ID:20090120143210     I
 2009-01-20-1432-03S.PLUR1_003                                                 6
 STAT SP IPHASW D HRMM SECON CODA AMPLIT PERI AZIMU VELO AIN AR TRES W  DIS CAZ7
 LZ4  SZ E        1432 12.97                  328.3 20.4      0        2.64 148 
 LZ4  SN IP       1432 12.98                             166    0.3510 2.64 148 
 LZ4  SE IS       1432 13.65                             166   -0.3510 2.64 148 
 LZ4  SZ  AML     1432 13.68        85.6 0.18                          2.64 148 
                                                                                
 2009  120 1527 22.9 L  21.339 -99.273 10.0  RAL  1 0.2 0.9LRAL                1
 GAP=360        0.72     801.8   999.9  0.0  0.1946E+07 -0.5795E+05  0.4248E+05E
 ACTION:UPD 12-06-08 11:37 OP:RALL STATUS:               ID:20090120152722     I
 2009-01-20-1527-15S.PLUR1_003                                                 6
 STAT SP IPHASW D HRMM SECON CODA AMPLIT PERI AZIMU VELO AIN AR TRES W  DIS CAZ7
 LZ4  SZ E        1527 25.13                  339.6  8.8      1        0.95 158 
 LZ4  SN IP       1527 25.13                             175    0.3910 0.95 158 
 LZ4  SE IS       1527 25.69                             175   -0.3910 0.95 158 
 LZ4  SZ  AML     1527 25.97        42.2 0.16                          0.95 158 
                                                                                
 2009  120 2111 36.1 L  21.472 -99.310 10.0  RAL  1 0.2 0.8LRAL                1
 GAP=360        2.45     247.6    17.4  0.0  0.4312E+04 -0.5795E+05  0.4248E+05E
 ACTION:UPD 12-06-08 11:37 OP:RALL STATUS:               ID:20090120211136     I
 2009-01-20-2111-24S.PLUR1_003                                                 6
 STAT SP IPHASW D HRMM SECON CODA AMPLIT PERI AZIMU VELO AIN AR TRES W  DIS CAZ7
 LA4  SZ E        2111 38.34                  172.5 10.1    -10        1.29   4 
 LA4  SN IP       2111 38.36                             173    0.4110 1.29   4 
 LA4  SZ  AML     2111 38.87        32.7 0.24                          1.29   4 
 LA4  SE IS       2111 38.89                             173   -0.4110 1.29   4 
                                                                                
 2009  121 0007  1.4 L  21.612 -99.366 10.0  RAL  1 0.0 0.1LRAL                1
 GAP=360        0.30       4.0     1.8  0.0 -0.7073E+01 -0.5795E+05  0.4248E+05E
 ACTION:UPD 12-06-08 11:37 OP:RALL STATUS:               ID:20090121000701     I
 2009-01-21-0006-53S.PLUR1_003                                                 6
 STAT SP IPHASW D HRMM SECON CODA AMPLIT PERI AZIMU VELO AIN AR TRES W  DIS CAZ7
 LA4  SZ E         0 7  4.43                  337.4 10.1      0        15.4 157 
 LA4  SN IP        0 7  4.59                             121    0.0110 15.4 157 
 LA4  SE IS        0 7  6.87                             121   -0.0110 15.4 157 
 LA4  SZ  AML      0 7  8.22         4.3 0.70                          15.4 157 
                                                                                
 2009  121 0601  3.5 L  21.236 -99.254 10.0  RAL  2 0.1 0.2LRAL                1
 GAP=349        1.05       4.9     0.4 10.0  0.4357E+00  0.8304E-01  0.3986E+01E
 ACTION:UPD 12-06-08 11:37 OP:RALL STATUS:               ID:20090121060103     I
 2009-01-21-0600-57S.PLUR1_006                                                 6
 STAT SP IPHASW D HRMM SECON CODA AMPLIT PERI AZIMU VELO AIN AR TRES W  DIS CAZ7
 LG3  SZ E         6 1  5.95                  181.2 34.7      0        4.43   2 
 LG3  SN IP        6 1  6.00                             157    0.4810 4.43   2 
 LG3  SE IS        6 1  6.87                             157   -0.1110 4.43   2 
 LG3  SZ  AML      6 1  7.42         6.7 0.12                          4.43   2 
 LZ4  SN IP        6 1  6.19                             133    0.1210 10.6 351 
 LZ4  SZ E         6 1  6.29                  174.7 22.3      3        10.6 351 
 LZ4  SE IS        6 1  7.44                             133   -0.4910 10.6 351 
 LZ4  SZ  AML      6 1  7.92         8.9 0.16                          10.6 351 
                                                                                
 2009  121 0606 27.1 L  21.311 -99.253 10.0  RAL  1 0.1 0.2LRAL                1
 GAP=360        0.54      20.7    16.4  0.0 -0.3398E+03  0.8304E-01  0.3986E+01E
 ACTION:UPD 12-06-08 11:37 OP:RALL STATUS:               ID:20090121060627     I
 2009-01-21-0606-20S.PLUR1_003                                                 6
 STAT SP IPHASW D HRMM SECON CODA AMPLIT PERI AZIMU VELO AIN AR TRES W  DIS CAZ7
 LZ4  SN IP        6 6 29.25                             165    0.3010 2.79 323 
 LZ4  SZ E         6 6 29.27                  143.4 34.8      0        2.79 323 
 LZ4  SE IS        6 6 30.02                             165   -0.3010 2.79 323 
 LZ4  SZ  AML      6 6 30.87         9.2 0.48                          2.79 323 
                                                                                
 2009  121 0612 13.2 L  21.475 -99.308 10.0  RAL  1 0.1-0.1LRAL                1
 GAP=360        0.66      78.6   999.9  0.0  0.2150E+06  0.8304E-01  0.3986E+01E
 ACTION:UPD 12-06-08 11:37 OP:RALL STATUS:               ID:20090121061213     I
 2009-01-21-0612-01S.PLUR1_003                                                 6
 STAT SP IPHASW D HRMM SECON CODA AMPLIT PERI AZIMU VELO AIN AR TRES W  DIS CAZ7
 LA4  SZ E         612 15.43                  176.9  9.7      1        0.92 356 
 LA4  SN IP        612 15.43                             175    0.3910 0.92 356 
 LA4  SE IS        612 16.01                             175   -0.3910 0.92 356 
 LA4  SZ  AML      612 16.06         4.8 0.24                          0.92 356 
                                                                                
 2009  121 0626 42.4 R  20.367 -98.611 10.0  RAL  1 0.0 1.9LRAL                1
 GAP=360        0.30       3.5     3.5  0.0 -0.1942E+01  0.8304E-01  0.3986E+01E
 ACTION:UPD 12-06-08 11:37 OP:RALL STATUS:               ID:20090121062642     I
 2009-01-21-0626-53S.PLUR1_003                                                 6
 STAT SP IPHASW D HRMM SECON CODA AMPLIT PERI AZIMU VELO AIN AR TRES W  DIS CAZ7
 LG3  SZ E         627  1.54                  146.3  9.8      0         121 327 
 LG3  SN IP        627  1.70                              93    0.0010  121 327 
 LG3  SE IS        627 15.76                              93    0.0010  121 327 
 LG3  SZ  AML      627 21.06        39.6 0.28                           121 327 
                                                                                
 2009  121 0753 17.2 L  21.275 -99.244 10.0  RAL  1 0.2-0.1LRAL                1
 GAP=360        2.62     999.9   999.9  0.0  0.2677E+09  0.8304E-01  0.3986E+01E
 ACTION:UPD 12-06-08 11:37 OP:RALL STATUS:               ID:20090121075317     I
 2009-01-21-0753-10S.PLUR1_003                                                 6
 STAT SP IPHASW D HRMM SECON CODA AMPLIT PERI AZIMU VELO AIN AR TRES W  DIS CAZ7
 LG3  SN IP        753 19.37                             175    0.3010 0.85 278 
 LG3  SZ E         753 19.37                  110.0 11.1     12        0.85 278 
 LG3  SE IS        753 20.13                             175   -0.3010 0.85 278 
 LG3  SZ  AML      753 20.85         4.6 0.64                          0.85 278 
                                                                                
 2009  121 0758 28.0 L  21.716 -99.501 10.0  RAL  2 0.8 0.8LRAL                1
 GAP=358        3.46     226.3   138.3999.9 -0.3103E+05  0.2419E+06 -0.3975E+06E
 ACTION:UPD 12-06-08 11:37 OP:RALL STATUS:               ID:20090121075828     I
 2009-01-21-0758-32S.PLUR1_006                                                 6
 STAT SP IPHASW D HRMM SECON CODA AMPLIT PERI AZIMU VELO AIN AR TRES W  DIS CAZ7
 LZ4  SZ E         758 38.17                                           48.9 151 
 LZ4  SZ IP        758 38.17                              98    2.0510 48.9 151 
 LZ4  SN E         758 38.29                  330.8 11.9      0        48.9 151 
 LZ4  SE IS        758 42.06                              98    0.0110 48.9 151 
 LZ4  SN  AML      758 42.08         6.8 0.16                          48.9 151 
 LG3  SZ IP     C  758 35.03                              97   -2.0610 55.1 152 
                                                                                
 2009  121 0844 46.9 L  21.214 -99.147 12.7  RAL  2 0.0 0.3LRAL                1
 GAP=346        0.29       1.3     1.9  4.2 -0.2402E+01 -0.3667E+01  0.2512E+01E
 ACTION:UPD 12-06-08 11:37 OP:RALL STATUS:               ID:20090121084446     I
 2009-01-21-0844-42S.PLUR1_006                                                 6
 STAT SP IPHASW D HRMM SECON CODA AMPLIT PERI AZIMU VELO AIN AR TRES W  DIS CAZ7
 LG3  SZ E         844 49.92                  122.1 10.7      0        12.9 302 
 LG3  SN IP        844 49.97                             134    0.0110 12.9 302 
 LG3  SE IS        844 52.24                             134    0.0210 12.9 302 
 LG3  SZ  AML      844 52.45         4.8 0.26                          12.9 302 
 LZ4  SZ E         844 50.58                  135.5 38.2      0        18.1 316 
 LZ4  SN IP        844 50.58                             124    0.0010 18.1 316 
 LZ4  SE IS        844 53.25                             124   -0.0410 18.1 316 
 LZ4  SZ  AML      844 54.56         8.2 0.30                          18.1 316 
                                                                                
 2009  121 1015 56.1 R  22.256-100.297 19.2  RAL  2 1.0 2.1LRAL                1
 GAP=359       17.28     999.9   999.9999.9 -0.1304E+09 -0.2360E+09  0.2136E+09E
 ACTION:UPD 12-06-08 11:37 OP:RALL STATUS:               ID:20090121101556     I
 2009-01-21-1016-09S.PLUR1_006                                                 6
 STAT SP IPHASW D HRMM SECON CODA AMPLIT PERI AZIMU VELO AIN AR TRES W  DIS CAZ7
 LZ4  SZ E        1016 18.14                   12.8 11.6     59         148 134 
 LZ4  SN IP       1016 18.24                              52    0.2910  148 134 
 LZ4  SE IS       1016 33.67                              52   -0.2310  148 134 
 LZ4  SZ  AML     1016 40.93        43.7 0.54                           148 134 
 LG3  SZ E        1016 18.41                  254.4 14.3    -60         153 135 
 LG3  SN IP       1016 18.42                              52   -0.2210  153 135 
 LG3  SE IS       1016 35.27                              52    0.1710  153 135 
 LG3  SZ  AML     1016 39.84        46.1 0.78                           153 135 
                                                                                
