 2009  7 1 2148 35.1 R  20.356 -98.983 10.0  RAL  1 0.0 2.0LRAL                1
 GAP=360        0.30       3.6     3.2  0.0 -0.1453E+01 -0.2651E+02  0.1824E+02E
 ACTION:UPD 12-06-08 11:37 OP:RALL STATUS:               ID:20090701214835     I
 2009-07-01-2148-44S.PLUR1_003                                                 6
 STAT SP IPHASW D HRMM SECON CODA AMPLIT PERI AZIMU VELO AIN AR TRES W  DIS CAZ7
 LZ4  SZ E        2148 52.90                  164.5 17.1      0         112 345 
 LZ4  SN IP       2148 52.97                              93    0.0010  112 345 
 LZ4  SE IS       2149  6.03                              93    0.0010  112 345 
 LZ4  SZ  AML     2149  7.44        48.4 0.20                           112 345 
                                                                                
 2009  7 1 2218 27.9 L  21.758 -99.521 10.0  RAL  1 0.0 1.2LRAL                1
 GAP=360        0.30       3.3     2.3  0.0 -0.5430E+01 -0.2651E+02  0.1824E+02E
 ACTION:UPD 12-06-08 11:37 OP:RALL STATUS:               ID:20090701221827     I
 2009-07-01-2218-34S.PLUR1_003                                                 6
 STAT SP IPHASW D HRMM SECON CODA AMPLIT PERI AZIMU VELO AIN AR TRES W  DIS CAZ7
 LZ4  SZ E        2218 36.82                  331.2 17.4      0        54.0 151 
 LZ4  SN IP       2218 36.85                              97    0.0110 54.0 151 
 LZ4  SE IS       2218 43.34                              97   -0.0110 54.0 151 
 LZ4  SZ  AML     2218 44.91        17.8 0.76                          54.0 151 
                                                                                
 2009  7 1 2248 10.9 L  21.337 -99.256 10.0  RAL  1 0.3                        1
 GAP=360        3.42     999.9   999.9  0.0 -0.4573E+08 -0.2651E+02  0.1824E+02E
 ACTION:UPD 12-06-08 11:37 OP:RALL STATUS:               ID:20090701224810     I
 2009-07-01-2248-03S.PLUR1_003                                                 6
 STAT SP IPHASW D HRMM SECON CODA AMPLIT PERI AZIMU VELO AIN AR TRES W  DIS CAZ7
 LZ4  SN IP       2248 13.24                             171    0.4710 1.55 244 
 LZ4  SZ E        2248 13.24                   80.0 29.6     16        1.55 244 
 LZ4  SE IS       2248 13.65                             171   -0.4710 1.55 244 
                                                                                
 2009  7 1 2336 52.1 L  21.461 -99.475 10.0  RAL  1 0.0 0.9LRAL                1
 GAP=360        0.30       2.2     3.5  0.0 -0.7233E+01 -0.2651E+02  0.1824E+02E
 ACTION:UPD 12-06-08 11:37 OP:RALL STATUS:               ID:20090701233652     I
 2009-07-01-2336-50S.PLUR1_003                                                 6
 STAT SP IPHASW D HRMM SECON CODA AMPLIT PERI AZIMU VELO AIN AR TRES W  DIS CAZ7
 LZ4  SZ E        2336 56.74                  304.1 12.8      0        25.7 124 
 LZ4  SN IP       2336 56.76                             107    0.0010 25.7 124 
 LZ4  SE IS       2337  0.12                             107    0.0010 25.7 124 
 LZ4  SZ  AML     2337  0.82        17.9 0.66                          25.7 124 
                                                                                
 2009  7 2 0000 48.0 L  21.443 -98.935 10.0  RAL  1 0.0 1.0LRAL                1
 GAP=360        0.30       1.6     3.8  0.0  0.4535E+01 -0.2651E+02  0.1824E+02E
 ACTION:UPD 12-06-08 11:37 OP:RALL STATUS:               ID:20090702000048     I
 2009-07-02-0000-49S.PLUR1_003                                                 6
 STAT SP IPHASW D HRMM SECON CODA AMPLIT PERI AZIMU VELO AIN AR TRES W  DIS CAZ7
 LZ4  SZ E         0 0 54.33                   70.2 22.4      0        36.8 250 
 LZ4  SN IP        0 0 54.34                             101    0.0110 36.8 250 
 LZ4  SE IS        0 0 58.90                             101   -0.0110 36.8 250 
 LZ4  SZ  AML      0 1  0.53        14.4 0.76                          36.8 250 
                                                                                
 2009  7 2 0344 12.6 L  21.314 -99.252 10.0  RAL  1 0.2 1.3LRAL                1
 GAP=360        0.76      28.3    28.8  0.0 -0.8135E+03 -0.2651E+02  0.1824E+02E
 ACTION:UPD 12-06-08 11:37 OP:RALL STATUS:               ID:20090702034412     I
 2009-07-02-0344-05S.PLUR1_003                                                 6
 STAT SP IPHASW D HRMM SECON CODA AMPLIT PERI AZIMU VELO AIN AR TRES W  DIS CAZ7
 LZ4  SN IP        344 14.98                             166    0.4810 2.60 317 
 LZ4  SZ E         344 15.00                  136.5 17.7      0        2.60 317 
 LZ4  SE IS        344 15.40                             166   -0.4810 2.60 317 
 LZ4  SZ  AML      344 15.50       108.4 0.10                          2.60 317 
                                                                                
 2009  7 2 0711 58.8 L  21.339 -99.292 10.0  RAL  1 0.1-0.1LRAL                1
 GAP=360        0.42       7.7    22.6  0.0 -0.1730E+03 -0.2651E+02  0.1824E+02E
 ACTION:UPD 12-06-08 11:37 OP:RALL STATUS:               ID:20090702071158     I
 2009-07-02-0711-52S.PLUR1_003                                                 6
 STAT SP IPHASW D HRMM SECON CODA AMPLIT PERI AZIMU VELO AIN AR TRES W  DIS CAZ7
 LZ4  SZ E         712  0.83                  290.0 23.8      0        2.51 110 
 LZ4  SN IP        712  0.84                             166    0.2010 2.51 110 
 LZ4  SE IS        712  1.80                             166   -0.2010 2.51 110 
 LZ4  SZ  AML      712  3.56         4.1 0.40                          2.51 110 
                                                                                
 2009  7 2 0717  2.0 L  21.251 -99.270 10.0  RAL  1 0.1 0.4LRAL                1
 GAP=360        0.53      18.4    13.2  0.0  0.2418E+03 -0.2651E+02  0.1824E+02E
 ACTION:UPD 12-06-08 11:37 OP:RALL STATUS:               ID:20090702071702     I
 2009-07-02-0716-55S.PLUR1_003                                                 6
 STAT SP IPHASW D HRMM SECON CODA AMPLIT PERI AZIMU VELO AIN AR TRES W  DIS CAZ7
 LG3  SN IP        717  4.23                             163    0.2910 3.23  34 
 LG3  SZ E         717  4.24                  213.8 12.0      0        3.23  34 
 LG3  SE IS        717  5.05                             163   -0.2910 3.23  34 
 LG3  SZ  AML      717  5.58        13.3 0.22                          3.23  34 
                                                                                
 2009  7 2 1738 37.5 L                       RAL  0                            1
 ACTION:UPD 12-06-08 11:37 OP:RALL STATUS:               ID:20090702173837     I
 2009-07-02-1738-37S.PLUR1_003                                                 6
 STAT SP IPHASW D HRMM SECON CODA AMPLIT PERI AZIMU VELO AIN AR TRES W  DIS CAZ7
                                                                                
 2009  7 3 0743 19.6 L  21.558 -99.426 10.0  RAL  1 0.0 0.4LRAL                1
 GAP=360        0.30       3.3     2.3  0.0 -0.6906E+01 -0.2651E+02  0.1824E+02E
 ACTION:UPD 12-06-08 11:37 OP:RALL STATUS:               ID:20090703074319     I
 2009-07-03-0743-19S.PLUR1_003                                                 6
 STAT SP IPHASW D HRMM SECON CODA AMPLIT PERI AZIMU VELO AIN AR TRES W  DIS CAZ7
 LZ4  SZ E         743 24.42                  327.3 12.4      0        29.9 147 
 LZ4  SN IP        743 24.84                             104    0.0210 29.9 147 
 LZ4  SE IS        743 28.61                             104   -0.0210 29.9 147 
 LZ4  SZ  AML      743 32.34         4.9 0.32                          29.9 147 
                                                                                
 2009  7 3 1759 58.5 R  20.320 -99.284 10.0  RAL  1 0.0 2.1LRAL                1
 GAP=360        0.30       3.7     3.1  0.0  0.7869E-01 -0.2651E+02  0.1824E+02E
 ACTION:UPD 12-06-08 11:37 OP:RALL STATUS:               ID:20090703175958     I
 2009-07-03-1800-07S.PLUR1_003                                                 6
 STAT SP IPHASW D HRMM SECON CODA AMPLIT PERI AZIMU VELO AIN AR TRES W  DIS CAZ7
 LZ4  SZ E        18 0 16.28                  180.8 13.7      0         112   1 
 LZ4  SN IP       18 0 16.40                              93    0.0010  112   1 
 LZ4  SE IS       18 0 29.46                              93    0.0010  112   1 
 LZ4  SZ  AML     18 0 31.09        59.9 0.18                           112   1 
                                                                                
 2009  7 3 1841  7.8 L  21.348 -99.295 10.0  RAL  1 0.1 0.5LRAL                1
 GAP=360        0.45      10.9    16.3  0.0 -0.1781E+03 -0.2651E+02  0.1824E+02E
 ACTION:UPD 12-06-08 11:37 OP:RALL STATUS:               ID:20090703184107     I
 2009-07-03-1841-01S.PLUR1_003                                                 6
 STAT SP IPHASW D HRMM SECON CODA AMPLIT PERI AZIMU VELO AIN AR TRES W  DIS CAZ7
 LZ4  SZ E        1841  9.86                  305.6 19.4      0        3.25 126 
 LZ4  SN IP       1841  9.89                             162    0.2310 3.25 126 
 LZ4  SE IS       1841 10.82                             162   -0.2310 3.25 126 
 LZ4  SZ  AML     1841 11.11        17.3 0.24                          3.25 126 
                                                                                
 2009  7 4 1704 46.8 L  21.261 -99.422 10.0  RAL  1 0.0 0.8LRAL                1
 GAP=360        0.30       1.9     4.0  0.0  0.7187E+01 -0.2651E+02  0.1824E+02E
 ACTION:UPD 12-06-08 11:37 OP:RALL STATUS:               ID:20090704170446     I
 2009-07-04-1704-41S.PLUR1_003                                                 6
 STAT SP IPHASW D HRMM SECON CODA AMPLIT PERI AZIMU VELO AIN AR TRES W  DIS CAZ7
 LZ4  SZ E        17 4 50.14                  244.0 35.6      0        17.6  64 
 LZ4  SN IP       17 4 50.28                             117    0.0010 17.6  64 
 LZ4  SE IS       17 4 52.78                             117    0.0010 17.6  64 
 LZ4  SZ  AML     17 4 53.24        19.1 0.32                          17.6  64 
                                                                                
 2009  7 4 2357 24.9 L  21.334 -99.271 10.0  RAL  1 0.8 0.5LRAL                1
 GAP=360       10.73     999.9   999.9  0.0  0.6292E+08 -0.2651E+02  0.1824E+02E
 ACTION:UPD 12-06-08 11:37 OP:RALL STATUS:               ID:20090704235724     I
 2009-07-04-2357-18S.PLUR1_003                                                 6
 STAT SP IPHASW D HRMM SECON CODA AMPLIT PERI AZIMU VELO AIN AR TRES W  DIS CAZ7
 LZ4  SZ E        2357 27.06                  278.6 93.0    -50        0.38 150 
 LZ4  SN IP       2357 27.16                             178    0.3910 0.38 150 
 LZ4  SE IS       2357 27.72                             178   -0.3910 0.38 150 
 LZ4  SZ  AML     2357 28.16        17.4 0.14                          0.38 150 
                                                                                
 2009  7 5 0808 30.3 L  21.306 -99.232 10.0  RAL  1 0.0 0.0LRAL                1
 GAP=360        0.33       5.6     8.4  0.0 -0.4735E+02 -0.2651E+02  0.1824E+02E
 ACTION:UPD 12-06-08 11:37 OP:RALL STATUS:               ID:20090705080830     I
 2009-07-05-0808-24S.PLUR1_003                                                 6
 STAT SP IPHASW D HRMM SECON CODA AMPLIT PERI AZIMU VELO AIN AR TRES W  DIS CAZ7
 LZ4  SZ E         8 8 32.40                  125.4 17.2      0        4.75 305 
 LZ4  SN IP        8 8 32.41                             155    0.0910 4.75 305 
 LZ4  SE IS        8 8 33.68                             155   -0.0910 4.75 305 
 LZ4  SZ  AML      8 8 34.23         5.3 0.24                          4.75 305 
                                                                                
 2009  7 5 1456 41.7 L  21.728 -99.144 10.0  RAL  1 0.0 2.0LRAL                1
 GAP=360        0.30       3.6     1.7  0.0  0.3693E+01 -0.2651E+02  0.1824E+02E
 ACTION:UPD 12-06-08 11:37 OP:RALL STATUS:               ID:20090705145641     I
 2009-07-05-1456-40S.PLUR1_003                                                 6
 STAT SP IPHASW D HRMM SECON CODA AMPLIT PERI AZIMU VELO AIN AR TRES W  DIS CAZ7
 LZ4  SN IP       1456 49.40                              98    0.0110 45.8 197 
 LZ4  SZ E        1456 49.57                   16.5 12.2      0        45.8 197 
 LZ4  SE IS       1456 54.97                              98   -0.0110 45.8 197 
 LZ4  SZ  AML     1456 57.28       121.1 0.18                          45.8 197 
                                                                                
 2009  7 5 1612 11.4 L  21.511-100.189 10.0  RAL  1 0.0 2.6LRAL                1
 GAP=360        0.30       2.6     3.9  0.0 -0.1567E+01 -0.2651E+02  0.1824E+02E
 ACTION:UPD 12-06-08 11:37 OP:RALL STATUS:               ID:20090705161211     I
 2009-07-05-1612-17S.PLUR1_003                                                 6
 STAT SP IPHASW D HRMM SECON CODA AMPLIT PERI AZIMU VELO AIN AR TRES W  DIS CAZ7
 LZ4  SZ E        1612 26.90                  282.0 14.8      0        97.4 102 
 LZ4  SN IP       1612 27.03                              93    0.0010 97.4 102 
 LZ4  SE IS       1612 38.45                              93    0.0010 97.4 102 
 LZ4  SZ  AML     1612 43.57       240.1 0.46                          97.4 102 
                                                                                
 2009  7 5 1952 20.3 L  20.981 -98.858100.0  RAL  2 0.2 2.4LRAL                1
 GAP=350        2.64      40.3    67.7 50.7 -0.2659E+04 -0.2506E+04  0.1474E+04E
 ACTION:UPD 12-06-08 11:37 OP:RALL STATUS:               ID:20090705195220     I
 2009-07-05-1952-25S.PLUR1_006                                                 6
 STAT SP IPHASW D HRMM SECON CODA AMPLIT PERI AZIMU VELO AIN AR TRES W  DIS CAZ7
 LO8  SN IP       1952 34.80                             155    0.0610 41.9 298 
 LO8  SZ E        1952 34.83                  109.9  7.7     -7        41.9 298 
 LO8  SE IS       1952 45.47                             155    0.2010 41.9 298 
 LG3  SZ E        1952 34.83                  138.1 16.8     10        52.4 309 
 LG3  SN IP       1952 34.95                             150   -0.3310 52.4 309 
 LG3  SE IS       1952 46.26                             150    0.0710 52.4 309 
 LG3  SZ  AML     1952 52.20       115.3 0.32                          52.4 309 
                                                                                
 2009  7 5 2044 31.4 L  21.521 -99.288 10.0  RAL  1 0.0 0.3LRAL                1
 GAP=360        0.30       4.0     0.7  0.0 -0.1495E+01 -0.2506E+04  0.1474E+04E
 ACTION:UPD 12-06-08 11:37 OP:RALL STATUS:               ID:20090705204431     I
 2009-07-05-2044-29S.PLUR1_003                                                 6
 STAT SP IPHASW D HRMM SECON CODA AMPLIT PERI AZIMU VELO AIN AR TRES W  DIS CAZ7
 LZ4  SZ E        2044 35.23                  354.9 18.0      0        21.1 175 
 LZ4  SN IP       2044 35.32                             112    0.0110 21.1 175 
 LZ4  SE IS       2044 38.16                             112   -0.0110 21.1 175 
 LZ4  SZ  AML     2044 38.99         5.2 0.46                          21.1 175 
                                                                                
 2009  7 6 0452 25.3 L  21.706 -99.291 10.0  RAL  1 0.0 1.1LRAL                1
 GAP=360        0.30       3.7     1.2  0.0 -0.7508E+00 -0.2506E+04  0.1474E+04E
 ACTION:UPD 12-06-08 11:37 OP:RALL STATUS:               ID:20090706045225     I
 2009-07-06-0452-28S.PLUR1_003                                                 6
 STAT SP IPHASW D HRMM SECON CODA AMPLIT PERI AZIMU VELO AIN AR TRES W  DIS CAZ7
 LZ4  SZ E         452 32.25                  356.9 14.9      0        41.6 177 
 LZ4  SN IP        452 32.27                              99    0.0110 41.6 177 
 LZ4  SE IS        452 37.37                              99   -0.0110 41.6 177 
 LZ4  SZ  AML      452 38.37        18.7 0.68                          41.6 177 
                                                                                
 2009  7 6 1136 25.9 L  21.502 -99.366 10.0  RAL  1 0.0 1.3LRAL                1
 GAP=360        0.30       3.5     2.1  0.0 -0.6850E+01 -0.2506E+04  0.1474E+04E
 ACTION:UPD 12-06-08 11:37 OP:RALL STATUS:               ID:20090706113625     I
 2009-07-06-1136-20S.PLUR1_003                                                 6
 STAT SP IPHASW D HRMM SECON CODA AMPLIT PERI AZIMU VELO AIN AR TRES W  DIS CAZ7
 LZ4  SZ E        1136 29.92                  332.3  9.8      0        21.5 152 
 LZ4  SN IP       1136 29.92                             112    0.0010 21.5 152 
 LZ4  SE IS       1136 32.82                             112    0.0010 21.5 152 
 LZ4  SZ  AML     1136 33.90        45.2 0.18                          21.5 152 
                                                                                
 2009  7 6 1312 36.1 L  21.354 -99.293 10.0  RAL  1 0.1 0.3LRAL                1
 GAP=360        0.44      12.2    12.4  0.0 -0.1504E+03 -0.2506E+04  0.1474E+04E
 ACTION:UPD 12-06-08 11:37 OP:RALL STATUS:               ID:20090706131236     I
 2009-07-06-1312-30S.PLUR1_003                                                 6
 STAT SP IPHASW D HRMM SECON CODA AMPLIT PERI AZIMU VELO AIN AR TRES W  DIS CAZ7
 LZ4  SZ E        1312 38.26                  316.5 15.6      0        3.58 136 
 LZ4  SN IP       1312 38.28                             161    0.2210 3.58 136 
 LZ4  SE IS       1312 39.24                             161   -0.2210 3.58 136 
 LZ4  SZ  AML     1312 39.58        10.0 0.20                          3.58 136 
                                                                                
 2009  7 6 1555 27.7 L  21.292 -99.195 10.0  RAL  1 0.0 0.6LRAL                1
 GAP=360        0.30       2.7     5.2  0.0 -0.1406E+02 -0.2506E+04  0.1474E+04E
 ACTION:UPD 12-06-08 11:37 OP:RALL STATUS:               ID:20090706155527     I
 2009-07-06-1555-22S.PLUR1_003                                                 6
 STAT SP IPHASW D HRMM SECON CODA AMPLIT PERI AZIMU VELO AIN AR TRES W  DIS CAZ7
 LZ4  SN IP       1555 30.04                             138    0.0210 8.88 299 
 LZ4  SZ E        1555 30.05                  118.9 66.4      0        8.88 299 
 LZ4  SE IS       1555 31.72                             138   -0.0210 8.88 299 
 LZ4  SZ  AML     1555 32.98        16.6 0.22                          8.88 299 
                                                                                
 2009  7 6 2049 54.1 R  21.297 -98.526 10.0  RAL  1 0.0 2.1LRAL                1
 GAP=360        0.30       2.0     4.0  0.0 -0.5399E+00 -0.2506E+04  0.1474E+04E
 ACTION:UPD 12-06-08 11:37 OP:RALL STATUS:               ID:20090706204954     I
 2009-07-06-2049-59S.PLUR1_003                                                 6
 STAT SP IPHASW D HRMM SECON CODA AMPLIT PERI AZIMU VELO AIN AR TRES W  DIS CAZ7
 LZ4  SN IP       2050  6.59                              94    0.0110 77.2 273 
 LZ4  SZ E        2050  6.64                   92.7 42.0      0        77.2 273 
 LZ4  SE IS       2050 15.70                              94   -0.0110 77.2 273 
 LZ4  SZ  AML     2050 16.23       101.7 0.22                          77.2 273 
                                                                                
