 2009  518 1934 19.2 L  21.733 -99.283 10.0  RAL  1 0.0 1.1LRAL                1
 GAP=360        0.30       3.8     0.9  0.0  0.1468E+01 -0.4858E+06  0.3745E+06E
 ACTION:UPD 12-06-08 11:37 OP:RALL STATUS:               ID:20090518193419     I
 2009-05-18-1934-11S.PLUR1_003                                                 6
 STAT SP IPHASW D HRMM SECON CODA AMPLIT PERI AZIMU VELO AIN AR TRES W  DIS CAZ7
 LA4  SN IP       1934 24.13                             106    0.0110 27.8 186 
 LA4  SZ E        1934 24.15                    5.5  7.9      0        27.8 186 
 LA4  SE IS       1934 27.70                             106   -0.0110 27.8 186 
 LA4  SZ  AML     1934 28.30        25.6 0.46                          27.8 186 
                                                                                
 2009  518 2105 19.3 L  21.734 -99.266 10.0  RAL  1 0.0 1.1LRAL                1
 GAP=360        0.30       3.8     1.0  0.0  0.2372E+01 -0.4858E+06  0.3745E+06E
 ACTION:UPD 12-06-08 11:37 OP:RALL STATUS:               ID:20090518210519     I
 2009-05-18-2105-10S.PLUR1_003                                                 6
 STAT SP IPHASW D HRMM SECON CODA AMPLIT PERI AZIMU VELO AIN AR TRES W  DIS CAZ7
 LA4  SZ E        21 5 24.22                    9.0  8.4      0        28.1 189 
 LA4  SN IP       21 5 24.25                             106    0.0110 28.1 189 
 LA4  SE IS       21 5 27.85                             106   -0.0110 28.1 189 
 LA4  SZ  AML     21 5 28.38        26.0 0.42                          28.1 189 
                                                                                
 2009  518 2350 50.2 L  21.750 -99.298 10.0  RAL  1 0.0 0.9LRAL                1
 GAP=360        0.30       3.8     0.8  0.0  0.6069E+00 -0.4858E+06  0.3745E+06E
 ACTION:UPD 12-06-08 11:37 OP:RALL STATUS:               ID:20090518235050     I
 2009-05-18-2350-44S.PLUR1_003                                                 6
 STAT SP IPHASW D HRMM SECON CODA AMPLIT PERI AZIMU VELO AIN AR TRES W  DIS CAZ7
 LA4  SZ E        2350 55.29                    2.3 11.5      0        29.5 182 
 LA4  SN IP       2350 55.39                             105    0.0110 29.5 182 
 LA4  SE IS       2350 59.15                             105   -0.0110 29.5 182 
 LA4  SZ  AML     2351  1.30        15.9 0.36                          29.5 182 
                                                                                
 2009  519 0213  2.2 L  21.701 -99.369 10.0  RAL  1 0.0 0.7LRAL                1
 GAP=360        0.30       3.8     1.2  0.0 -0.3848E+01 -0.4858E+06  0.3745E+06E
 ACTION:UPD 12-06-08 11:37 OP:RALL STATUS:               ID:20090519021302     I
 2009-05-19-0212-55S.PLUR1_003                                                 6
 STAT SP IPHASW D HRMM SECON CODA AMPLIT PERI AZIMU VELO AIN AR TRES W  DIS CAZ7
 LA4  SZ E         213  6.65                  345.6  9.7      0        24.9 166 
 LA4  SN IP        213  6.67                             108    0.0210 24.9 166 
 LA4  SE IS        213  9.91                             108   -0.0210 24.9 166 
 LA4  SZ  AML      213 11.69        10.4 0.26                          24.9 166 
                                                                                
 2009  519 0642 54.5 L  21.786 -99.416 10.0  RAL  1 0.0 1.9LRAL                1
 GAP=360        0.30       3.6     1.8  0.0 -0.3575E+01 -0.4858E+06  0.3745E+06E
 ACTION:UPD 12-06-08 11:37 OP:RALL STATUS:               ID:20090519064254     I
 2009-05-19-0642-53S.PLUR1_003                                                 6
 STAT SP IPHASW D HRMM SECON CODA AMPLIT PERI AZIMU VELO AIN AR TRES W  DIS CAZ7
 LZ4  SZ E         643  3.17                  343.3  7.3      0        52.6 163 
 LZ4  SN IP        643  3.24                              97    0.0110 52.6 163 
 LZ4  SE IS        643  9.57                              97   -0.0110 52.6 163 
 LZ4  SZ  AML      643 15.44        96.4 0.22                          52.6 163 
                                                                                
 2009  519 0844 24.7 L  21.798 -99.417 10.0  RAL  1 0.0 1.9LRAL                1
 GAP=360        0.30       3.6     1.6  0.0 -0.4183E+01 -0.4858E+06  0.3745E+06E
 ACTION:UPD 12-06-08 11:37 OP:RALL STATUS:               ID:20090519084424     I
 2009-05-19-0844-16S.PLUR1_003                                                 6
 STAT SP IPHASW D HRMM SECON CODA AMPLIT PERI AZIMU VELO AIN AR TRES W  DIS CAZ7
 LA4  SN IP        844 30.99                             101    0.0110 36.6 162 
 LA4  SZ E         844 31.06                  342.2  9.1      0        36.6 162 
 LA4  SE IS        844 35.53                             101   -0.0110 36.6 162 
 LA4  SZ  AML      844 37.51       140.8 0.28                          36.6 162 
                                                                                
 2009  519 2337 35.1 L  21.312 -99.250 10.0  RAL  1 0.1 0.5LRAL                1
 GAP=360        0.55      18.1    18.3  0.0 -0.3310E+03 -0.4858E+06  0.3745E+06E
 ACTION:UPD 12-06-08 11:37 OP:RALL STATUS:               ID:20090519233735     I
 2009-05-19-2337-28S.PLUR1_003                                                 6
 STAT SP IPHASW D HRMM SECON CODA AMPLIT PERI AZIMU VELO AIN AR TRES W  DIS CAZ7
 LZ4  SZ E        2337 37.27                  136.6 18.4      0        2.95 317 
 LZ4  SN IP       2337 37.27                             164    0.3110 2.95 317 
 LZ4  SE IS       2337 38.03                             164   -0.3110 2.95 317 
 LZ4  SZ  AML     2337 38.12        15.7 0.30                          2.95 317 
                                                                                
 2009  520 1626 26.2 L  21.769 -99.478 10.0  RAL  1 0.0 0.6LRAL                1
 GAP=360        0.30       3.3     2.2  0.0 -0.6131E+01 -0.4858E+06  0.3745E+06E
 ACTION:UPD 12-06-08 11:37 OP:RALL STATUS:               ID:20090520162626     I
 2009-05-20-1626-22S.PLUR1_003                                                 6
 STAT SP IPHASW D HRMM SECON CODA AMPLIT PERI AZIMU VELO AIN AR TRES W  DIS CAZ7
 LA4  SZ E        1626 32.34                  331.0  9.0      0        36.1 151 
 LA4  SN IP       1626 32.36                             101    0.0210 36.1 151 
 LA4  SE IS       1626 36.83                             101   -0.0210 36.1 151 
 LA4  SZ  AML     1626 37.73         5.8 0.56                          36.1 151 
                                                                                
 2009  520 1923 46.8 L  21.244 -99.118 10.0  RAL  1 0.0 0.8LRAL                1
 GAP=360        0.30       2.2     3.8  0.0 -0.7933E+01 -0.4858E+06  0.3745E+06E
 ACTION:UPD 12-06-08 11:37 OP:RALL STATUS:               ID:20090520192346     I
 2009-05-20-1923-41S.PLUR1_003                                                 6
 STAT SP IPHASW D HRMM SECON CODA AMPLIT PERI AZIMU VELO AIN AR TRES W  DIS CAZ7
 LZ4  SZ E        1923 50.24                  121.5 28.7      0        18.4 302 
 LZ4  SN IP       1923 50.35                             116    0.0110 18.4 302 
 LZ4  SE IS       1923 52.93                             116   -0.0110 18.4 302 
 LZ4  SZ  AML     1923 54.99        17.5 0.46                          18.4 302 
                                                                                
 2009  520 2128 29.2 L  21.188 -99.155 10.0  RAL  1 0.0 0.7LRAL                1
 GAP=360        0.30       3.1     3.5  0.0 -0.1069E+02 -0.4858E+06  0.3745E+06E
 ACTION:UPD 12-06-08 11:37 OP:RALL STATUS:               ID:20090520212829     I
 2009-05-20-2128-25S.PLUR1_003                                                 6
 STAT SP IPHASW D HRMM SECON CODA AMPLIT PERI AZIMU VELO AIN AR TRES W  DIS CAZ7
 LG3  SN IP       2128 32.17                             124    0.0210 14.0 314 
 LG3  SZ E        2128 32.26                  133.8 18.5      0        14.0 314 
 LG3  SE IS       2128 34.30                             124   -0.0210 14.0 314 
 LG3  SZ  AML     2128 34.62        18.6 0.24                          14.0 314 
                                                                                
 2009  520 2244  9.6 L  21.701 -99.315 10.0  RAL  1 0.0 1.1LRAL                1
 GAP=360        0.30       3.9     0.7  0.0 -0.4493E+00 -0.4858E+06  0.3745E+06E
 ACTION:UPD 12-06-08 11:37 OP:RALL STATUS:               ID:20090520224409     I
 2009-05-20-2243-59S.PLUR1_003                                                 6
 STAT SP IPHASW D HRMM SECON CODA AMPLIT PERI AZIMU VELO AIN AR TRES W  DIS CAZ7
 LA4  SZ E        2244 13.98                  358.4  9.5      0        24.0 178 
 LA4  SN IP       2244 14.01                             109    0.0110 24.0 178 
 LA4  SE IS       2244 17.17                             109   -0.0110 24.0 178 
 LA4  SZ  AML     2244 19.10        29.2 0.30                          24.0 178 
                                                                                
 2009  520 2300 21.1 L  21.667 -99.369 10.0  RAL  1 0.0 0.6LRAL                1
 GAP=360        0.30       3.8     1.4  0.0 -0.4785E+01 -0.4858E+06  0.3745E+06E
 ACTION:UPD 12-06-08 11:37 OP:RALL STATUS:               ID:20090520230021     I
 2009-05-20-2300-14S.PLUR1_003                                                 6
 STAT SP IPHASW D HRMM SECON CODA AMPLIT PERI AZIMU VELO AIN AR TRES W  DIS CAZ7
 LA4  SN IP       23 0 25.04                             112    0.0210 21.2 163 
 LA4  SZ E        23 0 25.06                  342.9  8.4      0        21.2 163 
 LA4  SE IS       23 0 27.88                             112   -0.0210 21.2 163 
 LA4  SZ  AML     23 0 30.36        10.2 0.68                          21.2 163 
                                                                                
 2009  521 1840  9.3 L  21.319 -99.267 10.0  RAL  1 0.2 1.2LRAL                1
 GAP=360        1.26     488.4   999.9  0.0  0.9285E+06 -0.4858E+06  0.3745E+06E
 ACTION:UPD 12-06-08 11:37 OP:RALL STATUS:               ID:20090521184009     I
 2009-05-21-1840-02S.PLUR1_003                                                 6
 STAT SP IPHASW D HRMM SECON CODA AMPLIT PERI AZIMU VELO AIN AR TRES W  DIS CAZ7
 LZ4  SZ E        1840 11.66                  163.7 16.4     -4        1.32 348 
 LZ4  SN IP       1840 11.67                             173    0.4810 1.32 348 
 LZ4  SE IS       1840 12.06                             173   -0.4810 1.32 348 
 LZ4  SZ  AML     1840 12.14        83.8 0.12                          1.32 348 
                                                                                
 2009  522 0153 36.3 L  21.341 -99.251 10.0  RAL  1 0.2 0.7LRAL                1
 GAP=360        0.85      26.2    47.5  0.0  0.1242E+04 -0.4858E+06  0.3745E+06E
 ACTION:UPD 12-06-08 11:37 OP:RALL STATUS:               ID:20090522015336     I
 2009-05-22-0153-29S.PLUR1_003                                                 6
 STAT SP IPHASW D HRMM SECON CODA AMPLIT PERI AZIMU VELO AIN AR TRES W  DIS CAZ7
 LZ4  SZ E         153 38.72                   59.4 16.7      0        2.19 239 
 LZ4  SN IP        153 38.74                             168    0.5410 2.19 239 
 LZ4  SE IS        153 39.02                             168   -0.5410 2.19 239 
 LZ4  SZ  AML      153 39.16        25.4 0.24                          2.19 239 
                                                                                
 2009  522 0302 21.5 L  21.322 -99.265 10.0  RAL  1 0.3                        1
 GAP=360        3.91     999.9   999.9  0.0  0.1360E+09 -0.4858E+06  0.3745E+06E
 ACTION:UPD 12-06-08 11:37 OP:RALL STATUS:               ID:20090522030221     I
 2009-05-22-0302-14S.PLUR1_003                                                 6
 STAT SP IPHASW D HRMM SECON CODA AMPLIT PERI AZIMU VELO AIN AR TRES W  DIS CAZ7
 LZ4  SN IP        3 2 23.60                             174    0.3010 1.07 337 
 LZ4  SZ E         3 2 23.64                  175.6 16.6     18        1.07 337 
 LZ4  SE IS        3 2 24.34                             174   -0.3010 1.07 337 
                                                                                
 2009  522 0707 49.0 L  21.324 -99.285 10.0  RAL  1 0.1                        1
 GAP=360        0.61     999.9   696.2  0.0 -0.9014E+06 -0.4858E+06  0.3745E+06E
 ACTION:UPD 12-06-08 11:37 OP:RALL STATUS:               ID:20090522070749     I
 2009-05-22-0707-42S.PLUR1_003                                                 6
 STAT SP IPHASW D HRMM SECON CODA AMPLIT PERI AZIMU VELO AIN AR TRES W  DIS CAZ7
 LZ4  SZ E         7 7 51.17                  245.1 33.1      0        1.78  65 
 LZ4  SN IP        7 7 51.20                             170    0.3610 1.78  65 
 LZ4  SE IS        7 7 51.83                             170   -0.3610 1.78  65 
                                                                                
 2009  522 2136 38.8 L  21.248 -99.253 10.0  RAL  1 0.0 1.2LRAL                1
 GAP=360        0.30       5.3     1.1  0.0 -0.5617E+01 -0.4858E+06  0.3745E+06E
 ACTION:UPD 12-06-08 11:37 OP:RALL STATUS:               ID:20090522213638     I
 2009-05-22-2136-33S.PLUR1_003                                                 6
 STAT SP IPHASW D HRMM SECON CODA AMPLIT PERI AZIMU VELO AIN AR TRES W  DIS CAZ7
 LZ4  SZ E        2136 41.16                  169.5 14.8      0        9.27 350 
 LZ4  SN IP       2136 41.17                             137    0.0110 9.27 350 
 LZ4  SE IS       2136 42.90                             137   -0.0110 9.27 350 
 LZ4  SZ  AML     2136 44.17        62.5 0.16                          9.27 350 
                                                                                
 2009  522 2345 41.4 L  21.255 -99.228 10.0  RAL  1 0.1 1.2LRAL                1
 GAP=360        0.46      12.6    14.7  0.0 -0.1854E+03 -0.4858E+06  0.3745E+06E
 ACTION:UPD 12-06-08 11:37 OP:RALL STATUS:               ID:20090522234541     I
 2009-05-22-2345-34S.PLUR1_003                                                 6
 STAT SP IPHASW D HRMM SECON CODA AMPLIT PERI AZIMU VELO AIN AR TRES W  DIS CAZ7
 LG3  SZ E        2345 43.52                  132.7 12.1      0        3.39 313 
 LG3  SN IP       2345 43.55                             162    0.2410 3.39 313 
 LG3  SE IS       2345 44.48                             162   -0.2410 3.39 313 
 LG3  SZ  AML     2345 45.02        89.5 0.14                          3.39 313 
                                                                                
 2009  523 0154 14.8 L  21.311 -99.406 10.0  RAL  1 0.0 0.6LRAL                1
 GAP=360        0.30       0.8     4.7  0.0  0.3161E+01 -0.4858E+06  0.3745E+06E
 ACTION:UPD 12-06-08 11:37 OP:RALL STATUS:               ID:20090523015414     I
 2009-05-23-0154-10S.PLUR1_003                                                 6
 STAT SP IPHASW D HRMM SECON CODA AMPLIT PERI AZIMU VELO AIN AR TRES W  DIS CAZ7
 LZ4  SZ E         154 17.74                  261.2 17.6      0        14.3  81 
 LZ4  SN IP        154 17.84                             123    0.0010 14.3  81 
 LZ4  SE IS        154 20.02                             123    0.0010 14.3  81 
 LZ4  SZ  AML      154 20.90        12.6 0.56                          14.3  81 
                                                                                
 2009  523 0938 13.1 L  21.715 -99.565 10.0  RAL  1 0.0 1.2LRAL                1
 GAP=360        0.30       3.1     2.6  0.0 -0.6162E+01 -0.4858E+06  0.3745E+06E
 ACTION:UPD 12-06-08 11:37 OP:RALL STATUS:               ID:20090523093813     I
 2009-05-23-0938-12S.PLUR1_003                                                 6
 STAT SP IPHASW D HRMM SECON CODA AMPLIT PERI AZIMU VELO AIN AR TRES W  DIS CAZ7
 LZ4  SN IP        938 21.81                              97    0.0110 52.4 144 
 LZ4  SZ E         938 21.82                  324.3  8.7      0        52.4 144 
 LZ4  SE IS        938 28.11                              97   -0.0110 52.4 144 
 LZ4  SZ  AML      938 31.71        19.8 0.40                          52.4 144 
                                                                                
 2009  523 1057 20.7 L  21.312 -99.258 10.0  RAL  1 0.1 0.8LRAL                1
 GAP=360        0.58      27.5    16.5  0.0 -0.4544E+03 -0.4858E+06  0.3745E+06E
 ACTION:UPD 12-06-08 11:37 OP:RALL STATUS:               ID:20090523105720     I
 2009-05-23-1057-13S.PLUR1_003                                                 6
 STAT SP IPHASW D HRMM SECON CODA AMPLIT PERI AZIMU VELO AIN AR TRES W  DIS CAZ7
 LZ4  SN IP       1057 22.92                             167    0.3310 2.42 331 
 LZ4  SZ E        1057 22.93                  150.8 13.2      0        2.42 331 
 LZ4  SE IS       1057 23.62                             167   -0.3310 2.42 331 
 LZ4  SZ  AML     1057 24.28        36.4 0.24                          2.42 331 
                                                                                
 2009  523 1855 47.6 L  21.632 -99.296 10.0  RAL  1 0.0 0.3LRAL                1
 GAP=360        0.30       4.2     0.6  0.0  0.1544E+01 -0.4858E+06  0.3745E+06E
 ACTION:UPD 12-06-08 11:37 OP:RALL STATUS:               ID:20090523185547     I
 2009-05-23-1855-38S.PLUR1_003                                                 6
 STAT SP IPHASW D HRMM SECON CODA AMPLIT PERI AZIMU VELO AIN AR TRES W  DIS CAZ7
 LA4  SN IP       1855 50.91                             119    0.0210 16.5 185 
 LA4  SZ E        1855 50.97                    4.6  9.2      0        16.5 185 
 LA4  SE IS       1855 53.27                             119   -0.0210 16.5 185 
 LA4  SZ  AML     1855 53.45         5.9 0.44                          16.5 185 
                                                                                
 2009  523 2150 47.0 R  22.204-100.849 10.0  RAL  1 0.0 2.4LRAL                1
 GAP=360        0.30       4.9     5.1  0.0  0.8720E+00 -0.4858E+06  0.3745E+06E
 ACTION:UPD 12-06-08 11:37 OP:RALL STATUS:               ID:20090523215047     I
 2009-05-23-2151-06S.PLUR1_003                                                 6
 STAT SP IPHASW D HRMM SECON CODA AMPLIT PERI AZIMU VELO AIN AR TRES W  DIS CAZ7
 LZ4  SN IP       2151 14.88                              52    0.0110  190 120 
 LZ4  SZ E        2151 15.70                  300.9  8.5      0         190 120 
 LZ4  SE IS       2151 35.23                              52   -0.0110  190 120 
 LZ4  SZ  AML     2151 37.57        70.9 0.40                           190 120 
                                                                                
 2009  524 2042 14.4 L  21.179 -99.259 10.0  RAL  1 0.0 0.8LRAL                1
 GAP=360        0.30       4.2     0.5  0.0 -0.1217E+01 -0.4858E+06  0.3745E+06E
 ACTION:UPD 12-06-08 11:37 OP:RALL STATUS:               ID:20090524204214     I
 2009-05-24-2042-10S.PLUR1_003                                                 6
 STAT SP IPHASW D HRMM SECON CODA AMPLIT PERI AZIMU VELO AIN AR TRES W  DIS CAZ7
 LZ4  SN IP       2042 17.71                             118    0.0210 16.9 356 
 LZ4  SZ E        2042 17.75                  176.3 23.3      0        16.9 356 
 LZ4  SE IS       2042 20.10                             118   -0.0210 16.9 356 
 LZ4  SZ  AML     2042 21.17        17.4 0.66                          16.9 356 
                                                                                
