 2009  417 2028 38.9 L  21.237 -99.458 10.0  RAL  1 0.0 0.5LRAL                1
 GAP=360        0.30       3.3     2.2  0.0  0.6397E+01  0.8384E+03  0.2952E+03E
 ACTION:UPD 12-06-08 11:37 OP:RALL STATUS:               ID:20090417202838     I
 2009-04-17-2028-33S.PLUR1_003                                                 6
 STAT SP IPHASW D HRMM SECON CODA AMPLIT PERI AZIMU VELO AIN AR TRES W  DIS CAZ7
 LA4  SN IP       2028 44.42                             103    0.0210 31.3  29 
 LA4  SZ E        2028 44.76                  209.5 18.1      0        31.3  29 
 LA4  SE IS       2028 48.36                             103   -0.0210 31.3  29 
 LA4  SZ  AML     2028 52.34         6.0 0.26                          31.3  29 
                                                                                
 2009  417 2036 30.8 L  21.346 -99.239 10.0  RAL  1 0.0 0.4LRAL                1
 GAP=360        0.35       6.3    12.7  0.0  0.8015E+02  0.8384E+03  0.2952E+03E
 ACTION:UPD 12-06-08 11:37 OP:RALL STATUS:               ID:20090417203630     I
 2009-04-17-2036-24S.PLUR1_003                                                 6
 STAT SP IPHASW D HRMM SECON CODA AMPLIT PERI AZIMU VELO AIN AR TRES W  DIS CAZ7
 LZ4  SZ E        2036 32.76                   62.0 47.1      0        3.53 242 
 LZ4  SN IP       2036 32.80                             161    0.1310 3.53 242 
 LZ4  SE IS       2036 33.95                             161   -0.1310 3.53 242 
 LZ4  SZ  AML     2036 36.42        14.7 0.54                          3.53 242 
                                                                                
 2009  417 2153 35.9 L  21.294 -99.249 10.0  RAL  1 0.0 0.5LRAL                1
 GAP=360        0.32       8.5     4.9  0.0 -0.4142E+02  0.8384E+03  0.2952E+03E
 ACTION:UPD 12-06-08 11:37 OP:RALL STATUS:               ID:20090417215335     I
 2009-04-17-2153-28S.PLUR1_003                                                 6
 STAT SP IPHASW D HRMM SECON CODA AMPLIT PERI AZIMU VELO AIN AR TRES W  DIS CAZ7
 LZ4  SZ E        2153 37.97                  152.1 13.8      0        4.62 332 
 LZ4  SN IP       2153 37.97                             156    0.0810 4.62 332 
 LZ4  SE IS       2153 39.26                             156   -0.0810 4.62 332 
 LZ4  SZ  AML     2153 40.80        18.1 0.48                          4.62 332 
                                                                                
 2009  417 2249 49.7 L  21.279 -99.241 10.0  RAL  1 0.3 1.2LRAL                1
 GAP=360        3.30     890.7   680.3  0.0 -0.6058E+06  0.8384E+03  0.2952E+03E
 ACTION:UPD 12-06-08 11:37 OP:RALL STATUS:               ID:20090417224949     I
 2009-04-17-2249-43S.PLUR1_003                                                 6
 STAT SP IPHASW D HRMM SECON CODA AMPLIT PERI AZIMU VELO AIN AR TRES W  DIS CAZ7
 LG3  SZ E        2249 51.90                   88.0 37.1     15        1.28 253 
 LG3  SN IP       2249 51.93                             173    0.3910 1.28 253 
 LG3  SE IS       2249 52.52                             173   -0.3910 1.28 253 
 LG3  SZ  AML     2249 53.04        80.9 0.32                          1.28 253 
                                                                                
 2009  418 0136 10.0 L  21.187 -99.178 10.0  RAL  1 0.0 0.6LRAL                1
 GAP=360        0.30       3.5     2.3  0.0 -0.7797E+01  0.8384E+03  0.2952E+03E
 ACTION:UPD 12-06-08 11:37 OP:RALL STATUS:               ID:20090418013610     I
 2009-04-18-0136-06S.PLUR1_003                                                 6
 STAT SP IPHASW D HRMM SECON CODA AMPLIT PERI AZIMU VELO AIN AR TRES W  DIS CAZ7
 LZ4  SN IP        136 13.57                             116    0.0010 18.5 329 
 LZ4  SZ E         136 13.57                  149.2 20.6      0        18.5 329 
 LZ4  SE IS        136 16.16                             116    0.0010 18.5 329 
 LZ4  SZ  AML      136 17.11        11.2 0.20                          18.5 329 
                                                                                
 2009  418 0320  2.7 L  21.328 -99.276 10.0  RAL  1 0.2 0.2LRAL                1
 GAP=360        2.33     999.9   655.3  0.0 -0.1713E+07  0.8384E+03  0.2952E+03E
 ACTION:UPD 12-06-08 11:37 OP:RALL STATUS:               ID:20090418032002     I
 2009-04-18-0319-56S.PLUR1_003                                                 6
 STAT SP IPHASW D HRMM SECON CODA AMPLIT PERI AZIMU VELO AIN AR TRES W  DIS CAZ7
 LZ4  SZ E         320  4.71                  258.3 22.6     11        0.68  67 
 LZ4  SN IP        320  4.74                             176    0.2110 0.68  67 
 LZ4  SE IS        320  5.65                             176   -0.2110 0.68  67 
 LZ4  SZ  AML      320  6.48        10.0 0.48                          0.68  67 
                                                                                
 2009  418 0342 34.6 L  21.340 -99.291 10.0  RAL  1 0.2                        1
 GAP=360        1.08      24.7    56.9  0.0 -0.1402E+04  0.8384E+03  0.2952E+03E
 ACTION:UPD 12-06-08 11:37 OP:RALL STATUS:               ID:20090418034234     I
 2009-04-18-0342-27S.PLUR1_003                                                 6
 STAT SP IPHASW D HRMM SECON CODA AMPLIT PERI AZIMU VELO AIN AR TRES W  DIS CAZ7
 LZ4  SZ E         342 37.03                  292.1 34.5     -2        2.44 115 
 LZ4  SN IP        342 37.03                             167    0.5710 2.44 115 
 LZ4  SE IS        342 37.25                             167   -0.5710 2.44 115 
 LZ4  SZ IS        342 37.27                             141           2.44 115 
                                                                                
 2009  418 0616  4.2 L  21.343 -99.269 10.0  RAL  1 0.2 1.1LRAL                1
 GAP=360        2.03     999.9   999.9  0.0 -0.3093E+09  0.8384E+03  0.2952E+03E
 ACTION:UPD 12-06-08 11:37 OP:RALL STATUS:               ID:20090418061604     I
 2009-04-18-0615-57S.PLUR1_003                                                 6
 STAT SP IPHASW D HRMM SECON CODA AMPLIT PERI AZIMU VELO AIN AR TRES W  DIS CAZ7
 LZ4  SN IP        616  6.43                             173    0.4310 1.30 182 
 LZ4  SZ E         616  6.44                  352.6  7.5      9        1.30 182 
 LZ4  SE IS        616  6.91                             173   -0.4310 1.30 182 
 LZ4  SZ  AML      616  6.96        73.3 0.18                          1.30 182 
                                                                                
 2009  418 0838 35.3 L  21.319 -99.263 10.0  RAL  1 0.3 0.2LRAL                1
 GAP=360        3.04     999.9   999.9  0.0  0.4053E+08  0.8384E+03  0.2952E+03E
 ACTION:UPD 12-06-08 11:37 OP:RALL STATUS:               ID:20090418083835     I
 2009-04-18-0838-28S.PLUR1_003                                                 6
 STAT SP IPHASW D HRMM SECON CODA AMPLIT PERI AZIMU VELO AIN AR TRES W  DIS CAZ7
 LZ4  SN IP        838 37.63                             172    0.4910 1.47 334 
 LZ4  SZ E         838 37.64                  168.1 19.5     14        1.47 334 
 LZ4  SE IS        838 38.00                             172   -0.4910 1.47 334 
 LZ4  SZ  AML      838 38.44         9.3 0.50                          1.47 334 
                                                                                
 2009  418 1326 17.8 L  21.710 -99.449 10.0  RAL  1 0.0 0.6LRAL                1
 GAP=360        0.30       3.3     2.2  0.0 -0.6659E+01  0.8384E+03  0.2952E+03E
 ACTION:UPD 12-06-08 11:37 OP:RALL STATUS:               ID:20090418132617     I
 2009-04-18-1326-12S.PLUR1_003                                                 6
 STAT SP IPHASW D HRMM SECON CODA AMPLIT PERI AZIMU VELO AIN AR TRES W  DIS CAZ7
 LA4  SN IP       1326 22.95                             105    0.0210 28.9 150 
 LA4  SZ E        1326 23.03                  329.9 10.0      0        28.9 150 
 LA4  SE IS       1326 26.62                             105   -0.0210 28.9 150 
 LA4  SZ  AML     1326 27.27         7.3 0.30                          28.9 150 
                                                                                
 2009  418 1333 17.1 L  21.587 -99.435 10.0  RAL  1 0.0 1.3LRAL                1
 GAP=360        0.30       3.3     2.3  0.0 -0.6526E+01  0.8384E+03  0.2952E+03E
 ACTION:UPD 12-06-08 11:37 OP:RALL STATUS:               ID:20090418133317     I
 2009-04-18-1333-17S.PLUR1_003                                                 6
 STAT SP IPHASW D HRMM SECON CODA AMPLIT PERI AZIMU VELO AIN AR TRES W  DIS CAZ7
 LZ4  SN IP       1333 22.83                             102    0.0210 33.2 149 
 LZ4  SZ E        1333 22.91                  328.9 12.7      0        33.2 149 
 LZ4  SE IS       1333 26.97                             102   -0.0210 33.2 149 
 LZ4  SZ  AML     1333 27.33        38.4 0.14                          33.2 149 
                                                                                
 2009  418 1430 52.9 L  21.259 -99.470 10.0  RAL  1 0.0 0.7LRAL                1
 GAP=360        0.30       3.2     2.4  0.0  0.7017E+01  0.8384E+03  0.2952E+03E
 ACTION:UPD 12-06-08 11:37 OP:RALL STATUS:               ID:20090418143052     I
 2009-04-18-1430-48S.PLUR1_003                                                 6
 STAT SP IPHASW D HRMM SECON CODA AMPLIT PERI AZIMU VELO AIN AR TRES W  DIS CAZ7
 LA4  SZ E        1430 58.09                  213.9 23.9      0        29.9  34 
 LA4  SN IP       1430 58.15                             104    0.0210 29.9  34 
 LA4  SE IS       1431  1.93                             104   -0.0210 29.9  34 
 LA4  SZ  AML     1431  5.88        10.3 0.32                          29.9  34 
                                                                                
 2009  418 1457 52.1 L  21.347 -99.291 10.0  RAL  1 0.2 1.1LRAL                1
 GAP=360        0.66      18.7    25.7  0.0 -0.4803E+03  0.8384E+03  0.2952E+03E
 ACTION:UPD 12-06-08 11:37 OP:RALL STATUS:               ID:20090418145752     I
 2009-04-18-1457-45S.PLUR1_003                                                 6
 STAT SP IPHASW D HRMM SECON CODA AMPLIT PERI AZIMU VELO AIN AR TRES W  DIS CAZ7
 LZ4  SZ E        1457 54.39                  308.0 30.2      0        2.88 128 
 LZ4  SN IP       1457 54.43                             164    0.4010 2.88 128 
 LZ4  SE IS       1457 55.02                             164   -0.4010 2.88 128 
 LZ4  SZ  AML     1457 55.48        63.8 0.12                          2.88 128 
                                                                                
 2009  418 1505  2.6 L  21.242 -99.215 10.0  RAL  1 0.0 0.7LRAL                1
 GAP=360        0.30       4.2     2.7  0.0 -0.1111E+02  0.8384E+03  0.2952E+03E
 ACTION:UPD 12-06-08 11:37 OP:RALL STATUS:               ID:20090418150502     I
 2009-04-18-1504-58S.PLUR1_003                                                 6
 STAT SP IPHASW D HRMM SECON CODA AMPLIT PERI AZIMU VELO AIN AR TRES W  DIS CAZ7
 LZ4  SN IP       15 5  5.28                             131    0.0210 11.3 330 
 LZ4  SZ E        15 5  5.29                  149.8 16.4      0        11.3 330 
 LZ4  SE IS       15 5  7.15                             131   -0.0210 11.3 330 
 LZ4  SZ  AML     15 5  7.31        18.9 0.16                          11.3 330 
                                                                                
 2009  418 1555 36.7 L  21.250 -99.273 10.0  RAL  1 0.1 0.4LRAL                1
 GAP=360        0.53      16.2    13.0  0.0  0.2105E+03  0.8384E+03  0.2952E+03E
 ACTION:UPD 12-06-08 11:37 OP:RALL STATUS:               ID:20090418155536     I
 2009-04-18-1555-30S.PLUR1_003                                                 6
 STAT SP IPHASW D HRMM SECON CODA AMPLIT PERI AZIMU VELO AIN AR TRES W  DIS CAZ7
 LG3  SZ E        1555 38.60                  216.8 17.2      0        3.56  37 
 LG3  SN IP       1555 38.93                             161    0.2910 3.56  37 
 LG3  SE IS       1555 39.76                             161   -0.2910 3.56  37 
 LG3  SZ  AML     1555 40.49        12.9 0.20                          3.56  37 
                                                                                
 2009  418 1936 34.2 R                       RAL  0                            1
 ACTION:UPD 12-06-08 11:37 OP:RALL STATUS:               ID:20090418193634     I
 2009-04-18-1936-34S.PLUR1_003                                                 6
 STAT SP IPHASW D HRMM SECON CODA AMPLIT PERI AZIMU VELO AIN AR TRES W  DIS CAZ7
                                                                                
 2009  418 2258  5.2 L  21.473 -99.292 10.0  RAL  1 0.2 0.4LRAL                1
 GAP=360        0.73      25.3    41.1  0.0 -0.1042E+04  0.8384E+03  0.2952E+03E
 ACTION:UPD 12-06-08 11:37 OP:RALL STATUS:               ID:20090418225805     I
 2009-04-18-2257-53S.PLUR1_003                                                 6
 STAT SP IPHASW D HRMM SECON CODA AMPLIT PERI AZIMU VELO AIN AR TRES W  DIS CAZ7
 LA4  SZ E        2258  7.45                  123.5  9.3      0        2.10 303 
 LA4  SN IP       2258  7.57                             169    0.4510 2.10 303 
 LA4  SE IS       2258  8.04                             169   -0.4510 2.10 303 
 LA4  SZ  AML     2258  8.19        13.4 0.40                          2.10 303 
                                                                                
 2009  418 2309 31.8 L  21.418 -99.266 10.0  RAL  1 0.0 0.4LRAL                1
 GAP=360        0.30       4.9     3.2  0.0 -0.1576E+02  0.8384E+03  0.2952E+03E
 ACTION:UPD 12-06-08 11:37 OP:RALL STATUS:               ID:20090418230931     I
 2009-04-18-2309-21S.PLUR1_003                                                 6
 STAT SP IPHASW D HRMM SECON CODA AMPLIT PERI AZIMU VELO AIN AR TRES W  DIS CAZ7
 LA4  SN IP       23 9 34.19                             140    0.0210 8.51 329 
 LA4  SZ E        23 9 34.40                  148.7 10.0      0        8.51 329 
 LA4  SE IS       23 9 35.84                             140   -0.0210 8.51 329 
 LA4  SZ  AML     23 9 36.04        10.8 0.24                          8.51 329 
                                                                                
 2009  419 0118 25.1 L  21.623 -99.348 10.0  RAL  1 0.0 0.4LRAL                1
 GAP=360        0.30       4.1     1.2  0.0 -0.4751E+01  0.8384E+03  0.2952E+03E
 ACTION:UPD 12-06-08 11:37 OP:RALL STATUS:               ID:20090419011825     I
 2009-04-19-0118-16S.PLUR1_003                                                 6
 STAT SP IPHASW D HRMM SECON CODA AMPLIT PERI AZIMU VELO AIN AR TRES W  DIS CAZ7
 LA4  SN IP        118 28.36                             120    0.0010 15.9 165 
 LA4  SZ E         118 28.41                  345.4 10.4      0        15.9 165 
 LA4  SE IS        118 30.70                             120    0.0010 15.9 165 
 LA4  SZ  AML      118 31.39         8.1 0.26                          15.9 165 
                                                                                
 2009  419 0542 43.7 L  21.517 -99.334 10.0  RAL  1 0.0 0.3LRAL                1
 GAP=360        0.33       8.4     6.5  0.0 -0.5438E+02  0.8384E+03  0.2952E+03E
 ACTION:UPD 12-06-08 11:37 OP:RALL STATUS:               ID:20090419054243     I
 2009-04-19-0542-32S.PLUR1_003                                                 6
 STAT SP IPHASW D HRMM SECON CODA AMPLIT PERI AZIMU VELO AIN AR TRES W  DIS CAZ7
 LA4  SZ E         542 45.73                  324.4  7.4      0        4.51 144 
 LA4  SN IP        542 45.76                             156    0.1010 4.51 144 
 LA4  SE IS        542 47.01                             156   -0.1010 4.51 144 
 LA4  SZ  AML      542 47.39        11.2 0.24                          4.51 144 
                                                                                
 2009  419 0940 47.2 L  21.269 -99.243 10.0  RAL  1 0.0 0.5LRAL                1
 GAP=360        0.30       5.8     2.5  0.0 -0.1450E+02  0.8384E+03  0.2952E+03E
 ACTION:UPD 12-06-08 11:37 OP:RALL STATUS:               ID:20090419094047     I
 2009-04-19-0940-41S.PLUR1_003                                                 6
 STAT SP IPHASW D HRMM SECON CODA AMPLIT PERI AZIMU VELO AIN AR TRES W  DIS CAZ7
 LZ4  SZ E         940 49.44                  158.3 11.7      0        7.38 338 
 LZ4  SN IP        940 49.44                             144    0.0210 7.38 338 
 LZ4  SE IS        940 51.01                             144   -0.0210 7.38 338 
 LZ4  SZ  AML      940 51.04        15.6 0.34                          7.38 338 
                                                                                
 2009  419 1010 26.0 L  21.320 -99.258 10.0  RAL  1 0.5 0.5LRAL                1
 GAP=360        5.86     999.9   999.9  0.0  0.8927E+08  0.8384E+03  0.2952E+03E
 ACTION:UPD 12-06-08 11:37 OP:RALL STATUS:               ID:20090419101026     I
 2009-04-19-1010-18S.PLUR1_003                                                 6
 STAT SP IPHASW D HRMM SECON CODA AMPLIT PERI AZIMU VELO AIN AR TRES W  DIS CAZ7
 LZ4  SN IP       1010 28.29                             171    0.4810 1.70 317 
 LZ4  SZ E        1010 28.32                  164.7 18.3     28        1.70 317 
 LZ4  SE IS       1010 28.69                             171   -0.4810 1.70 317 
 LZ4  SZ  AML     1010 28.77        17.5 0.24                          1.70 317 
                                                                                
 2009  419 1040  6.7 L  21.208 -99.265 10.0  RAL  1 0.0 0.8LRAL                1
 GAP=360        0.30       6.1     1.2  0.0  0.7075E+01  0.8384E+03  0.2952E+03E
 ACTION:UPD 12-06-08 11:37 OP:RALL STATUS:               ID:20090419104006     I
 2009-04-19-1040-01S.PLUR1_003                                                 6
 STAT SP IPHASW D HRMM SECON CODA AMPLIT PERI AZIMU VELO AIN AR TRES W  DIS CAZ7
 LG3  SZ E        1040  8.90                  190.1 11.1      0        7.58  10 
 LG3  SN IP       1040  8.94                             143    0.0110 7.58  10 
 LG3  SE IS       1040 10.55                             143   -0.0110 7.58  10 
 LG3  SZ  AML     1040 10.66        30.2 0.34                          7.58  10 
                                                                                
 2009  419 1150 31.4 L  21.326 -99.257 10.0  RAL  1 0.2 0.7LRAL                1
 GAP=360        0.93     999.9   999.9  0.0  0.5053E+07  0.8384E+03  0.2952E+03E
 ACTION:UPD 12-06-08 11:37 OP:RALL STATUS:               ID:20090419115031     I
 2009-04-19-1150-24S.PLUR1_003                                                 6
 STAT SP IPHASW D HRMM SECON CODA AMPLIT PERI AZIMU VELO AIN AR TRES W  DIS CAZ7
 LZ4  SZ E        1150 33.85                  111.1  9.9      0        1.42 291 
 LZ4  SN IP       1150 33.85                             172    0.5910 1.42 291 
 LZ4  SE IS       1150 34.01                             172   -0.5910 1.42 291 
 LZ4  SZ  AML     1150 34.23        29.2 0.18                          1.42 291 
                                                                                
 2009  419 2247 49.4 L  21.616 -99.396 10.0  RAL  1 0.0 1.1LRAL                1
 GAP=360        0.30       3.6     2.4  0.0 -0.8280E+01  0.8384E+03  0.2952E+03E
 ACTION:UPD 12-06-08 11:37 OP:RALL STATUS:               ID:20090419224749     I
 2009-04-19-2247-38S.PLUR1_003                                                 6
 STAT SP IPHASW D HRMM SECON CODA AMPLIT PERI AZIMU VELO AIN AR TRES W  DIS CAZ7
 LA4  SZ E        2247 52.69                  328.5  8.2      0        17.2 148 
 LA4  SN IP       2247 52.75                             118    0.0110 17.2 148 
 LA4  SE IS       2247 55.21                             118   -0.0110 17.2 148 
 LA4  SZ  AML     2247 58.21        37.6 0.36                          17.2 148 
                                                                                
