 2009  625 1152  3.9 L  21.342 -99.390 10.0  RAL  1 0.0 0.7LRAL                1
 GAP=360        0.30       0.6     5.0  0.0 -0.2260E+01 -0.2651E+02  0.1824E+02E
 ACTION:UPD 12-06-08 11:37 OP:RALL STATUS:               ID:20090625115203     I
 2009-06-25-1151-59S.PLUR1_003                                                 6
 STAT SP IPHASW D HRMM SECON CODA AMPLIT PERI AZIMU VELO AIN AR TRES W  DIS CAZ7
 LZ4  SZ E        1152  6.61                  275.7 16.3      0        12.6  96 
 LZ4  SN IP       1152  6.64                             127    0.0010 12.6  96 
 LZ4  SE IS       1152  8.66                             127    0.0010 12.6  96 
 LZ4  SZ  AML     1152  9.05        18.6 0.40                          12.6  96 
                                                                                
 2009  625 1734 36.9 L  21.726 -99.202 10.0  RAL  1 0.0 1.6LRAL                1
 GAP=360        0.30       3.7     1.4  0.0  0.2136E+01 -0.2651E+02  0.1824E+02E
 ACTION:UPD 12-06-08 11:37 OP:RALL STATUS:               ID:20090625173436     I
 2009-06-25-1734-35S.PLUR1_003                                                 6
 STAT SP IPHASW D HRMM SECON CODA AMPLIT PERI AZIMU VELO AIN AR TRES W  DIS CAZ7
 LZ4  SZ E        1734 44.32                    9.1 12.8      0        44.3 189 
 LZ4  SN IP       1734 44.37                              99    0.0110 44.3 189 
 LZ4  SE IS       1734 49.77                              99   -0.0110 44.3 189 
 LZ4  SZ  AML     1734 50.76        47.9 0.58                          44.3 189 
                                                                                
 2009  625 1759 21.4 L  21.771 -99.217 10.0  RAL  1 0.0 1.6LRAL                1
 GAP=360        0.30       3.7     1.4  0.0  0.1449E+01 -0.2651E+02  0.1824E+02E
 ACTION:UPD 12-06-08 11:37 OP:RALL STATUS:               ID:20090625175921     I
 2009-06-25-1759-20S.PLUR1_003                                                 6
 STAT SP IPHASW D HRMM SECON CODA AMPLIT PERI AZIMU VELO AIN AR TRES W  DIS CAZ7
 LZ4  SN IP       1759 29.54                              98    0.0110 49.1 186 
 LZ4  SZ E        1759 29.79                    6.3 11.7      0        49.1 186 
 LZ4  SE IS       1759 35.48                              98   -0.0110 49.1 186 
 LZ4  SZ  AML     1759 36.22        53.5 0.52                          49.1 186 
                                                                                
 2009  625 1818 58.9 L  21.753 -99.050 10.0  RAL  1 0.0 0.4LRAL                1
 GAP=360        0.30       2.9     2.8  0.0  0.7007E+01 -0.2651E+02  0.1824E+02E
 ACTION:UPD 12-06-08 11:37 OP:RALL STATUS:               ID:20090625181858     I
 2009-06-25-1818-56S.PLUR1_003                                                 6
 STAT SP IPHASW D HRMM SECON CODA AMPLIT PERI AZIMU VELO AIN AR TRES W  DIS CAZ7
 LA4  SZ E        1819  5.67                   41.9 24.5      0        40.0 222 
 LA4  SN IP       1819  5.74                             100    0.0210 40.0 222 
 LA4  SE IS       1819 10.65                             100   -0.0210 40.0 222 
 LA4  SZ  AML     1819 11.62         3.7 0.28                          40.0 222 
                                                                                
 2009  626 0303 15.0 L  21.345 -99.295 10.0  RAL  1 0.1 0.6LRAL                1
 GAP=360        0.45       9.9    18.2  0.0 -0.1796E+03 -0.2651E+02  0.1824E+02E
 ACTION:UPD 12-06-08 11:37 OP:RALL STATUS:               ID:20090626030315     I
 2009-06-26-0303-08S.PLUR1_003                                                 6
 STAT SP IPHASW D HRMM SECON CODA AMPLIT PERI AZIMU VELO AIN AR TRES W  DIS CAZ7
 LZ4  SZ E         3 3 17.13                  300.2 26.5      0        3.07 120 
 LZ4  SN IP        3 3 17.15                             163    0.2310 3.07 120 
 LZ4  SE IS        3 3 18.08                             163   -0.2310 3.07 120 
 LZ4  SZ  AML      3 3 19.38        20.1 0.68                          3.07 120 
                                                                                
 2009  626 1301  4.9 R  21.699 -99.711 10.0  RAL  1 0.0 1.6LRAL                1
 GAP=360        0.30       2.7     3.2  0.0 -0.6053E+01 -0.2651E+02  0.1824E+02E
 ACTION:UPD 12-06-08 11:37 OP:RALL STATUS:               ID:20090626130104     I
 2009-06-26-1301-07S.PLUR1_003                                                 6
 STAT SP IPHASW D HRMM SECON CODA AMPLIT PERI AZIMU VELO AIN AR TRES W  DIS CAZ7
 LZ4  SN IP       13 1 14.99                              96    0.0110 61.2 132 
 LZ4  SZ E        13 1 15.07                  311.8 12.7      0        61.2 132 
 LZ4  SE IS       13 1 22.29                              96   -0.0110 61.2 132 
 LZ4  SZ  AML     13 1 23.14        38.9 0.34                          61.2 132 
                                                                                
 2009  626 1643 46.8 L  20.948 -99.142 10.0  RAL  1 0.0 1.3LRAL                1
 GAP=360        0.30       3.6     1.7  0.0 -0.3849E+01 -0.2651E+02  0.1824E+02E
 ACTION:UPD 12-06-08 11:37 OP:RALL STATUS:               ID:20090626164346     I
 2009-06-26-1643-49S.PLUR1_003                                                 6
 STAT SP IPHASW D HRMM SECON CODA AMPLIT PERI AZIMU VELO AIN AR TRES W  DIS CAZ7
 LZ4  SN IP       1643 54.22                              99    0.0110 44.4 343 
 LZ4  SZ E        1643 54.27                  162.7 16.5      0        44.4 343 
 LZ4  SE IS       1643 59.63                              99   -0.0110 44.4 343 
 LZ4  SZ  AML     1643 59.94        25.3 0.24                          44.4 343 
                                                                                
 2009  626 2122 33.1 L  21.229 -99.252 10.0  RAL  1 0.0 0.5LRAL                1
 GAP=360        0.30       4.8     0.9  0.0 -0.3897E+01 -0.2651E+02  0.1824E+02E
 ACTION:UPD 12-06-08 11:37 OP:RALL STATUS:               ID:20090626212233     I
 2009-06-26-2122-27S.PLUR1_003                                                 6
 STAT SP IPHASW D HRMM SECON CODA AMPLIT PERI AZIMU VELO AIN AR TRES W  DIS CAZ7
 LZ4  SN IP       2122 35.69                             131    0.0010 11.4 351 
 LZ4  SZ E        2122 35.70                  171.0 15.9      0        11.4 351 
 LZ4  SE IS       2122 37.60                             131    0.0010 11.4 351 
 LZ4  SZ  AML     2122 38.07        12.0 0.10                          11.4 351 
                                                                                
 2009  626 2303 42.3 L  22.052 -99.256 10.0  RAL  1 0.0 1.4LRAL                1
 GAP=360        0.30       3.7     2.2  0.0  0.1793E+00 -0.2651E+02  0.1824E+02E
 ACTION:UPD 12-06-08 11:37 OP:RALL STATUS:               ID:20090626230342     I
 2009-06-26-2303-47S.PLUR1_003                                                 6
 STAT SP IPHASW D HRMM SECON CODA AMPLIT PERI AZIMU VELO AIN AR TRES W  DIS CAZ7
 LZ4  SN IP       23 3 55.20                              94    0.0110 79.8 181 
 LZ4  SZ E        23 3 55.27                    1.0 12.2      0        79.8 181 
 LZ4  SE IS       23 4  4.61                              94   -0.0110 79.8 181 
 LZ4  SZ  AML     23 4  6.53        16.9 0.84                          79.8 181 
                                                                                
 2009  627 0625 13.1 L  21.335 -99.293 10.0  RAL  1 0.0 0.2LRAL                1
 GAP=360        0.31       2.8    17.8  0.0 -0.5039E+02 -0.2651E+02  0.1824E+02E
 ACTION:UPD 12-06-08 11:37 OP:RALL STATUS:               ID:20090627062513     I
 2009-06-27-0625-07S.PLUR1_003                                                 6
 STAT SP IPHASW D HRMM SECON CODA AMPLIT PERI AZIMU VELO AIN AR TRES W  DIS CAZ7
 LZ4  SZ E         625 14.94                  279.7 47.1      0        2.43 100 
 LZ4  SN IP        625 15.01                             167    0.0610 2.43 100 
 LZ4  SE IS        625 16.26                             167   -0.0610 2.43 100 
 LZ4  SZ  AML      625 17.62         8.9 0.54                          2.43 100 
                                                                                
 2009  627 0947 51.7 L  21.230 -99.265 10.0  RAL  1 0.0-0.2LRAL                1
 GAP=360        0.30       8.0     2.2  0.0  0.1770E+02 -0.2651E+02  0.1824E+02E
 ACTION:UPD 12-06-08 11:37 OP:RALL STATUS:               ID:20090627094751     I
 2009-06-27-0947-45S.PLUR1_003                                                 6
 STAT SP IPHASW D HRMM SECON CODA AMPLIT PERI AZIMU VELO AIN AR TRES W  DIS CAZ7
 LG3  SZ E         947 53.71                  194.4 12.4      0        5.20  14 
 LG3  SN IP        947 53.73                             153    0.0310 5.20  14 
 LG3  SE IS        947 55.17                             153   -0.0310 5.20  14 
 LG3  SZ  AML      947 55.85         3.4 0.48                          5.20  14 
                                                                                
 2009  627 1254 35.9 L  21.319 -99.268 10.0  RAL  1 0.3 1.2LRAL                1
 GAP=360        3.50     999.9   999.9  0.0  0.3284E+09 -0.2651E+02  0.1824E+02E
 ACTION:UPD 12-06-08 11:37 OP:RALL STATUS:               ID:20090627125435     I
 2009-06-27-1254-28S.PLUR1_003                                                 6
 STAT SP IPHASW D HRMM SECON CODA AMPLIT PERI AZIMU VELO AIN AR TRES W  DIS CAZ7
 LZ4  SN IP       1254 38.26                             173    0.5410 1.32 355 
 LZ4  SZ E        1254 38.26                  191.6 15.4     16        1.32 355 
 LZ4  SE IS       1254 38.53                             173   -0.5410 1.32 355 
 LZ4  SZ  AML     1254 38.76        96.2 0.16                          1.32 355 
                                                                                
 2009  628 0329 22.6 L  21.340 -99.295 10.0  RAL  1 0.1 0.5LRAL                1
 GAP=360        0.37       6.4    17.4  0.0 -0.1111E+03 -0.2651E+02  0.1824E+02E
 ACTION:UPD 12-06-08 11:37 OP:RALL STATUS:               ID:20090628032922     I
 2009-06-28-0329-16S.PLUR1_003                                                 6
 STAT SP IPHASW D HRMM SECON CODA AMPLIT PERI AZIMU VELO AIN AR TRES W  DIS CAZ7
 LZ4  SZ E         329 24.53                  291.5 20.6      0        2.83 111 
 LZ4  SN IP        329 24.60                             165    0.1510 2.83 111 
 LZ4  SE IS        329 25.68                             165   -0.1510 2.83 111 
 LZ4  SZ  AML      329 26.71        18.2 0.82                          2.83 111 
                                                                                
 2009  628 0605 22.6 L  21.284 -99.234 10.0  RAL  1 0.2 0.5LRAL                1
 GAP=360        0.77      19.9    46.9  0.0  0.9345E+03 -0.2651E+02  0.1824E+02E
 ACTION:UPD 12-06-08 11:37 OP:RALL STATUS:               ID:20090628060522     I
 2009-06-28-0605-15S.PLUR1_003                                                 6
 STAT SP IPHASW D HRMM SECON CODA AMPLIT PERI AZIMU VELO AIN AR TRES W  DIS CAZ7
 LG3  SZ E         6 5 24.96                   65.5 33.2      0        2.12 245 
 LG3  SN IP        6 5 25.00                             169    0.4810 2.12 245 
 LG3  SE IS        6 5 25.42                             169   -0.4810 2.12 245 
 LG3  SZ  AML      6 5 26.04        18.1 0.18                          2.12 245 
                                                                                
 2009  628 1024 57.4 L  21.152 -99.275 10.0  RAL  1 0.0 1.4LRAL                1
 GAP=360        0.30       4.0     0.6  0.0  0.4824E+00 -0.2651E+02  0.1824E+02E
 ACTION:UPD 12-06-08 11:37 OP:RALL STATUS:               ID:20090628102457     I
 2009-06-28-1024-51S.PLUR1_003                                                 6
 STAT SP IPHASW D HRMM SECON CODA AMPLIT PERI AZIMU VELO AIN AR TRES W  DIS CAZ7
 LZ4  SZ E        1025  1.17                  181.6 14.6      0        19.8   2 
 LZ4  SN IP       1025  1.18                             114    0.0210 19.8   2 
 LZ4  SE IS       1025  3.88                             114   -0.0210 19.8   2 
 LZ4  SZ  AML     1025  4.14        62.8 0.32                          19.8   2 
                                                                                
 2009  628 1350  1.8 L  21.179 -99.161 10.0  RAL  1 0.0 1.0LRAL                1
 GAP=360        0.30       3.3     3.2  0.0 -0.1045E+02 -0.2651E+02  0.1824E+02E
 ACTION:UPD 12-06-08 11:37 OP:RALL STATUS:               ID:20090628135001     I
 2009-06-28-1349-55S.PLUR1_003                                                 6
 STAT SP IPHASW D HRMM SECON CODA AMPLIT PERI AZIMU VELO AIN AR TRES W  DIS CAZ7
 LG3  SZ E        1350  4.80                  138.5 10.7      0        14.3 319 
 LG3  SN IP       1350  4.83                             124    0.0210 14.3 319 
 LG3  SE IS       1350  6.99                             124   -0.0210 14.3 319 
 LG3  SZ  AML     1350  7.16        32.7 0.28                          14.3 319 
                                                                                
 2009  628 1505 59.3 L  21.344 -99.283 10.0  RAL  1 0.2                        1
 GAP=360        0.91     999.9   999.9  0.0  0.1483E+07 -0.2651E+02  0.1824E+02E
 ACTION:UPD 12-06-08 11:37 OP:RALL STATUS:               ID:20090628150559     I
 2009-06-28-1505-52S.PLUR1_003                                                 6
 STAT SP IPHASW D HRMM SECON CODA AMPLIT PERI AZIMU VELO AIN AR TRES W  DIS CAZ7
 LZ4  SZ E        15 6  1.77                  317.5 15.5      0        2.04 137 
 LZ4  SN IP       15 6  1.78                             169    0.5810 2.04 137 
 LZ4  SE IS       15 6  1.98                             169   -0.5810 2.04 137 
                                                                                
 2009  628 2043 12.1 L  21.547 -99.424 10.0  RAL  1 0.0 0.8LRAL                1
 GAP=360        0.30       3.2     2.4  0.0 -0.7107E+01 -0.2651E+02  0.1824E+02E
 ACTION:UPD 12-06-08 11:37 OP:RALL STATUS:               ID:20090628204312     I
 2009-06-28-2043-12S.PLUR1_003                                                 6
 STAT SP IPHASW D HRMM SECON CODA AMPLIT PERI AZIMU VELO AIN AR TRES W  DIS CAZ7
 LZ4  SN IP       2043 17.18                             105    0.0210 28.7 146 
 LZ4  SZ E        2043 17.18                  326.2 19.6      0        28.7 146 
 LZ4  SE IS       2043 20.82                             105   -0.0210 28.7 146 
 LZ4  SZ  AML     2043 21.50        12.5 0.70                          28.7 146 
                                                                                
 2009  628 2048 50.7 L  21.277 -99.376 10.0  RAL  1 0.0 0.5LRAL                1
 GAP=360        0.30       2.2     4.4  0.0  0.9667E+01 -0.2651E+02  0.1824E+02E
 ACTION:UPD 12-06-08 11:37 OP:RALL STATUS:               ID:20090628204850     I
 2009-06-28-2048-46S.PLUR1_003                                                 6
 STAT SP IPHASW D HRMM SECON CODA AMPLIT PERI AZIMU VELO AIN AR TRES W  DIS CAZ7
 LZ4  SZ E        2048 53.48                  241.8 16.3      0        12.5  62 
 LZ4  SN IP       2048 53.49                             127    0.0110 12.5  62 
 LZ4  SE IS       2048 55.48                             127   -0.0110 12.5  62 
 LZ4  SZ  AML     2048 57.28        10.8 0.68                          12.5  62 
                                                                                
 2009  628 2153 48.4 L  21.310 -99.286 10.0  RAL  1 0.2 0.6LRAL                1
 GAP=360        0.68      25.2    20.6  0.0  0.5197E+03 -0.2651E+02  0.1824E+02E
 ACTION:UPD 12-06-08 11:37 OP:RALL STATUS:               ID:20090628215348     I
 2009-06-28-2153-41S.PLUR1_003                                                 6
 STAT SP IPHASW D HRMM SECON CODA AMPLIT PERI AZIMU VELO AIN AR TRES W  DIS CAZ7
 LZ4  SN IP       2153 50.68                             165    0.4110 2.84  37 
 LZ4  SZ E        2153 50.68                  217.4 21.1      0        2.84  37 
 LZ4  SE IS       2153 51.24                             165   -0.4110 2.84  37 
 LZ4  SZ  AML     2153 52.19        20.9 0.62                          2.84  37 
                                                                                
 2009  629 0221 27.9 L  21.365 -99.309 10.0  RAL  1 0.0 0.5LRAL                1
 GAP=360        0.31       5.6     6.5  0.0 -0.3629E+02 -0.2651E+02  0.1824E+02E
 ACTION:UPD 12-06-08 11:37 OP:RALL STATUS:               ID:20090629022127     I
 2009-06-29-0221-22S.PLUR1_003                                                 6
 STAT SP IPHASW D HRMM SECON CODA AMPLIT PERI AZIMU VELO AIN AR TRES W  DIS CAZ7
 LZ4  SZ E         221 30.02                  312.8 12.2      0        5.53 133 
 LZ4  SN IP        221 30.05                             152    0.0710 5.53 133 
 LZ4  SE IS        221 31.40                             152   -0.0710 5.53 133 
 LZ4  SZ  AML      221 31.64        17.2 0.80                          5.53 133 
                                                                                
 2009  629 0540 51.6 L  21.364 -99.402 10.0  RAL  1 0.0 0.2LRAL                1
 GAP=360        0.30       2.2     3.7  0.0 -0.8101E+01 -0.2651E+02  0.1824E+02E
 ACTION:UPD 12-06-08 11:37 OP:RALL STATUS:               ID:20090629054051     I
 2009-06-29-0540-48S.PLUR1_003                                                 6
 STAT SP IPHASW D HRMM SECON CODA AMPLIT PERI AZIMU VELO AIN AR TRES W  DIS CAZ7
 LG3  SZ E         540 55.13                  302.4 19.2      0        18.3 122 
 LG3  SN IP        540 55.16                             116    0.0110 18.3 122 
 LG3  SE IS        540 57.74                             116   -0.0110 18.3 122 
 LG3  SZ  AML      540 59.89         4.9 0.38                          18.3 122 
                                                                                
 2009  630 0126 17.8 L  21.314 -99.275 10.0  RAL  1 0.3 0.3LRAL                1
 GAP=360        3.64     127.5   451.4  0.0  0.5736E+05 -0.2651E+02  0.1824E+02E
 ACTION:UPD 12-06-08 11:37 OP:RALL STATUS:               ID:20090630012617     I
 2009-06-30-0126-11S.PLUR1_003                                                 6
 STAT SP IPHASW D HRMM SECON CODA AMPLIT PERI AZIMU VELO AIN AR TRES W  DIS CAZ7
 LZ4  SZ E         126 19.63                  179.9 22.0    -16        1.94  17 
 LZ4  SN IP        126 19.71                             169    0.0810 1.94  17 
 LZ4  SE IS        126 20.90                             169   -0.0810 1.94  17 
 LZ4  SZ  AML      126 21.74        11.4 0.88                          1.94  17 
                                                                                
 2009  630 0259 25.9 L  21.723 -99.309 10.0  RAL  1 0.0 2.7LRAL                1
 GAP=360        0.30       3.9     0.7  0.0  0.2737E-01 -0.2651E+02  0.1824E+02E
 ACTION:UPD 12-06-08 11:37 OP:RALL STATUS:               ID:20090630025925     I
 2009-06-30-0259-15S.PLUR1_003                                                 6
 STAT SP IPHASW D HRMM SECON CODA AMPLIT PERI AZIMU VELO AIN AR TRES W  DIS CAZ7
 LA4  SZ E         259 30.61                    0.1  8.5      0        26.5 180 
 LA4  SN IP        259 30.66                             107    0.0110 26.5 180 
 LA4  SE IS        259 34.09                             107   -0.0110 26.5 180 
 LA4  SZ  AML      259 35.03       973.4 0.30                          26.5 180 
                                                                                
