 2009 12 4 1538 52.0 L  21.110 -99.004 10.0  RAL  1 0.0 0.1LRAL                1
 GAP=360        0.30       1.1     4.1  0.0 -0.3944E+01  0.4890E+07  0.4851E+07E
 ACTION:UPD 12-06-08 11:37 OP:RALL STATUS:               ID:20091204153852     I
 2009-12-04-1538-49S.PLUR1_003                                                 6
 STAT SP IPHASW D HRMM SECON CODA AMPLIT PERI AZIMU VELO AIN AR TRES W  DIS CAZ7
 LO8  SZ E        1538 56.15                  104.1  7.0      0        22.4 284 
 LO8  SN IP       1538 56.19                             111    0.0210 22.4 284 
 LO8  SE IS       1538 59.18                             111   -0.0210 22.4 284 
 LO8  SZ  AML     1538 59.97         2.8 0.30                          22.4 284 
                                                                                
 2009 12 5 2153 12.8 L  21.223 -99.234 10.0  RAL  1 0.0 0.7LRAL                1
 GAP=360        0.30       6.9     2.5  0.0 -0.1705E+02  0.4890E+07  0.4851E+07E
 ACTION:UPD 12-06-08 11:37 OP:RALL STATUS:               ID:20091205215312     I
 2009-12-05-2153-06S.PLUR1_003                                                 6
 STAT SP IPHASW D HRMM SECON CODA AMPLIT PERI AZIMU VELO AIN AR TRES W  DIS CAZ7
 LG3  SN IP       2153 14.95                             149    0.0210 6.10 342 
 LG3  SZ E        2153 15.02                  161.6  8.9      0        6.10 342 
 LG3  SE IS       2153 16.44                             149   -0.0210 6.10 342 
 LG3  SZ  AML     2153 16.60        27.1 0.10                          6.10 342 
                                                                                
 2009 1213 1755  9.9 L  21.258 -99.272 10.0  RAL  1 0.1 0.7LRAL                1
 GAP=360        0.62      20.9    22.3  0.0  0.4662E+03  0.4890E+07  0.4851E+07E
 ACTION:UPD 12-06-08 11:37 OP:RALL STATUS:               ID:20091213175509     I
 2009-12-13-1755-02S.PLUR1_003                                                 6
 STAT SP IPHASW D HRMM SECON CODA AMPLIT PERI AZIMU VELO AIN AR TRES W  DIS CAZ7
 LG3  SZ E        1755 12.14                  224.8 22.1      0        2.82  45 
 LG3  SN IP       1755 12.17                             165    0.3710 2.82  45 
 LG3  SE IS       1755 12.83                             165   -0.3710 2.82  45 
 LG3  SZ  AML     1755 13.01        26.3 0.10                          2.82  45 
                                                                                
 2009 1214 1634 14.4 L  21.146 -99.180 10.0  RAL  1 0.0-0.4LRAL                1
 GAP=360        0.33       4.8    11.9  0.0 -0.5638E+02  0.4890E+07  0.4851E+07E
 ACTION:UPD 12-06-08 11:37 OP:RALL STATUS:               ID:20091214163414     I
 2009-12-14-1634-07S.PLUR1_003                                                 6
 STAT SP IPHASW D HRMM SECON CODA AMPLIT PERI AZIMU VELO AIN AR TRES W  DIS CAZ7
 LO8  SZ E        1634 16.35                  113.2  7.1      0        3.78 293 
 LO8  SN IP       1634 16.46                             160    0.0910 3.78 293 
 LO8  SE IS       1634 17.73                             160   -0.0910 3.78 293 
 LO8  SZ  AML     1634 18.16         2.1 0.18                          3.78 293 
                                                                                
 2009 1216 0612 49.6 L  21.266 -99.289 10.0  RAL  1 0.0-0.4LRAL                1
 GAP=360        0.31       2.8    11.2  0.0  0.3136E+02  0.4890E+07  0.4851E+07E
 ACTION:UPD 12-06-08 11:37 OP:RALL STATUS:               ID:20091216061249     I
 2009-12-16-0612-43S.PLUR1_003                                                 6
 STAT SP IPHASW D HRMM SECON CODA AMPLIT PERI AZIMU VELO AIN AR TRES W  DIS CAZ7
 LG3  SZ E         612 51.52                  254.9 24.6      0        3.95  75 
 LG3  SN IP        612 51.58                             159    0.0610 3.95  75 
 LG3  SE IS        612 52.90                             159   -0.0610 3.95  75 
 LG3  SZ  AML      612 53.56         2.0 0.28                          3.95  75 
                                                                                
