 2009  630 0348 29.8 L  21.336 -99.262 10.0  RAL  1 0.5 1.7LRAL                1
 GAP=360        5.95     999.9   207.2  0.0 -0.3423E+06 -0.2651E+02  0.1824E+02E
 ACTION:UPD 12-06-08 11:37 OP:RALL STATUS:               ID:20090630034829     I
 2009-06-30-0348-22S.PLUR1_003                                                 6
 STAT SP IPHASW D HRMM SECON CODA AMPLIT PERI AZIMU VELO AIN AR TRES W  DIS CAZ7
 LZ4  SZ E         348 32.14                   84.0 13.7     28        1.00 236 
 LZ4  SN IP        348 32.17                             174    0.5810 1.00 236 
 LZ4  SE IS        348 32.35                             174   -0.5810 1.00 236 
 LZ4  SZ  AML      348 32.53       292.1 0.18                          1.00 236 
                                                                                
 2009  630 0806 24.7 L  21.321 -99.270 10.0  RAL  1 0.1 0.6LRAL                1
 GAP=360        1.91     130.5   999.9  0.0  0.2111E+06 -0.2651E+02  0.1824E+02E
 ACTION:UPD 12-06-08 11:37 OP:RALL STATUS:               ID:20090630080624     I
 2009-06-30-0806-17S.PLUR1_003                                                 6
 STAT SP IPHASW D HRMM SECON CODA AMPLIT PERI AZIMU VELO AIN AR TRES W  DIS CAZ7
 LZ4  SZ E         8 6 26.62                  174.6 14.8     -8        1.10   4 
 LZ4  SN IP        8 6 26.67                             174    0.0910 1.10   4 
 LZ4  SE IS        8 6 27.83                             174   -0.0910 1.10   4 
 LZ4  SZ  AML      8 6 28.82        20.1 0.64                          1.10   4 
                                                                                
 2009  630 2331  7.3 L                       RAL  1                            1
 ACTION:UPD 12-06-08 11:37 OP:RALL STATUS:               ID:20090630233107     I
 2009-06-30-2331-07S.PLUR1_003                                                 6
 STAT SP IPHASW D HRMM SECON CODA AMPLIT PERI AZIMU VELO AIN AR TRES W  DIS CAZ7
 LZ4  SN IP       2331 16.49                                                    
 LZ4  SE IS       2331 22.73                                                    
 LZ4  SZ  AML     2331 23.95       389.5 0.56                                   
                                                                                
