 2009  4 3 0730 12.3 L  21.304 -99.258 10.0  RAL  1 0.1 0.2LRAL                1
 GAP=360        0.37      14.4     6.1  0.0 -0.8846E+02  0.2155E+01 -0.1695E+00E
 ACTION:UPD 12-06-08 11:37 OP:RALL STATUS:               ID:20090403073012     I
 2009-04-03-0730-06S.PLUR1_003                                                 6
 STAT SP IPHASW D HRMM SECON CODA AMPLIT PERI AZIMU VELO AIN AR TRES W  DIS CAZ7
 LZ4  SZ E         730 14.29                  158.4 19.9      0        3.16 338 
 LZ4  SN IP        730 14.30                             163    0.1410 3.16 338 
 LZ4  SE IS        730 15.40                             163   -0.1410 3.16 338 
 LZ4  SZ  AML      730 15.90         8.2 0.28                          3.16 338 
                                                                                
 2009  4 3 1344 31.0 L  21.238 -99.327 10.0  RAL  1 0.0 0.3LRAL                1
 GAP=360        0.30       4.1     2.6  0.0  0.1067E+02  0.2155E+01 -0.1695E+00E
 ACTION:UPD 12-06-08 11:37 OP:RALL STATUS:               ID:20090403134431     I
 2009-04-03-1344-25S.PLUR1_003                                                 6
 STAT SP IPHASW D HRMM SECON CODA AMPLIT PERI AZIMU VELO AIN AR TRES W  DIS CAZ7
 LZ4  SZ E        1344 33.66                  210.4 53.5      0        11.9  30 
 LZ4  SN IP       1344 33.72                             129    0.0210 11.9  30 
 LZ4  SE IS       1344 35.64                             129   -0.0210 11.9  30 
 LZ4  SZ  AML     1344 36.97         6.9 0.16                          11.9  30 
                                                                                
 2009  4 3 2029 51.0 L  21.322 -99.267 10.0  RAL  1 0.1 1.0LRAL                1
 GAP=360        0.76     999.9   999.9  0.0  0.9256E+07  0.2155E+01 -0.1695E+00E
 ACTION:UPD 12-06-08 11:37 OP:RALL STATUS:               ID:20090403202951     I
 2009-04-03-2029-43S.PLUR1_003                                                 6
 STAT SP IPHASW D HRMM SECON CODA AMPLIT PERI AZIMU VELO AIN AR TRES W  DIS CAZ7
 LZ4  SN IP       2029 53.21                             174    0.3710 1.03 347 
 LZ4  SZ E        2029 53.22                  165.1 18.3     -1        1.03 347 
 LZ4  SE IS       2029 53.82                             174   -0.3710 1.03 347 
 LZ4  SZ  AML     2029 53.97        59.9 0.16                          1.03 347 
                                                                                
 2009  4 3 2328 21.3 L  21.244 -99.338 10.0  RAL  1 0.0 0.6LRAL                1
 GAP=360        0.30       3.9     3.0  0.0  0.1166E+02  0.2155E+01 -0.1695E+00E
 ACTION:UPD 12-06-08 11:37 OP:RALL STATUS:               ID:20090403232821     I
 2009-04-03-2328-16S.PLUR1_003                                                 6
 STAT SP IPHASW D HRMM SECON CODA AMPLIT PERI AZIMU VELO AIN AR TRES W  DIS CAZ7
 LZ4  SZ E        2328 23.92                  216.0 23.4      0        12.0  36 
 LZ4  SN IP       2328 23.95                             129    0.0010 12.0  36 
 LZ4  SE IS       2328 25.91                             129    0.0010 12.0  36 
 LZ4  SZ  AML     2328 26.70        15.8 0.66                          12.0  36 
                                                                                
 2009  4 4 0312 44.8 L  21.501 -99.326 10.0  RAL  1 0.2 0.1LRAL                1
 GAP=360        0.79      29.6    30.0  0.0 -0.8857E+03  0.2155E+01 -0.1695E+00E
 ACTION:UPD 12-06-08 11:37 OP:RALL STATUS:               ID:20090404031244     I
 2009-04-04-0312-33S.PLUR1_003                                                 6
 STAT SP IPHASW D HRMM SECON CODA AMPLIT PERI AZIMU VELO AIN AR TRES W  DIS CAZ7
 LA4  SZ E         312 47.18                  316.7 10.0      0        2.60 137 
 LA4  SN IP        312 47.19                             166    0.5010 2.60 137 
 LA4  SE IS        312 47.58                             166   -0.5010 2.60 137 
 LA4  SZ  AML      312 47.59         7.6 0.16                          2.60 137 
                                                                                
 2009  4 4 1035 51.9 L  21.334 -99.257 10.0  RAL  1 0.2 0.4LRAL                1
 GAP=360        1.89     293.2   285.8  0.0 -0.8378E+05  0.2155E+01 -0.1695E+00E
 ACTION:UPD 12-06-08 11:37 OP:RALL STATUS:               ID:20090404103551     I
 2009-04-04-1035-45S.PLUR1_003                                                 6
 STAT SP IPHASW D HRMM SECON CODA AMPLIT PERI AZIMU VELO AIN AR TRES W  DIS CAZ7
 LZ4  SZ E        1035 53.90                   83.0 67.2      9        1.39 254 
 LZ4  SN IP       1035 53.91                             172    0.2110 1.39 254 
 LZ4  SE IS       1035 54.84                             172   -0.2110 1.39 254 
 LZ4  SZ  AML     1035 55.37        14.1 0.38                          1.39 254 
                                                                                
 2009  4 4 1834 44.8 L  21.367 -99.361 10.0  RAL  1 0.0 1.0LRAL                1
 GAP=360        0.30       2.0     5.1  0.0 -0.1008E+02  0.2155E+01 -0.1695E+00E
 ACTION:UPD 12-06-08 11:37 OP:RALL STATUS:               ID:20090404183444     I
 2009-04-04-1834-38S.PLUR1_003                                                 6
 STAT SP IPHASW D HRMM SECON CODA AMPLIT PERI AZIMU VELO AIN AR TRES W  DIS CAZ7
 LZ4  SZ E        1834 47.22                  293.0 19.9      0        10.3 113 
 LZ4  SN IP       1834 47.34                             134    0.0210 10.3 113 
 LZ4  SE IS       1834 49.13                             134   -0.0210 10.3 113 
 LZ4  SZ  AML     1834 50.05        35.9 0.20                          10.3 113 
                                                                                
 2009  4 4 1903 39.7 L  21.275 -99.253 10.1  RAL  2 0.3 0.4LRAL                1
 GAP=317        3.26       1.9     7.1 20.0  0.1079E+02  0.1007E+01 -0.1055E+01E
 ACTION:UPD 12-06-08 11:37 OP:RALL STATUS:               ID:20090404190339     I
 2009-04-04-1903-32S.PLUR1_006                                                 6
 STAT SP IPHASW D HRMM SECON CODA AMPLIT PERI AZIMU VELO AIN AR TRES W  DIS CAZ7
 LG3  SZ E        19 3 41.90                  205.1 15.1     -3        0.05  29 
 LG3  SN IP       19 3 41.93                             180    0.3610 0.05  29 
 LG3  SE IS       19 3 43.81                             180    0.8710 0.05  29 
 LG3  SZ  AML     19 3 44.89        19.6 0.40                          0.05  29 
 LA4  SZ E        19 3 43.22                  151.8  9.2    -13        23.8 346 
 LA4  SN IP       19 3 43.24                             110   -0.8010 23.8 346 
 LA4  SZ  AML     19 3 46.69         3.9 0.10                          23.8 346 
 LA4  SE IS       19 3 46.77                             110   -0.4310 23.8 346 
                                                                                
 2009  4 5 0011  0.1 L  21.255 -99.256 10.0  RAL  1 0.0 1.2LRAL                1
 GAP=360        0.30       5.6     1.1  0.0 -0.5776E+01  0.1007E+01 -0.1055E+01E
 ACTION:UPD 12-06-08 11:37 OP:RALL STATUS:               ID:20090405001100     I
 2009-04-05-0010-53S.PLUR1_003                                                 6
 STAT SP IPHASW D HRMM SECON CODA AMPLIT PERI AZIMU VELO AIN AR TRES W  DIS CAZ7
 LZ4  SZ E         011  2.45                  170.3 12.6      0        8.51 350 
 LZ4  SN IP        011  2.45                             140    0.0110 8.51 350 
 LZ4  SE IS        011  4.12                             140   -0.0110 8.51 350 
 LZ4  SZ  AML      011  4.26        67.0 0.20                          8.51 350 
                                                                                
 2009  4 5 0040 24.5 L  21.268 -99.200  0.0  RAL  2 0.1 0.7LRAL                1
 GAP=305        0.64       0.4     1.9 15.7 -0.5924E+00 -0.1000E+02  0.1344E+01E
 ACTION:UPD 12-06-08 11:37 OP:RALL STATUS:               ID:20090405004024     I
 2009-04-05-0040-16S.PLUR1_006                                                 6
 STAT SP IPHASW D HRMM SECON CODA AMPLIT PERI AZIMU VELO AIN AR TRES W  DIS CAZ7
 LG3  SZ E         040 25.13                   99.0 16.7      0        5.48 279 
 LG3  SN IP        040 25.16                             102   -0.2710 5.48 279 
 LG3  SE IS        040 26.20                             102    0.0510 5.48 279 
 LG3  SZ  AML      040 26.63       104.4 0.26                          5.48 279 
 LA4  SZ E         040 28.74                  155.4  9.1      1        26.4 335 
 LA4  SN IP        040 28.88                              92   -0.2010 26.4 335 
 LA4  SE IS        040 32.88                              92    0.4210 26.4 335 
 LA4  SZ  AML      040 34.92         4.9 0.32                          26.4 335 
                                                                                
 2009  4 5 0323  1.7 L  21.204 -99.185 10.0  RAL  1 0.0 0.4LRAL                1
 GAP=360        0.30       3.6     2.4  0.0 -0.8458E+01 -0.1000E+02  0.1344E+01E
 ACTION:UPD 12-06-08 11:37 OP:RALL STATUS:               ID:20090405032301     I
 2009-04-05-0322-58S.PLUR1_003                                                 6
 STAT SP IPHASW D HRMM SECON CODA AMPLIT PERI AZIMU VELO AIN AR TRES W  DIS CAZ7
 LZ4  SN IP        323  5.01                             119    0.0110 16.6 328 
 LZ4  SZ E         323  5.05                  148.1 55.1      0        16.6 328 
 LZ4  SE IS        323  7.40                             119   -0.0110 16.6 328 
 LZ4  SZ  AML      323  8.14         8.2 0.50                          16.6 328 
                                                                                
 2009  4 5 0452 34.0 L  21.314 -99.409 10.0  RAL  1 0.0 0.9LRAL                1
 GAP=360        0.30       0.7     4.7  0.0  0.2599E+01 -0.1000E+02  0.1344E+01E
 ACTION:UPD 12-06-08 11:37 OP:RALL STATUS:               ID:20090405045234     I
 2009-04-05-0452-28S.PLUR1_003                                                 6
 STAT SP IPHASW D HRMM SECON CODA AMPLIT PERI AZIMU VELO AIN AR TRES W  DIS CAZ7
 LZ4  SZ E         452 37.01                  262.7 16.5      0        14.6  83 
 LZ4  SN IP        452 37.06                             123    0.0010 14.6  83 
 LZ4  SE IS        452 39.27                             123    0.0010 14.6  83 
 LZ4  SZ  AML      452 39.63        28.9 0.12                          14.6  83 
                                                                                
 2009  4 5 0522 21.2 L  21.280 -99.087 10.0  RAL  1 0.0 0.4LRAL                1
 GAP=360        0.30       2.7     3.0  0.0 -0.7444E+01 -0.1000E+02  0.1344E+01E
 ACTION:UPD 12-06-08 11:37 OP:RALL STATUS:               ID:20090405052221     I
 2009-04-05-0522-17S.PLUR1_003                                                 6
 STAT SP IPHASW D HRMM SECON CODA AMPLIT PERI AZIMU VELO AIN AR TRES W  DIS CAZ7
 LA4  SZ E         522 26.67                  134.3 10.4      0        32.2 314 
 LA4  SN IP        522 26.77                             103    0.0210 32.2 314 
 LA4  SE IS        522 30.80                             103   -0.0210 32.2 314 
 LA4  SZ  AML      522 31.82         4.9 0.58                          32.2 314 
                                                                                
 2009  4 5 0816 34.4 L  21.265 -99.272 10.0  RAL  1 0.2 0.5LRAL                1
 GAP=360        0.90      24.4    47.3  0.0  0.1155E+04 -0.1000E+02  0.1344E+01E
 ACTION:UPD 12-06-08 11:37 OP:RALL STATUS:               ID:20090405081634     I
 2009-04-05-0816-27S.PLUR1_003                                                 6
 STAT SP IPHASW D HRMM SECON CODA AMPLIT PERI AZIMU VELO AIN AR TRES W  DIS CAZ7
 LG3  SN IP        816 36.86                             167    0.5710 2.37  61 
 LG3  SZ E         816 36.89                  241.1 19.5      0        2.37  61 
 LG3  SE IS        816 37.10                             167   -0.5710 2.37  61 
 LG3  SZ  AML      816 37.25        16.2 0.22                          2.37  61 
                                                                                
 2009  4 5 1021 47.4 L  21.722 -99.408 10.0  RAL  1 0.0 0.6LRAL                1
 GAP=360        0.30       3.6     1.7  0.0 -0.5206E+01 -0.1000E+02  0.1344E+01E
 ACTION:UPD 12-06-08 11:37 OP:RALL STATUS:               ID:20090405102147     I
 2009-04-05-1021-41S.PLUR1_003                                                 6
 STAT SP IPHASW D HRMM SECON CODA AMPLIT PERI AZIMU VELO AIN AR TRES W  DIS CAZ7
 LA4  SZ E        1021 52.33                  338.7  8.9      0        28.3 159 
 LA4  SN IP       1021 52.38                             105    0.0210 28.3 159 
 LA4  SE IS       1021 55.99                             105   -0.0210 28.3 159 
 LA4  SZ  AML     1021 58.96         7.8 0.50                          28.3 159 
                                                                                
 2009  4 5 1145 29.5 L  21.641 -99.297 10.0  RAL  1 0.0 1.0LRAL                1
 GAP=360        0.30       3.8     1.0  0.0 -0.1188E+01 -0.1000E+02  0.1344E+01E
 ACTION:UPD 12-06-08 11:37 OP:RALL STATUS:               ID:20090405114529     I
 2009-04-05-1145-30S.PLUR1_003                                                 6
 STAT SP IPHASW D HRMM SECON CODA AMPLIT PERI AZIMU VELO AIN AR TRES W  DIS CAZ7
 LZ4  SZ E        1145 35.27                  355.3 20.3      0        34.4 175 
 LZ4  SN IP       1145 35.45                             102    0.0110 34.4 175 
 LZ4  SE IS       1145 39.75                             102   -0.0110 34.4 175 
 LZ4  SZ  AML     1145 40.66        15.8 0.64                          34.4 175 
                                                                                
 2009  4 5 1515 28.5 L  21.333 -99.271 10.0  RAL  1 1.1 1.0LRAL                1
 GAP=360       13.84     999.9   999.9  0.0  0.5337E+08 -0.1000E+02  0.1344E+01E
 ACTION:UPD 12-06-08 11:37 OP:RALL STATUS:               ID:20090405151528     I
 2009-04-05-1515-21S.PLUR1_003                                                 6
 STAT SP IPHASW D HRMM SECON CODA AMPLIT PERI AZIMU VELO AIN AR TRES W  DIS CAZ7
 LZ4  SZ E        1515 30.81                  263.8 13.1    -65        0.30 150 
 LZ4  SN IP       1515 30.85                             178    0.5510 0.30 150 
 LZ4  SE IS       1515 31.08                             178   -0.5510 0.30 150 
 LZ4  SZ  AML     1515 31.15        54.8 0.18                          0.30 150 
                                                                                
 2009  4 5 1638  7.1 L  21.846 -99.453 10.0  RAL  1 0.0 0.3LRAL                1
 GAP=360        0.30       3.5     1.8  0.0 -0.4501E+01 -0.1000E+02  0.1344E+01E
 ACTION:UPD 12-06-08 11:37 OP:RALL STATUS:               ID:20090405163807     I
 2009-04-05-1638-05S.PLUR1_003                                                 6
 STAT SP IPHASW D HRMM SECON CODA AMPLIT PERI AZIMU VELO AIN AR TRES W  DIS CAZ7
 LA4  SZ E        1638 14.33                  339.7  9.7      0        42.8 160 
 LA4  SN IP       1638 14.35                              99    0.0110 42.8 160 
 LA4  SE IS       1638 19.58                              99   -0.0110 42.8 160 
 LA4  SZ  AML     1638 21.49         2.7 0.24                          42.8 160 
                                                                                
 2009  4 5 2254 10.7 L  21.742 -99.290 10.0  RAL  1 0.0 1.5LRAL                1
 GAP=360        0.30       3.7     1.3  0.0 -0.6151E+00 -0.1000E+02  0.1344E+01E
 ACTION:UPD 12-06-08 11:37 OP:RALL STATUS:               ID:20090405225410     I
 2009-04-05-2254-09S.PLUR1_003                                                 6
 STAT SP IPHASW D HRMM SECON CODA AMPLIT PERI AZIMU VELO AIN AR TRES W  DIS CAZ7
 LZ4  SN IP       2254 18.34                              98    0.0110 45.6 177 
 LZ4  SZ E        2254 18.48                  357.4  9.9      0        45.6 177 
 LZ4  SE IS       2254 23.89                              98   -0.0110 45.6 177 
 LZ4  SZ  AML     2254 24.86        40.3 0.52                          45.6 177 
                                                                                
 2009  4 6 0851 55.8 L  21.197 -98.915 10.0  RAL  1 0.0 1.0LRAL                1
 GAP=360        0.30       1.7     3.8  0.0 -0.4869E+01 -0.1000E+02  0.1344E+01E
 ACTION:UPD 12-06-08 11:37 OP:RALL STATUS:               ID:20090406085155     I
 2009-04-06-0851-58S.PLUR1_003                                                 6
 STAT SP IPHASW D HRMM SECON CODA AMPLIT PERI AZIMU VELO AIN AR TRES W  DIS CAZ7
 LZ4  SZ E         852  2.46                  111.9 22.1      0        39.7 292 
 LZ4  SN IP        852  2.51                             100    0.0110 39.7 292 
 LZ4  SE IS        852  7.39                             100   -0.0110 39.7 292 
 LZ4  SZ  AML      852  9.33        13.4 0.58                          39.7 292 
                                                                                
 2009  4 6  924  9.4 L                       RAL  0                            1
 ACTION:UPD 12-06-08 11:37 OP:RALL STATUS:               ID:20090406092409     I
 2009-04-06-0924-09S.PLUR1_003                                                 6
 STAT SP IPHASW D HRMM SECON CODA AMPLIT PERI AZIMU VELO AIN AR TRES W  DIS CAZ7
                                                                                
 2009  4 6 1111 35.8 L  21.488 -99.289 10.0  RAL  1 0.1 0.2LRAL                1
 GAP=360        0.36       5.7    23.8  0.0  0.1345E+03 -0.1000E+02  0.1344E+01E
 ACTION:UPD 12-06-08 11:37 OP:RALL STATUS:               ID:20090406111135     I
 2009-04-06-1111-24S.PLUR1_003                                                 6
 STAT SP IPHASW D HRMM SECON CODA AMPLIT PERI AZIMU VELO AIN AR TRES W  DIS CAZ7
 LA4  SZ E        1111 37.84                   75.7  6.1      0        2.09 256 
 LA4  SN IP       1111 37.84                             169    0.1410 2.09 256 
 LA4  SE IS       1111 38.93                             169   -0.1410 2.09 256 
 LA4  SZ  AML     1111 39.26         9.0 0.42                          2.09 256 
                                                                                
 2009  4 6 1232 23.6 L                       RAL  0                            1
 ACTION:UPD 12-06-08 11:37 OP:RALL STATUS:               ID:20090406123223     I
 2009-04-06-1232-23S.PLUR1_003                                                 6
 STAT SP IPHASW D HRMM SECON CODA AMPLIT PERI AZIMU VELO AIN AR TRES W  DIS CAZ7
                                                                                
 2009  4 6 1420 50.9 L  21.508 -99.451 10.0  RAL  1 0.0 0.6LRAL                1
 GAP=360        0.30       0.9     4.6  0.0 -0.3643E+01 -0.1000E+02  0.1344E+01E
 ACTION:UPD 12-06-08 11:37 OP:RALL STATUS:               ID:20090406142050     I
 2009-04-06-1420-42S.PLUR1_003                                                 6
 STAT SP IPHASW D HRMM SECON CODA AMPLIT PERI AZIMU VELO AIN AR TRES W  DIS CAZ7
 LA4  SZ E        1420 53.70                  280.6  6.2      0        15.0 101 
 LA4  SN IP       1420 53.95                             122    0.0010 15.0 101 
 LA4  SE IS       1420 56.20                             122    0.0010 15.0 101 
 LA4  SZ  AML     1420 58.16        12.9 0.26                          15.0 101 
                                                                                
