 2009 10 1 0155 13.9 L  21.293 -99.234 10.0  RAL  1 0.1 0.1LRAL                1
 GAP=360        0.59      20.2    21.7  0.0  0.4379E+03 -0.3726E+05  0.4074E+04E
 ACTION:UPD 12-06-08 11:37 OP:RALL STATUS:               ID:20091001015513     I
 2009-10-01-0155-07S.PLUR1_003                                                 6
 STAT SP IPHASW D HRMM SECON CODA AMPLIT PERI AZIMU VELO AIN AR TRES W  DIS CAZ7
 LG3  SN IP        155 16.12                             165    0.3410 2.75 225 
 LG3  SZ E         155 16.16                   45.0 24.8      0        2.75 225 
 LG3  SE IS        155 16.83                             165   -0.3410 2.75 225 
 LG3  SZ  AML      155 16.97         7.7 0.10                          2.75 225 
                                                                                
 2009 10 1 0339 57.0 L  21.281 -99.244 10.0  RAL  1 0.3 0.2LRAL                1
 GAP=360        3.71     999.9   999.9  0.0 -0.9224E+08 -0.3726E+05  0.4074E+04E
 ACTION:UPD 12-06-08 11:37 OP:RALL STATUS:               ID:20091001033957     I
 2009-10-01-0339-49S.PLUR1_003                                                 6
 STAT SP IPHASW D HRMM SECON CODA AMPLIT PERI AZIMU VELO AIN AR TRES W  DIS CAZ7
 LG3  SN IP        339 59.36                             174    0.4510 1.09 234 
 LG3  SZ E         339 59.38                   71.7 32.9     17        1.09 234 
 LG3  SE IS        339 59.81                             174   -0.4510 1.09 234 
 LG3  SZ  AML      340  0.43         8.7 0.14                          1.09 234 
                                                                                
 2009 10 1 1058 15.6 L  21.204 -99.235 10.0  RAL  1 0.0 0.0LRAL                1
 GAP=360        0.30       5.8     1.4  0.0 -0.8241E+01 -0.3726E+05  0.4074E+04E
 ACTION:UPD 12-06-08 11:37 OP:RALL STATUS:               ID:20091001105815     I
 2009-10-01-1058-09S.PLUR1_003                                                 6
 STAT SP IPHASW D HRMM SECON CODA AMPLIT PERI AZIMU VELO AIN AR TRES W  DIS CAZ7
 LG3  SN IP       1058 17.89                             141    0.0110 8.10 347 
 LG3  SZ E        1058 17.92                  167.0 20.0      0        8.10 347 
 LG3  SE IS       1058 19.53                             141   -0.0110 8.10 347 
 LG3  SZ  AML     1058 20.30         4.3 0.20                          8.10 347 
                                                                                
 2009 10 1 1533  5.7 L  21.261 -99.245 10.0  RAL  1 0.2-0.1LRAL                1
 GAP=360        0.70      47.5    23.2  0.0 -0.1100E+04 -0.3726E+05  0.4074E+04E
 ACTION:UPD 12-06-08 11:37 OP:RALL STATUS:               ID:20091001153305     I
 2009-10-01-1532-58S.PLUR1_003                                                 6
 STAT SP IPHASW D HRMM SECON CODA AMPLIT PERI AZIMU VELO AIN AR TRES W  DIS CAZ7
 LG3  SZ E        1533  7.95                  154.4 13.2      0        1.78 336 
 LG3  SN IP       1533  7.96                             170    0.4010 1.78 336 
 LG3  SE IS       1533  8.53                             170   -0.4010 1.78 336 
 LG3  SZ  AML     1533  8.86         4.7 0.10                          1.78 336 
                                                                                
 2009 10 1 1557 52.5 L  21.133 -99.641 10.0  RAL  3 1.7 2.4LRAL                1
 GAP=322       22.96      86.7   191.4999.9  0.1302E+05  0.2313E+06  0.8889E+05E
 ACTION:UPD 12-06-08 11:37 OP:RALL STATUS:               ID:20091001155752     I
 2009-10-01-1557-51S.PLUR1_012                                                 6
 STAT SP IPHASW D HRMM SECON CODA AMPLIT PERI AZIMU VELO AIN AR TRES W  DIS CAZ7
 LG3  SZ E        1558  1.29                  252.3 16.6      4        43.3  69 
 LG3  SN IP       1558  1.32                              99    1.5610 43.3  69 
 LG3  SE IS       1558  3.62                              99   -1.4510 43.3  69 
 LG3  SZ  AML     1558  4.64       715.0 0.66                          43.3  69 
 LT7  SZ E        1557 59.07                  222.0 16.5     -5        43.7  48 
 LT7  SN IP       1557 59.11                              99   -0.6710 43.7  48 
 LT7  SE IS       1557 59.64                              99   -5.4710 43.7  48 
 LT7  SZ  AML     1558  0.05       623.9 0.60                          43.7  48 
 LO8  SN IP       1558  3.41                              99    3.4410 44.5  86 
 LO8  SZ E        1558  3.45                  139.0  6.9    -99        44.5  86 
 LO8  SE IS       1558  8.03                              99    2.5910 44.5  86 
 LO8  SZ  AML     1558  8.33        61.0 0.36                          44.5  86 
                                                                                
 2009 10 1 2345 37.0 L  21.382 -99.347 10.0  RAL  1 0.1-0.6LRAL                1
 GAP=360        0.63      17.4    27.9  0.0  0.4857E+03  0.2313E+06  0.8889E+05E
 ACTION:UPD 12-06-08 11:37 OP:RALL STATUS:               ID:20091001234537     I
 2009-10-01-2345-34S.PLUR1_003                                                 6
 STAT SP IPHASW D HRMM SECON CODA AMPLIT PERI AZIMU VELO AIN AR TRES W  DIS CAZ7
 LT7  SN IP       2345 39.20                             165    0.3810 2.61  56 
 LT7  SZ E        2345 39.22                  236.3 12.0      0        2.61  56 
 LT7  SE IS       2345 39.78                             165   -0.3810 2.61  56 
 LT7  SZ  AML     2345 40.14         1.5 0.60                          2.61  56 
                                                                                
 2009 10 2 0618  0.7 L  21.309 -99.194 10.0  RAL  1 0.8 0.1LRAL                1
 GAP=360       10.30     118.0   206.5  0.0  0.2432E+05  0.2313E+06  0.8889E+05E
 ACTION:UPD 12-06-08 11:37 OP:RALL STATUS:               ID:20091002061800     I
 2009-10-02-0617-54S.PLUR1_003                                                 6
 STAT SP IPHASW D HRMM SECON CODA AMPLIT PERI AZIMU VELO AIN AR TRES W  DIS CAZ7
 LG3  SN IP        618  3.39                             145    0.5310 7.06 239 
 LG3  SZ E         618  3.39                  107.5 26.4     49        7.06 239 
 LG3  SE IS        618  3.93                             145   -0.5310 7.06 239 
 LG3  SZ  AML      618  4.01         5.6 0.12                          7.06 239 
                                                                                
 2009 10 2 1659 22.7 L  21.298 -99.274 10.0  RAL  1 0.1 0.4LRAL                1
 GAP=360        0.44      13.5    12.8  0.0 -0.1722E+03  0.2313E+06  0.8889E+05E
 ACTION:UPD 12-06-08 11:37 OP:RALL STATUS:               ID:20091002165922     I
 2009-10-02-1659-16S.PLUR1_003                                                 6
 STAT SP IPHASW D HRMM SECON CODA AMPLIT PERI AZIMU VELO AIN AR TRES W  DIS CAZ7
 LG3  SN IP       1659 24.89                             162    0.2210 3.33 139 
 LG3  SZ E        1659 25.06                  318.6 27.2      0        3.33 139 
 LG3  SE IS       1659 25.86                             162   -0.2210 3.33 139 
 LG3  SZ  AML     1659 26.84        12.5 0.74                          3.33 139 
                                                                                
 2009 10 8 2041 53.8 L  21.433 -99.355 10.0  RAL  1 0.0 0.0LRAL                1
 GAP=360        0.31       7.0     5.4  0.0 -0.3770E+02  0.2313E+06  0.8889E+05E
 ACTION:UPD 12-06-08 11:37 OP:RALL STATUS:               ID:20091008204153     I
 2009-10-08-2041-52S.PLUR1_003                                                 6
 STAT SP IPHASW D HRMM SECON CODA AMPLIT PERI AZIMU VELO AIN AR TRES W  DIS CAZ7
 LT7  SN IP       2041 55.80                             153    0.0710 5.10 144 
 LT7  SZ E        2041 55.84                  324.2  9.6      0        5.10 144 
 LT7  SE IS       2041 57.09                             153   -0.0710 5.10 144 
 LT7  SZ  AML     2041 57.32         4.8 0.18                          5.10 144 
                                                                                
 2009 10 9 0013 47.1 L  21.390 -99.327 10.0  RAL  1 0.2-0.5LRAL                1
 GAP=360        0.66     148.8    31.3  0.0  0.4664E+04  0.2313E+06  0.8889E+05E
 ACTION:UPD 12-06-08 11:37 OP:RALL STATUS:               ID:20091009001347     I
 2009-10-09-0013-44S.PLUR1_003                                                 6
 STAT SP IPHASW D HRMM SECON CODA AMPLIT PERI AZIMU VELO AIN AR TRES W  DIS CAZ7
 LT7  SZ E         013 49.25                  191.8 14.3      1        0.55  11 
 LT7  SN IP        013 49.26                             177    0.3910 0.55  11 
 LT7  SE IS        013 49.78                             177   -0.3910 0.55  11 
 LT7  SZ  AML      013 50.09         1.8 0.34                          0.55  11 
                                                                                
 2009 10 9 0656 12.4 L  21.063 -99.679 10.0  RAL  1 0.0 1.1LRAL                1
 GAP=360        0.30       2.1     3.6  0.0  0.5445E+01  0.2313E+06  0.8889E+05E
 ACTION:UPD 12-06-08 11:37 OP:RALL STATUS:               ID:20091009065612     I
 2009-10-09-0656-11S.PLUR1_003                                                 6
 STAT SP IPHASW D HRMM SECON CODA AMPLIT PERI AZIMU VELO AIN AR TRES W  DIS CAZ7
 LG3  SN IP        656 20.78                              97    0.0110 50.2  62 
 LG3  SZ E         656 20.80                  242.1 12.3      0        50.2  62 
 LG3  SE IS        656 26.84                              97   -0.0110 50.2  62 
 LG3  SZ  AML      656 27.87        15.1 0.22                          50.2  62 
                                                                                
 2009 1012 0521 20.3 L  20.994 -99.481 10.0  RAL  1 0.0 0.9LRAL                1
 GAP=360        0.30       3.1     2.6  0.0  0.6795E+01  0.2313E+06  0.8889E+05E
 ACTION:UPD 12-06-08 11:37 OP:RALL STATUS:               ID:20091012052120     I
 2009-10-12-0521-18S.PLUR1_003                                                 6
 STAT SP IPHASW D HRMM SECON CODA AMPLIT PERI AZIMU VELO AIN AR TRES W  DIS CAZ7
 LG3  SN IP        521 26.95                             100    0.0210 39.1  37 
 LG3  SZ E         521 26.96                  217.3 19.0      0        39.1  37 
 LG3  SE IS        521 31.76                             100   -0.0210 39.1  37 
 LG3  SZ  AML      521 34.39        13.2 0.38                          39.1  37 
                                                                                
 2009 1013 0754 16.6 L  21.273 -99.253 10.0  RAL  1 0.2 1.1LRAL                1
 GAP=360        0.99      56.2   999.9  0.0  0.1134E+06  0.2313E+06  0.8889E+05E
 ACTION:UPD 12-06-08 11:37 OP:RALL STATUS:               ID:20091013075416     I
 2009-10-13-0754-09S.PLUR1_003                                                 6
 STAT SP IPHASW D HRMM SECON CODA AMPLIT PERI AZIMU VELO AIN AR TRES W  DIS CAZ7
 LG3  SZ E         754 18.97                  191.6 27.2      2        0.35  10 
 LG3  SN IP        754 18.98                             178    0.5810 0.35  10 
 LG3  SE IS        754 19.18                             178   -0.5810 0.35  10 
 LG3  SZ  AML      754 19.33        70.5 0.20                          0.35  10 
                                                                                
 2009 1015 0829 42.6 L  21.241 -99.273 10.0  RAL  1 0.0 0.1LRAL                1
 GAP=360        0.33       9.2     5.7  0.0  0.5249E+02  0.2313E+06  0.8889E+05E
 ACTION:UPD 12-06-08 11:37 OP:RALL STATUS:               ID:20091015082942     I
 2009-10-15-0829-35S.PLUR1_003                                                 6
 STAT SP IPHASW D HRMM SECON CODA AMPLIT PERI AZIMU VELO AIN AR TRES W  DIS CAZ7
 LG3  SZ E         829 44.65                  209.9 13.7      0        4.37  30 
 LG3  SN IP        829 44.67                             157    0.1010 4.37  30 
 LG3  SE IS        829 45.92                             157   -0.1010 4.37  30 
 LG3  SZ  AML      829 46.76         7.3 0.28                          4.37  30 
                                                                                
 2009 1017 1550  1.9 L  21.282 -99.238 10.0  RAL  1 0.1 1.3LRAL                1
 GAP=360        0.63      20.7    50.4  0.0  0.1041E+04  0.2313E+06  0.8889E+05E
 ACTION:UPD 12-06-08 11:37 OP:RALL STATUS:               ID:20091017155001     I
 2009-10-17-1549-54S.PLUR1_003                                                 6
 STAT SP IPHASW D HRMM SECON CODA AMPLIT PERI AZIMU VELO AIN AR TRES W  DIS CAZ7
 LG3  SZ E        1550  4.10                   66.2 35.6      0        1.62 246 
 LG3  SN IP       1550  4.13                             171    0.3810 1.62 246 
 LG3  SE IS       1550  4.74                             171   -0.3810 1.62 246 
 LG3  SZ  AML     1550  4.89       109.5 0.10                          1.62 246 
                                                                                
 2009 1018 1827 32.9 L  21.347 -99.229 10.0  RAL  1 0.0 0.2LRAL                1
 GAP=360        0.30       4.0     0.7  0.0 -0.1370E+01  0.2313E+06  0.8889E+05E
 ACTION:UPD 12-06-08 11:37 OP:RALL STATUS:               ID:20091018182732     I
 2009-10-18-1827-31S.PLUR1_003                                                 6
 STAT SP IPHASW D HRMM SECON CODA AMPLIT PERI AZIMU VELO AIN AR TRES W  DIS CAZ7
 LO8  SN IP       1827 36.88                             113    0.0210 20.8 175 
 LO8  SZ E        1827 36.89                  355.4 13.1      0        20.8 175 
 LO8  SE IS       1827 39.71                             113   -0.0210 20.8 175 
 LO8  SZ  AML     1827 41.36         4.5 0.68                          20.8 175 
                                                                                
 2009 1018 1932  9.1 L                       RAL  0                            1
 ACTION:UPD 12-06-08 11:37 OP:RALL STATUS:               ID:20091018193209     I
 2009-10-18-1932-09S.PLUR1_006                                                 6
 STAT SP IPHASW D HRMM SECON CODA AMPLIT PERI AZIMU VELO AIN AR TRES W  DIS CAZ7
                                                                                
 2009 1019 1001  9.1 L  21.240 -99.292 10.0  RAL  1 0.0 1.8LRAL                1
 GAP=360        0.31       5.6     6.2  0.0  0.3467E+02  0.2313E+06  0.8889E+05E
 ACTION:UPD 12-06-08 11:37 OP:RALL STATUS:               ID:20091019100109     I
 2009-10-19-1001-01S.PLUR1_003                                                 6
 STAT SP IPHASW D HRMM SECON CODA AMPLIT PERI AZIMU VELO AIN AR TRES W  DIS CAZ7
 LG3  SN IP       10 1 11.25                             151    0.0610 5.64  46 
 LG3  SZ E        10 1 11.29                  226.2 13.7      0        5.64  46 
 LG3  SE IS       10 1 12.64                             151   -0.0610 5.64  46 
 LG3  SZ  AML     10 1 12.76       346.3 0.12                          5.64  46 
                                                                                
 2009 1019 1351 27.1 L  21.279 -99.245 10.0  RAL  1 0.2 1.6LRAL                1
 GAP=360        1.87     999.9   999.9  0.0 -0.2600E+07  0.2313E+06  0.8889E+05E
 ACTION:UPD 12-06-08 11:37 OP:RALL STATUS:               ID:20091019135127     I
 2009-10-19-1351-20S.PLUR1_003                                                 6
 STAT SP IPHASW D HRMM SECON CODA AMPLIT PERI AZIMU VELO AIN AR TRES W  DIS CAZ7
 LG3  SZ E        1351 29.34                   70.6 29.5      8        0.83 242 
 LG3  SN IP       1351 29.35                             175    0.3510 0.83 242 
 LG3  SE IS       1351 30.00                             175   -0.3510 0.83 242 
 LG3  SZ  AML     1351 30.09       205.2 0.10                          0.83 242 
                                                                                
 2009 1020 2108  8.9 L  21.165 -99.303 10.0  RAL  2 0.4 0.5LRAL                1
 GAP=331        2.74      13.4     5.2 34.4  0.5253E+02  0.3897E+02  0.1019E+03E
 ACTION:UPD 12-06-08 11:37 OP:RALL STATUS:               ID:20091020210808     I
 2009-10-20-2108-05S.PLUR1_006                                                 6
 STAT SP IPHASW D HRMM SECON CODA AMPLIT PERI AZIMU VELO AIN AR TRES W  DIS CAZ7
 LG3  SZ E        21 8 12.86                  194.6 13.2     -8        13.3  23 
 LG3  SN IP       21 8 13.01                             127    1.2610 13.3  23 
 LG3  SE IS       21 8 14.16                             127    0.3110 13.3  23 
 LG3  SZ  AML     21 8 14.30        48.6 0.12                          13.3  23 
 LT7  SZ E        21 8 13.36                  175.6  9.4      1        25.6 355 
 LT7  SN IP       21 8 13.40                             109   -0.0210 25.6 355 
 LT7  SE IS       21 8 15.20                             109   -1.5510 25.6 355 
 LT7  SZ  AML     21 8 15.28         1.9 0.10                          25.6 355 
                                                                                
 2009 1021 0716 24.2 L  21.264 -99.251 10.0  RAL  1 0.2-0.2LRAL                1
 GAP=360        2.67     132.3   999.9  0.0 -0.1828E+06  0.3897E+02  0.1019E+03E
 ACTION:UPD 12-06-08 11:37 OP:RALL STATUS:               ID:20091021071624     I
 2009-10-21-0716-18S.PLUR1_003                                                 6
 STAT SP IPHASW D HRMM SECON CODA AMPLIT PERI AZIMU VELO AIN AR TRES W  DIS CAZ7
 LG3  SZ E         716 26.19                  186.3  5.3     13        1.28 354 
 LG3  SN IP        716 26.22                             173    0.1110 1.28 354 
 LG3  SE IS        716 27.36                             173   -0.1110 1.28 354 
 LG3  SZ  AML      716 27.64         3.3 0.18                          1.28 354 
                                                                                
 2009 1022 0746 48.4 L  21.288 -99.251 10.0  RAL  1 0.1 0.3LRAL                1
 GAP=360        0.60     817.2   999.9  0.0 -0.7047E+07  0.3897E+02  0.1019E+03E
 ACTION:UPD 12-06-08 11:37 OP:RALL STATUS:               ID:20091022074648     I
 2009-10-22-0746-41S.PLUR1_003                                                 6
 STAT SP IPHASW D HRMM SECON CODA AMPLIT PERI AZIMU VELO AIN AR TRES W  DIS CAZ7
 LG3  SN IP        746 50.63                             173    0.3610 1.35 186 
 LG3  SZ E         746 50.63                    6.1  4.4      0        1.35 186 
 LG3  SE IS        746 51.28                             173   -0.3610 1.35 186 
 LG3  SZ  AML      746 51.40        10.9 0.10                          1.35 186 
                                                                                
 2009 1022 1004 11.8 L  21.242 -99.283 10.0  RAL  1 0.0-0.1LRAL                1
 GAP=360        0.32       7.3     6.5  0.0  0.4685E+02  0.3897E+02  0.1019E+03E
 ACTION:UPD 12-06-08 11:37 OP:RALL STATUS:               ID:20091022100411     I
 2009-10-22-1004-05S.PLUR1_003                                                 6
 STAT SP IPHASW D HRMM SECON CODA AMPLIT PERI AZIMU VELO AIN AR TRES W  DIS CAZ7
 LG3  SZ E        10 4 13.83                  219.7 16.1      0        4.89  40 
 LG3  SN IP       10 4 13.88                             155    0.0910 4.89  40 
 LG3  SE IS       10 4 15.18                             155   -0.0910 4.89  40 
 LG3  SZ  AML     10 4 15.33         4.4 0.26                          4.89  40 
                                                                                
