 2009  1 4 0532 50.3 L  21.590 -99.325 10.0  RAL  1 0.0 0.2LRAL                1
 GAP=360        0.30       4.7     0.8  0.0 -0.3296E+01  0.4479E+03  0.4734E+03E
 ACTION:UPD 12-06-08 11:37 OP:RALL STATUS:               ID:20090104053250     I
 2009-01-04-0532-41S.PLUR1_003                                                 6
 STAT SP IPHASW D HRMM SECON CODA AMPLIT PERI AZIMU VELO AIN AR TRES W  DIS CAZ7
 LA4  SZ E         532 52.94                  352.2 10.5      0        11.8 172 
 LA4  SN IP        532 53.01                             129    0.0010 11.8 172 
 LA4  SE IS        532 54.97                             129    0.0010 11.8 172 
 LA4  SZ  AML      532 55.22         6.3 0.26                          11.8 172 
                                                                                
 2009  1 4 1018  4.8 L  21.244 -99.214  4.3  RAL  2 0.0 0.6LRAL                1
 GAP=342        0.34       0.8     0.9  3.5 -0.6993E+00 -0.4612E+00  0.4096E+00E
 ACTION:UPD 12-06-08 11:37 OP:RALL STATUS:               ID:20090104101804     I
 2009-01-04-1017-56S.PLUR1_006                                                 6
 STAT SP IPHASW D HRMM SECON CODA AMPLIT PERI AZIMU VELO AIN AR TRES W  DIS CAZ7
 LG3  SN IP       1018  6.23                             134    0.1210 5.27 311 
 LG3  SZ E        1018  6.24                  131.4 14.2      0        5.27 311 
 LG3  SE IS       1018  7.06                             134   -0.0310 5.27 311 
 LG3  SZ  AML     1018  7.23        28.2 0.24                          5.27 311 
 LZ4  SZ E        1018  6.95                  148.6 21.0      0        11.2 329 
 LZ4  SN IP       1018  6.95                             114    0.0010 11.2 329 
 LZ4  SE IS       1018  8.44                             114   -0.0910 11.2 329 
 LZ4  SZ  AML     1018  8.63        19.9 0.20                          11.2 329 
                                                                                
 2009  1 4 1228 52.3 L  21.264 -99.278  7.4  RAL  2 0.0 0.8LRAL                1
 GAP=304        0.33       0.2     0.2  3.1  0.2830E-01  0.1778E-01  0.7219E-02E
 ACTION:UPD 12-06-08 11:37 OP:RALL STATUS:               ID:20090104122852     I
 2009-01-04-1228-45S.PLUR1_006                                                 6
 STAT SP IPHASW D HRMM SECON CODA AMPLIT PERI AZIMU VELO AIN AR TRES W  DIS CAZ7
 LG3  SZ E        1228 53.95                  242.9 45.3      0        2.95  63 
 LG3  SN IP       1228 53.98                             159    0.1110 2.95  63 
 LG3  SE IS       1228 55.00                             159    0.0210 2.95  63 
 LG3  SZ  AML     1228 55.38        33.1 0.32                          2.95  63 
 LZ4  SZ E        1228 54.21                  186.6 12.9      0        7.50   7 
 LZ4  SN IP       1228 54.21                             134   -0.0410 7.50   7 
 LZ4  SE IS       1228 55.55                             134   -0.0910 7.50   7 
 LZ4  SZ  AML     1228 56.37        38.6 0.26                          7.50   7 
                                                                                
 2009  1 4 1744 39.8 L  21.151 -99.203 10.0  RAL  2 0.7 0.6LRAL                1
 GAP=333        7.62       4.2    14.1 55.9  0.4320E+02  0.2117E+02 -0.1821E+01E
 ACTION:UPD 12-06-08 11:37 OP:RALL STATUS:               ID:20090104174439     I
 2009-01-04-1744-32S.PLUR1_006                                                 6
 STAT SP IPHASW D HRMM SECON CODA AMPLIT PERI AZIMU VELO AIN AR TRES W  DIS CAZ7
 LO8  SZ E        1744 42.38                  125.1  6.6     -8        1.43 314 
 LO8  SN IP       1744 42.50                             176    0.8210 1.43 314 
 LO8  SE IS       1744 44.93                             176    1.8710 1.43 314 
 LO8  SZ  AML     1744 47.19         4.6 0.44                          1.43 314 
 LZ4  SZ E        1744 42.34                  194.4 11.7     33        21.1 341 
 LZ4  SN IP       1744 42.39                             121   -1.3110 21.1 341 
 LZ4  SE IS       1744 45.18                             121   -1.3810 21.1 341 
 LZ4  SZ  AML     1744 47.73        61.4 0.14                          21.1 341 
                                                                                
 2009  1 4 1915 45.5 L  21.651 -99.334 10.0  RAL  1 0.0 0.5LRAL                1
 GAP=360        0.30       4.1     0.8  0.0 -0.2452E+01  0.2117E+02 -0.1821E+01E
 ACTION:UPD 12-06-08 11:37 OP:RALL STATUS:               ID:20090104191545     I
 2009-01-04-1915-35S.PLUR1_003                                                 6
 STAT SP IPHASW D HRMM SECON CODA AMPLIT PERI AZIMU VELO AIN AR TRES W  DIS CAZ7
 LA4  SZ E        1915 49.04                  352.1  7.6      0        18.7 172 
 LA4  SN IP       1915 49.06                             116    0.0210 18.7 172 
 LA4  SZ  AML     1915 51.41         8.3 0.44                          18.7 172 
 LA4  SE IS       1915 51.64                             116   -0.0210 18.7 172 
                                                                                
 2009  1 4 2318 57.5 L  21.722 -99.336 10.0  RAL  1 0.0 0.6LRAL                1
 GAP=360        0.30       3.8     0.9  0.0 -0.1622E+01  0.2117E+02 -0.1821E+01E
 ACTION:UPD 12-06-08 11:37 OP:RALL STATUS:               ID:20090104231857     I
 2009-01-04-2318-50S.PLUR1_003                                                 6
 STAT SP IPHASW D HRMM SECON CODA AMPLIT PERI AZIMU VELO AIN AR TRES W  DIS CAZ7
 LA4  SZ E        2319  2.19                  354.0  9.4      0        26.5 174 
 LA4  SN IP       2319  2.23                             107    0.0110 26.5 174 
 LA4  SE IS       2319  5.66                             107   -0.0110 26.5 174 
 LA4  SZ  AML     2319  5.95         8.1 0.14                          26.5 174 
                                                                                
 2009  1 5 0008 47.6 L  21.599 -99.327 10.0  RAL  1 0.0-0.2LRAL                1
 GAP=360        0.30       4.6     0.8  0.0 -0.3161E+01  0.2117E+02 -0.1821E+01E
 ACTION:UPD 12-06-08 11:37 OP:RALL STATUS:               ID:20090105000847     I
 2009-01-05-0008-38S.PLUR1_003                                                 6
 STAT SP IPHASW D HRMM SECON CODA AMPLIT PERI AZIMU VELO AIN AR TRES W  DIS CAZ7
 LA4  SZ E         0 8 50.39                  351.9  7.5      0        12.9 172 
 LA4  SN IP        0 8 50.41                             127    0.0010 12.9 172 
 LA4  SE IS        0 8 52.47                             127    0.0010 12.9 172 
 LA4  SZ  AML      0 8 52.75         2.5 0.30                          12.9 172 
                                                                                
 2009  1 5 0156  1.1 L  21.276 -99.252 11.5  RAL  2 0.5 1.4LRAL                1
 GAP=258        5.37       3.7     3.2 48.9 -0.2092E+01 -0.7548E-01  0.1569E+00E
 ACTION:UPD 12-06-08 11:37 OP:RALL STATUS:               ID:20090105015601     I
 2009-01-05-0155-53S.PLUR1_006                                                 6
 STAT SP IPHASW D HRMM SECON CODA AMPLIT PERI AZIMU VELO AIN AR TRES W  DIS CAZ7
 LG3  SZ E         156  2.11                   55.6 10.1     -4        0.08 241 
 LG3  SN IP        156  2.11                             180   -1.0510 0.08 241 
 LG3  SE IS        156  4.60                             180   -0.0810 0.08 241 
 LG3  SZ  AML      156  4.72       220.0 0.12                          0.08 241 
 LZ4  SN IP        156  3.04                             152   -0.3510 6.34 343 
 LZ4  SZ E         156  3.10                  187.2 11.6     24        6.34 343 
 LZ4  SE IS        156  6.56                             152    1.4910 6.34 343 
 LZ4  SZ  AML      156 10.06        50.9 0.24                          6.34 343 
                                                                                
 2009  1 5 0215 30.6 L  21.707 -99.425  3.7  RAL  2 0.2 1.4LRAL                1
 GAP=355        1.41      71.3    35.1153.3 -0.2493E+04 -0.5300E+04  0.1080E+05E
 ACTION:UPD 12-06-08 11:37 OP:RALL STATUS:               ID:20090105021530     I
 2009-01-05-0215-21S.PLUR1_006                                                 6
 STAT SP IPHASW D HRMM SECON CODA AMPLIT PERI AZIMU VELO AIN AR TRES W  DIS CAZ7
 LA4  SN IP        215 35.11                              63   -0.3710 27.5 154 
 LA4  SZ E         215 35.16                  331.4 10.3     -2        27.5 154 
 LA4  SE IS        215 38.43                              63   -0.6010 27.5 154 
 LA4  SZ  AML      215 40.37        57.9 0.32                          27.5 154 
 LZ4  SN IP        215 38.43                              63    0.2910 44.7 159 
 LZ4  SZ E         215 38.54                  342.4  8.6      3        44.7 159 
 LZ4  SZ  AML      215 44.18        32.6 0.16                          44.7 159 
 LZ4  SE IS        215 44.30                              63    0.6710 44.7 159 
                                                                                
 2009  1 5 0251 27.7 L  21.662 -99.311 10.0  RAL  1 0.0 0.8LRAL                1
 GAP=360        0.30       3.7     1.1  0.0 -0.1634E+01 -0.5300E+04  0.1080E+05E
 ACTION:UPD 12-06-08 11:37 OP:RALL STATUS:               ID:20090105025127     I
 2009-01-05-0251-29S.PLUR1_003                                                 6
 STAT SP IPHASW D HRMM SECON CODA AMPLIT PERI AZIMU VELO AIN AR TRES W  DIS CAZ7
 LZ4  SZ E         251 33.81                  353.4 12.4      0        36.9 173 
 LZ4  SN IP        251 33.98                             101    0.0110 36.9 173 
 LZ4  SE IS        251 38.56                             101   -0.0110 36.9 173 
 LZ4  SZ  AML      251 40.40        10.6 0.44                          36.9 173 
                                                                                
 2009  1 5 0510 54.4 L  21.286 -99.257 10.0  RAL  2 1.0 1.1LRAL                1
 GAP=188       17.89      11.6     9.9163.4 -0.1314E+02  0.6071E+01 -0.9488E+01E
 ACTION:UPD 12-06-08 11:37 OP:RALL STATUS:               ID:20090105051054     I
 2009-01-05-0510-46S.PLUR1_006                                                 6
 STAT SP IPHASW D HRMM SECON CODA AMPLIT PERI AZIMU VELO AIN AR TRES W  DIS CAZ7
 LG3  SZ E         510 56.23                   60.9 39.6     84        1.20 157 
 LG3  SN IP        510 56.26                             176   -0.0410 1.20 157 
 LG3  SE IS        510 56.81                             176   -0.8510 1.20 157 
 LG3  SZ  AML      510 56.91       121.9 0.10                          1.20 157 
 LZ4  SN IP        510 56.94                             150    0.4810 5.17 345 
 LZ4  SZ E         510 56.95                  190.5  9.5     25        5.17 345 
 LZ4  SE IS        510 58.36                             150    0.4210 5.17 345 
 LZ4  SZ  AML      510 58.64        35.9 0.24                          5.17 345 
                                                                                
 2009  1 5 0732 52.9 L  21.335 -99.258 10.0  RAL  1 0.2 0.5LRAL                1
 GAP=360        1.28     312.2   256.3  0.0 -0.8000E+05  0.6071E+01 -0.9488E+01E
 ACTION:UPD 12-06-08 11:37 OP:RALL STATUS:               ID:20090105073252     I
 2009-01-05-0732-46S.PLUR1_003                                                 6
 STAT SP IPHASW D HRMM SECON CODA AMPLIT PERI AZIMU VELO AIN AR TRES W  DIS CAZ7
 LZ4  SZ E         732 55.00                   76.8 16.4      5        1.30 252 
 LZ4  SN IP        732 55.10                             173    0.4010 1.30 252 
 LZ4  SE IS        732 55.65                             173   -0.4010 1.30 252 
 LZ4  SZ  AML      732 55.81        18.8 0.50                          1.30 252 
                                                                                
 2009  1 5 0837 10.6 L  21.539 -99.395 10.0  RAL  1 0.0 1.0LRAL                1
 GAP=360        0.30       3.4     2.2  0.0 -0.6739E+01  0.6071E+01 -0.9488E+01E
 ACTION:UPD 12-06-08 11:37 OP:RALL STATUS:               ID:20090105083710     I
 2009-01-05-0837-06S.PLUR1_003                                                 6
 STAT SP IPHASW D HRMM SECON CODA AMPLIT PERI AZIMU VELO AIN AR TRES W  DIS CAZ7
 LZ4  SZ E         837 15.37                  330.6 10.2      0        26.5 151 
 LZ4  SN IP        837 15.38                             107    0.0310 26.5 151 
 LZ4  SE IS        837 18.77                             107   -0.0310 26.5 151 
 LZ4  SZ  AML      837 19.35        19.9 0.54                          26.5 151 
                                                                                
 2009  1 5 1224 21.2 L  21.529 -99.569 10.0  RAL  1 0.0 1.9LRAL                1
 GAP=360        0.30       2.3     3.4  0.0 -0.6703E+01  0.6071E+01 -0.9488E+01E
 ACTION:UPD 12-06-08 11:37 OP:RALL STATUS:               ID:20090105122421     I
 2009-01-05-1224-18S.PLUR1_003                                                 6
 STAT SP IPHASW D HRMM SECON CODA AMPLIT PERI AZIMU VELO AIN AR TRES W  DIS CAZ7
 LZ4  SN IP       1224 27.70                             100    0.0210 38.0 125 
 LZ4  SZ E        1224 27.78                  305.2  7.1      0        38.0 125 
 LZ4  SE IS       1224 32.38                             100   -0.0210 38.0 125 
 LZ4  SZ  AML     1224 33.36       112.7 0.20                          38.0 125 
                                                                                
 2009  1 5 1347 28.0 L  21.351 -99.289 10.0  RAL  1 0.1 1.1LRAL                1
 GAP=360        0.52      17.5    16.5  0.0 -0.2880E+03  0.6071E+01 -0.9488E+01E
 ACTION:UPD 12-06-08 11:37 OP:RALL STATUS:               ID:20090105134728     I
 2009-01-05-1347-21S.PLUR1_003                                                 6
 STAT SP IPHASW D HRMM SECON CODA AMPLIT PERI AZIMU VELO AIN AR TRES W  DIS CAZ7
 LZ4  SN IP       1347 30.20                             164    0.2910 3.02 139 
 LZ4  SZ E        1347 30.22                  318.7 17.5      0        3.02 139 
 LZ4  SE IS       1347 31.00                             164   -0.2910 3.02 139 
 LZ4  SZ  AML     1347 31.12        64.6 0.18                          3.02 139 
                                                                                
 2009  1 5 1456  9.2 L  21.266 -99.232 10.0  RAL  1 0.2 1.1LRAL                1
 GAP=360        0.70      17.6    37.7  0.0 -0.6640E+03  0.6071E+01 -0.9488E+01E
 ACTION:UPD 12-06-08 11:37 OP:RALL STATUS:               ID:20090105145609     I
 2009-01-05-1456-02S.PLUR1_003                                                 6
 STAT SP IPHASW D HRMM SECON CODA AMPLIT PERI AZIMU VELO AIN AR TRES W  DIS CAZ7
 LG3  SZ E        1456 11.53                  116.6 22.7      0        2.38 297 
 LG3  SN IP       1456 11.54                             167    0.4310 2.38 297 
 LG3  SE IS       1456 12.06                             167   -0.4310 2.38 297 
 LG3  SZ  AML     1456 12.18        62.7 0.24                          2.38 297 
                                                                                
 2009  1 5 1719 27.4 L  21.258 -99.225 10.0  RAL  1 0.1 0.6LRAL                1
 GAP=360        0.49      11.2    17.3  0.0 -0.1938E+03  0.6071E+01 -0.9488E+01E
 ACTION:UPD 12-06-08 11:37 OP:RALL STATUS:               ID:20090105171927     I
 2009-01-05-1719-21S.PLUR1_003                                                 6
 STAT SP IPHASW D HRMM SECON CODA AMPLIT PERI AZIMU VELO AIN AR TRES W  DIS CAZ7
 LG3  SN IP       1719 29.57                             162    0.2710 3.43 305 
 LG3  SZ E        1719 29.90                  124.7 20.0      0        3.43 305 
 LG3  SE ES       1719 30.45                             162   -0.2710 3.43 305 
 LG3  SZ  AML     1719 30.56        21.5 0.24                          3.43 305 
                                                                                
 2009  1 5 1925 17.3 L  21.558 -99.340 10.0  RAL  1 0.0 0.4LRAL                1
 GAP=360        0.30       5.2     2.2  0.0 -0.1156E+02  0.6071E+01 -0.9488E+01E
 ACTION:UPD 12-06-08 11:37 OP:RALL STATUS:               ID:20090105192517     I
 2009-01-05-1925-05S.PLUR1_003                                                 6
 STAT SP IPHASW D HRMM SECON CODA AMPLIT PERI AZIMU VELO AIN AR TRES W  DIS CAZ7
 LA4  SN IP       1925 19.72                             138    0.0310 8.87 158 
 LA4  SZ E        1925 19.76                  338.5 15.9      0        8.87 158 
 LA4  SE IS       1925 21.39                             138   -0.0310 8.87 158 
 LA4  SZ  AML     1925 22.32        10.9 0.24                          8.87 158 
                                                                                
 2009  1 6 1307  9.7 L  21.353 -99.291 10.0  RAL  1 0.1 1.2LRAL                1
 GAP=360        0.44      13.3    13.1  0.0 -0.1745E+03  0.6071E+01 -0.9488E+01E
 ACTION:UPD 12-06-08 11:37 OP:RALL STATUS:               ID:20090106130709     I
 2009-01-06-1307-02S.PLUR1_003                                                 6
 STAT SP IPHASW D HRMM SECON CODA AMPLIT PERI AZIMU VELO AIN AR TRES W  DIS CAZ7
 LZ4  SZ E        13 7 11.84                  317.5 16.4      0        3.30 137 
 LZ4  SN IP       13 7 11.87                             162    0.2210 3.30 137 
 LZ4  SE IS       13 7 12.82                             162   -0.2210 3.30 137 
 LZ4  SZ  AML     13 7 12.89        82.7 0.18                          3.30 137 
                                                                                
 2009  1 6 1331  5.5 L  21.357 -99.283 10.0  RAL  1 0.1 1.4LRAL                1
 GAP=360        0.44      16.5     8.9  0.0 -0.1474E+03  0.6071E+01 -0.9488E+01E
 ACTION:UPD 12-06-08 11:37 OP:RALL STATUS:               ID:20090106133105     I
 2009-01-06-1330-57S.PLUR1_003                                                 6
 STAT SP IPHASW D HRMM SECON CODA AMPLIT PERI AZIMU VELO AIN AR TRES W  DIS CAZ7
 LZ4  SZ E        1331  7.62                  333.2 20.1      0        3.21 153 
 LZ4  SN IP       1331  7.62                             163    0.2210 3.21 153 
 LZ4  SE IS       1331  8.57                             163   -0.2210 3.21 153 
 LZ4  SZ  AML     1331  8.67       149.7 0.16                          3.21 153 
                                                                                
 2009  1 6 1435 16.3 L  21.342 -99.298 10.0  RAL  1 0.1 0.3LRAL                1
 GAP=360        0.35       5.9    14.6  0.0 -0.8642E+02  0.6071E+01 -0.9488E+01E
 ACTION:UPD 12-06-08 11:37 OP:RALL STATUS:               ID:20090106143516     I
 2009-01-06-1435-09S.PLUR1_003                                                 6
 STAT SP IPHASW D HRMM SECON CODA AMPLIT PERI AZIMU VELO AIN AR TRES W  DIS CAZ7
 LZ4  SN IP       1435 18.30                             163    0.1310 3.20 113 
 LZ4  SZ E        1435 18.34                  293.5  7.9      0        3.20 113 
 LZ4  SE IS       1435 19.43                             163   -0.1310 3.20 113 
 LZ4  SZ  AML     1435 20.02        11.7 0.26                          3.20 113 
                                                                                
 2009  1 6 2126 47.9 L  21.276 -99.421 10.0  RAL  1 0.0 0.5LRAL                1
 GAP=360        0.30       3.5     2.0  0.0  0.6394E+01  0.6071E+01 -0.9488E+01E
 ACTION:UPD 12-06-08 11:37 OP:RALL STATUS:               ID:20090106212647     I
 2009-01-06-2126-41S.PLUR1_003                                                 6
 STAT SP IPHASW D HRMM SECON CODA AMPLIT PERI AZIMU VELO AIN AR TRES W  DIS CAZ7
 LA4  SN IP       2126 52.53                             107    0.0310 25.8  27 
 LA4  SZ E        2126 52.57                  206.9  9.0      0        25.8  27 
 LA4  SE IS       2126 55.85                             107   -0.0310 25.8  27 
 LA4  SZ  AML     2126 59.10         7.5 0.26                          25.8  27 
                                                                                
