 2009  710 1649 56.7 L  21.613 -99.385 10.0  RAL  1 0.0 0.4LRAL                1
 GAP=360        0.30       3.7     2.2  0.0 -0.8135E+01  0.6971E+06  0.9278E+06E
 ACTION:UPD 12-06-08 11:37 OP:RALL STATUS:               ID:20090710164956     I
 2009-07-10-1649-47S.PLUR1_003                                                 6
 STAT SP IPHASW D HRMM SECON CODA AMPLIT PERI AZIMU VELO AIN AR TRES W  DIS CAZ7
 LA4  SN IP       1649 59.96                             119    0.0110 16.3 151 
 LA4  SZ E        1649 59.98                  331.0  9.4      0        16.3 151 
 LA4  SE IS       1650  2.33                             119   -0.0110 16.3 151 
 LA4  SZ  AML     1650  2.91         8.3 0.22                          16.3 151 
                                                                                
 2009  710 1654 47.4 L  21.392 -99.407 10.0  RAL  1 0.0 0.9LRAL                1
 GAP=360        0.30       1.9     4.2  0.0 -0.7543E+01  0.6971E+06  0.9278E+06E
 ACTION:UPD 12-06-08 11:37 OP:RALL STATUS:               ID:20090710165447     I
 2009-07-10-1654-42S.PLUR1_003                                                 6
 STAT SP IPHASW D HRMM SECON CODA AMPLIT PERI AZIMU VELO AIN AR TRES W  DIS CAZ7
 LZ4  SN IP       1654 50.59                             120    0.0110 15.8 115 
 LZ4  SZ E        1654 50.68                  295.4 23.7      0        15.8 115 
 LZ4  SE IS       1654 52.90                             120   -0.0110 15.8 115 
 LZ4  SZ  AML     1654 53.12        26.6 0.18                          15.8 115 
                                                                                
 2009  710 1707 42.0 L  21.287 -99.232 10.0  RAL  1 0.2 0.9LRAL                1
 GAP=360        0.81      21.7    40.6  0.0  0.8794E+03  0.6971E+06  0.9278E+06E
 ACTION:UPD 12-06-08 11:37 OP:RALL STATUS:               ID:20090710170742     I
 2009-07-10-1707-35S.PLUR1_003                                                 6
 STAT SP IPHASW D HRMM SECON CODA AMPLIT PERI AZIMU VELO AIN AR TRES W  DIS CAZ7
 LG3  SZ E        17 7 44.23                   60.2 40.2      0        2.49 240 
 LG3  SN IP       17 7 44.42                             167    0.5110 2.49 240 
 LG3  SE IS       17 7 44.78                             167   -0.5110 2.49 240 
 LG3  SZ  AML     17 7 44.90        48.2 0.36                          2.49 240 
                                                                                
 2009  710 2045 23.7 L  21.274 -99.237 10.0  RAL  1 0.0 0.5LRAL                1
 GAP=360        0.30       3.7     1.4  0.0 -0.4670E+01  0.6971E+06  0.9278E+06E
 ACTION:UPD 12-06-08 11:37 OP:RALL STATUS:               ID:20090710204523     I
 2009-07-10-2045-17S.PLUR1_003                                                 6
 STAT SP IPHASW D HRMM SECON CODA AMPLIT PERI AZIMU VELO AIN AR TRES W  DIS CAZ7
 LA4  SN IP       2045 28.15                             109    0.0210 24.4 342 
 LA4  SZ E        2045 28.27                  162.2  7.7      0        24.4 342 
 LA4  SE IS       2045 31.33                             109   -0.0210 24.4 342 
 LA4  SZ  AML     2045 32.23         6.9 0.26                          24.4 342 
                                                                                
 2009  710 2208 37.4 L  21.694 -98.913 10.0  RAL  1 0.0 0.4LRAL                1
 GAP=360        0.30       2.1     3.6  0.0  0.5755E+01  0.6971E+06  0.9278E+06E
 ACTION:UPD 12-06-08 11:37 OP:RALL STATUS:               ID:20090710220837     I
 2009-07-10-2208-36S.PLUR1_003                                                 6
 STAT SP IPHASW D HRMM SECON CODA AMPLIT PERI AZIMU VELO AIN AR TRES W  DIS CAZ7
 LA4  SN IP       22 8 45.31                              98    0.0110 47.2 241 
 LA4  SZ E        22 8 45.57                   60.4 12.3      0        47.2 241 
 LA4  SE IS       22 8 51.03                              98   -0.0110 47.2 241 
 LA4  SZ  AML     22 8 52.86         3.0 0.38                          47.2 241 
                                                                                
 2009  711 0201 16.9 L  21.327 -99.499 10.0  RAL  1 0.0                        1
 GAP=360        0.30       2.6     3.2  0.0  0.7688E+01  0.6971E+06  0.9278E+06E
 ACTION:UPD 12-06-08 11:37 OP:RALL STATUS:               ID:20090711020116     I
 2009-07-11-0201-06S.PLUR1_003                                                 6
 STAT SP IPHASW D HRMM SECON CODA AMPLIT PERI AZIMU VELO AIN AR TRES W  DIS CAZ7
 LA4  SZ E         2 1 21.63                  228.8 10.2      0        26.3  49 
 LA4  SN IP        2 1 21.64                             107    0.0010 26.3  49 
 LA4  SE IS        2 1 25.06                             107    0.0010 26.3  49 
                                                                                
 2009  711 0345 31.7 L  21.286 -99.231 10.0  RAL  1 0.0 0.9LRAL                1
 GAP=360        0.30       5.5     4.8  0.0 -0.2672E+02  0.6971E+06  0.9278E+06E
 ACTION:UPD 12-06-08 11:37 OP:RALL STATUS:               ID:20090711034531     I
 2009-07-11-0345-24S.PLUR1_003                                                 6
 STAT SP IPHASW D HRMM SECON CODA AMPLIT PERI AZIMU VELO AIN AR TRES W  DIS CAZ7
 LZ4  SZ E         345 33.82                  140.8 14.2      0        6.36 321 
 LZ4  SN IP        345 33.83                             148    0.0510 6.36 321 
 LZ4  SE IS        345 35.28                             148   -0.0510 6.36 321 
 LZ4  SZ  AML      345 35.39        40.1 0.16                          6.36 321 
                                                                                
 2009  711 0737  3.4 L  21.271 -99.236 10.0  RAL  1 0.2 1.0LRAL                1
 GAP=360        1.67      37.5   126.1  0.0 -0.4733E+04  0.6971E+06  0.9278E+06E
 ACTION:UPD 12-06-08 11:37 OP:RALL STATUS:               ID:20090711073703     I
 2009-07-11-0736-56S.PLUR1_003                                                 6
 STAT SP IPHASW D HRMM SECON CODA AMPLIT PERI AZIMU VELO AIN AR TRES W  DIS CAZ7
 LG3  SZ E         737  5.54                  100.1 30.2     -7        1.79 288 
 LG3  SN IP        737  5.59                             170    0.2910 1.79 288 
 LG3  SE IS        737  6.38                             170   -0.2910 1.79 288 
 LG3  SZ  AML      737  6.46        50.5 0.10                          1.79 288 
                                                                                
 2009  714 2132 53.3 L                       RAL  0                            1
 ACTION:UPD 12-06-08 11:37 OP:RALL STATUS:               ID:20090714213253     I
 2009-07-14-2132-53S.PLUR1_003                                                 6
 STAT SP IPHASW D HRMM SECON CODA AMPLIT PERI AZIMU VELO AIN AR TRES W  DIS CAZ7
                                                                                
 2009  715 0007 42.9 L  21.595 -99.294 10.0  RAL  1 0.0 0.7LRAL                1
 GAP=360        0.30       3.8     0.9  0.0 -0.1287E+01  0.6971E+06  0.9278E+06E
 ACTION:UPD 12-06-08 11:37 OP:RALL STATUS:               ID:20090715000742     I
 2009-07-15-0007-43S.PLUR1_003                                                 6
 STAT SP IPHASW D HRMM SECON CODA AMPLIT PERI AZIMU VELO AIN AR TRES W  DIS CAZ7
 LZ4  SN IP        0 7 48.05                             105    0.0110 29.4 175 
 LZ4  SZ E         0 7 48.06                  355.1 47.1      0        29.4 175 
 LZ4  SE IS        0 7 51.79                             105   -0.0110 29.4 175 
 LZ4  SZ  AML      0 7 52.66        10.6 0.20                          29.4 175 
                                                                                
 2009  715 0147 18.9 L  21.320 -99.270 10.0  RAL  1 0.1 0.5LRAL                1
 GAP=360        1.20     999.9   999.9  0.0 -0.5945E+08  0.6971E+06  0.9278E+06E
 ACTION:UPD 12-06-08 11:37 OP:RALL STATUS:               ID:20090715014718     I
 2009-07-15-0147-12S.PLUR1_003                                                 6
 STAT SP IPHASW D HRMM SECON CODA AMPLIT PERI AZIMU VELO AIN AR TRES W  DIS CAZ7
 LZ4  SN IP        147 20.82                             173    0.0410 1.22   3 
 LZ4  SZ E         147 20.84                  177.9 15.7     -5        1.22   3 
 LZ4  SE IS        147 22.09                             173   -0.0410 1.22   3 
 LZ4  SZ  AML      147 22.30        17.6 0.20                          1.22   3 
                                                                                
 2009  715 0210  0.7 L  21.714 -99.300 10.0  RAL  1 0.0 1.2LRAL                1
 GAP=360        0.30       3.9     0.7  0.0  0.5777E+00  0.6971E+06  0.9278E+06E
 ACTION:UPD 12-06-08 11:37 OP:RALL STATUS:               ID:20090715021000     I
 2009-07-15-0209-53S.PLUR1_003                                                 6
 STAT SP IPHASW D HRMM SECON CODA AMPLIT PERI AZIMU VELO AIN AR TRES W  DIS CAZ7
 LA4  SZ E         210  5.08                    2.1  8.3      0        25.5 182 
 LA4  SN IP        210  5.28                             108    0.0110 25.5 182 
 LA4  SE IS        210  8.60                             108   -0.0110 25.5 182 
 LA4  SZ  AML      210  9.76        31.8 0.30                          25.5 182 
                                                                                
 2009  715 0249  7.8 L  21.320 -99.250 10.0  RAL  1 0.2 1.1LRAL                1
 GAP=360        0.89      25.0    45.1  0.0 -0.1129E+04  0.6971E+06  0.9278E+06E
 ACTION:UPD 12-06-08 11:37 OP:RALL STATUS:               ID:20090715024907     I
 2009-07-15-0249-00S.PLUR1_003                                                 6
 STAT SP IPHASW D HRMM SECON CODA AMPLIT PERI AZIMU VELO AIN AR TRES W  DIS CAZ7
 LZ4  SN IP        249 10.26                             167    0.5610 2.39 301 
 LZ4  SZ E         249 10.28                  120.8 17.8      0        2.39 301 
 LZ4  SE IS        249 10.50                             167   -0.5610 2.39 301 
 LZ4  SZ  AML      249 10.67        67.7 0.16                          2.39 301 
                                                                                
 2009  715 0715  2.2 L  21.979 -98.926 10.0  RAL  1 0.0 1.5LRAL                1
 GAP=360        0.30       3.4     2.7  0.0  0.4062E+01  0.6971E+06  0.9278E+06E
 ACTION:UPD 12-06-08 11:37 OP:RALL STATUS:               ID:20090715071502     I
 2009-07-15-0715-07S.PLUR1_003                                                 6
 STAT SP IPHASW D HRMM SECON CODA AMPLIT PERI AZIMU VELO AIN AR TRES W  DIS CAZ7
 LZ4  SZ E         715 15.10                   26.3 24.0      0        80.1 206 
 LZ4  SN IP        715 15.20                              94    0.0110 80.1 206 
 LZ4  SE IS        715 24.64                              94   -0.0110 80.1 206 
 LZ4  SZ  AML      715 25.96        23.2 0.48                          80.1 206 
                                                                                
 2009  715 1746  5.6 L  21.484 -99.313 10.0  RAL  1 0.2                        1
 GAP=360        0.77     999.9   999.9  0.0  0.7135E+07  0.6971E+06  0.9278E+06E
 ACTION:UPD 12-06-08 11:37 OP:RALL STATUS:               ID:20090715174605     I
 2009-07-15-1745-53S.PLUR1_003                                                 6
 STAT SP IPHASW D HRMM SECON CODA AMPLIT PERI AZIMU VELO AIN AR TRES W  DIS CAZ7
 LA4  SZ E        1746  7.91                  281.4 21.4      1        0.46 100 
 LA4  SN IP       1746  7.92                             177    0.4610 0.46 100 
 LA4  SE IS       1746  8.35                             177   -0.4610 0.46 100 
                                                                                
 2009  716 0235  2.6 R  22.497-100.665 10.0  RAL  1 0.0 2.5LRAL                1
 GAP=360        0.30       4.9     5.2  0.0  0.1504E+01  0.6971E+06  0.9278E+06E
 ACTION:UPD 12-06-08 11:37 OP:RALL STATUS:               ID:20090716023502     I
 2009-07-16-0235-23S.PLUR1_003                                                 6
 STAT SP IPHASW D HRMM SECON CODA AMPLIT PERI AZIMU VELO AIN AR TRES W  DIS CAZ7
 LZ4  SN IP        235 30.94                              52    0.0110  194 132 
 LZ4  SZ E         235 30.98                  312.1 22.9      0         194 132 
 LZ4  SE IS        235 51.62                              52   -0.0110  194 132 
 LZ4  SZ  AML      235 54.01        92.5 0.54                           194 132 
                                                                                
 2009  716 0630  1.4 R  20.219-100.699 10.0  RAL  1 0.0 2.3LRAL                1
 GAP=360        0.30       4.8     5.1  0.0 -0.1078E+01  0.6971E+06  0.9278E+06E
 ACTION:UPD 12-06-08 11:37 OP:RALL STATUS:               ID:20090716063001     I
 2009-07-16-0630-20S.PLUR1_003                                                 6
 STAT SP IPHASW D HRMM SECON CODA AMPLIT PERI AZIMU VELO AIN AR TRES W  DIS CAZ7
 LG3  SN IP        630 29.41                              52    0.0110  191  52 
 LG3  SZ E         630 29.44                  232.4 10.0      0         191  52 
 LG3  SE IS        630 49.85                              52   -0.0110  191  52 
 LG3  SZ  AML      630 51.22        56.4 0.36                           191  52 
                                                                                
 2009  716 1541 52.4 L  21.961 -99.066 10.0  RAL  1 0.0 1.6LRAL                1
 GAP=360        0.30       3.6     2.3  0.0  0.3059E+01  0.6971E+06  0.9278E+06E
 ACTION:UPD 12-06-08 11:37 OP:RALL STATUS:               ID:20090716154152     I
 2009-07-16-1541-56S.PLUR1_003                                                 6
 STAT SP IPHASW D HRMM SECON CODA AMPLIT PERI AZIMU VELO AIN AR TRES W  DIS CAZ7
 LZ4  SZ E        1542  4.18                   16.8 21.5      0        72.9 197 
 LZ4  SN IP       1542  4.23                              95    0.0110 72.9 197 
 LZ4  SE IS       1542 12.85                              95   -0.0110 72.9 197 
 LZ4  SN  AML     1542 16.51        34.2 0.32                          72.9 197 
                                                                                
 2009  716 1944 51.8 L  21.895 -99.441 10.0  RAL  1 0.0 1.4LRAL                1
 GAP=360        0.30       3.6     1.7  0.0 -0.3677E+01  0.6971E+06  0.9278E+06E
 ACTION:UPD 12-06-08 11:37 OP:RALL STATUS:               ID:20090716194451     I
 2009-07-16-1944-48S.PLUR1_003                                                 6
 STAT SP IPHASW D HRMM SECON CODA AMPLIT PERI AZIMU VELO AIN AR TRES W  DIS CAZ7
 LA4  SN IP       1944 59.69                              98    0.0110 47.5 163 
 LA4  SZ E        1944 59.72                  343.4  8.5      0        47.5 163 
 LA4  SE IS       1945  5.46                              98   -0.0110 47.5 163 
 LA4  SZ  AML     1945 10.73        31.4 0.52                          47.5 163 
                                                                                
 2009  716 2326 22.3 L  21.327 -99.281 10.0  RAL  1 0.2 1.0LRAL                1
 GAP=360        2.44     999.9   181.7  0.0 -0.2224E+06  0.6971E+06  0.9278E+06E
 ACTION:UPD 12-06-08 11:37 OP:RALL STATUS:               ID:20090716232622     I
 2009-07-16-2326-15S.PLUR1_003                                                 6
 STAT SP IPHASW D HRMM SECON CODA AMPLIT PERI AZIMU VELO AIN AR TRES W  DIS CAZ7
 LZ4  SZ E        2326 24.50                  262.1 10.3     11        1.31  71 
 LZ4  SN IP       2326 24.54                             173    0.3710 1.31  71 
 LZ4  SE IS       2326 25.14                             173   -0.3710 1.31  71 
 LZ4  SZ  AML     2326 25.21        53.2 0.24                          1.31  71 
                                                                                
 2009  717 0005 39.1 L  21.253 -99.380 10.0  RAL  1 0.0 2.9LRAL                1
 GAP=360        0.30       2.7     3.8  0.0  0.1003E+02  0.6971E+06  0.9278E+06E
 ACTION:UPD 12-06-08 11:37 OP:RALL STATUS:               ID:20090717000539     I
 2009-07-17-0005-32S.PLUR1_003                                                 6
 STAT SP IPHASW D HRMM SECON CODA AMPLIT PERI AZIMU VELO AIN AR TRES W  DIS CAZ7
 LZ4  SZ E         0 5 42.12                  233.0 11.8      0        14.4  53 
 LZ4  SN IP        0 5 42.13                             123   -0.0110 14.4  53 
 LZ4  SE IS        0 5 44.34                             123    0.0110 14.4  53 
 LZ4  SZ  AML      0 5 45.26      2746.1 0.16                          14.4  53 
                                                                                
 2009  717 0105 16.8 L  21.474 -99.144 10.0  RAL  1 0.0 1.6LRAL                1
 GAP=360        0.30       3.1     2.8  0.0  0.8304E+01  0.6971E+06  0.9278E+06E
 ACTION:UPD 12-06-08 11:37 OP:RALL STATUS:               ID:20090717010516     I
 2009-07-17-0105-11S.PLUR1_003                                                 6
 STAT SP IPHASW D HRMM SECON CODA AMPLIT PERI AZIMU VELO AIN AR TRES W  DIS CAZ7
 LZ4  SN IP        1 5 20.64                             113    0.0010 20.5 219 
 LZ4  SZ E         1 5 21.03                   39.3 19.0      0        20.5 219 
 LZ4  SE IS        1 5 23.44                             113    0.0010 20.5 219 
 LZ4  SZ  AML      1 5 24.36       103.6 0.16                          20.5 219 
                                                                                
 2009  717 0509  5.6 L  21.253 -99.232 10.0  RAL  1 0.1 0.8LRAL                1
 GAP=360        0.55      17.4    15.5  0.0 -0.2696E+03  0.6971E+06  0.9278E+06E
 ACTION:UPD 12-06-08 11:37 OP:RALL STATUS:               ID:20090717050905     I
 2009-07-17-0509-01S.PLUR1_003                                                 6
 STAT SP IPHASW D HRMM SECON CODA AMPLIT PERI AZIMU VELO AIN AR TRES W  DIS CAZ7
 LG3  SN IP        5 9  7.81                             163    0.3110 3.27 320 
 LG3  SZ E         5 9  7.81                  140.3  8.0      0        3.27 320 
 LG3  SE IS        5 9  8.60                             163   -0.3110 3.27 320 
 LG3  SZ  AML      5 9  8.84        36.5 0.16                          3.27 320 
                                                                                
 2009  717 0526 16.1 L  21.333 -99.275 10.0  RAL  1 0.5 0.2LRAL                1
 GAP=360        6.17     677.0   999.9  0.0  0.1276E+07  0.6971E+06  0.9278E+06E
 ACTION:UPD 12-06-08 11:37 OP:RALL STATUS:               ID:20090717052616     I
 2009-07-17-0526-09S.PLUR1_003                                                 6
 STAT SP IPHASW D HRMM SECON CODA AMPLIT PERI AZIMU VELO AIN AR TRES W  DIS CAZ7
 LZ4  SZ E         526 18.31                  267.9 32.9    -28        0.64 117 
 LZ4  SN IP        526 18.33                             176    0.3710 0.64 117 
 LZ4  SE IS        526 18.93                             176   -0.3710 0.64 117 
 LZ4  SZ  AML      526 19.88         9.4 0.20                          0.64 117 
                                                                                
 2009  718 0551  1.4 L  21.543 -99.357 10.0  RAL  1 0.0 1.1LRAL                1
 GAP=360        0.30       3.6     1.6  0.0 -0.5329E+01  0.6971E+06  0.9278E+06E
 ACTION:UPD 12-06-08 11:37 OP:RALL STATUS:               ID:20090718055101     I
 2009-07-18-0550-58S.PLUR1_003                                                 6
 STAT SP IPHASW D HRMM SECON CODA AMPLIT PERI AZIMU VELO AIN AR TRES W  DIS CAZ7
 LZ4  SZ E         551  5.75                  339.0 12.6      0        25.2 159 
 LZ4  SN IP        551  5.98                             108    0.0210 25.2 159 
 LZ4  SE IS        551  9.24                             108   -0.0210 25.2 159 
 LZ4  SZ  AML      551  9.70        30.6 0.12                          25.2 159 
                                                                                
