 2010  4 9 1539 38.1 L  22.152 -99.511 10.0  RAL  1 0.0 1.7LRAL                1
 GAP=360        0.30       3.6     2.7  0.0 -0.2148E+01  0.6033E+08  0.3074E+08E
 ACTION:UPD 12-06-08 11:37 OP:RALL STATUS:               ID:20100409153938     I
 2010-04-09-1539-45S.PLUR1_003                                                 6
 STAT SP IPHASW D HRMM SECON CODA AMPLIT PERI AZIMU VELO AIN AR TRES W  DIS CAZ7
 LZ4  SZ E        1539 53.24                  344.7 19.0      0        94.3 165 
 LZ4  SN IP       1539 53.24                              93    0.0110 94.3 165 
 LZ4  SE IS       1540  4.28                              93   -0.0110 94.3 165 
 LZ4  SZ  AML     1540  7.65        30.3 0.18                          94.3 165 
                                                                                
 2010  410 1021 21.0 L  20.919 -98.925 10.0  RAL  1 0.0 1.9LRAL                1
 GAP=360        0.30       3.1     2.8  0.0 -0.6030E+01  0.6033E+08  0.3074E+08E
 ACTION:UPD 12-06-08 11:37 OP:RALL STATUS:               ID:20100410102121     I
 2010-04-10-1021-20S.PLUR1_003                                                 6
 STAT SP IPHASW D HRMM SECON CODA AMPLIT PERI AZIMU VELO AIN AR TRES W  DIS CAZ7
 LZ4  SZ E        1021 30.44                  141.9  8.8      0        58.0 322 
 LZ4  SN IP       1021 30.51                              96    0.0110 58.0 322 
 LZ4  SE IS       1021 37.44                              96   -0.0110 58.0 322 
 LZ4  SZ  AML     1021 39.89        90.6 0.24                          58.0 322 
                                                                                
 2010  411 0127 44.7 L  21.509 -99.360 10.0  RAL  1 0.0 2.4LRAL                1
 GAP=360        0.30       3.6     1.9  0.0 -0.6388E+01  0.6033E+08  0.3074E+08E
 ACTION:UPD 12-06-08 11:37 OP:RALL STATUS:               ID:20100411012744     I
 2010-04-11-0127-39S.PLUR1_003                                                 6
 STAT SP IPHASW D HRMM SECON CODA AMPLIT PERI AZIMU VELO AIN AR TRES W  DIS CAZ7
 LZ4  SZ E         127 48.74                  334.7 12.4      0        21.8 155 
 LZ4  SN IP        127 48.78                             111    0.0010 21.8 155 
 LZ4  SE IS        127 51.72                             111    0.0010 21.8 155 
 LZ4  SZ  AML      127 51.92       601.9 0.48                          21.8 155 
                                                                                
 2010  411 0741  4.2 L  21.265 -99.241 10.0  RAL  1 0.0 0.9LRAL                1
 GAP=360        0.30       5.6     2.4  0.0 -0.1338E+02  0.6033E+08  0.3074E+08E
 ACTION:UPD 12-06-08 11:37 OP:RALL STATUS:               ID:20100411074104     I
 2010-04-11-0740-56S.PLUR1_003                                                 6
 STAT SP IPHASW D HRMM SECON CODA AMPLIT PERI AZIMU VELO AIN AR TRES W  DIS CAZ7
 LZ4  SZ E         741  6.39                  158.1 17.7      0        7.86 338 
 LZ4  SN IP        741  6.43                             142    0.0110 7.86 338 
 LZ4  SE IS        741  8.04                             142   -0.0110 7.86 338 
 LZ4  SZ  AML      741  8.27        36.0 0.22                          7.86 338 
                                                                                
 2010  411 0859 46.4 L  21.325 -99.292 10.0  RAL  1 0.1 0.3LRAL                1
 GAP=360        0.37     976.9   322.6  0.0 -0.3151E+06  0.6033E+08  0.3074E+08E
 ACTION:UPD 12-06-08 11:37 OP:RALL STATUS:               ID:20100411085946     I
 2010-04-11-0859-39S.PLUR1_003                                                 6
 STAT SP IPHASW D HRMM SECON CODA AMPLIT PERI AZIMU VELO AIN AR TRES W  DIS CAZ7
 LZ4  SZ E         859 48.37                  254.0 28.3      0        2.44  74 
 LZ4  SN IP        859 48.46                             167    0.1410 2.44  74 
 LZ4  SE IS        859 49.54                             167   -0.1410 2.44  74 
 LZ4  SZ  AML      859 50.95        10.5 0.10                          2.44  74 
                                                                                
 2010  411 1035 20.4 R  21.360 -99.006 10.0  RAL  3 1.4 1.7LRAL                1
 GAP=291       23.90      45.2    86.9708.1  0.1932E+04 -0.2457E+05 -0.1008E+05E
 ACTION:UPD 12-06-08 11:37 OP:RALL STATUS:               ID:20100411103520     I
 2010-04-11-1035-15S.PLUR1_012                                                 6
 STAT SP IPHASW D HRMM SECON CODA AMPLIT PERI AZIMU VELO AIN AR TRES W  DIS CAZ7
 LG3  SZ E        1035 25.42                   22.3 20.3    -47        27.2 250 
 LG3  SN IP       1035 25.55                             106    0.3610 27.2 250 
 LG3  SE IS       1035 28.91                             106    0.1910 27.2 250 
 LG3  SZ  AML     1035 30.72       344.1 0.44                          27.2 250 
 LO8  SN IP       1035 27.00                             104    1.2410 30.9 224 
 LO8  SZ E        1035 27.01                  137.3  6.7     93        30.9 224 
 LO8  SE IS       1035 31.93                             104    2.2310 30.9 224 
 LO8  SZ  AML     1035 33.03        16.9 0.46                          30.9 224 
 LA4  SZ E        1035 24.91                  201.3 13.0     88        34.3 294 
 LA4  SN IP       1035 24.95                             102   -1.3010 34.3 294 
 LA4  SE IS       1035 27.82                             102   -2.7310 34.3 294 
 LA4  SZ  AML     1035 28.59       142.1 0.78                          34.3 294 
                                                                                
 2010  411 1649 12.2 L  21.280 -99.254 10.0  RAL  1 0.3 0.8LRAL                1
 GAP=360        3.25     999.9   999.9  0.0  0.1169E+07 -0.2457E+05 -0.1008E+05E
 ACTION:UPD 12-06-08 11:37 OP:RALL STATUS:               ID:20100411164912     I
 2010-04-11-1649-05S.PLUR1_003                                                 6
 STAT SP IPHASW D HRMM SECON CODA AMPLIT PERI AZIMU VELO AIN AR TRES W  DIS CAZ7
 LG3  SZ E        1649 14.25                  356.4  5.9     15        0.53 161 
 LG3  SN IP       1649 14.27                             177    0.2010 0.53 161 
 LG3  SE IS       1649 15.23                             177   -0.2010 0.53 161 
 LG3  SZ  AML     1649 15.86        37.1 0.12                          0.53 161 
                                                                                
 2010  411 1808  1.7 L  21.322 -99.252 10.0  RAL  1 0.0 0.2LRAL                1
 GAP=360        0.30       8.4     0.1  0.0  0.2566E+00 -0.2457E+05 -0.1008E+05E
 ACTION:UPD 12-06-08 11:37 OP:RALL STATUS:               ID:20100411180801     I
 2010-04-11-1807-55S.PLUR1_003                                                 6
 STAT SP IPHASW D HRMM SECON CODA AMPLIT PERI AZIMU VELO AIN AR TRES W  DIS CAZ7
 LG3  SN IP       18 8  3.70                             154    0.0110 5.09 180 
 LG3  SZ E        18 8  3.75                    0.2  4.5      0        5.09 180 
 LG3  SE IS       18 8  5.17                             154   -0.0110 5.09 180 
 LG3  SZ  AML     18 8  5.32         9.0 0.24                          5.09 180 
                                                                                
 2010  412 1029 43.3 L  21.265 -99.273 10.0  RAL  1 0.2 0.2LRAL                1
 GAP=360        0.67      17.8    33.8  0.0  0.6017E+03 -0.2457E+05 -0.1008E+05E
 ACTION:UPD 12-06-08 11:37 OP:RALL STATUS:               ID:20100412102943     I
 2010-04-12-1029-36S.PLUR1_003                                                 6
 STAT SP IPHASW D HRMM SECON CODA AMPLIT PERI AZIMU VELO AIN AR TRES W  DIS CAZ7
 LG3  SZ E        1029 45.54                  240.6 31.4      0        2.48  61 
 LG3  SN IP       1029 45.56                             167    0.4110 2.48  61 
 LG3  SE IS       1029 46.13                             167   -0.4110 2.48  61 
 LG3  SZ  AML     1029 46.26         7.8 0.22                          2.48  61 
                                                                                
 2010  412 2204 22.3 L  21.156 -99.260 10.0  RAL  1 0.0 0.7LRAL                1
 GAP=360        0.30       4.1     0.6  0.0 -0.9129E+00 -0.2457E+05 -0.1008E+05E
 ACTION:UPD 12-06-08 11:37 OP:RALL STATUS:               ID:20100412220422     I
 2010-04-12-2204-19S.PLUR1_003                                                 6
 STAT SP IPHASW D HRMM SECON CODA AMPLIT PERI AZIMU VELO AIN AR TRES W  DIS CAZ7
 LZ4  SZ E        22 4 26.01                  177.0 10.8      0        19.4 357 
 LZ4  SN IP       22 4 26.02                             114    0.0210 19.4 357 
 LZ4  SE IS       22 4 28.68                             114   -0.0210 19.4 357 
 LZ4  SZ  AML     22 4 31.77        13.5 0.74                          19.4 357 
                                                                                
 2010  413 0725 35.9 L  21.332 -99.274 10.0  RAL  1 0.2 2.2LRAL                1
 GAP=360        1.40     999.9   999.9  0.0  0.6562E+07 -0.2457E+05 -0.1008E+05E
 ACTION:UPD 12-06-08 11:37 OP:RALL STATUS:               ID:20100413072535     I
 2010-04-13-0725-28S.PLUR1_003                                                 6
 STAT SP IPHASW D HRMM SECON CODA AMPLIT PERI AZIMU VELO AIN AR TRES W  DIS CAZ7
 LZ4  SZ E         725 38.23                  283.5 19.1     -4        0.50 109 
 LZ4  SN IP        725 38.25                             177    0.5410 0.50 109 
 LZ4  SE IS        725 38.50                             177   -0.5410 0.50 109 
 LZ4  SZ  AML      725 38.63       989.8 0.34                          0.50 109 
                                                                                
 2010  413 1636 31.5 L  21.279 -99.250 10.0  RAL  2 0.3 0.4LRAL                1
 GAP=241        2.56      13.5     9.3 23.3 -0.1124E+03  0.1196E+03 -0.1840E+03E
 ACTION:UPD 12-06-08 11:37 OP:RALL STATUS:               ID:20100413163631     I
 2010-04-13-1636-25S.PLUR1_006                                                 6
 STAT SP IPHASW D HRMM SECON CODA AMPLIT PERI AZIMU VELO AIN AR TRES W  DIS CAZ7
 LG3  SN IP       1636 34.07                             178    0.7310 0.49 210 
 LG3  SZ E        1636 34.08                   30.7 15.2      1        0.49 210 
 LG3  SE IS       1636 35.26                             178    0.5710 0.49 210 
 LG3  SZ  AML     1636 35.63        41.6 0.26                          0.49 210 
 LT7  SZ E        1636 34.29                  158.4  7.7     10        15.1 328 
 LT7  SN IP       1636 34.33                             121   -0.2110 15.1 328 
 LT7  SE IS       1636 35.67                             121   -1.1010 15.1 328 
 LT7  SZ  AML     1636 35.73         3.1 0.10                          15.1 328 
                                                                                
 2010  414 0724 28.2 L  21.336 -99.280 10.0  RAL  1 0.3 1.2LRAL                1
 GAP=360        2.65     999.9   515.0  0.0  0.7502E+06  0.1196E+03 -0.1840E+03E
 ACTION:UPD 12-06-08 11:37 OP:RALL STATUS:               ID:20100414072428     I
 2010-04-14-0724-21S.PLUR1_003                                                 6
 STAT SP IPHASW D HRMM SECON CODA AMPLIT PERI AZIMU VELO AIN AR TRES W  DIS CAZ7
 LZ4  SZ E         724 30.56                  287.0 23.8    -11        1.21 119 
 LZ4  SN IP        724 30.58                             173    0.5510 1.21 119 
 LZ4  SE IS        724 30.82                             173   -0.5510 1.21 119 
 LZ4  SZ  AML      724 30.92        82.5 0.16                          1.21 119 
                                                                                
 2010  414 0728 42.2 L  21.317 -99.268 10.0  RAL  1 0.3 0.4LRAL                1
 GAP=360        3.20     999.9   999.9  0.0  0.1230E+09  0.1196E+03 -0.1840E+03E
 ACTION:UPD 12-06-08 11:37 OP:RALL STATUS:               ID:20100414072842     I
 2010-04-14-0728-35S.PLUR1_003                                                 6
 STAT SP IPHASW D HRMM SECON CODA AMPLIT PERI AZIMU VELO AIN AR TRES W  DIS CAZ7
 LZ4  SN IP        728 44.42                             172    0.3810 1.52 352 
 LZ4  SZ E         728 44.44                  157.3 14.9    -14        1.52 352 
 LZ4  SE IS        728 45.00                             172   -0.3810 1.52 352 
 LZ4  SZ  AML      728 45.34        15.0 0.34                          1.52 352 
                                                                                
 2010  414 1843  3.8 L  21.333 -99.249 10.0  RAL  1 0.1 0.2LRAL                1
 GAP=360        0.50     999.9   148.1  0.0 -0.1711E+06  0.1196E+03 -0.1840E+03E
 ACTION:UPD 12-06-08 11:37 OP:RALL STATUS:               ID:20100414184303     I
 2010-04-14-1842-57S.PLUR1_003                                                 6
 STAT SP IPHASW D HRMM SECON CODA AMPLIT PERI AZIMU VELO AIN AR TRES W  DIS CAZ7
 LZ4  SZ E        1843  5.91                   84.7 88.2      0        2.12 265 
 LZ4  SN IP       1843  5.94                             168    0.2710 2.12 265 
 LZ4  SE IS       1843  6.76                             168   -0.2710 2.12 265 
 LZ4  SZ  AML     1843  7.05         8.8 0.22                          2.12 265 
                                                                                
 2010  414 2004 46.7 R  19.735 -99.376 10.0  RAL  1 0.0 2.9LRAL                1
 GAP=360        0.30       4.7     4.9  0.0  0.8596E-01  0.1196E+03 -0.1840E+03E
 ACTION:UPD 12-06-08 11:37 OP:RALL STATUS:               ID:20100414200446     I
 2010-04-14-2005-03S.PLUR1_003                                                 6
 STAT SP IPHASW D HRMM SECON CODA AMPLIT PERI AZIMU VELO AIN AR TRES W  DIS CAZ7
 LZ4  SN IP       20 5 12.98                              52    0.0110  177   4 
 LZ4  SZ E        20 5 13.29                  183.6 14.5      0         177   4 
 LZ4  SE IS       20 5 32.18                              52   -0.0110  177   4 
 LZ4  SZ  AML     20 5 32.40       259.2 0.36                           177   4 
                                                                                
 2010  415 1454 15.2 L  21.342 -99.251 10.0  RAL  1 0.6 0.5LRAL                1
 GAP=360        7.52     241.3   392.1  0.0  0.9460E+05  0.1196E+03 -0.1840E+03E
 ACTION:UPD 12-06-08 11:37 OP:RALL STATUS:               ID:20100415145415     I
 2010-04-15-1454-08S.PLUR1_003                                                 6
 STAT SP IPHASW D HRMM SECON CODA AMPLIT PERI AZIMU VELO AIN AR TRES W  DIS CAZ7
 LZ4  SN IP       1454 17.59                             168    0.5610 2.26 237 
 LZ4  SZ E        1454 17.60                   92.2 77.5     36        2.26 237 
 LZ4  SE IS       1454 17.84                             168   -0.5610 2.26 237 
 LZ4  SZ  AML     1454 17.93        16.2 0.36                          2.26 237 
                                                                                
 2010  415 2159 57.9 R  21.416 -99.459 10.0  RAL  1 0.0 0.6LRAL                1
 GAP=360        0.30       1.8     3.8  0.0 -0.6420E+01  0.1196E+03 -0.1840E+03E
 ACTION:UPD 12-06-08 11:37 OP:RALL STATUS:               ID:20100415215957     I
 2010-04-15-2159-56S.PLUR1_003                                                 6
 STAT SP IPHASW D HRMM SECON CODA AMPLIT PERI AZIMU VELO AIN AR TRES W  DIS CAZ7
 LZ4  SN IP       22 0  1.91                             111    0.0010 21.8 116 
 LZ4  SZ E        22 0  1.95                  295.6 24.1      0        21.8 116 
 LZ4  SE IS       22 0  4.85                             111    0.0010 21.8 116 
 LZ4  SZ  AML     22 0  5.76        10.2 0.28                          21.8 116 
                                                                                
 2010  416  719 14.8 L                       RAL  0                            1
 ACTION:UPD 12-06-08 11:37 OP:RALL STATUS:               ID:20100416071914     I
 2010-04-16-0719-14S.PLUR1_021                                                 6
 STAT SP IPHASW D HRMM SECON CODA AMPLIT PERI AZIMU VELO AIN AR TRES W  DIS CAZ7
                                                                                
 2010  416 0835 40.1 L  21.356 -99.290 10.0  RAL  1 0.1 0.7LRAL                1
 GAP=360        0.40      12.2    10.2  0.0 -0.1241E+03  0.1196E+03 -0.1840E+03E
 ACTION:UPD 12-06-08 11:37 OP:RALL STATUS:               ID:20100416083540     I
 2010-04-16-0835-33S.PLUR1_003                                                 6
 STAT SP IPHASW D HRMM SECON CODA AMPLIT PERI AZIMU VELO AIN AR TRES W  DIS CAZ7
 LZ4  SN IP        835 42.24                             161    0.1810 3.50 142 
 LZ4  SZ E         835 42.27                  322.0 12.4      0        3.50 142 
 LZ4  SE IS        835 43.28                             161   -0.1810 3.50 142 
 LZ4  SZ  AML      835 43.54        25.6 0.16                          3.50 142 
                                                                                
 2010  416 1040 39.1 L  21.276 -99.259 10.0  RAL  1 0.2 0.2LRAL                1
 GAP=360        0.78     999.9   392.8  0.0  0.6536E+07  0.1196E+03 -0.1840E+03E
 ACTION:UPD 12-06-08 11:37 OP:RALL STATUS:               ID:20100416104039     I
 2010-04-16-1040-32S.PLUR1_003                                                 6
 STAT SP IPHASW D HRMM SECON CODA AMPLIT PERI AZIMU VELO AIN AR TRES W  DIS CAZ7
 LG3  SZ E        1040 41.46                  271.3 12.3      0        0.70  92 
 LG3  SN IP       1040 41.47                             176    0.4810 0.70  92 
 LG3  SE IS       1040 41.86                             176   -0.4810 0.70  92 
 LG3  SZ  AML     1040 41.94         8.8 0.10                          0.70  92 
                                                                                
 2010  417 0046 47.2 L  21.339 -99.290 10.0  RAL  1 0.2 0.7LRAL                1
 GAP=360        0.88      19.9    48.0  0.0 -0.9533E+03  0.1196E+03 -0.1840E+03E
 ACTION:UPD 12-06-08 11:37 OP:RALL STATUS:               ID:20100417004647     I
 2010-04-17-0046-40S.PLUR1_003                                                 6
 STAT SP IPHASW D HRMM SECON CODA AMPLIT PERI AZIMU VELO AIN AR TRES W  DIS CAZ7
 LZ4  SZ E         046 49.59                  293.9 14.8      0        2.37 114 
 LZ4  SN IP        046 49.61                             167    0.5610 2.37 114 
 LZ4  SE IS        046 49.86                             167   -0.5610 2.37 114 
 LZ4  SZ  AML      046 49.94        27.7 0.16                          2.37 114 
                                                                                
 2010  417 0703 27.7 R  21.278 -99.272100.0  RAL  2 0.7 3.0LRAL                1
 GAP=303        3.54       9.1     6.2 41.5 -0.3176E+02  0.3617E+01 -0.6718E+01E
 ACTION:UPD 12-06-08 11:37 OP:RALL STATUS:               ID:20100417070327     I
 2010-04-17-0703-29S.PLUR1_006                                                 6
 STAT SP IPHASW D HRMM SECON CODA AMPLIT PERI AZIMU VELO AIN AR TRES W  DIS CAZ7
 LG3  SZ E         7 3 41.50                  278.0 12.1      0        2.00  98 
 LG3  SN IP        7 3 41.64                             179    0.6410 2.00  98 
 LG3  SE IS        7 3 53.23                             179    2.5210 2.00  98 
 LG3  SZ  AML      7 3 54.00      1271.5 0.54                          2.00  98 
 LO8  SN IP        7 3 39.30                             171   -1.8610 14.5 155 
 LO8  SZ E         7 3 39.63                  335.6  8.6      0        14.5 155 
 LO8  SE IS        7 3 49.70                             171   -1.3010 14.5 155 
 LO8  SZ  AML      7 3 50.66       217.1 0.66                          14.5 155 
                                                                                
