 2010 1214 0414 31.1 L  21.288 -99.257 10.0  RAL  1 0.0 1.3LRAL                1
 GAP=360        0.30       8.3     2.4  0.0 -0.1981E+02  0.2450E+01  0.8120E+01E
 ACTION:UPD 12-06-08 11:37 OP:RALL STATUS:               ID:20101214041431     I
 2010-12-14-0414-24S.PLUR1_003                                                 6
 STAT SP IPHASW D HRMM SECON CODA AMPLIT PERI AZIMU VELO AIN AR TRES W  DIS CAZ7
 LZ4  SZ E         414 33.07                  165.1 12.7      0        4.88 345 
 LZ4  SN IP        414 33.08                             154    0.0210 4.88 345 
 LZ4  SE IS        414 34.50                             154   -0.0210 4.88 345 
 LZ4  SZ  AML      414 35.12       104.5 0.22                          4.88 345 
                                                                                
 2010 1214 0551 50.4 L  21.327 -99.277 10.0  RAL  1 0.2 0.3LRAL                1
 GAP=360        1.23     999.9   999.9  0.0 -0.3881E+07  0.2450E+01  0.8120E+01E
 ACTION:UPD 12-06-08 11:37 OP:RALL STATUS:               ID:20101214055150     I
 2010-12-14-0551-42S.PLUR1_003                                                 6
 STAT SP IPHASW D HRMM SECON CODA AMPLIT PERI AZIMU VELO AIN AR TRES W  DIS CAZ7
 LZ4  SZ E         551 52.41                  249.3 72.6      5        0.86  64 
 LZ4  SN IP        551 52.54                             175    0.3310 0.86  64 
 LZ4  SE IS        551 53.23                             175   -0.3310 0.86  64 
 LZ4  SZ  AML      551 53.46        12.4 0.28                          0.86  64 
                                                                                
 2010 1214 0845 56.6 L  21.297 -99.312 10.0  RAL  1 0.0 0.4LRAL                1
 GAP=360        0.30       4.0     0.6  0.0  0.2966E+00  0.2450E+01  0.8120E+01E
 ACTION:UPD 12-06-08 11:37 OP:RALL STATUS:               ID:20101214084556     I
 2010-12-14-0845-53S.PLUR1_003                                                 6
 STAT SP IPHASW D HRMM SECON CODA AMPLIT PERI AZIMU VELO AIN AR TRES W  DIS CAZ7
 LA4  SN IP        846  0.48                             113    0.0110 20.7   1 
 LA4  SZ E         846  0.58                  181.0 13.8      0        20.7   1 
 LA4  SE IS        846  3.28                             113   -0.0110 20.7   1 
 LA4  SZ  AML      846  3.79         6.9 0.42                          20.7   1 
                                                                                
 2010 1214 0919 49.5 L  21.352 -99.296 10.0  RAL  1 0.1 0.3LRAL                1
 GAP=360        0.44      10.6    13.4  0.0 -0.1428E+03  0.2450E+01  0.8120E+01E
 ACTION:UPD 12-06-08 11:37 OP:RALL STATUS:               ID:20101214091949     I
 2010-12-14-0919-43S.PLUR1_003                                                 6
 STAT SP IPHASW D HRMM SECON CODA AMPLIT PERI AZIMU VELO AIN AR TRES W  DIS CAZ7
 LZ4  SN IP        919 51.63                             161    0.2210 3.62 130 
 LZ4  SZ E         919 51.65                  310.4 19.9      0        3.62 130 
 LZ4  SE IS        919 52.60                             161   -0.2210 3.62 130 
 LZ4  SZ  AML      919 52.96        11.5 0.10                          3.62 130 
                                                                                
 2010 1214 1144  7.7 L  21.077 -99.309 10.0  RAL  1 0.0 1.6LRAL                1
 GAP=360        0.30       3.8     1.0  0.0  0.2193E+01  0.2450E+01  0.8120E+01E
 ACTION:UPD 12-06-08 11:37 OP:RALL STATUS:               ID:20101214114407     I
 2010-12-14-1144-03S.PLUR1_003                                                 6
 STAT SP IPHASW D HRMM SECON CODA AMPLIT PERI AZIMU VELO AIN AR TRES W  DIS CAZ7
 LZ4  SZ E        1144 12.72                  188.4 16.7      0        28.4   8 
 LZ4  SN IP       1144 12.75                             105    0.0110 28.4   8 
 LZ4  SE IS       1144 16.38                             105   -0.0110 28.4   8 
 LZ4  SZ  AML     1144 18.91        77.0 0.36                          28.4   8 
                                                                                
 2010 1214 1236 28.0 L  21.309 -99.278 10.0  RAL  1 0.1 0.5LRAL                1
 GAP=360        0.37      17.9     6.6  0.0  0.1174E+03  0.2450E+01  0.8120E+01E
 ACTION:UPD 12-06-08 11:37 OP:RALL STATUS:               ID:20101214123628     I
 2010-12-14-1236-22S.PLUR1_003                                                 6
 STAT SP IPHASW D HRMM SECON CODA AMPLIT PERI AZIMU VELO AIN AR TRES W  DIS CAZ7
 LZ4  SZ E        1236 30.05                  198.9 41.1      0        2.61  19 
 LZ4  SN IP       1236 30.08                             166    0.1510 2.61  19 
 LZ4  SE IS       1236 31.15                             166   -0.1510 2.61  19 
 LZ4  SZ  AML     1236 32.39        16.0 0.22                          2.61  19 
                                                                                
 2010 1214 1321  2.7 L  20.981 -98.950 10.0  RAL  1 0.0 1.0LRAL                1
 GAP=360        0.30       3.0     2.8  0.0 -0.6449E+01  0.2450E+01  0.8120E+01E
 ACTION:UPD 12-06-08 11:37 OP:RALL STATUS:               ID:20101214132102     I
 2010-12-14-1321-08S.PLUR1_003                                                 6
 STAT SP IPHASW D HRMM SECON CODA AMPLIT PERI AZIMU VELO AIN AR TRES W  DIS CAZ7
 LZ4  SZ E        1321 11.14                  139.4 21.1      0        51.0 319 
 LZ4  SN IP       1321 11.18                              97    0.0110 51.0 319 
 LZ4  SE IS       1321 17.32                              97   -0.0110 51.0 319 
 LZ4  SZ  AML     1321 17.95        12.7 0.36                          51.0 319 
                                                                                
 2010 1214 1847 13.1 L  21.237 -99.267 10.0  RAL  1 0.0 0.1LRAL                1
 GAP=360        0.30       3.8     1.5  0.0 -0.5456E+01  0.2450E+01  0.8120E+01E
 ACTION:UPD 12-06-08 11:37 OP:RALL STATUS:               ID:20101214184713     I
 2010-12-14-1847-09S.PLUR1_003                                                 6
 STAT SP IPHASW D HRMM SECON CODA AMPLIT PERI AZIMU VELO AIN AR TRES W  DIS CAZ7
 LT9  SN IP       1847 16.60                             115    0.0010 18.6 341 
 LT9  SZ E        1847 16.65                  160.7  9.7      0        18.6 341 
 LT9  SE IS       1847 19.18                             115    0.0010 18.6 341 
 LT9  SZ  AML     1847 19.30         3.9 0.30                          18.6 341 
                                                                                
 2010 1215 0705 30.0 L  21.700 -99.346 10.0  RAL  1 0.0 1.4LRAL                1
 GAP=360        0.30       3.7     1.4  0.0 -0.2603E+01  0.2450E+01  0.8120E+01E
 ACTION:UPD 12-06-08 11:37 OP:RALL STATUS:               ID:20101215070530     I
 2010-12-15-0705-27S.PLUR1_003                                                 6
 STAT SP IPHASW D HRMM SECON CODA AMPLIT PERI AZIMU VELO AIN AR TRES W  DIS CAZ7
 LZ4  SZ E         7 5 37.01                  349.0  7.9      0        41.7 169 
 LZ4  SN IP        7 5 37.02                              99    0.0110 41.7 169 
 LZ4  SE IS        7 5 42.13                              99   -0.0110 41.7 169 
 LZ4  SZ  AML      7 5 42.97        31.6 0.36                          41.7 169 
                                                                                
 2010 1215 0918 56.7 L  21.032 -99.124 10.0  RAL  1 0.0 0.7LRAL                1
 GAP=360        0.30       3.5     1.9  0.0 -0.5398E+01  0.2450E+01  0.8120E+01E
 ACTION:UPD 12-06-08 11:37 OP:RALL STATUS:               ID:20101215091856     I
 2010-12-15-0918-58S.PLUR1_003                                                 6
 STAT SP IPHASW D HRMM SECON CODA AMPLIT PERI AZIMU VELO AIN AR TRES W  DIS CAZ7
 LZ4  SZ E         919  2.83                  155.5 11.3      0        36.3 336 
 LZ4  SN IP        919  2.89                             101    0.0110 36.3 336 
 LZ4  SE IS        919  7.39                             101   -0.0110 36.3 336 
 LZ4  SZ  AML      919  8.51         8.7 0.24                          36.3 336 
                                                                                
 2010 1215 1123  5.0 L  21.204 -99.152 10.0  RAL  1 0.0 0.7LRAL                1
 GAP=360        0.30       3.1     2.9  0.0 -0.8755E+01  0.2450E+01  0.8120E+01E
 ACTION:UPD 12-06-08 11:37 OP:RALL STATUS:               ID:20101215112305     I
 2010-12-15-1123-01S.PLUR1_003                                                 6
 STAT SP IPHASW D HRMM SECON CODA AMPLIT PERI AZIMU VELO AIN AR TRES W  DIS CAZ7
 LZ4  SZ E        1123  8.46                  139.0 52.7      0        18.7 319 
 LZ4  SN IP       1123  8.54                             115    0.0110 18.7 319 
 LZ4  SE IS       1123 11.14                             115   -0.0110 18.7 319 
 LZ4  SZ  AML     1123 13.07        13.7 0.44                          18.7 319 
                                                                                
 2010 1215 1204 52.3 L  21.169 -99.269 10.0  RAL  1 0.0 1.1LRAL                1
 GAP=360        0.30       4.1     0.5  0.0 -0.6272E-01  0.2450E+01  0.8120E+01E
 ACTION:UPD 12-06-08 11:37 OP:RALL STATUS:               ID:20101215120452     I
 2010-12-15-1204-46S.PLUR1_003                                                 6
 STAT SP IPHASW D HRMM SECON CODA AMPLIT PERI AZIMU VELO AIN AR TRES W  DIS CAZ7
 LZ4  SZ E        12 4 55.68                  179.8 25.5      0        17.9 360 
 LZ4  SN IP       12 4 55.75                             117    0.0210 17.9 360 
 LZ4  SE IS       12 4 58.25                             117   -0.0210 17.9 360 
 LZ4  SZ  AML     12 4 59.41        34.6 0.22                          17.9 360 
                                                                                
 2010 1215 1209 27.5 L  21.335 -99.272 10.0  RAL  1 0.3 1.0LRAL                1
 GAP=360        2.79     725.2   999.9  0.0  0.2325E+07  0.2450E+01  0.8120E+01E
 ACTION:UPD 12-06-08 11:37 OP:RALL STATUS:               ID:20101215120927     I
 2010-12-15-1209-20S.PLUR1_003                                                 6
 STAT SP IPHASW D HRMM SECON CODA AMPLIT PERI AZIMU VELO AIN AR TRES W  DIS CAZ7
 LZ4  SZ E        12 9 29.82                  346.0 12.2     13        0.51 153 
 LZ4  SN IP       12 9 29.82                             177    0.4810 0.51 153 
 LZ4  SE IS       12 9 30.20                             177   -0.4810 0.51 153 
 LZ4  SZ  AML     12 9 30.26        52.0 0.16                          0.51 153 
                                                                                
 2010 1215 2140 29.7 L  21.763 -99.443  5.4  RAL  2 0.3 0.8LRAL                1
 GAP=352        4.25     141.2    59.8300.9 -0.8286E+04 -0.1721E+05  0.4122E+05E
 ACTION:UPD 12-06-08 11:37 OP:RALL STATUS:               ID:20101215214029     I
 2010-12-15-2140-26S.PLUR1_006                                                 6
 STAT SP IPHASW D HRMM SECON CODA AMPLIT PERI AZIMU VELO AIN AR TRES W  DIS CAZ7
 LA4  SZ E        2140 35.56                  348.0  9.2     12        33.9 156 
 LA4  SN IP       2140 35.59                              63    0.1310 33.9 156 
 LA4  SE IS       2140 38.67                              63   -0.9910 33.9 156 
 LA4  SZ  AML     2140 39.56        60.4 0.24                          33.9 156 
 LT9  SZ E        2140 37.42                  327.8 12.3    -15        42.4 163 
 LT9  SN IP       2140 37.45                              63    0.7010 42.4 163 
 LT9  SE IS       2140 42.06                              63    0.1610 42.4 163 
 LT9  SZ  AML     2140 42.71         1.5 0.60                          42.4 163 
                                                                                
 2010 1216 0649 45.5 L  21.328 -99.279 10.0  RAL  1 0.1 0.7LRAL                1
 GAP=360        1.10     999.9   524.0  0.0 -0.1117E+07 -0.1721E+05  0.4122E+05E
 ACTION:UPD 12-06-08 11:37 OP:RALL STATUS:               ID:20101216064945     I
 2010-12-16-0649-37S.PLUR1_003                                                 6
 STAT SP IPHASW D HRMM SECON CODA AMPLIT PERI AZIMU VELO AIN AR TRES W  DIS CAZ7
 LZ4  SZ E         649 47.40                  258.3 28.5      5        1.02  73 
 LZ4  SN IP        649 47.51                             174    0.2010 1.02  73 
 LZ4  SE IS        649 48.45                             174   -0.2010 1.02  73 
 LZ4  SZ  AML      649 49.11        25.2 0.20                          1.02  73 
                                                                                
 2010 1216 2334 27.6 L  21.351 -99.282 10.0  RAL  1 0.2 0.8LRAL                1
 GAP=360        0.77      35.0    21.2  0.0 -0.7425E+03 -0.1721E+05  0.4122E+05E
 ACTION:UPD 12-06-08 11:37 OP:RALL STATUS:               ID:20101216233427     I
 2010-12-16-2334-20S.PLUR1_003                                                 6
 STAT SP IPHASW D HRMM SECON CODA AMPLIT PERI AZIMU VELO AIN AR TRES W  DIS CAZ7
 LZ4  SZ E        2334 29.89                  330.5  9.1      0        2.54 150 
 LZ4  SN IP       2334 29.91                             166    0.4810 2.54 150 
 LZ4  SE IS       2334 30.32                             166   -0.4810 2.54 150 
 LZ4  SZ  AML     2334 30.42        33.1 0.22                          2.54 150 
                                                                                
 2010 1216 2354 14.6 L  21.313 -99.258 10.0  RAL  1 0.2 0.4LRAL                1
 GAP=360        0.71      33.9    21.7  0.0 -0.7363E+03 -0.1721E+05  0.4122E+05E
 ACTION:UPD 12-06-08 11:37 OP:RALL STATUS:               ID:20101216235414     I
 2010-12-16-2354-07S.PLUR1_003                                                 6
 STAT SP IPHASW D HRMM SECON CODA AMPLIT PERI AZIMU VELO AIN AR TRES W  DIS CAZ7
 LZ4  SZ E        2354 16.88                  149.2 35.8      0        2.36 329 
 LZ4  SN IP       2354 16.89                             167    0.4310 2.36 329 
 LZ4  SE IS       2354 17.39                             167   -0.4310 2.36 329 
 LZ4  SZ  AML     2354 18.04        15.2 0.18                          2.36 329 
                                                                                
 2010 1217 0820 17.6 L  21.230 -99.252  0.1  RAL  2 0.3 1.2LRAL                1
 GAP=349        3.19      47.0    18.2999.9 -0.8193E+03 -0.2130E+05  0.5698E+05E
 ACTION:UPD 12-06-08 11:37 OP:RALL STATUS:               ID:20101217082017     I
 2010-12-17-0820-11S.PLUR1_006                                                 6
 STAT SP IPHASW D HRMM SECON CODA AMPLIT PERI AZIMU VELO AIN AR TRES W  DIS CAZ7
 LT9  SZ E         820 21.70                  164.9  7.3      8        19.8 337 
 LT9  SN IP        820 21.71                              92    0.6010 19.8 337 
 LT9  SE IS        820 22.85                              92   -0.8010 19.8 337 
 LT9  SZ  AML      820 22.97        24.3 0.28                          19.8 337 
 LA4  SZ E         820 23.29                  156.2  6.3    -11        28.7 348 
 LA4  SN IP        820 23.29                              92    0.6310 28.7 348 
 LA4  SE IS        820 25.89                              92   -0.4310 28.7 348 
 LA4  SZ  AML      820 26.26        57.7 0.24                          28.7 348 
                                                                                
 2010 1217 0944  1.3 L  21.229 -99.283 10.0  RAL  1 0.0-0.1LRAL                1
 GAP=360        0.30       4.0     1.2  0.0 -0.4045E+01 -0.2130E+05  0.5698E+05E
 ACTION:UPD 12-06-08 11:37 OP:RALL STATUS:               ID:20101217094401     I
 2010-12-17-0943-57S.PLUR1_003                                                 6
 STAT SP IPHASW D HRMM SECON CODA AMPLIT PERI AZIMU VELO AIN AR TRES W  DIS CAZ7
 LT9  SN IP        944  4.96                             114    0.0210 19.0 346 
 LT9  SZ E         944  5.01                  166.3  9.6      0        19.0 346 
 LT9  SE IS        944  7.54                             114   -0.0210 19.0 346 
 LT9  SZ  AML      944  7.63         2.4 0.30                          19.0 346 
                                                                                
 2010 1217 1425 19.5 L  21.352 -99.297 10.0  RAL  1 0.1 0.9LRAL                1
 GAP=360        0.44      10.4    13.6  0.0 -0.1408E+03 -0.2130E+05  0.5698E+05E
 ACTION:UPD 12-06-08 11:37 OP:RALL STATUS:               ID:20101217142519     I
 2010-12-17-1425-12S.PLUR1_003                                                 6
 STAT SP IPHASW D HRMM SECON CODA AMPLIT PERI AZIMU VELO AIN AR TRES W  DIS CAZ7
 LZ4  SZ E        1425 21.66                  309.3 22.6      0        3.64 129 
 LZ4  SN IP       1425 21.69                             160    0.2210 3.64 129 
 LZ4  SE IS       1425 22.66                             160   -0.2210 3.64 129 
 LZ4  SZ  AML     1425 22.93        40.1 0.12                          3.64 129 
                                                                                
 2010 1217 1558 41.5 L  21.339 -99.293 10.0  RAL  1 0.1 0.3LRAL                1
 GAP=360        0.42     678.6   298.4  0.0  0.2025E+06 -0.2130E+05  0.5698E+05E
 ACTION:UPD 12-06-08 11:37 OP:RALL STATUS:               ID:20101217155841     I
 2010-12-17-1558-34S.PLUR1_003                                                 6
 STAT SP IPHASW D HRMM SECON CODA AMPLIT PERI AZIMU VELO AIN AR TRES W  DIS CAZ7
 LZ4  SZ E        1558 43.55                  290.7 23.7      0        2.61 111 
 LZ4  SN IP       1558 43.56                             166    0.2010 2.61 111 
 LZ4  SE IS       1558 44.54                             166   -0.2010 2.61 111 
 LZ4  SZ  AML     1558 44.70        10.9 0.10                          2.61 111 
                                                                                
 2010 1217 1614 49.1 L  21.351 -99.287 10.0  RAL  1 0.1 0.4LRAL                1
 GAP=360        0.63      22.3    20.3  0.0 -0.4532E+03 -0.2130E+05  0.5698E+05E
 ACTION:UPD 12-06-08 11:37 OP:RALL STATUS:               ID:20101217161449     I
 2010-12-17-1614-42S.PLUR1_003                                                 6
 STAT SP IPHASW D HRMM SECON CODA AMPLIT PERI AZIMU VELO AIN AR TRES W  DIS CAZ7
 LZ4  SN IP       1614 51.35                             164    0.3810 2.87 140 
 LZ4  SZ E        1614 51.36                  319.6 12.5      0        2.87 140 
 LZ4  SE IS       1614 51.98                             164   -0.3810 2.87 140 
 LZ4  SZ  AML     1614 52.43        12.3 0.42                          2.87 140 
                                                                                
 2010 1217 1653 57.1 L  21.305 -99.257 10.0  RAL  1 0.1 0.8LRAL                1
 GAP=360        0.42      16.8     7.9  0.0 -0.1334E+03 -0.2130E+05  0.5698E+05E
 ACTION:UPD 12-06-08 11:37 OP:RALL STATUS:               ID:20101217165357     I
 2010-12-17-1653-50S.PLUR1_003                                                 6
 STAT SP IPHASW D HRMM SECON CODA AMPLIT PERI AZIMU VELO AIN AR TRES W  DIS CAZ7
 LZ4  SN IP       1653 59.25                             163    0.2010 3.09 336 
 LZ4  SZ E        1653 59.26                  156.2 12.4      0        3.09 336 
 LZ4  SE IS       1654  0.23                             163   -0.2010 3.09 336 
 LZ4  SZ  AML     1654  0.50        35.1 0.20                          3.09 336 
                                                                                
