 2010  724 1522 25.3 L  21.503 -99.327 10.0  RAL  1 0.2 0.7LRAL                1
 GAP=360        0.69      24.9    22.6  0.0 -0.5615E+03 -0.3369E+04 -0.1400E+04E
 ACTION:UPD 12-06-08 11:37 OP:RALL STATUS:               ID:20100724152225     I
 2010-07-24-1522-18S.PLUR1_003                                                 6
 STAT SP IPHASW D HRMM SECON CODA AMPLIT PERI AZIMU VELO AIN AR TRES W  DIS CAZ7
 LA4  SZ E        1522 27.58                  319.8  8.6      0        2.84 140 
 LA4  SN IP       1522 27.58                             165    0.4210 2.84 140 
 LA4  SE IS       1522 28.13                             165   -0.4210 2.84 140 
 LA4  SZ  AML     1522 28.67        25.9 0.20                          2.84 140 
                                                                                
 2010  724 1721 45.8 L  21.504 -99.329 10.0  RAL  1 0.1 0.3LRAL                1
 GAP=360        0.60      19.1    19.7  0.0 -0.3751E+03 -0.3369E+04 -0.1400E+04E
 ACTION:UPD 12-06-08 11:37 OP:RALL STATUS:               ID:20100724172145     I
 2010-07-24-1721-39S.PLUR1_003                                                 6
 STAT SP IPHASW D HRMM SECON CODA AMPLIT PERI AZIMU VELO AIN AR TRES W  DIS CAZ7
 LA4  SZ E        1721 48.06                  316.2  9.6      0        3.07 136 
 LA4  SN IP       1721 48.09                             164    0.3510 3.07 136 
 LA4  SZ  AML     1721 48.74        10.7 0.10                          3.07 136 
 LA4  SE IS       1721 48.78                             164   -0.3510 3.07 136 
                                                                                
 2010  724 1730 54.0 L  21.378 -99.339 10.0  RAL  1 0.2-0.6LRAL                1
 GAP=360        0.74      34.1    25.0  0.0  0.8512E+03 -0.3369E+04 -0.1400E+04E
 ACTION:UPD 12-06-08 11:37 OP:RALL STATUS:               ID:20100724173054     I
 2010-07-24-1730-46S.PLUR1_003                                                 6
 STAT SP IPHASW D HRMM SECON CODA AMPLIT PERI AZIMU VELO AIN AR TRES W  DIS CAZ7
 LT9  SN IP       1730 56.29                             167    0.4610 2.30  34 
 LT9  SZ E        1730 56.29                  214.3 11.5      0        2.30  34 
 LT9  SE IS       1730 56.70                             167   -0.4610 2.30  34 
 LT9  SZ  AML     1730 58.12         1.4 0.24                          2.30  34 
                                                                                
 2010  724 1912 46.1 L  21.500 -99.308 10.0  RAL  1 0.0 0.5LRAL                1
 GAP=360        0.30       4.0     1.0  0.0 -0.3580E+01 -0.3369E+04 -0.1400E+04E
 ACTION:UPD 12-06-08 11:37 OP:RALL STATUS:               ID:20100724191246     I
 2010-07-24-1912-43S.PLUR1_003                                                 6
 STAT SP IPHASW D HRMM SECON CODA AMPLIT PERI AZIMU VELO AIN AR TRES W  DIS CAZ7
 LZ4  SZ E        1912 49.80                  348.1 24.9      0        19.1 168 
 LZ4  SN IP       1912 49.81                             115    0.0210 19.1 168 
 LZ4  SE IS       1912 52.43                             115   -0.0210 19.1 168 
 LZ4  SZ  AML     1912 54.22         8.6 0.70                          19.1 168 
                                                                                
 2010  724 1916 59.4 L  21.482 -99.311 10.0  RAL  1 0.5 0.5LRAL                1
 GAP=360        6.80     999.9   519.0  0.0 -0.2875E+07 -0.3369E+04 -0.1400E+04E
 ACTION:UPD 12-06-08 11:37 OP:RALL STATUS:               ID:20100724191659     I
 2010-07-24-1916-53S.PLUR1_003                                                 6
 STAT SP IPHASW D HRMM SECON CODA AMPLIT PERI AZIMU VELO AIN AR TRES W  DIS CAZ7
 LA4  SZ E        1917  1.65                  264.3 28.5     32        0.29  52 
 LA4  SN IP       1917  1.66                             178    0.4610 0.29  52 
 LA4  SE IS       1917  2.08                             178   -0.4610 0.29  52 
 LA4  SZ  AML     1917  2.16        16.1 0.18                          0.29  52 
                                                                                
 2010  724 2035 10.8 L  21.500 -99.324 10.0  RAL  1 0.2 0.1LRAL                1
 GAP=360        0.78      33.2    30.3  0.0 -0.1006E+04 -0.3369E+04 -0.1400E+04E
 ACTION:UPD 12-06-08 11:37 OP:RALL STATUS:               ID:20100724203510     I
 2010-07-24-2035-04S.PLUR1_003                                                 6
 STAT SP IPHASW D HRMM SECON CODA AMPLIT PERI AZIMU VELO AIN AR TRES W  DIS CAZ7
 LA4  SN IP       2035 13.16                             167    0.4910 2.39 140 
 LA4  SZ E        2035 13.16                  319.7 15.4      0        2.39 140 
 LA4  SZ  AML     2035 13.55         7.4 0.18                          2.39 140 
 LA4  SE IS       2035 13.56                             167   -0.4910 2.39 140 
                                                                                
 2010  724 2213 53.4 L  21.518 -99.316 10.0  RAL  1 0.0 0.5LRAL                1
 GAP=360        0.30       3.9     1.1  0.0 -0.3708E+01 -0.3369E+04 -0.1400E+04E
 ACTION:UPD 12-06-08 11:37 OP:RALL STATUS:               ID:20100724221353     I
 2010-07-24-2213-51S.PLUR1_003                                                 6
 STAT SP IPHASW D HRMM SECON CODA AMPLIT PERI AZIMU VELO AIN AR TRES W  DIS CAZ7
 LZ4  SN IP       2213 57.35                             112    0.0210 21.2 167 
 LZ4  SZ E        2213 57.55                  347.0 10.8      0        21.2 167 
 LZ4  SE IS       2214  0.19                             112   -0.0210 21.2 167 
 LZ4  SZ  AML     2214  0.50         8.4 0.16                          21.2 167 
                                                                                
 2010  724 2345 14.4 L  21.402 -99.343 10.0  RAL  1 0.2-0.8LRAL                1
 GAP=360        0.74      19.9    48.8  0.0 -0.9692E+03 -0.3369E+04 -0.1400E+04E
 ACTION:UPD 12-06-08 11:37 OP:RALL STATUS:               ID:20100724234514     I
 2010-07-24-2345-07S.PLUR1_003                                                 6
 STAT SP IPHASW D HRMM SECON CODA AMPLIT PERI AZIMU VELO AIN AR TRES W  DIS CAZ7
 LT9  SZ E        2345 16.69                  293.6 10.5      0        1.90 114 
 LT9  SN IP       2345 16.70                             169    0.4610 1.90 114 
 LT9  SE IS       2345 17.10                             169   -0.4610 1.90 114 
 LT9  SZ  AML     2345 17.20         0.8 0.22                          1.90 114 
                                                                                
 2010  725 0007  1.8 L  21.401 -99.340 10.0  RAL  1 0.1-0.4LRAL                1
 GAP=360        0.64     999.9   764.3  0.0  0.1150E+07 -0.3369E+04 -0.1400E+04E
 ACTION:UPD 12-06-08 11:37 OP:RALL STATUS:               ID:20100725000701     I
 2010-07-25-0006-54S.PLUR1_003                                                 6
 STAT SP IPHASW D HRMM SECON CODA AMPLIT PERI AZIMU VELO AIN AR TRES W  DIS CAZ7
 LT9  SZ E         0 7  3.96                  293.6  9.9      0        1.53 114 
 LT9  SN IP        0 7  3.96                             171    0.3810 1.53 114 
 LT9  SE IS        0 7  4.51                             171   -0.3810 1.53 114 
 LT9  SZ  AML      0 7  5.01         2.3 0.16                          1.53 114 
                                                                                
 2010  725 0029 56.2 L  21.610 -99.363 10.0  RAL  1 0.0 1.5LRAL                1
 GAP=360        0.30       3.6     1.5  0.0 -0.4197E+01 -0.3369E+04 -0.1400E+04E
 ACTION:UPD 12-06-08 11:37 OP:RALL STATUS:               ID:20100725002956     I
 2010-07-25-0029-52S.PLUR1_003                                                 6
 STAT SP IPHASW D HRMM SECON CODA AMPLIT PERI AZIMU VELO AIN AR TRES W  DIS CAZ7
 LZ4  SZ E         030  1.78                  342.7  9.3      0        32.4 163 
 LZ4  SN IP        030  1.78                             103    0.0110 32.4 163 
 LZ4  SE IS        030  5.85                             103   -0.0110 32.4 163 
 LZ4  SZ  AML      030  6.05        56.7 0.32                          32.4 163 
                                                                                
 2010  725 0034 20.1 L  21.497 -99.316 10.0  RAL  1 0.2 0.5LRAL                1
 GAP=360        0.66     919.7   999.9  0.0  0.1969E+07 -0.3369E+04 -0.1400E+04E
 ACTION:UPD 12-06-08 11:37 OP:RALL STATUS:               ID:20100725003420     I
 2010-07-25-0034-12S.PLUR1_003                                                 6
 STAT SP IPHASW D HRMM SECON CODA AMPLIT PERI AZIMU VELO AIN AR TRES W  DIS CAZ7
 LA4  SZ E         034 22.31                  333.8  8.6      0        1.61 154 
 LA4  SN IP        034 22.34                             171    0.4010 1.61 154 
 LA4  SE IS        034 22.90                             171   -0.4010 1.61 154 
 LA4  SZ  AML      034 22.95        16.5 0.10                          1.61 154 
                                                                                
 2010  725 0047 13.4 L  21.514 -99.320 10.0  RAL  1 0.0 1.2LRAL                1
 GAP=360        0.33      11.9     4.2  0.0 -0.5044E+02 -0.3369E+04 -0.1400E+04E
 ACTION:UPD 12-06-08 11:37 OP:RALL STATUS:               ID:20100725004713     I
 2010-07-25-0047-05S.PLUR1_003                                                 6
 STAT SP IPHASW D HRMM SECON CODA AMPLIT PERI AZIMU VELO AIN AR TRES W  DIS CAZ7
 LA4  SZ E         047 15.40                  341.6 10.9      0        3.55 162 
 LA4  SN IP        047 15.44                             161    0.0910 3.55 162 
 LA4  SE IS        047 16.67                             161   -0.0910 3.55 162 
 LA4  SZ  AML      047 16.79        81.4 0.28                          3.55 162 
                                                                                
 2010  725 0144 31.6 L  21.487 -99.317 10.0  RAL  1 0.2 0.3LRAL                1
 GAP=360        0.77     999.9   721.1  0.0  0.1069E+07 -0.3369E+04 -0.1400E+04E
 ACTION:UPD 12-06-08 11:37 OP:RALL STATUS:               ID:20100725014431     I
 2010-07-25-0144-25S.PLUR1_003                                                 6
 STAT SP IPHASW D HRMM SECON CODA AMPLIT PERI AZIMU VELO AIN AR TRES W  DIS CAZ7
 LA4  SZ E         144 33.83                  292.4 21.7      2        0.90 110 
 LA4  SN IP        144 33.84                             175    0.4010 0.90 110 
 LA4  SE IS        144 34.40                             175   -0.4010 0.90 110 
 LA4  SZ  AML      144 34.42        10.3 0.14                          0.90 110 
                                                                                
 2010  725 0202 53.3 L  21.404 -99.307 10.0  RAL  1 0.0 1.2LRAL                1
 GAP=360        0.30       5.0     2.6  0.0 -0.1270E+02 -0.3369E+04 -0.1400E+04E
 ACTION:UPD 12-06-08 11:37 OP:RALL STATUS:               ID:20100725020253     I
 2010-07-25-0202-46S.PLUR1_003                                                 6
 STAT SP IPHASW D HRMM SECON CODA AMPLIT PERI AZIMU VELO AIN AR TRES W  DIS CAZ7
 LZ4  SZ E         2 2 55.72                  334.3  8.8      0        9.03 154 
 LZ4  SN IP        2 2 55.72                             138    0.0110 9.03 154 
 LZ4  SE IS        2 2 57.42                             138   -0.0110 9.03 154 
 LZ4  SZ  AML      2 2 57.88        72.1 0.20                          9.03 154 
                                                                                
 2010  725 0349 21.9 L  21.381 -99.321 10.0  RAL  1 0.2-0.5LRAL                1
 GAP=360        0.80      58.1    22.7  0.0 -0.1319E+04 -0.3369E+04 -0.1400E+04E
 ACTION:UPD 12-06-08 11:37 OP:RALL STATUS:               ID:20100725034921     I
 2010-07-25-0349-14S.PLUR1_003                                                 6
 STAT SP IPHASW D HRMM SECON CODA AMPLIT PERI AZIMU VELO AIN AR TRES W  DIS CAZ7
 LT9  SZ E         349 24.24                  160.0  5.5      0        1.66 340 
 LT9  SN IP        349 24.25                             171    0.5110 1.66 340 
 LT9  SE IS        349 24.55                             171   -0.5110 1.66 340 
 LT9  SZ  AML      349 24.72         1.6 0.20                          1.66 340 
                                                                                
 2010  725 0356 53.9 L  21.296 -99.198 10.0  RAL  1 0.0 0.5LRAL                1
 GAP=360        0.30       2.7     5.5  0.0 -0.1461E+02 -0.3369E+04 -0.1400E+04E
 ACTION:UPD 12-06-08 11:37 OP:RALL STATUS:               ID:20100725035653     I
 2010-07-25-0356-48S.PLUR1_003                                                 6
 STAT SP IPHASW D HRMM SECON CODA AMPLIT PERI AZIMU VELO AIN AR TRES W  DIS CAZ7
 LZ4  SN IP        356 56.22                             140    0.0210 8.39 298 
 LZ4  SZ E         356 56.22                  117.5 12.0      0        8.39 298 
 LZ4  SE IS        356 57.86                             140   -0.0210 8.39 298 
 LZ4  SZ  AML      356 58.29        13.7 0.16                          8.39 298 
                                                                                
 2010  725 0456 19.7 L  21.546 -99.266 10.0  RAL  1 0.0 0.8LRAL                1
 GAP=360        0.30       3.9     0.7  0.0  0.2254E+00 -0.3369E+04 -0.1400E+04E
 ACTION:UPD 12-06-08 11:37 OP:RALL STATUS:               ID:20100725045619     I
 2010-07-25-0456-17S.PLUR1_003                                                 6
 STAT SP IPHASW D HRMM SECON CODA AMPLIT PERI AZIMU VELO AIN AR TRES W  DIS CAZ7
 LZ4  SN IP        456 24.00                             109    0.0110 23.8 181 
 LZ4  SZ E         456 24.02                    0.8 15.3      0        23.8 181 
 LZ4  SE IS        456 27.13                             109   -0.0110 23.8 181 
 LZ4  SZ  AML      456 27.86        15.3 0.62                          23.8 181 
                                                                                
 2010  725  513 19.0 L                       RAL  1                            1
 ACTION:UPD 12-06-08 11:37 OP:RALL STATUS:               ID:20100725051319     I
 2010-07-25-0513-19S.PLUR1_003                                                 6
 STAT SP IPHASW D HRMM SECON CODA AMPLIT PERI AZIMU VELO AIN AR TRES W  DIS CAZ7
 LZ4  SZ E         513 28.49                                                    
 LZ4  SN IP        513 28.50                                                    
 LZ4  SE IS        513 28.64                                                    
 LZ4  SZ  AML      513 28.68       232.2 0.20                                   
                                                                                
 2010  725 0544 46.0 L  21.518 -99.179 10.0  RAL  1 0.0 0.9LRAL                1
 GAP=360        0.30       3.6     1.8  0.0  0.6124E+01 -0.3369E+04 -0.1400E+04E
 ACTION:UPD 12-06-08 11:37 OP:RALL STATUS:               ID:20100725054446     I
 2010-07-25-0544-43S.PLUR1_003                                                 6
 STAT SP IPHASW D HRMM SECON CODA AMPLIT PERI AZIMU VELO AIN AR TRES W  DIS CAZ7
 LZ4  SZ E         544 50.19                   24.4 12.5      0        22.8 204 
 LZ4  SN IP        544 50.19                             110    0.0010 22.8 204 
 LZ4  SE IS        544 53.23                             110    0.0010 22.8 204 
 LZ4  SZ  AML      544 54.00        17.6 0.44                          22.8 204 
                                                                                
 2010  725 0627 46.7 L  21.278 -99.261 10.0  RAL  1 0.1 0.2LRAL                1
 GAP=360        0.63     999.9   999.9  0.0  0.6933E+07 -0.3369E+04 -0.1400E+04E
 ACTION:UPD 12-06-08 11:37 OP:RALL STATUS:               ID:20100725062746     I
 2010-07-25-0627-39S.PLUR1_003                                                 6
 STAT SP IPHASW D HRMM SECON CODA AMPLIT PERI AZIMU VELO AIN AR TRES W  DIS CAZ7
 LG3  SN IP        627 48.90                             175    0.3510 0.91 106 
 LG3  SZ E         627 48.92                  284.6 26.3      0        0.91 106 
 LG3  SE IS        627 49.56                             175   -0.3510 0.91 106 
 LG3  SZ  AML      627 50.22         9.0 0.10                          0.91 106 
                                                                                
 2010  725 0741  3.0 L  21.297 -99.258 10.0  RAL  1 0.0 0.8LRAL                1
 GAP=360        0.31      10.1     3.5  0.0 -0.3520E+02 -0.3369E+04 -0.1400E+04E
 ACTION:UPD 12-06-08 11:37 OP:RALL STATUS:               ID:20100725074103     I
 2010-07-25-0740-56S.PLUR1_003                                                 6
 STAT SP IPHASW D HRMM SECON CODA AMPLIT PERI AZIMU VELO AIN AR TRES W  DIS CAZ7
 LZ4  SN IP        741  5.04                             159    0.0510 3.95 342 
 LZ4  SZ E         741  5.05                  162.3 10.6      0        3.95 342 
 LZ4  SE IS        741  6.35                             159   -0.0510 3.95 342 
 LZ4  SZ  AML      741  6.95        30.0 0.20                          3.95 342 
                                                                                
 2010  725  743 59.7 L                       RAL  0                            1
 ACTION:UPD 12-06-08 11:37 OP:RALL STATUS:               ID:20100725074359     I
 2010-07-25-0743-59S.PLUR1_024                                                 6
 STAT SP IPHASW D HRMM SECON CODA AMPLIT PERI AZIMU VELO AIN AR TRES W  DIS CAZ7
                                                                                
 2010  725 0801 50.3 L  21.389 -99.327  0.0  RAL  2 0.8-0.6LRAL                1
 GAP=214       13.93       8.8    17.4 81.3  0.1312E+03  0.9573E+02  0.8344E+02E
 ACTION:UPD 12-06-08 11:37 OP:RALL STATUS:               ID:20100725080150     I
 2010-07-25-0801-40S.PLUR1_006                                                 6
 STAT SP IPHASW D HRMM SECON CODA AMPLIT PERI AZIMU VELO AIN AR TRES W  DIS CAZ7
 LT9  SZ E         8 1 50.28                  204.2 11.9     22        0.65   2 
 LT9  SN IP        8 1 50.28                             138   -0.1410 0.65   2 
 LT9  SE IS        8 1 50.87                             138    0.3210 0.65   2 
 LT9  SZ  AML      8 1 50.98         3.8 0.38                          0.65   2 
 LG3  SN IP        8 1 52.44                              95   -0.4010 14.7 149 
 LG3  SZ E         8 1 52.46                   33.1 10.7     64        14.7 149 
 LG3  SE IS        8 1 54.95                              95    0.2210 14.7 149 
 LG3  SZ  AML      8 1 56.00         3.6 0.26                          14.7 149 
                                                                                
