 2010  720 0756 39.5 L  21.266 -99.064 15.0  RAL  5 1.2 0.9LRAL                1
 GAP=279       19.94      20.8    45.2163.7  0.1798E+03 -0.1568E+04 -0.4838E+03E
 ACTION:UPD 12-06-08 11:37 OP:RALL STATUS:               ID:20100720075639     I
 2010-07-20-0756-34S.PLUR1_015                                                 6
 STAT SP IPHASW D HRMM SECON CODA AMPLIT PERI AZIMU VELO AIN AR TRES W  DIS CAZ7
 LO8  SZ E         756 46.19                  131.2  6.3     78        19.4 233 
 LO8  SN IP        756 46.21                             135    2.6110 19.4 233 
 LO8  SE IS        756 49.57                             135    2.9610 19.4 233 
 LO8  SZ  AML      756 50.31         6.5 0.34                          19.4 233 
 LG3  SZ E         756 44.28                   44.2 14.3    -48        19.6 273 
 LG3  SN IP        756 44.30                             133    0.7010 19.6 273 
 LG3  SE IS        756 45.80                             133   -0.8010 19.6 273 
 LD5  SZ E         756 45.00                  356.9  9.6     75        28.0 252 
 LD5  SN IP        756 45.04                             123    0.3410 28.0 252 
 LD5  SE IS        756 47.31                             123   -1.2010 28.0 252 
 LD5  SZ  AML      756 49.57        13.4 0.88                          28.0 252 
 LT9  SZ E         756 44.33                  192.1 12.0     74        30.7 298 
 LT9  SN IP        756 44.33                             119   -0.7210 30.7 298 
 LT9  SE IS        756 46.01                             119   -3.1210 30.7 298 
 LT9  SZ  AML      756 47.38        15.0 0.26                          30.7 298 
 LA4  SZ E         756 45.98                  154.1  6.7     21        35.0 314 
 LA4  SN IP        756 46.00                             116    0.2910 35.0 314 
 LA4  SE IS        756 49.20                             116   -1.0610 35.0 314 
 LA4  SZ  AML      756 50.94        52.6 0.28                          35.0 314 
                                                                                
 2010  720 1044 14.9 L  21.716 -99.467  5.1  RAL  2 0.3 0.9LRAL                1
 GAP=350        4.06      86.2    51.0201.1 -0.4307E+04 -0.9505E+04  0.1626E+05E
 ACTION:UPD 12-06-08 11:37 OP:RALL STATUS:               ID:20100720104414     I
 2010-07-20-1044-11S.PLUR1_006                                                 6
 STAT SP IPHASW D HRMM SECON CODA AMPLIT PERI AZIMU VELO AIN AR TRES W  DIS CAZ7
 LA4  SN IP       1044 20.91                              63    0.7810 30.5 148 
 LA4  SZ E        1044 20.92                  339.2 10.0     12        30.5 148 
 LA4  SE IS       1044 23.52                              63   -0.4210 30.5 148 
 LA4  SZ  AML     1044 25.35        76.1 0.24                          30.5 148 
 LT9  SN IP       1044 21.91                              63    0.5910 38.4 158 
 LT9  SZ E        1044 21.93                  323.3  7.9    -13        38.4 158 
 LT9  SE IS       1044 25.07                              63   -0.9410 38.4 158 
 LT9  SZ  AML     1044 27.31         2.0 0.46                          38.4 158 
                                                                                
 2010  720 1855 50.3 L  22.215-100.088 10.0  RAL  1 0.0 2.2LRAL                1
 GAP=360        0.30       4.2     4.3  0.0 -0.5898E+01 -0.9505E+04  0.1626E+05E
 ACTION:UPD 12-06-08 11:37 OP:RALL STATUS:               ID:20100720185550     I
 2010-07-20-1856-03S.PLUR1_003                                                 6
 STAT SP IPHASW D HRMM SECON CODA AMPLIT PERI AZIMU VELO AIN AR TRES W  DIS CAZ7
 LZ4  SZ E        1856 10.65                  319.3 10.9      0         129 139 
 LZ4  SN IP       1856 10.81                              52    0.0110  129 139 
 LZ4  SE IS       1856 25.78                              52   -0.0110  129 139 
 LZ4  SZ  AML     1856 29.63        76.8 0.30                           129 139 
                                                                                
 2010  720 2050 13.2 L  21.359 -99.305 10.0  RAL  1 0.0 1.2LRAL                1
 GAP=360        0.33       6.3     7.9  0.0 -0.4945E+02 -0.9505E+04  0.1626E+05E
 ACTION:UPD 12-06-08 11:37 OP:RALL STATUS:               ID:20100720205013     I
 2010-07-20-2050-06S.PLUR1_003                                                 6
 STAT SP IPHASW D HRMM SECON CODA AMPLIT PERI AZIMU VELO AIN AR TRES W  DIS CAZ7
 LZ4  SZ E        2050 15.25                  310.6 17.5      0        4.83 131 
 LZ4  SN IP       2050 15.31                             155    0.1010 4.83 131 
 LZ4  SE IS       2050 16.57                             155   -0.1010 4.83 131 
 LZ4  SZ  AML     2050 17.53        73.1 0.22                          4.83 131 
                                                                                
 2010  720 2106 39.1 L  21.334 -99.290 10.0  RAL  1 0.0 2.2LRAL                1
 GAP=360        0.31     999.9   309.0  0.0  0.6004E+06 -0.9505E+04  0.1626E+05E
 ACTION:UPD 12-06-08 11:37 OP:RALL STATUS:               ID:20100720210639     I
 2010-07-20-2106-31S.PLUR1_003                                                 6
 STAT SP IPHASW D HRMM SECON CODA AMPLIT PERI AZIMU VELO AIN AR TRES W  DIS CAZ7
 LZ4  SZ E        21 6 40.96                  277.9 18.3      0        2.18  98 
 LZ4  SN IP       21 6 41.01                             168    0.0710 2.18  98 
 LZ4  SE IS       21 6 42.23                             168   -0.0710 2.18  98 
 LZ4  SZ  AML     21 6 43.22       786.8 0.46                          2.18  98 
                                                                                
 2010  720 2353 58.1 L  21.107 -99.654 10.0  RAL  1 0.0 1.3LRAL                1
 GAP=360        0.30       2.2     3.5  0.0  0.6006E+01 -0.9505E+04  0.1626E+05E
 ACTION:UPD 12-06-08 11:37 OP:RALL STATUS:               ID:20100720235358     I
 2010-07-20-2353-59S.PLUR1_003                                                 6
 STAT SP IPHASW D HRMM SECON CODA AMPLIT PERI AZIMU VELO AIN AR TRES W  DIS CAZ7
 LZ4  SZ E        2354  5.94                  238.3 50.2      0        47.0  58 
 LZ4  SN IP       2354  5.99                              98    0.0110 47.0  58 
 LZ4  SE IS       2354 11.68                              98   -0.0110 47.0  58 
 LZ4  SZ  AML     2354 12.51        23.8 0.40                          47.0  58 
                                                                                
 2010  721 0626 57.3 R  21.813 -99.191  8.8  RAL  3 0.9 1.2LRAL                1
 GAP=348       15.22      99.7    46.6101.8  0.1930E+04 -0.7171E+02  0.9080E+03E
 ACTION:UPD 12-06-08 11:37 OP:RALL STATUS:               ID:20100721062657     I
 2010-07-21-0626-54S.PLUR1_009                                                 6
 STAT SP IPHASW D HRMM SECON CODA AMPLIT PERI AZIMU VELO AIN AR TRES W  DIS CAZ7
 LA4  SZ E         627  3.82                  340.5 13.1     38        38.4 199 
 LA4  SN IP        627  3.85                              92    0.0210 38.4 199 
 LA4  SE IS        627  7.54                              92   -1.0410 38.4 199 
 LA4  SZ  AML      627  8.69        85.8 0.62                          38.4 199 
 LT9  SZ E         627  5.97                  337.3  9.3     40        48.3 197 
 LT9  SN IP        627  6.26                              63    0.9410 48.3 197 
 LT9  SE IS        627 10.56                              63   -0.5910 48.3 197 
 LT9  SZ  AML      627 11.27         4.9 0.28                          48.3 197 
 LG3  SZ E         627  8.19                   74.2 15.4     68        59.8 186 
 LG3  SN IP        627  8.20                              63    1.0710 59.8 186 
 LG3  SE IS        627 13.90                              63   -0.3910 59.8 186 
 LG3  SZ  AML      627 19.97        20.4 0.56                          59.8 186 
                                                                                
 2010  721 1934 59.3 L  21.744 -99.314 10.0  RAL  1 0.0 1.5LRAL                1
 GAP=360        0.30       3.7     1.3  0.0 -0.1362E+01 -0.7171E+02  0.9080E+03E
 ACTION:UPD 12-06-08 11:37 OP:RALL STATUS:               ID:20100721193459     I
 2010-07-21-1934-57S.PLUR1_003                                                 6
 STAT SP IPHASW D HRMM SECON CODA AMPLIT PERI AZIMU VELO AIN AR TRES W  DIS CAZ7
 LZ4  SN IP       1935  7.00                              98    0.0110 45.9 174 
 LZ4  SZ E        1935  7.13                  354.2  7.3      0        45.9 174 
 LZ4  SE IS       1935 12.59                              98   -0.0110 45.9 174 
 LZ4  SZ  AML     1935 13.91        37.8 0.38                          45.9 174 
                                                                                
 2010  722 0354 37.2 R  22.385 -99.747 10.0  RAL  1 0.0 1.9LRAL                1
 GAP=360        0.30       3.6     3.2  0.0 -0.2310E+01 -0.7171E+02  0.9080E+03E
 ACTION:UPD 12-06-08 11:37 OP:RALL STATUS:               ID:20100722035437     I
 2010-07-22-0354-45S.PLUR1_003                                                 6
 STAT SP IPHASW D HRMM SECON CODA AMPLIT PERI AZIMU VELO AIN AR TRES W  DIS CAZ7
 LA4  SZ E         354 54.65                  335.7 10.1      0         110 156 
 LA4  SN IP        354 54.69                              93    0.0010  110 156 
 LA4  SE IS        355  7.49                              93    0.0010  110 156 
 LA4  SZ  AML      355 12.38        40.3 0.48                           110 156 
                                                                                
 2010  722 0846 19.6 R  21.002 -98.959 10.0  RAL  1 0.0 1.1LRAL                1
 GAP=360        0.30       2.9     2.8  0.0 -0.6587E+01 -0.7171E+02  0.9080E+03E
 ACTION:UPD 12-06-08 11:37 OP:RALL STATUS:               ID:20100722084619     I
 2010-07-22-0846-24S.PLUR1_003                                                 6
 STAT SP IPHASW D HRMM SECON CODA AMPLIT PERI AZIMU VELO AIN AR TRES W  DIS CAZ7
 LZ4  SN IP        846 27.74                              98    0.0210 48.6 318 
 LZ4  SZ E         846 27.76                  138.4 12.8      0        48.6 318 
 LZ4  SE IS        846 33.61                              98   -0.0210 48.6 318 
 LZ4  SZ  AML      846 35.77        14.9 0.50                          48.6 318 
                                                                                
 2010  722 1219 35.4 R  21.309 -99.083 10.0  RAL  4 1.1 0.6LRAL                1
 GAP=289       18.91      24.7    48.4280.3  0.6267E+03 -0.3369E+04 -0.1400E+04E
 ACTION:UPD 12-06-08 11:37 OP:RALL STATUS:               ID:20100722121935     I
 2010-07-22-1219-31S.PLUR1_012                                                 6
 STAT SP IPHASW D HRMM SECON CODA AMPLIT PERI AZIMU VELO AIN AR TRES W  DIS CAZ7
 LG3  SZ E        1219 39.37                   46.8 20.5    -30        18.0 258 
 LG3  SN IP       1219 39.40                             116    0.5110 18.0 258 
 LG3  SE IS       1219 40.63                             116   -0.8110 18.0 258 
 LG3  SZ  AML     1219 40.87       212.5 0.16                          18.0 258 
 LO8  SZ E        1219 41.35                  136.9  7.2     98        21.4 219 
 LO8  SN IP       1219 41.39                             112    2.0010 21.4 219 
 LO8  SE IS       1219 44.44                             112    2.1310 21.4 219 
 LO8  SZ  AML     1219 45.73         2.1 0.18                          21.4 219 
 LT9  SN IP       1219 39.52                             105   -0.6310 27.0 291 
 LT9  SZ E        1219 39.53                  158.5  8.0     48        27.0 291 
 LT9  SE IS       1219 41.05                             105   -2.5810 27.0 291 
 LT9  SZ  AML     1219 41.31        10.1 0.30                          27.0 291 
 LD5  SZ E        1219 40.70                   15.6  7.6    -45        28.1 241 
 LD5  SN IP       1219 40.72                             105    0.3710 28.1 241 
 LD5  SE IS       1219 42.99                             105   -0.9810 28.1 241 
 LD5  SZ  AML     1219 46.02         2.0 0.32                          28.1 241 
                                                                                
 2010  723 1121 15.2 R  22.185 -99.223 10.0  RAL  1 0.0 1.5LRAL                1
 GAP=360        0.30       3.7     2.6  0.0  0.4240E+00 -0.3369E+04 -0.1400E+04E
 ACTION:UPD 12-06-08 11:37 OP:RALL STATUS:               ID:20100723112115     I
 2010-07-23-1121-21S.PLUR1_003                                                 6
 STAT SP IPHASW D HRMM SECON CODA AMPLIT PERI AZIMU VELO AIN AR TRES W  DIS CAZ7
 LZ4  SZ E        1121 30.36                    2.9 41.5      0        94.7 183 
 LZ4  SN IP       1121 30.39                              93    0.0110 94.7 183 
 LZ4  SE IS       1121 41.48                              93   -0.0110 94.7 183 
 LZ4  SZ  AML     1121 43.25        19.4 0.90                          94.7 183 
                                                                                
 2010  724 0101 37.9 R  21.993 -99.460 10.0  RAL  1 0.0 2.0LRAL                1
 GAP=360        0.30       3.6     2.3  0.0 -0.2679E+01 -0.3369E+04 -0.1400E+04E
 ACTION:UPD 12-06-08 11:37 OP:RALL STATUS:               ID:20100724010137     I
 2010-07-24-0101-41S.PLUR1_003                                                 6
 STAT SP IPHASW D HRMM SECON CODA AMPLIT PERI AZIMU VELO AIN AR TRES W  DIS CAZ7
 LZ4  SN IP        1 1 50.22                              94    0.0110 75.9 165 
 LZ4  SZ E         1 1 50.27                  345.0 14.2      0        75.9 165 
 LZ4  SE IS        1 1 59.19                              94   -0.0110 75.9 165 
 LZ4  SZ  AML      1 2  2.84        76.9 0.48                          75.9 165 
                                                                                
 2010  724 0320  7.6 R  21.372 -99.277 10.0  RAL  1 0.0 0.5LRAL                1
 GAP=360        0.30       8.8     1.6  0.0 -0.1439E+02 -0.3369E+04 -0.1400E+04E
 ACTION:UPD 12-06-08 11:37 OP:RALL STATUS:               ID:20100724032007     I
 2010-07-24-0320-01S.PLUR1_003                                                 6
 STAT SP IPHASW D HRMM SECON CODA AMPLIT PERI AZIMU VELO AIN AR TRES W  DIS CAZ7
 LZ4  SZ E         320  9.51                  350.2  9.8      0        4.66 170 
 LZ4  SN IP        320  9.58                             156    0.0210 4.66 170 
 LZ4  SE IS        320 11.00                             156   -0.0210 4.66 170 
 LZ4  SZ  AML      320 11.70        16.1 0.24                          4.66 170 
                                                                                
 2010  724 0433 58.4 R  21.456 -99.431 10.0  RAL  1 0.0 0.8LRAL                1
 GAP=360        0.30       2.6     3.3  0.0 -0.8118E+01 -0.3369E+04 -0.1400E+04E
 ACTION:UPD 12-06-08 11:37 OP:RALL STATUS:               ID:20100724043358     I
 2010-07-24-0433-56S.PLUR1_003                                                 6
 STAT SP IPHASW D HRMM SECON CODA AMPLIT PERI AZIMU VELO AIN AR TRES W  DIS CAZ7
 LZ4  SN IP        434  2.45                             111    0.0010 21.8 130 
 LZ4  SZ E         434  2.59                  309.6 11.2      0        21.8 130 
 LZ4  SE IS        434  5.38                             111    0.0010 21.8 130 
 LZ4  SZ  AML      434  5.66        15.2 0.40                          21.8 130 
                                                                                
 2010  724 0610 57.1 R  21.500 -99.321 10.0  RAL  1 0.2 1.0LRAL                1
 GAP=360        0.76      37.5    28.6  0.0 -0.1070E+04 -0.3369E+04 -0.1400E+04E
 ACTION:UPD 12-06-08 11:37 OP:RALL STATUS:               ID:20100724061057     I
 2010-07-24-0610-49S.PLUR1_003                                                 6
 STAT SP IPHASW D HRMM SECON CODA AMPLIT PERI AZIMU VELO AIN AR TRES W  DIS CAZ7
 LA4  SN IP        610 59.43                             168    0.4710 2.18 145 
 LA4  SZ E         610 59.43                  324.6 12.8      0        2.18 145 
 LA4  SE IS        610 59.86                             168   -0.4710 2.18 145 
 LA4  SZ  AML      611  0.01        55.2 0.26                          2.18 145 
                                                                                
 2010  724 0951 19.9 R  21.537 -99.263 10.0  RAL  1 0.0 0.9LRAL                1
 GAP=360        0.30       3.9     0.6  0.0  0.4563E+00 -0.3369E+04 -0.1400E+04E
 ACTION:UPD 12-06-08 11:37 OP:RALL STATUS:               ID:20100724095119     I
 2010-07-24-0951-17S.PLUR1_003                                                 6
 STAT SP IPHASW D HRMM SECON CODA AMPLIT PERI AZIMU VELO AIN AR TRES W  DIS CAZ7
 LZ4  SZ E         951 24.10                    1.6 11.5      0        22.9 182 
 LZ4  SN IP        951 24.13                             110    0.0110 22.9 182 
 LZ4  SE IS        951 27.16                             110   -0.0110 22.9 182 
 LZ4  SZ  AML      951 27.36        19.9 0.26                          22.9 182 
                                                                                
 2010  724 1034 16.7 R  21.528 -99.277 10.0  RAL  1 0.0 0.6LRAL                1
 GAP=360        0.30       4.0     0.6  0.0 -0.5803E+00 -0.3369E+04 -0.1400E+04E
 ACTION:UPD 12-06-08 11:37 OP:RALL STATUS:               ID:20100724103416     I
 2010-07-24-1034-14S.PLUR1_003                                                 6
 STAT SP IPHASW D HRMM SECON CODA AMPLIT PERI AZIMU VELO AIN AR TRES W  DIS CAZ7
 LZ4  SN IP       1034 20.70                             111    0.0110 21.9 178 
 LZ4  SZ E        1034 20.74                  358.0 10.9      0        21.9 178 
 LZ4  SE IS       1034 23.62                             111   -0.0110 21.9 178 
 LZ4  SZ  AML     1034 24.08        10.7 0.30                          21.9 178 
                                                                                
 2010  724 1321 40.6 L  21.502 -99.329 10.0  RAL  1 0.2 1.2LRAL                1
 GAP=360        0.73      23.5    26.0  0.0 -0.6100E+03 -0.3369E+04 -0.1400E+04E
 ACTION:UPD 12-06-08 11:37 OP:RALL STATUS:               ID:20100724132140     I
 2010-07-24-1321-33S.PLUR1_003                                                 6
 STAT SP IPHASW D HRMM SECON CODA AMPLIT PERI AZIMU VELO AIN AR TRES W  DIS CAZ7
 LA4  SN IP       1321 42.99                             164    0.4510 2.91 134 
 LA4  SZ E        1321 42.99                  314.1 11.1      0        2.91 134 
 LA4  SE IS       1321 43.48                             164   -0.4510 2.91 134 
 LA4  SZ  AML     1321 43.56        84.3 0.20                          2.91 134 
                                                                                
 2010  724 1518 25.8 L  21.501 -99.328 10.0  RAL  1 0.2 1.5LRAL                1
 GAP=360        0.76      25.9    28.2  0.0 -0.7326E+03 -0.3369E+04 -0.1400E+04E
 ACTION:UPD 12-06-08 11:37 OP:RALL STATUS:               ID:20100724151825     I
 2010-07-24-1518-18S.PLUR1_003                                                 6
 STAT SP IPHASW D HRMM SECON CODA AMPLIT PERI AZIMU VELO AIN AR TRES W  DIS CAZ7
 LA4  SN IP       1518 28.13                             165    0.4710 2.76 135 
 LA4  SZ E        1518 28.13                  314.6 23.2      0        2.76 135 
 LA4  SZ  AML     1518 28.23       154.5 0.16                          2.76 135 
 LA4  SE IS       1518 28.57                             165   -0.4710 2.76 135 
                                                                                
