 2010 1231 0954 41.2 L  21.248 -99.339 10.0  RAL  1 0.0 0.1LRAL                1
 GAP=360        0.30       4.2     0.6  0.0  0.1548E+01  0.4099E+01 -0.5582E+01E
 ACTION:UPD 12-06-08 11:37 OP:RALL STATUS:               ID:20101231095441     I
 2010-12-31-0954-37S.PLUR1_003                                                 6
 STAT SP IPHASW D HRMM SECON CODA AMPLIT PERI AZIMU VELO AIN AR TRES W  DIS CAZ7
 LT9  SZ E         954 44.47                  184.7 11.2      0        16.4   5 
 LT9  SN IP        954 44.48                             118    0.0210 16.4   5 
 LT9  SE IS        954 46.80                             118   -0.0210 16.4   5 
 LT9  SZ  AML      954 48.44         3.7 0.18                          16.4   5 
                                                                                
 2010 1231 1452  7.4 L  21.388 -99.327 10.0  RAL  1 0.3-0.1LRAL                1
 GAP=360        3.87     449.6   999.9  0.0  0.1012E+07  0.4099E+01 -0.5582E+01E
 ACTION:UPD 12-06-08 11:37 OP:RALL STATUS:               ID:20101231145207     I
 2010-12-31-1451-59S.PLUR1_003                                                 6
 STAT SP IPHASW D HRMM SECON CODA AMPLIT PERI AZIMU VELO AIN AR TRES W  DIS CAZ7
 LT9  SZ E        1452  9.67                  166.9  8.1    -17        0.77   5 
 LT9  SN IP       1452  9.68                             176    0.4510 0.77   5 
 LT9  SE IS       1452 10.07                             176   -0.4510 0.77   5 
 LT9  SZ  AML     1452 10.21         4.2 0.38                          0.77   5 
                                                                                
 2010 1231 1631  3.5 R  20.768 -99.414 10.0  RAL  2 0.5 0.9LRAL                1
 GAP=360        8.29     272.3    55.9999.9  0.1032E+05  0.1251E+06  0.8816E+06E
 ACTION:UPD 12-06-08 11:37 OP:RALL STATUS:               ID:20101231163103     I
 2010-12-31-1631-07S.PLUR1_006                                                 6
 STAT SP IPHASW D HRMM SECON CODA AMPLIT PERI AZIMU VELO AIN AR TRES W  DIS CAZ7
 LT9  SZ E        1631 14.76                  214.2 17.3     27        70.0   7 
 LT9  SN IP       1631 15.00                              95    0.1710 70.0   7 
 LT9  SE IS       1631 23.37                              95    0.2410 70.0   7 
 LT9  SZ  AML     1631 24.70         2.4 0.40                          70.0   7 
 LA4  SZ E        1631 16.20                  157.4 16.2    -29        80.0   8 
 LA4  SN IP       1631 16.27                              94   -0.1310 80.0   8 
 LA4  SE IS       1631 25.55                              94   -0.2910 80.0   8 
 LA4  SZ  AML     1631 27.28        13.0 0.12                          80.0   8 
                                                                                
