 2010  8 1 2050 59.7 L  21.388 -99.254 10.0  RAL  1 0.0 0.4LRAL                1
 GAP=360        0.30       4.2     2.4  0.0 -0.1013E+02  0.2629E+03 -0.2338E+03E
 ACTION:UPD 13-02-28 14:29 OP:RALL STATUS:               ID:20100801205059     I
 2010-08-01-2050-54S.PLUR1_003                                                 6
 STAT SP IPHASW D HRMM SECON CODA AMPLIT PERI AZIMU VELO AIN AR TRES W  DIS CAZ7
 LA4  SZ E        2051  2.39                  151.6  9.8      0        12.0 332 
 LA4  SN IP       2051  2.43                             129    0.0210 12.0 332 
 LA4  SE IS       2051  4.38                             129   -0.0210 12.0 332 
 LA4  SZ  AML     2051  4.58         8.8 0.14                          12.0 332 
                                                                                
 2010  8 1 2105 51.7 L  21.232 -99.298 10.0  RAL  2 0.3 0.5LRAL                1
 GAP=200        2.82       4.8     3.1 28.4  0.1322E+02 -0.5630E+01 -0.9325E+01E
 ACTION:UPD 13-02-28 14:29 OP:RALL STATUS:               ID:20100801210551     I
 2010-08-01-2105-23S.PLUR1_006                                                 6
 STAT SP IPHASW D HRMM SECON CODA AMPLIT PERI AZIMU VELO AIN AR TRES W  DIS CAZ7
 LD5  SZ E        21 5 54.38                   16.6 10.0     -7        5.56 204 
 LD5  SN IP       21 5 54.44                             155    0.6710 5.56 204 
 LD5  SE IS       21 5 56.14                             155    0.8810 5.56 204 
 LD5  SZ  AML     21 5 56.38         4.3 0.22                          5.56 204 
 LG3  SZ E        21 5 53.43                  216.7 49.5     -7        6.75  44 
 LG3  SN IP       21 5 53.49                             144   -0.3910 6.75  44 
 LG3  SE IS       21 5 54.31                             144   -1.1510 6.75  44 
 LG3  SZ  AML     21 5 55.61        62.7 0.20                          6.75  44 
                                                                                
 2010  8 1 2231 28.3 L  21.368 -99.278 10.0  RAL  1 0.0 0.6LRAL                1
 GAP=360        0.30       4.4     1.2  0.0 -0.5251E+01 -0.5630E+01 -0.9325E+01E
 ACTION:UPD 13-02-28 14:29 OP:RALL STATUS:               ID:20100801223128     I
 2010-08-01-2231-21S.PLUR1_003                                                 6
 STAT SP IPHASW D HRMM SECON CODA AMPLIT PERI AZIMU VELO AIN AR TRES W  DIS CAZ7
 LA4  SZ E        2231 31.16                  165.9  8.0      0        13.2 346 
 LA4  SN IP       2231 31.16                             126    0.0010 13.2 346 
 LA4  SZ  AML     2231 32.95        15.0 0.42                          13.2 346 
 LA4  SE IS       2231 33.24                             126    0.0010 13.2 346 
                                                                                
 2010  8 1 2339  3.9 L  21.498 -99.317 10.0  RAL  1 0.2-0.1LRAL                1
 GAP=360        0.68      45.4    24.6  0.0 -0.1116E+04 -0.5630E+01 -0.9325E+01E
 ACTION:UPD 13-02-28 14:29 OP:RALL STATUS:               ID:20100801233903     I
 2010-08-01-2338-57S.PLUR1_003                                                 6
 STAT SP IPHASW D HRMM SECON CODA AMPLIT PERI AZIMU VELO AIN AR TRES W  DIS CAZ7
 LA4  SN IP       2339  6.17                             170    0.4210 1.77 153 
 LA4  SZ E        2339  6.18                  333.2  9.8      0        1.77 153 
 LA4  SE IS       2339  6.70                             170   -0.4210 1.77 153 
 LA4  SZ  AML     2339  7.23         4.5 0.20                          1.77 153 
                                                                                
 2010  8 2 0026  5.0 L  21.400 -99.296 10.0  RAL  1 0.0 0.4LRAL                1
 GAP=360        0.30       5.3     0.9  0.0 -0.4563E+01 -0.5630E+01 -0.9325E+01E
 ACTION:UPD 13-02-28 14:29 OP:RALL STATUS:               ID:20100802002605     I
 2010-08-02-0025-59S.PLUR1_003                                                 6
 STAT SP IPHASW D HRMM SECON CODA AMPLIT PERI AZIMU VELO AIN AR TRES W  DIS CAZ7
 LA4  SZ E         026  7.37                  171.5  9.0      0        9.37 352 
 LA4  SN IP        026  7.38                             137    0.0010 9.37 352 
 LA4  SE IS        026  9.13                             137    0.0010 9.37 352 
 LA4  SZ  AML      026  9.25         9.9 0.12                          9.37 352 
                                                                                
 2010  8 2  129 19.7 L                       RAL  0                            1
 ACTION:UPD 13-02-28 14:29 OP:RALL STATUS:               ID:20100802012919     I
 2010-08-02-0129-19S.PLUR1_021                                                 6
 STAT SP IPHASW D HRMM SECON CODA AMPLIT PERI AZIMU VELO AIN AR TRES W  DIS CAZ7
                                                                                
 2010  8 2 0145 14.4 L  21.152 -99.208 10.0  RAL  3 0.9 0.5LRAL                1
 GAP=307       13.45      17.1    21.0 92.9 -0.2002E+03  0.1867E+03 -0.1628E+03E
 ACTION:UPD 13-02-28 14:29 OP:RALL STATUS:               ID:20100802014514     I
 2010-08-02-0145-07S.PLUR1_009                                                 6
 STAT SP IPHASW D HRMM SECON CODA AMPLIT PERI AZIMU VELO AIN AR TRES W  DIS CAZ7
 LO8  SN IP        145 17.78                             174    1.5210 1.05 328 
 LO8  SZ E         145 17.80                  137.6  5.3     -9        1.05 328 
 LO8  SE IS        145 19.61                             174    1.9710 1.05 328 
 LO8  SZ  AML      145 19.98         4.6 0.30                          1.05 328 
 LD5  SZ E         145 17.12                   72.2 10.3    -35        12.3 288 
 LD5  SN IP        145 17.25                             128    0.1510 12.3 288 
 LD5  SE IS        145 18.70                             128   -0.3910 12.3 288 
 LD5  SZ  AML      145 18.81         6.4 0.10                          12.3 288 
 LG3  SN IP        145 16.56                             123   -0.8310 14.5 341 
 LG3  SZ E         145 16.57                  226.9 11.8     66        14.5 341 
 LG3  SE IS        145 17.18                             123   -2.4210 14.5 341 
 LG3  SZ  AML      145 17.47        74.5 0.20                          14.5 341 
                                                                                
 2010  8 2 0154 55.9 L  21.337 -99.284 10.0  RAL  1 0.1 0.8LRAL                1
 GAP=360        0.64     999.9   765.8  0.0  0.1070E+07  0.1867E+03 -0.1628E+03E
 ACTION:UPD 13-02-28 14:29 OP:RALL STATUS:               ID:20100802015455     I
 2010-08-02-0154-49S.PLUR1_003                                                 6
 STAT SP IPHASW D HRMM SECON CODA AMPLIT PERI AZIMU VELO AIN AR TRES W  DIS CAZ7
 LZ4  SZ E         154 58.18                  295.3 21.9      0        1.67 115 
 LZ4  SN IP        154 58.18                             171    0.3910 1.67 115 
 LZ4  SE IS        154 58.76                             171   -0.3910 1.67 115 
 LZ4  SZ  AML      154 58.87        34.9 0.14                          1.67 115 
                                                                                
 2010  8 2 0159 59.1 L  21.278 -99.275 10.0  RAL  1 0.2 0.7LRAL                1
 GAP=360        0.81       6.2    49.5  0.0 -0.3088E+03  0.1867E+03 -0.1628E+03E
 ACTION:UPD 13-02-28 14:29 OP:RALL STATUS:               ID:20100802015959     I
 2010-08-02-0159-52S.PLUR1_003                                                 6
 STAT SP IPHASW D HRMM SECON CODA AMPLIT PERI AZIMU VELO AIN AR TRES W  DIS CAZ7
 LG3  SZ E         2 0  1.37                  275.6 18.5     -1        2.31  98 
 LG3  SN IP        2 0  1.43                             168    0.4110 2.31  98 
 LG3  SE IS        2 0  1.99                             168   -0.4110 2.31  98 
 LG3  SZ  AML      2 0  2.10        26.3 0.34                          2.31  98 
                                                                                
 2010  8 2 0218 47.1 L  21.274 -99.255 10.0  RAL  3 1.4 0.5LRAL                1
 GAP=206       26.39      13.0    25.8185.1  0.1889E+03  0.1278E+03  0.1015E+03E
 ACTION:UPD 13-02-28 14:29 OP:RALL STATUS:               ID:20100802021847     I
 2010-08-02-0218-39S.PLUR1_009                                                 6
 STAT SP IPHASW D HRMM SECON CODA AMPLIT PERI AZIMU VELO AIN AR TRES W  DIS CAZ7
 LG3  SZ E         218 49.12                  253.9 25.4     13        0.32  61 
 LG3  SN IP        218 49.16                             178    0.2110 0.32  61 
 LG3  SE IS        218 50.08                             178   -0.2210 0.32  61 
 LG3  SZ  AML      218 50.46       123.2 0.28                          0.32  61 
 LD5  SZ E         218 49.66                   19.9  8.8    -14        11.8 215 
 LD5  SN IP        218 49.70                             129   -0.0710 11.8 215 
 LD5  SE IS        218 51.08                             129   -0.6510 11.8 215 
 LD5  SZ  AML      218 51.67         7.4 0.28                          11.8 215 
 LO8  SN EP        218 50.42                             126    0.4110 13.4 161 
 LO8  SZ E         218 50.55                  132.1  7.0    151        13.4 161 
 LO8  SE IS        218 52.46                             126    0.3210 13.4 161 
 LO8  SZ  AML      218 53.21         2.5 0.10                          13.4 161 
                                                                                
 2010  8 2 0229  6.3 L  21.304 -99.207 10.0  RAL  1 0.0 1.7LRAL                1
 GAP=360        0.30       2.6     6.3  0.0 -0.1659E+02  0.1278E+03  0.1015E+03E
 ACTION:UPD 13-02-28 14:29 OP:RALL STATUS:               ID:20100802022906     I
 2010-08-02-0228-56S.PLUR1_003                                                 6
 STAT SP IPHASW D HRMM SECON CODA AMPLIT PERI AZIMU VELO AIN AR TRES W  DIS CAZ7
 LZ4  SZ E         229  8.52                  114.1 13.4      0        7.15 294 
 LZ4  SN IP        229  8.52                             145    0.0310 7.15 294 
 LZ4  SE IS        229 10.06                             145   -0.0310 7.15 294 
 LZ4  SZ  AML      229 10.37       245.8 0.34                          7.15 294 
                                                                                
 2010  8 2 0322 56.3 L  21.347 -99.276 10.0  RAL  1 0.2 1.2LRAL                1
 GAP=360        0.80      51.6    20.3  0.0 -0.1047E+04  0.1278E+03  0.1015E+03E
 ACTION:UPD 13-02-28 14:29 OP:RALL STATUS:               ID:20100802032256     I
 2010-08-02-0322-05S.PLUR1_006                                                 6
 STAT SP IPHASW D HRMM SECON CODA AMPLIT PERI AZIMU VELO AIN AR TRES W  DIS CAZ7
 LZ4  SZ E         322 58.54                  337.9 29.5     -1        1.91 160 
 LZ4  SN IP        322 58.58                             170    0.4210 1.91 160 
 LZ4  SE IS        322 59.10                             170   -0.4210 1.91 160 
 LZ4  SZ  AML      322 59.71        79.3 0.12                          1.91 160 
                                                                                
 2010  8 2 0342 30.7 L  21.382 -99.339 10.0  RAL  1 0.0 0.9LRAL                1
 GAP=360        0.30       4.6     1.4  0.0  0.6294E+01  0.1278E+03  0.1015E+03E
 ACTION:UPD 13-02-28 14:29 OP:RALL STATUS:               ID:20100802034230     I
 2010-08-02-0340-06S.PLUR1_009                                                 6
 STAT SP IPHASW D HRMM SECON CODA AMPLIT PERI AZIMU VELO AIN AR TRES W  DIS CAZ7
 LA4  SZ E         342 33.39                  195.3  8.9      0        11.7  15 
 LA4  SN IP        342 33.40                             130    0.0110 11.7  15 
 LA4  SE IS        342 35.34                             130   -0.0110 11.7  15 
 LA4  SZ  AML      342 35.76        28.6 0.10                          11.7  15 
                                                                                
 2010  8 2 0400  0.6 L  21.268 -99.234 10.0  RAL  1 0.1 0.3LRAL                1
 GAP=360        0.51      13.3    30.8  0.0 -0.4108E+03  0.1278E+03  0.1015E+03E
 ACTION:UPD 13-02-28 14:29 OP:RALL STATUS:               ID:20100802040000     I
 2010-08-02-0359-53S.PLUR1_003                                                 6
 STAT SP IPHASW D HRMM SECON CODA AMPLIT PERI AZIMU VELO AIN AR TRES W  DIS CAZ7
 LG3  SZ E         4 0  2.49                  114.9 26.5      0        2.12 295 
 LG3  SN IP        4 0  2.79                             168    0.2810 2.12 295 
 LG3  SE IS        4 0  3.61                             168   -0.2810 2.12 295 
 LG3  SZ  AML      4 0  3.70        12.2 0.18                          2.12 295 
                                                                                
 2010  8 2 0407 37.4 L  21.346 -99.293 10.0  RAL  1 0.1 0.5LRAL                1
 GAP=360        0.48      12.3    19.1  0.0 -0.2338E+03  0.1278E+03  0.1015E+03E
 ACTION:UPD 13-02-28 14:29 OP:RALL STATUS:               ID:20100802040737     I
 2010-08-02-0407-31S.PLUR1_003                                                 6
 STAT SP IPHASW D HRMM SECON CODA AMPLIT PERI AZIMU VELO AIN AR TRES W  DIS CAZ7
 LZ4  SZ E         4 7 39.53                  304.6 19.4      0        2.98 125 
 LZ4  SN IP        4 7 39.55                             164    0.2610 2.98 125 
 LZ4  SE IS        4 7 40.42                             164   -0.2610 2.98 125 
 LZ4  SZ  AML      4 7 41.20        18.7 0.16                          2.98 125 
                                                                                
 2010  8 2 0422 10.3 L  21.333 -99.278 10.0  RAL  1 0.1 1.1LRAL                1
 GAP=360        0.87     999.9   592.7  0.0  0.8246E+06  0.1278E+03  0.1015E+03E
 ACTION:UPD 13-02-28 14:29 OP:RALL STATUS:               ID:20100802042210     I
 2010-08-02-0422-03S.PLUR1_006                                                 6
 STAT SP IPHASW D HRMM SECON CODA AMPLIT PERI AZIMU VELO AIN AR TRES W  DIS CAZ7
 LZ4  SZ E         422 12.42                  289.8 20.1      3        0.88 107 
 LZ4  SN IP        422 12.47                             175    0.3510 0.88 107 
 LZ4  SE IS        422 13.12                             175   -0.3510 0.88 107 
 LZ4  SZ  AML      422 13.57        69.6 0.14                          0.88 107 
                                                                                
 2010  8 2 0456 46.5 L  21.239 -99.304 10.0  RAL  1 0.0 0.4LRAL                1
 GAP=360        0.30       6.9     2.1  0.0  0.1468E+02  0.1278E+03  0.1015E+03E
 ACTION:UPD 13-02-28 14:29 OP:RALL STATUS:               ID:20100802045646     I
 2010-08-02-0456-38S.PLUR1_012                                                 6
 STAT SP IPHASW D HRMM SECON CODA AMPLIT PERI AZIMU VELO AIN AR TRES W  DIS CAZ7
 LD5  SN IP        456 48.60                             149    0.0210 6.10 196 
 LD5  SZ E         456 48.61                   15.9  8.4      0        6.10 196 
 LD5  SE IS        456 50.09                             149   -0.0210 6.10 196 
 LD5  SZ  AML      456 50.53        13.6 0.14                          6.10 196 
                                                                                
 2010  8 2 0519 52.0 L  21.240 -99.296 10.0  RAL  1 0.0 0.5LRAL                1
 GAP=360        0.30       6.4     2.9  0.0  0.1859E+02  0.1278E+03  0.1015E+03E
 ACTION:UPD 13-02-28 14:29 OP:RALL STATUS:               ID:20100802051952     I
 2010-08-02-0517-32S.PLUR1_012                                                 6
 STAT SP IPHASW D HRMM SECON CODA AMPLIT PERI AZIMU VELO AIN AR TRES W  DIS CAZ7
 LD5  SZ E         519 54.11                   23.2 10.0      0        6.43 203 
 LD5  SN IP        519 54.13                             148    0.0210 6.43 203 
 LD5  SE IS        519 55.64                             148   -0.0210 6.43 203 
 LD5  SZ  AML      519 55.94        16.0 0.62                          6.43 203 
                                                                                
 2010  8 2 0526 20.6 L  21.266 -99.271 10.0  RAL  1 0.2 1.2LRAL                1
 GAP=360        0.69      20.6    39.9  0.0  0.8199E+03  0.1278E+03  0.1015E+03E
 ACTION:UPD 13-02-28 14:29 OP:RALL STATUS:               ID:20100802052620     I
 2010-08-02-0526-13S.PLUR1_003                                                 6
 STAT SP IPHASW D HRMM SECON CODA AMPLIT PERI AZIMU VELO AIN AR TRES W  DIS CAZ7
 LG3  SZ E         526 22.85                  241.1 21.5      0        2.14  61 
 LG3  SN IP        526 22.87                             168    0.4210 2.14  61 
 LG3  SE IS        526 23.41                             168   -0.4210 2.14  61 
 LG3  SZ  AML      526 23.47        79.1 0.38                          2.14  61 
                                                                                
 2010  8 2 0551 16.0 L  21.327 -99.280 10.0  RAL  1 0.3 0.9LRAL                1
 GAP=360        3.70     999.9   880.0  0.0 -0.9657E+06  0.1278E+03  0.1015E+03E
 ACTION:UPD 13-02-28 14:29 OP:RALL STATUS:               ID:20100802055116     I
 2010-08-02-0551-08S.PLUR1_003                                                 6
 STAT SP IPHASW D HRMM SECON CODA AMPLIT PERI AZIMU VELO AIN AR TRES W  DIS CAZ7
 LZ4  SZ E         551 18.08                  268.1 36.2     17        1.17  71 
 LZ4  SN IP        551 18.17                             174    0.3510 1.17  71 
 LZ4  SE IS        551 18.81                             174   -0.3510 1.17  71 
 LZ4  SZ  AML      551 19.25        46.8 0.34                          1.17  71 
                                                                                
 2010  8 2 0556 39.4 L  21.122 -99.223 17.8  RAL  3 1.4 1.1LRAL                1
 GAP=291       22.58     537.5    53.9999.9  0.8976E+04  0.1742E+05  0.5561E+06E
 ACTION:UPD 13-02-28 14:29 OP:RALL STATUS:               ID:20100802055639     I
 2010-08-02-0556-18S.PLUR1_009                                                 6
 STAT SP IPHASW D HRMM SECON CODA AMPLIT PERI AZIMU VELO AIN AR TRES W  DIS CAZ7
 LO8  SN IP        556 44.34                              63    1.7810 4.24  14 
 LO8  SZ E         556 44.34                  142.0  5.1    -51        4.24  14 
 LO8  SE IS        556 46.72                              63    1.8510 4.24  14 
 LO8  SZ  AML      556 47.24         5.5 0.42                          4.24  14 
 LD5  SZ E         556 43.79                   46.1 10.5    -78        12.3 305 
 LD5  SN EP        556 43.79                              63    0.7710 12.3 305 
 LD5  SE IS        556 45.43                              63   -0.2410 12.3 305 
 LD5  SZ  AML      556 46.70        13.8 0.34                          12.3 305 
 LG3  SZ E         556 42.62                  257.1 50.5     87        17.2 350 
 LG3  SN IP        556 42.64                              63   -0.8810 17.2 350 
 LG3  SE IS        556 43.24                              63   -3.2910 17.2 350 
 LG3  SZ  AML      556 43.86       671.1 0.16                          17.2 350 
                                                                                
 2010  8 2 0616 36.8 L  21.288 -99.274 10.0  RAL  1 0.2 0.5LRAL                1
 GAP=360        0.70      18.5    32.9  0.0 -0.6080E+03  0.1742E+05  0.5561E+06E
 ACTION:UPD 13-02-28 14:29 OP:RALL STATUS:               ID:20100802061636     I
 2010-08-02-0616-29S.PLUR1_003                                                 6
 STAT SP IPHASW D HRMM SECON CODA AMPLIT PERI AZIMU VELO AIN AR TRES W  DIS CAZ7
 LG3  SZ E         616 39.13                  301.1 23.6      0        2.62 121 
 LG3  SN IP        616 39.15                             166    0.4310 2.62 121 
 LG3  SE IS        616 39.68                             166   -0.4310 2.62 121 
 LG3  SZ  AML      616 39.75        17.2 0.10                          2.62 121 
                                                                                
