 2010  9 7 2036 10.2 L  21.370 -99.320 10.0  RAL  1 0.0-0.5LRAL                1
 GAP=360        0.31      13.6     3.7  0.0 -0.4978E+02  0.5477E+00 -0.5856E+00E
 ACTION:UPD 13-02-28 14:29 OP:RALL STATUS:               ID:20100907203610     I
 2010-09-07-2036-03S.PLUR1_003                                                 6
 STAT SP IPHASW D HRMM SECON CODA AMPLIT PERI AZIMU VELO AIN AR TRES W  DIS CAZ7
 LT9  SN IP       2036 12.15                             164    0.0710 2.89 346 
 LT9  SZ E        2036 12.17                  166.0  7.0      0        2.89 346 
 LT9  SE IS       2036 13.36                             164   -0.0710 2.89 346 
 LT9  SZ  AML     2036 13.44         1.7 0.32                          2.89 346 
                                                                                
 2010  9 7 2146 28.5 L  21.268 -99.249 10.0  RAL  1 0.0 0.3LRAL                1
 GAP=360        0.30       3.7     2.3  0.0 -0.8076E+01  0.5477E+00 -0.5856E+00E
 ACTION:UPD 13-02-28 14:29 OP:RALL STATUS:               ID:20100907214628     I
 2010-09-07-2146-24S.PLUR1_003                                                 6
 STAT SP IPHASW D HRMM SECON CODA AMPLIT PERI AZIMU VELO AIN AR TRES W  DIS CAZ7
 LT9  SZ E        2146 31.45                  150.5  7.5      0        16.2 331 
 LT9  SN IP       2146 31.72                             119    0.0110 16.2 331 
 LT9  SE IS       2146 34.05                             119   -0.0110 16.2 331 
 LT9  SZ  AML     2146 34.51         5.5 0.32                          16.2 331 
                                                                                
 2010  9 7 2212 41.8 L  21.614 -99.341 10.0  RAL  1 0.0 0.3LRAL                1
 GAP=360        0.30       4.3     1.1  0.0 -0.4519E+01  0.5477E+00 -0.5856E+00E
 ACTION:UPD 13-02-28 14:29 OP:RALL STATUS:               ID:20100907221241     I
 2010-09-07-2212-37S.PLUR1_003                                                 6
 STAT SP IPHASW D HRMM SECON CODA AMPLIT PERI AZIMU VELO AIN AR TRES W  DIS CAZ7
 LA4  SN IP       2212 44.84                             122    0.0010 14.8 167 
 LA4  SZ E        2212 44.95                  346.9  9.5      0        14.8 167 
 LA4  SE IS       2212 47.07                             122    0.0010 14.8 167 
 LA4  SZ  AML     2212 47.11         7.0 0.10                          14.8 167 
                                                                                
 2010  9 7 2333 25.3 L  21.330 -99.306 10.0  RAL  1 0.0-0.1LRAL                1
 GAP=360        0.30       5.9     1.9  0.0 -0.1088E+02  0.5477E+00 -0.5856E+00E
 ACTION:UPD 13-02-28 14:29 OP:RALL STATUS:               ID:20100907233325     I
 2010-09-07-2333-19S.PLUR1_003                                                 6
 STAT SP IPHASW D HRMM SECON CODA AMPLIT PERI AZIMU VELO AIN AR TRES W  DIS CAZ7
 LT9  SN IP       2333 27.49                             143    0.0210 7.49 344 
 LT9  SZ E        2333 27.54                  163.6  7.6      0        7.49 344 
 LT9  SE IS       2333 29.02                             143   -0.0210 7.49 344 
 LT9  SZ  AML     2333 29.49         3.6 0.30                          7.49 344 
                                                                                
 2010  9 8 0048 31.1 L  21.358 -99.323 10.0  RAL  1 0.0 0.1LRAL                1
 GAP=360        0.30       9.6     1.0  0.0 -0.9550E+01  0.5477E+00 -0.5856E+00E
 ACTION:UPD 13-02-28 14:29 OP:RALL STATUS:               ID:20100908004831     I
 2010-09-08-0048-24S.PLUR1_003                                                 6
 STAT SP IPHASW D HRMM SECON CODA AMPLIT PERI AZIMU VELO AIN AR TRES W  DIS CAZ7
 LT9  SN IP        048 33.00                             157    0.0210 4.14 355 
 LT9  SZ E         048 33.02                  174.5  7.4      0        4.14 355 
 LT9  SE IS        048 34.35                             157   -0.0210 4.14 355 
 LT9  SZ  AML      048 35.03         6.1 0.16                          4.14 355 
                                                                                
 2010  9 8 0433 45.2 L  21.378 -99.334 10.0  RAL  1 0.1-1.0LRAL                1
 GAP=360        0.49      27.0    12.1  0.0  0.3269E+03  0.5477E+00 -0.5856E+00E
 ACTION:UPD 13-02-28 14:29 OP:RALL STATUS:               ID:20100908043345     I
 2010-09-08-0433-38S.PLUR1_003                                                 6
 STAT SP IPHASW D HRMM SECON CODA AMPLIT PERI AZIMU VELO AIN AR TRES W  DIS CAZ7
 LT9  SN IP        433 47.28                             168    0.2610 2.13  23 
 LT9  SZ E         433 47.29                  202.7 19.5      0        2.13  23 
 LT9  SE IS        433 48.08                             168   -0.2610 2.13  23 
 LT9  SZ  AML      433 48.55         0.6 0.42                          2.13  23 
                                                                                
 2010  9 8 0448  3.0 L  21.260 -99.219 10.0  RAL  1 0.0-0.1LRAL                1
 GAP=360        0.30       3.3     2.6  0.0 -0.8377E+01  0.5477E+00 -0.5856E+00E
 ACTION:UPD 13-02-28 14:29 OP:RALL STATUS:               ID:20100908044803     I
 2010-09-08-0447-59S.PLUR1_003                                                 6
 STAT SP IPHASW D HRMM SECON CODA AMPLIT PERI AZIMU VELO AIN AR TRES W  DIS CAZ7
 LT9  SZ E         448  6.44                  143.3  7.1      0        18.7 323 
 LT9  SN IP        448  6.58                             115    0.0110 18.7 323 
 LT9  SE IS        448  9.16                             115   -0.0110 18.7 323 
 LT9  SZ  AML      448  9.26         2.2 0.16                          18.7 323 
                                                                                
 2010  9 8 0837 18.6 L  21.246 -99.268 10.0  RAL  1 0.0 0.3LRAL                1
 GAP=360        0.30       3.9     1.6  0.0 -0.5799E+01  0.5477E+00 -0.5856E+00E
 ACTION:UPD 13-02-28 14:29 OP:RALL STATUS:               ID:20100908083718     I
 2010-09-08-0837-14S.PLUR1_003                                                 6
 STAT SP IPHASW D HRMM SECON CODA AMPLIT PERI AZIMU VELO AIN AR TRES W  DIS CAZ7
 LT9  SZ E         837 21.98                  159.9  7.8      0        17.6 340 
 LT9  SN IP        837 22.04                             116    0.0010 17.6 340 
 LT9  SE IS        837 24.52                             116    0.0010 17.6 340 
 LT9  SZ  AML      837 24.99         5.9 0.20                          17.6 340 
                                                                                
 2010  9 8 0919 27.0 L  21.371 -99.319 10.0  RAL  1 0.0-0.6LRAL                1
 GAP=360        0.33      14.7     4.7  0.0 -0.6958E+02  0.5477E+00 -0.5856E+00E
 ACTION:UPD 13-02-28 14:29 OP:RALL STATUS:               ID:20100908091927     I
 2010-09-08-0919-20S.PLUR1_003                                                 6
 STAT SP IPHASW D HRMM SECON CODA AMPLIT PERI AZIMU VELO AIN AR TRES W  DIS CAZ7
 LT9  SZ E         919 28.88                  163.4 11.6      0        2.76 343 
 LT9  SN IP        919 28.90                             165    0.0910 2.76 343 
 LT9  SE IS        919 30.05                             165   -0.0910 2.76 343 
 LT9  SZ  AML      919 30.27         1.4 0.26                          2.76 343 
                                                                                
 2010  9 8 1012 16.9 L  21.243 -99.236 10.0  RAL  1 0.0 0.1LRAL                1
 GAP=360        0.30       3.5     2.2  0.0 -0.7308E+01  0.5477E+00 -0.5856E+00E
 ACTION:UPD 13-02-28 14:29 OP:RALL STATUS:               ID:20100908101216     I
 2010-09-08-1012-13S.PLUR1_003                                                 6
 STAT SP IPHASW D HRMM SECON CODA AMPLIT PERI AZIMU VELO AIN AR TRES W  DIS CAZ7
 LT9  SN IP       1012 20.52                             114    0.0010 19.3 331 
 LT9  SZ E        1012 20.53                  150.9 10.7      0        19.3 331 
 LT9  SE IS       1012 23.17                             114    0.0010 19.3 331 
 LT9  SZ  AML     1012 23.51         3.6 0.20                          19.3 331 
                                                                                
 2010  9 8 1103 53.5 L  21.315 -99.311 10.0  RAL  1 0.0-0.3LRAL                1
 GAP=360        0.30       5.3     1.0  0.0 -0.5309E+01  0.5477E+00 -0.5856E+00E
 ACTION:UPD 13-02-28 14:29 OP:RALL STATUS:               ID:20100908110353     I
 2010-09-08-1103-47S.PLUR1_003                                                 6
 STAT SP IPHASW D HRMM SECON CODA AMPLIT PERI AZIMU VELO AIN AR TRES W  DIS CAZ7
 LT9  SN IP       11 3 55.79                             137    0.0110 9.03 350 
 LT9  SZ E        11 3 55.82                  170.1 10.6      0        9.03 350 
 LT9  SE IS       11 3 57.47                             137   -0.0110 9.03 350 
 LT9  SZ  AML     11 3 57.61         2.3 0.34                          9.03 350 
                                                                                
 2010  9 8 1115 37.7 L  21.266 -99.196 10.0  RAL  1 0.0 0.5LRAL                1
 GAP=360        0.30       3.5     1.9  0.0 -0.6143E+01  0.5477E+00 -0.5856E+00E
 ACTION:UPD 13-02-28 14:29 OP:RALL STATUS:               ID:20100908111537     I
 2010-09-08-1115-36S.PLUR1_003                                                 6
 STAT SP IPHASW D HRMM SECON CODA AMPLIT PERI AZIMU VELO AIN AR TRES W  DIS CAZ7
 LA4  SZ E        1115 42.33                  154.1  6.4      0        26.7 334 
 LA4  SN IP       1115 42.44                             107    0.0210 26.7 334 
 LA4  SE IS       1115 45.87                             107   -0.0210 26.7 334 
 LA4  SZ  AML     1115 47.20         6.6 0.56                          26.7 334 
                                                                                
 2010  9 8 1225 34.3 L  21.500 -99.327 10.0  RAL  1 0.2 0.1LRAL                1
 GAP=360        0.79      28.1    31.5  0.0 -0.8852E+03  0.5477E+00 -0.5856E+00E
 ACTION:UPD 13-02-28 14:29 OP:RALL STATUS:               ID:20100908122534     I
 2010-09-08-1225-27S.PLUR1_003                                                 6
 STAT SP IPHASW D HRMM SECON CODA AMPLIT PERI AZIMU VELO AIN AR TRES W  DIS CAZ7
 LA4  SN IP       1225 36.67                             166    0.5010 2.61 134 
 LA4  SZ E        1225 36.67                  313.7 12.0      0        2.61 134 
 LA4  SZ  AML     1225 36.92         7.4 0.44                          2.61 134 
 LA4  SE IS       1225 37.06                             166   -0.5010 2.61 134 
                                                                                
 2010  9 8 1538 19.7 L  21.369 -99.319 10.0  RAL  1 0.0-0.9LRAL                1
 GAP=360        0.33      13.9     4.1  0.0 -0.5630E+02  0.5477E+00 -0.5856E+00E
 ACTION:UPD 13-02-28 14:29 OP:RALL STATUS:               ID:20100908153819     I
 2010-09-08-1538-13S.PLUR1_003                                                 6
 STAT SP IPHASW D HRMM SECON CODA AMPLIT PERI AZIMU VELO AIN AR TRES W  DIS CAZ7
 LT9  SZ E        1538 21.64                  164.8  7.4      0        2.98 345 
 LT9  SN IP       1538 21.65                             163    0.1010 2.98 345 
 LT9  SE IS       1538 22.80                             163   -0.1010 2.98 345 
 LT9  SZ  AML     1538 23.56         0.7 0.48                          2.98 345 
                                                                                
 2010  9 8 1715  2.7 L  21.417 -99.349 10.0  RAL  1 0.1 0.1LRAL                1
 GAP=360        0.48      13.2    14.3  0.0 -0.1880E+03  0.5477E+00 -0.5856E+00E
 ACTION:UPD 13-02-28 14:29 OP:RALL STATUS:               ID:20100908171502     I
 2010-09-08-1714-55S.PLUR1_003                                                 6
 STAT SP IPHASW D HRMM SECON CODA AMPLIT PERI AZIMU VELO AIN AR TRES W  DIS CAZ7
 LT9  SN IP       1715  4.78                             161    0.2510 3.36 135 
 LT9  SZ E        1715  4.79                  314.8 19.7      0        3.36 135 
 LT9  SE IS       1715  5.63                             161   -0.2510 3.36 135 
 LT9  SZ  AML     1715  5.85         7.0 0.38                          3.36 135 
                                                                                
 2010  9 8 2047  6.4 L  21.412 -99.329  0.0  RAL  2 0.2 0.3LRAL                1
 GAP=202        1.21       2.1     0.4 22.1 -0.5686E+00  0.3416E+01 -0.2732E+02E
 ACTION:UPD 13-02-28 14:29 OP:RALL STATUS:               ID:20100908204706     I
 2010-09-08-2046-56S.PLUR1_006                                                 6
 STAT SP IPHASW D HRMM SECON CODA AMPLIT PERI AZIMU VELO AIN AR TRES W  DIS CAZ7
 LT9  SZ E        2047  6.17                  352.7 24.0      1        1.81 172 
 LT9  SN IP       2047  6.23                             112   -0.5110 1.81 172 
 LT9  SE IS       2047  6.89                             112   -0.1010 1.81 172 
 LT9  SZ  AML     2047  7.49        13.8 0.34                          1.81 172 
 LA4  SZ E        2047  7.62                  197.2  7.4      3        8.25  14 
 LA4  SN IP       2047  7.64                              98   -0.2110 8.25  14 
 LA4  SE IS       2047  9.73                              98    0.8210 8.25  14 
 LA4  SZ  AML     2047 11.43        51.2 0.32                          8.25  14 
                                                                                
 2010  9 8 2134 21.7 L  21.189 -99.168  5.9  RAL  2 0.4 1.0LRAL                1
 GAP=348        4.58      56.6    37.0999.9 -0.2001E+04 -0.7136E+05  0.1125E+06E
 ACTION:UPD 13-02-28 14:29 OP:RALL STATUS:               ID:20100908213421     I
 2010-09-08-2134-17S.PLUR1_006                                                 6
 STAT SP IPHASW D HRMM SECON CODA AMPLIT PERI AZIMU VELO AIN AR TRES W  DIS CAZ7
 LT9  SN IP       2134 27.22                              91    0.6810 28.1 324 
 LT9  SZ E        2134 27.30                  156.7  9.0     12        28.1 324 
 LT9  SE IS       2134 28.87                              91   -1.1910 28.1 324 
 LT9  SZ  AML     2134 29.14        12.0 0.10                          28.1 324 
 LA4  SZ E        2134 28.69                  139.4  7.2    -15        35.7 336 
 LA4  SN IP       2134 28.71                              92    0.9610 35.7 336 
 LA4  SE IS       2134 31.70                              92   -0.4610 35.7 336 
 LA4  SZ  AML     2134 33.19        34.2 0.22                          35.7 336 
                                                                                
 2010  9 9 0009 48.3 L  21.280 -99.261  0.0  RAL  2 0.1 0.5LRAL                1
 GAP=345        1.34      10.9     5.3307.2 -0.5504E+02 -0.1171E+04  0.2497E+04E
 ACTION:UPD 13-02-28 14:29 OP:RALL STATUS:               ID:20100909000948     I
 2010-09-09-0009-42S.PLUR1_006                                                 6
 STAT SP IPHASW D HRMM SECON CODA AMPLIT PERI AZIMU VELO AIN AR TRES W  DIS CAZ7
 LT9  SN IP        0 9 50.95                              93    0.1610 14.5 332 
 LT9  SZ E         0 9 50.97                  154.9  7.5      3        14.5 332 
 LT9  SE IS        0 9 52.19                              93   -0.4610 14.5 332 
 LT9  SZ  AML      0 9 52.36         5.2 0.26                          14.5 332 
 LA4  SZ E         0 9 52.57                  162.6 10.6     -4        23.1 348 
 LA4  SN IP        0 9 52.65                              93    0.3510 23.1 348 
 LA4  SE IS        0 9 55.21                              93   -0.0510 23.1 348 
 LA4  SZ  AML      0 9 55.44        15.8 0.14                          23.1 348 
                                                                                
 2010  9 9 0248  5.2 L  21.241 -99.259 10.0  RAL  1 0.0-0.1LRAL                1
 GAP=360        0.30       3.8     1.7  0.0 -0.6172E+01 -0.1171E+04  0.2497E+04E
 ACTION:UPD 13-02-28 14:29 OP:RALL STATUS:               ID:20100909024805     I
 2010-09-09-0248-01S.PLUR1_003                                                 6
 STAT SP IPHASW D HRMM SECON CODA AMPLIT PERI AZIMU VELO AIN AR TRES W  DIS CAZ7
 LT9  SN IP        248  8.75                             115    0.0010 18.4 338 
 LT9  SZ E         248  8.80                  157.7  8.1      0        18.4 338 
 LT9  SE IS        248 11.31                             115    0.0010 18.4 338 
 LT9  SZ  AML      248 11.56         2.5 0.32                          18.4 338 
                                                                                
 2010  9 9 0303  2.6 L  21.366 -99.318 10.0  RAL  1 0.0-0.1LRAL                1
 GAP=360        0.31      11.6     3.2  0.0 -0.3653E+02 -0.1171E+04  0.2497E+04E
 ACTION:UPD 13-02-28 14:29 OP:RALL STATUS:               ID:20100909030302     I
 2010-09-09-0302-55S.PLUR1_003                                                 6
 STAT SP IPHASW D HRMM SECON CODA AMPLIT PERI AZIMU VELO AIN AR TRES W  DIS CAZ7
 LT9  SN IP        3 3  4.48                             161    0.0510 3.39 346 
 LT9  SZ E         3 3  4.55                  165.7  7.9      0        3.39 346 
 LT9  SE IS        3 3  5.73                             161   -0.0510 3.39 346 
 LT9  SZ  AML      3 3  5.82         4.0 0.26                          3.39 346 
                                                                                
 2010  9 9 0332 54.9 L  21.378 -99.323 10.0  RAL  1 0.0-0.3LRAL                1
 GAP=360        0.32      20.8     4.0  0.0 -0.8334E+02 -0.1171E+04  0.2497E+04E
 ACTION:UPD 13-02-28 14:29 OP:RALL STATUS:               ID:20100909033254     I
 2010-09-09-0332-48S.PLUR1_003                                                 6
 STAT SP IPHASW D HRMM SECON CODA AMPLIT PERI AZIMU VELO AIN AR TRES W  DIS CAZ7
 LT9  SN IP        332 56.81                             169    0.0710 1.90 350 
 LT9  SZ E         332 56.85                  169.8  8.5      0        1.90 350 
 LT9  SE IS        332 57.98                             169   -0.0710 1.90 350 
 LT9  SZ  AML      332 58.74         2.9 0.16                          1.90 350 
                                                                                
 2010  9 9 0820 30.5 L  21.328 -99.323 10.0  RAL  1 0.0-0.4LRAL                1
 GAP=360        0.30       6.1     0.4  0.0 -0.2085E+01 -0.1171E+04  0.2497E+04E
 ACTION:UPD 13-02-28 14:29 OP:RALL STATUS:               ID:20100909082030     I
 2010-09-09-0820-24S.PLUR1_003                                                 6
 STAT SP IPHASW D HRMM SECON CODA AMPLIT PERI AZIMU VELO AIN AR TRES W  DIS CAZ7
 LT9  SN IP        820 32.69                             143    0.0010 7.44 357 
 LT9  SZ E         820 32.78                  177.0  8.8      0        7.44 357 
 LT9  SE IS        820 34.26                             143    0.0010 7.44 357 
 LT9  SZ  AML      820 34.84         1.8 0.14                          7.44 357 
                                                                                
