 2010  8 2 2240  1.4 L  21.241 -99.298 10.0  RAL  1 0.0-0.4LRAL                1
 GAP=360        0.30       6.4     2.7  0.0  0.1706E+02  0.3117E+03 -0.2729E+03E
 ACTION:UPD 13-02-28 14:29 OP:RALL STATUS:               ID:20100802224001     I
 2010-08-02-2239-55S.PLUR1_006                                                 6
 STAT SP IPHASW D HRMM SECON CODA AMPLIT PERI AZIMU VELO AIN AR TRES W  DIS CAZ7
 LD5  SN IP       2240  3.58                             147    0.0310 6.52 201 
 LD5  SZ E        2240  3.62                   21.1 24.3      0        6.52 201 
 LD5  SE IS       2240  5.08                             147   -0.0310 6.52 201 
 LD5  SZ  AML     2240  5.49         2.0 0.48                          6.52 201 
                                                                                
 2010  8 3 0002 41.1 L  21.347 -99.297 10.0  RAL  1 0.1 1.8LRAL                1
 GAP=360        0.50      10.8    18.0  0.0 -0.1948E+03  0.3117E+03 -0.2729E+03E
 ACTION:UPD 13-02-28 14:29 OP:RALL STATUS:               ID:20100803000241     I
 2010-08-03-0002-33S.PLUR1_003                                                 6
 STAT SP IPHASW D HRMM SECON CODA AMPLIT PERI AZIMU VELO AIN AR TRES W  DIS CAZ7
 LZ4  SZ E         0 2 43.28                  302.8 18.7      0        3.39 123 
 LZ4  SN IP     C  0 2 43.29                             162    0.2710 3.39 123 
 LZ4  SE IS        0 2 44.14                             162   -0.2710 3.39 123 
 LZ4  SZ  AML      0 2 44.40       314.4 0.05                          3.39 123 
                                                                                
 2010  8 3 0014 41.0 L  21.309 -99.286 10.0  RAL  1 0.1 0.8LRAL                1
 GAP=360        0.63      22.7    17.7  0.0  0.4001E+03  0.3117E+03 -0.2729E+03E
 ACTION:UPD 13-02-28 14:29 OP:RALL STATUS:               ID:20100803001441     I
 2010-08-03-0014-34S.PLUR1_003                                                 6
 STAT SP IPHASW D HRMM SECON CODA AMPLIT PERI AZIMU VELO AIN AR TRES W  DIS CAZ7
 LZ4  SN IP        014 43.31                             164    0.3710 2.98  36 
 LZ4  SZ E      C  014 43.32                  216.0 48.1      0        2.98  36 
 LZ4  SE IS        014 43.95                             164   -0.3710 2.98  36 
 LZ4  SZ  AML      014 44.46        35.7 0.14                          2.98  36 
                                                                                
 2010  8 3 0019  9.0 L  21.354 -99.284 10.0  RAL  1 0.1 1.2LRAL                1
 GAP=360        0.49      19.3    11.9  0.0 -0.2309E+03  0.3117E+03 -0.2729E+03E
 ACTION:UPD 13-02-28 14:29 OP:RALL STATUS:               ID:20100803001909     I
 2010-08-03-0019-01S.PLUR1_003                                                 6
 STAT SP IPHASW D HRMM SECON CODA AMPLIT PERI AZIMU VELO AIN AR TRES W  DIS CAZ7
 LZ4  SZ E         019 11.17                  330.1 17.3      0        2.96 150 
 LZ4  SN IP     C  019 11.17                             164    0.2710 2.96 150 
 LZ4  SE IS     C  019 12.02                             164   -0.2710 2.96 150 
 LZ4  SZ  AML      019 12.15        84.0 0.30                          2.96 150 
                                                                                
 2010  8 3 0021 50.6 L  21.173 -98.995 10.0  RAL  2 1.2 0.0LRAL                1
 GAP=354       17.19      30.1   219.3493.3  0.1226E+04 -0.7120E+05 -0.2093E+04E
 ACTION:UPD 13-02-28 14:29 OP:RALL STATUS:               ID:20100803002150     I
 2010-08-03-0021-46S.PLUR1_009                                                 6
 STAT SP IPHASW D HRMM SECON CODA AMPLIT PERI AZIMU VELO AIN AR TRES W  DIS CAZ7
 LO8  SN IP        021 56.96                             112    2.1710 22.6 266 
 LO8  SZ E         021 56.98                  136.2  7.0     50        22.6 266 
 LO8  SE IS        021 59.03                             112    1.1910 22.6 266 
 LO8  SZ  AML      021 59.72         1.8 0.62                          22.6 266 
 LD5  SZ E         021 56.15                   27.7  8.6    -64        33.7 273 
 LD5  SN IP     D  021 56.17                             103   -0.2510 33.7 273 
 LD5  SE IS     D  021 57.55                             103   -3.1110 33.7 273 
 LD5  SZ  AML      021 58.26         2.5 0.44                          33.7 273 
                                                                                
 2010  8 3 0037 47.6 L  21.312 -99.289 10.0  RAL  1 0.2 0.5LRAL                1
 GAP=360        0.70      23.3    23.8  0.0  0.5558E+03 -0.7120E+05 -0.2093E+04E
 ACTION:UPD 13-02-28 14:29 OP:RALL STATUS:               ID:20100803003747     I
 2010-08-03-0037-40S.PLUR1_003                                                 6
 STAT SP IPHASW D HRMM SECON CODA AMPLIT PERI AZIMU VELO AIN AR TRES W  DIS CAZ7
 LZ4  SN IP        037 49.92                             164    0.4310 2.92  44 
 LZ4  SZ E         037 49.92                  223.6 27.5      0        2.92  44 
 LZ4  SE IS        037 50.44                             164   -0.4310 2.92  44 
 LZ4  SZ  AML      037 50.99        18.6 0.18                          2.92  44 
                                                                                
 2010  8 3 0112 32.5 L  21.377 -99.270 10.0  RAL  1 0.0 0.3LRAL                1
 GAP=360        0.30       4.4     1.7  0.0 -0.7133E+01 -0.7120E+05 -0.2093E+04E
 ACTION:UPD 13-02-28 14:29 OP:RALL STATUS:               ID:20100803011232     I
 2010-08-03-0112-28S.PLUR1_003                                                 6
 STAT SP IPHASW D HRMM SECON CODA AMPLIT PERI AZIMU VELO AIN AR TRES W  DIS CAZ7
 LA4  SN IP     D  112 35.24                             128    0.0110 12.5 341 
 LA4  SZ E         112 35.33                  161.1 11.7      0        12.5 341 
 LA4  SE IS        112 37.25                             128   -0.0110 12.5 341 
 LA4  SZ  AML      112 37.57         7.3 0.10                          12.5 341 
                                                                                
 2010  8 3 0132 33.1 L  21.321 -99.289 10.0  RAL  1 0.1 1.4LRAL                1
 GAP=360        0.56      14.7    30.2  0.0  0.4459E+03 -0.7120E+05 -0.2093E+04E
 ACTION:UPD 13-02-28 14:29 OP:RALL STATUS:               ID:20100803013233     I
 2010-08-03-0132-25S.PLUR1_003                                                 6
 STAT SP IPHASW D HRMM SECON CODA AMPLIT PERI AZIMU VELO AIN AR TRES W  DIS CAZ7
 LZ4  SZ E         132 35.28                  242.4 27.9      0        2.30  62 
 LZ4  SN IP        132 35.30                             167    0.3210 2.30  62 
 LZ4  SE IS        132 36.03                             167   -0.3210 2.30  62 
 LZ4  SZ  AML      132 37.88       143.1 0.12                          2.30  62 
                                                                                
 2010  8 3 0206 50.1 L  21.163 -99.069 10.0  RAL  2 1.1 0.0LRAL                1
 GAP=353       14.71      17.3   154.3230.8 -0.1288E+03 -0.1562E+05  0.1835E+02E
 ACTION:UPD 13-02-28 14:29 OP:RALL STATUS:               ID:20100803020650     I
 2010-08-03-0206-45S.PLUR1_006                                                 6
 STAT SP IPHASW D HRMM SECON CODA AMPLIT PERI AZIMU VELO AIN AR TRES W  DIS CAZ7
 LO8  SN IP        2 6 55.11                             122    1.8610 15.0 269 
 LO8  SZ E         2 6 55.16                  126.9  6.7     38        15.0 269 
 LO8  SE IS        2 6 57.02                             122    1.4910 15.0 269 
 LO8  SZ  AML      2 6 58.60         1.5 0.28                          15.0 269 
 LD5  SN IP        2 6 54.21                             107   -0.6110 26.2 276 
 LD5  SZ E         2 6 54.23                   37.5  9.8    -57        26.2 276 
 LD5  SE IS        2 6 55.49                             107   -2.7410 26.2 276 
 LD5  SZ  AML      2 6 56.00         5.5 0.36                          26.2 276 
                                                                                
 2010  8 3 0235  0.2 L  21.346 -99.289 10.0  RAL  1 0.1 0.8LRAL                1
 GAP=360        0.61      19.9    25.1  0.0 -0.4990E+03 -0.1562E+05  0.1835E+02E
 ACTION:UPD 13-02-28 14:29 OP:RALL STATUS:               ID:20100803023500     I
 2010-08-03-0234-53S.PLUR1_003                                                 6
 STAT SP IPHASW D HRMM SECON CODA AMPLIT PERI AZIMU VELO AIN AR TRES W  DIS CAZ7
 LZ4  SN IP        235  2.41                             166    0.3610 2.62 130 
 LZ4  SZ E         235  2.44                  310.3 22.0      0        2.62 130 
 LZ4  SE IS        235  3.07                             166   -0.3610 2.62 130 
 LZ4  SZ  AML      235  3.39        36.2 0.16                          2.62 130 
                                                                                
 2010  8 3 0337 34.6 L  21.245 -99.223 10.0  RAL  1 0.0 2.0LRAL                1
 GAP=360        0.30       4.5     2.4  0.0 -0.1093E+02 -0.1562E+05  0.1835E+02E
 ACTION:UPD 13-02-28 14:29 OP:RALL STATUS:               ID:20100803033734     I
 2010-08-03-0337-27S.PLUR1_003                                                 6
 STAT SP IPHASW D HRMM SECON CODA AMPLIT PERI AZIMU VELO AIN AR TRES W  DIS CAZ7
 LZ4  SZ E         337 37.12                  153.3 10.6      0        10.6 333 
 LZ4  SN IP     D  337 37.13                             133    0.0210 10.6 333 
 LZ4  SE IS     D  337 38.94                             133   -0.0210 10.6 333 
 LZ4  SZ  AML      337 39.60       365.7 0.56                          10.6 333 
                                                                                
 2010  8 3 0347 49.9 L  21.323 -99.287 10.0  RAL  1 0.2 1.0LRAL                1
 GAP=360        0.65      17.8    39.9  0.0  0.7126E+03 -0.1562E+05  0.1835E+02E
 ACTION:UPD 13-02-28 14:29 OP:RALL STATUS:               ID:20100803034749     I
 2010-08-03-0347-42S.PLUR1_003                                                 6
 STAT SP IPHASW D HRMM SECON CODA AMPLIT PERI AZIMU VELO AIN AR TRES W  DIS CAZ7
 LZ4  SZ E      C  347 52.02                  244.4 25.0      0        2.06  64 
 LZ4  SN IP     C  347 52.11                             169    0.3910 2.06  64 
 LZ4  SE IS        347 52.69                             169   -0.3910 2.06  64 
 LZ4  SZ  AML      347 53.14        57.2 0.16                          2.06  64 
                                                                                
 2010  8 3 0514 49.0 L  21.334 -99.282 10.0  RAL  1 0.1 0.7LRAL                1
 GAP=360        0.51     999.9   999.9  0.0  0.2974E+08 -0.1562E+05  0.1835E+02E
 ACTION:UPD 13-02-28 14:29 OP:RALL STATUS:               ID:20100803051449     I
 2010-08-03-0514-42S.PLUR1_006                                                 6
 STAT SP IPHASW D HRMM SECON CODA AMPLIT PERI AZIMU VELO AIN AR TRES W  DIS CAZ7
 LZ4  SZ E         514 51.08                  284.2 65.7      0        1.30 104 
 LZ4  SN IP        514 51.12                             173    0.2810 1.30 104 
 LZ4  SE IS     C  514 51.91                             173   -0.2810 1.30 104 
 LZ4  SZ  AML      514 52.21        27.6 0.34                          1.30 104 
                                                                                
 2010  8 3 0602 46.2 L  21.340 -99.297 10.0  RAL  1 0.0 0.7LRAL                1
 GAP=360        0.34       5.0    15.5  0.0 -0.7751E+02 -0.1562E+05  0.1835E+02E
 ACTION:UPD 13-02-28 14:29 OP:RALL STATUS:               ID:20100803060246     I
 2010-08-03-0602-38S.PLUR1_003                                                 6
 STAT SP IPHASW D HRMM SECON CODA AMPLIT PERI AZIMU VELO AIN AR TRES W  DIS CAZ7
 LZ4  SZ E         6 2 48.14                  289.1 23.6      0        2.97 109 
 LZ4  SN IP        6 2 48.18                             164    0.1110 2.97 109 
 LZ4  SE IS        6 2 49.34                             164   -0.1110 2.97 109 
 LZ4  SZ  AML      6 2 50.11        26.3 0.32                          2.97 109 
                                                                                
 2010  8 3 0605 33.6 L  21.313 -99.352 10.0  RAL  1 0.0 0.4LRAL                1
 GAP=360        0.30       4.0     1.1  0.0  0.3953E+01 -0.1562E+05  0.1835E+02E
 ACTION:UPD 13-02-28 14:29 OP:RALL STATUS:               ID:20100803060533     I
 2010-08-03-0605-29S.PLUR1_006                                                 6
 STAT SP IPHASW D HRMM SECON CODA AMPLIT PERI AZIMU VELO AIN AR TRES W  DIS CAZ7
 LA4  SN IP     D  6 5 37.30                             114    0.0210 19.4  13 
 LA4  SZ E         6 5 37.57                  193.3  7.5      0        19.4  13 
 LA4  SZ  AML      6 5 39.82         7.3 0.10                          19.4  13 
 LA4  SE IS        6 5 39.95                             114   -0.0210 19.4  13 
                                                                                
 2010  8 3 0612 19.0 L  21.392 -99.277 10.0  RAL  1 0.0 0.6LRAL                1
 GAP=360        0.30       4.8     1.7  0.0 -0.8030E+01 -0.1562E+05  0.1835E+02E
 ACTION:UPD 13-02-28 14:29 OP:RALL STATUS:               ID:20100803061219     I
 2010-08-03-0612-05S.PLUR1_006                                                 6
 STAT SP IPHASW D HRMM SECON CODA AMPLIT PERI AZIMU VELO AIN AR TRES W  DIS CAZ7
 LA4  SZ E         612 21.50                  161.9  8.4      0        10.6 342 
 LA4  SN IP        612 21.58                             133    0.0110 10.6 342 
 LA4  SE IS        612 23.42                             133   -0.0110 10.6 342 
 LA4  SZ  AML      612 23.59        15.3 0.18                          10.6 342 
                                                                                
 2010  8 3 0618 46.9 L  21.348 -99.260 10.0  RAL  1 0.1 0.5LRAL                1
 GAP=360        0.53      29.2    15.2  0.0  0.4433E+03 -0.1562E+05  0.1835E+02E
 ACTION:UPD 13-02-28 14:29 OP:RALL STATUS:               ID:20100803061846     I
 2010-08-03-0618-40S.PLUR1_003                                                 6
 STAT SP IPHASW D HRMM SECON CODA AMPLIT PERI AZIMU VELO AIN AR TRES W  DIS CAZ7
 LZ4  SZ E         618 49.06                   25.9 26.8      0        2.17 206 
 LZ4  SN IP        618 49.08                             168    0.3010 2.17 206 
 LZ4  SE IS        618 49.84                             168   -0.3010 2.17 206 
 LZ4  SZ  AML      618 49.94        17.1 0.16                          2.17 206 
                                                                                
 2010  8 3 0619 40.7 L  21.407 -99.289 10.0  RAL  1 0.0 0.8LRAL                1
 GAP=360        0.30       5.5     1.4  0.0 -0.7789E+01 -0.1562E+05  0.1835E+02E
 ACTION:UPD 13-02-28 14:29 OP:RALL STATUS:               ID:20100803061940     I
 2010-08-03-0619-22S.PLUR1_006                                                 6
 STAT SP IPHASW D HRMM SECON CODA AMPLIT PERI AZIMU VELO AIN AR TRES W  DIS CAZ7
 LA4  SN IP     C  619 43.04                             139    0.0110 8.78 346 
 LA4  SZ E         619 43.05                  166.3  6.9      0        8.78 346 
 LA4  SE IS     D  619 44.73                             139   -0.0110 8.78 346 
 LA4  SZ  AML      619 44.82        28.6 0.28                          8.78 346 
                                                                                
 2010  8 3 0628 35.7 L  21.342 -99.236 10.0  RAL  1 0.0 0.0LRAL                1
 GAP=360        0.30       3.8     2.0  0.0 -0.7194E+01 -0.1562E+05  0.1835E+02E
 ACTION:UPD 13-02-28 14:29 OP:RALL STATUS:               ID:20100803062835     I
 2010-08-03-0628-32S.PLUR1_003                                                 6
 STAT SP IPHASW D HRMM SECON CODA AMPLIT PERI AZIMU VELO AIN AR TRES W  DIS CAZ7
 LA4  SN IP        628 39.09                             117    0.0010 17.5 334 
 LA4  SZ E         628 39.30                  154.2  8.3      0        17.5 334 
 LA4  SE IS     D  628 41.58                             117    0.0010 17.5 334 
 LA4  SZ  AML      628 41.64         2.8 0.30                          17.5 334 
                                                                                
 2010  8 3 0652 58.3 L  21.300 -99.260 10.0  RAL  1 0.0 0.6LRAL                1
 GAP=360        0.32      11.7     3.6  0.0 -0.4209E+02 -0.1562E+05  0.1835E+02E
 ACTION:UPD 13-02-28 14:29 OP:RALL STATUS:               ID:20100803065258     I
 2010-08-03-0652-52S.PLUR1_003                                                 6
 STAT SP IPHASW D HRMM SECON CODA AMPLIT PERI AZIMU VELO AIN AR TRES W  DIS CAZ7
 LZ4  SZ E         653  0.19                  163.9 11.0      0        3.54 344 
 LZ4  SN IP        653  0.26                             161    0.0810 3.54 344 
 LZ4  SE IS        653  1.51                             161   -0.0810 3.54 344 
 LZ4  SZ  AML      653  1.99        23.6 0.20                          3.54 344 
                                                                                
 2010  8 3 0658 55.0 L  21.547 -99.340 10.0  RAL  1 0.0 0.4LRAL                1
 GAP=360        0.30       5.6     2.8  0.0 -0.1530E+02 -0.1562E+05  0.1835E+02E
 ACTION:UPD 13-02-28 14:29 OP:RALL STATUS:               ID:20100803065855     I
 2010-08-03-0658-49S.PLUR1_003                                                 6
 STAT SP IPHASW D HRMM SECON CODA AMPLIT PERI AZIMU VELO AIN AR TRES W  DIS CAZ7
 LA4  SN IP        658 57.22                             143    0.0210 7.73 155 
 LA4  SZ E         658 57.25                  335.2  7.9      0        7.73 155 
 LA4  SE IS        658 58.82                             143   -0.0210 7.73 155 
 LA4  SZ  AML      658 58.93        11.7 0.28                          7.73 155 
                                                                                
 2010  8 3 0721 58.8 L  21.349 -99.297 10.0  RAL  1 0.1 1.0LRAL                1
 GAP=360        0.43       9.6    14.4  0.0 -0.1376E+03 -0.1562E+05  0.1835E+02E
 ACTION:UPD 13-02-28 14:29 OP:RALL STATUS:               ID:20100803072158     I
 2010-08-03-0721-52S.PLUR1_003                                                 6
 STAT SP IPHASW D HRMM SECON CODA AMPLIT PERI AZIMU VELO AIN AR TRES W  DIS CAZ7
 LZ4  SZ E         722  0.92                  305.5 15.9      0        3.55 125 
 LZ4  SN IP        722  0.94                             161    0.2110 3.55 125 
 LZ4  SE IS        722  1.92                             161   -0.2110 3.55 125 
 LZ4  SZ  AML      722  2.03        52.5 0.28                          3.55 125 
                                                                                
 2010  8 3 0823 57.7 L  21.338 -99.286 10.0  RAL  1 0.1 0.6LRAL                1
 GAP=360        0.57      17.3    38.8  0.0 -0.6710E+03 -0.1562E+05  0.1835E+02E
 ACTION:UPD 13-02-28 14:29 OP:RALL STATUS:               ID:20100803082357     I
 2010-08-03-0823-51S.PLUR1_003                                                 6
 STAT SP IPHASW D HRMM SECON CODA AMPLIT PERI AZIMU VELO AIN AR TRES W  DIS CAZ7
 LZ4  SZ E         823 59.85                  295.6 31.8      0        1.85 116 
 LZ4  SN IP        823 59.87                             170    0.3310 1.85 116 
 LZ4  SE IS        824  0.57                             170   -0.3310 1.85 116 
 LZ4  SZ  AML      824  0.70        20.5 0.16                          1.85 116 
                                                                                
