 2010  9 1 0453 51.7 L  21.473 -99.313 10.0  RAL  1 0.1 0.4LRAL                1
 GAP=360        1.03     782.8   999.9  0.0 -0.1660E+07 -0.1716E+05  0.3314E+05E
 ACTION:UPD 13-02-28 14:29 OP:RALL STATUS:               ID:20100901045351     I
 2010-09-01-0453-44S.PLUR1_003                                                 6
 STAT SP IPHASW D HRMM SECON CODA AMPLIT PERI AZIMU VELO AIN AR TRES W  DIS CAZ7
 LA4  SZ E         453 53.84                  202.6 14.4      4        1.19  19 
 LA4  SN IP        453 53.87                             173    0.3410 1.19  19 
 LA4  SE IS        453 54.54                             173   -0.3410 1.19  19 
 LA4  SZ  AML      453 54.59        14.1 0.42                          1.19  19 
                                                                                
 2010  9 1 0514 30.7 L  21.386 -99.330 10.0  RAL  1 0.2 0.0LRAL                1
 GAP=360        0.70     999.9   999.9  0.0 -0.7152E+07 -0.1716E+05  0.3314E+05E
 ACTION:UPD 13-02-28 14:29 OP:RALL STATUS:               ID:20100901051430     I
 2010-09-01-0514-23S.PLUR1_003                                                 6
 STAT SP IPHASW D HRMM SECON CODA AMPLIT PERI AZIMU VELO AIN AR TRES W  DIS CAZ7
 LT9  SZ E         514 32.90                  199.6  6.4      0        1.09  19 
 LT9  SN IP        514 32.90                             174    0.4310 1.09  19 
 LT9  SE IS        514 33.35                             174   -0.4310 1.09  19 
 LT9  SZ  AML      514 34.07         6.1 0.40                          1.09  19 
                                                                                
 2010  9 1  935 16.1 L                       RAL  1                            1
 ACTION:UPD 13-02-28 14:29 OP:RALL STATUS:               ID:20100901093516     I
 2010-09-01-0935-16S.PLUR1_003                                                 6
 STAT SP IPHASW D HRMM SECON CODA AMPLIT PERI AZIMU VELO AIN AR TRES W  DIS CAZ7
 LA4  SN IP        935 25.22                                                    
 LA4  SZ E         935 25.29                                                    
 LA4  SE IS        935 26.33                                                    
 LA4  SZ  AML      935 26.76        30.9 0.28                                   
                                                                                
 2010  9 1 1819 12.1 L  21.503 -99.327 10.0  RAL  1 0.2-0.1LRAL                1
 GAP=360        0.73      26.6    24.9  0.0 -0.6625E+03 -0.1716E+05  0.3314E+05E
 ACTION:UPD 13-02-28 14:29 OP:RALL STATUS:               ID:20100901181912     I
 2010-09-01-1819-05S.PLUR1_003                                                 6
 STAT SP IPHASW D HRMM SECON CODA AMPLIT PERI AZIMU VELO AIN AR TRES W  DIS CAZ7
 LA4  SN IP       1819 14.42                             165    0.4510 2.79 139 
 LA4  SZ E        1819 14.45                  318.9  9.2      0        2.79 139 
 LA4  SE IS       1819 14.90                             165   -0.4510 2.79 139 
 LA4  SZ  AML     1819 14.99         4.3 0.18                          2.79 139 
                                                                                
 2010  9 1 1823 54.1 L  21.500 -99.320 10.0  RAL  1 0.2 1.1LRAL                1
 GAP=360        0.67      35.3    23.4  0.0 -0.8274E+03 -0.1716E+05  0.3314E+05E
 ACTION:UPD 13-02-28 14:29 OP:RALL STATUS:               ID:20100901182354     I
 2010-09-01-1823-46S.PLUR1_003                                                 6
 STAT SP IPHASW D HRMM SECON CODA AMPLIT PERI AZIMU VELO AIN AR TRES W  DIS CAZ7
 LA4  SN IP       1823 56.37                             168    0.4110 2.14 148 
 LA4  SZ E        1823 56.39                  328.3  9.0      0        2.14 148 
 LA4  SE IS       1823 56.93                             168   -0.4110 2.14 148 
 LA4  SZ  AML     1823 57.04        65.3 0.24                          2.14 148 
                                                                                
 2010  9 1 1931  5.8 L  21.243 -99.233  0.0  RAL  2 0.7 0.3LRAL                1
 GAP=347       10.37     115.6    60.3999.9 -0.6681E+04 -0.1821E+06  0.3596E+06E
 ACTION:UPD 13-02-28 14:29 OP:RALL STATUS:               ID:20100901193105     I
 2010-09-01-1931-00S.PLUR1_006                                                 6
 STAT SP IPHASW D HRMM SECON CODA AMPLIT PERI AZIMU VELO AIN AR TRES W  DIS CAZ7
 LT9  SZ E        1931 10.03                  173.1  7.3     23        19.4 330 
 LT9  SN IP       1931 10.04                              92    0.8410 19.4 330 
 LT9  SE IS       1931 10.38                              92   -1.3010 19.4 330 
 LT9  SZ  AML     1931 10.50         5.7 0.10                          19.4 330 
 LA4  SN IP       1931 11.68                              92    1.0210 27.8 344 
 LA4  SZ E        1931 11.73                  119.3 21.1    -43        27.8 344 
 LA4  SE IS       1931 13.63                              92   -0.5710 27.8 344 
 LA4  SZ  AML     1931 15.51         3.7 0.36                          27.8 344 
                                                                                
 2010  9 1 2338  8.1 L  21.366 -99.318 10.0  RAL  1 0.0 0.9LRAL                1
 GAP=360        0.30      11.6     3.3  0.0 -0.3841E+02 -0.1821E+06  0.3596E+06E
 ACTION:UPD 13-02-28 14:29 OP:RALL STATUS:               ID:20100901233808     I
 2010-09-01-2338-00S.PLUR1_003                                                 6
 STAT SP IPHASW D HRMM SECON CODA AMPLIT PERI AZIMU VELO AIN AR TRES W  DIS CAZ7
 LT9  SN IP       2338 10.05                             161    0.0510 3.35 345 
 LT9  SZ E        2338 10.06                  165.0  7.9      0        3.35 345 
 LT9  SE IS       2338 11.31                             161   -0.0510 3.35 345 
 LT9  SZ  AML     2338 11.61        46.1 0.20                          3.35 345 
                                                                                
 2010  9 2 0200 43.7 L  21.502 -99.326 10.0  RAL  1 0.1 0.2LRAL                1
 GAP=360        0.57      21.3    19.6  0.0 -0.4178E+03 -0.1821E+06  0.3596E+06E
 ACTION:UPD 13-02-28 14:29 OP:RALL STATUS:               ID:20100902020043     I
 2010-09-02-0200-36S.PLUR1_003                                                 6
 STAT SP IPHASW D HRMM SECON CODA AMPLIT PERI AZIMU VELO AIN AR TRES W  DIS CAZ7
 LA4  SN IP        2 0 45.88                             165    0.3310 2.71 139 
 LA4  SZ E         2 0 45.89                  319.5  8.2      0        2.71 139 
 LA4  SE IS        2 0 46.61                             165   -0.3310 2.71 139 
 LA4  SZ  AML      2 0 46.86         7.9 0.28                          2.71 139 
                                                                                
 2010  9 2 2109 58.2 L  21.492 -99.315 10.0  RAL  1 0.2 0.6LRAL                1
 GAP=360        2.15     999.9   999.9  0.0  0.2700E+08 -0.1821E+06  0.3596E+06E
 ACTION:UPD 13-02-28 14:29 OP:RALL STATUS:               ID:20100902210958     I
 2010-09-02-2109-51S.PLUR1_003                                                 6
 STAT SP IPHASW D HRMM SECON CODA AMPLIT PERI AZIMU VELO AIN AR TRES W  DIS CAZ7
 LA4  SN IP       2110  0.46                             174    0.3710 1.15 145 
 LA4  SZ E        2110  0.51                  335.1  5.5     10        1.15 145 
 LA4  SE IS       2110  1.08                             174   -0.3710 1.15 145 
 LA4  SZ  AML     2110  1.18        21.0 0.28                          1.15 145 
                                                                                
 2010  9 3  022 54.2 L                       RAL  1                            1
 ACTION:UPD 13-02-28 14:29 OP:RALL STATUS:               ID:20100903002254     I
 2010-09-03-0022-54S.PLUR1_003                                                 6
 STAT SP IPHASW D HRMM SECON CODA AMPLIT PERI AZIMU VELO AIN AR TRES W  DIS CAZ7
 LA4  SN IP        023  3.86                                                    
 LA4  SZ E         023  3.86                                                    
 LA4  SE IS        023  4.33                                                    
                                                                                
 2010  9 3 0147  3.0 L  21.358 -99.311 10.0  RAL  1 0.0-0.3LRAL                1
 GAP=360        0.31       8.8     3.6  0.0 -0.3190E+02 -0.1821E+06  0.3596E+06E
 ACTION:UPD 13-02-28 14:29 OP:RALL STATUS:               ID:20100903014703     I
 2010-09-03-0146-56S.PLUR1_003                                                 6
 STAT SP IPHASW D HRMM SECON CODA AMPLIT PERI AZIMU VELO AIN AR TRES W  DIS CAZ7
 LT9  SN IP        147  4.94                             156    0.0510 4.38 339 
 LT9  SZ E         147  4.94                  159.2  8.4      0        4.38 339 
 LT9  SE IS        147  6.24                             156   -0.0510 4.38 339 
 LT9  SZ  AML      147  6.62         2.5 0.38                          4.38 339 
                                                                                
 2010  9 3 1723 17.5 L  21.317 -99.303 10.0  RAL  1 0.0-0.5LRAL                1
 GAP=360        0.30       5.2     1.6  0.0 -0.8358E+01 -0.1821E+06  0.3596E+06E
 ACTION:UPD 13-02-28 14:29 OP:RALL STATUS:               ID:20100903172317     I
 2010-09-03-1723-11S.PLUR1_003                                                 6
 STAT SP IPHASW D HRMM SECON CODA AMPLIT PERI AZIMU VELO AIN AR TRES W  DIS CAZ7
 LT9  SZ E        1723 19.80                  164.1  7.5      0        8.97 344 
 LT9  SN IP       1723 19.81                             137    0.0110 8.97 344 
 LT9  SE IS       1723 21.47                             137   -0.0110 8.97 344 
 LT9  SZ  AML     1723 22.69         1.5 0.12                          8.97 344 
                                                                                
 2010  9 4 0759 23.9 L  21.486 -99.329 10.0  RAL  1 0.2 0.2LRAL                1
 GAP=360        0.72       5.8    47.7  0.0 -0.2758E+03 -0.1821E+06  0.3596E+06E
 ACTION:UPD 13-02-28 14:29 OP:RALL STATUS:               ID:20100904075923     I
 2010-09-04-0759-17S.PLUR1_003                                                 6
 STAT SP IPHASW D HRMM SECON CODA AMPLIT PERI AZIMU VELO AIN AR TRES W  DIS CAZ7
 LA4  SZ E         759 26.19                  276.5 15.4      0        2.14  97 
 LA4  SN IP        759 26.20                             168    0.4310 2.14  97 
 LA4  SE IS        759 26.72                             168   -0.4310 2.14  97 
 LA4  SZ  AML      759 26.88         9.5 0.16                          2.14  97 
                                                                                
 2010  9 4 1622 46.5 L  21.405 -99.338  2.5  RAL  2 0.1 0.1LRAL                1
 GAP=246        0.55       1.3     0.8  4.1  0.8935E+00 -0.1266E+01 -0.2441E+01E
 ACTION:UPD 13-02-28 14:29 OP:RALL STATUS:               ID:20100904162246     I
 2010-09-04-1622-37S.PLUR1_006                                                 6
 STAT SP IPHASW D HRMM SECON CODA AMPLIT PERI AZIMU VELO AIN AR TRES W  DIS CAZ7
 LT9  SN IP       1622 46.94                             152   -0.1810 1.57 132 
 LT9  SZ E        1622 46.95                  313.5 12.1      1        1.57 132 
 LT9  SE IS       1622 47.58                             152    0.0110 1.57 132 
 LT9  SZ  AML     1622 47.69         8.8 0.10                          1.57 132 
 LA4  SZ E        1622 48.07                  199.2  7.9      0        9.21  19 
 LA4  SN IP       1622 48.09                             111   -0.1310 9.21  19 
 LA4  SE IS       1622 49.79                             111    0.3010 9.21  19 
 LA4  SZ  AML     1622 50.03        15.9 0.16                          9.21  19 
                                                                                
 2010  9 4 2020 12.1 L  21.500 -99.319 10.0  RAL  1 0.1 0.1LRAL                1
 GAP=360        0.54      29.7    18.6  0.0 -0.5529E+03 -0.1266E+01 -0.2441E+01E
 ACTION:UPD 13-02-28 14:29 OP:RALL STATUS:               ID:20100904202012     I
 2010-09-04-2020-05S.PLUR1_003                                                 6
 STAT SP IPHASW D HRMM SECON CODA AMPLIT PERI AZIMU VELO AIN AR TRES W  DIS CAZ7
 LA4  SZ E        2020 14.27                  329.8 10.5      0        2.08 150 
 LA4  SZ IP       2020 14.28                             169    0.3010 2.08 150 
 LA4  SN IP       2020 14.29                             167           2.08 150 
 LA4  SN E        2020 14.30                                           2.08 150 
 LA4  SE IS       2020 15.04                             169   -0.3010 2.08 150 
 LA4  SZ  AML     2020 15.11         7.8 0.24                          2.08 150 
                                                                                
 2010  9 4 2309 40.0 L  21.247 -99.231 10.0  RAL  1 0.0 0.5LRAL                1
 GAP=360        0.30       3.5     2.3  0.0 -0.7656E+01 -0.1266E+01 -0.2441E+01E
 ACTION:UPD 13-02-28 14:29 OP:RALL STATUS:               ID:20100904230940     I
 2010-09-04-2309-36S.PLUR1_003                                                 6
 STAT SP IPHASW D HRMM SECON CODA AMPLIT PERI AZIMU VELO AIN AR TRES W  DIS CAZ7
 LT9  SN IP       23 9 43.59                             114    0.0010 19.1 329 
 LT9  SZ E        23 9 43.62                  148.8  9.1      0        19.1 329 
 LT9  SE IS       23 9 46.22                             114    0.0010 19.1 329 
 LT9  SZ  AML     23 9 47.70         9.0 0.22                          19.1 329 
                                                                                
 2010  9 5 0842 54.9 L  21.371 -99.316 10.0  RAL  1 0.1-0.4LRAL                1
 GAP=360        0.38      15.9     6.8  0.0 -0.1079E+03 -0.1266E+01 -0.2441E+01E
 ACTION:UPD 13-02-28 14:29 OP:RALL STATUS:               ID:20100905084254     I
 2010-09-05-0842-48S.PLUR1_003                                                 6
 STAT SP IPHASW D HRMM SECON CODA AMPLIT PERI AZIMU VELO AIN AR TRES W  DIS CAZ7
 LT9  SZ E         842 56.88                  158.3  8.3      0        2.89 338 
 LT9  SN IP        842 56.90                             164    0.1610 2.89 338 
 LT9  SE IS        842 57.92                             164   -0.1610 2.89 338 
 LT9  SZ  AML      842 58.19         2.2 0.12                          2.89 338 
                                                                                
 2010  9 5 1218 58.5 L  21.319 -99.169 10.0  RAL  1 0.0 0.5LRAL                1
 GAP=360        0.30       3.1     2.7  0.0 -0.7861E+01 -0.1266E+01 -0.2441E+01E
 ACTION:UPD 13-02-28 14:29 OP:RALL STATUS:               ID:20100905121858     I
 2010-09-05-1218-56S.PLUR1_003                                                 6
 STAT SP IPHASW D HRMM SECON CODA AMPLIT PERI AZIMU VELO AIN AR TRES W  DIS CAZ7
 LA4  SZ E        1219  2.71                  141.4  5.6      0        23.3 321 
 LA4  SN IP       1219  2.73                             110    0.0010 23.3 321 
 LA4  SE IS       1219  5.83                             110    0.0010 23.3 321 
 LA4  SZ  AML     1219  6.32         8.3 0.18                          23.3 321 
                                                                                
 2010  9 5 1452  4.9 L  21.336 -99.296 10.0  RAL  1 0.0-0.1LRAL                1
 GAP=360        0.30       5.6     2.9  0.0 -0.1615E+02 -0.1266E+01 -0.2441E+01E
 ACTION:UPD 13-02-28 14:29 OP:RALL STATUS:               ID:20100905145204     I
 2010-09-05-1451-58S.PLUR1_003                                                 6
 STAT SP IPHASW D HRMM SECON CODA AMPLIT PERI AZIMU VELO AIN AR TRES W  DIS CAZ7
 LT9  SZ E        1452  7.06                  154.3  8.1      0        7.33 334 
 LT9  SN IP       1452  7.07                             143    0.0210 7.33 334 
 LT9  SE IS       1452  8.59                             143   -0.0210 7.33 334 
 LT9  SZ  AML     1452  9.16         3.8 0.58                          7.33 334 
                                                                                
 2010  9 5 1505 21.5 L  21.541 -99.330 10.0  RAL  1 0.0 0.9LRAL                1
 GAP=360        0.30       6.4     2.3  0.0 -0.1456E+02 -0.1266E+01 -0.2441E+01E
 ACTION:UPD 13-02-28 14:29 OP:RALL STATUS:               ID:20100905150521     I
 2010-09-05-1505-15S.PLUR1_003                                                 6
 STAT SP IPHASW D HRMM SECON CODA AMPLIT PERI AZIMU VELO AIN AR TRES W  DIS CAZ7
 LA4  SZ E        15 5 23.63                  341.6  7.6      0        6.73 162 
 LA4  SN IP       15 5 23.66                             147    0.0210 6.73 162 
 LA4  SE IS       15 5 25.20                             147   -0.0210 6.73 162 
 LA4  SZ  AML     15 5 25.42        38.5 0.10                          6.73 162 
                                                                                
 2010  9 5 1601 17.9 L  21.250 -99.225 10.0  RAL  1 0.0 0.2LRAL                1
 GAP=360        0.30       3.4     2.4  0.0 -0.7911E+01 -0.1266E+01 -0.2441E+01E
 ACTION:UPD 13-02-28 14:29 OP:RALL STATUS:               ID:20100905160117     I
 2010-09-05-1601-14S.PLUR1_003                                                 6
 STAT SP IPHASW D HRMM SECON CODA AMPLIT PERI AZIMU VELO AIN AR TRES W  DIS CAZ7
 LT9  SZ E        16 1 21.52                  146.7  9.0      0        19.2 327 
 LT9  SN IP       16 1 21.56                             114    0.0010 19.2 327 
 LT9  SE IS       16 1 24.20                             114    0.0010 19.2 327 
 LT9  SZ  AML     16 1 25.08         4.0 0.44                          19.2 327 
                                                                                
 2010  9 6 0059 13.9 L  21.234 -99.369 10.0  RAL  1 0.0 0.0LRAL                1
 GAP=360        0.30       4.0     1.2  0.0  0.4192E+01 -0.1266E+01 -0.2441E+01E
 ACTION:UPD 13-02-28 14:29 OP:RALL STATUS:               ID:20100906005913     I
 2010-09-06-0059-09S.PLUR1_003                                                 6
 STAT SP IPHASW D HRMM SECON CODA AMPLIT PERI AZIMU VELO AIN AR TRES W  DIS CAZ7
 LT9  SN IP        059 17.42                             115    0.0210 18.4  14 
 LT9  SZ E         059 17.42                  194.0  8.0      0        18.4  14 
 LT9  SE IS        059 19.94                             115   -0.0210 18.4  14 
 LT9  SZ  AML      059 20.58         2.6 0.22                          18.4  14 
                                                                                
 2010  9 6 0106  4.9 L  21.345 -99.311 10.0  RAL  1 0.0 0.4LRAL                1
 GAP=360        0.30       7.1     2.2  0.0 -0.1577E+02 -0.1266E+01 -0.2441E+01E
 ACTION:UPD 13-02-28 14:29 OP:RALL STATUS:               ID:20100906010604     I
 2010-09-06-0105-57S.PLUR1_003                                                 6
 STAT SP IPHASW D HRMM SECON CODA AMPLIT PERI AZIMU VELO AIN AR TRES W  DIS CAZ7
 LT9  SN IP        1 6  6.92                             150    0.0210 5.76 344 
 LT9  SZ E         1 6  6.93                  163.7  7.5      0        5.76 344 
 LT9  SE IS        1 6  8.35                             150   -0.0210 5.76 344 
 LT9  SZ  AML      1 6  8.46        12.6 0.34                          5.76 344 
                                                                                
