 2010  8 3 0825 28.1 L  21.338 -99.290 10.0  RAL  1 0.1 0.8LRAL                1
 GAP=360        0.45       9.2    26.8  0.0 -0.2468E+03 -0.1562E+05  0.1835E+02E
 ACTION:UPD 13-02-28 14:29 OP:RALL STATUS:               ID:20100803082528     I
 2010-08-03-0825-21S.PLUR1_003                                                 6
 STAT SP IPHASW D HRMM SECON CODA AMPLIT PERI AZIMU VELO AIN AR TRES W  DIS CAZ7
 LZ4  SZ E         825 30.17                  290.3 23.6      0        2.21 110 
 LZ4  SN IP        825 30.20                             168    0.2310 2.21 110 
 LZ4  SE IS        825 31.11                             168   -0.2310 2.21 110 
 LZ4  SZ  AML      825 31.52        31.4 0.10                          2.21 110 
                                                                                
 2010  8 3 0854 43.0 L  21.338 -99.301 10.0  RAL  1 0.0 1.5LRAL                1
 GAP=360        0.30       4.3     0.5  0.0 -0.9542E+00 -0.1562E+05  0.1835E+02E
 ACTION:UPD 13-02-28 14:29 OP:RALL STATUS:               ID:20100803085443     I
 2010-08-03-0854-37S.PLUR1_003                                                 6
 STAT SP IPHASW D HRMM SECON CODA AMPLIT PERI AZIMU VELO AIN AR TRES W  DIS CAZ7
 LA4  SZ E         854 46.22                  177.2  7.6      0        16.1 357 
 LA4  SN IP        854 46.24                             120    0.0210 16.1 357 
 LA4  SE IS        854 48.56                             120   -0.0210 16.1 357 
 LA4  SZ  AML      854 49.44        97.3 0.16                          16.1 357 
                                                                                
 2010  8 3 0904 59.9 L  21.288 -99.254 10.0  RAL  1 0.0 1.3LRAL                1
 GAP=360        0.30       8.0     3.0  0.0 -0.2366E+02 -0.1562E+05  0.1835E+02E
 ACTION:UPD 13-02-28 14:29 OP:RALL STATUS:               ID:20100803090459     I
 2010-08-03-0904-52S.PLUR1_003                                                 6
 STAT SP IPHASW D HRMM SECON CODA AMPLIT PERI AZIMU VELO AIN AR TRES W  DIS CAZ7
 LZ4  SN IP        9 5  1.90                             154    0.0310 5.03 341 
 LZ4  SZ E         9 5  1.94                  160.9  8.2      0        5.03 341 
 LZ4  SE IS        9 5  3.31                             154   -0.0310 5.03 341 
 LZ4  SZ  AML      9 5  3.51        92.4 0.26                          5.03 341 
                                                                                
 2010  8 3 0916 53.5 L  21.336 -99.275 10.0  RAL  1 0.6 1.1LRAL                1
 GAP=360        7.57     999.9   999.9  0.0  0.3374E+08 -0.1562E+05  0.1835E+02E
 ACTION:UPD 13-02-28 14:29 OP:RALL STATUS:               ID:20100803091653     I
 2010-08-03-0916-46S.PLUR1_003                                                 6
 STAT SP IPHASW D HRMM SECON CODA AMPLIT PERI AZIMU VELO AIN AR TRES W  DIS CAZ7
 LZ4  SZ E         916 55.73                  278.6 44.0    -35        0.79 135 
 LZ4  SN IP        916 55.73                             176    0.4210 0.79 135 
 LZ4  SE IS        916 56.22                             176   -0.4210 0.79 135 
 LZ4  SZ  AML      916 56.68        74.9 0.24                          0.79 135 
                                                                                
 2010  8 3 0926 44.8 L  21.328 -99.234 10.0  RAL  1 0.0 0.8LRAL                1
 GAP=360        0.30       1.0    11.9  0.0 -0.1174E+02 -0.1562E+05  0.1835E+02E
 ACTION:UPD 13-02-28 14:29 OP:RALL STATUS:               ID:20100803092644     I
 2010-08-03-0926-37S.PLUR1_003                                                 6
 STAT SP IPHASW D HRMM SECON CODA AMPLIT PERI AZIMU VELO AIN AR TRES W  DIS CAZ7
 LZ4  SN IP        926 46.80                             160    0.0210 3.65 275 
 LZ4  SZ E         926 46.99                   95.1 15.0      0        3.65 275 
 LZ4  SE IS        926 48.16                             160   -0.0210 3.65 275 
 LZ4  SZ  AML      926 48.36        32.1 0.36                          3.65 275 
                                                                                
 2010  8 3 0932 37.3 L  21.289 -99.253 10.0  RAL  1 0.0 0.7LRAL                1
 GAP=360        0.30       8.0     3.1  0.0 -0.2523E+02 -0.1562E+05  0.1835E+02E
 ACTION:UPD 13-02-28 14:29 OP:RALL STATUS:               ID:20100803093237     I
 2010-08-03-0932-30S.PLUR1_003                                                 6
 STAT SP IPHASW D HRMM SECON CODA AMPLIT PERI AZIMU VELO AIN AR TRES W  DIS CAZ7
 LZ4  SN IP        932 39.32                             154    0.0310 4.97 340 
 LZ4  SZ E         932 39.34                  160.0 13.0      0        4.97 340 
 LZ4  SE IS        932 40.72                             154   -0.0310 4.97 340 
 LZ4  SZ  AML      932 41.40        26.0 0.20                          4.97 340 
                                                                                
 2010  8 3 0946 21.0 L  21.480 -99.317 22.5  RAL  3 1.5 0.9LRAL                1
 GAP=243       26.38      29.8    72.7253.5  0.1602E+04 -0.1183E+04 -0.4028E+03E
 ACTION:UPD 13-02-28 14:29 OP:RALL STATUS:               ID:20100803094621     I
 2010-08-03-0946-14S.PLUR1_012                                                 6
 STAT SP IPHASW D HRMM SECON CODA AMPLIT PERI AZIMU VELO AIN AR TRES W  DIS CAZ7
 LA4  SZ E         946 23.89                  251.7 12.2      8        0.98  63 
 LA4  SN IP        946 23.95                             147   -0.8310 0.98  63 
 LA4  SE IS        946 27.56                             147    0.0310 0.98  63 
 LA4  SZ  AML      946 32.01       109.2 0.68                          0.98  63 
 LD5  SZ E         946 26.48                  334.5 11.3     26        32.5 180 
 LD5  SN IP        946 26.56                             162   -0.8210 32.5 180 
 LD5  SE IS        946 32.16                             162    0.1310 32.5 180 
 LD5  SZ  AML      946 36.22         5.4 0.42                          32.5 180 
 LO8  SN IP        946 27.80                             171   -0.2210 37.0 163 
 LO8  SZ E         946 27.84                  132.6  6.3    150        37.0 163 
 LO8  SE IS        946 34.84                             171    1.7110 37.0 163 
 LO8  SZ  AML      946 37.23         5.3 0.70                          37.0 163 
                                                                                
 2010  8 3 1021 12.2 L  21.390 -98.791  5.0  RAL  2 1.5 0.8LRAL                1
 GAP=352       20.85     467.5   983.1999.9  0.4531E+06  0.1944E+07  0.9168E+06E
 ACTION:UPD 13-02-28 14:29 OP:RALL STATUS:               ID:20100803102112     I
 2010-08-03-1021-11S.PLUR1_009                                                 6
 STAT SP IPHASW D HRMM SECON CODA AMPLIT PERI AZIMU VELO AIN AR TRES W  DIS CAZ7
 LO8  SN IP       1021 23.05                              63    2.8410 50.7 240 
 LO8  SZ E        1021 23.09                  141.3  7.2     82        50.7 240 
 LO8  SE IS       1021 26.52                              63    0.4310 50.7 240 
 LO8  SZ  AML     1021 27.43         9.2 0.74                          50.7 240 
 LD5  SN IP       1021 22.08                              63    0.5510 59.3 248 
 LD5  SZ E        1021 22.09                   11.1  7.9    -55        59.3 248 
 LD5  SE IS       1021 24.55                              63   -3.8210 59.3 248 
 LD5  SZ  AML     1021 26.91         5.7 0.36                          59.3 248 
                                                                                
 2010  8 3 1025 50.3 L  21.324 -99.286 10.0  RAL  1 0.2 1.0LRAL                1
 GAP=360        0.80     999.9   898.0  0.0 -0.1616E+07  0.1944E+07  0.9168E+06E
 ACTION:UPD 13-02-28 14:29 OP:RALL STATUS:               ID:20100803102550     I
 2010-08-03-1025-42S.PLUR1_003                                                 6
 STAT SP IPHASW D HRMM SECON CODA AMPLIT PERI AZIMU VELO AIN AR TRES W  DIS CAZ7
 LZ4  SZ E        1025 52.65                  246.6 30.2      0        1.91  67 
 LZ4  SN IP       1025 52.68                             170    0.5010 1.91  67 
 LZ4  SE IS       1025 53.03                             170   -0.5010 1.91  67 
 LZ4  SZ  AML     1025 53.90        49.9 0.20                          1.91  67 
                                                                                
 2010  8 3 1047 23.9 L  21.222 -98.832 10.0  RAL  2 1.5 0.6LRAL                1
 GAP=355       21.98      78.5   379.0999.9  0.1871E+05 -0.6523E+06 -0.8919E+05E
 ACTION:UPD 13-02-28 14:29 OP:RALL STATUS:               ID:20100803104723     I
 2010-08-03-1047-21S.PLUR1_009                                                 6
 STAT SP IPHASW D HRMM SECON CODA AMPLIT PERI AZIMU VELO AIN AR TRES W  DIS CAZ7
 LO8  SN IP       1047 33.09                             100    2.4110 40.1 260 
 LO8  SZ E        1047 33.10                  147.4  6.2     67        40.1 260 
 LO8  SE IS       1047 36.57                             100    0.9210 40.1 260 
 LO8  SZ  AML     1047 37.51         5.9 0.74                          40.1 260 
 LD5  SZ E        1047 32.26                    4.2  8.8    -80        50.8 266 
 LD5  SN IP       1047 32.30                              97    0.0110 50.8 266 
 LD5  SE IS       1047 35.10                              97   -3.3410 50.8 266 
 LD5  SZ  AML     1047 37.06         4.2 0.28                          50.8 266 
                                                                                
 2010  8 3 1053 46.8 L  21.296 -99.235 10.0  RAL  1 0.0 1.3LRAL                1
 GAP=360        0.32       6.3     6.4  0.0 -0.4055E+02 -0.6523E+06 -0.8919E+05E
 ACTION:UPD 13-02-28 14:29 OP:RALL STATUS:               ID:20100803105346     I
 2010-08-03-1053-39S.PLUR1_003                                                 6
 STAT SP IPHASW D HRMM SECON CODA AMPLIT PERI AZIMU VELO AIN AR TRES W  DIS CAZ7
 LZ4  SZ E        1053 48.91                  136.7 22.6      0        5.24 317 
 LZ4  SN IP       1053 48.92                             153    0.0810 5.24 317 
 LZ4  SE IS       1053 50.24                             153   -0.0810 5.24 317 
 LZ4  SZ  AML     1053 50.60        99.6 0.20                          5.24 317 
                                                                                
 2010  8 3 1114 33.6 L  21.337 -99.284 10.0  RAL  1 0.1 0.9LRAL                1
 GAP=360        0.57      18.4    45.1  0.0 -0.8291E+03 -0.6523E+06 -0.8919E+05E
 ACTION:UPD 13-02-28 14:29 OP:RALL STATUS:               ID:20100803111433     I
 2010-08-03-1114-27S.PLUR1_003                                                 6
 STAT SP IPHASW D HRMM SECON CODA AMPLIT PERI AZIMU VELO AIN AR TRES W  DIS CAZ7
 LZ4  SZ E        1114 35.79                  293.7 23.5      0        1.62 114 
 LZ4  SN IP       1114 35.82                             171    0.3310 1.62 114 
 LZ4  SE IS       1114 36.51                             171   -0.3310 1.62 114 
 LZ4  SZ  AML     1114 37.04        45.3 0.14                          1.62 114 
                                                                                
 2010  8 3 1115 46.1 L  21.326 -99.280 10.0  RAL  1 0.0 0.8LRAL                1
 GAP=360        0.30       4.1     0.9  0.0 -0.3101E+01 -0.6523E+06 -0.8919E+05E
 ACTION:UPD 13-02-28 14:29 OP:RALL STATUS:               ID:20100803111546     I
 2010-08-03-1115-42S.PLUR1_003                                                 6
 STAT SP IPHASW D HRMM SECON CODA AMPLIT PERI AZIMU VELO AIN AR TRES W  DIS CAZ7
 LA4  SZ E        1115 49.60                  170.2  7.7      0        17.7 350 
 LA4  SN IP       1115 49.60                             117    0.0210 17.7 350 
 LA4  SE IS       1115 52.08                             117   -0.0210 17.7 350 
 LA4  SZ  AML     1115 52.43        19.9 0.20                          17.7 350 
                                                                                
 2010  8 3 1136 37.5 L  21.414 -99.352 10.0  RAL  1 0.0 1.9LRAL                1
 GAP=360        0.30       3.4     3.4  0.0 -0.1162E+02 -0.6523E+06 -0.8919E+05E
 ACTION:UPD 13-02-28 14:29 OP:RALL STATUS:               ID:20100803113637     I
 2010-08-03-1136-30S.PLUR1_003                                                 6
 STAT SP IPHASW D HRMM SECON CODA AMPLIT PERI AZIMU VELO AIN AR TRES W  DIS CAZ7
 LZ4  SZ E        1136 40.25                  317.0  6.2      0        12.6 137 
 LZ4  SN IP       1136 40.28                             127    0.0210 12.6 137 
 LZ4  SE IS       1136 42.26                             127   -0.0210 12.6 137 
 LZ4  SZ  AML     1136 43.39       282.3 0.30                          12.6 137 
                                                                                
 2010  8 3 1157 12.0 L  21.484 -99.141 10.0  RAL  1 0.0 0.6LRAL                1
 GAP=360        0.30       3.1     2.7  0.0  0.8060E+01 -0.6523E+06 -0.8919E+05E
 ACTION:UPD 13-02-28 14:29 OP:RALL STATUS:               ID:20100803115712     I
 2010-08-03-1157-09S.PLUR1_003                                                 6
 STAT SP IPHASW D HRMM SECON CODA AMPLIT PERI AZIMU VELO AIN AR TRES W  DIS CAZ7
 LZ4  SN IP       1157 16.00                             111    0.0010 21.6 218 
 LZ4  SZ E        1157 16.05                   38.1  7.5      0        21.6 218 
 LZ4  SE IS       1157 18.91                             111    0.0010 21.6 218 
 LZ4  SZ  AML     1157 19.37        10.4 0.10                          21.6 218 
                                                                                
 2010  8 3 1240  4.8 L  21.347 -99.296 10.0  RAL  1 0.1 0.7LRAL                1
 GAP=360        0.45      10.4    16.7  0.0 -0.1737E+03 -0.6523E+06 -0.8919E+05E
 ACTION:UPD 13-02-28 14:29 OP:RALL STATUS:               ID:20100803124004     I
 2010-08-03-1239-58S.PLUR1_003                                                 6
 STAT SP IPHASW D HRMM SECON CODA AMPLIT PERI AZIMU VELO AIN AR TRES W  DIS CAZ7
 LZ4  SZ E        1240  6.98                  303.7 17.3      0        3.25 124 
 LZ4  SN IP       1240  6.98                             162    0.2310 3.25 124 
 LZ4  SE IS       1240  7.91                             162   -0.2310 3.25 124 
 LZ4  SZ  AML     1240  8.87        26.4 0.50                          3.25 124 
                                                                                
 2010  8 3 1309 46.4 L  21.271 -99.250 10.0  RAL  1 0.0 0.9LRAL                1
 GAP=360        0.30       6.3     2.0  0.0 -0.1276E+02 -0.6523E+06 -0.8919E+05E
 ACTION:UPD 13-02-28 14:29 OP:RALL STATUS:               ID:20100803130946     I
 2010-08-03-1309-38S.PLUR1_003                                                 6
 STAT SP IPHASW D HRMM SECON CODA AMPLIT PERI AZIMU VELO AIN AR TRES W  DIS CAZ7
 LZ4  SZ E        13 9 48.56                  163.2 11.7      0        6.91 343 
 LZ4  SN IP       13 9 48.57                             146    0.0110 6.91 343 
 LZ4  SE IS       13 9 50.12                             146   -0.0110 6.91 343 
 LZ4  SZ  AML     13 9 50.44        41.4 0.36                          6.91 343 
                                                                                
 2010  8 3 1312 40.3 L  21.275 -99.250 10.0  RAL  1 0.0 1.2LRAL                1
 GAP=360        0.30       6.6     2.3  0.0 -0.1504E+02 -0.6523E+06 -0.8919E+05E
 ACTION:UPD 13-02-28 14:29 OP:RALL STATUS:               ID:20100803131240     I
 2010-08-03-1312-33S.PLUR1_003                                                 6
 STAT SP IPHASW D HRMM SECON CODA AMPLIT PERI AZIMU VELO AIN AR TRES W  DIS CAZ7
 LZ4  SZ E        1312 42.42                  161.9 10.8      0        6.48 342 
 LZ4  SN IP       1312 42.46                             147    0.0210 6.48 342 
 LZ4  SE IS       1312 43.97                             147   -0.0210 6.48 342 
 LZ4  SZ  AML     1312 44.31        69.7 0.36                          6.48 342 
                                                                                
 2010  8 3 1315 17.9 L  21.295 -99.229 10.0  RAL  1 0.0 0.9LRAL                1
 GAP=360        0.31       5.3     6.1  0.0 -0.3227E+02 -0.6523E+06 -0.8919E+05E
 ACTION:UPD 13-02-28 14:29 OP:RALL STATUS:               ID:20100803131517     I
 2010-08-03-1315-11S.PLUR1_003                                                 6
 STAT SP IPHASW D HRMM SECON CODA AMPLIT PERI AZIMU VELO AIN AR TRES W  DIS CAZ7
 LZ4  SZ E        1315 20.03                  133.2 19.9      0        5.82 313 
 LZ4  SN IP       1315 20.03                             150    0.0610 5.82 313 
 LZ4  SE IS       1315 21.42                             150   -0.0610 5.82 313 
 LZ4  SZ  AML     1315 21.59        41.7 0.34                          5.82 313 
                                                                                
 2010  8 3 1325  3.7 L  21.301 -99.251 10.0  RAL  1 0.1 0.5LRAL                1
 GAP=360        0.38      11.7     7.5  0.0 -0.8801E+02 -0.6523E+06 -0.8919E+05E
 ACTION:UPD 13-02-28 14:29 OP:RALL STATUS:               ID:20100803132503     I
 2010-08-03-1324-57S.PLUR1_003                                                 6
 STAT SP IPHASW D HRMM SECON CODA AMPLIT PERI AZIMU VELO AIN AR TRES W  DIS CAZ7
 LZ4  SZ E        1325  5.73                  149.0 14.2      0        3.81 329 
 LZ4  SN IP       1325  5.77                             160    0.1610 3.81 329 
 LZ4  SE IS       1325  6.86                             160   -0.1610 3.81 329 
 LZ4  SZ  AML     1325  7.10        16.2 0.46                          3.81 329 
                                                                                
 2010  8 3 1334 55.2 L  21.402 -99.271 10.0  RAL  1 0.0 0.1LRAL                1
 GAP=360        0.30       4.9     2.3  0.0 -0.1096E+02 -0.6523E+06 -0.8919E+05E
 ACTION:UPD 13-02-28 14:29 OP:RALL STATUS:               ID:20100803133455     I
 2010-08-03-1334-50S.PLUR1_003                                                 6
 STAT SP IPHASW D HRMM SECON CODA AMPLIT PERI AZIMU VELO AIN AR TRES W  DIS CAZ7
 LA4  SN IP       1334 57.70                             135    0.0210 9.81 337 
 LA4  SZ E        1334 57.72                  156.5  7.8      0        9.81 337 
 LA4  SE IS       1334 59.45                             135   -0.0210 9.81 337 
 LA4  SZ  AML     1334 59.58         5.2 0.14                          9.81 337 
                                                                                
 2010  8 3 1342  1.3 L  21.273 -99.245 10.0  RAL  1 0.0 0.4LRAL                1
 GAP=360        0.30       6.1     2.6  0.0 -0.1609E+02 -0.6523E+06 -0.8919E+05E
 ACTION:UPD 13-02-28 14:29 OP:RALL STATUS:               ID:20100803134201     I
 2010-08-03-1341-54S.PLUR1_003                                                 6
 STAT SP IPHASW D HRMM SECON CODA AMPLIT PERI AZIMU VELO AIN AR TRES W  DIS CAZ7
 LZ4  SZ E        1342  3.46                  158.2 10.8      0        6.89 338 
 LZ4  SN IP       1342  3.47                             146    0.0210 6.89 338 
 LZ4  SE IS       1342  5.00                             146   -0.0210 6.89 338 
 LZ4  SZ  AML     1342  5.96        12.2 0.10                          6.89 338 
                                                                                
