 2010  725 0810 46.1 L  21.398 -99.331 10.0  RAL  3 1.0 0.2LRAL                1
 GAP=224       18.73      11.0    15.3125.7  0.1164E+03  0.1211E+02  0.4501E+02E
 ACTION:UPD 12-06-08 11:37 OP:RALL STATUS:               ID:20100725081046     I
 2010-07-25-0810-37S.PLUR1_009                                                 6
 STAT SP IPHASW D HRMM SECON CODA AMPLIT PERI AZIMU VELO AIN AR TRES W  DIS CAZ7
 LT9  SZ E         810 47.39                  295.6 11.4     -4        0.55 121 
 LT9  SN IP        810 47.40                             177   -0.5110 0.55 121 
 LT9  SE IS        810 48.02                             177   -1.1910 0.55 121 
 LT9  SZ  AML      810 48.17         4.6 0.16                          0.55 121 
 LA4  SN IP        810 48.54                             136   -0.0510 9.77  13 
 LA4  SZ E         810 48.78                  175.8  7.1    -17        9.77  13 
 LA4  SE IS        810 50.62                             136    0.2410 9.77  13 
 LA4  SZ  AML      810 50.77         8.1 0.16                          9.77  13 
 LG3  SN IP        810 49.70                             121    0.3710 15.8 149 
 LG3  SZ E         810 49.78                   75.3 20.6    106        15.8 149 
 LG3  SE IS        810 52.82                             121    1.1510 15.8 149 
 LG3  SZ  AML      810 54.16         6.1 0.58                          15.8 149 
                                                                                
 2010  725 0851 53.0 L  21.400 -99.338 10.0  RAL  1 0.2-0.6LRAL                1
 GAP=360        0.69     999.9   928.9  0.0  0.1750E+07  0.1211E+02  0.4501E+02E
 ACTION:UPD 12-06-08 11:37 OP:RALL STATUS:               ID:20100725085153     I
 2010-07-25-0851-45S.PLUR1_003                                                 6
 STAT SP IPHASW D HRMM SECON CODA AMPLIT PERI AZIMU VELO AIN AR TRES W  DIS CAZ7
 LT9  SZ E         851 55.15                  293.0 12.9      0        1.27 113 
 LT9  SN IP        851 55.16                             173    0.4210 1.27 113 
 LT9  SE IS        851 55.63                             173   -0.4210 1.27 113 
 LT9  SZ  AML      851 55.75         1.3 0.38                          1.27 113 
                                                                                
 2010  725 0911 15.8 L  21.403 -99.303 10.0  RAL  1 0.0 1.0LRAL                1
 GAP=360        0.30       5.2     2.4  0.0 -0.1223E+02  0.1211E+02  0.4501E+02E
 ACTION:UPD 12-06-08 11:37 OP:RALL STATUS:               ID:20100725091115     I
 2010-07-25-0911-08S.PLUR1_003                                                 6
 STAT SP IPHASW D HRMM SECON CODA AMPLIT PERI AZIMU VELO AIN AR TRES W  DIS CAZ7
 LZ4  SN IP        911 18.18                             139    0.0110 8.73 157 
 LZ4  SZ E         911 18.23                  336.8  8.3      0        8.73 157 
 LZ4  SE IS        911 19.86                             139   -0.0110 8.73 157 
 LZ4  SZ  AML      911 20.21        46.3 0.26                          8.73 157 
                                                                                
 2010  725 1130 39.4 L  21.678 -99.292  9.4  RAL  3 0.8 1.3LRAL                1
 GAP=348       13.95      89.0    24.6 90.9  0.3513E+03 -0.1946E+03 -0.9027E+03E
 ACTION:UPD 12-06-08 11:37 OP:RALL STATUS:               ID:20100725113039     I
 2010-07-25-1130-34S.PLUR1_009                                                 6
 STAT SP IPHASW D HRMM SECON CODA AMPLIT PERI AZIMU VELO AIN AR TRES W  DIS CAZ7
 LA4  SN IP       1130 43.72                              96    0.3210 21.5 185 
 LA4  SZ E        1130 43.73                  341.8  9.8     23        21.5 185 
 LA4  SE IS       1130 44.97                              96   -1.3210 21.5 185 
 LA4  SZ  AML     1130 45.02       456.3 0.10                          21.5 185 
 LT9  SZ E        1130 45.39                  329.2  9.4     37        31.5 187 
 LT9  SN IP       1130 45.43                              93    0.5810 31.5 187 
 LT9  SE IS       1130 48.16                              93   -0.6410 31.5 187 
 LT9  SZ  AML     1130 49.28         4.1 0.12                          31.5 187 
 LG3  SZ E        1130 47.61                   61.8 14.1     67        44.7 175 
 LG3  SN IP       1130 47.64                              63    0.7310 44.7 175 
 LG3  SE IS       1130 52.70                              63    0.3310 44.7 175 
 LG3  SZ  AML     1130 54.23        19.3 0.28                          44.7 175 
                                                                                
 2010  725 1146  7.2 L  21.347 -99.293 10.0  RAL  1 0.1 0.7LRAL                1
 GAP=360        0.56      14.4    20.8  0.0 -0.3002E+03 -0.1946E+03 -0.9027E+03E
 ACTION:UPD 12-06-08 11:37 OP:RALL STATUS:               ID:20100725114607     I
 2010-07-25-1146-00S.PLUR1_003                                                 6
 STAT SP IPHASW D HRMM SECON CODA AMPLIT PERI AZIMU VELO AIN AR TRES W  DIS CAZ7
 LZ4  SZ E        1146  9.42                  306.7 18.7      0        3.09 127 
 LZ4  SN IP       1146  9.44                             163    0.3210 3.09 127 
 LZ4  SE IS       1146 10.19                             163   -0.3210 3.09 127 
 LZ4  SZ  AML     1146 10.44        27.5 0.20                          3.09 127 
                                                                                
 2010  725 1248 52.9 L  21.347 -99.297 10.0  RAL  1 0.1 0.4LRAL                1
 GAP=360        0.48      10.2    17.4  0.0 -0.1782E+03 -0.1946E+03 -0.9027E+03E
 ACTION:UPD 12-06-08 11:37 OP:RALL STATUS:               ID:20100725124852     I
 2010-07-25-1248-47S.PLUR1_003                                                 6
 STAT SP IPHASW D HRMM SECON CODA AMPLIT PERI AZIMU VELO AIN AR TRES W  DIS CAZ7
 LZ4  SN IP       1248 55.04                             162    0.2610 3.41 122 
 LZ4  SZ E        1248 55.04                  302.2 18.6      0        3.41 122 
 LZ4  SE IS       1248 55.92                             162   -0.2610 3.41 122 
 LZ4  SZ  AML     1248 57.38        12.2 1.02                          3.41 122 
                                                                                
 2010  725 1423 53.5 L  21.432 -99.346 10.0  RAL  1 0.0 1.0LRAL                1
 GAP=360        0.30       3.7     2.8  0.0 -0.1017E+02 -0.1946E+03 -0.9027E+03E
 ACTION:UPD 12-06-08 11:37 OP:RALL STATUS:               ID:20100725142353     I
 2010-07-25-1423-46S.PLUR1_003                                                 6
 STAT SP IPHASW D HRMM SECON CODA AMPLIT PERI AZIMU VELO AIN AR TRES W  DIS CAZ7
 LZ4  SZ E        1423 56.48                  324.7  7.1      0        13.7 145 
 LZ4  SN IP       1423 56.48                             124    0.0210 13.7 145 
 LZ4  SE IS       1423 58.58                             124   -0.0210 13.7 145 
 LZ4  SZ  AML     1423 58.85        35.0 0.18                          13.7 145 
                                                                                
 2010  725 1438 10.5 L  21.403 -99.321 10.0  RAL  1 0.0 0.3LRAL                1
 GAP=360        0.30       4.4     3.2  0.0 -0.1400E+02 -0.1946E+03 -0.9027E+03E
 ACTION:UPD 12-06-08 11:37 OP:RALL STATUS:               ID:20100725143810     I
 2010-07-25-1438-05S.PLUR1_003                                                 6
 STAT SP IPHASW D HRMM SECON CODA AMPLIT PERI AZIMU VELO AIN AR TRES W  DIS CAZ7
 LZ4  SN IP       1438 12.97                             136    0.0210 9.63 146 
 LZ4  SZ E        1438 13.01                  326.0 19.0      0        9.63 146 
 LZ4  SE IS       1438 14.71                             136   -0.0210 9.63 146 
 LZ4  SZ  AML     1438 14.95         8.1 0.18                          9.63 146 
                                                                                
 2010  725 1557 27.3 L  21.538 -99.392  0.1  RAL  2 0.1 0.2LRAL                1
 GAP=328        0.85       1.9     2.1 45.9 -0.3462E+01  0.2436E+02 -0.1728E+02E
 ACTION:UPD 12-06-08 11:37 OP:RALL STATUS:               ID:20100725155727     I
 2010-07-25-1557-19S.PLUR1_006                                                 6
 STAT SP IPHASW D HRMM SECON CODA AMPLIT PERI AZIMU VELO AIN AR TRES W  DIS CAZ7
 LA4  SZ E        1557 29.39                  305.6  7.5      1        10.5 125 
 LA4  SN IP       1557 29.41                              96    0.3110 10.5 125 
 LA4  SE IS       1557 29.95                              96   -0.5010 10.5 125 
 LA4  SZ  AML     1557 30.24        54.3 0.20                          10.5 125 
 LT9  SZ E        1557 30.55                  334.8  9.9     -1        17.2 157 
 LT9  SN IP       1557 30.58                              93    0.3210 17.2 157 
 LT9  SE IS       1557 32.34                              93   -0.1210 17.2 157 
 LT9  SZ  AML     1557 33.00         0.8 0.10                          17.2 157 
                                                                                
 2010  725 1608 54.5 L  21.355 -99.285 10.0  RAL  1 0.1 0.4LRAL                1
 GAP=360        0.45      16.8    10.8  0.0 -0.1825E+03  0.2436E+02 -0.1728E+02E
 ACTION:UPD 12-06-08 11:37 OP:RALL STATUS:               ID:20100725160854     I
 2010-07-25-1608-48S.PLUR1_003                                                 6
 STAT SP IPHASW D HRMM SECON CODA AMPLIT PERI AZIMU VELO AIN AR TRES W  DIS CAZ7
 LZ4  SZ E        16 8 56.56                  329.0 21.6      0        3.07 149 
 LZ4  SN IP       16 8 56.58                             163    0.2310 3.07 149 
 LZ4  SZ  AML     16 8 57.46        12.9 0.66                          3.07 149 
 LZ4  SE IS       16 8 57.51                             163   -0.2310 3.07 149 
                                                                                
 2010  725 1608 54.5 L  21.353 -99.293 10.0  RAL  1 0.1 0.3LRAL                1
 GAP=360        0.46      12.6    13.7  0.0 -0.1728E+03  0.2436E+02 -0.1728E+02E
 ACTION:UPD 12-06-08 11:37 OP:RALL STATUS:               ID:20100725160855d    I
 2010-07-25-1608-48S.PLUR1_003                                                 6
 STAT SP IPHASW D HRMM SECON CODA AMPLIT PERI AZIMU VELO AIN AR TRES W  DIS CAZ7
 LZ4  SZ E        16 8 56.57                  314.6 23.7      0        3.44 135 
 LZ4  SN IP       16 8 56.62                             162    0.2310 3.44 135 
 LZ4  SZ  AML     16 8 57.46        10.8 0.66                          3.44 135 
 LZ4  SE IS       16 8 57.55                             162   -0.2310 3.44 135 
                                                                                
