 2010 1014 1906 53.7 L  21.629 -99.344 10.0  RAL  1 0.0 0.5LRAL                1
 GAP=360        0.30       4.1     1.1  0.0 -0.4053E+01  0.5903E+01 -0.6551E+01E
 ACTION:UPD 12-06-08 11:37 OP:RALL STATUS:               ID:20101014190653     I
 2010-10-14-1906-49S.PLUR1_003                                                 6
 STAT SP IPHASW D HRMM SECON CODA AMPLIT PERI AZIMU VELO AIN AR TRES W  DIS CAZ7
 LA4  SN IP       19 6 56.99                             119    0.0010 16.5 167 
 LA4  SZ E        19 6 57.00                  347.4  8.2      0        16.5 167 
 LA4  SE IS       19 6 59.39                             119    0.0010 16.5 167 
 LA4  SZ  AML     19 6 59.77         9.2 0.72                          16.5 167 
                                                                                
 2010 1015 0602 29.5 L  21.469 -99.408 10.0  RAL  1 0.0 0.8LRAL                1
 GAP=360        0.30       0.9     5.4  0.0  0.4388E+01  0.5903E+01 -0.6551E+01E
 ACTION:UPD 12-06-08 11:37 OP:RALL STATUS:               ID:20101015060229     I
 2010-10-15-0602-22S.PLUR1_003                                                 6
 STAT SP IPHASW D HRMM SECON CODA AMPLIT PERI AZIMU VELO AIN AR TRES W  DIS CAZ7
 LA4  SZ E         6 2 31.99                  260.9 13.9      0        10.3  81 
 LA4  SN IP        6 2 32.07                             134    0.0010 10.3  81 
 LA4  SZ  AML      6 2 33.83        26.9 0.24                          10.3  81 
 LA4  SE IS        6 2 33.90                             134    0.0010 10.3  81 
                                                                                
 2010 1015 0838 43.1 L  21.584 -99.326 10.0  RAL  1 0.0 0.4LRAL                1
 GAP=360        0.30       4.8     0.9  0.0 -0.3924E+01  0.5903E+01 -0.6551E+01E
 ACTION:UPD 12-06-08 11:37 OP:RALL STATUS:               ID:20101015083843     I
 2010-10-15-0838-38S.PLUR1_003                                                 6
 STAT SP IPHASW D HRMM SECON CODA AMPLIT PERI AZIMU VELO AIN AR TRES W  DIS CAZ7
 LA4  SZ E         838 45.59                  351.1  7.1      0        11.3 171 
 LA4  SN IP        838 45.69                             131    0.0010 11.3 171 
 LA4  SE IS        838 47.60                             131    0.0010 11.3 171 
 LA4  SZ  AML      838 48.07         9.3 0.28                          11.3 171 
                                                                                
 2010 1015 1806 16.5 L  21.311 -99.241 10.0  RAL  1 0.0 0.8LRAL                1
 GAP=360        0.30       3.8     1.6  0.0 -0.5511E+01  0.5903E+01 -0.6551E+01E
 ACTION:UPD 12-06-08 11:37 OP:RALL STATUS:               ID:20101015180616     I
 2010-10-15-1806-11S.PLUR1_003                                                 6
 STAT SP IPHASW D HRMM SECON CODA AMPLIT PERI AZIMU VELO AIN AR TRES W  DIS CAZ7
 LA4  SZ E        18 6 20.29                  159.8  6.5      0        20.3 340 
 LA4  SN IP       18 6 20.30                             113    0.0010 20.3 340 
 LA4  SE IS       18 6 23.09                             113    0.0010 20.3 340 
 LA4  SZ  AML     18 6 23.44        15.6 0.34                          20.3 340 
                                                                                
 2010 1016 2012  0.2 L  21.398 -99.296 10.0  RAL  1 0.0 0.5LRAL                1
 GAP=360        0.30       5.3     0.8  0.0 -0.4181E+01  0.5903E+01 -0.6551E+01E
 ACTION:UPD 12-06-08 11:37 OP:RALL STATUS:               ID:20101016201200     I
 2010-10-16-2011-54S.PLUR1_003                                                 6
 STAT SP IPHASW D HRMM SECON CODA AMPLIT PERI AZIMU VELO AIN AR TRES W  DIS CAZ7
 LA4  SN IP       2012  2.67                             136    0.0010 9.61 352 
 LA4  SZ E        2012  2.70                  172.0  8.1      0        9.61 352 
 LA4  SE IS       2012  4.44                             136    0.0010 9.61 352 
 LA4  SZ  AML     2012  4.57        12.2 0.20                          9.61 352 
                                                                                
 2010 1017 1228 23.6 L  21.419 -99.272 10.0  RAL  1 0.0 0.6LRAL                1
 GAP=360        0.30       5.3     3.0  0.0 -0.1578E+02  0.5903E+01 -0.6551E+01E
 ACTION:UPD 12-06-08 11:37 OP:RALL STATUS:               ID:20101017122823     I
 2010-10-17-1228-18S.PLUR1_003                                                 6
 STAT SP IPHASW D HRMM SECON CODA AMPLIT PERI AZIMU VELO AIN AR TRES W  DIS CAZ7
 LA4  SN IP       1228 25.92                             141    0.0210 8.06 332 
 LA4  SZ E        1228 25.95                  151.9  7.0      0        8.06 332 
 LA4  SE IS       1228 27.54                             141   -0.0210 8.06 332 
 LA4  SZ  AML     1228 27.65        17.9 0.70                          8.06 332 
                                                                                
 2010 1018 1038 24.8 L  21.501 -99.325 10.0  RAL  1 0.1 1.3LRAL                1
 GAP=360        0.60      23.9    22.6  0.0 -0.5411E+03  0.5903E+01 -0.6551E+01E
 ACTION:UPD 12-06-08 11:37 OP:RALL STATUS:               ID:20101018103824     I
 2010-10-18-1038-17S.PLUR1_003                                                 6
 STAT SP IPHASW D HRMM SECON CODA AMPLIT PERI AZIMU VELO AIN AR TRES W  DIS CAZ7
 LA4  SZ E        1038 27.02                  318.7  9.0      0        2.52 139 
 LA4  SN IP       1038 27.03                             166    0.3610 2.52 139 
 LA4  SE IS       1038 27.70                             166   -0.3610 2.52 139 
 LA4  SZ  AML     1038 27.86       115.8 0.22                          2.52 139 
                                                                                
 2010 1018 1346 59.8 L  21.574 -99.338 10.0  RAL  1 0.0 0.6LRAL                1
 GAP=360        0.30       4.9     1.6  0.0 -0.7650E+01  0.5903E+01 -0.6551E+01E
 ACTION:UPD 12-06-08 11:37 OP:RALL STATUS:               ID:20101018134659     I
 2010-10-18-1346-54S.PLUR1_003                                                 6
 STAT SP IPHASW D HRMM SECON CODA AMPLIT PERI AZIMU VELO AIN AR TRES W  DIS CAZ7
 LA4  SZ E        1347  2.31                  343.2  9.4      0        10.5 163 
 LA4  SN IP       1347  2.33                             133    0.0110 10.5 163 
 LA4  SE IS       1347  4.16                             133   -0.0110 10.5 163 
 LA4  SZ  AML     1347  4.29        14.8 0.28                          10.5 163 
                                                                                
 2010 1019 0314 37.0 L  21.540 -99.321 10.0  RAL  1 0.0 1.5LRAL                1
 GAP=360        0.30       6.9     1.5  0.0 -0.9937E+01  0.5903E+01 -0.6551E+01E
 ACTION:UPD 12-06-08 11:37 OP:RALL STATUS:               ID:20101019031437     I
 2010-10-19-0314-29S.PLUR1_003                                                 6
 STAT SP IPHASW D HRMM SECON CODA AMPLIT PERI AZIMU VELO AIN AR TRES W  DIS CAZ7
 LA4  SZ E         314 39.11                  349.0  9.0      0        6.36 169 
 LA4  SN IP        314 39.12                             148    0.0210 6.36 169 
 LA4  SE IS        314 40.63                             148   -0.0210 6.36 169 
 LA4  SZ  AML      314 41.15       142.1 0.22                          6.36 169 
                                                                                
 2010 1019 1229 33.2 L  21.520 -99.383 10.0  RAL  1 0.0 0.5LRAL                1
 GAP=360        0.30       2.7     5.4  0.0 -0.1429E+02  0.5903E+01 -0.6551E+01E
 ACTION:UPD 12-06-08 11:37 OP:RALL STATUS:               ID:20101019122933     I
 2010-10-19-1229-27S.PLUR1_003                                                 6
 STAT SP IPHASW D HRMM SECON CODA AMPLIT PERI AZIMU VELO AIN AR TRES W  DIS CAZ7
 LA4  SZ E        1229 35.57                  297.7 16.7      0        8.63 118 
 LA4  SN IP       1229 35.59                             139    0.0210 8.63 118 
 LA4  SE IS       1229 37.26                             139   -0.0210 8.63 118 
 LA4  SZ  AML     1229 37.58        12.7 0.18                          8.63 118 
                                                                                
 2010 1021 0309 37.7 L  21.621 -99.356 10.0  RAL  1 0.0 0.9LRAL                1
 GAP=360        0.30       4.1     1.5  0.0 -0.5665E+01  0.5903E+01 -0.6551E+01E
 ACTION:UPD 12-06-08 11:37 OP:RALL STATUS:               ID:20101021030937     I
 2010-10-21-0309-32S.PLUR1_003                                                 6
 STAT SP IPHASW D HRMM SECON CODA AMPLIT PERI AZIMU VELO AIN AR TRES W  DIS CAZ7
 LA4  SZ E         3 9 40.80                  342.2  6.6      0        15.9 162 
 LA4  SN IP        3 9 40.87                             120    0.0010 15.9 162 
 LA4  SE IS        3 9 43.21                             120    0.0010 15.9 162 
 LA4  SZ  AML      3 9 43.40        25.9 0.40                          15.9 162 
                                                                                
 2010 1021 1340 19.3 L  21.494 -99.332 10.0  RAL  1 0.1 0.4LRAL                1
 GAP=360        0.41       8.8    20.4  0.0 -0.1807E+03  0.5903E+01 -0.6551E+01E
 ACTION:UPD 12-06-08 11:37 OP:RALL STATUS:               ID:20101021134019     I
 2010-10-21-1340-12S.PLUR1_003                                                 6
 STAT SP IPHASW D HRMM SECON CODA AMPLIT PERI AZIMU VELO AIN AR TRES W  DIS CAZ7
 LA4  SN IP       1340 21.37                             166    0.1910 2.61 115 
 LA4  SZ E        1340 21.43                  294.9 17.0      0        2.61 115 
 LA4  SE IS       1340 22.37                             166   -0.1910 2.61 115 
 LA4  SZ  AML     1340 22.46        12.9 0.26                          2.61 115 
                                                                                
 2010 1021 1930 53.3 L  21.265 -99.190 10.0  RAL  1 0.0 1.6LRAL                1
 GAP=360        0.30       3.5     2.0  0.0 -0.6294E+01  0.5903E+01 -0.6551E+01E
 ACTION:UPD 12-06-08 11:37 OP:RALL STATUS:               ID:20101021193053     I
 2010-10-21-1930-48S.PLUR1_003                                                 6
 STAT SP IPHASW D HRMM SECON CODA AMPLIT PERI AZIMU VELO AIN AR TRES W  DIS CAZ7
 LA4  SZ E        1930 58.09                  153.0  6.3      0        27.2 333 
 LA4  SN IP       1930 58.12                             106    0.0210 27.2 333 
 LA4  SE IS       1931  1.60                             106   -0.0210 27.2 333 
 LA4  SZ  AML     1931  2.15        85.9 0.26                          27.2 333 
                                                                                
 2010 1022 0356  0.7 L  21.486 -99.320 10.0  RAL  1 0.2 0.9LRAL                1
 GAP=360        0.95      26.8   109.4  0.0 -0.2935E+04  0.5903E+01 -0.6551E+01E
 ACTION:UPD 12-06-08 11:37 OP:RALL STATUS:               ID:20101022035600     I
 2010-10-22-0355-54S.PLUR1_003                                                 6
 STAT SP IPHASW D HRMM SECON CODA AMPLIT PERI AZIMU VELO AIN AR TRES W  DIS CAZ7
 LA4  SN IP        356  3.03                             174    0.4710 1.18 105 
 LA4  SZ E         356  3.03                  282.0 16.3     -2        1.18 105 
 LA4  SE IS        356  3.44                             174   -0.4710 1.18 105 
 LA4  SZ  AML      356  3.54        43.5 0.16                          1.18 105 
                                                                                
 2010 1023 0301 18.6 L  21.505 -99.312 10.0  RAL  1 0.0 1.1LRAL                1
 GAP=360        0.30      16.8     2.2  0.0 -0.3684E+02  0.5903E+01 -0.6551E+01E
 ACTION:UPD 12-06-08 11:37 OP:RALL STATUS:               ID:20101023030118     I
 2010-10-23-0301-12S.PLUR1_003                                                 6
 STAT SP IPHASW D HRMM SECON CODA AMPLIT PERI AZIMU VELO AIN AR TRES W  DIS CAZ7
 LA4  SN IP        3 1 20.50                             167    0.0310 2.34 173 
 LA4  SZ E         3 1 20.51                  353.1 12.0      0        2.34 173 
 LA4  SE IS        3 1 21.82                             167   -0.0310 2.34 173 
 LA4  SZ  AML      3 1 21.90        72.0 0.10                          2.34 173 
                                                                                
 2010 1024 0905  7.8 L  21.274 -99.260 10.0  RAL  1 0.0 0.8LRAL                1
 GAP=360        0.30       3.8     1.1  0.0 -0.3359E+01  0.5903E+01 -0.6551E+01E
 ACTION:UPD 12-06-08 11:37 OP:RALL STATUS:               ID:20101024090507     I
 2010-10-24-0905-02S.PLUR1_003                                                 6
 STAT SP IPHASW D HRMM SECON CODA AMPLIT PERI AZIMU VELO AIN AR TRES W  DIS CAZ7
 LA4  SZ E         9 5 12.06                  167.7  7.4      0        23.7 348 
 LA4  SN IP        9 5 12.09                             109    0.0210 23.7 348 
 LA4  SE IS        9 5 15.21                             109   -0.0210 23.7 348 
 LA4  SZ  AML      9 5 15.59        15.4 0.24                          23.7 348 
                                                                                
 2010 1025 2130 31.1 L  21.616 -99.368 10.0  RAL  1 0.0 1.1LRAL                1
 GAP=360        0.30       4.0     1.8  0.0 -0.6902E+01  0.5903E+01 -0.6551E+01E
 ACTION:UPD 12-06-08 11:37 OP:RALL STATUS:               ID:20101025213031     I
 2010-10-25-2130-25S.PLUR1_003                                                 6
 STAT SP IPHASW D HRMM SECON CODA AMPLIT PERI AZIMU VELO AIN AR TRES W  DIS CAZ7
 LA4  SZ E        2130 34.27                  337.5  8.9      0        15.9 157 
 LA4  SN IP       2130 34.31                             120    0.0010 15.9 157 
 LA4  SE IS       2130 36.64                             120    0.0010 15.9 157 
 LA4  SZ  AML     2130 36.70        43.3 0.28                          15.9 157 
                                                                                
 2010 1027 1505 38.6 L  21.733 -99.382 10.0  RAL  1 0.0 2.5LRAL                1
 GAP=360        0.30       3.7     1.3  0.0 -0.3890E+01  0.5903E+01 -0.6551E+01E
 ACTION:UPD 12-06-08 11:37 OP:RALL STATUS:               ID:20101027150538     I
 2010-10-27-1505-34S.PLUR1_003                                                 6
 STAT SP IPHASW D HRMM SECON CODA AMPLIT PERI AZIMU VELO AIN AR TRES W  DIS CAZ7
 LA4  SZ E        15 5 43.66                  344.7 10.2      0        28.7 165 
 LA4  SN IP       15 5 43.67                             105    0.0110 28.7 165 
 LA4  SE IS       15 5 47.33                             105   -0.0110 28.7 165 
 LA4  SZ  AML     15 5 49.22       566.3 0.28                          28.7 165 
                                                                                
 2010 1028 1121 29.7 L  21.579 -99.364 10.0  RAL  1 0.0 0.9LRAL                1
 GAP=360        0.30       4.2     2.5  0.0 -0.1021E+02  0.5903E+01 -0.6551E+01E
 ACTION:UPD 12-06-08 11:37 OP:RALL STATUS:               ID:20101028112129     I
 2010-10-28-1121-23S.PLUR1_003                                                 6
 STAT SP IPHASW D HRMM SECON CODA AMPLIT PERI AZIMU VELO AIN AR TRES W  DIS CAZ7
 LA4  SZ E        1121 32.41                  331.7 13.1      0        11.9 152 
 LA4  SN IP       1121 32.43                             129    0.0210 11.9 152 
 LA4  SE IS       1121 34.37                             129   -0.0210 11.9 152 
 LA4  SZ  AML     1121 34.97        32.1 0.10                          11.9 152 
                                                                                
 2010 1029 0026 55.7 L  21.494 -99.326 10.0  RAL  1 0.2 0.4LRAL                1
 GAP=360        0.69      23.2    38.7  0.0 -0.8975E+03  0.5903E+01 -0.6551E+01E
 ACTION:UPD 12-06-08 11:37 OP:RALL STATUS:               ID:20101029002655     I
 2010-10-29-0026-48S.PLUR1_003                                                 6
 STAT SP IPHASW D HRMM SECON CODA AMPLIT PERI AZIMU VELO AIN AR TRES W  DIS CAZ7
 LA4  SZ E         026 57.97                  302.7  8.9      0        2.13 123 
 LA4  SN IP        026 57.99                             168    0.4210 2.13 123 
 LA4  SE IS        026 58.52                             168   -0.4210 2.13 123 
 LA4  SZ  AML      026 59.02        13.2 0.26                          2.13 123 
                                                                                
 2010 1029 1351 44.7 L  21.472 -99.305 10.0  RAL  1 0.1 0.4LRAL                1
 GAP=360        0.68     335.0   999.9  0.0  0.4313E+06  0.5903E+01 -0.6551E+01E
 ACTION:UPD 12-06-08 11:37 OP:RALL STATUS:               ID:20101029135144     I
 2010-10-29-1351-38S.PLUR1_003                                                 6
 STAT SP IPHASW D HRMM SECON CODA AMPLIT PERI AZIMU VELO AIN AR TRES W  DIS CAZ7
 LA4  SZ E        1351 46.80                  163.8  9.3      2        1.34 341 
 LA4  SN IP       1351 46.81                             173    0.2310 1.34 341 
 LA4  SE IS       1351 47.71                             173   -0.2310 1.34 341 
 LA4  SZ  AML     1351 47.82        14.0 0.28                          1.34 341 
                                                                                
 2010 1029 1830 37.8 L  21.322 -99.237 10.0  RAL  1 0.0 1.1LRAL                1
 GAP=360        0.30       3.8     1.8  0.0 -0.6190E+01  0.5903E+01 -0.6551E+01E
 ACTION:UPD 12-06-08 11:37 OP:RALL STATUS:               ID:20101029183037     I
 2010-10-29-1830-34S.PLUR1_003                                                 6
 STAT SP IPHASW D HRMM SECON CODA AMPLIT PERI AZIMU VELO AIN AR TRES W  DIS CAZ7
 LA4  SN IP       1830 41.52                             114    0.0010 19.4 337 
 LA4  SZ E        1830 41.57                  157.3  7.6      0        19.4 337 
 LA4  SE IS       1830 44.21                             114    0.0010 19.4 337 
 LA4  SZ  AML     1830 44.44        32.0 0.38                          19.4 337 
                                                                                
 2010 1030 0742 28.9 L  21.481 -99.320 10.0  RAL  1 0.1 0.7LRAL                1
 GAP=360        0.82     999.9   999.9  0.0 -0.6756E+07  0.5903E+01 -0.6551E+01E
 ACTION:UPD 12-06-08 11:37 OP:RALL STATUS:               ID:20101030074228     I
 2010-10-30-0742-21S.PLUR1_003                                                 6
 STAT SP IPHASW D HRMM SECON CODA AMPLIT PERI AZIMU VELO AIN AR TRES W  DIS CAZ7
 LA4  SN IP        742 31.01                             173    0.2910 1.21  75 
 LA4  SZ E         742 31.03                  258.4 30.0      3        1.21  75 
 LA4  SE IS        742 31.79                             173   -0.2910 1.21  75 
 LA4  SZ  AML      742 31.89        25.3 0.18                          1.21  75 
                                                                                
