 2010  8 1 0628 43.9 L  21.316 -99.221 12.9  RAL  2 0.1 0.8LRAL                1
 GAP=242        0.72       1.2     0.9  6.1  0.9755E+00 -0.1270E+01 -0.1858E+01E
 ACTION:UPD 13-02-28 14:29 OP:RALL STATUS:               ID:20100801062843     I
 2010-08-01-0628-07S.PLUR1_012                                                 6
 STAT SP IPHASW D HRMM SECON CODA AMPLIT PERI AZIMU VELO AIN AR TRES W  DIS CAZ7
 LG3  SZ E         628 46.77                   36.5 25.5      0        5.54 216 
 LG3  SN IP        628 46.85                             157    0.4810 5.54 216 
 LG3  SE IS        628 48.13                             157   -0.0510 5.54 216 
 LG3  SZ  AML      628 49.26        21.0 0.10                          5.54 216 
 LA4  SZ E         628 47.92                  154.5  6.8      1        20.7 334 
 LA4  SN IP        628 47.95                             120   -0.0310 20.7 334 
 LA4  SE IS        628 50.55                             120   -0.4010 20.7 334 
 LA4  SZ  AML      628 50.78        15.3 0.30                          20.7 334 
                                                                                
 2010  8 1  634 50.8 L                       RAL  0                            1
 ACTION:UPD 13-02-28 14:29 OP:RALL STATUS:               ID:20100801063450     I
 2010-08-01-0634-50S.PLUR1_006                                                 6
 STAT SP IPHASW D HRMM SECON CODA AMPLIT PERI AZIMU VELO AIN AR TRES W  DIS CAZ7
                                                                                
 2010  8 1 0639  3.5 L  21.327 -99.279 10.0  RAL  1 0.2 0.3LRAL                1
 GAP=360        2.30     999.9   424.2  0.0 -0.6709E+06 -0.1270E+01 -0.1858E+01E
 ACTION:UPD 13-02-28 14:29 OP:RALL STATUS:               ID:20100801063903     I
 2010-08-01-0638-56S.PLUR1_003                                                 6
 STAT SP IPHASW D HRMM SECON CODA AMPLIT PERI AZIMU VELO AIN AR TRES W  DIS CAZ7
 LZ4  SZ E         639  5.61                  256.7 34.3     10        1.08  66 
 LZ4  SN IP        639  5.73                             174    0.4410 1.08  66 
 LZ4  SE IS        639  6.20                             174   -0.4410 1.08  66 
 LZ4  SZ  AML      639  6.47        10.6 0.26                          1.08  66 
                                                                                
 2010  8 1 0645 27.0 L  21.310 -99.269 10.0  RAL  1 0.0 0.4LRAL                1
 GAP=360        0.30      17.3     0.2  0.0 -0.3916E+01 -0.1270E+01 -0.1858E+01E
 ACTION:UPD 13-02-28 14:29 OP:RALL STATUS:               ID:20100801064527     I
 2010-08-01-0645-21S.PLUR1_003                                                 6
 STAT SP IPHASW D HRMM SECON CODA AMPLIT PERI AZIMU VELO AIN AR TRES W  DIS CAZ7
 LZ4  SN IP        645 28.88                             168    0.0210 2.27 359 
 LZ4  SZ E         645 28.88                  179.3 43.9      0        2.27 359 
 LZ4  SE IS        645 30.20                             168   -0.0210 2.27 359 
 LZ4  SZ  AML      645 31.37        14.7 0.42                          2.27 359 
                                                                                
 2010  8 1 0704 22.8 L  21.288 -99.242 10.0  RAL  1 0.0 0.9LRAL                1
 GAP=360        0.31       6.9     4.5  0.0 -0.3099E+02 -0.1270E+01 -0.1858E+01E
 ACTION:UPD 13-02-28 14:29 OP:RALL STATUS:               ID:20100801070422     I
 2010-08-01-0700-35S.PLUR1_009                                                 6
 STAT SP IPHASW D HRMM SECON CODA AMPLIT PERI AZIMU VELO AIN AR TRES W  DIS CAZ7
 LZ4  SN IP        7 4 24.95                             152    0.0610 5.51 329 
 LZ4  SZ E         7 4 25.02                  148.7  9.0      0        5.51 329 
 LZ4  SE IS        7 4 26.33                             152   -0.0610 5.51 329 
 LZ4  SZ  AML      7 4 27.34        39.9 0.16                          5.51 329 
                                                                                
 2010  8 1 0716  4.4 L  21.224 -99.301 10.0  RAL  2 0.2 0.0LRAL                1
 GAP=196        1.58       3.5     2.0 15.4  0.6690E+01 -0.3766E+01 -0.6661E+01E
 ACTION:UPD 13-02-28 14:29 OP:RALL STATUS:               ID:20100801071604     I
 2010-08-01-0715-57S.PLUR1_015                                                 6
 STAT SP IPHASW D HRMM SECON CODA AMPLIT PERI AZIMU VELO AIN AR TRES W  DIS CAZ7
 LD5  SN IP        716  6.95                             160    0.5710 4.61 205 
 LD5  SZ E         716  6.96                   22.7  8.9     -2        4.61 205 
 LD5  SE IS        716  8.34                             160    0.5110 4.61 205 
 LD5  SZ  AML      716  9.17         0.8 0.22                          4.61 205 
 LG3  SN IP        716  6.39                             142   -0.2510 7.62  41 
 LG3  SZ E         716  6.39                  217.4 25.1     -3        7.62  41 
 LG3  SE IS        716  7.43                             142   -0.8410 7.62  41 
 LG3  SZ  AML      716  7.56        25.7 0.24                          7.62  41 
                                                                                
 2010  8 1 0731 34.3 L  21.499 -99.322 10.0  RAL  1 0.2 0.6LRAL                1
 GAP=360        0.66     651.2   982.0  0.0  0.6395E+06 -0.3766E+01 -0.6661E+01E
 ACTION:UPD 13-02-28 14:29 OP:RALL STATUS:               ID:20100801073134     I
 2010-08-01-0730-35S.PLUR1_006                                                 6
 STAT SP IPHASW D HRMM SECON CODA AMPLIT PERI AZIMU VELO AIN AR TRES W  DIS CAZ7
 LA4  SZ E         731 36.55                  322.6 10.6      0        2.19 143 
 LA4  SN IP        731 36.60                             168    0.4010 2.19 143 
 LA4  SZ  AML      731 37.02        23.1 0.64                          2.19 143 
 LA4  SE IS        731 37.18                             168   -0.4010 2.19 143 
                                                                                
 2010  8 1 0738  0.2 L  21.273 -99.266 10.0  RAL  1 0.2 0.9LRAL                1
 GAP=360        0.94     771.9   279.2  0.0 -0.2155E+06 -0.3766E+01 -0.6661E+01E
 ACTION:UPD 13-02-28 14:29 OP:RALL STATUS:               ID:20100801073800     I
 2010-08-01-0737-37S.PLUR1_009                                                 6
 STAT SP IPHASW D HRMM SECON CODA AMPLIT PERI AZIMU VELO AIN AR TRES W  DIS CAZ7
 LG3  SZ E         738  2.39                  254.2 23.0     -2        1.44  77 
 LG3  SN IP        738  2.43                             172    0.3910 1.44  77 
 LG3  SE IS        738  3.01                             172   -0.3910 1.44  77 
 LG3  SZ  AML      738  3.08        47.6 0.10                          1.44  77 
                                                                                
 2010  8 1 0750 19.5 L  21.348 -99.317 10.0  RAL  1 0.0 0.9LRAL                1
 GAP=360        0.30       3.9     3.5  0.0 -0.1370E+02 -0.3766E+01 -0.6661E+01E
 ACTION:UPD 13-02-28 14:29 OP:RALL STATUS:               ID:20100801075019     I
 2010-08-01-0749-39S.PLUR1_006                                                 6
 STAT SP IPHASW D HRMM SECON CODA AMPLIT PERI AZIMU VELO AIN AR TRES W  DIS CAZ7
 LG3  SZ E         750 22.00                  320.5  7.9      0        10.4 140 
 LG3  SN IP        750 22.04                             133    0.0110 10.4 140 
 LG3  SE IS        750 23.86                             133   -0.0110 10.4 140 
 LG3  SZ  AML      750 23.97        32.1 0.22                          10.4 140 
                                                                                
 2010  8 1 0757 14.5 L  21.286 -99.273 10.0  RAL  1 0.2 1.2LRAL                1
 GAP=360        0.67      17.9    34.6  0.0 -0.6204E+03 -0.3766E+01 -0.6661E+01E
 ACTION:UPD 13-02-28 14:29 OP:RALL STATUS:               ID:20100801075714     I
 2010-08-01-0757-07S.PLUR1_003                                                 6
 STAT SP IPHASW D HRMM SECON CODA AMPLIT PERI AZIMU VELO AIN AR TRES W  DIS CAZ7
 LG3  SN IP        757 16.78                             167    0.4110 2.42 119 
 LG3  SZ E         757 16.80                  299.0 22.6      0        2.42 119 
 LG3  SE IS        757 17.35                             167   -0.4110 2.42 119 
 LG3  SZ  AML      757 17.49        84.7 0.36                          2.42 119 
                                                                                
 2010  8 1 0801  6.0 L  21.257 -99.267 10.0  RAL  1 0.2 0.8LRAL                1
 GAP=360        0.69      29.0    21.9  0.0  0.6349E+03 -0.3766E+01 -0.6661E+01E
 ACTION:UPD 13-02-28 14:29 OP:RALL STATUS:               ID:20100801080106     I
 2010-08-01-0800-58S.PLUR1_003                                                 6
 STAT SP IPHASW D HRMM SECON CODA AMPLIT PERI AZIMU VELO AIN AR TRES W  DIS CAZ7
 LG3  SN IP        8 1  8.29                             166    0.4210 2.59  35 
 LG3  SZ E         8 1  8.29                  215.1 28.1      0        2.59  35 
 LG3  SE IS        8 1  8.84                             166   -0.4210 2.59  35 
 LG3  SZ  AML      8 1  9.15        33.1 0.42                          2.59  35 
                                                                                
 2010  8 1  8 4 54.8 L                       RAL  0                            1
 ACTION:UPD 13-02-28 14:29 OP:RALL STATUS:               ID:20100801080454     I
 2010-08-01-0804-54S.PLUR1_009                                                 6
 STAT SP IPHASW D HRMM SECON CODA AMPLIT PERI AZIMU VELO AIN AR TRES W  DIS CAZ7
                                                                                
 2010  8 1 0813 51.3 L  21.322 -99.220 10.0  RAL  1 0.0 0.5LRAL                1
 GAP=360        0.30       6.2     4.3  0.0  0.2635E+02 -0.3766E+01 -0.6661E+01E
 ACTION:UPD 13-02-28 14:29 OP:RALL STATUS:               ID:20100801081351     I
 2010-08-01-0813-00S.PLUR1_006                                                 6
 STAT SP IPHASW D HRMM SECON CODA AMPLIT PERI AZIMU VELO AIN AR TRES W  DIS CAZ7
 LG3  SZ E         813 53.31                   32.9 14.6      0        6.15 213 
 LG3  SN IP        813 53.41                             149    0.0410 6.15 213 
 LG3  SE IS        813 54.87                             149   -0.0410 6.15 213 
 LG3  SZ  AML      813 55.10        15.2 0.10                          6.15 213 
                                                                                
 2010  8 1 0832 17.0 L  21.301 -99.224 10.0  RAL  1 0.1 0.7LRAL                1
 GAP=360        0.41       9.5    10.9  0.0  0.1033E+03 -0.3766E+01 -0.6661E+01E
 ACTION:UPD 13-02-28 14:29 OP:RALL STATUS:               ID:20100801083217     I
 2010-08-01-0832-02S.PLUR1_003                                                 6
 STAT SP IPHASW D HRMM SECON CODA AMPLIT PERI AZIMU VELO AIN AR TRES W  DIS CAZ7
 LG3  SN IP        832 19.20                             159    0.1910 4.07 227 
 LG3  SZ E         832 19.36                   46.8 17.5      0        4.07 227 
 LG3  SE IS        832 20.26                             159   -0.1910 4.07 227 
 LG3  SZ  AML      832 20.39        23.6 0.40                          4.07 227 
                                                                                
 2010  8 1 0845 56.5 L  21.381 -99.297  0.0  RAL  2 0.1 0.0LRAL                1
 GAP=332        0.53       4.8     1.2 43.1  0.2089E+01 -0.4749E+00 -0.9090E+02E
 ACTION:UPD 13-02-28 14:29 OP:RALL STATUS:               ID:20100801084556     I
 2010-08-01-0844-07S.PLUR1_027                                                 6
 STAT SP IPHASW D HRMM SECON CODA AMPLIT PERI AZIMU VELO AIN AR TRES W  DIS CAZ7
 LG3  SZ IP        845 58.82                              95    0.1210 12.6 158 
 LG3  SN IS        846  0.02                              95   -0.2910 12.6 158 
 LD5  SZ E         846  0.17                    6.0  9.6      0        21.7 186 
 LD5  SN IP        846  0.22                              93   -0.0610 21.7 186 
 LD5  SE IS        846  3.28                              93    0.2310 21.7 186 
 LD5  SZ  AML      846  3.70         2.8 0.28                          21.7 186 
                                                                                
 2010  8 1 0911 37.9 L  21.301 -99.241 10.0  RAL  1 0.0 0.8LRAL                1
 GAP=360        0.34       7.9     7.7  0.0 -0.6072E+02 -0.4749E+00 -0.9090E+02E
 ACTION:UPD 13-02-28 14:29 OP:RALL STATUS:               ID:20100801091137     I
 2010-08-01-0911-31S.PLUR1_003                                                 6
 STAT SP IPHASW D HRMM SECON CODA AMPLIT PERI AZIMU VELO AIN AR TRES W  DIS CAZ7
 LZ4  SZ E         911 39.91                  138.0 21.0      0        4.47 318 
 LZ4  SN IP        911 39.96                             156    0.1210 4.47 318 
 LZ4  SE IS        911 41.17                             156   -0.1210 4.47 318 
 LZ4  SZ  AML      911 41.83        35.8 0.20                          4.47 318 
                                                                                
 2010  8 1 0915 54.7 L  21.337 -99.285 10.0  RAL  1 0.2 0.2LRAL                1
 GAP=360        1.80      54.2   134.7  0.0 -0.7297E+04 -0.4749E+00 -0.9090E+02E
 ACTION:UPD 13-02-28 14:29 OP:RALL STATUS:               ID:20100801091554     I
 2010-08-01-0915-48S.PLUR1_003                                                 6
 STAT SP IPHASW D HRMM SECON CODA AMPLIT PERI AZIMU VELO AIN AR TRES W  DIS CAZ7
 LZ4  SZ E         915 56.89                  285.2 23.1     -7        1.72 113 
 LZ4  SN IP        915 56.90                             171    0.3510 1.72 113 
 LZ4  SE IS        915 57.56                             171   -0.3510 1.72 113 
 LZ4  SZ  AML      915 57.71         9.8 0.18                          1.72 113 
                                                                                
 2010  8 1 0926 32.2 L  21.237 -99.444 10.0  RAL  1 0.0 0.9LRAL                1
 GAP=360        0.30       1.0     4.2  0.0  0.3575E+01 -0.4749E+00 -0.9090E+02E
 ACTION:UPD 13-02-28 14:29 OP:RALL STATUS:               ID:20100801092632     I
 2010-08-01-0926-28S.PLUR1_003                                                 6
 STAT SP IPHASW D HRMM SECON CODA AMPLIT PERI AZIMU VELO AIN AR TRES W  DIS CAZ7
 LG3  SZ E         926 35.97                  257.8 22.5      0        20.4  78 
 LG3  SN IP        926 36.04                             113    0.0210 20.4  78 
 LG3  SE IS        926 38.80                             113   -0.0210 20.4  78 
 LG3  SZ  AML      926 39.08        18.5 0.10                          20.4  78 
                                                                                
 2010  8 1 0949  6.1 L  21.272 -99.265 10.0  RAL  1 0.2 0.5LRAL                1
 GAP=360        0.69     999.9   999.9  0.0 -0.3244E+07 -0.4749E+00 -0.9090E+02E
 ACTION:UPD 13-02-28 14:29 OP:RALL STATUS:               ID:20100801094906     I
 2010-08-01-0948-58S.PLUR1_003                                                 6
 STAT SP IPHASW D HRMM SECON CODA AMPLIT PERI AZIMU VELO AIN AR TRES W  DIS CAZ7
 LG3  SN IP        949  8.37                             172    0.4210 1.39  72 
 LG3  SZ E         949  8.37                  252.4 16.8      0        1.39  72 
 LG3  SE IS        949  8.89                             172   -0.4210 1.39  72 
 LG3  SZ  AML      949  8.99        19.4 0.10                          1.39  72 
                                                                                
 2010  8 1  955 58.9 L                       RAL  0                            1
 ACTION:UPD 13-02-28 14:29 OP:RALL STATUS:               ID:20100801095558     I
 2010-08-01-0955-58S.PLUR1_006                                                 6
 STAT SP IPHASW D HRMM SECON CODA AMPLIT PERI AZIMU VELO AIN AR TRES W  DIS CAZ7
                                                                                
 2010  8 1 1046 11.5 L  21.292 -99.262 10.0  RAL  1 0.2 0.7LRAL                1
 GAP=360        0.71     698.7   999.9  0.0  0.1060E+07 -0.4749E+00 -0.9090E+02E
 ACTION:UPD 13-02-28 14:29 OP:RALL STATUS:               ID:20100801104611     I
 2010-08-01-1046-04S.PLUR1_003                                                 6
 STAT SP IPHASW D HRMM SECON CODA AMPLIT PERI AZIMU VELO AIN AR TRES W  DIS CAZ7
 LG3  SN IP       1046 13.77                             169    0.4310 2.09 152 
 LG3  SZ E        1046 13.79                  332.1 13.5      0        2.09 152 
 LG3  SE IS       1046 14.28                             169   -0.4310 2.09 152 
 LG3  SZ  AML     1046 14.76        25.9 0.34                          2.09 152 
                                                                                
 2010  8 1 1052  2.7 L  21.191 -99.319 10.0  RAL  3 1.5 0.3LRAL                1
 GAP=203       26.89      16.0    24.4194.2 -0.2534E+03 -0.1646E+03  0.3709E+02E
 ACTION:UPD 13-02-28 14:29 OP:RALL STATUS:               ID:20100801105202     I
 2010-08-01-1051-55S.PLUR1_009                                                 6
 STAT SP IPHASW D HRMM SECON CODA AMPLIT PERI AZIMU VELO AIN AR TRES W  DIS CAZ7
 LD5  SZ E        1052  5.21                   23.8  9.1     11        0.46 193 
 LD5  SN IP       1052  5.21                             177    0.6310 0.46 193 
 LD5  SE IS       1052  6.60                             177    0.6910 0.46 193 
 LD5  SZ  AML     1052  7.40         3.4 0.22                          0.46 193 
 LO8  SZ E        1052  6.04                  136.8  9.0    -99        11.5 107 
 LO8  SN IP       1052  6.18                             131    0.7510 11.5 107 
 LO8  SE IS       1052  7.83                             131    0.4310 11.5 107 
 LO8  SZ  AML     1052  8.78         1.7 0.10                          11.5 107 
 LG3  SZ E        1052  4.67                  251.7 24.5     35        11.7  36 
 LG3  SN IP       1052  4.69                             130   -0.7310 11.7  36 
 LG3  SE IS       1052  5.61                             130   -1.7710 11.7  36 
 LG3  SZ  AML     1052  5.91       102.2 0.42                          11.7  36 
                                                                                
 2010  8 1 1103  5.7 L  21.287 -99.274 10.0  RAL  1 0.1 1.3LRAL                1
 GAP=360        0.60      15.9    29.5  0.0 -0.4683E+03 -0.1646E+03  0.3709E+02E
 ACTION:UPD 13-02-28 14:29 OP:RALL STATUS:               ID:20100801110305     I
 2010-08-01-1102-58S.PLUR1_003                                                 6
 STAT SP IPHASW D HRMM SECON CODA AMPLIT PERI AZIMU VELO AIN AR TRES W  DIS CAZ7
 LG3  SN IP       11 3  7.96                             166    0.3510 2.53 120 
 LG3  SZ E        11 3  7.96                  300.0 18.9      0        2.53 120 
 LG3  SZ  AML     11 3  8.52       107.0 0.50                          2.53 120 
 LG3  SE IS       11 3  8.64                             166   -0.3510 2.53 120 
                                                                                
 2010  8 1 1107 11.5 L  21.333 -99.282 10.0  RAL  1 0.3 0.9LRAL                1
 GAP=360        3.09     430.3   416.7  0.0  0.1793E+06 -0.1646E+03  0.3709E+02E
 ACTION:UPD 13-02-28 14:29 OP:RALL STATUS:               ID:20100801110711     I
 2010-08-01-1107-04S.PLUR1_009                                                 6
 STAT SP IPHASW D HRMM SECON CODA AMPLIT PERI AZIMU VELO AIN AR TRES W  DIS CAZ7
 LZ4  SZ E        11 7 13.62                  265.4  8.8    -14        1.30 100 
 LZ4  SN IP       11 7 13.64                             173    0.2910 1.30 100 
 LZ4  SE IS       11 7 14.40                             173   -0.2910 1.30 100 
 LZ4  SZ  AML     11 7 14.52        39.8 0.16                          1.30 100 
                                                                                
