 2010 1226 1028 27.7 L  21.277 -99.370 10.0  RAL  1 0.0 0.0LRAL                1
 GAP=360        0.30       4.2     1.6  0.0  0.6499E+01 -0.5104E+05  0.1915E+05E
 ACTION:UPD 12-06-08 11:37 OP:RALL STATUS:               ID:20101226102827     I
 2010-12-26-1028-22S.PLUR1_003                                                 6
 STAT SP IPHASW D HRMM SECON CODA AMPLIT PERI AZIMU VELO AIN AR TRES W  DIS CAZ7
 LT9  SZ E        1028 30.64                  199.2 11.3      0        13.8  19 
 LT9  SN IP       1028 30.64                             124    0.0110 13.8  19 
 LT9  SE IS       1028 32.74                             124   -0.0110 13.8  19 
 LT9  SZ  AML     1028 33.62         3.4 0.40                          13.8  19 
                                                                                
 2010 1226 1736 40.2 L  21.499 -99.337 10.0  RAL  1 0.1 0.6LRAL                1
 GAP=360        0.37       7.8    13.9  0.0 -0.1083E+03 -0.5104E+05  0.1915E+05E
 ACTION:UPD 12-06-08 11:37 OP:RALL STATUS:               ID:20101226173640     I
 2010-12-26-1736-34S.PLUR1_003                                                 6
 STAT SP IPHASW D HRMM SECON CODA AMPLIT PERI AZIMU VELO AIN AR TRES W  DIS CAZ7
 LA4  SZ E        1736 42.27                  300.9 13.3      0        3.35 121 
 LA4  SN IP       1736 42.31                             162    0.1510 3.35 121 
 LA4  SE IS       1736 43.41                             162   -0.1510 3.35 121 
 LA4  SZ  AML     1736 43.55        21.2 0.24                          3.35 121 
                                                                                
 2010 1227 0547 30.5 L  21.404 -99.330 10.0  RAL  1 0.0 1.0LRAL                1
 GAP=360        0.30       4.1     3.4  0.0 -0.1371E+02 -0.5104E+05  0.1915E+05E
 ACTION:UPD 12-06-08 11:37 OP:RALL STATUS:               ID:20101227054730     I
 2010-12-27-0547-25S.PLUR1_003                                                 6
 STAT SP IPHASW D HRMM SECON CODA AMPLIT PERI AZIMU VELO AIN AR TRES W  DIS CAZ7
 LZ4  SN IP        547 32.98                             134    0.0110 10.2 142 
 LZ4  SZ E         547 33.01                  322.0 11.2      0        10.2 142 
 LZ4  SE IS        547 34.77                             134   -0.0110 10.2 142 
 LZ4  SZ  AML      547 35.07        39.9 0.10                          10.2 142 
                                                                                
 2010 1227 0616 40.2 L  21.554 -99.531 10.0  RAL  1 0.0 1.1LRAL                1
 GAP=360        0.30       2.6     3.1  0.0 -0.7171E+01 -0.5104E+05  0.1915E+05E
 ACTION:UPD 12-06-08 11:37 OP:RALL STATUS:               ID:20101227061640     I
 2010-12-27-0616-41S.PLUR1_003                                                 6
 STAT SP IPHASW D HRMM SECON CODA AMPLIT PERI AZIMU VELO AIN AR TRES W  DIS CAZ7
 LZ4  SZ E         616 46.44                  312.4 11.0      0        36.6 132 
 LZ4  SN IP        616 46.45                             101    0.0210 36.6 132 
 LZ4  SE IS        616 50.97                             101   -0.0210 36.6 132 
 LZ4  SZ  AML      616 51.49        18.8 0.38                          36.6 132 
                                                                                
 2010 1227 0721  9.2 L  21.349 -99.280 10.0  RAL  1 0.2 1.1LRAL                1
 GAP=360        0.81      39.9    23.3  0.0 -0.9308E+03 -0.5104E+05  0.1915E+05E
 ACTION:UPD 12-06-08 11:37 OP:RALL STATUS:               ID:20101227072109     I
 2010-12-27-0721-02S.PLUR1_003                                                 6
 STAT SP IPHASW D HRMM SECON CODA AMPLIT PERI AZIMU VELO AIN AR TRES W  DIS CAZ7
 LZ4  SZ E         721 11.55                  331.4 12.5      0        2.35 151 
 LZ4  SN IP        721 11.58                             167    0.5110 2.35 151 
 LZ4  SE IS        721 11.93                             167   -0.5110 2.35 151 
 LZ4  SZ  AML      721 12.03        63.1 0.16                          2.35 151 
                                                                                
 2010 1227 0810 47.1 L  21.099 -99.232  5.1  RAL  2 0.2 1.7LRAL                1
 GAP=354        3.03      58.3    16.4999.9 -0.8479E+03 -0.3174E+05  0.1260E+06E
 ACTION:UPD 12-06-08 11:37 OP:RALL STATUS:               ID:20101227081047     I
 2010-12-27-0810-42S.PLUR1_009                                                 6
 STAT SP IPHASW D HRMM SECON CODA AMPLIT PERI AZIMU VELO AIN AR TRES W  DIS CAZ7
 LT9  SZ E         810 52.63                  173.4  9.9     10        34.3 343 
 LT9  SN IP        810 52.65                              91    0.0910 34.3 343 
 LT9  SE IS        810 55.93                              91   -0.6010 34.3 343 
 LT9  SZ  AML      810 56.21        30.4 0.14                          34.3 343 
 LA4  SZ E         810 54.24                  159.1  8.4     -9        43.4 349 
 LA4  SN IP        810 54.34                              92    0.3310 43.4 349 
 LA4  SE IS        810 59.21                              92    0.1810 43.4 349 
 LA4  SZ  AML      811  1.75       162.2 0.18                          43.4 349 
                                                                                
 2010 1227 2047 23.5 L  21.378 -99.334 10.0  RAL  1 0.1-0.1LRAL                1
 GAP=360        0.52      29.7    14.3  0.0  0.4258E+03 -0.3174E+05  0.1260E+06E
 ACTION:UPD 12-06-08 11:37 OP:RALL STATUS:               ID:20101227204723     I
 2010-12-27-2047-16S.PLUR1_003                                                 6
 STAT SP IPHASW D HRMM SECON CODA AMPLIT PERI AZIMU VELO AIN AR TRES W  DIS CAZ7
 LT9  SN IP       2047 25.59                             168    0.2910 2.04  24 
 LT9  SZ E        2047 25.60                  204.2 15.5      0        2.04  24 
 LT9  SE IS       2047 26.33                             168   -0.2910 2.04  24 
 LT9  SZ  AML     2047 26.42         4.5 0.14                          2.04  24 
                                                                                
 2010 1228 0302 35.9 L  21.335 -99.288 10.0  RAL  1 0.1 0.2LRAL                1
 GAP=360        0.82      12.5    56.3  0.0 -0.7054E+03 -0.3174E+05  0.1260E+06E
 ACTION:UPD 12-06-08 11:37 OP:RALL STATUS:               ID:20101228030235     I
 2010-12-28-0302-29S.PLUR1_003                                                 6
 STAT SP IPHASW D HRMM SECON CODA AMPLIT PERI AZIMU VELO AIN AR TRES W  DIS CAZ7
 LZ4  SN IP        3 2 38.03                             169    0.2710 2.00 103 
 LZ4  SZ E         3 2 38.04                  280.3 19.7     -2        2.00 103 
 LZ4  SE IS        3 2 38.85                             169   -0.2710 2.00 103 
 LZ4  SZ  AML      3 2 39.33         8.9 0.22                          2.00 103 
                                                                                
 2010 1228 0316 59.3 L  21.516 -99.317 10.0  RAL  1 0.0 0.3LRAL                1
 GAP=360        0.31      11.2     2.9  0.0 -0.3204E+02 -0.3174E+05  0.1260E+06E
 ACTION:UPD 12-06-08 11:37 OP:RALL STATUS:               ID:20101228031659     I
 2010-12-28-0316-53S.PLUR1_003                                                 6
 STAT SP IPHASW D HRMM SECON CODA AMPLIT PERI AZIMU VELO AIN AR TRES W  DIS CAZ7
 LA4  SZ E         317  1.33                  346.7  8.0      0        3.63 167 
 LA4  SN IP        317  1.34                             161    0.0510 3.63 167 
 LA4  SE IS        317  2.65                             161   -0.0510 3.63 167 
 LA4  SZ  AML      317  2.75        11.1 0.10                          3.63 167 
                                                                                
 2010 1228 0359  1.5 L  20.970 -99.655 10.0  RAL  3 1.7 1.6LRAL                1
 GAP=327       21.01     125.1   158.5999.9  0.1603E+05  0.2122E+06  0.1467E+06E
 ACTION:UPD 12-06-08 11:37 OP:RALL STATUS:               ID:20101228035901     I
 2010-12-28-0359-01S.PLUR1_012                                                 6
 STAT SP IPHASW D HRMM SECON CODA AMPLIT PERI AZIMU VELO AIN AR TRES W  DIS CAZ7
 LO8  SZ E         359 14.39                  136.7  6.4    -99        50.5  65 
 LO8  SN IP        359 14.44                              97    4.5510 50.5  65 
 LO8  SE IS        359 19.08                              97    3.0610 50.5  65 
 LO8  SZ  AML      359 20.04        10.3 0.72                          50.5  65 
 LT9  SZ E         359 11.42                  186.0 11.5    -29        58.1  36 
 LT9  SN IP        359 11.46                              96    0.4510 58.1  36 
 LT9  SZ  AML      359 13.64        35.5 0.64                          58.1  36 
 LT9  SE IS        359 13.66                              96   -4.3110 58.1  36 
 LA4  SZ E         359 12.81                  194.1 10.2    -17        67.2  32 
 LA4  SN IP        359 12.86                              95    0.4110 67.2  32 
 LA4  SE IS        359 16.30                              95   -4.1610 67.2  32 
 LA4  SZ  AML      359 16.95       129.8 0.34                          67.2  32 
                                                                                
 2010 1228 0441 20.3 L  21.220 -99.191 10.0  RAL  1 0.0 1.3LRAL                1
 GAP=360        0.30       3.7     2.6  0.0 -0.9376E+01  0.2122E+06  0.1467E+06E
 ACTION:UPD 12-06-08 11:37 OP:RALL STATUS:               ID:20101228044120     I
 2010-12-28-0441-14S.PLUR1_003                                                 6
 STAT SP IPHASW D HRMM SECON CODA AMPLIT PERI AZIMU VELO AIN AR TRES W  DIS CAZ7
 LZ4  SZ E         441 23.29                  146.6 14.7      0        14.7 327 
 LZ4  SN IP        441 23.33                             122    0.0110 14.7 327 
 LZ4  SE IS        441 25.53                             122   -0.0110 14.7 327 
 LZ4  SZ  AML      441 26.83        69.9 0.14                          14.7 327 
                                                                                
 2010 1228 0636 38.9 L  21.223 -99.186 10.0  RAL  1 0.0 1.3LRAL                1
 GAP=360        0.30       3.6     2.8  0.0 -0.9687E+01  0.2122E+06  0.1467E+06E
 ACTION:UPD 12-06-08 11:37 OP:RALL STATUS:               ID:20101228063638     I
 2010-12-28-0636-32S.PLUR1_003                                                 6
 STAT SP IPHASW D HRMM SECON CODA AMPLIT PERI AZIMU VELO AIN AR TRES W  DIS CAZ7
 LZ4  SZ E         636 41.93                  144.1 13.5      0        14.8 324 
 LZ4  SN IP        636 41.94                             122    0.0110 14.8 324 
 LZ4  SE IS        636 44.14                             122   -0.0110 14.8 324 
 LZ4  SZ  AML      636 45.16        67.8 0.64                          14.8 324 
                                                                                
 2010 1228 0754 50.8 L  21.491 -99.486 10.0  RAL  1 0.0-0.2LRAL                1
 GAP=360        0.30       2.2     3.6  0.0 -0.7761E+01  0.2122E+06  0.1467E+06E
 ACTION:UPD 12-06-08 11:37 OP:RALL STATUS:               ID:20101228075450     I
 2010-12-28-0754-48S.PLUR1_003                                                 6
 STAT SP IPHASW D HRMM SECON CODA AMPLIT PERI AZIMU VELO AIN AR TRES W  DIS CAZ7
 LT9  SZ E         754 54.49                  302.7 14.4      0        19.7 123 
 LT9  SN IP        754 54.51                             113    0.0010 19.7 123 
 LT9  SE IS        754 57.20                             113    0.0010 19.7 123 
 LT9  SZ  AML      754 58.53         1.8 0.52                          19.7 123 
                                                                                
 2010 1228 2138 41.3 L  21.156 -99.209 10.4  RAL  2 0.6-0.2LRAL                1
 GAP=342        5.63      35.5    21.8 48.3 -0.5096E+03  0.6024E+03 -0.1251E+04E
 ACTION:UPD 12-06-08 11:37 OP:RALL STATUS:               ID:20101228213841     I
 2010-12-28-2138-36S.PLUR1_006                                                 6
 STAT SP IPHASW D HRMM SECON CODA AMPLIT PERI AZIMU VELO AIN AR TRES W  DIS CAZ7
 LO8  SN IP       2138 44.23                             178    0.9410 0.61 318 
 LO8  SZ E        2138 44.29                  116.6  8.6    -20        0.61 318 
 LO8  SE IS       2138 46.32                             178    1.6010 0.61 318 
 LO8  SZ  AML     2138 46.49         3.0 0.20                          0.61 318 
 LT9  SZ E        2138 45.56                  167.0 10.5     12        29.2 335 
 LT9  SN IP       2138 45.59                             106   -0.8510 29.2 335 
 LT9  SE IS       2138 48.47                             106   -1.7010 29.2 335 
 LT9  SZ  AML     2138 49.03         1.7 0.16                          29.2 335 
                                                                                
 2010 1229 0811 30.1 L  21.204 -99.273 10.0  RAL  1 0.0 0.0LRAL                1
 GAP=360        0.30       3.8     1.2  0.0 -0.4027E+01  0.6024E+03 -0.1251E+04E
 ACTION:UPD 12-06-08 11:37 OP:RALL STATUS:               ID:20101229081130     I
 2010-12-29-0811-27S.PLUR1_003                                                 6
 STAT SP IPHASW D HRMM SECON CODA AMPLIT PERI AZIMU VELO AIN AR TRES W  DIS CAZ7
 LT9  SN IP        811 34.16                             111    0.0210 21.9 345 
 LT9  SZ E         811 34.17                  165.4  8.7      0        21.9 345 
 LT9  SE IS        811 37.05                             111   -0.0210 21.9 345 
 LT9  SZ  AML      811 37.30         2.3 0.12                          21.9 345 
                                                                                
 2010 1229 1138 47.6 L  21.614 -99.425 36.6  RAL  2 0.0 0.7LRAL                1
 GAP=343        0.37       2.7     2.0  5.4 -0.5335E+01  0.4099E+01 -0.5582E+01E
 ACTION:UPD 12-06-08 11:37 OP:RALL STATUS:               ID:20101229113847     I
 2010-12-29-1138-44S.PLUR1_006                                                 6
 STAT SP IPHASW D HRMM SECON CODA AMPLIT PERI AZIMU VELO AIN AR TRES W  DIS CAZ7
 LA4  SZ E        1138 54.04                  320.6 11.9      0        18.8 140 
 LA4  SN IP       1138 54.10                             147    0.1610 18.8 140 
 LA4  SE IS       1138 58.57                             147    0.0210 18.8 140 
 LA4  SZ  AML     1139  1.98        23.0 0.44                          18.8 140 
 LT9  SZ E        1138 54.27                  337.0  8.2      0        26.3 157 
 LT9  SN IP       1138 54.33                             136   -0.1110 26.3 157 
 LT9  SE IS       1138 59.35                             136   -0.0710 26.3 157 
 LT9  SZ  AML     1139  1.43         1.9 0.42                          26.3 157 
                                                                                
 2010 1230 0751 59.3 L  21.315 -99.313 10.0  RAL  1 0.0-0.6LRAL                1
 GAP=360        0.30       5.4     0.9  0.0 -0.4654E+01  0.4099E+01 -0.5582E+01E
 ACTION:UPD 12-06-08 11:37 OP:RALL STATUS:               ID:20101230075159     I
 2010-12-30-0751-53S.PLUR1_003                                                 6
 STAT SP IPHASW D HRMM SECON CODA AMPLIT PERI AZIMU VELO AIN AR TRES W  DIS CAZ7
 LT9  SZ E         752  1.64                  171.4  8.1      0        9.00 351 
 LT9  SN IP        752  1.66                             137    0.0010 9.00 351 
 LT9  SE IS        752  3.34                             137    0.0010 9.00 351 
 LT9  SZ  AML      752  3.41         1.0 0.34                          9.00 351 
                                                                                
 2010 1230 0917  2.7 R  22.756 -99.667 10.0  RAL  1 0.0 1.6LRAL                1
 GAP=360        0.30       4.7     4.4  0.0 -0.1504E+01  0.4099E+01 -0.5582E+01E
 ACTION:UPD 12-06-08 11:37 OP:RALL STATUS:               ID:20101230091702     I
 2010-12-30-0917-18S.PLUR1_003                                                 6
 STAT SP IPHASW D HRMM SECON CODA AMPLIT PERI AZIMU VELO AIN AR TRES W  DIS CAZ7
 LT9  SN IP        917 26.32                              52    0.0110  155 167 
 LT9  SZ E         917 26.37                  346.9  8.4      0         155 167 
 LT9  SE IS        917 43.51                              52   -0.0110  155 167 
 LT9  SZ  AML      917 45.16        12.7 0.32                           155 167 
                                                                                
 2010 1231 0245 14.2 L  21.321 -99.265 10.0  RAL  1 0.1 0.9LRAL                1
 GAP=360        0.64     722.0   999.9  0.0  0.1454E+07  0.4099E+01 -0.5582E+01E
 ACTION:UPD 12-06-08 11:37 OP:RALL STATUS:               ID:20101231024514     I
 2010-12-31-0245-07S.PLUR1_003                                                 6
 STAT SP IPHASW D HRMM SECON CODA AMPLIT PERI AZIMU VELO AIN AR TRES W  DIS CAZ7
 LZ4  SZ E         245 16.41                  158.0 11.9      1        1.14 337 
 LZ4  SN IP        245 16.42                             174    0.3510 1.14 337 
 LZ4  SE IS        245 17.06                             174   -0.3510 1.14 337 
 LZ4  SZ  AML      245 17.62        45.5 0.20                          1.14 337 
                                                                                
 2010 1231 0621 13.4 L  21.364 -99.304 10.0  RAL  1 0.0-0.4LRAL                1
 GAP=360        0.34       9.1     6.4  0.0 -0.5838E+02  0.4099E+01 -0.5582E+01E
 ACTION:UPD 12-06-08 11:37 OP:RALL STATUS:               ID:20101231062113     I
 2010-12-31-0621-06S.PLUR1_003                                                 6
 STAT SP IPHASW D HRMM SECON CODA AMPLIT PERI AZIMU VELO AIN AR TRES W  DIS CAZ7
 LT9  SZ E         621 15.43                  146.6  9.0      0        4.19 327 
 LT9  SN IP        621 15.44                             157    0.1110 4.19 327 
 LT9  SE IS        621 16.61                             157   -0.1110 4.19 327 
 LT9  SZ  AML      621 17.47         2.3 0.24                          4.19 327 
                                                                                
 2010 1231 0746 54.1 L  21.324 -99.272 10.0  RAL  1 0.5 0.4LRAL                1
 GAP=360        5.49     167.1   999.9  0.0  0.3496E+06  0.4099E+01 -0.5582E+01E
 ACTION:UPD 12-06-08 11:37 OP:RALL STATUS:               ID:20101231074654     I
 2010-12-31-0746-47S.PLUR1_003                                                 6
 STAT SP IPHASW D HRMM SECON CODA AMPLIT PERI AZIMU VELO AIN AR TRES W  DIS CAZ7
 LZ4  SZ E         746 56.45                  174.6 46.5    -25        0.84  21 
 LZ4  SN IP        746 56.49                             175    0.5410 0.84  21 
 LZ4  SE IS        746 56.74                             175   -0.5410 0.84  21 
 LZ4  SZ  AML      746 56.89        15.0 0.22                          0.84  21 
                                                                                
 2010 1231 0855 33.5 L  21.345 -99.291 10.0  RAL  1 0.2 1.0LRAL                1
 GAP=360        0.81      22.7    34.7  0.0 -0.7876E+03  0.4099E+01 -0.5582E+01E
 ACTION:UPD 12-06-08 11:37 OP:RALL STATUS:               ID:20101231085533     I
 2010-12-31-0855-26S.PLUR1_003                                                 6
 STAT SP IPHASW D HRMM SECON CODA AMPLIT PERI AZIMU VELO AIN AR TRES W  DIS CAZ7
 LZ4  SZ E         855 35.82                  305.0 13.6      0        2.72 125 
 LZ4  SN IP        855 35.85                             165    0.5110 2.72 125 
 LZ4  SE IS        855 36.21                             165   -0.5110 2.72 125 
 LZ4  SZ  AML      855 37.04        51.7 0.18                          2.72 125 
                                                                                
