 2010  9 6 0612 46.8 L  21.372 -99.320 10.0  RAL  1 0.0 1.3LRAL                1
 GAP=360        0.33      15.5     3.9  0.0 -0.6079E+02 -0.1266E+01 -0.2441E+01E
 ACTION:UPD 13-02-28 14:29 OP:RALL STATUS:               ID:20100906061246     I
 2010-09-06-0612-38S.PLUR1_003                                                 6
 STAT SP IPHASW D HRMM SECON CODA AMPLIT PERI AZIMU VELO AIN AR TRES W  DIS CAZ7
 LT9  SZ E         612 48.75                  166.7  7.8      0        2.68 347 
 LT9  SN IP        612 48.75                             165    0.1010 2.68 347 
 LT9  SE IS        612 49.89                             165   -0.1010 2.68 347 
 LT9  SZ  AML      612 50.04       115.8 0.50                          2.68 347 
                                                                                
 2010  9 6 0632 41.7 L  21.411 -99.345 10.0  RAL  1 0.1-0.3LRAL                1
 GAP=360        0.59      19.6    24.1  0.0 -0.4707E+03 -0.1266E+01 -0.2441E+01E
 ACTION:UPD 13-02-28 14:29 OP:RALL STATUS:               ID:20100906063241     I
 2010-09-06-0632-34S.PLUR1_003                                                 6
 STAT SP IPHASW D HRMM SECON CODA AMPLIT PERI AZIMU VELO AIN AR TRES W  DIS CAZ7
 LT9  SN IP        632 43.83                             166    0.3510 2.57 131 
 LT9  SZ E         632 43.84                  311.1 10.9      0        2.57 131 
 LT9  SE IS        632 44.47                             166   -0.3510 2.57 131 
 LT9  SZ  AML      632 44.68         2.5 0.18                          2.57 131 
                                                                                
 2010  9 6 0829 56.1 L  21.348 -99.296 10.0  RAL  1 0.0 0.5LRAL                1
 GAP=360        0.30       6.1     3.9  0.0 -0.2395E+02 -0.1266E+01 -0.2441E+01E
 ACTION:UPD 13-02-28 14:29 OP:RALL STATUS:               ID:20100906082956     I
 2010-09-06-0829-48S.PLUR1_003                                                 6
 STAT SP IPHASW D HRMM SECON CODA AMPLIT PERI AZIMU VELO AIN AR TRES W  DIS CAZ7
 LT9  SN IP        829 58.19                             148    0.0410 6.13 329 
 LT9  SZ E         829 58.22                  149.1  7.6      0        6.13 329 
 LT9  SE IS        829 59.61                             148   -0.0410 6.13 329 
 LT9  SZ  AML      829 59.73        16.8 0.32                          6.13 329 
                                                                                
 2010  9 6 0911 41.8 L  21.229 -99.265 10.0  RAL  1 0.0 0.3LRAL                1
 GAP=360        0.30       3.8     1.5  0.0 -0.5320E+01 -0.1266E+01 -0.2441E+01E
 ACTION:UPD 13-02-28 14:29 OP:RALL STATUS:               ID:20100906091141     I
 2010-09-06-0911-38S.PLUR1_003                                                 6
 STAT SP IPHASW D HRMM SECON CODA AMPLIT PERI AZIMU VELO AIN AR TRES W  DIS CAZ7
 LT9  SN IP        911 45.44                             114    0.0010 19.5 341 
 LT9  SZ E         911 45.46                  160.8  6.7      0        19.5 341 
 LT9  SE IS        911 48.11                             114    0.0010 19.5 341 
 LT9  SZ  AML      911 48.71         5.8 0.24                          19.5 341 
                                                                                
 2010  9 6 1001 33.3 L  21.338 -99.290 10.0  RAL  1 0.0-0.5LRAL                1
 GAP=360        0.30       5.3     3.4  0.0 -0.1769E+02 -0.1266E+01 -0.2441E+01E
 ACTION:UPD 13-02-28 14:29 OP:RALL STATUS:               ID:20100906100133     I
 2010-09-06-1001-27S.PLUR1_003                                                 6
 STAT SP IPHASW D HRMM SECON CODA AMPLIT PERI AZIMU VELO AIN AR TRES W  DIS CAZ7
 LT9  SZ E        10 1 35.37                  149.4  9.1      0        7.42 329 
 LT9  SN IP       10 1 35.43                             143    0.0210 7.42 329 
 LT9  SE IS       10 1 36.97                             143   -0.0210 7.42 329 
 LT9  SZ  AML     10 1 37.03         1.4 0.30                          7.42 329 
                                                                                
 2010  9 6 1025 55.2 L  21.381 -99.329 10.0  RAL  1 0.2                        1
 GAP=360        1.38     316.6   999.9  0.0 -0.4399E+06 -0.1266E+01 -0.2441E+01E
 ACTION:UPD 13-02-28 14:29 OP:RALL STATUS:               ID:20100906102555     I
 2010-09-06-1025-47S.PLUR1_003                                                 6
 STAT SP IPHASW D HRMM SECON CODA AMPLIT PERI AZIMU VELO AIN AR TRES W  DIS CAZ7
 LT9  SZ E        1025 57.38                  194.8  9.6      6        1.61   9 
 LT9  SN IP       1025 57.38                             171    0.4110 1.61   9 
 LT9  SE IS       1025 57.86                             171   -0.4110 1.61   9 
                                                                                
 2010  9 6 1054  0.6 L  21.355 -99.309 10.0  RAL  1 0.0-0.2LRAL                1
 GAP=360        0.30       8.1     3.5  0.0 -0.2801E+02 -0.1266E+01 -0.2441E+01E
 ACTION:UPD 13-02-28 14:29 OP:RALL STATUS:               ID:20100906105400     I
 2010-09-06-1053-54S.PLUR1_003                                                 6
 STAT SP IPHASW D HRMM SECON CODA AMPLIT PERI AZIMU VELO AIN AR TRES W  DIS CAZ7
 LT9  SZ E        1054  2.57                  158.2  7.1      0        4.77 338 
 LT9  SN IP       1054  2.58                             154    0.0410 4.77 338 
 LT9  SE IS       1054  3.92                             154   -0.0410 4.77 338 
 LT9  SZ  AML     1054  4.05         3.6 0.10                          4.77 338 
                                                                                
 2010  9 6 1058 12.9 L  21.338 -99.291 10.0  RAL  1 0.0-0.3LRAL                1
 GAP=360        0.30       5.4     3.3  0.0 -0.1789E+02 -0.1266E+01 -0.2441E+01E
 ACTION:UPD 13-02-28 14:29 OP:RALL STATUS:               ID:20100906105812     I
 2010-09-06-1058-06S.PLUR1_003                                                 6
 STAT SP IPHASW D HRMM SECON CODA AMPLIT PERI AZIMU VELO AIN AR TRES W  DIS CAZ7
 LT9  SZ E        1058 15.10                  150.0  7.5      0        7.30 330 
 LT9  SN IP       1058 15.10                             143    0.0210 7.30 330 
 LT9  SE IS       1058 16.63                             143   -0.0210 7.30 330 
 LT9  SZ  AML     1058 16.72         2.5 0.26                          7.30 330 
                                                                                
 2010  9 6 1530 51.0 L  21.506 -99.327 10.0  RAL  1 0.1 0.5LRAL                1
 GAP=360        0.46      15.7    12.8  0.0 -0.2006E+03 -0.1266E+01 -0.2441E+01E
 ACTION:UPD 13-02-28 14:29 OP:RALL STATUS:               ID:20100906153051     I
 2010-09-06-1530-44S.PLUR1_003                                                 6
 STAT SP IPHASW D HRMM SECON CODA AMPLIT PERI AZIMU VELO AIN AR TRES W  DIS CAZ7
 LA4  SZ E        1530 53.15                  322.8  8.2      0        3.13 143 
 LA4  SN IP       1530 53.20                             163    0.2310 3.13 143 
 LA4  SE IS       1530 54.13                             163   -0.2310 3.13 143 
 LA4  SZ  AML     1530 54.67        15.9 0.18                          3.13 143 
                                                                                
 2010  9 6 1604  2.0 L  21.404 -99.326  9.7  RAL  2 0.5 2.4LRAL                1
 GAP=187        8.75      22.2     5.0 91.4  0.8914E+02  0.5149E+02  0.2814E+03E
 ACTION:UPD 13-02-28 14:29 OP:RALL STATUS:               ID:20100906160402     I
 2010-09-06-1603-53S.PLUR1_006                                                 6
 STAT SP IPHASW D HRMM SECON CODA AMPLIT PERI AZIMU VELO AIN AR TRES W  DIS CAZ7
 LT9  SZ E        16 4  3.56                  347.4 14.1     17        0.92 184 
 LT9  SN IP       16 4  3.56                             135   -0.1610 0.92 184 
 LT9  SE IS       16 4  4.22                             135   -0.7610 0.92 184 
 LT9  SZ  AML     16 4  4.44       808.9 0.20                          0.92 184 
 LA4  SZ E        16 4  4.76                  152.0  9.3    -38        9.03  11 
 LA4  SN IP       16 4  4.78                             141    0.4610 9.03  11 
 LA4  SE IS       16 4  6.50                             141    0.4710 9.03  11 
 LA4  SZ  AML     16 4  6.61      1818.5 0.20                          9.03  11 
                                                                                
 2010  9 6 2020 29.1 L  21.416 -99.339 10.0  RAL  1 0.1-0.2LRAL                1
 GAP=360        0.57      23.9    14.7  0.0 -0.3519E+03  0.5149E+02  0.2814E+03E
 ACTION:UPD 13-02-28 14:29 OP:RALL STATUS:               ID:20100906202029     I
 2010-09-06-2020-22S.PLUR1_003                                                 6
 STAT SP IPHASW D HRMM SECON CODA AMPLIT PERI AZIMU VELO AIN AR TRES W  DIS CAZ7
 LT9  SZ E        2020 31.25                  330.2 21.5      0        2.67 150 
 LT9  SN IP       2020 31.26                             165    0.3310 2.67 150 
 LT9  SE IS       2020 31.94                             165   -0.3310 2.67 150 
 LT9  SZ  AML     2020 32.76         3.1 0.66                          2.67 150 
                                                                                
 2010  9 6 2313 32.1 L  21.194 -99.147  4.7  RAL  2 0.5 0.3LRAL                1
 GAP=348        5.43      65.4    49.1999.9 -0.3073E+04 -0.1113E+06  0.1515E+06E
 ACTION:UPD 13-02-28 14:29 OP:RALL STATUS:               ID:20100906231332     I
 2010-09-06-2313-29S.PLUR1_006                                                 6
 STAT SP IPHASW D HRMM SECON CODA AMPLIT PERI AZIMU VELO AIN AR TRES W  DIS CAZ7
 LT9  SZ E        2313 37.94                  154.8  7.5     15        29.1 320 
 LT9  SN IP       2313 37.96                              92    0.8410 29.1 320 
 LT9  SE IS       2313 39.27                              92   -1.5010 29.1 320 
 LT9  SZ  AML     2313 39.91         2.2 0.20                          29.1 320 
 LA4  SZ E        2313 39.39                  132.9  8.5    -18        36.2 332 
 LA4  SN IP       2313 39.41                              92    1.1410 36.2 332 
 LA4  SE IS       2313 42.27                              92   -0.4810 36.2 332 
 LA4  SZ  AML     2313 43.80         5.4 0.28                          36.2 332 
                                                                                
 2010  9 6 2333 24.8 L  21.412 -99.351 10.0  RAL  1 0.1-0.7LRAL                1
 GAP=360        0.55      13.3    19.9  0.0 -0.2636E+03 -0.1113E+06  0.1515E+06E
 ACTION:UPD 13-02-28 14:29 OP:RALL STATUS:               ID:20100906233324     I
 2010-09-06-2333-18S.PLUR1_003                                                 6
 STAT SP IPHASW D HRMM SECON CODA AMPLIT PERI AZIMU VELO AIN AR TRES W  DIS CAZ7
 LT9  SZ E        2333 26.94                  305.6 18.4      0        3.14 126 
 LT9  SN IP       2333 26.98                             163    0.3110 3.14 126 
 LT9  SE IS       2333 27.71                             163   -0.3110 3.14 126 
 LT9  SZ  AML     2333 28.15         1.2 0.38                          3.14 126 
                                                                                
 2010  9 7 0328 30.0 L  21.593 -99.320 10.0  RAL  1 0.0 0.3LRAL                1
 GAP=360        0.30       4.7     0.6  0.0 -0.2159E+01 -0.1113E+06  0.1515E+06E
 ACTION:UPD 13-02-28 14:29 OP:RALL STATUS:               ID:20100907032830     I
 2010-09-07-0328-25S.PLUR1_003                                                 6
 STAT SP IPHASW D HRMM SECON CODA AMPLIT PERI AZIMU VELO AIN AR TRES W  DIS CAZ7
 LA4  SN IP        328 32.75                             129    0.0010 12.1 175 
 LA4  SZ E         328 32.80                  354.8  6.9      0        12.1 175 
 LA4  SE IS        328 34.74                             129    0.0010 12.1 175 
 LA4  SZ  AML      328 34.82         6.7 0.10                          12.1 175 
                                                                                
 2010  9 7 0342 10.6 L  21.392 -99.315 10.0  RAL  1 0.2-0.5LRAL                1
 GAP=360        0.90     999.9   999.9  0.0  0.6130E+07 -0.1113E+06  0.1515E+06E
 ACTION:UPD 13-02-28 14:29 OP:RALL STATUS:               ID:20100907034210     I
 2010-09-07-0342-03S.PLUR1_003                                                 6
 STAT SP IPHASW D HRMM SECON CODA AMPLIT PERI AZIMU VELO AIN AR TRES W  DIS CAZ7
 LT9  SN IP        342 13.00                             173    0.5810 1.24 288 
 LT9  SZ E         342 13.01                  108.4 13.3      0        1.24 288 
 LT9  SE IS        342 13.15                             173   -0.5810 1.24 288 
 LT9  SZ  AML      342 13.32         1.8 0.28                          1.24 288 
                                                                                
 2010  9 7 0832 13.4 L  21.371 -99.320 10.0  RAL  1 0.0-0.2LRAL                1
 GAP=360        0.32      14.6     3.9  0.0 -0.5644E+02 -0.1113E+06  0.1515E+06E
 ACTION:UPD 13-02-28 14:29 OP:RALL STATUS:               ID:20100907083213     I
 2010-09-07-0832-06S.PLUR1_003                                                 6
 STAT SP IPHASW D HRMM SECON CODA AMPLIT PERI AZIMU VELO AIN AR TRES W  DIS CAZ7
 LT9  SZ E         832 15.33                  166.1  7.4      0        2.72 346 
 LT9  SN IP        832 15.33                             165    0.0710 2.72 346 
 LT9  SE IS        832 16.52                             165   -0.0710 2.72 346 
 LT9  SZ  AML      832 16.75         3.3 0.68                          2.72 346 
                                                                                
 2010  9 7 0948 59.4 L  21.375 -99.314 10.0  RAL  1 0.1-0.3LRAL                1
 GAP=360        0.57      24.9    15.3  0.0 -0.3807E+03 -0.1113E+06  0.1515E+06E
 ACTION:UPD 13-02-28 14:29 OP:RALL STATUS:               ID:20100907094859     I
 2010-09-07-0948-51S.PLUR1_003                                                 6
 STAT SP IPHASW D HRMM SECON CODA AMPLIT PERI AZIMU VELO AIN AR TRES W  DIS CAZ7
 LT9  SZ E         949  1.57                  150.3 12.8      0        2.58 330 
 LT9  SN IP        949  1.58                             166    0.3310 2.58 330 
 LT9  SE IS        949  2.25                             166   -0.3310 2.58 330 
 LT9  SZ  AML      949  2.37         2.9 0.14                          2.58 330 
                                                                                
 2010  9 7 1103 18.7 L  21.412 -99.345 10.0  RAL  1 0.1-0.5LRAL                1
 GAP=360        0.58      19.7    22.2  0.0 -0.4388E+03 -0.1113E+06  0.1515E+06E
 ACTION:UPD 13-02-28 14:29 OP:RALL STATUS:               ID:20100907110318     I
 2010-09-07-1103-10S.PLUR1_003                                                 6
 STAT SP IPHASW D HRMM SECON CODA AMPLIT PERI AZIMU VELO AIN AR TRES W  DIS CAZ7
 LT9  SZ E        11 3 20.70                  313.6 17.9      0        2.62 134 
 LT9  SN IP       11 3 20.82                             165    0.3410 2.62 134 
 LT9  SE IS       11 3 21.48                             165   -0.3410 2.62 134 
 LT9  SZ  AML     11 3 21.77         1.8 0.30                          2.62 134 
                                                                                
 2010  9 7 1158 55.2 L  21.314 -99.300 10.0  RAL  1 0.0-0.8LRAL                1
 GAP=360        0.30       5.1     1.7  0.0 -0.8325E+01 -0.1113E+06  0.1515E+06E
 ACTION:UPD 13-02-28 14:29 OP:RALL STATUS:               ID:20100907115855     I
 2010-09-07-1158-49S.PLUR1_003                                                 6
 STAT SP IPHASW D HRMM SECON CODA AMPLIT PERI AZIMU VELO AIN AR TRES W  DIS CAZ7
 LT9  SZ E        1158 57.61                  163.3  7.9      0        9.35 343 
 LT9  SN IP       1158 57.61                             136    0.0110 9.35 343 
 LT9  SE IS       1158 59.30                             136   -0.0110 9.35 343 
 LT9  SZ  AML     1159  0.83         0.7 0.62                          9.35 343 
                                                                                
 2010  9 7 1301 10.7 L  21.403 -99.338  1.9  RAL  2 0.1 0.8LRAL                1
 GAP=255        1.16       0.6     1.0  7.4 -0.1890E+00  0.5477E+00 -0.5856E+00E
 ACTION:UPD 13-02-28 14:29 OP:RALL STATUS:               ID:20100907130110     I
 2010-09-07-1301-01S.PLUR1_006                                                 6
 STAT SP IPHASW D HRMM SECON CODA AMPLIT PERI AZIMU VELO AIN AR TRES W  DIS CAZ7
 LT9  SZ E        13 1 10.90                  308.3 13.2      5        1.46 124 
 LT9  SN IP       13 1 10.91                             151   -0.2910 1.46 124 
 LT9  SE IS       13 1 11.48                             151   -0.1010 1.46 124 
 LT9  SZ  AML     13 1 12.00        54.7 0.56                          1.46 124 
 LA4  SZ E        13 1 12.32                  198.7  7.1      0        9.46  19 
 LA4  SN IP       13 1 12.32                             108   -0.0910 9.46  19 
 LA4  SE IS       13 1 14.16                             108    0.4810 9.46  19 
 LA4  SZ  AML     13 1 15.99        83.3 0.46                          9.46  19 
                                                                                
 2010  9 7 1432 59.5 L  21.355 -99.370 10.0  RAL  1 0.0-0.6LRAL                1
 GAP=360        0.30       4.9     5.3  0.0  0.2616E+02  0.5477E+00 -0.5856E+00E
 ACTION:UPD 13-02-28 14:29 OP:RALL STATUS:               ID:20100907143259     I
 2010-09-07-1432-53S.PLUR1_003                                                 6
 STAT SP IPHASW D HRMM SECON CODA AMPLIT PERI AZIMU VELO AIN AR TRES W  DIS CAZ7
 LT9  SN IP       1433  1.59                             147    0.0410 6.34  45 
 LT9  SZ E        1433  1.64                  225.0 11.0      0        6.34  45 
 LT9  SE IS       1433  3.01                             147   -0.0410 6.34  45 
 LT9  SZ  AML     1433  3.09         1.2 0.10                          6.34  45 
                                                                                
 2010  9 7 1440 21.2 L  21.314 -99.345 10.0  RAL  1 0.0-0.9LRAL                1
 GAP=360        0.30       5.2     1.2  0.0  0.6196E+01  0.5477E+00 -0.5856E+00E
 ACTION:UPD 13-02-28 14:29 OP:RALL STATUS:               ID:20100907144021     I
 2010-09-07-1440-15S.PLUR1_003                                                 6
 STAT SP IPHASW D HRMM SECON CODA AMPLIT PERI AZIMU VELO AIN AR TRES W  DIS CAZ7
 LT9  SN IP       1440 23.50                             136    0.0110 9.20  12 
 LT9  SZ E        1440 23.50                  191.9  8.0      0        9.20  12 
 LT9  SE IS       1440 25.19                             136   -0.0110 9.20  12 
 LT9  SZ  AML     1440 26.85         0.5 0.44                          9.20  12 
                                                                                
 2010  9 7 1926 41.1 L  21.344 -99.268 10.0  RAL  1 0.0-0.6LRAL                1
 GAP=360        0.30       3.9     4.5  0.0 -0.1752E+02  0.5477E+00 -0.5856E+00E
 ACTION:UPD 13-02-28 14:29 OP:RALL STATUS:               ID:20100907192641     I
 2010-09-07-1926-35S.PLUR1_003                                                 6
 STAT SP IPHASW D HRMM SECON CODA AMPLIT PERI AZIMU VELO AIN AR TRES W  DIS CAZ7
 LT9  SN IP       1926 43.40                             140    0.0210 8.27 314 
 LT9  SZ E        1926 43.40                  133.5  7.4      0        8.27 314 
 LT9  SE IS       1926 45.00                             140   -0.0210 8.27 314 
 LT9  SZ  AML     1926 45.11         1.1 0.22                          8.27 314 
                                                                                
