 2010  918 1113 28.0 L  21.349 -99.302 10.0  RAL  1 0.0-0.5LRAL                1
 GAP=360        0.30       6.7     3.6  0.0 -0.2414E+02 -0.2702E+04  0.4169E+04E
 ACTION:UPD 13-02-28 14:29 OP:RALL STATUS:               ID:20100918111328     I
 2010-09-18-1113-21S.PLUR1_003                                                 6
 STAT SP IPHASW D HRMM SECON CODA AMPLIT PERI AZIMU VELO AIN AR TRES W  DIS CAZ7
 LT9  SZ E        1113 30.01                  153.4  7.5      0        5.71 333 
 LT9  SN IP       1113 30.02                             150    0.0310 5.71 333 
 LT9  SE IS       1113 31.42                             150   -0.0310 5.71 333 
 LT9  SZ  AML     1113 31.74         1.7 0.10                          5.71 333 
                                                                                
 2010  918 2113 37.0 L  21.559 -99.309 10.0  RAL  1 0.0 0.8LRAL                1
 GAP=360        0.30       5.8     0.2  0.0  0.1256E+00 -0.2702E+04  0.4169E+04E
 ACTION:UPD 13-02-28 14:29 OP:RALL STATUS:               ID:20100918211337     I
 2010-09-18-2113-31S.PLUR1_003                                                 6
 STAT SP IPHASW D HRMM SECON CODA AMPLIT PERI AZIMU VELO AIN AR TRES W  DIS CAZ7
 LA4  SZ E        2113 39.34                    0.2  7.7      0        8.36 180 
 LA4  SN IP       2113 39.34                             140    0.0010 8.36 180 
 LA4  SE IS       2113 41.02                             140    0.0010 8.36 180 
 LA4  SZ  AML     2113 41.82        28.1 0.16                          8.36 180 
                                                                                
 2010  919 0348 37.8 L  21.494 -99.328 10.0  RAL  1 0.1                        1
 GAP=360        0.58      16.7    30.9  0.0 -0.5177E+03 -0.2702E+04  0.4169E+04E
 ACTION:UPD 13-02-28 14:29 OP:RALL STATUS:               ID:20100919034837     I
 2010-09-19-0348-31S.PLUR1_003                                                 6
 STAT SP IPHASW D HRMM SECON CODA AMPLIT PERI AZIMU VELO AIN AR TRES W  DIS CAZ7
 LA4  SN IP        348 40.05                             167    0.3410 2.32 120 
 LA4  SZ E         348 40.28                  300.2 15.1      0        2.32 120 
 LA4  SE IS        348 40.75                             167   -0.3410 2.32 120 
                                                                                
 2010  919 0646 20.4 L  21.247 -99.377 14.8  RAL  2 0.2 0.8LRAL                1
 GAP=357        3.13      40.0    13.7 56.2  0.5180E+03  0.4816E+03  0.1468E+04E
 ACTION:UPD 13-02-28 14:29 OP:RALL STATUS:               ID:20100919064620     I
 2010-09-19-0646-15S.PLUR1_006                                                 6
 STAT SP IPHASW D HRMM SECON CODA AMPLIT PERI AZIMU VELO AIN AR TRES W  DIS CAZ7
 LT9  SN IP        646 24.59                             130    0.4610 17.2  18 
 LT9  SZ E         646 24.60                  189.7 27.8     -7        17.2  18 
 LT9  SE IS        646 26.99                             130    0.1210 17.2  18 
 LT9  SZ  AML      646 28.31         4.6 0.64                          17.2  18 
 LA4  SZ E         646 25.29                  207.6 12.5     13        27.1  15 
 LA4  SN IP        646 25.37                             117   -0.0910 27.1  15 
 LA4  SE IS        646 28.70                             117   -0.4810 27.1  15 
 LA4  SZ  AML      646 29.71        44.4 0.44                          27.1  15 
                                                                                
 2010  919 1207 12.7 L  21.241 -99.258 10.0  RAL  1 0.0-0.4LRAL                1
 GAP=360        0.30       3.8     1.7  0.0 -0.6221E+01  0.4816E+03  0.1468E+04E
 ACTION:UPD 13-02-28 14:29 OP:RALL STATUS:               ID:20100919120712     I
 2010-09-19-1207-09S.PLUR1_003                                                 6
 STAT SP IPHASW D HRMM SECON CODA AMPLIT PERI AZIMU VELO AIN AR TRES W  DIS CAZ7
 LT9  SN IP       12 7 16.27                             115    0.0010 18.5 337 
 LT9  SZ E        12 7 16.35                  157.4  8.4      0        18.5 337 
 LT9  SE IS       12 7 18.84                             115    0.0010 18.5 337 
 LT9  SZ  AML     12 7 19.30         1.0 0.22                          18.5 337 
                                                                                
 2010  920 0006 14.3 L  21.228 -99.251 10.0  RAL  1 0.0-0.2LRAL                1
 GAP=360        0.30       3.7     1.7  0.0 -0.6062E+01  0.4816E+03  0.1468E+04E
 ACTION:UPD 13-02-28 14:29 OP:RALL STATUS:               ID:20100920000614     I
 2010-09-20-0006-11S.PLUR1_003                                                 6
 STAT SP IPHASW D HRMM SECON CODA AMPLIT PERI AZIMU VELO AIN AR TRES W  DIS CAZ7
 LT9  SN IP        0 6 18.02                             113    0.0010 20.0 337 
 LT9  SZ E         0 6 18.03                  157.1  7.7      0        20.0 337 
 LT9  SE IS        0 6 20.75                             113    0.0010 20.0 337 
 LT9  SZ  AML      0 6 22.34         1.7 0.34                          20.0 337 
                                                                                
 2010  920 0413 51.2 L  21.336 -99.308 10.0  RAL  1 0.0-0.5LRAL                1
 GAP=360        0.30       6.2     2.0  0.0 -0.1228E+02  0.4816E+03  0.1468E+04E
 ACTION:UPD 13-02-28 14:29 OP:RALL STATUS:               ID:20100920041351     I
 2010-09-20-0413-45S.PLUR1_003                                                 6
 STAT SP IPHASW D HRMM SECON CODA AMPLIT PERI AZIMU VELO AIN AR TRES W  DIS CAZ7
 LT9  SZ E         413 53.28                  163.6  7.1      0        6.80 344 
 LT9  SN IP        413 53.28                             145    0.0110 6.80 344 
 LT9  SE IS        413 54.79                             145   -0.0110 6.80 344 
 LT9  SZ  AML      413 55.58         1.5 0.12                          6.80 344 
                                                                                
 2010  920 0617  0.7 L  21.398 -99.331 10.0  RAL  2 0.5 0.0LRAL                1
 GAP=250        5.69       2.3     4.8 34.0 -0.4796E+01  0.5903E+01 -0.6551E+01E
 ACTION:UPD 13-02-28 14:29 OP:RALL STATUS:               ID:20100920061700     I
 2010-09-20-0616-52S.PLUR1_006                                                 6
 STAT SP IPHASW D HRMM SECON CODA AMPLIT PERI AZIMU VELO AIN AR TRES W  DIS CAZ7
 LT9  SZ E         617  1.85                  284.1 15.6    -18        0.62 124 
 LT9  SN IP        617  1.86                             165   -0.6410 0.62 124 
 LT9  SE IS        617  2.20                             165   -1.5910 0.62 124 
 LT9  SZ  AML      617  2.82         3.2 0.60                          0.62 124 
 LA4  SZ E         617  4.29                  177.7  6.6    -15        9.72  14 
 LA4  SN IP        617  4.33                             112    1.1610 9.72  14 
 LA4  SE IS        617  6.02                             112    1.0710 9.72  14 
 LA4  SZ  AML      617  6.11         6.5 0.24                          9.72  14 
                                                                                
 2010  920 1213 15.9 L  21.306 -99.303 10.0  RAL  1 0.0 0.5LRAL                1
 GAP=360        0.30       4.1     0.6  0.0 -0.5770E+00  0.5903E+01 -0.6551E+01E
 ACTION:UPD 13-02-28 14:29 OP:RALL STATUS:               ID:20100920121315     I
 2010-09-20-1213-13S.PLUR1_003                                                 6
 STAT SP IPHASW D HRMM SECON CODA AMPLIT PERI AZIMU VELO AIN AR TRES W  DIS CAZ7
 LA4  SZ E        1213 19.66                  178.1  4.9      0        19.6 358 
 LA4  SN IP       1213 19.67                             114    0.0210 19.6 358 
 LA4  SE IS       1213 22.36                             114   -0.0210 19.6 358 
 LA4  SZ  AML     1213 22.79         8.3 0.16                          19.6 358 
                                                                                
 2010  921 0002 51.6 L  21.354 -99.286 10.0  RAL  1 0.0-0.1LRAL                1
 GAP=360        0.30       5.3     5.2  0.0 -0.2739E+02  0.5903E+01 -0.6551E+01E
 ACTION:UPD 13-02-28 14:29 OP:RALL STATUS:               ID:20100921000251     I
 2010-09-21-0002-45S.PLUR1_003                                                 6
 STAT SP IPHASW D HRMM SECON CODA AMPLIT PERI AZIMU VELO AIN AR TRES W  DIS CAZ7
 LT9  SN IP        0 2 53.74                             148    0.0510 6.17 318 
 LT9  SZ E         0 2 53.76                  137.5  9.4      0        6.17 318 
 LT9  SE IS        0 2 55.14                             148   -0.0510 6.17 318 
 LT9  SZ  AML      0 2 55.88         3.8 0.10                          6.17 318 
                                                                                
 2010  921 0218  5.3 L  21.249 -99.262 10.0  RAL  1 0.0-0.2LRAL                1
 GAP=360        0.30       3.8     1.7  0.0 -0.6325E+01  0.5903E+01 -0.6551E+01E
 ACTION:UPD 13-02-28 14:29 OP:RALL STATUS:               ID:20100921021805     I
 2010-09-21-0218-01S.PLUR1_003                                                 6
 STAT SP IPHASW D HRMM SECON CODA AMPLIT PERI AZIMU VELO AIN AR TRES W  DIS CAZ7
 LT9  SZ E         218  8.74                  157.7  7.4      0        17.5 338 
 LT9  SN IP        218  8.74                             116    0.0010 17.5 338 
 LT9  SE IS        218 11.21                             116    0.0010 17.5 338 
 LT9  SZ  AML      218 11.35         2.0 0.34                          17.5 338 
                                                                                
 2010  921 0256  6.7 L  21.259 -99.277 10.0  RAL  1 0.0 0.0LRAL                1
 GAP=360        0.30       4.0     1.5  0.0 -0.5747E+01  0.5903E+01 -0.6551E+01E
 ACTION:UPD 13-02-28 14:29 OP:RALL STATUS:               ID:20100921025606     I
 2010-09-21-0256-02S.PLUR1_003                                                 6
 STAT SP IPHASW D HRMM SECON CODA AMPLIT PERI AZIMU VELO AIN AR TRES W  DIS CAZ7
 LT9  SZ E         256  9.85                  161.4  8.3      0        15.9 341 
 LT9  SN IP        256  9.85                             119    0.0010 15.9 341 
 LT9  SE IS        256 12.16                             119    0.0010 15.9 341 
 LT9  SZ  AML      256 12.36         2.9 0.36                          15.9 341 
                                                                                
 2010  921 0327 42.6 L  21.507 -99.330 10.0  RAL  1 0.1 0.0LRAL                1
 GAP=360        0.45      13.8    12.3  0.0 -0.1700E+03  0.5903E+01 -0.6551E+01E
 ACTION:UPD 13-02-28 14:29 OP:RALL STATUS:               ID:20100921032742     I
 2010-09-21-0327-36S.PLUR1_003                                                 6
 STAT SP IPHASW D HRMM SECON CODA AMPLIT PERI AZIMU VELO AIN AR TRES W  DIS CAZ7
 LA4  SZ E         327 44.70                  320.2 17.0      0        3.41 140 
 LA4  SN IP        327 44.72                             162    0.2310 3.41 140 
 LA4  SE IS        327 45.67                             162   -0.2310 3.41 140 
 LA4  SZ  AML      327 45.77         5.2 0.30                          3.41 140 
                                                                                
 2010  921 0432 34.1 L  21.330 -99.201 10.0  RAL  1 0.0 0.4LRAL                1
 GAP=360        0.30       3.4     2.4  0.0 -0.7790E+01  0.5903E+01 -0.6551E+01E
 ACTION:UPD 13-02-28 14:29 OP:RALL STATUS:               ID:20100921043234     I
 2010-09-21-0432-31S.PLUR1_003                                                 6
 STAT SP IPHASW D HRMM SECON CODA AMPLIT PERI AZIMU VELO AIN AR TRES W  DIS CAZ7
 LA4  SN IP        432 37.94                             113    0.0010 20.4 327 
 LA4  SZ E         432 37.98                  146.8 10.9      0        20.4 327 
 LA4  SE IS        432 40.73                             113    0.0010 20.4 327 
 LA4  SZ  AML      432 41.80         6.6 0.42                          20.4 327 
                                                                                
 2010  921 1334 23.6 L  21.493 -99.331 10.0  RAL  1 0.1 1.2LRAL                1
 GAP=360        0.48      10.3    24.3  0.0 -0.2508E+03  0.5903E+01 -0.6551E+01E
 ACTION:UPD 13-02-28 14:29 OP:RALL STATUS:               ID:20100921133423     I
 2010-09-21-1334-16S.PLUR1_003                                                 6
 STAT SP IPHASW D HRMM SECON CODA AMPLIT PERI AZIMU VELO AIN AR TRES W  DIS CAZ7
 LA4  SZ E        1334 25.68                  294.5 15.6      0        2.55 115 
 LA4  SN IP       1334 25.71                             166    0.2510 2.55 115 
 LA4  SE IS       1334 26.59                             166   -0.2510 2.55 115 
 LA4  SZ  AML     1334 26.92        83.4 0.10                          2.55 115 
                                                                                
 2010  921 1519 39.9 L  21.324 -99.228 10.0  RAL  1 0.0 1.4LRAL                1
 GAP=360        0.30       3.7     1.9  0.0 -0.6685E+01  0.5903E+01 -0.6551E+01E
 ACTION:UPD 13-02-28 14:29 OP:RALL STATUS:               ID:20100921151939     I
 2010-09-21-1519-34S.PLUR1_003                                                 6
 STAT SP IPHASW D HRMM SECON CODA AMPLIT PERI AZIMU VELO AIN AR TRES W  DIS CAZ7
 LA4  SN IP       1519 43.59                             114    0.0010 19.6 335 
 LA4  SZ E        1519 43.61                  154.7  8.2      0        19.6 335 
 LA4  SE IS       1519 46.30                             114    0.0010 19.6 335 
 LA4  SZ  AML     1519 46.86        70.9 0.16                          19.6 335 
                                                                                
 2010  921 1534  9.6 L  21.325 -99.260 10.0  RAL  1 0.0 0.4LRAL                1
 GAP=360        0.30       4.0     1.3  0.0 -0.4740E+01  0.5903E+01 -0.6551E+01E
 ACTION:UPD 13-02-28 14:29 OP:RALL STATUS:               ID:20100921153409     I
 2010-09-21-1534-06S.PLUR1_003                                                 6
 STAT SP IPHASW D HRMM SECON CODA AMPLIT PERI AZIMU VELO AIN AR TRES W  DIS CAZ7
 LA4  SN IP       1534 13.10                             116    0.0010 18.3 344 
 LA4  SZ E        1534 13.10                  164.0  8.3      0        18.3 344 
 LA4  SE IS       1534 15.68                             116    0.0010 18.3 344 
 LA4  SZ  AML     1534 15.99         6.5 0.54                          18.3 344 
                                                                                
 2010  921 1809 21.0 L  21.358 -99.305 10.0  RAL  1 0.0-0.3LRAL                1
 GAP=360        0.31       8.1     4.7  0.0 -0.3833E+02  0.5903E+01 -0.6551E+01E
 ACTION:UPD 13-02-28 14:29 OP:RALL STATUS:               ID:20100921180921     I
 2010-09-21-1809-14S.PLUR1_003                                                 6
 STAT SP IPHASW D HRMM SECON CODA AMPLIT PERI AZIMU VELO AIN AR TRES W  DIS CAZ7
 LT9  SN IP       18 9 22.99                             155    0.0710 4.67 332 
 LT9  SZ E        18 9 23.14                  151.6 10.9      0        4.67 332 
 LT9  SE IS       18 9 24.26                             155   -0.0710 4.67 332 
 LT9  SZ  AML     18 9 24.38         2.3 0.28                          4.67 332 
                                                                                
 2010  921 1910  8.9 L  21.363 -99.316 10.0  RAL  1 0.0-0.1LRAL                1
 GAP=360        0.30      10.3     3.3  0.0 -0.3420E+02  0.5903E+01 -0.6551E+01E
 ACTION:UPD 13-02-28 14:29 OP:RALL STATUS:               ID:20100921191008     I
 2010-09-21-1910-02S.PLUR1_003                                                 6
 STAT SP IPHASW D HRMM SECON CODA AMPLIT PERI AZIMU VELO AIN AR TRES W  DIS CAZ7
 LT9  SZ E        1910 10.76                  163.3  7.4      0        3.76 343 
 LT9  SN IP       1910 10.78                             159    0.0510 3.76 343 
 LT9  SE IS       1910 12.06                             159   -0.0510 3.76 343 
 LT9  SZ  AML     1910 12.30         3.8 0.46                          3.76 343 
                                                                                
 2010  922 1412 17.4 L  21.325 -99.503 10.0  RAL  1 0.0 1.0LRAL                1
 GAP=360        0.30       2.6     3.2  0.0  0.7641E+01  0.5903E+01 -0.6551E+01E
 ACTION:UPD 13-02-28 14:29 OP:RALL STATUS:               ID:20100922141217     I
 2010-09-22-1412-13S.PLUR1_003                                                 6
 STAT SP IPHASW D HRMM SECON CODA AMPLIT PERI AZIMU VELO AIN AR TRES W  DIS CAZ7
 LA4  SZ E        1412 22.12                  229.0 12.0      0        26.7  49 
 LA4  SN IP       1412 22.18                             107    0.0010 26.7  49 
 LA4  SE IS       1412 25.65                             107    0.0010 26.7  49 
 LA4  SZ  AML     1412 26.34        19.9 0.42                          26.7  49 
                                                                                
 2010  923 0725 19.8 L  21.504 -99.326 10.0  RAL  1 0.2 2.2LRAL                1
 GAP=360        0.66      24.0    20.7  0.0 -0.4980E+03  0.5903E+01 -0.6551E+01E
 ACTION:UPD 13-02-28 14:29 OP:RALL STATUS:               ID:20100923072519     I
 2010-09-23-0725-12S.PLUR1_003                                                 6
 STAT SP IPHASW D HRMM SECON CODA AMPLIT PERI AZIMU VELO AIN AR TRES W  DIS CAZ7
 LA4  SN IP        725 22.07                             164    0.4010 2.89 141 
 LA4  SZ E         725 22.08                  321.2 10.2      0        2.89 141 
 LA4  SE IS        725 22.66                             164   -0.4010 2.89 141 
 LA4  SZ  AML      725 22.81       964.0 0.20                          2.89 141 
                                                                                
 2010  923 0740 16.9 L  21.314 -99.297 10.0  RAL  1 0.0 0.7LRAL                1
 GAP=360        0.30       4.1     0.6  0.0 -0.1148E+01  0.5903E+01 -0.6551E+01E
 ACTION:UPD 13-02-28 14:29 OP:RALL STATUS:               ID:20100923074016     I
 2010-09-23-0740-13S.PLUR1_003                                                 6
 STAT SP IPHASW D HRMM SECON CODA AMPLIT PERI AZIMU VELO AIN AR TRES W  DIS CAZ7
 LA4  SZ E         740 20.50                  176.3  5.8      0        18.8 356 
 LA4  SN IP        740 20.53                             115    0.0210 18.8 356 
 LA4  SE IS        740 23.13                             115   -0.0210 18.8 356 
 LA4  SZ  AML      740 23.67        14.9 0.16                          18.8 356 
                                                                                
 2010  923 0929 30.4 L  21.267 -99.339 10.0  RAL  1 0.0 0.6LRAL                1
 GAP=360        0.30       3.9     0.9  0.0  0.2045E+01  0.5903E+01 -0.6551E+01E
 ACTION:UPD 13-02-28 14:29 OP:RALL STATUS:               ID:20100923092930     I
 2010-09-23-0929-25S.PLUR1_003                                                 6
 STAT SP IPHASW D HRMM SECON CODA AMPLIT PERI AZIMU VELO AIN AR TRES W  DIS CAZ7
 LA4  SZ E         929 34.67                  187.4 15.2      0        24.1   7 
 LA4  SN IP        929 34.77                             109    0.0110 24.1   7 
 LA4  SE IS        929 37.94                             109   -0.0110 24.1   7 
 LA4  SZ  AML      929 41.50         9.5 0.26                          24.1   7 
                                                                                
