 2010  6 2 0946 19.4 L  21.167 -99.233 10.0  RAL  1 0.0 0.6LRAL                1
 GAP=360        0.30       4.0     1.0  0.0 -0.3595E+01 -0.2831E+05 -0.3015E+04E
 ACTION:UPD 12-06-08 11:37 OP:RALL STATUS:               ID:20100602094619     I
 2010-06-02-0946-15S.PLUR1_003                                                 6
 STAT SP IPHASW D HRMM SECON CODA AMPLIT PERI AZIMU VELO AIN AR TRES W  DIS CAZ7
 LZ4  SZ E         946 22.94                  168.2 18.3      0        18.6 348 
 LZ4  SN IP        946 22.97                             115    0.0210 18.6 348 
 LZ4  SE IS        946 25.53                             115   -0.0210 18.6 348 
 LZ4  SZ  AML      946 27.09        10.9 1.20                          18.6 348 
                                                                                
 2010  6 2 1052  1.5 L  21.294 -99.243 10.0  RAL  1 0.0 0.3LRAL                1
 GAP=360        0.32       7.5     5.5  0.0 -0.4123E+02 -0.2831E+05 -0.3015E+04E
 ACTION:UPD 12-06-08 11:37 OP:RALL STATUS:               ID:20100602105201     I
 2010-06-02-1051-55S.PLUR1_003                                                 6
 STAT SP IPHASW D HRMM SECON CODA AMPLIT PERI AZIMU VELO AIN AR TRES W  DIS CAZ7
 LZ4  SZ E        1052  3.58                  145.8 13.0      0        4.94 326 
 LZ4  SN IP       1052  3.59                             154    0.0810 4.94 326 
 LZ4  SE IS       1052  4.90                             154   -0.0810 4.94 326 
 LZ4  SZ  AML     1052  5.92         9.8 0.20                          4.94 326 
                                                                                
 2010  6 2 1948 29.1 L  21.141 -99.164 10.0  RAL  1 0.0-0.4LRAL                1
 GAP=360        0.30       3.1     8.0  0.0 -0.2441E+02 -0.2831E+05 -0.3015E+04E
 ACTION:UPD 12-06-08 11:37 OP:RALL STATUS:               ID:20100602194829     I
 2010-06-02-1948-23S.PLUR1_003                                                 6
 STAT SP IPHASW D HRMM SECON CODA AMPLIT PERI AZIMU VELO AIN AR TRES W  DIS CAZ7
 LO8  SZ E        1948 31.16                  112.4  6.7      0        5.51 292 
 LO8  SN IP       1948 31.21                             152    0.0310 5.51 292 
 LO8  SE IS       1948 32.68                             152   -0.0310 5.51 292 
 LO8  SZ  AML     1948 32.82         2.0 0.34                          5.51 292 
                                                                                
 2010  6 3 0547  1.5 L  21.294 -99.238 10.0  RAL  1 0.0 0.4LRAL                1
 GAP=360        0.32       6.8     5.9  0.0 -0.4004E+02 -0.2831E+05 -0.3015E+04E
 ACTION:UPD 12-06-08 11:37 OP:RALL STATUS:               ID:20100603054701     I
 2010-06-03-0546-55S.PLUR1_003                                                 6
 STAT SP IPHASW D HRMM SECON CODA AMPLIT PERI AZIMU VELO AIN AR TRES W  DIS CAZ7
 LZ4  SN IP        547  3.59                             153    0.0810 5.20 321 
 LZ4  SZ E         547  3.77                  141.0  8.4      0        5.20 321 
 LZ4  SE IS        547  4.91                             153   -0.0810 5.20 321 
 LZ4  SZ  AML      547  5.22        11.8 0.22                          5.20 321 
                                                                                
 2010  6 3 1724  6.6 L  21.546 -99.322 10.0  RAL  1 0.0 0.6LRAL                1
 GAP=360        0.30       6.4     1.4  0.0 -0.8570E+01 -0.2831E+05 -0.3015E+04E
 ACTION:UPD 12-06-08 11:37 OP:RALL STATUS:               ID:20100603172406     I
 2010-06-03-1724-00S.PLUR1_003                                                 6
 STAT SP IPHASW D HRMM SECON CODA AMPLIT PERI AZIMU VELO AIN AR TRES W  DIS CAZ7
 LA4  SN IP       1724  8.78                             145    0.0210 7.02 169 
 LA4  SZ E        1724  8.79                  349.0  8.0      0        7.02 169 
 LA4  SE IS       1724 10.34                             145   -0.0210 7.02 169 
 LA4  SZ  AML     1724 11.06        17.9 0.10                          7.02 169 
                                                                                
 2010  6 4 2329 43.5 R  20.705 -99.927 10.0  RAL  2 1.9 1.9LRAL                1
 GAP=341       24.01     332.8   458.2999.9  0.1325E+06  0.3546E+07  0.2435E+07E
 ACTION:UPD 12-06-08 11:37 OP:RALL STATUS:               ID:20100604232943     I
 2010-06-04-2329-47S.PLUR1_006                                                 6
 STAT SP IPHASW D HRMM SECON CODA AMPLIT PERI AZIMU VELO AIN AR TRES W  DIS CAZ7
 LO8  SZ E        2329 53.78                  322.8 12.7     87        89.8  56 
 LO8  SN IP       2329 54.08                              94   -3.9310 89.8  56 
 LO8  SE IS       2330  6.26                              94   -2.3210 89.8  56 
 LO8  SZ  AML     2330 13.07        12.5 0.52                          89.8  56 
 LA4  SZ E        2330  1.08                  146.2  9.1    -70         108  37 
 LA4  SN IP       2330  1.43                              93    0.6810  108  37 
 LA4  SE IS       2330 18.88                              93    5.5710  108  37 
 LA4  SZ  AML     2330 21.11       156.0 0.52                           108  37 
                                                                                
 2010  6 7 0621 23.6 L  21.333 -99.395 10.0  RAL  1 0.0 0.3LRAL                1
 GAP=360        0.30       1.7     4.2  0.0 -0.6999E+01  0.3546E+07  0.2435E+07E
 ACTION:UPD 12-06-08 11:37 OP:RALL STATUS:               ID:20100607062123     I
 2010-06-07-0621-19S.PLUR1_003                                                 6
 STAT SP IPHASW D HRMM SECON CODA AMPLIT PERI AZIMU VELO AIN AR TRES W  DIS CAZ7
 LG3  SN IP        621 26.81                             120    0.0010 16.0 113 
 LG3  SZ E         621 26.86                  293.2 17.0      0        16.0 113 
 LG3  SE IS        621 29.16                             120    0.0010 16.0 113 
 LG3  SZ  AML      621 29.69         5.6 0.32                          16.0 113 
                                                                                
 2010  6 7 0708  1.3 L  21.313 -99.246 10.0  RAL  1 0.1 0.5LRAL                1
 GAP=360        0.58      15.9    20.4  0.0 -0.3247E+03  0.3546E+07  0.2435E+07E
 ACTION:UPD 12-06-08 11:37 OP:RALL STATUS:               ID:20100607070801     I
 2010-06-07-0707-54S.PLUR1_003                                                 6
 STAT SP IPHASW D HRMM SECON CODA AMPLIT PERI AZIMU VELO AIN AR TRES W  DIS CAZ7
 LZ4  SN IP        7 8  3.53                             163    0.3310 3.12 310 
 LZ4  SZ E         7 8  3.53                  129.8 18.2      0        3.12 310 
 LZ4  SE IS        7 8  4.25                             163   -0.3310 3.12 310 
 LZ4  SZ  AML      7 8  5.19        16.9 0.24                          3.12 310 
                                                                                
 2010  6 9 1506 52.4 L  21.278 -99.257 10.0  RAL  2 1.5 0.6LRAL                1
 GAP=319       27.26      13.4    34.7211.3  0.2450E+03 -0.3479E+02  0.8027E+02E
 ACTION:UPD 12-06-08 11:37 OP:RALL STATUS:               ID:20100609150652     I
 2010-06-09-1506-45S.PLUR1_006                                                 6
 STAT SP IPHASW D HRMM SECON CODA AMPLIT PERI AZIMU VELO AIN AR TRES W  DIS CAZ7
 LG3  SZ E        15 6 54.53                  266.5 11.6    -33        0.58 120 
 LG3  SN IP       15 6 54.54                             177    0.2410 0.58 120 
 LG3  SE IS       15 6 55.26                             177   -0.3910 0.58 120 
 LG3  SZ  AML     15 6 55.60        64.7 0.20                          0.58 120 
 LO8  SZ E        15 6 55.73                  109.9  7.6    129        13.9 161 
 LO8  SN IP       15 6 55.74                             125    0.3110 13.9 161 
 LO8  SE IS       15 6 57.44                             125   -0.1610 13.9 161 
 LO8  SZ  AML     15 6 57.87         5.2 0.30                          13.9 161 
                                                                                
 2010  610 0852 29.5 L  21.443 -99.324 10.0  RAL  1 0.0 0.8LRAL                1
 GAP=360        0.30       4.1     2.0  0.0 -0.8121E+01 -0.3479E+02  0.8027E+02E
 ACTION:UPD 12-06-08 11:37 OP:RALL STATUS:               ID:20100610085229     I
 2010-06-10-0852-25S.PLUR1_003                                                 6
 STAT SP IPHASW D HRMM SECON CODA AMPLIT PERI AZIMU VELO AIN AR TRES W  DIS CAZ7
 LZ4  SN IP        852 32.40                             125    0.0110 13.6 156 
 LZ4  SZ E         852 32.42                  335.7  7.9      0        13.6 156 
 LZ4  SE IS        852 34.50                             125   -0.0110 13.6 156 
 LZ4  SZ  AML      852 34.83        19.8 0.46                          13.6 156 
                                                                                
 2010  610 1900 44.9 L  21.401 -99.340 10.0  RAL  1 0.1 0.2LRAL                1
 GAP=360        0.61     999.9   721.4  0.0  0.9512E+06 -0.3479E+02  0.8027E+02E
 ACTION:UPD 12-06-08 11:37 OP:RALL STATUS:               ID:20100610190044     I
 2010-06-10-1900-37S.PLUR1_003                                                 6
 STAT SP IPHASW D HRMM SECON CODA AMPLIT PERI AZIMU VELO AIN AR TRES W  DIS CAZ7
 LT7  SZ E        19 0 47.07                  295.2 10.8      0        1.57 115 
 LT7  SN IP       19 0 47.07                             171    0.3610 1.57 115 
 LT7  SE IS       19 0 47.66                             171   -0.3610 1.57 115 
 LT7  SZ  AML     19 0 47.76         9.7 0.18                          1.57 115 
                                                                                
 2010  611 1124 15.7 L  21.298 -99.229 10.0  RAL  1 0.1 0.6LRAL                1
 GAP=360        0.45      12.6    13.5  0.0  0.1699E+03 -0.3479E+02  0.8027E+02E
 ACTION:UPD 12-06-08 11:37 OP:RALL STATUS:               ID:20100611112415     I
 2010-06-11-1124-09S.PLUR1_003                                                 6
 STAT SP IPHASW D HRMM SECON CODA AMPLIT PERI AZIMU VELO AIN AR TRES W  DIS CAZ7
 LG3  SN IP       1124 17.85                             161    0.2310 3.49 225 
 LG3  SZ E        1124 17.89                   44.9 15.9      0        3.49 225 
 LG3  SE IS       1124 18.80                             161   -0.2310 3.49 225 
 LG3  SZ  AML     1124 18.93        21.8 0.46                          3.49 225 
                                                                                
 2010  613 0310  1.7 L  21.251 -99.269 10.0  RAL  1 0.1 0.3LRAL                1
 GAP=360        0.51      17.9    12.6  0.0  0.2246E+03 -0.3479E+02  0.8027E+02E
 ACTION:UPD 12-06-08 11:37 OP:RALL STATUS:               ID:20100613031001     I
 2010-06-13-0309-54S.PLUR1_003                                                 6
 STAT SP IPHASW D HRMM SECON CODA AMPLIT PERI AZIMU VELO AIN AR TRES W  DIS CAZ7
 LG3  SN IP        310  3.94                             163    0.2810 3.22  33 
 LG3  SZ E         310  3.95                  213.2 46.9      0        3.22  33 
 LG3  SE IS        310  4.79                             163   -0.2810 3.22  33 
 LG3  SZ  AML      310  6.04        11.6 0.12                          3.22  33 
                                                                                
 2010  613 0852 24.1 L  21.330 -99.275 10.0  RAL  1 0.1 0.3LRAL                1
 GAP=360        0.98     999.9   261.4  0.0 -0.8624E+06 -0.3479E+02  0.8027E+02E
 ACTION:UPD 12-06-08 11:37 OP:RALL STATUS:               ID:20100613085224     I
 2010-06-13-0852-17S.PLUR1_003                                                 6
 STAT SP IPHASW D HRMM SECON CODA AMPLIT PERI AZIMU VELO AIN AR TRES W  DIS CAZ7
 LZ4  SZ E         852 26.09                  266.1 25.9      4        0.55  82 
 LZ4  SN IP        852 26.11                             177    0.1810 0.55  82 
 LZ4  SE IS        852 27.09                             177   -0.1810 0.55  82 
 LZ4  SZ  AML      852 28.93        11.4 0.52                          0.55  82 
                                                                                
 2010  614 0831 43.2 L  21.291 -99.257 10.0  RAL  1 0.0 1.8LRAL                1
 GAP=360        0.30       8.6     2.8  0.0 -0.2402E+02 -0.3479E+02  0.8027E+02E
 ACTION:UPD 12-06-08 11:37 OP:RALL STATUS:               ID:20100614083143     I
 2010-06-14-0831-36S.PLUR1_003                                                 6
 STAT SP IPHASW D HRMM SECON CODA AMPLIT PERI AZIMU VELO AIN AR TRES W  DIS CAZ7
 LZ4  SZ E         831 45.24                  163.3 11.7      0        4.66 343 
 LZ4  SN IP        831 45.24                             156    0.0310 4.66 343 
 LZ4  SE IS        831 46.63                             156   -0.0310 4.66 343 
 LZ4  SZ  AML      831 46.78       345.7 0.18                          4.66 343 
                                                                                
 2010  614 1842 41.4 L  21.064 -99.133 10.0  RAL  1 0.0                        1
 GAP=360        0.30       3.6     3.0  0.0 -0.1083E+02 -0.3479E+02  0.8027E+02E
 ACTION:UPD 12-06-08 11:37 OP:RALL STATUS:               ID:20100614184241     I
 2010-06-14-1842-33S.PLUR1_009                                                 6
 STAT SP IPHASW D HRMM SECON CODA AMPLIT PERI AZIMU VELO AIN AR TRES W  DIS CAZ7
 LO8  SN IP       1842 44.33                             126    0.0210 13.5 322 
 LO8  SZ E        1842 44.34                  142.0  5.8      0        13.5 322 
 LO8  SE IS       1842 46.43                             126   -0.0210 13.5 322 
                                                                                
 2010  616 1151 39.9 L  21.297 -99.256 10.0  RAL  1 0.1 0.8LRAL                1
 GAP=360        0.66      35.6     6.1  0.0 -0.2171E+03 -0.3479E+02  0.8027E+02E
 ACTION:UPD 12-06-08 11:37 OP:RALL STATUS:               ID:20100616115139     I
 2010-06-16-1151-33S.PLUR1_003                                                 6
 STAT SP IPHASW D HRMM SECON CODA AMPLIT PERI AZIMU VELO AIN AR TRES W  DIS CAZ7
 LG3  SZ E        1151 42.11                  352.4 18.5      1        2.43 171 
 LG3  SN IP       1151 42.11                             167    0.3410 2.43 171 
 LG3  SE IS       1151 42.82                             167   -0.3410 2.43 171 
 LG3  SZ  AML     1151 42.84        35.3 0.18                          2.43 171 
                                                                                
 2010  616 1204 40.9 L  21.322 -99.256 10.0  RAL  1 0.2 0.8LRAL                1
 GAP=360        0.92     999.9   999.9  0.0  0.2139E+07 -0.3479E+02  0.8027E+02E
 ACTION:UPD 12-06-08 11:37 OP:RALL STATUS:               ID:20100616120440     I
 2010-06-16-1204-33S.PLUR1_003                                                 6
 STAT SP IPHASW D HRMM SECON CODA AMPLIT PERI AZIMU VELO AIN AR TRES W  DIS CAZ7
 LZ4  SZ E        12 4 43.32                  126.9  8.9      0        1.72 307 
 LZ4  SN IP       12 4 43.32                             171    0.5910 1.72 307 
 LZ4  SE IS       12 4 43.49                             171   -0.5910 1.72 307 
 LZ4  SZ  AML     12 4 43.61        36.8 0.22                          1.72 307 
                                                                                
 2010  619 0605 47.9 L  21.361 -99.235 10.0  RAL  1 0.0 0.4LRAL                1
 GAP=360        0.33       6.4     7.3  0.0  0.4681E+02 -0.3479E+02  0.8027E+02E
 ACTION:UPD 12-06-08 11:37 OP:RALL STATUS:               ID:20100619060547     I
 2010-06-19-0605-42S.PLUR1_003                                                 6
 STAT SP IPHASW D HRMM SECON CODA AMPLIT PERI AZIMU VELO AIN AR TRES W  DIS CAZ7
 LZ4  SZ E         6 5 50.00                   46.6 19.6      0        4.93 227 
 LZ4  SN IP        6 5 50.03                             154    0.0910 4.93 227 
 LZ4  SE IS        6 5 51.31                             154   -0.0910 4.93 227 
 LZ4  SZ  AML      6 5 54.22        14.2 0.64                          4.93 227 
                                                                                
 2010  620 0914 18.7 L  21.675 -99.272 10.0  RAL  1 0.0 0.9LRAL                1
 GAP=360        0.30       3.7     1.2  0.0 -0.6200E+00 -0.3479E+02  0.8027E+02E
 ACTION:UPD 12-06-08 11:37 OP:RALL STATUS:               ID:20100620091418     I
 2010-06-20-0914-18S.PLUR1_003                                                 6
 STAT SP IPHASW D HRMM SECON CODA AMPLIT PERI AZIMU VELO AIN AR TRES W  DIS CAZ7
 LG3  SZ E         914 26.03                  357.4 14.8      0        44.3 177 
 LG3  SN IP        914 26.15                              99    0.0110 44.3 177 
 LG3  SE IS        914 31.56                              99   -0.0110 44.3 177 
 LG3  SZ  AML      914 32.34        11.8 0.26                          44.3 177 
                                                                                
 2010  621 0922  2.5 R  21.962 -99.679 10.0  RAL  1 0.0 1.5LRAL                1
 GAP=360        0.30       3.4     2.8  0.0 -0.4445E+01 -0.3479E+02  0.8027E+02E
 ACTION:UPD 12-06-08 11:37 OP:RALL STATUS:               ID:20100621092202     I
 2010-06-21-0922-06S.PLUR1_003                                                 6
 STAT SP IPHASW D HRMM SECON CODA AMPLIT PERI AZIMU VELO AIN AR TRES W  DIS CAZ7
 LZ4  SZ E         922 15.56                  328.8 10.9      0        81.7 149 
 LZ4  SN IP        922 15.71                              94    0.0110 81.7 149 
 LZ4  SE IS        922 25.33                              94   -0.0110 81.7 149 
 LZ4  SZ  AML      922 28.58        24.8 0.24                          81.7 149 
                                                                                
 2010  621 1240 49.9 L  21.355 -99.291 10.0  RAL  1 0.1 0.4LRAL                1
 GAP=360        0.40      12.1    10.8  0.0 -0.1309E+03 -0.3479E+02  0.8027E+02E
 ACTION:UPD 12-06-08 11:37 OP:RALL STATUS:               ID:20100621124049     I
 2010-06-21-1240-43S.PLUR1_003                                                 6
 STAT SP IPHASW D HRMM SECON CODA AMPLIT PERI AZIMU VELO AIN AR TRES W  DIS CAZ7
 LZ4  SZ E        1240 51.98                  320.4 14.2      0        3.46 140 
 LZ4  SN IP       1240 51.99                             161    0.1910 3.46 140 
 LZ4  SE IS       1240 53.02                             161   -0.1910 3.46 140 
 LZ4  SZ  AML     1240 53.29        12.6 0.18                          3.46 140 
                                                                                
 2010  625 0855 19.6 L  21.331 -99.280 10.0  RAL  1 0.2 0.6LRAL                1
 GAP=360        1.74     407.7   227.0  0.0  0.9253E+05 -0.3479E+02  0.8027E+02E
 ACTION:UPD 12-06-08 11:37 OP:RALL STATUS:               ID:20100625085519     I
 2010-06-25-0855-12S.PLUR1_003                                                 6
 STAT SP IPHASW D HRMM SECON CODA AMPLIT PERI AZIMU VELO AIN AR TRES W  DIS CAZ7
 LZ4  SZ E         855 21.60                  263.0 21.2     -7        1.11  91 
 LZ4  SN IP        855 21.64                             174    0.2210 1.11  91 
 LZ4  SE IS        855 22.54                             174   -0.2210 1.11  91 
 LZ4  SZ  AML      855 22.72        24.4 0.24                          1.11  91 
                                                                                
