 2010  430 0706 43.1 L  21.347 -99.296 10.0  RAL  1 0.1 0.6LRAL                1
 GAP=360        0.42       9.0    15.4  0.0 -0.1391E+03  0.2958E+01 -0.6587E+01E
 ACTION:UPD 12-06-08 11:37 OP:RALL STATUS:               ID:20100430070643     I
 2010-04-30-0706-35S.PLUR1_003                                                 6
 STAT SP IPHASW D HRMM SECON CODA AMPLIT PERI AZIMU VELO AIN AR TRES W  DIS CAZ7
 LZ4  SN IP        7 6 45.23                             162    0.2010 3.30 122 
 LZ4  SZ E         7 6 45.24                  302.2 25.4      0        3.30 122 
 LZ4  SE IS        7 6 46.23                             162   -0.2010 3.30 122 
 LZ4  SZ  AML      7 6 46.57        23.2 0.14                          3.30 122 
                                                                                
 2010  430 1259 49.8 L  21.351 -99.297 10.0  RAL  1 0.1 0.9LRAL                1
 GAP=360        0.39       9.1    12.4  0.0 -0.1124E+03  0.2958E+01 -0.6587E+01E
 ACTION:UPD 12-06-08 11:37 OP:RALL STATUS:               ID:20100430125949     I
 2010-04-30-1259-42S.PLUR1_003                                                 6
 STAT SP IPHASW D HRMM SECON CODA AMPLIT PERI AZIMU VELO AIN AR TRES W  DIS CAZ7
 LZ4  SZ E        1259 51.87                  308.1 21.4      0        3.62 128 
 LZ4  SN IP       1259 51.92                             161    0.1710 3.62 128 
 LZ4  SE IS       1259 52.98                             161   -0.1710 3.62 128 
 LZ4  SZ  AML     1259 53.55        44.0 0.36                          3.62 128 
                                                                                
 2010  430 1451  6.0 L  21.674 -99.487 10.0  RAL  1 0.0 0.8LRAL                1
 GAP=360        0.30       3.4     2.1  0.0 -0.6059E+01  0.2958E+01 -0.6587E+01E
 ACTION:UPD 12-06-08 11:37 OP:RALL STATUS:               ID:20100430145106     I
 2010-04-30-1451-02S.PLUR1_003                                                 6
 STAT SP IPHASW D HRMM SECON CODA AMPLIT PERI AZIMU VELO AIN AR TRES W  DIS CAZ7
 LT7  SZ E        1451 11.83                  331.7  9.7      0        35.0 152 
 LT7  SN IP       1451 11.97                             101    0.0210 35.0 152 
 LT7  SE IS       1451 16.30                             101   -0.0210 35.0 152 
 LT7  SZ  AML     1451 20.39        10.2 0.60                          35.0 152 
                                                                                
 2010  430 1644 15.2 L  21.276 -99.252 10.0  RAL  2 1.0 0.2LRAL                1
 GAP=341       16.45      11.8    21.2122.1  0.1990E+03  0.2900E+02 -0.2286E+02E
 ACTION:UPD 12-06-08 11:37 OP:RALL STATUS:               ID:20100430164415     I
 2010-04-30-1644-09S.PLUR1_006                                                 6
 STAT SP IPHASW D HRMM SECON CODA AMPLIT PERI AZIMU VELO AIN AR TRES W  DIS CAZ7
 LG3  SZ E        1644 18.12                   53.1 20.6    -77        0.03 311 
 LG3  SN IP       1644 18.12                             179    1.0510 0.03 311 
 LG3  SE IS       1644 19.70                             179    1.2810 0.03 311 
 LG3  SZ  AML     1644 20.72        11.1 0.24                          0.03 311 
 LT7  SZ E        1644 17.63                  161.4  7.8     11        15.3 330 
 LT7  SN IP       1644 17.70                             122   -0.6110 15.3 330 
 LT7  SE IS       1644 18.85                             122   -1.7110 15.3 330 
 LT7  SZ  AML     1644 18.93         4.4 0.18                          15.3 330 
                                                                                
