 2010  7 1 0500 10.7 L  21.347 -99.295 10.0  RAL  1 0.1 0.5LRAL                1
 GAP=360        0.45      10.2    16.9  0.0 -0.1713E+03 -0.3479E+02  0.8027E+02E
 ACTION:UPD 12-06-08 11:37 OP:RALL STATUS:               ID:20100701050010     I
 2010-07-01-0500-04S.PLUR1_003                                                 6
 STAT SP IPHASW D HRMM SECON CODA AMPLIT PERI AZIMU VELO AIN AR TRES W  DIS CAZ7
 LZ4  SN IP        5 0 12.84                             163    0.2310 3.21 123 
 LZ4  SZ E         5 0 12.86                  302.9 17.7      0        3.21 123 
 LZ4  SE IS        5 0 13.78                             163   -0.2310 3.21 123 
 LZ4  SZ  AML      5 0 14.39        15.7 0.54                          3.21 123 
                                                                                
 2010  7 2 0757 47.1 L  21.284 -99.253 10.0  RAL  1 0.2 0.6LRAL                1
 GAP=360        1.55     999.9   999.9  0.0  0.9414E+09 -0.3479E+02  0.8027E+02E
 ACTION:UPD 12-06-08 11:37 OP:RALL STATUS:               ID:20100702075747     I
 2010-07-02-0757-40S.PLUR1_003                                                 6
 STAT SP IPHASW D HRMM SECON CODA AMPLIT PERI AZIMU VELO AIN AR TRES W  DIS CAZ7
 LG3  SN IP        757 49.26                             175    0.3310 0.97 179 
 LG3  SZ E         757 49.26                  352.5  7.7     -6        0.97 179 
 LG3  SE IS        757 49.96                             175   -0.3310 0.97 179 
 LG3  SZ  AML      757 50.00        20.7 0.18                          0.97 179 
                                                                                
 2010  7 3 0544 22.8 L  21.379 -99.282 10.0  RAL  1 0.0 0.4LRAL                1
 GAP=360        0.30       7.6     2.0  0.0 -0.1561E+02 -0.3479E+02  0.8027E+02E
 ACTION:UPD 12-06-08 11:37 OP:RALL STATUS:               ID:20100703054422     I
 2010-07-03-0544-15S.PLUR1_003                                                 6
 STAT SP IPHASW D HRMM SECON CODA AMPLIT PERI AZIMU VELO AIN AR TRES W  DIS CAZ7
 LZ4  SZ E         544 24.84                  346.0 73.8      0        5.46 166 
 LZ4  SN IP        544 24.91                             152    0.0210 5.46 166 
 LZ4  SE IS        544 26.36                             152   -0.0210 5.46 166 
 LZ4  SZ  AML      544 26.72        13.3 0.28                          5.46 166 
                                                                                
 2010  7 6 0024 44.8 L  21.283 -99.252 10.0  RAL  1 0.4 0.7LRAL                1
 GAP=360        4.40     999.9   999.9  0.0 -0.9558E+09 -0.3479E+02  0.8027E+02E
 ACTION:UPD 12-06-08 11:37 OP:RALL STATUS:               ID:20100706002444     I
 2010-07-06-0024-37S.PLUR1_003                                                 6
 STAT SP IPHASW D HRMM SECON CODA AMPLIT PERI AZIMU VELO AIN AR TRES W  DIS CAZ7
 LG3  SN IP        024 47.16                             175    0.5510 0.86 186 
 LG3  SZ E         024 47.18                  345.3  6.4     21        0.86 186 
 LG3  SE IS        024 47.42                             175   -0.5510 0.86 186 
 LG3  SZ  AML      024 47.51        30.2 0.40                          0.86 186 
                                                                                
 2010  7 6 0815  2.8 L  21.292 -99.252 10.0  RAL  1 0.1 0.9LRAL                1
 GAP=360        0.57     568.3   999.9  0.0 -0.7431E+07 -0.3479E+02  0.8027E+02E
 ACTION:UPD 12-06-08 11:37 OP:RALL STATUS:               ID:20100706081502     I
 2010-07-06-0814-55S.PLUR1_003                                                 6
 STAT SP IPHASW D HRMM SECON CODA AMPLIT PERI AZIMU VELO AIN AR TRES W  DIS CAZ7
 LG3  SN IP        815  4.96                             170    0.3310 1.83 183 
 LG3  SZ E         815  4.96                    2.8 14.7      0        1.83 183 
 LG3  SZ  AML      815  5.64        45.1 0.28                          1.83 183 
 LG3  SE IS        815  5.67                             170   -0.3310 1.83 183 
                                                                                
 2010  7 6 0912 11.4 L  21.313 -99.298 10.0  RAL  1 0.1 0.3LRAL                1
 GAP=360        0.38       7.9    12.7  0.0  0.1002E+03 -0.3479E+02  0.8027E+02E
 ACTION:UPD 12-06-08 11:37 OP:RALL STATUS:               ID:20100706091211     I
 2010-07-06-0912-05S.PLUR1_003                                                 6
 STAT SP IPHASW D HRMM SECON CODA AMPLIT PERI AZIMU VELO AIN AR TRES W  DIS CAZ7
 LZ4  SZ E         912 13.46                  236.2 12.9      0        3.60  56 
 LZ4  SN IP        912 13.52                             161    0.1610 3.60  56 
 LZ4  SE IS        912 14.61                             161   -0.1610 3.60  56 
 LZ4  SZ  AML      912 14.79        10.1 0.34                          3.60  56 
                                                                                
 2010  7 6 1320 46.2 L  21.514 -99.329 10.0  RAL  1 0.1-0.3LRAL                1
 GAP=360        0.37      11.0     7.1  0.0 -0.7850E+02 -0.3479E+02  0.8027E+02E
 ACTION:UPD 12-06-08 11:37 OP:RALL STATUS:               ID:20100706132046     I
 2010-07-06-1320-39S.PLUR1_003                                                 6
 STAT SP IPHASW D HRMM SECON CODA AMPLIT PERI AZIMU VELO AIN AR TRES W  DIS CAZ7
 LA4  SN IP       1320 48.34                             159    0.1510 3.98 149 
 LA4  SZ E        1320 48.40                  328.8  5.1      0        3.98 149 
 LA4  SE IS       1320 49.47                             159   -0.1510 3.98 149 
 LA4  SZ  AML     1320 49.55         2.5 0.22                          3.98 149 
                                                                                
 2010  7 8 2136 56.4 L  21.622 -99.142 10.0  RAL  1 0.0 1.1LRAL                1
 GAP=360        0.30       3.6     1.6  0.0  0.3844E+01 -0.3479E+02  0.8027E+02E
 ACTION:UPD 12-06-08 11:37 OP:RALL STATUS:               ID:20100708213656     I
 2010-07-08-2136-58S.PLUR1_003                                                 6
 STAT SP IPHASW D HRMM SECON CODA AMPLIT PERI AZIMU VELO AIN AR TRES W  DIS CAZ7
 LG3  SZ E        2137  3.15                   16.6 15.4      0        40.0 197 
 LG3  SN IP       2137  3.20                             100    0.0110 40.0 197 
 LG3  SE IS       2137  8.13                             100   -0.0110 40.0 197 
 LG3  SZ  AML     2137  8.89        17.0 0.20                          40.0 197 
                                                                                
 2010  7 9 0731  2.1 L  21.280 -99.281 10.4  RAL  2 0.2 0.2LRAL                1
 GAP=259        0.97       0.3     1.0  8.6 -0.1593E+00  0.5109E+00 -0.4898E-01E
 ACTION:UPD 12-06-08 11:37 OP:RALL STATUS:               ID:20100709073102     I
 2010-07-09-0730-55S.PLUR1_006                                                 6
 STAT SP IPHASW D HRMM SECON CODA AMPLIT PERI AZIMU VELO AIN AR TRES W  DIS CAZ7
 LG3  SZ E         731  4.60                  281.1 21.3      1        2.96 100 
 LG3  SN IP        731  4.65                             165    0.5310 2.96 100 
 LG3  SE IS        731  5.72                             165    0.1610 2.96 100 
 LG3  SZ  AML      731  5.87        29.7 0.24                          2.96 100 
 LD5  SN IP        731  4.78                             132    0.0010 11.2 202 
 LD5  SZ E         731  4.79                   21.9  7.8      0        11.2 202 
 LD5  SE IS        731  6.02                             132   -0.6910 11.2 202 
 LD5  SZ  AML      731  6.37         2.1 0.32                          11.2 202 
                                                                                
 2010  7 9 2103 54.0 L  21.271 -99.251 10.0  RAL  1 0.0 0.8LRAL                1
 GAP=360        0.30       6.3     2.0  0.0 -0.1245E+02  0.5109E+00 -0.4898E-01E
 ACTION:UPD 12-06-08 11:37 OP:RALL STATUS:               ID:20100709210354     I
 2010-07-09-2103-46S.PLUR1_003                                                 6
 STAT SP IPHASW D HRMM SECON CODA AMPLIT PERI AZIMU VELO AIN AR TRES W  DIS CAZ7
 LZ4  SZ E        21 3 56.07                  163.7 15.5      0        6.90 344 
 LZ4  SN IP       21 3 56.19                             146    0.0110 6.90 344 
 LZ4  SE IS       21 3 57.74                             146   -0.0110 6.90 344 
 LZ4  SZ  AML     21 3 58.38        27.5 0.24                          6.90 344 
                                                                                
 2010  710 0257 22.5 L  21.727 -99.490 10.0  RAL  1 0.0 1.3LRAL                1
 GAP=360        0.30       3.4     2.2  0.0 -0.5433E+01  0.5109E+00 -0.4898E-01E
 ACTION:UPD 12-06-08 11:37 OP:RALL STATUS:               ID:20100710025722     I
 2010-07-10-0257-21S.PLUR1_003                                                 6
 STAT SP IPHASW D HRMM SECON CODA AMPLIT PERI AZIMU VELO AIN AR TRES W  DIS CAZ7
 LZ4  SZ E         257 30.67                  332.5 10.1      0        49.4 152 
 LZ4  SN IP        257 30.69                              97    0.0110 49.4 152 
 LZ4  SE IS        257 36.66                              97   -0.0110 49.4 152 
 LZ4  SZ  AML      257 37.42        23.8 0.14                          49.4 152 
                                                                                
 2010  711 0707 39.9 L  21.400 -99.328 10.0  RAL  3 1.3 0.2LRAL                1
 GAP=211       23.80      12.7    18.3159.2  0.1463E+03 -0.3048E+02  0.4780E+02E
 ACTION:UPD 12-06-08 11:37 OP:RALL STATUS:               ID:20100711070739     I
 2010-07-11-0707-31S.PLUR1_009                                                 6
 STAT SP IPHASW D HRMM SECON CODA AMPLIT PERI AZIMU VELO AIN AR TRES W  DIS CAZ7
 LT9  SZ E         7 7 41.06                  281.3 13.1    -58        0.51 161 
 LT9  SN IP        7 7 41.06                             177   -0.5710 0.51 161 
 LT9  SE IS        7 7 41.62                             177   -1.3110 0.51 161 
 LT9  SZ  AML      7 7 42.27         3.6 0.46                          0.51 161 
 LA4  SZ E         7 7 42.46                  176.2  8.4    -15        9.51  12 
 LA4  SN IP        7 7 42.60                             134    0.3210 9.51  12 
 LA4  SE IS        7 7 44.34                             134    0.2910 9.51  12 
 LA4  SZ  AML      7 7 44.91        10.6 0.16                          9.51  12 
 LG3  SN IP        7 7 43.45                             120    0.3910 15.8 150 
 LG3  SZ E         7 7 43.45                   93.0 30.1    123        15.8 150 
 LG3  SE IS        7 7 46.27                             120    0.8810 15.8 150 
 LG3  SZ  AML      7 7 48.34         7.3 0.14                          15.8 150 
                                                                                
 2010  711 0803 35.7 R  21.667-100.291 10.0  RAL  1 0.0 1.9LRAL                1
 GAP=360        0.30       3.1     3.9  0.0 -0.1744E+01 -0.3048E+02  0.4780E+02E
 ACTION:UPD 12-06-08 11:37 OP:RALL STATUS:               ID:20100711080335     I
 2010-07-11-0803-44S.PLUR1_009                                                 6
 STAT SP IPHASW D HRMM SECON CODA AMPLIT PERI AZIMU VELO AIN AR TRES W  DIS CAZ7
 LG3  SZ E         8 3 54.15                  292.1 12.8      0         116 112 
 LG3  SN IP        8 3 54.25                              93    0.0010  116 112 
 LG3  SE IS        8 4  7.77                              93    0.0010  116 112 
 LG3  SZ  AML      8 4 10.26        36.1 1.14                           116 112 
                                                                                
 2010  711 1835 32.6 L  21.320 -99.291 10.0  RAL  1 0.1 0.4LRAL                1
 GAP=360        0.62      16.2    30.6  0.0  0.4976E+03 -0.3048E+02  0.4780E+02E
 ACTION:UPD 12-06-08 11:37 OP:RALL STATUS:               ID:20100711183532     I
 2010-07-11-1835-25S.PLUR1_003                                                 6
 STAT SP IPHASW D HRMM SECON CODA AMPLIT PERI AZIMU VELO AIN AR TRES W  DIS CAZ7
 LZ4  SZ E        1835 34.78                  240.4 26.7      0        2.51  60 
 LZ4  SN IP       1835 34.84                             166    0.3710 2.51  60 
 LZ4  SE IS       1835 35.47                             166   -0.3710 2.51  60 
 LZ4  SZ  AML     1835 35.79        14.7 0.36                          2.51  60 
                                                                                
 2010  711 2036 23.0 L  21.430 -99.339 10.0  RAL  1 0.0 1.0LRAL                1
 GAP=360        0.30       3.8     2.7  0.0 -0.1030E+02 -0.3048E+02  0.4780E+02E
 ACTION:UPD 12-06-08 11:37 OP:RALL STATUS:               ID:20100711203623     I
 2010-07-11-2036-17S.PLUR1_003                                                 6
 STAT SP IPHASW D HRMM SECON CODA AMPLIT PERI AZIMU VELO AIN AR TRES W  DIS CAZ7
 LZ4  SN IP       2036 25.86                             126    0.0210 13.1 146 
 LZ4  SZ E        2036 25.88                  326.5  7.9      0        13.1 146 
 LZ4  SE IS       2036 27.90                             126   -0.0210 13.1 146 
 LZ4  SZ  AML     2036 28.16        34.7 0.22                          13.1 146 
                                                                                
 2010  711 2132 11.7 R  20.377 -98.434 10.0  RAL  1 0.0 2.2LRAL                1
 GAP=360        0.30       4.3     4.3  0.0 -0.5089E+01 -0.3048E+02  0.4780E+02E
 ACTION:UPD 12-06-08 11:37 OP:RALL STATUS:               ID:20100711213211     I
 2010-07-11-2132-25S.PLUR1_003                                                 6
 STAT SP IPHASW D HRMM SECON CODA AMPLIT PERI AZIMU VELO AIN AR TRES W  DIS CAZ7
 LZ4  SZ E        2132 33.11                  140.4 21.6      0         137 321 
 LZ4  SN IP       2132 33.14                              52    0.0110  137 321 
 LZ4  SE IS       2132 48.76                              52   -0.0110  137 321 
 LZ4  SZ  AML     2132 51.94        57.8 0.50                           137 321 
                                                                                
 2010  711 2144 42.7 R  19.890 -98.221 10.0  RAL  1 0.0 2.2LRAL                1
 GAP=360        0.30       4.8     5.2  0.0  0.1358E+01 -0.3048E+02  0.4780E+02E
 ACTION:UPD 12-06-08 11:37 OP:RALL STATUS:               ID:20100711214442     I
 2010-07-11-2145-01S.PLUR1_003                                                 6
 STAT SP IPHASW D HRMM SECON CODA AMPLIT PERI AZIMU VELO AIN AR TRES W  DIS CAZ7
 LZ4  SZ E        2145 10.61                  145.4 13.5      0         193 326 
 LZ4  SN IP       2145 10.99                              52    0.0110  193 326 
 LZ4  SE IS       2145 31.65                              52   -0.0110  193 326 
 LZ4  SZ  AML     2145 33.01        42.3 0.20                           193 326 
                                                                                
 2010  711 2258 10.0 L  21.305 -99.250 10.0  RAL  1 0.1 0.6LRAL                1
 GAP=360        0.43      13.7    10.4  0.0 -0.1425E+03 -0.3048E+02  0.4780E+02E
 ACTION:UPD 12-06-08 11:37 OP:RALL STATUS:               ID:20100711225810     I
 2010-07-11-2258-03S.PLUR1_003                                                 6
 STAT SP IPHASW D HRMM SECON CODA AMPLIT PERI AZIMU VELO AIN AR TRES W  DIS CAZ7
 LZ4  SZ E        2258 12.15                  144.8 26.5      0        3.46 325 
 LZ4  SN IP       2258 12.15                             161    0.2110 3.46 325 
 LZ4  SE IS       2258 13.13                             161   -0.2110 3.46 325 
 LZ4  SZ  AML     2258 13.25        21.3 0.14                          3.46 325 
                                                                                
 2010  712 0109 18.3 L  21.327 -99.269 10.0  RAL  1 1.8 1.3LRAL                1
 GAP=360       23.89     999.9   999.9  0.0  0.3531E+10 -0.3048E+02  0.4780E+02E
 ACTION:UPD 12-06-08 11:37 OP:RALL STATUS:               ID:20100712010918     I
 2010-07-12-0109-11S.PLUR1_003                                                 6
 STAT SP IPHASW D HRMM SECON CODA AMPLIT PERI AZIMU VELO AIN AR TRES W  DIS CAZ7
 LZ4  SZ E         1 9 20.60                  287.1 38.5    114        0.43 353 
 LZ4  SN IP        1 9 20.60                             178    0.4610 0.43 353 
 LZ4  SE IS        1 9 21.01                             178   -0.4610 0.43 353 
 LZ4  SZ  AML      1 9 21.04       119.5 0.18                          0.43 353 
                                                                                
 2010  712 0513 36.6 L  21.206 -99.374 10.0  RAL  1 0.0 1.0LRAL                1
 GAP=360        0.30       3.3     2.8  0.0  0.8999E+01 -0.3048E+02  0.4780E+02E
 ACTION:UPD 12-06-08 11:37 OP:RALL STATUS:               ID:20100712051336     I
 2010-07-12-0513-32S.PLUR1_003                                                 6
 STAT SP IPHASW D HRMM SECON CODA AMPLIT PERI AZIMU VELO AIN AR TRES W  DIS CAZ7
 LZ4  SZ E         513 39.97                  217.9 29.6      0        17.6  38 
 LZ4  SN IP        513 39.97                             117   -0.0210 17.6  38 
 LZ4  SE IS        513 42.51                             117    0.0210 17.6  38 
 LZ4  SZ  AML      513 44.11        27.7 0.72                          17.6  38 
                                                                                
 2010  712 0610 39.4 L  21.399 -99.333 10.0  RAL  2 1.1 0.5LRAL                1
 GAP=330       19.06      82.0    56.0154.3 -0.3739E+04 -0.3550E+04  0.5709E+04E
 ACTION:UPD 12-06-08 11:37 OP:RALL STATUS:               ID:20100712061039     I
 2010-07-12-0610-31S.PLUR1_006                                                 6
 STAT SP IPHASW D HRMM SECON CODA AMPLIT PERI AZIMU VELO AIN AR TRES W  DIS CAZ7
 LT9  SN IP        610 40.93                             175   -0.2510 0.81 119 
 LT9  SZ E         610 40.94                  234.5 15.6    -63        0.81 119 
 LT9  SE IS        610 41.46                             175   -1.0210 0.81 119 
 LT9  SZ  AML      610 42.22        16.0 0.78                          0.81 119 
 LG3  SZ E         610 43.14                   35.9 21.3     67        16.0 148 
 LG3  SN IP        610 43.19                             120    0.5610 16.0 148 
 LG3  SE IS        610 45.70                             120    0.7110 16.0 148 
 LG3  SZ  AML      610 46.38        13.1 0.26                          16.0 148 
                                                                                
 2010  712 1032 44.6 L  21.395 -99.327  8.5  RAL  2 0.6 0.1LRAL                1
 GAP=288        9.58       6.8    12.2 65.0  0.6716E+02 -0.9313E+01  0.8186E+01E
 ACTION:UPD 12-06-08 11:37 OP:RALL STATUS:               ID:20100712103244     I
 2010-07-12-1032-36S.PLUR1_006                                                 6
 STAT SP IPHASW D HRMM SECON CODA AMPLIT PERI AZIMU VELO AIN AR TRES W  DIS CAZ7
 LT9  SZ E        1032 45.81                  242.7 10.4    -14        0.06  78 
 LT9  SN IP       1032 45.82                             180   -0.3310 0.06  78 
 LT9  SE IS       1032 46.33                             180   -0.9510 0.06  78 
 LT9  SZ  AML     1032 47.10         6.4 0.78                          0.06  78 
 LG3  SN IP       1032 48.06                             116    0.4310 15.3 150 
 LG3  SZ E        1032 48.08                   13.7  9.9     44        15.3 150 
 LG3  SE IS       1032 50.70                             116    0.8610 15.3 150 
 LG3  SZ  AML     1032 51.18         5.5 0.14                          15.3 150 
                                                                                
