 2010  8 1 0039 32.5 L  21.283 -99.261 10.0  RAL  3 1.5 0.4LRAL                1
 GAP=283       27.06      13.7    27.2187.1  0.2231E+03  0.1582E+03  0.1076E+03E
 ACTION:UPD 13-02-28 14:29 OP:RALL STATUS:               ID:20100801003932     I
 2010-08-01-0039-25S.PLUR1_009                                                 6
 STAT SP IPHASW D HRMM SECON CODA AMPLIT PERI AZIMU VELO AIN AR TRES W  DIS CAZ7
 LG3  SZ E         039 34.58                  283.0 22.1    -29        1.14 133 
 LG3  SN IP        039 34.63                             174    0.3010 1.14 133 
 LG3  SE IS        039 35.56                             174   -0.1310 1.14 133 
 LG3  SZ  AML      039 35.92       109.8 0.28                          1.14 133 
 LD5  SN IP        039 35.15                             128   -0.0610 12.3 210 
 LD5  SZ E         039 35.16                   35.7  7.7      6        12.3 210 
 LD5  SE IS        039 36.54                             128   -0.6710 12.3 210 
 LD5  SZ  AML      039 36.91         6.4 0.52                          12.3 210 
 LO8  SZ E         039 35.93                  133.4  8.8    153        14.5 160 
 LO8  SN IP        039 35.93                             124    0.4110 14.5 160 
 LO8  SE IS        039 37.89                             124    0.1410 14.5 160 
 LO8  SZ  AML      039 38.89         2.0 0.20                          14.5 160 
                                                                                
 2010  8 1 0106 13.6 L  21.261 -99.274 10.0  RAL  1 0.2 1.5LRAL                1
 GAP=360        0.68      18.9    28.5  0.0  0.5396E+03  0.1582E+03  0.1076E+03E
 ACTION:UPD 13-02-28 14:29 OP:RALL STATUS:               ID:20100801010613     I
 2010-08-01-0106-07S.PLUR1_003                                                 6
 STAT SP IPHASW D HRMM SECON CODA AMPLIT PERI AZIMU VELO AIN AR TRES W  DIS CAZ7
 LG3  SZ E         1 6 15.94                  234.6 25.1      0        2.79  55 
 LG3  SN IP        1 6 15.96                             165    0.4110 2.79  55 
 LG3  SE IS        1 6 16.53                             165   -0.4110 2.79  55 
 LG3  SZ  AML      1 6 16.64       173.1 0.22                          2.79  55 
                                                                                
 2010  8 1 0223 44.2 L  21.305 -99.224 10.0  RAL  1 0.0 0.6LRAL                1
 GAP=360        0.35       8.2     8.1  0.0  0.6700E+02  0.1582E+03  0.1076E+03E
 ACTION:UPD 13-02-28 14:29 OP:RALL STATUS:               ID:20100801022344     I
 2010-08-01-0223-36S.PLUR1_003                                                 6
 STAT SP IPHASW D HRMM SECON CODA AMPLIT PERI AZIMU VELO AIN AR TRES W  DIS CAZ7
 LG3  SN IP        223 46.29                             157    0.1310 4.38 223 
 LG3  SZ E         223 46.29                   42.6 17.5      0        4.38 223 
 LG3  SE IS        223 47.49                             157   -0.1310 4.38 223 
 LG3  SZ  AML      223 48.42        21.0 0.32                          4.38 223 
                                                                                
 2010  8 1 0230 10.5 L  21.280 -99.265 10.0  RAL  1 0.3 1.1LRAL                1
 GAP=360        3.33     999.9   999.9  0.0  0.4281E+07  0.1582E+03  0.1076E+03E
 ACTION:UPD 13-02-28 14:29 OP:RALL STATUS:               ID:20100801023010     I
 2010-08-01-0230-04S.PLUR1_003                                                 6
 STAT SP IPHASW D HRMM SECON CODA AMPLIT PERI AZIMU VELO AIN AR TRES W  DIS CAZ7
 LG3  SZ E         230 12.79                  276.3 20.8    -15        1.40 112 
 LG3  SN IP        230 12.79                             172    0.4310 1.40 112 
 LG3  SE IS        230 13.30                             172   -0.4310 1.40 112 
 LG3  SZ  AML      230 13.39        71.4 0.10                          1.40 112 
                                                                                
 2010  8 1 0255 20.2 L  21.397 -99.300 10.0  RAL  1 0.0 0.8LRAL                1
 GAP=360        0.30       5.3     0.6  0.0 -0.2762E+01  0.1582E+03  0.1076E+03E
 ACTION:UPD 13-02-28 14:29 OP:RALL STATUS:               ID:20100801025520     I
 2010-08-01-0255-13S.PLUR1_003                                                 6
 STAT SP IPHASW D HRMM SECON CODA AMPLIT PERI AZIMU VELO AIN AR TRES W  DIS CAZ7
 LA4  SZ E         255 22.60                  174.7  8.8      0        9.69 355 
 LA4  SN IP        255 22.69                             136    0.0010 9.69 355 
 LA4  SE IS        255 24.47                             136    0.0010 9.69 355 
 LA4  SZ  AML      255 25.42        29.3 0.16                          9.69 355 
                                                                                
 2010  8 1 0317 26.5 L  21.280 -99.023 10.0  RAL  4 1.1 1.3LRAL                1
 GAP=289       17.22      24.1    58.3310.5  0.5354E+03 -0.6694E+04 -0.2027E+04E
 ACTION:UPD 13-02-28 14:29 OP:RALL STATUS:               ID:20100801031726     I
 2010-08-01-0317-22S.PLUR1_012                                                 6
 STAT SP IPHASW D HRMM SECON CODA AMPLIT PERI AZIMU VELO AIN AR TRES W  DIS CAZ7
 LG3  SZ E         317 31.00                   91.4 17.7      3        23.8 269 
 LO8  SN IP        317 33.22                             110    2.3710 23.8 236 
 LO8  SE IS        317 36.42                             110    2.3910 23.8 236 
 LO8  SZ  AML      317 37.28         6.7 0.18                          23.8 236 
 LG3  SN IP        317 31.09                             110    0.2610 23.8 269 
 LG3  SE IS        317 32.53                             110   -1.4710 23.8 269 
 LO8  SZ E         317 33.20                  143.3  7.7     87        23.8 236 
 LG3  SZ  AML      317 33.19       283.7 0.18                          23.8 269 
 LD5  SZ E         317 32.42                   15.1  7.2    -55        32.5 252 
 LD5  SN IP        317 32.45                             103    0.3210 32.5 252 
 LD5  SE IS        317 35.07                             103   -1.1710 32.5 252 
 LD5  SZ  AML      317 36.98        11.0 0.28                          32.5 252 
 LA4  SN IP        317 32.46                             101   -0.3910 37.3 307 
 LA4  SZ E         317 32.46                  164.4  6.7     37        37.3 307 
 LA4  SE IS        317 35.18                             101   -2.3110 37.3 307 
 LA4  SZ  AML      317 36.52        69.9 0.52                          37.3 307 
                                                                                
 2010  8 1 0327 10.9 L  21.381 -99.250 10.0  RAL  1 0.0 0.4LRAL                1
 GAP=360        0.30       4.1     2.4  0.0 -0.9471E+01 -0.6694E+04 -0.2027E+04E
 ACTION:UPD 13-02-28 14:29 OP:RALL STATUS:               ID:20100801032710     I
 2010-08-01-0327-04S.PLUR1_003                                                 6
 STAT SP IPHASW D HRMM SECON CODA AMPLIT PERI AZIMU VELO AIN AR TRES W  DIS CAZ7
 LA4  SN IP        327 13.70                             127    0.0110 12.9 332 
 LA4  SZ E         327 13.71                  151.9  9.6      0        12.9 332 
 LA4  SE IS        327 15.73                             127   -0.0110 12.9 332 
 LA4  SZ  AML      327 16.49         9.8 0.10                          12.9 332 
                                                                                
 2010  8 1  341 29.6 L                       RAL  0                            1
 ACTION:UPD 13-02-28 14:29 OP:RALL STATUS:               ID:20100801034129     I
 2010-08-01-0341-29S.PLUR1_015                                                 6
 STAT SP IPHASW D HRMM SECON CODA AMPLIT PERI AZIMU VELO AIN AR TRES W  DIS CAZ7
                                                                                
 2010  8 1  351 11.2 L                       RAL  0                            1
 ACTION:UPD 13-02-28 14:29 OP:RALL STATUS:               ID:20100801035111     I
 2010-08-01-0351-11S.PLUR1_015                                                 6
 STAT SP IPHASW D HRMM SECON CODA AMPLIT PERI AZIMU VELO AIN AR TRES W  DIS CAZ7
                                                                                
 2010  8 1 0403 24.7 L  21.275 -99.254  9.2  RAL  4 0.5 0.8LRAL                1
 GAP=131        6.09       2.4     5.4 32.7  0.6696E+01 -0.6247E+00 -0.3085E+01E
 ACTION:UPD 13-02-28 14:29 OP:RALL STATUS:               ID:20100801040324     I
 2010-08-01-0400-39S.PLUR1_021                                                 6
 STAT SP IPHASW D HRMM SECON CODA AMPLIT PERI AZIMU VELO AIN AR TRES W  DIS CAZ7
 LG3  SZ E         4 3 26.24                  260.7 21.6      1        0.13  80 
 LG3  SN IP        4 3 26.26                             180   -0.2110 0.13  80 
 LG3  SE IS        4 3 27.03                             180   -0.7010 0.13  80 
 LG3  SZ  AML      4 3 27.44       182.9 0.20                          0.13  80 
 LD5  SZ E         4 3 26.82                   38.3  8.7      3        12.0 215 
 LD5  SN IP        4 3 26.84                             125   -0.5310 12.0 215 
 LD5  SE IS        4 3 28.21                             125   -1.0810 12.0 215 
 LD5  SZ  AML      4 3 28.47        11.0 0.28                          12.0 215 
 LO8  SN IP        4 3 27.51                             123   -0.0910 13.5 162 
 LO8  SZ E         4 3 27.53                    6.9  7.5     25        13.5 162 
 LO8  SE IS        4 3 29.45                             123   -0.2310 13.5 162 
 LO8  SZ  AML      4 3 29.80         7.1 0.36                          13.5 162 
 LA4  SZ E         4 3 29.91                  138.1  7.7    -27        23.7 346 
 LA4  SN IP        4 3 29.96                             106    0.9310 23.7 346 
 LA4  SE IS        4 3 34.06                             106    1.9110 23.7 346 
 LA4  SZ  AML      4 3 35.37        17.1 0.22                          23.7 346 
                                                                                
 2010  8 1  419 44.3 L                       RAL  0                            1
 ACTION:UPD 13-02-28 14:29 OP:RALL STATUS:               ID:20100801041944     I
 2010-08-01-0419-44S.PLUR1_015                                                 6
 STAT SP IPHASW D HRMM SECON CODA AMPLIT PERI AZIMU VELO AIN AR TRES W  DIS CAZ7
                                                                                
 2010  8 1  430 46.4 L                       RAL  0                            1
 ACTION:UPD 13-02-28 14:29 OP:RALL STATUS:               ID:20100801043046     I
 2010-08-01-0430-46S.PLUR1_024                                                 6
 STAT SP IPHASW D HRMM SECON CODA AMPLIT PERI AZIMU VELO AIN AR TRES W  DIS CAZ7
                                                                                
 2010  8 1 0443 36.2 L  21.415 -99.234 10.0  RAL  1 0.0 0.6LRAL                1
 GAP=360        0.30       4.8     2.0  0.0  0.9736E+01 -0.6247E+00 -0.3085E+01E
 ACTION:UPD 13-02-28 14:29 OP:RALL STATUS:               ID:20100801044336     I
 2010-08-01-0443-31S.PLUR1_003                                                 6
 STAT SP IPHASW D HRMM SECON CODA AMPLIT PERI AZIMU VELO AIN AR TRES W  DIS CAZ7
 LZ4  SZ E         443 38.66                   21.2 14.7      0        10.0 201 
 LZ4  SN IP        443 38.66                             134    0.0210 10.0 201 
 LZ4  SE IS        443 40.43                             134   -0.0210 10.0 201 
 LZ4  SZ  AML      443 40.83        14.6 0.14                          10.0 201 
                                                                                
 2010  8 1 0459 11.9 L  21.325 -99.223 10.0  RAL  1 0.0 0.6LRAL                1
 GAP=360        0.30       6.2     3.8  0.0  0.2398E+02 -0.6247E+00 -0.3085E+01E
 ACTION:UPD 13-02-28 14:29 OP:RALL STATUS:               ID:20100801045911     I
 2010-08-01-0459-04S.PLUR1_003                                                 6
 STAT SP IPHASW D HRMM SECON CODA AMPLIT PERI AZIMU VELO AIN AR TRES W  DIS CAZ7
 LG3  SZ E         459 13.99                   29.8 20.4      0        6.25 210 
 LG3  SN IP        459 14.07                             149    0.0310 6.25 210 
 LG3  SE IS        459 15.55                             149   -0.0310 6.25 210 
 LG3  SZ  AML      459 16.09        20.2 0.40                          6.25 210 
                                                                                
 2010  8 1  5 5 11.7 L                       RAL  0                            1
 ACTION:UPD 13-02-28 14:29 OP:RALL STATUS:               ID:20100801050511     I
 2010-08-01-0505-11S.PLUR1_018                                                 6
 STAT SP IPHASW D HRMM SECON CODA AMPLIT PERI AZIMU VELO AIN AR TRES W  DIS CAZ7
                                                                                
 2010  8 1  520 45.5 L                       RAL  0                            1
 ACTION:UPD 13-02-28 14:29 OP:RALL STATUS:               ID:20100801052045     I
 2010-08-01-0520-45S.PLUR1_024                                                 6
 STAT SP IPHASW D HRMM SECON CODA AMPLIT PERI AZIMU VELO AIN AR TRES W  DIS CAZ7
                                                                                
 2010  8 1  534 11.6 L                       RAL  0                            1
 ACTION:UPD 13-02-28 14:29 OP:RALL STATUS:               ID:20100801053411     I
 2010-08-01-0534-11S.PLUR1_009                                                 6
 STAT SP IPHASW D HRMM SECON CODA AMPLIT PERI AZIMU VELO AIN AR TRES W  DIS CAZ7
                                                                                
 2010  8 1 0539 41.9 L  21.274 -99.255 10.0  RAL  1 0.8 0.1LRAL                1
 GAP=360        9.65     999.9   999.9  0.0 -0.7199E+10 -0.6247E+00 -0.3085E+01E
 ACTION:UPD 13-02-28 14:29 OP:RALL STATUS:               ID:20100801053941     I
 2010-08-01-0539-35S.PLUR1_003                                                 6
 STAT SP IPHASW D HRMM SECON CODA AMPLIT PERI AZIMU VELO AIN AR TRES W  DIS CAZ7
 LG3  SN IP        539 44.17                             178    0.4010 0.31  52 
 LG3  SZ E         539 44.17                  277.7 23.3     46        0.31  52 
 LG3  SE IS        539 44.73                             178   -0.4010 0.31  52 
 LG3  SZ  AML      539 45.04         7.2 0.20                          0.31  52 
                                                                                
 2010  8 1 0543 11.3 L  21.349 -99.245 10.0  RAL  1 0.1-0.1LRAL                1
 GAP=360        0.47      12.3    16.4  0.0  0.2015E+03 -0.6247E+00 -0.3085E+01E
 ACTION:UPD 13-02-28 14:29 OP:RALL STATUS:               ID:20100801054311     I
 2010-08-01-0543-05S.PLUR1_003                                                 6
 STAT SP IPHASW D HRMM SECON CODA AMPLIT PERI AZIMU VELO AIN AR TRES W  DIS CAZ7
 LZ4  SN IP        543 13.45                             163    0.2510 3.22 231 
 LZ4  SZ E         543 13.45                   51.1 52.8      0        3.22 231 
 LZ4  SE IS        543 14.35                             163   -0.2510 3.22 231 
 LZ4  SZ  AML      543 14.66         4.3 0.14                          3.22 231 
                                                                                
 2010  8 1  546 41.2 L                       RAL  0                            1
 ACTION:UPD 13-02-28 14:29 OP:RALL STATUS:               ID:20100801054641     I
 2010-08-01-0546-41S.PLUR1_015                                                 6
 STAT SP IPHASW D HRMM SECON CODA AMPLIT PERI AZIMU VELO AIN AR TRES W  DIS CAZ7
                                                                                
 2010  8 1 0554 13.6 L  21.308 -99.292 10.0  RAL  1 0.1 0.5LRAL                1
 GAP=360        0.47      13.6    13.3  0.0  0.1813E+03 -0.6247E+00 -0.3085E+01E
 ACTION:UPD 13-02-28 14:29 OP:RALL STATUS:               ID:20100801055413     I
 2010-08-01-0552-20S.PLUR1_006                                                 6
 STAT SP IPHASW D HRMM SECON CODA AMPLIT PERI AZIMU VELO AIN AR TRES W  DIS CAZ7
 LZ4  SZ E         554 15.51                  222.3 62.1      0        3.43  42 
 LZ4  SN IP        554 15.77                             162    0.2410 3.43  42 
 LZ4  SE IS        554 16.68                             162   -0.2410 3.43  42 
 LZ4  SZ  AML      554 17.25        17.6 0.16                          3.43  42 
                                                                                
 2010  8 1 0558 18.8 L  21.270 -99.262 10.0  RAL  4 1.3 1.5LRAL                1
 GAP=135       24.79       9.6    21.6135.1  0.9956E+02 -0.1475E+02 -0.5645E+02E
 ACTION:UPD 13-02-28 14:29 OP:RALL STATUS:               ID:20100801055818     I
 2010-08-01-0558-11S.PLUR1_012                                                 6
 STAT SP IPHASW D HRMM SECON CODA AMPLIT PERI AZIMU VELO AIN AR TRES W  DIS CAZ7
 LG3  SZ E         558 20.38                  283.5 27.3     46        1.13  58 
 LG3  SN IP        558 20.40                             176   -0.3110 1.13  58 
 LG3  SE IS        558 21.24                             176   -0.8310 1.13  58 
 LG3  SZ  AML      558 21.52      1419.7 0.38                          1.13  58 
 LD5  SZ E         558 20.99                   20.5  9.4    -12        11.1 213 
 LD5  SN IP        558 20.99                             129   -0.4510 11.1 213 
 LD5  SE IS        558 22.39                             129   -0.9410 11.1 213 
 LD5  SZ  AML      558 23.31        69.0 0.34                          11.1 213 
 LO8  SZ E         558 21.79                  131.6  6.2    154        13.2 158 
 LO8  SN IP        558 21.81                             126    0.0710 13.2 158 
 LO8  SE IS        558 23.90                             126    0.0510 13.2 158 
 LO8  SZ  AML      558 24.46        14.7 0.38                          13.2 158 
 LA4  SZ E         558 23.92                  154.1  6.5    -13        24.1 348 
 LA4  SN IP        558 23.94                             108    0.7210 24.1 348 
 LA4  SE IS        558 28.10                             108    1.6810 24.1 348 
 LA4  SZ  AML      558 29.00        78.2 0.38                          24.1 348 
                                                                                
 2010  8 1  6 3  4.8 L                       RAL  0                            1
 ACTION:UPD 13-02-28 14:29 OP:RALL STATUS:               ID:20100801060304     I
 2010-08-01-0603-04S.PLUR1_015                                                 6
 STAT SP IPHASW D HRMM SECON CODA AMPLIT PERI AZIMU VELO AIN AR TRES W  DIS CAZ7
                                                                                
 2010  8 1  617 19.9 L                       RAL  0                            1
 ACTION:UPD 13-02-28 14:29 OP:RALL STATUS:               ID:20100801061719     I
 2010-08-01-0617-19S.PLUR1_012                                                 6
 STAT SP IPHASW D HRMM SECON CODA AMPLIT PERI AZIMU VELO AIN AR TRES W  DIS CAZ7
                                                                                
