 2010 10 1 2031 59.1 L  21.344 -99.300 10.0  RAL  1 0.0 0.0LRAL                1
 GAP=360        0.30       6.2     3.2  0.0 -0.1974E+02  0.5903E+01 -0.6551E+01E
 ACTION:UPD 12-06-08 11:37 OP:RALL STATUS:               ID:20101001203159     I
 2010-10-01-2031-52S.PLUR1_003                                                 6
 STAT SP IPHASW D HRMM SECON CODA AMPLIT PERI AZIMU VELO AIN AR TRES W  DIS CAZ7
 LT9  SN IP       2032  1.16                             147    0.0210 6.37 334 
 LT9  SZ E        2032  1.19                  154.2  7.6      0        6.37 334 
 LT9  SE IS       2032  2.62                             147   -0.0210 6.37 334 
 LT9  SZ  AML     2032  2.91         5.0 0.44                          6.37 334 
                                                                                
 2010 10 3 0357 48.3 L  21.310 -99.229 10.0  RAL  1 0.0 1.1LRAL                1
 GAP=360        0.30       3.7     1.8  0.0 -0.6124E+01  0.5903E+01 -0.6551E+01E
 ACTION:UPD 12-06-08 11:37 OP:RALL STATUS:               ID:20101003035748     I
 2010-10-03-0357-43S.PLUR1_003                                                 6
 STAT SP IPHASW D HRMM SECON CODA AMPLIT PERI AZIMU VELO AIN AR TRES W  DIS CAZ7
 LA4  SZ E         357 52.17                  156.6  7.6      0        20.9 337 
 LA4  SN IP        357 52.19                             112    0.0010 20.9 337 
 LA4  SE IS        357 55.04                             112    0.0010 20.9 337 
 LA4  SZ  AML      357 57.08        33.6 0.38                          20.9 337 
                                                                                
 2010 10 3 0441 50.1 L  21.370 -99.303 10.0  RAL  1 0.0 0.5LRAL                1
 GAP=360        0.30       4.6     0.4  0.0 -0.1209E+01  0.5903E+01 -0.6551E+01E
 ACTION:UPD 12-06-08 11:37 OP:RALL STATUS:               ID:20101003044150     I
 2010-10-03-0441-45S.PLUR1_003                                                 6
 STAT SP IPHASW D HRMM SECON CODA AMPLIT PERI AZIMU VELO AIN AR TRES W  DIS CAZ7
 LA4  SZ E         441 52.87                  177.0  7.6      0        12.6 357 
 LA4  SN IP        441 52.87                             127    0.0010 12.6 357 
 LA4  SE IS        441 54.90                             127    0.0010 12.6 357 
 LA4  SZ  AML      441 55.03        10.2 0.42                          12.6 357 
                                                                                
 2010 10 3 1714 10.8 L  21.464 -99.331 10.0  RAL  1 0.1 0.2LRAL                1
 GAP=360        0.51      15.0    16.9  0.0  0.2527E+03  0.5903E+01 -0.6551E+01E
 ACTION:UPD 12-06-08 11:37 OP:RALL STATUS:               ID:20101003171410     I
 2010-10-03-1714-04S.PLUR1_003                                                 6
 STAT SP IPHASW D HRMM SECON CODA AMPLIT PERI AZIMU VELO AIN AR TRES W  DIS CAZ7
 LA4  SZ E        1714 12.99                  226.3 14.7      0        3.18  46 
 LA4  SN IP       1714 13.00                             163    0.2810 3.18  46 
 LA4  SE IS       1714 13.84                             163   -0.2810 3.18  46 
 LA4  SZ  AML     1714 13.97         8.8 0.22                          3.18  46 
                                                                                
 2010 10 4 0147 35.8 L  21.195 -99.215 10.0  RAL  1 0.0 2.1LRAL                1
 GAP=360        0.30       3.6     1.5  0.0 -0.4082E+01  0.5903E+01 -0.6551E+01E
 ACTION:UPD 12-06-08 11:37 OP:RALL STATUS:               ID:20101004014735     I
 2010-10-04-0147-31S.PLUR1_003                                                 6
 STAT SP IPHASW D HRMM SECON CODA AMPLIT PERI AZIMU VELO AIN AR TRES W  DIS CAZ7
 LA4  SZ E         147 41.51                  163.0  8.1      0        33.4 343 
 LA4  SN IP        147 41.54                             102    0.0110 33.4 343 
 LA4  SE IS        147 45.72                             102   -0.0110 33.4 343 
 LA4  SZ  AML      147 48.85       214.4 0.54                          33.4 343 
                                                                                
 2010 10 4 2326 14.8 L  21.323 -99.201 10.0  RAL  1 0.0 1.3LRAL                1
 GAP=360        0.30       3.4     2.3  0.0 -0.7561E+01  0.5903E+01 -0.6551E+01E
 ACTION:UPD 12-06-08 11:37 OP:RALL STATUS:               ID:20101004232614     I
 2010-10-04-2326-09S.PLUR1_003                                                 6
 STAT SP IPHASW D HRMM SECON CODA AMPLIT PERI AZIMU VELO AIN AR TRES W  DIS CAZ7
 LA4  SZ E        2326 18.69                  147.8  6.1      0        21.0 328 
 LA4  SN IP       2326 18.71                             112    0.0010 21.0 328 
 LA4  SE IS       2326 21.57                             112    0.0010 21.0 328 
 LA4  SZ  AML     2326 23.75        53.1 0.26                          21.0 328 
                                                                                
 2010 10 5 1540 45.1 L  21.494 -99.329 10.0  RAL  1 0.2 0.4LRAL                1
 GAP=360        0.76      21.3    39.8  0.0 -0.8499E+03  0.5903E+01 -0.6551E+01E
 ACTION:UPD 12-06-08 11:37 OP:RALL STATUS:               ID:20101005154045     I
 2010-10-05-1540-38S.PLUR1_003                                                 6
 STAT SP IPHASW D HRMM SECON CODA AMPLIT PERI AZIMU VELO AIN AR TRES W  DIS CAZ7
 LA4  SZ E        1540 47.48                  299.9 18.2      0        2.36 120 
 LA4  SN IP       1540 47.48                             167    0.4710 2.36 120 
 LA4  SE IS       1540 47.91                             167   -0.4710 2.36 120 
 LA4  SZ  AML     1540 48.02        14.1 0.20                          2.36 120 
                                                                                
 2010 10 5 1656 35.4 L  21.525 -99.338 10.0  RAL  1 0.0 0.6LRAL                1
 GAP=360        0.31       6.8     4.8  0.0 -0.3247E+02  0.5903E+01 -0.6551E+01E
 ACTION:UPD 12-06-08 11:37 OP:RALL STATUS:               ID:20101005165635     I
 2010-10-05-1656-29S.PLUR1_003                                                 6
 STAT SP IPHASW D HRMM SECON CODA AMPLIT PERI AZIMU VELO AIN AR TRES W  DIS CAZ7
 LA4  SZ E        1656 37.48                  326.7  8.7      0        5.51 147 
 LA4  SN IP       1656 37.51                             152    0.0610 5.51 147 
 LA4  SE IS       1656 38.90                             152   -0.0610 5.51 147 
 LA4  SZ  AML     1656 39.47        20.9 0.22                          5.51 147 
                                                                                
 2010 10 6 0428 34.8 L  21.621 -99.320 10.0  RAL  1 0.0 1.5LRAL                1
 GAP=360        0.30       4.4     0.6  0.0 -0.1525E+01  0.5903E+01 -0.6551E+01E
 ACTION:UPD 12-06-08 11:37 OP:RALL STATUS:               ID:20101006042834     I
 2010-10-06-0428-28S.PLUR1_003                                                 6
 STAT SP IPHASW D HRMM SECON CODA AMPLIT PERI AZIMU VELO AIN AR TRES W  DIS CAZ7
 LA4  SZ E         428 37.95                  355.7  8.4      0        15.2 176 
 LA4  SN IP        428 37.98                             121    0.0310 15.2 176 
 LA4  SE IS        428 40.21                             121   -0.0310 15.2 176 
 LA4  SZ  AML      428 40.47       105.6 0.34                          15.2 176 
                                                                                
 2010 10 7 0007 49.3 L  21.473 -99.310 10.0  RAL  1 0.1 0.5LRAL                1
 GAP=360        0.54     818.0   999.9  0.0 -0.1071E+08  0.5903E+01 -0.6551E+01E
 ACTION:UPD 12-06-08 11:37 OP:RALL STATUS:               ID:20101007000749     I
 2010-10-07-0007-42S.PLUR1_003                                                 6
 STAT SP IPHASW D HRMM SECON CODA AMPLIT PERI AZIMU VELO AIN AR TRES W  DIS CAZ7
 LA4  SN IP        0 7 51.44                             174    0.3110 1.18   4 
 LA4  SZ E         0 7 51.45                  184.0 13.2      0        1.18   4 
 LA4  SE IS        0 7 52.18                             174   -0.3110 1.18   4 
 LA4  SZ  AML      0 7 52.34        17.5 0.20                          1.18   4 
                                                                                
 2010 10 7 0102  9.8 L  21.504 -99.323 10.0  RAL  1 0.1 0.3LRAL                1
 GAP=360        0.57      23.9    17.0  0.0 -0.4059E+03  0.5903E+01 -0.6551E+01E
 ACTION:UPD 12-06-08 11:37 OP:RALL STATUS:               ID:20101007010209     I
 2010-10-07-0102-03S.PLUR1_003                                                 6
 STAT SP IPHASW D HRMM SECON CODA AMPLIT PERI AZIMU VELO AIN AR TRES W  DIS CAZ7
 LA4  SZ E         1 2 12.01                  326.4 11.4      0        2.68 146 
 LA4  SN IP        1 2 12.03                             166    0.3310 2.68 146 
 LA4  SE IS        1 2 12.75                             166   -0.3310 2.68 146 
 LA4  SZ  AML      1 2 12.90        11.9 0.20                          2.68 146 
                                                                                
 2010 10 7 2339 53.0 L  21.481 -99.310 10.0  RAL  1 0.5-0.2LRAL                1
 GAP=360        6.17     999.9   999.9  0.0 -0.3408E+10  0.5903E+01 -0.6551E+01E
 ACTION:UPD 12-06-08 11:37 OP:RALL STATUS:               ID:20101007233953     I
 2010-10-07-2339-46S.PLUR1_003                                                 6
 STAT SP IPHASW D HRMM SECON CODA AMPLIT PERI AZIMU VELO AIN AR TRES W  DIS CAZ7
 LA4  SN IP       2339 55.27                             178    0.3910 0.31  29 
 LA4  SZ E        2339 55.28                  180.0 10.2    -28        0.31  29 
 LA4  SE IS       2339 55.83                             178   -0.3910 0.31  29 
 LA4  SZ  AML     2339 55.86         3.8 0.18                          0.31  29 
                                                                                
 2010 10 9 0216 23.4 L  21.562 -99.334 10.0  RAL  1 0.0 0.4LRAL                1
 GAP=360        0.30       5.3     1.7  0.0 -0.9117E+01  0.5903E+01 -0.6551E+01E
 ACTION:UPD 12-06-08 11:37 OP:RALL STATUS:               ID:20101009021623     I
 2010-10-09-0216-18S.PLUR1_003                                                 6
 STAT SP IPHASW D HRMM SECON CODA AMPLIT PERI AZIMU VELO AIN AR TRES W  DIS CAZ7
 LA4  SN IP        216 25.83                             138    0.0210 9.01 163 
 LA4  SZ E         216 25.84                  343.2  8.5      0        9.01 163 
 LA4  SE IS        216 27.53                             138   -0.0210 9.01 163 
 LA4  SZ  AML      216 27.63        10.1 0.26                          9.01 163 
                                                                                
 2010 10 9 0551 34.1 L  21.279 -99.217 10.0  RAL  1 0.0 2.5LRAL                1
 GAP=360        0.30       3.6     1.7  0.0 -0.5732E+01  0.5903E+01 -0.6551E+01E
 ACTION:UPD 12-06-08 11:37 OP:RALL STATUS:               ID:20101009055134     I
 2010-10-09-0551-29S.PLUR1_003                                                 6
 STAT SP IPHASW D HRMM SECON CODA AMPLIT PERI AZIMU VELO AIN AR TRES W  DIS CAZ7
 LA4  SN IP        551 38.54                             108    0.0210 24.6 337 
 LA4  SZ E         551 38.55                  157.2  6.6      0        24.6 337 
 LA4  SE IS        551 41.74                             108   -0.0210 24.6 337 
 LA4  SZ  AML      551 45.73       700.5 0.54                          24.6 337 
                                                                                
 2010 10 9 1506  6.2 L  21.318 -99.267 10.0  RAL  1 0.0 1.6LRAL                1
 GAP=360        0.30       4.0     1.2  0.0 -0.4069E+01  0.5903E+01 -0.6551E+01E
 ACTION:UPD 12-06-08 11:37 OP:RALL STATUS:               ID:20101009150606     I
 2010-10-09-1506-02S.PLUR1_003                                                 6
 STAT SP IPHASW D HRMM SECON CODA AMPLIT PERI AZIMU VELO AIN AR TRES W  DIS CAZ7
 LA4  SZ E        15 6  9.83                  166.5  7.3      0        18.8 346 
 LA4  SN IP       15 6  9.85                             115    0.0210 18.8 346 
 LA4  SE IS       15 6 12.44                             115   -0.0210 18.8 346 
 LA4  SZ  AML     15 6 12.70        99.1 0.14                          18.8 346 
                                                                                
 2010 10 9 1635 49.3 L  21.334 -99.231 10.0  RAL  1 0.0 1.5LRAL                1
 GAP=360        0.30       3.7     2.0  0.0 -0.7044E+01  0.5903E+01 -0.6551E+01E
 ACTION:UPD 12-06-08 11:37 OP:RALL STATUS:               ID:20101009163549     I
 2010-10-09-1635-43S.PLUR1_003                                                 6
 STAT SP IPHASW D HRMM SECON CODA AMPLIT PERI AZIMU VELO AIN AR TRES W  DIS CAZ7
 LA4  SZ E        1635 52.88                  153.9  6.7      0        18.4 334 
 LA4  SN IP       1635 52.89                             116    0.0010 18.4 334 
 LA4  SE IS       1635 55.48                             116    0.0010 18.4 334 
 LA4  SZ  AML     1635 55.74        80.6 0.14                          18.4 334 
                                                                                
 2010 1011 0952 30.4 L  21.321 -99.350 10.0  RAL  1 0.0 0.4LRAL                1
 GAP=360        0.30       4.0     1.1  0.0  0.4048E+01  0.5903E+01 -0.6551E+01E
 ACTION:UPD 12-06-08 11:37 OP:RALL STATUS:               ID:20101011095230     I
 2010-10-11-0952-26S.PLUR1_003                                                 6
 STAT SP IPHASW D HRMM SECON CODA AMPLIT PERI AZIMU VELO AIN AR TRES W  DIS CAZ7
 LA4  SZ E         952 33.99                  193.3 10.7      0        18.5  13 
 LA4  SN IP        952 34.01                             116    0.0210 18.5  13 
 LA4  SE IS        952 36.57                             116   -0.0210 18.5  13 
 LA4  SZ  AML      952 36.59         6.4 0.28                          18.5  13 
                                                                                
 2010 1011 1019 23.7 L  21.329 -99.280 10.0  RAL  1 0.1 0.3LRAL                1
 GAP=360        0.89     999.9   181.1  0.0 -0.3123E+06  0.5903E+01 -0.6551E+01E
 ACTION:UPD 12-06-08 11:37 OP:RALL STATUS:               ID:20101011101923     I
 2010-10-11-1019-16S.PLUR1_003                                                 6
 STAT SP IPHASW D HRMM SECON CODA AMPLIT PERI AZIMU VELO AIN AR TRES W  DIS CAZ7
 LZ4  SZ E        1019 25.63                  264.9 26.2      4        1.15  81 
 LZ4  SN IP       1019 25.71                             174    0.1710 1.15  81 
 LZ4  SE IS       1019 26.72                             174   -0.1710 1.15  81 
 LZ4  SZ  AML     1019 28.37        11.1 0.26                          1.15  81 
                                                                                
 2010 1012 0302 48.5 L  21.469 -99.300 10.0  RAL  1 0.2 1.3LRAL                1
 GAP=360        0.82      49.9    29.0  0.0 -0.1446E+04  0.5903E+01 -0.6551E+01E
 ACTION:UPD 12-06-08 11:37 OP:RALL STATUS:               ID:20101012030248     I
 2010-10-12-0302-41S.PLUR1_003                                                 6
 STAT SP IPHASW D HRMM SECON CODA AMPLIT PERI AZIMU VELO AIN AR TRES W  DIS CAZ7
 LA4  SN IP        3 2 50.85                             170    0.5110 1.89 332 
 LA4  SZ E         3 2 50.86                  151.6  7.8      0        1.89 332 
 LA4  SE IS        3 2 51.19                             170   -0.5110 1.89 332 
 LA4  SZ  AML      3 2 51.31       119.6 0.18                          1.89 332 
                                                                                
 2010 1012 1402 47.4 L  21.499 -99.327 10.0  RAL  1 0.2 0.6LRAL                1
 GAP=360        0.73      25.4    31.1  0.0 -0.7894E+03  0.5903E+01 -0.6551E+01E
 ACTION:UPD 12-06-08 11:37 OP:RALL STATUS:               ID:20101012140247     I
 2010-10-12-1402-40S.PLUR1_003                                                 6
 STAT SP IPHASW D HRMM SECON CODA AMPLIT PERI AZIMU VELO AIN AR TRES W  DIS CAZ7
 LA4  SZ E        14 2 49.58                  311.3  8.7      0        2.53 131 
 LA4  SN IP       14 2 49.74                             166    0.4510 2.53 131 
 LA4  SE IS       14 2 50.22                             166   -0.4510 2.53 131 
 LA4  SZ  AML     14 2 50.30        19.8 0.16                          2.53 131 
                                                                                
 2010 1012 1406  8.2 L  21.441 -99.279 10.0  RAL  1 0.0 0.5LRAL                1
 GAP=360        0.30       4.7     0.5  0.0 -0.1849E+01  0.5903E+01 -0.6551E+01E
 ACTION:UPD 12-06-08 11:37 OP:RALL STATUS:               ID:20101012140608     I
 2010-10-12-1406-03S.PLUR1_003                                                 6
 STAT SP IPHASW D HRMM SECON CODA AMPLIT PERI AZIMU VELO AIN AR TRES W  DIS CAZ7
 LZ4  SZ E        14 6 10.87                  355.5  9.9      0        12.2 175 
 LZ4  SN IP       14 6 10.89                             128    0.0010 12.2 175 
 LZ4  SE IS       14 6 12.88                             128    0.0010 12.2 175 
 LZ4  SZ  AML     14 6 13.04        10.5 0.16                          12.2 175 
                                                                                
 2010 1012 2101 16.4 L  21.382 -99.272 10.0  RAL  1 0.0 1.5LRAL                1
 GAP=360        0.30       4.5     1.7  0.0 -0.7384E+01  0.5903E+01 -0.6551E+01E
 ACTION:UPD 12-06-08 11:37 OP:RALL STATUS:               ID:20101012210116     I
 2010-10-12-2101-09S.PLUR1_003                                                 6
 STAT SP IPHASW D HRMM SECON CODA AMPLIT PERI AZIMU VELO AIN AR TRES W  DIS CAZ7
 LA4  SZ E        21 1 19.02                  161.4  7.0      0        11.9 341 
 LA4  SN IP       21 1 19.06                             129    0.0110 11.9 341 
 LA4  SE IS       21 1 21.01                             129   -0.0110 11.9 341 
 LA4  SZ  AML     21 1 22.75       114.4 0.52                          11.9 341 
                                                                                
 2010 1013 1519 44.5 L  21.600 -99.352 10.0  RAL  1 0.0 0.7LRAL                1
 GAP=360        0.30       4.3     1.6  0.0 -0.6732E+01  0.5903E+01 -0.6551E+01E
 ACTION:UPD 12-06-08 11:37 OP:RALL STATUS:               ID:20101013151944     I
 2010-10-13-1519-38S.PLUR1_003                                                 6
 STAT SP IPHASW D HRMM SECON CODA AMPLIT PERI AZIMU VELO AIN AR TRES W  DIS CAZ7
 LA4  SN IP       1519 47.38                             125    0.0110 13.7 161 
 LA4  SZ E        1519 47.43                  340.8  8.4      0        13.7 161 
 LA4  SE IS       1519 49.50                             125   -0.0110 13.7 161 
 LA4  SZ  AML     1519 51.07        16.0 0.22                          13.7 161 
                                                                                
 2010 1014 1109  0.3 L  21.501 -99.330 10.0  RAL  1 0.1 0.5LRAL                1
 GAP=360        0.52      15.8    19.5  0.0 -0.3092E+03  0.5903E+01 -0.6551E+01E
 ACTION:UPD 12-06-08 11:37 OP:RALL STATUS:               ID:20101014110900     I
 2010-10-14-1108-54S.PLUR1_003                                                 6
 STAT SP IPHASW D HRMM SECON CODA AMPLIT PERI AZIMU VELO AIN AR TRES W  DIS CAZ7
 LA4  SZ E        11 9  2.48                  311.1 12.5      0        2.92 131 
 LA4  SN IP       11 9  2.49                             164    0.2910 2.92 131 
 LA4  SE IS       11 9  3.30                             164   -0.2910 2.92 131 
 LA4  SZ  AML     11 9  3.51        16.4 0.26                          2.92 131 
                                                                                
