 2010 1118 0757 29.1 L  21.603 -99.382 10.0  RAL  1 0.0 0.9LRAL                1
 GAP=360        0.30       3.8     2.3  0.0 -0.8656E+01  0.5903E+01 -0.6551E+01E
 ACTION:UPD 12-06-08 11:37 OP:RALL STATUS:               ID:20101118075729     I
 2010-11-18-0757-22S.PLUR1_003                                                 6
 STAT SP IPHASW D HRMM SECON CODA AMPLIT PERI AZIMU VELO AIN AR TRES W  DIS CAZ7
 LA4  SZ E         757 32.18                  330.2 10.5      0        15.2 150 
 LA4  SN IP        757 32.26                             122    0.0110 15.2 150 
 LA4  SE IS        757 34.52                             122   -0.0110 15.2 150 
 LA4  SZ  AML      757 34.82        28.1 0.34                          15.2 150 
                                                                                
 2010 1118 1745 55.8 L  21.522 -99.340 10.0  RAL  1 0.0 0.3LRAL                1
 GAP=360        0.31       6.7     5.5  0.0 -0.3713E+02  0.5903E+01 -0.6551E+01E
 ACTION:UPD 12-06-08 11:37 OP:RALL STATUS:               ID:20101118174555     I
 2010-11-18-1745-49S.PLUR1_003                                                 6
 STAT SP IPHASW D HRMM SECON CODA AMPLIT PERI AZIMU VELO AIN AR TRES W  DIS CAZ7
 LA4  SZ E        1745 57.94                  322.6 10.3      0        5.32 143 
 LA4  SN IP       1745 57.94                             153    0.0710 5.32 143 
 LA4  SZ  AML     1745 59.06        10.4 0.54                          5.32 143 
 LA4  SE IS       1745 59.30                             153   -0.0710 5.32 143 
                                                                                
 2010 1118 2055  9.6 L  20.801 -99.138 10.0  RAL  1 0.0 2.0LRAL                1
 GAP=360        0.30       3.6     2.3  0.0 -0.2303E+01  0.5903E+01 -0.6551E+01E
 ACTION:UPD 12-06-08 11:37 OP:RALL STATUS:               ID:20101118205509     I
 2010-11-18-2055-12S.PLUR1_003                                                 6
 STAT SP IPHASW D HRMM SECON CODA AMPLIT PERI AZIMU VELO AIN AR TRES W  DIS CAZ7
 LA4  SZ E        2055 22.11                  166.8 23.2      0        77.7 347 
 LA4  SN IP       2055 22.19                              94    0.0110 77.7 347 
 LA4  SE IS       2055 31.36                              94   -0.0110 77.7 347 
 LA4  SZ  AML     2055 33.15        79.3 0.32                          77.7 347 
                                                                                
 2010 1120 1645  1.1 L  21.274 -99.179 10.0  RAL  1 0.0 1.0LRAL                1
 GAP=360        0.30       3.4     2.2  0.0 -0.6793E+01  0.5903E+01 -0.6551E+01E
 ACTION:UPD 12-06-08 11:37 OP:RALL STATUS:               ID:20101120164501     I
 2010-11-20-1644-56S.PLUR1_003                                                 6
 STAT SP IPHASW D HRMM SECON CODA AMPLIT PERI AZIMU VELO AIN AR TRES W  DIS CAZ7
 LA4  SZ E        1645  5.88                  149.9  7.3      0        26.9 330 
 LA4  SN IP       1645  5.94                             106    0.0310 26.9 330 
 LA4  SE IS       1645  9.38                             106   -0.0310 26.9 330 
 LA4  SZ  AML     1645  9.43        18.7 0.86                          26.9 330 
                                                                                
 2010 1121 0026 20.8 L  21.604 -99.351 10.0  RAL  1 0.0 1.8LRAL                1
 GAP=360        0.30       4.2     1.5  0.0 -0.6266E+01  0.5903E+01 -0.6551E+01E
 ACTION:UPD 12-06-08 11:37 OP:RALL STATUS:               ID:20101121002620     I
 2010-11-21-0026-14S.PLUR1_003                                                 6
 STAT SP IPHASW D HRMM SECON CODA AMPLIT PERI AZIMU VELO AIN AR TRES W  DIS CAZ7
 LA4  SZ E         026 23.75                  342.0  8.6      0        14.0 162 
 LA4  SN IP        026 23.78                             124    0.0010 14.0 162 
 LA4  SE IS        026 25.93                             124    0.0010 14.0 162 
 LA4  SZ  AML      026 26.00       225.1 0.32                          14.0 162 
                                                                                
 2010 1122 0544  1.9 L  21.632 -99.371 10.0  RAL  1 0.0 1.5LRAL                1
 GAP=360        0.30       3.9     1.7  0.0 -0.6224E+01  0.5903E+01 -0.6551E+01E
 ACTION:UPD 12-06-08 11:37 OP:RALL STATUS:               ID:20101122054401     I
 2010-11-22-0543-56S.PLUR1_003                                                 6
 STAT SP IPHASW D HRMM SECON CODA AMPLIT PERI AZIMU VELO AIN AR TRES W  DIS CAZ7
 LA4  SZ E         544  5.27                  338.6  7.8      0        17.6 159 
 LA4  SN IP        544  5.30                             117    0.0010 17.6 159 
 LA4  SE IS        544  7.81                             117    0.0010 17.6 159 
 LA4  SZ  AML      544  8.19        92.9 0.28                          17.6 159 
                                                                                
 2010 1125 0249 49.7 L  21.592 -99.351 10.0  RAL  1 0.0 1.0LRAL                1
 GAP=360        0.30       4.4     1.7  0.0 -0.7356E+01  0.5903E+01 -0.6551E+01E
 ACTION:UPD 12-06-08 11:37 OP:RALL STATUS:               ID:20101125024949     I
 2010-11-25-0249-43S.PLUR1_003                                                 6
 STAT SP IPHASW D HRMM SECON CODA AMPLIT PERI AZIMU VELO AIN AR TRES W  DIS CAZ7
 LA4  SZ E         249 52.47                  340.1  7.0      0        12.7 160 
 LA4  SN IP        249 52.49                             127    0.0110 12.7 160 
 LA4  SE IS        249 54.52                             127   -0.0110 12.7 160 
 LA4  SZ  AML      249 54.62        36.2 0.12                          12.7 160 
                                                                                
 2010 1127 1922 14.1 L  21.673 -99.419 10.0  RAL  1 0.0 2.9LRAL                1
 GAP=360        0.30       3.4     2.1  0.0 -0.6745E+01  0.5903E+01 -0.6551E+01E
 ACTION:UPD 12-06-08 11:37 OP:RALL STATUS:               ID:20101127192214     I
 2010-11-27-1922-09S.PLUR1_003                                                 6
 STAT SP IPHASW D HRMM SECON CODA AMPLIT PERI AZIMU VELO AIN AR TRES W  DIS CAZ7
 LA4  SZ E        1922 18.48                  331.4 10.2      0        23.8 151 
 LA4  SN IP       1922 18.48                             109    0.0010 23.8 151 
 LA4  SE IS       1922 21.64                             109    0.0010 23.8 151 
 LA4  SZ  AML     1922 23.04      1870.1 0.28                          23.8 151 
                                                                                
