 2010  712 1542  6.7 L  21.636 -99.492 10.0  RAL  1 0.0 1.0LRAL                1
 GAP=360        0.30       3.2     2.5  0.0 -0.6521E+01 -0.9313E+01  0.8186E+01E
 ACTION:UPD 12-06-08 11:37 OP:RALL STATUS:               ID:20100712154206     I
 2010-07-12-1542-09S.PLUR1_003                                                 6
 STAT SP IPHASW D HRMM SECON CODA AMPLIT PERI AZIMU VELO AIN AR TRES W  DIS CAZ7
 LZ4  SN IP       1542 13.65                              99    0.0210 40.9 146 
 LZ4  SZ E        1542 13.68                  325.7 15.2      0        40.9 146 
 LZ4  SE IS       1542 18.65                              99   -0.0210 40.9 146 
 LZ4  SZ  AML     1542 19.33        15.0 0.70                          40.9 146 
                                                                                
 2010  712 1801 24.2 L  21.324 -99.293 10.0  RAL  1 0.1                        1
 GAP=360        0.38       5.6    20.1  0.0  0.1127E+03 -0.9313E+01  0.8186E+01E
 ACTION:UPD 12-06-08 11:37 OP:RALL STATUS:               ID:20100712180124     I
 2010-07-12-1801-17S.PLUR1_003                                                 6
 STAT SP IPHASW D HRMM SECON CODA AMPLIT PERI AZIMU VELO AIN AR TRES W  DIS CAZ7
 LZ4  SZ E        18 1 26.10                  253.3 29.0      0        2.54  73 
 LZ4  SN IP       18 1 26.19                             166    0.1610 2.54  73 
 LZ4  SE IS       18 1 27.25                             166   -0.1610 2.54  73 
                                                                                
 2010  712 1937 23.5 L  21.387 -99.336 10.0  RAL  1 0.0 1.0LRAL                1
 GAP=360        0.30       3.7     4.3  0.0 -0.1577E+02 -0.9313E+01  0.8186E+01E
 ACTION:UPD 12-06-08 11:37 OP:RALL STATUS:               ID:20100712193723     I
 2010-07-12-1937-16S.PLUR1_003                                                 6
 STAT SP IPHASW D HRMM SECON CODA AMPLIT PERI AZIMU VELO AIN AR TRES W  DIS CAZ7
 LZ4  SN IP       1937 25.89                             137    0.0210 9.29 132 
 LZ4  SZ E        1937 25.90                  312.3 15.4      0        9.29 132 
 LZ4  SE IS       1937 27.59                             137   -0.0210 9.29 132 
 LZ4  SZ  AML     1937 28.00        46.9 0.12                          9.29 132 
                                                                                
 2010  712 2045 30.6 L  21.819 -99.539 10.0  RAL  1 0.0 1.4LRAL                1
 GAP=360        0.30       3.4     2.4  0.0 -0.4980E+01 -0.9313E+01  0.8186E+01E
 ACTION:UPD 12-06-08 11:37 OP:RALL STATUS:               ID:20100712204530     I
 2010-07-12-2045-31S.PLUR1_003                                                 6
 STAT SP IPHASW D HRMM SECON CODA AMPLIT PERI AZIMU VELO AIN AR TRES W  DIS CAZ7
 LZ4  SZ E        2045 40.49                  332.8  8.8      0        60.8 153 
 LZ4  SN IP       2045 40.54                              96    0.0110 60.8 153 
 LZ4  SE IS       2045 47.80                              96   -0.0110 60.8 153 
 LZ4  SZ  AML     2045 52.27        26.3 0.38                          60.8 153 
                                                                                
 2010  712 2359  5.7 L  21.399 -99.322 10.0  RAL  1 0.0 0.8LRAL                1
 GAP=360        0.30       4.4     3.4  0.0 -0.1484E+02 -0.9313E+01  0.8186E+01E
 ACTION:UPD 12-06-08 11:37 OP:RALL STATUS:               ID:20100712235905     I
 2010-07-12-2358-59S.PLUR1_003                                                 6
 STAT SP IPHASW D HRMM SECON CODA AMPLIT PERI AZIMU VELO AIN AR TRES W  DIS CAZ7
 LZ4  SZ E        2359  8.07                  324.5  8.8      0        9.34 144 
 LZ4  SN IP       2359  8.08                             137    0.0210 9.34 144 
 LZ4  SE IS       2359  9.79                             137   -0.0210 9.34 144 
 LZ4  SZ  AML     2359 10.18        29.3 0.36                          9.34 144 
                                                                                
 2010  713 0716  7.2 L  21.892 -98.941 10.0  RAL  1 0.0 1.4LRAL                1
 GAP=360        0.30       3.4     2.6  0.0  0.4731E+01 -0.9313E+01  0.8186E+01E
 ACTION:UPD 12-06-08 11:37 OP:RALL STATUS:               ID:20100713071607     I
 2010-07-13-0716-09S.PLUR1_003                                                 6
 STAT SP IPHASW D HRMM SECON CODA AMPLIT PERI AZIMU VELO AIN AR TRES W  DIS CAZ7
 LZ4  SZ E         716 18.66                   28.6 10.0      0        70.8 209 
 LZ4  SN IP        716 18.71                              95    0.0110 70.8 209 
 LZ4  SE IS        716 27.10                              95   -0.0110 70.8 209 
 LZ4  SZ  AML      716 27.69        19.7 0.50                          70.8 209 
                                                                                
 2010  713 0943 21.3 L  21.364 -99.282 10.0  RAL  1 0.0 0.7LRAL                1
 GAP=360        0.31      10.2     3.8  0.0 -0.3846E+02 -0.9313E+01  0.8186E+01E
 ACTION:UPD 12-06-08 11:37 OP:RALL STATUS:               ID:20100713094321     I
 2010-07-13-0943-14S.PLUR1_003                                                 6
 STAT SP IPHASW D HRMM SECON CODA AMPLIT PERI AZIMU VELO AIN AR TRES W  DIS CAZ7
 LZ4  SZ E         943 23.33                  340.9 10.3      0        3.93 161 
 LZ4  SN IP        943 23.35                             159    0.0610 3.93 161 
 LZ4  SE IS        943 24.65                             159   -0.0610 3.93 161 
 LZ4  SZ  AML      943 24.82        29.6 0.22                          3.93 161 
                                                                                
 2010  713 2019 54.0 L  21.270 -99.318  0.0  RAL  2 0.3 0.2LRAL                1
 GAP=354        4.59      95.8     6.6999.9 -0.3904E+03 -0.7634E+04  0.1788E+06E
 ACTION:UPD 12-06-08 11:37 OP:RALL STATUS:               ID:20100713201954     I
 2010-07-13-2019-47S.PLUR1_006                                                 6
 STAT SP IPHASW D HRMM SECON CODA AMPLIT PERI AZIMU VELO AIN AR TRES W  DIS CAZ7
 LT9  SZ E        2019 56.96                  183.0  7.4      7        13.9 356 
 LT9  SN IP       2019 56.98                              93    0.5510 13.9 356 
 LT9  SE IS       2019 57.49                              93   -0.7210 13.9 356 
 LT9  SZ  AML     2019 57.58         4.9 0.10                          13.9 356 
 LA4  SN IP       2019 58.67                              93    0.5310 23.7   2 
 LA4  SZ E        2019 58.68                  161.5  6.4    -20        23.7   2 
 LA4  SE IS       2020  0.80                              93   -0.3710 23.7   2 
 LA4  SZ  AML     2020  0.95         6.2 0.22                          23.7   2 
                                                                                
 2010  714 0520  0.7 L  21.394 -99.326  8.4  RAL  2 0.4-0.2LRAL                1
 GAP=206        6.21       4.3     7.8 41.5  0.2758E+02 -0.4243E+01  0.3237E+01E
 ACTION:UPD 12-06-08 11:37 OP:RALL STATUS:               ID:20100714052000     I
 2010-07-14-0519-52S.PLUR1_006                                                 6
 STAT SP IPHASW D HRMM SECON CODA AMPLIT PERI AZIMU VELO AIN AR TRES W  DIS CAZ7
 LT9  SZ E         520  2.08                  186.7  7.8     11        0.10 356 
 LT9  SN IP        520  2.09                             179   -0.1210 0.10 356 
 LT9  SE IS        520  2.60                             179   -0.7210 0.10 356 
 LT9  SZ  AML      520  2.70         2.2 1.06                          0.10 356 
 LG3  SZ E         520  4.22                  357.8  9.7     28        15.2 150 
 LG3  SN IP        520  4.22                             115    0.5310 15.2 150 
 LG3  SE IS        520  6.18                             115    0.3010 15.2 150 
 LG3  SZ  AML      520  6.67         4.0 0.44                          15.2 150 
                                                                                
 2010  714 0715 16.6 L  21.339 -99.265 10.0  RAL  1 0.3 0.3LRAL                1
 GAP=360        3.93     999.9   999.9  0.0 -0.1333E+09 -0.4243E+01  0.3237E+01E
 ACTION:UPD 12-06-08 11:37 OP:RALL STATUS:               ID:20100714071516     I
 2010-07-14-0715-09S.PLUR1_003                                                 6
 STAT SP IPHASW D HRMM SECON CODA AMPLIT PERI AZIMU VELO AIN AR TRES W  DIS CAZ7
 LZ4  SN IP        715 18.85                             174    0.4510 1.00 209 
 LZ4  SZ E         715 18.90                   10.2 14.7    -17        1.00 209 
 LZ4  SE IS        715 19.30                             174   -0.4510 1.00 209 
 LZ4  SZ  AML      715 19.77        11.5 0.54                          1.00 209 
                                                                                
 2010  714 1842 39.6 L  21.364 -99.298 10.0  RAL  1 0.0 0.5LRAL                1
 GAP=360        0.32       7.4     6.4  0.0 -0.4733E+02 -0.4243E+01  0.3237E+01E
 ACTION:UPD 12-06-08 11:37 OP:RALL STATUS:               ID:20100714184239     I
 2010-07-14-1842-33S.PLUR1_003                                                 6
 STAT SP IPHASW D HRMM SECON CODA AMPLIT PERI AZIMU VELO AIN AR TRES W  DIS CAZ7
 LZ4  SZ E        1842 41.68                  321.4  6.7      0        4.73 141 
 LZ4  SN IP       1842 41.69                             155    0.0810 4.73 141 
 LZ4  SE IS       1842 42.98                             155   -0.0810 4.73 141 
 LZ4  SZ  AML     1842 43.18        14.7 0.10                          4.73 141 
                                                                                
 2010  715 0907 52.9 L  21.613 -99.215 10.0  RAL  1 0.0 1.4LRAL                1
 GAP=360        0.30       3.7     1.1  0.0  0.2610E+01 -0.4243E+01  0.3237E+01E
 ACTION:UPD 12-06-08 11:37 OP:RALL STATUS:               ID:20100715090752     I
 2010-07-15-0907-49S.PLUR1_003                                                 6
 STAT SP IPHASW D HRMM SECON CODA AMPLIT PERI AZIMU VELO AIN AR TRES W  DIS CAZ7
 LZ4  SN IP        9 7 58.45                             103    0.0110 31.7 190 
 LZ4  SZ E         9 7 58.65                   10.3  8.7      0        31.7 190 
 LZ4  SE IS        9 8  2.45                             103   -0.0110 31.7 190 
 LZ4  SZ  AML      9 8  3.72        49.7 0.26                          31.7 190 
                                                                                
 2010  715 1122 14.1 L  21.333 -99.283 10.0  RAL  1 0.1 0.5LRAL                1
 GAP=360        1.22     999.9   999.9  0.0  0.1349E+08 -0.4243E+01  0.3237E+01E
 ACTION:UPD 12-06-08 11:37 OP:RALL STATUS:               ID:20100715112214     I
 2010-07-15-1122-07S.PLUR1_003                                                 6
 STAT SP IPHASW D HRMM SECON CODA AMPLIT PERI AZIMU VELO AIN AR TRES W  DIS CAZ7
 LZ4  SN IP       1122 16.11                             172    0.2110 1.46 101 
 LZ4  SZ E        1122 16.12                  286.6 27.5      5        1.46 101 
 LZ4  SE IS       1122 17.03                             172   -0.2110 1.46 101 
 LZ4  SZ  AML     1122 17.62        19.0 0.24                          1.46 101 
                                                                                
 2010  715 1948 34.4 L  21.546 -99.331 10.0  RAL  1 0.0 1.5LRAL                1
 GAP=360        0.30       6.1     2.1  0.0 -0.1286E+02 -0.4243E+01  0.3237E+01E
 ACTION:UPD 12-06-08 11:37 OP:RALL STATUS:               ID:20100715194834     I
 2010-07-15-1948-28S.PLUR1_006                                                 6
 STAT SP IPHASW D HRMM SECON CODA AMPLIT PERI AZIMU VELO AIN AR TRES W  DIS CAZ7
 LA4  SZ E        1948 36.63                  342.0  9.2      0        7.23 162 
 LA4  SN IP       1948 36.65                             145    0.0110 7.23 162 
 LA4  SE IS       1948 38.23                             145   -0.0110 7.23 162 
 LA4  SZ  AML     1948 38.35       135.1 0.38                          7.23 162 
                                                                                
 2010  715 1957  1.9 L  21.413 -99.325 10.0  RAL  1 0.0 0.0LRAL                1
 GAP=360        0.30       5.8     1.4  0.0  0.7896E+01 -0.4243E+01  0.3237E+01E
 ACTION:UPD 12-06-08 11:37 OP:RALL STATUS:               ID:20100715195701     I
 2010-07-15-1956-55S.PLUR1_003                                                 6
 STAT SP IPHASW D HRMM SECON CODA AMPLIT PERI AZIMU VELO AIN AR TRES W  DIS CAZ7
 LA4  SN IP       1957  4.20                             142    0.0110 7.98  12 
 LA4  SZ E        1957  4.28                  192.2 28.8      0        7.98  12 
 LA4  SE IS       1957  5.83                             142   -0.0110 7.98  12 
 LA4  SZ  AML     1957  5.94         4.5 0.36                          7.98  12 
                                                                                
 2010  715 2032 37.6 L  21.551 -99.360 10.0  RAL  1 0.0 0.3LRAL                1
 GAP=360        0.30       4.5     3.5  0.0 -0.1542E+02 -0.4243E+01  0.3237E+01E
 ACTION:UPD 12-06-08 11:37 OP:RALL STATUS:               ID:20100715203237     I
 2010-07-15-2032-32S.PLUR1_003                                                 6
 STAT SP IPHASW D HRMM SECON CODA AMPLIT PERI AZIMU VELO AIN AR TRES W  DIS CAZ7
 LA4  SN IP       2032 39.97                             138    0.0210 9.13 144 
 LA4  SZ E        2032 39.99                  324.4  8.9      0        9.13 144 
 LA4  SE IS       2032 41.67                             138   -0.0210 9.13 144 
 LA4  SZ  AML     2032 41.73         7.7 0.10                          9.13 144 
                                                                                
 2010  716 1623 32.1 L  21.162 -99.214 12.2  RAL  2 0.4 0.4LRAL                1
 GAP=225        2.42       4.2    17.0 22.1 -0.5866E+02  0.9357E+02 -0.1972E+02E
 ACTION:UPD 12-06-08 11:37 OP:RALL STATUS:               ID:20100716162332     I
 2010-07-16-1623-25S.PLUR1_009                                                 6
 STAT SP IPHASW D HRMM SECON CODA AMPLIT PERI AZIMU VELO AIN AR TRES W  DIS CAZ7
 LO8  SN IP       1623 32.76                             178   -1.5710 0.29 149 
 LO8  SZ E        1623 32.77                  332.5  9.3      3        0.29 149 
 LO8  SE IS       1623 35.88                             178   -0.0910 0.29 149 
 LO8  SZ  AML     1623 37.13        17.9 0.48                          0.29 149 
 LD5  SZ E        1623 34.42                  105.7  9.9      2        11.3 284 
 LD5  SN IP       1623 35.05                             139    0.0910 11.3 284 
 LD5  SE IS       1623 38.61                             139    1.5710 11.3 284 
 LD5  SZ  AML     1623 39.78         4.8 0.20                          11.3 284 
                                                                                
 2010  717 0900 57.3 R  22.050-100.065 10.0  RAL  1 0.0 1.4LRAL                1
 GAP=360        0.30       3.4     3.7  0.0 -0.2195E+01  0.9357E+02 -0.1972E+02E
 ACTION:UPD 12-06-08 11:37 OP:RALL STATUS:               ID:20100717090057     I
 2010-07-17-0901-08S.PLUR1_003                                                 6
 STAT SP IPHASW D HRMM SECON CODA AMPLIT PERI AZIMU VELO AIN AR TRES W  DIS CAZ7
 LG3  SN IP        9 1 16.40                              93    0.0010  120 135 
 LG3  SZ E         9 1 16.44                  315.7  9.9      0         120 135 
 LG3  SE IS        9 1 30.38                              93    0.0010  120 135 
 LG3  SZ  AML      9 1 32.26        12.8 0.12                           120 135 
                                                                                
 2010  717 2217  0.8 R  20.400 -98.391 10.0  RAL  1 0.0 1.8LRAL                1
 GAP=360        0.30       4.2     4.4  0.0 -0.5053E+01  0.9357E+02 -0.1972E+02E
 ACTION:UPD 12-06-08 11:37 OP:RALL STATUS:               ID:20100717221700     I
 2010-07-17-2217-17S.PLUR1_003                                                 6
 STAT SP IPHASW D HRMM SECON CODA AMPLIT PERI AZIMU VELO AIN AR TRES W  DIS CAZ7
 LZ4  SN IP       2217 22.33                              52    0.0110  138 319 
 LZ4  SZ E        2217 23.18                  138.3 46.1      0         138 319 
 LZ4  SE IS       2217 38.04                              52   -0.0110  138 319 
 LZ4  SZ  AML     2217 41.18        28.1 0.34                           138 319 
                                                                                
 2010  718 1053 23.5 L  21.366 -99.300 10.0  RAL  1 0.0 0.3LRAL                1
 GAP=360        0.32       7.2     6.2  0.0 -0.4435E+02  0.9357E+02 -0.1972E+02E
 ACTION:UPD 12-06-08 11:37 OP:RALL STATUS:               ID:20100718105323     I
 2010-07-18-1053-17S.PLUR1_003                                                 6
 STAT SP IPHASW D HRMM SECON CODA AMPLIT PERI AZIMU VELO AIN AR TRES W  DIS CAZ7
 LZ4  SN IP       1053 25.60                             154    0.0910 4.99 141 
 LZ4  SZ E        1053 25.60                  321.2 25.9      0        4.99 141 
 LZ4  SE IS       1053 26.89                             154   -0.0910 4.99 141 
 LZ4  SZ  AML     1053 28.58        11.2 0.66                          4.99 141 
                                                                                
 2010  719 0806 24.5 L  20.944 -99.134  0.0  RAL  3 0.1                        1
 GAP=343        0.39       4.3     4.8 63.6  0.8912E+01  0.6133E+02  0.2005E+03E
 ACTION:UPD 12-06-08 11:37 OP:RALL STATUS:               ID:20100719080624     I
 2010-07-19-0806-22S.PLUR1_009                                                 6
 STAT SP IPHASW D HRMM SECON CODA AMPLIT PERI AZIMU VELO AIN AR TRES W  DIS CAZ7
 LO8  SN IP        8 6 29.10                              93    0.1310 25.2 341 
 LO8  SE IS        8 6 32.05                              93   -0.1410 25.2 341 
 LD5  SN IP        8 6 30.31                              92   -0.0210 33.1 324 
 LD5  SE IS        8 6 34.57                              92    0.0110 33.1 324 
 LG3  SN IP        8 6 31.21                              92   -0.1110 38.7 342 
 LG3  SE IS        8 6 36.39                              92    0.1310 38.7 342 
                                                                                
 2010  719 2118 24.6 R  21.021 -99.620 10.0  RAL  1 0.0 1.5LRAL                1
 GAP=360        0.30       2.7     3.1  0.0  0.6564E+01  0.6133E+02  0.2005E+03E
 ACTION:UPD 12-06-08 11:37 OP:RALL STATUS:               ID:20100719211824     I
 2010-07-19-2118-25S.PLUR1_003                                                 6
 STAT SP IPHASW D HRMM SECON CODA AMPLIT PERI AZIMU VELO AIN AR TRES W  DIS CAZ7
 LZ4  SN IP       2118 32.87                              97    0.0210 50.0  47 
 LZ4  SZ E        2118 33.31                  226.8 30.7      0        50.0  47 
 LZ4  SE IS       2118 38.90                              97   -0.0210 50.0  47 
 LZ4  SZ  AML     2118 41.40        34.9 0.38                          50.0  47 
                                                                                
 2010  720 0740 15.0 L  21.328 -99.228 10.0  RAL  1 0.0 0.5LRAL                1
 GAP=360        0.30       6.5     3.1  0.0  0.2005E+02  0.6133E+02  0.2005E+03E
 ACTION:UPD 12-06-08 11:37 OP:RALL STATUS:               ID:20100720074015     I
 2010-07-20-0740-07S.PLUR1_003                                                 6
 STAT SP IPHASW D HRMM SECON CODA AMPLIT PERI AZIMU VELO AIN AR TRES W  DIS CAZ7
 LG3  SN IP        740 17.15                             148    0.0210 6.32 204 
 LG3  SZ E         740 17.18                   24.1 13.7      0        6.32 204 
 LG3  SE IS        740 18.66                             148   -0.0210 6.32 204 
 LG3  SZ  AML      740 19.57        14.6 0.16                          6.32 204 
                                                                                
