 2010  313 0956 13.7 L  21.161 -99.202 10.0  RAL  1 0.1 0.2LRAL                1
 GAP=360        0.40     999.9   748.0  0.0 -0.3200E+07  0.6571E+04  0.1721E+04E
 ACTION:UPD 12-06-08 11:37 OP:RALL STATUS:               ID:20100313095613     I
 2010-03-13-0956-06S.PLUR1_003                                                 6
 STAT SP IPHASW D HRMM SECON CODA AMPLIT PERI AZIMU VELO AIN AR TRES W  DIS CAZ7
 LO8  SN IP        956 15.75                             174    0.1710 1.16 261 
 LO8  SZ E         956 15.77                   81.0  8.6      0        1.16 261 
 LO8  SE IS        956 16.79                             174   -0.1710 1.16 261 
 LO8  SZ  AML      956 16.92         9.0 0.20                          1.16 261 
                                                                                
 2010  318 2015 39.0 L  21.523 -99.117 10.0  RAL  1 0.0 0.4LRAL                1
 GAP=360        0.30       3.6     1.5  0.0  0.3245E+01  0.6571E+04  0.1721E+04E
 ACTION:UPD 12-06-08 11:37 OP:RALL STATUS:               ID:20100318201539     I
 2010-03-18-2015-41S.PLUR1_003                                                 6
 STAT SP IPHASW D HRMM SECON CODA AMPLIT PERI AZIMU VELO AIN AR TRES W  DIS CAZ7
 LO8  SN IP       2015 46.05                              99    0.0110 41.4 194 
 LO8  SZ E        2015 46.07                   13.9  8.2      0        41.4 194 
 LO8  SE IS       2015 51.15                              99   -0.0110 41.4 194 
 LO8  SZ  AML     2015 51.53         3.8 0.14                          41.4 194 
                                                                                
 2010  321 1014 47.5 R  21.768 -99.733 10.0  RAL  1 0.0 1.7LRAL                1
 GAP=360        0.30       3.2     3.1  0.0 -0.4609E+01  0.6571E+04  0.1721E+04E
 ACTION:UPD 12-06-08 11:37 OP:RALL STATUS:               ID:20100321101447     I
 2010-03-21-1014-54S.PLUR1_003                                                 6
 STAT SP IPHASW D HRMM SECON CODA AMPLIT PERI AZIMU VELO AIN AR TRES W  DIS CAZ7
 LO8  SZ E        1015  1.32                  321.4 10.2      0        86.2 141 
 LO8  SN IP       1015  1.43                              94    0.0110 86.2 141 
 LO8  SE IS       1015 11.58                              94   -0.0110 86.2 141 
 LO8  SZ  AML     1015 12.02        36.1 0.56                          86.2 141 
                                                                                
 2010  321 1116 44.0 L  20.506 -98.685 10.0  RAL  1 0.0 1.2LRAL                1
 GAP=360        0.30       3.3     3.1  0.0 -0.4223E+01  0.6571E+04  0.1721E+04E
 ACTION:UPD 12-06-08 11:37 OP:RALL STATUS:               ID:20100321111644     I
 2010-03-21-1116-52S.PLUR1_003                                                 6
 STAT SP IPHASW D HRMM SECON CODA AMPLIT PERI AZIMU VELO AIN AR TRES W  DIS CAZ7
 LO8  SZ E        1116 58.64                  142.7  6.3      0        90.8 323 
 LO8  SN IP       1116 58.65                              94    0.0110 90.8 323 
 LO8  SE IS       1117  9.32                              94   -0.0110 90.8 323 
 LO8  SZ  AML     1117 11.20         9.7 0.40                          90.8 323 
                                                                                
 2010  326 0123  3.9 L  21.882 -99.515 10.0  RAL  1 0.0 1.8LRAL                1
 GAP=360        0.30       3.5     2.7  0.0 -0.3224E+01  0.6571E+04  0.1721E+04E
 ACTION:UPD 12-06-08 11:37 OP:RALL STATUS:               ID:20100326012303     I
 2010-03-26-0123-10S.PLUR1_003                                                 6
 STAT SP IPHASW D HRMM SECON CODA AMPLIT PERI AZIMU VELO AIN AR TRES W  DIS CAZ7
 LO8  SN IP        123 17.80                              94    0.0110 85.9 159 
 LO8  SZ E         123 17.91                  338.7 10.6      0        85.9 159 
 LO8  SE IS        123 27.91                              94   -0.0110 85.9 159 
 LO8  SZ  AML      123 29.17        44.3 0.48                          85.9 159 
                                                                                
 2010  326 1723 39.8 L  21.148 -99.152 10.0  RAL  1 0.0 0.5LRAL                1
 GAP=360        0.30       1.4     7.4  0.0 -0.1026E+02  0.6571E+04  0.1721E+04E
 ACTION:UPD 12-06-08 11:37 OP:RALL STATUS:               ID:20100326172339     I
 2010-03-26-1723-32S.PLUR1_003                                                 6
 STAT SP IPHASW D HRMM SECON CODA AMPLIT PERI AZIMU VELO AIN AR TRES W  DIS CAZ7
 LO8  SZ E        1723 42.02                  101.2  7.5      0        6.43 281 
 LO8  SN IP       1723 42.03                             148    0.0210 6.43 281 
 LO8  SE IS       1723 43.57                             148   -0.0210 6.43 281 
 LO8  SZ  AML     1723 44.62        14.7 0.42                          6.43 281 
                                                                                
 2010  328 0204 26.0 L  21.461 -99.327 10.0  RAL  1 0.1 0.2LRAL                1
 GAP=360        0.45      15.5    12.1  0.0  0.1871E+03  0.6571E+04  0.1721E+04E
 ACTION:UPD 12-06-08 11:37 OP:RALL STATUS:               ID:20100328020426     I
 2010-03-28-0204-19S.PLUR1_003                                                 6
 STAT SP IPHASW D HRMM SECON CODA AMPLIT PERI AZIMU VELO AIN AR TRES W  DIS CAZ7
 LA4  SN IP        2 4 28.14                             163    0.2210 3.14  36 
 LA4  SZ E         2 4 28.18                  216.1 12.2      0        3.14  36 
 LA4  SE IS        2 4 29.09                             163   -0.2210 3.14  36 
 LA4  SZ  AML      2 4 29.90         9.5 0.48                          3.14  36 
                                                                                
 2010  328 2230  6.6 L  21.468 -99.306 10.0  RAL  1 0.3 1.3LRAL                1
 GAP=360        2.26     171.5    31.6  0.0 -0.5412E+04  0.6571E+04  0.1721E+04E
 ACTION:UPD 12-06-08 11:37 OP:RALL STATUS:               ID:20100328223006     I
 2010-03-28-2229-59S.PLUR1_003                                                 6
 STAT SP IPHASW D HRMM SECON CODA AMPLIT PERI AZIMU VELO AIN AR TRES W  DIS CAZ7
 LA4  SN IP       2230  9.10                             171    0.6110 1.71 350 
 LA4  SZ E        2230  9.11                  180.1  4.5     10        1.71 350 
 LA4  SE IS       2230  9.25                             171   -0.6110 1.71 350 
 LA4  SZ  AML     2230  9.37       111.8 0.26                          1.71 350 
                                                                                
 2010  329 0235 53.1 L  21.481 -99.212 10.0  RAL  1 0.0 0.4LRAL                1
 GAP=360        0.30       0.3     5.6  0.0 -0.9763E+00  0.6571E+04  0.1721E+04E
 ACTION:UPD 12-06-08 11:37 OP:RALL STATUS:               ID:20100329023553     I
 2010-03-29-0235-48S.PLUR1_003                                                 6
 STAT SP IPHASW D HRMM SECON CODA AMPLIT PERI AZIMU VELO AIN AR TRES W  DIS CAZ7
 LA4  SZ E         235 55.59                   91.9  5.4      0        10.0 272 
 LA4  SN IP        235 55.59                             135    0.0010 10.0 272 
 LA4  SE IS        235 57.40                             135    0.0010 10.0 272 
 LA4  SZ  AML      235 57.96        10.7 0.30                          10.0 272 
                                                                                
 2010  329 0453 32.3 L  21.468 -99.285 10.0  RAL  1 0.1-0.4LRAL                1
 GAP=360        0.47      11.9    18.3  0.0 -0.2181E+03  0.6571E+04  0.1721E+04E
 ACTION:UPD 12-06-08 11:37 OP:RALL STATUS:               ID:20100329045332     I
 2010-03-29-0453-28S.PLUR1_003                                                 6
 STAT SP IPHASW D HRMM SECON CODA AMPLIT PERI AZIMU VELO AIN AR TRES W  DIS CAZ7
 LA4  SN IP        453 34.49                             164    0.2510 3.06 305 
 LA4  SZ E         453 34.58                  124.8  5.0      0        3.06 305 
 LA4  SE IS        453 35.39                             164   -0.2510 3.06 305 
 LA4  SZ  AML      453 35.56         2.3 0.28                          3.06 305 
                                                                                
 2010  330  125 58.9 L                       RAL  0                            1
 ACTION:UPD 12-06-08 11:37 OP:RALL STATUS:               ID:20100330012558     I
 2010-03-30-0125-58S.PLUR1_003                                                 6
 STAT SP IPHASW D HRMM SECON CODA AMPLIT PERI AZIMU VELO AIN AR TRES W  DIS CAZ7
                                                                                
 2010  330  536  7.5 L                       RAL  0                            1
 ACTION:UPD 12-06-08 11:37 OP:RALL STATUS:               ID:20100330053607     I
 2010-03-30-0536-07S.PLUR1_003                                                 6
 STAT SP IPHASW D HRMM SECON CODA AMPLIT PERI AZIMU VELO AIN AR TRES W  DIS CAZ7
                                                                                
 2010  330 0842 16.9 L  21.362 -99.293 10.0  RAL  1 0.1 0.8LRAL                1
 GAP=360        0.35       9.4     7.3  0.0 -0.6837E+02  0.6571E+04  0.1721E+04E
 ACTION:UPD 12-06-08 11:37 OP:RALL STATUS:               ID:20100330084216     I
 2010-03-30-0842-10S.PLUR1_003                                                 6
 STAT SP IPHASW D HRMM SECON CODA AMPLIT PERI AZIMU VELO AIN AR TRES W  DIS CAZ7
 LZ4  SZ E         842 18.96                  324.2 20.7      0        4.21 144 
 LZ4  SN IP        842 18.97                             158    0.1310 4.21 144 
 LZ4  SE IS        842 20.14                             158   -0.1310 4.21 144 
 LZ4  SZ  AML      842 20.46        31.3 0.20                          4.21 144 
                                                                                
 2010  330 1111 10.8 L  21.533 -99.321 10.0  RAL  1 0.0 0.4LRAL                1
 GAP=360        0.30       7.5     1.9  0.0 -0.1411E+02  0.6571E+04  0.1721E+04E
 ACTION:UPD 12-06-08 11:37 OP:RALL STATUS:               ID:20100330111110     I
 2010-03-30-1111-04S.PLUR1_003                                                 6
 STAT SP IPHASW D HRMM SECON CODA AMPLIT PERI AZIMU VELO AIN AR TRES W  DIS CAZ7
 LA4  SN IP       1111 12.88                             151    0.0110 5.62 167 
 LA4  SZ E        1111 12.89                  346.9  8.8      0        5.62 167 
 LA4  SE IS       1111 14.36                             151   -0.0110 5.62 167 
 LA4  SZ  AML     1111 14.57        11.4 0.22                          5.62 167 
                                                                                
 2010  330 1728 15.4 L  21.366 -99.322 10.0  RAL  1 0.0-0.3LRAL                1
 GAP=360        0.30      11.9     1.7  0.0 -0.2038E+02  0.6571E+04  0.1721E+04E
 ACTION:UPD 12-06-08 11:37 OP:RALL STATUS:               ID:20100330172815     I
 2010-03-30-1728-08S.PLUR1_003                                                 6
 STAT SP IPHASW D HRMM SECON CODA AMPLIT PERI AZIMU VELO AIN AR TRES W  DIS CAZ7
 LT7  SZ E        1728 17.26                  172.4  9.6      0        3.25 352 
 LT7  SN IP       1728 17.30                             162    0.0210 3.25 352 
 LT7  SE IS       1728 18.61                             162   -0.0210 3.25 352 
 LT7  SZ  AML     1728 18.73         2.7 0.14                          3.25 352 
                                                                                
 2010  330 2031 26.6 L  21.313 -99.293 10.0  RAL  1 0.1 0.8LRAL                1
 GAP=360        0.61      16.0    21.7  0.0  0.3472E+03  0.6571E+04  0.1721E+04E
 ACTION:UPD 12-06-08 11:37 OP:RALL STATUS:               ID:20100330203126     I
 2010-03-30-2031-19S.PLUR1_003                                                 6
 STAT SP IPHASW D HRMM SECON CODA AMPLIT PERI AZIMU VELO AIN AR TRES W  DIS CAZ7
 LZ4  SZ E        2031 28.83                  231.6 25.0      0        3.18  52 
 LZ4  SN IP       2031 28.84                             163    0.3610 3.18  52 
 LZ4  SE IS       2031 29.51                             163   -0.3610 3.18  52 
 LZ4  SZ  AML     2031 29.81        34.5 0.36                          3.18  52 
                                                                                
 2010  331 2203 12.4 R  20.512 -98.721 10.0  RAL  1 0.0 2.0LRAL                1
 GAP=360        0.30       3.5     3.3  0.0 -0.2903E+01  0.6571E+04  0.1721E+04E
 ACTION:UPD 12-06-08 11:37 OP:RALL STATUS:               ID:20100331220312     I
 2010-03-31-2203-24S.PLUR1_003                                                 6
 STAT SP IPHASW D HRMM SECON CODA AMPLIT PERI AZIMU VELO AIN AR TRES W  DIS CAZ7
 LZ4  SN IP       22 3 29.53                              93    0.0010  107 328 
 LZ4  SZ E        22 3 29.63                  147.7  8.5      0         107 328 
 LZ4  SE IS       22 3 42.04                              93    0.0010  107 328 
 LZ4  SZ  AML     22 3 43.20        49.1 0.30                           107 328 
                                                                                
