 2010  9 9 1006 46.2 Ll 21.674 -99.388  0.0  RAL  2 0.5 1.6LRAL                1
 GAP=350        7.36      61.5    25.1999.9 -0.1308E+04  0.1346E+05 -0.3578E+05E
 ACTION:UPD 13-02-28 14:29 OP:RALL STATUS:               ID:20100909100646     I
 2010-09-09-1006-40S.PLUR1_006                                                 6
 STAT SP IPHASW D HRMM SECON CODA AMPLIT PERI AZIMU VELO AIN AR TRES W  DIS CAZ7
 LA4  SZ E        10 6 50.56                  358.3  8.3     20        22.6 159 
 LA4  SN IP       10 6 50.57                              93    0.4610 22.6 159 
 LA4  SE IS       10 6 52.23                              93   -0.7710 22.6 159 
 LA4  SZ  AML     10 6 53.68       549.1 0.20                          22.6 159 
 LT9  SN IP       10 6 52.23                              91    0.5710 31.5 168 
 LT9  SZ E        10 6 52.25                  318.5 11.7    -29        31.5 168 
 LT9  SE IS       10 6 55.42                              91   -0.2610 31.5 168 
 LT9  SZ  AML     10 6 55.94        15.3 0.24                          31.5 168 
                                                                                
 2010  9 9 1021 37.2 L  21.529 -99.354 10.0  RAL  1 0.0 0.1LRAL                1
 GAP=360        0.30       4.9     4.9  0.0 -0.2410E+02  0.1346E+05 -0.3578E+05E
 ACTION:UPD 13-02-28 14:29 OP:RALL STATUS:               ID:20100909102137     I
 2010-09-09-1021-31S.PLUR1_003                                                 6
 STAT SP IPHASW D HRMM SECON CODA AMPLIT PERI AZIMU VELO AIN AR TRES W  DIS CAZ7
 LA4  SZ E        1021 39.40                  317.4  8.5      0        6.87 137 
 LA4  SN IP       1021 39.45                             146    0.0410 6.87 137 
 LA4  SE IS       1021 40.96                             146   -0.0410 6.87 137 
 LA4  SZ  AML     1021 41.18         6.3 0.18                          6.87 137 
                                                                                
 2010  9 9 1230  5.5 L  21.391 -99.329 10.0  RAL  1 0.4-0.4LRAL                1
 GAP=360        5.17     999.9   999.9  0.0 -0.4614E+07  0.1346E+05 -0.3578E+05E
 ACTION:UPD 13-02-28 14:29 OP:RALL STATUS:               ID:20100909123005     I
 2010-09-09-1229-57S.PLUR1_003                                                 6
 STAT SP IPHASW D HRMM SECON CODA AMPLIT PERI AZIMU VELO AIN AR TRES W  DIS CAZ7
 LT9  SZ E        1230  7.50                  188.0 33.9    -24        0.60  33 
 LT9  SN IP       1230  7.52                             177    0.2810 0.60  33 
 LT9  SE IS       1230  8.26                             177   -0.2810 0.60  33 
 LT9  SZ  AML     1230  8.30         2.5 0.34                          0.60  33 
                                                                                
 2010  9 9 1409 23.9 L  21.300 -99.297 10.0  RAL  1 0.0-0.5LRAL                1
 GAP=360        0.30       4.7     1.5  0.0 -0.6693E+01  0.1346E+05 -0.3578E+05E
 ACTION:UPD 13-02-28 14:29 OP:RALL STATUS:               ID:20100909140923     I
 2010-09-09-1409-18S.PLUR1_003                                                 6
 STAT SP IPHASW D HRMM SECON CODA AMPLIT PERI AZIMU VELO AIN AR TRES W  DIS CAZ7
 LT9  SN IP       14 9 26.42                             131    0.0110 11.0 344 
 LT9  SZ E        14 9 26.45                  164.1 11.5      0        11.0 344 
 LT9  SE IS       14 9 28.26                             131   -0.0110 11.0 344 
 LT9  SZ  AML     14 9 28.76         1.3 0.32                          11.0 344 
                                                                                
 2010  9 9 1433 21.4 L  21.431 -99.234 10.0  RAL  1 0.0 0.1LRAL                1
 GAP=360        0.30       3.2     4.6  0.0 -0.1450E+02  0.1346E+05 -0.3578E+05E
 ACTION:UPD 13-02-28 14:29 OP:RALL STATUS:               ID:20100909143321     I
 2010-09-09-1433-16S.PLUR1_003                                                 6
 STAT SP IPHASW D HRMM SECON CODA AMPLIT PERI AZIMU VELO AIN AR TRES W  DIS CAZ7
 LA4  SZ E        1433 23.80                  126.7 11.4      0        9.70 307 
 LA4  SN IP       1433 23.87                             136    0.0210 9.70 307 
 LA4  SE IS       1433 25.62                             136   -0.0210 9.70 307 
 LA4  SZ  AML     1433 25.79         4.7 0.10                          9.70 307 
                                                                                
 2010  9 9 1514 52.1 L  21.338 -99.302 10.0  RAL  1 0.0-0.6LRAL                1
 GAP=360        0.30       6.1     2.6  0.0 -0.1572E+02  0.1346E+05 -0.3578E+05E
 ACTION:UPD 13-02-28 14:29 OP:RALL STATUS:               ID:20100909151452     I
 2010-09-09-1514-45S.PLUR1_003                                                 6
 STAT SP IPHASW D HRMM SECON CODA AMPLIT PERI AZIMU VELO AIN AR TRES W  DIS CAZ7
 LT9  SN IP       1514 54.25                             145    0.0210 6.80 338 
 LT9  SZ E        1514 54.26                  158.3  8.4      0        6.80 338 
 LT9  SE IS       1514 55.74                             145   -0.0210 6.80 338 
 LT9  SZ  AML     1514 55.87         1.3 0.38                          6.80 338 
                                                                                
 2010  9 9 1544 49.1 L  21.557 -99.334 10.0  RAL  1 0.0 0.5LRAL                1
 GAP=360        0.30       5.5     1.9  0.0 -0.1026E+02  0.1346E+05 -0.3578E+05E
 ACTION:UPD 13-02-28 14:29 OP:RALL STATUS:               ID:20100909154449     I
 2010-09-09-1544-43S.PLUR1_003                                                 6
 STAT SP IPHASW D HRMM SECON CODA AMPLIT PERI AZIMU VELO AIN AR TRES W  DIS CAZ7
 LA4  SZ E        1544 51.37                  342.5  8.2      0        8.46 162 
 LA4  SN IP       1544 51.40                             140    0.0210 8.46 162 
 LA4  SE IS       1544 53.05                             140   -0.0210 8.46 162 
 LA4  SZ  AML     1544 53.25        13.6 0.10                          8.46 162 
                                                                                
 2010  9 9 1945  3.4 L  21.217 -99.218  0.0  RAL  2 0.3 1.6LRAL                1
 GAP=348        3.10      39.7    20.6999.9 -0.7832E+03 -0.2410E+05  0.4794E+05E
 ACTION:UPD 13-02-28 14:29 OP:RALL STATUS:               ID:20100909194503     I
 2010-09-09-1944-58S.PLUR1_006                                                 6
 STAT SP IPHASW D HRMM SECON CODA AMPLIT PERI AZIMU VELO AIN AR TRES W  DIS CAZ7
 LT9  SZ E        1945  7.92                  158.1  7.6      8        22.7 330 
 LT9  SN IP       1945  7.93                              92    0.5910 22.7 330 
 LT9  SE IS       1945  9.37                              92   -0.8710 22.7 330 
 LT9  SZ  AML     1945 10.04        38.2 0.28                          22.7 330 
 LA4  SZ E        1945  9.44                  151.1  6.6    -10        31.0 342 
 LA4  SN IP       1945  9.47                              92    0.6810 31.0 342 
 LA4  SE IS       1945 12.35                              92   -0.4010 31.0 342 
 LA4  SZ  AML     1945 12.39       166.9 0.20                          31.0 342 
                                                                                
 2010  9 9 2016 45.3 L  21.405 -99.347 10.0  RAL  1 0.1 0.2LRAL                1
 GAP=360        0.63      15.4    32.8  0.0 -0.5057E+03 -0.2410E+05  0.4794E+05E
 ACTION:UPD 13-02-28 14:29 OP:RALL STATUS:               ID:20100909201645     I
 2010-09-09-2016-37S.PLUR1_003                                                 6
 STAT SP IPHASW D HRMM SECON CODA AMPLIT PERI AZIMU VELO AIN AR TRES W  DIS CAZ7
 LT9  SZ E        2016 47.43                  296.8 13.6      0        2.35 117 
 LT9  SN IP       2016 47.47                             167    0.3710 2.35 117 
 LT9  SE IS       2016 48.05                             167   -0.3710 2.35 117 
 LT9  SZ  AML     2016 48.19         8.5 0.50                          2.35 117 
                                                                                
 2010  9 9 2352 38.5 L  21.391 -99.314 10.0  RAL  1 0.2 0.2LRAL                1
 GAP=360        0.90     999.9   999.9  0.0  0.4783E+07 -0.2410E+05  0.4794E+05E
 ACTION:UPD 13-02-28 14:29 OP:RALL STATUS:               ID:20100909235238     I
 2010-09-09-2352-31S.PLUR1_003                                                 6
 STAT SP IPHASW D HRMM SECON CODA AMPLIT PERI AZIMU VELO AIN AR TRES W  DIS CAZ7
 LT9  SN IP       2352 40.85                             172    0.5710 1.37 289 
 LT9  SZ E        2352 40.85                  109.4  9.2      0        1.37 289 
 LT9  SE IS       2352 41.01                             172   -0.5710 1.37 289 
 LT9  SZ  AML     2352 41.09         9.8 0.10                          1.37 289 
                                                                                
 2010  910 0318 14.4 L  21.370 -99.318 10.0  RAL  1 0.0-0.7LRAL                1
 GAP=360        0.35      14.5     4.9  0.0 -0.7060E+02 -0.2410E+05  0.4794E+05E
 ACTION:UPD 13-02-28 14:29 OP:RALL STATUS:               ID:20100910031814     I
 2010-09-10-0318-07S.PLUR1_003                                                 6
 STAT SP IPHASW D HRMM SECON CODA AMPLIT PERI AZIMU VELO AIN AR TRES W  DIS CAZ7
 LT9  SZ E         318 16.34                  162.7  7.9      0        2.97 343 
 LT9  SN IP        318 16.36                             163    0.1210 2.97 343 
 LT9  SE IS        318 17.46                             163   -0.1210 2.97 343 
 LT9  SZ  AML      318 17.54         1.1 0.32                          2.97 343 
                                                                                
 2010  910 0658  0.3 L  21.351 -99.307 10.0  RAL  1 0.0 0.1LRAL                1
 GAP=360        0.30       7.4     3.2  0.0 -0.2368E+02 -0.2410E+05  0.4794E+05E
 ACTION:UPD 13-02-28 14:29 OP:RALL STATUS:               ID:20100910065800     I
 2010-09-10-0657-53S.PLUR1_003                                                 6
 STAT SP IPHASW D HRMM SECON CODA AMPLIT PERI AZIMU VELO AIN AR TRES W  DIS CAZ7
 LT9  SN IP        658  2.27                             152    0.0310 5.26 338 
 LT9  SZ E         658  2.28                  158.1  7.3      0        5.26 338 
 LT9  SE IS        658  3.65                             152   -0.0310 5.26 338 
 LT9  SZ  AML      658  4.35         6.5 0.18                          5.26 338 
                                                                                
 2010  910 0825 29.3 L  21.215 -99.233 10.0  RAL  1 0.0 0.2LRAL                1
 GAP=360        0.30       3.6     1.9  0.0 -0.6381E+01 -0.2410E+05  0.4794E+05E
 ACTION:UPD 13-02-28 14:29 OP:RALL STATUS:               ID:20100910082529     I
 2010-09-10-0825-26S.PLUR1_003                                                 6
 STAT SP IPHASW D HRMM SECON CODA AMPLIT PERI AZIMU VELO AIN AR TRES W  DIS CAZ7
 LT9  SZ E         825 33.41                  154.1  7.0      0        22.2 334 
 LT9  SN IP        825 33.41                             110    0.0010 22.2 334 
 LT9  SE IS        825 36.37                             110    0.0010 22.2 334 
 LT9  SZ  AML      825 37.68         3.7 0.52                          22.2 334 
                                                                                
 2010  910 0834 22.1 L  21.219 -99.224 10.0  RAL  1 0.0 0.6LRAL                1
 GAP=360        0.30       3.5     2.1  0.0 -0.6809E+01 -0.2410E+05  0.4794E+05E
 ACTION:UPD 13-02-28 14:29 OP:RALL STATUS:               ID:20100910083422     I
 2010-09-10-0834-18S.PLUR1_003                                                 6
 STAT SP IPHASW D HRMM SECON CODA AMPLIT PERI AZIMU VELO AIN AR TRES W  DIS CAZ7
 LT9  SN IP        834 26.18                             110    0.0010 22.2 332 
 LT9  SZ E         834 26.20                  151.5  7.5      0        22.2 332 
 LT9  SE IS        834 29.14                             110    0.0010 22.2 332 
 LT9  SZ  AML      834 29.16         8.7 0.40                          22.2 332 
                                                                                
 2010  910 0859 41.5 L  21.242 -99.260  0.0  RAL  2 0.2 0.3LRAL                1
 GAP=349        2.24      30.3    11.3888.5 -0.3279E+03 -0.8466E+04  0.2355E+05E
 ACTION:UPD 13-02-28 14:29 OP:RALL STATUS:               ID:20100910085941     I
 2010-09-10-0859-36S.PLUR1_006                                                 6
 STAT SP IPHASW D HRMM SECON CODA AMPLIT PERI AZIMU VELO AIN AR TRES W  DIS CAZ7
 LT9  SN IP        859 45.27                              92    0.5110 18.3 338 
 LT9  SZ E         859 45.28                  163.2  7.3      5        18.3 338 
 LT9  SE IS        859 46.49                              92   -0.6110 18.3 338 
 LT9  SZ  AML      859 46.67         2.8 0.10                          18.3 338 
 LA4  SN IP        859 46.81                              92    0.4910 27.3 349 
 LA4  SZ E         859 46.84                  161.2  6.3     -7        27.3 349 
 LA4  SE IS        859 49.41                              92   -0.3910 27.3 349 
 LA4  SZ  AML      859 49.66         9.1 0.14                          27.3 349 
                                                                                
 2010  910 0930 15.5 L  21.363 -99.309 10.0  RAL  1 0.0-0.6LRAL                1
 GAP=360        0.33       9.6     5.3  0.0 -0.5120E+02 -0.8466E+04  0.2355E+05E
 ACTION:UPD 13-02-28 14:29 OP:RALL STATUS:               ID:20100910093015     I
 2010-09-10-0930-08S.PLUR1_003                                                 6
 STAT SP IPHASW D HRMM SECON CODA AMPLIT PERI AZIMU VELO AIN AR TRES W  DIS CAZ7
 LT9  SZ E         930 17.47                  152.8  7.9      0        4.04 333 
 LT9  SN IP        930 17.47                             158    0.0910 4.04 333 
 LT9  SE IS        930 18.67                             158   -0.0910 4.04 333 
 LT9  SZ  AML      930 18.86         1.3 0.10                          4.04 333 
                                                                                
 2010  910 1243 28.5 L  21.341 -99.301 10.0  RAL  1 0.0-0.6LRAL                1
 GAP=360        0.30       6.2     2.9  0.0 -0.1776E+02 -0.8466E+04  0.2355E+05E
 ACTION:UPD 13-02-28 14:29 OP:RALL STATUS:               ID:20100910124328     I
 2010-09-10-1243-22S.PLUR1_003                                                 6
 STAT SP IPHASW D HRMM SECON CODA AMPLIT PERI AZIMU VELO AIN AR TRES W  DIS CAZ7
 LT9  SZ E        1243 30.60                  156.5  8.2      0        6.50 337 
 LT9  SN IP       1243 30.64                             147    0.0210 6.50 337 
 LT9  SE IS       1243 32.12                             147   -0.0210 6.50 337 
 LT9  SZ  AML     1243 33.15         1.2 0.26                          6.50 337 
                                                                                
 2010  910 1446  0.1 L  21.362 -99.318 10.0  RAL  1 0.0-0.6LRAL                1
 GAP=360        0.30      10.3     2.7  0.0 -0.2784E+02 -0.8466E+04  0.2355E+05E
 ACTION:UPD 13-02-28 14:29 OP:RALL STATUS:               ID:20100910144600     I
 2010-09-10-1445-54S.PLUR1_003                                                 6
 STAT SP IPHASW D HRMM SECON CODA AMPLIT PERI AZIMU VELO AIN AR TRES W  DIS CAZ7
 LT9  SZ E        1446  2.05                  166.3  8.6      0        3.76 346 
 LT9  SN IP       1446  2.05                             159    0.0310 3.76 346 
 LT9  SE IS       1446  3.36                             159   -0.0310 3.76 346 
 LT9  SZ  AML     1446  4.02         1.2 0.12                          3.76 346 
                                                                                
 2010  910 1455 21.4 L  21.236 -99.244 10.0  RAL  1 0.0-0.1LRAL                1
 GAP=360        0.30       3.6     2.0  0.0 -0.6732E+01 -0.8466E+04  0.2355E+05E
 ACTION:UPD 13-02-28 14:29 OP:RALL STATUS:               ID:20100910145521     I
 2010-09-10-1455-18S.PLUR1_003                                                 6
 STAT SP IPHASW D HRMM SECON CODA AMPLIT PERI AZIMU VELO AIN AR TRES W  DIS CAZ7
 LT9  SN IP       1455 25.07                             113    0.0010 19.6 334 
 LT9  SZ E        1455 25.08                  154.0  7.9      0        19.6 334 
 LT9  SE IS       1455 27.75                             113    0.0010 19.6 334 
 LT9  SZ  AML     1455 29.40         2.0 0.42                          19.6 334 
                                                                                
 2010  910 1609 49.6 L  21.379 -99.338 10.0  RAL  1 0.2-0.6LRAL                1
 GAP=360        0.71      34.6    25.2  0.0  0.8725E+03 -0.8466E+04  0.2355E+05E
 ACTION:UPD 13-02-28 14:29 OP:RALL STATUS:               ID:20100910160949     I
 2010-09-10-1609-42S.PLUR1_003                                                 6
 STAT SP IPHASW D HRMM SECON CODA AMPLIT PERI AZIMU VELO AIN AR TRES W  DIS CAZ7
 LT9  SN IP       16 9 51.80                             168    0.4410 2.18  34 
 LT9  SZ E        16 9 51.82                  214.2 17.0      0        2.18  34 
 LT9  SE IS       16 9 52.25                             168   -0.4410 2.18  34 
 LT9  SZ  AML     16 9 52.40         1.4 0.40                          2.18  34 
                                                                                
 2010  910 1623 53.4 L  21.266 -99.253 10.0  RAL  1 0.0 0.0LRAL                1
 GAP=360        0.30       3.7     2.2  0.0 -0.7829E+01 -0.8466E+04  0.2355E+05E
 ACTION:UPD 13-02-28 14:29 OP:RALL STATUS:               ID:20100910162353     I
 2010-09-10-1623-49S.PLUR1_003                                                 6
 STAT SP IPHASW D HRMM SECON CODA AMPLIT PERI AZIMU VELO AIN AR TRES W  DIS CAZ7
 LT9  SZ E        1623 56.53                  151.9  9.0      0        16.2 332 
 LT9  SN IP       1623 56.57                             119    0.0110 16.2 332 
 LT9  SE IS       1623 58.90                             119   -0.0110 16.2 332 
 LT9  SZ  AML     1624  0.52         3.1 0.36                          16.2 332 
                                                                                
 2010  910 1752 51.6 L  21.317 -99.310 10.0  RAL  1 0.0-0.4LRAL                1
 GAP=360        0.30       5.4     1.2  0.0 -0.6150E+01 -0.8466E+04  0.2355E+05E
 ACTION:UPD 13-02-28 14:29 OP:RALL STATUS:               ID:20100910175251     I
 2010-09-10-1752-45S.PLUR1_003                                                 6
 STAT SP IPHASW D HRMM SECON CODA AMPLIT PERI AZIMU VELO AIN AR TRES W  DIS CAZ7
 LT9  SZ E        1752 53.91                  168.8  7.4      0        8.81 349 
 LT9  SN IP       1752 53.94                             138    0.0110 8.81 349 
 LT9  SE IS       1752 55.60                             138   -0.0110 8.81 349 
 LT9  SZ  AML     1752 55.72         1.8 0.32                          8.81 349 
                                                                                
 2010  910 1846 40.3 L  21.367 -99.315 10.0  RAL  1 0.0-0.5LRAL                1
 GAP=360        0.34      12.6     5.1  0.0 -0.6387E+02 -0.8466E+04  0.2355E+05E
 ACTION:UPD 13-02-28 14:29 OP:RALL STATUS:               ID:20100910184640     I
 2010-09-10-1846-33S.PLUR1_003                                                 6
 STAT SP IPHASW D HRMM SECON CODA AMPLIT PERI AZIMU VELO AIN AR TRES W  DIS CAZ7
 LT9  SN IP       1846 42.29                             162    0.1110 3.31 340 
 LT9  SZ E        1846 42.30                  159.6  8.6      0        3.31 340 
 LT9  SE IS       1846 43.42                             162   -0.1110 3.31 340 
 LT9  SZ  AML     1846 44.26         1.8 0.20                          3.31 340 
                                                                                
