 2010 1221 0151 47.3 L  21.296 -99.164  6.5  RAL  2 0.4 0.7LRAL                1
 GAP=339        3.05      15.2    18.5737.5 -0.2613E+03 -0.8659E+04  0.7246E+04E
 ACTION:UPD 12-06-08 11:37 OP:RALL STATUS:               ID:20101221015147     I
 2010-12-21-0151-42S.PLUR1_006                                                 6
 STAT SP IPHASW D HRMM SECON CODA AMPLIT PERI AZIMU VELO AIN AR TRES W  DIS CAZ7
 LT9  SZ E         151 52.04                  130.2 49.3      7        20.1 303 
 LT9  SN IP        151 52.13                              92    1.1910 20.1 303 
 LT9  SE IS        151 53.70                              92    0.1210 20.1 303 
 LT9  SZ  AML      151 53.96         3.3 0.34                          20.1 303 
 LA4  SZ E         151 51.97                  135.1  9.2     -8        25.7 324 
 LA4  SN IP        151 51.99                              93    0.1610 25.7 324 
 LA4  SE IS        151 53.64                              93   -1.4710 25.7 324 
 LA4  SZ  AML      151 53.95        51.9 0.20                          25.7 324 
                                                                                
 2010 1221 0634 29.0 L  21.523 -99.322 10.0  RAL  1 0.0 0.4LRAL                1
 GAP=360        0.30       8.8     2.9  0.0 -0.2513E+02 -0.8659E+04  0.7246E+04E
 ACTION:UPD 12-06-08 11:37 OP:RALL STATUS:               ID:20101221063429     I
 2010-12-21-0634-22S.PLUR1_003                                                 6
 STAT SP IPHASW D HRMM SECON CODA AMPLIT PERI AZIMU VELO AIN AR TRES W  DIS CAZ7
 LA4  SN IP        634 31.00                             156    0.0310 4.58 163 
 LA4  SZ E         634 31.02                  343.2  7.7      0        4.58 163 
 LA4  SE IS        634 32.40                             156   -0.0310 4.58 163 
 LA4  SZ  AML      634 33.30        11.6 0.14                          4.58 163 
                                                                                
 2010 1221 0834  5.6 L  21.317 -99.233 10.0  RAL  1 0.0 0.3LRAL                1
 GAP=360        0.31       4.0    10.6  0.0 -0.4223E+02 -0.8659E+04  0.7246E+04E
 ACTION:UPD 12-06-08 11:37 OP:RALL STATUS:               ID:20101221083405     I
 2010-12-21-0833-58S.PLUR1_003                                                 6
 STAT SP IPHASW D HRMM SECON CODA AMPLIT PERI AZIMU VELO AIN AR TRES W  DIS CAZ7
 LZ4  SZ E         834  7.60                  111.8 30.8      0        4.05 292 
 LZ4  SN IP        834  7.65                             158    0.0710 4.05 292 
 LZ4  SE IS        834  8.93                             158   -0.0710 4.05 292 
 LZ4  SZ  AML      834 10.04        11.5 0.12                          4.05 292 
                                                                                
 2010 1221 1106  2.5 L  21.420 -99.259 10.0  RAL  1 0.0 1.3LRAL                1
 GAP=360        0.30       5.2     0.7  0.0  0.3121E+01 -0.8659E+04  0.7246E+04E
 ACTION:UPD 12-06-08 11:37 OP:RALL STATUS:               ID:20101221110602     I
 2010-12-21-1105-55S.PLUR1_003                                                 6
 STAT SP IPHASW D HRMM SECON CODA AMPLIT PERI AZIMU VELO AIN AR TRES W  DIS CAZ7
 LZ4  SZ E        11 6  4.94                    6.2 11.5      0        9.93 186 
 LZ4  SN IP       11 6  4.95                             135    0.0010 9.93 186 
 LZ4  SE IS       11 6  6.74                             135    0.0010 9.93 186 
 LZ4  SZ  AML     11 6  6.83        81.3 0.20                          9.93 186 
                                                                                
 2010 1221 1204 26.8 L  21.348 -99.292 10.0  RAL  1 0.1 0.1LRAL                1
 GAP=360        0.50      13.8    18.3  0.0 -0.2525E+03 -0.8659E+04  0.7246E+04E
 ACTION:UPD 12-06-08 11:37 OP:RALL STATUS:               ID:20101221120426     I
 2010-12-21-1204-20S.PLUR1_003                                                 6
 STAT SP IPHASW D HRMM SECON CODA AMPLIT PERI AZIMU VELO AIN AR TRES W  DIS CAZ7
 LZ4  SZ E        12 4 28.94                  308.9 20.7      0        3.06 129 
 LZ4  SN IP       12 4 29.01                             163    0.2710 3.06 129 
 LZ4  SE IS       12 4 29.85                             163   -0.2710 3.06 129 
 LZ4  SZ  AML     12 4 31.26         7.0 0.32                          3.06 129 
                                                                                
 2010 1221 1455 43.3 L  21.344 -99.295 10.0  RAL  1 0.1 0.1LRAL                1
 GAP=360        0.48      10.1    19.8  0.0 -0.2007E+03 -0.8659E+04  0.7246E+04E
 ACTION:UPD 12-06-08 11:37 OP:RALL STATUS:               ID:20101221145543     I
 2010-12-21-1455-36S.PLUR1_003                                                 6
 STAT SP IPHASW D HRMM SECON CODA AMPLIT PERI AZIMU VELO AIN AR TRES W  DIS CAZ7
 LZ4  SZ E        1455 45.41                  298.7 20.9      0        3.03 119 
 LZ4  SN IP       1455 45.47                             164    0.2510 3.03 119 
 LZ4  SE IS       1455 46.35                             164   -0.2510 3.03 119 
 LZ4  SZ  AML     1455 46.64         7.6 0.16                          3.03 119 
                                                                                
 2010 1221 1640  7.1 L  21.318 -99.268 10.0  RAL  1 0.1 1.3LRAL                1
 GAP=360        0.56     116.6   999.9  0.0  0.1686E+06 -0.8659E+04  0.7246E+04E
 ACTION:UPD 12-06-08 11:37 OP:RALL STATUS:               ID:20101221164007     I
 2010-12-21-1639-59S.PLUR1_003                                                 6
 STAT SP IPHASW D HRMM SECON CODA AMPLIT PERI AZIMU VELO AIN AR TRES W  DIS CAZ7
 LZ4  SZ E        1640  9.05                  174.9 20.6      2        1.45 353 
 LZ4  SN IP       1640  9.06                             172    0.1610 1.45 353 
 LZ4  SE IS       1640 10.09                             172   -0.1610 1.45 353 
 LZ4  SZ  AML     1640 10.21       101.5 0.16                          1.45 353 
                                                                                
 2010 1221 1654 39.9 L  21.327 -99.278 10.0  RAL  1 0.1 0.3LRAL                1
 GAP=360        1.05     999.9   999.9  0.0 -0.4083E+07 -0.8659E+04  0.7246E+04E
 ACTION:UPD 12-06-08 11:37 OP:RALL STATUS:               ID:20101221165439     I
 2010-12-21-1654-33S.PLUR1_003                                                 6
 STAT SP IPHASW D HRMM SECON CODA AMPLIT PERI AZIMU VELO AIN AR TRES W  DIS CAZ7
 LZ4  SZ E        1654 41.93                  249.3 35.2      4        0.98  65 
 LZ4  SN IP       1654 42.04                             175    0.3210 0.98  65 
 LZ4  SE IS       1654 42.74                             175   -0.3210 0.98  65 
 LZ4  SZ  AML     1654 42.91        10.5 0.22                          0.98  65 
                                                                                
 2010 1222 0651 59.7 L  21.491 -99.334 10.0  RAL  1 0.0 0.0LRAL                1
 GAP=360        0.33       5.0    16.5  0.0 -0.8229E+02 -0.8659E+04  0.7246E+04E
 ACTION:UPD 12-06-08 11:37 OP:RALL STATUS:               ID:20101222065159     I
 2010-12-22-0651-53S.PLUR1_003                                                 6
 STAT SP IPHASW D HRMM SECON CODA AMPLIT PERI AZIMU VELO AIN AR TRES W  DIS CAZ7
 LA4  SZ E         652  1.19                  288.0 10.8      0        2.74 108 
 LA4  SN IP        652  1.69                             165    0.1010 2.74 108 
 LA4  SE IS        652  2.88                             165   -0.1010 2.74 108 
 LA4  SZ  AML      652  2.96         5.7 0.22                          2.74 108 
                                                                                
 2010 1222 1055 15.7 L  21.323 -99.270 10.0  RAL  1 0.1 0.3LRAL                1
 GAP=360        1.29     219.0   353.5  0.0 -0.7739E+05 -0.8659E+04  0.7246E+04E
 ACTION:UPD 12-06-08 11:37 OP:RALL STATUS:               ID:20101222105515     I
 2010-12-22-1055-08S.PLUR1_003                                                 6
 STAT SP IPHASW D HRMM SECON CODA AMPLIT PERI AZIMU VELO AIN AR TRES W  DIS CAZ7
 LZ4  SZ E        1055 17.74                  180.1 20.8     -5        0.91   6 
 LZ4  SN IP       1055 17.74                             175    0.1710 0.91   6 
 LZ4  SE IS       1055 18.75                             175   -0.1710 0.91   6 
 LZ4  SZ  AML     1055 18.96        12.1 0.20                          0.91   6 
                                                                                
 2010 1222 1719 53.2 L  21.231 -99.217  0.0  RAL  2 0.3 0.2LRAL                1
 GAP=347        2.94      33.6    18.9999.9 -0.6070E+03 -0.1776E+05  0.3259E+05E
 ACTION:UPD 12-06-08 11:37 OP:RALL STATUS:               ID:20101222171953     I
 2010-12-22-1719-49S.PLUR1_006                                                 6
 STAT SP IPHASW D HRMM SECON CODA AMPLIT PERI AZIMU VELO AIN AR TRES W  DIS CAZ7
 LT9  SZ E        1719 57.32                  155.8  8.2      8        21.4 328 
 LT9  SZ IPg      1719 57.33                              92    0.3510 21.4 328 
 LT9  SN IP       1719 57.34                              92    0.3610 21.4 328 
 LT9  SE IS       1719 58.76                              92   -0.9610 21.4 328 
 LT9  SZ  AML     1719 59.17         1.6 0.28                          21.4 328 
 LA4  SZ E        1719 59.13                  150.0  6.2    -10        29.6 341 
 LA4  SN IP       1719 59.13                              92    0.7210 29.6 341 
 LA4  SE IS       1720  1.72                              92   -0.4610 29.6 341 
 LA4  SZ  AML     1720  2.27         7.9 0.12                          29.6 341 
                                                                                
 2010 1223 0225 30.3 L  21.327 -99.281 10.0  RAL  1 0.2 0.7LRAL                1
 GAP=360        0.74     999.9   999.9  0.0 -0.4107E+07 -0.1776E+05  0.3259E+05E
 ACTION:UPD 12-06-08 11:37 OP:RALL STATUS:               ID:20101223022530     I
 2010-12-23-0225-23S.PLUR1_003                                                 6
 STAT SP IPHASW D HRMM SECON CODA AMPLIT PERI AZIMU VELO AIN AR TRES W  DIS CAZ7
 LZ4  SN IP        225 32.59                             173    0.4610 1.27  71 
 LZ4  SZ E         225 32.60                  251.0 17.2      0        1.27  71 
 LZ4  SE IS        225 33.02                             173   -0.4610 1.27  71 
 LZ4  SZ  AML      225 33.20        31.0 0.24                          1.27  71 
                                                                                
 2010 1223 0250 56.1 L  21.335 -99.312 10.0  RAL  1 0.1 0.9LRAL                1
 GAP=360        0.54       2.0    18.2  0.0 -0.3538E+02 -0.1776E+05  0.3259E+05E
 ACTION:UPD 12-06-08 11:37 OP:RALL STATUS:               ID:20101223025056     I
 2010-12-23-0250-49S.PLUR1_003                                                 6
 STAT SP IPHASW D HRMM SECON CODA AMPLIT PERI AZIMU VELO AIN AR TRES W  DIS CAZ7
 LZ4  SZ E         250 58.18                  275.2 33.4      0        4.45  97 
 LZ4  SN IP        250 58.31                             157    0.2410 4.45  97 
 LZ4  SE IS        250 59.27                             157   -0.2410 4.45  97 
 LZ4  SZ  AML      250 59.62        39.6 0.30                          4.45  97 
                                                                                
 2010 1223 0330 22.4 L  21.311 -99.410 10.0  RAL  1 0.0 2.1LRAL                1
 GAP=360        0.30       0.8     4.6  0.0  0.3064E+01 -0.1776E+05  0.3259E+05E
 ACTION:UPD 12-06-08 11:37 OP:RALL STATUS:               ID:20101223033022     I
 2010-12-23-0330-16S.PLUR1_003                                                 6
 STAT SP IPHASW D HRMM SECON CODA AMPLIT PERI AZIMU VELO AIN AR TRES W  DIS CAZ7
 LZ4  SZ E         330 25.30                  261.3 30.2      0        14.7  81 
 LZ4  SN IP        330 25.44                             122    0.0010 14.7  81 
 LZ4  SE IS        330 27.66                             122    0.0010 14.7  81 
 LZ4  SZ  AML      330 28.73       423.6 0.42                          14.7  81 
                                                                                
 2010 1223 0708 23.9 L  21.609 -99.329 10.0  RAL  1 0.0 0.8LRAL                1
 GAP=360        0.30       4.4     0.8  0.0 -0.3109E+01 -0.1776E+05  0.3259E+05E
 ACTION:UPD 12-06-08 11:37 OP:RALL STATUS:               ID:20101223070823     I
 2010-12-23-0708-17S.PLUR1_003                                                 6
 STAT SP IPHASW D HRMM SECON CODA AMPLIT PERI AZIMU VELO AIN AR TRES W  DIS CAZ7
 LA4  SZ E         7 8 26.80                  351.5  6.6      0        14.0 171 
 LA4  SN IP        7 8 26.82                             124    0.0010 14.0 171 
 LA4  SE IS        7 8 28.98                             124    0.0010 14.0 171 
 LA4  SZ  AML      7 8 29.13        23.2 0.12                          14.0 171 
                                                                                
 2010 1223 1821 39.8 L  21.044 -99.100 30.2  RAL  3 1.1 1.4LRAL                1
 GAP=342        8.11      32.6    57.2999.9 -0.1381E+04 -0.5104E+05  0.1915E+05E
 ACTION:UPD 12-06-08 11:37 OP:RALL STATUS:               ID:20101223182139     I
 2010-12-23-1821-38S.PLUR1_009                                                 6
 STAT SP IPHASW D HRMM SECON CODA AMPLIT PERI AZIMU VELO AIN AR TRES W  DIS CAZ7
 LO8  SN IP       1821 49.09                              92    3.7110 17.4 318 
 LO8  SZ E        1821 49.14                  132.6  6.2     -4        17.4 318 
 LO8  SE IS       1821 52.66                              92    3.1810 17.4 318 
 LO8  SZ  AML     1821 53.51        19.5 0.60                          17.4 318 
 LT9  SZ E        1821 47.85                  161.8  8.9     13        45.5 329 
 LT9  SN IP       1821 47.86                              91   -0.4010 45.5 329 
 LT9  SE IS       1821 50.32                              91   -4.1510 45.5 329 
 LT9  SZ  AML     1821 51.42        23.8 0.68                          45.5 329 
 LA4  SZ E        1821 49.49                  184.2  8.8     28        53.3 336 
 LA4  SN IP       1821 49.54                              91    0.2810 53.3 336 
 LA4  SE IS       1821 53.59                              91   -2.6210 53.3 336 
 LA4  SZ  AML     1821 54.36        81.1 0.32                          53.3 336 
                                                                                
 2010 1224 0449  7.6 L  21.320 -99.264 10.0  RAL  1 0.2 1.0LRAL                1
 GAP=360        1.23     999.9   999.9  0.0  0.8211E+07 -0.5104E+05  0.1915E+05E
 ACTION:UPD 12-06-08 11:37 OP:RALL STATUS:               ID:20101224044907     I
 2010-12-24-0449-00S.PLUR1_003                                                 6
 STAT SP IPHASW D HRMM SECON CODA AMPLIT PERI AZIMU VELO AIN AR TRES W  DIS CAZ7
 LZ4  SN IP        449  9.84                             173    0.4010 1.34 335 
 LZ4  SZ E         449  9.85                  160.2 19.1      5        1.34 335 
 LZ4  SE IS        449 10.39                             173   -0.4010 1.34 335 
 LZ4  SZ  AML      449 11.14        50.6 0.18                          1.34 335 
                                                                                
 2010 1224 1409 21.6 L  21.337 -99.379 10.0  RAL  1 0.0-0.4LRAL                1
 GAP=360        0.30       4.3     3.9  0.0  0.1682E+02 -0.5104E+05  0.1915E+05E
 ACTION:UPD 12-06-08 11:37 OP:RALL STATUS:               ID:20101224140921     I
 2010-12-24-1409-15S.PLUR1_003                                                 6
 STAT SP IPHASW D HRMM SECON CODA AMPLIT PERI AZIMU VELO AIN AR TRES W  DIS CAZ7
 LT9  SZ E        14 9 23.90                  219.8 31.8      0        8.46  40 
 LT9  SN IP       14 9 23.92                             139    0.0210 8.46  40 
 LT9  SE IS       14 9 25.53                             139   -0.0210 8.46  40 
 LT9  SZ  AML     14 9 26.14         1.7 0.66                          8.46  40 
                                                                                
 2010 1224 1726  9.5 L  21.326 -99.249 10.0  RAL  1 0.1 0.5LRAL                1
 GAP=360        0.64       9.5    39.9  0.0 -0.3795E+03 -0.5104E+05  0.1915E+05E
 ACTION:UPD 12-06-08 11:37 OP:RALL STATUS:               ID:20101224172609     I
 2010-12-24-1726-02S.PLUR1_003                                                 6
 STAT SP IPHASW D HRMM SECON CODA AMPLIT PERI AZIMU VELO AIN AR TRES W  DIS CAZ7
 LZ4  SZ E        1726 11.37                  101.7 23.5     -2        2.19 284 
 LZ4  SN IP       1726 11.49                             168    0.0910 2.19 284 
 LZ4  SE IS       1726 12.67                             168   -0.0910 2.19 284 
 LZ4  SZ  AML     1726 13.30        19.1 0.16                          2.19 284 
                                                                                
 2010 1225 0433 16.8 L  21.345 -99.312 10.0  RAL  1 0.0-0.7LRAL                1
 GAP=360        0.30       7.1     2.1  0.0 -0.1442E+02 -0.5104E+05  0.1915E+05E
 ACTION:UPD 12-06-08 11:37 OP:RALL STATUS:               ID:20101225043316     I
 2010-12-25-0433-10S.PLUR1_003                                                 6
 STAT SP IPHASW D HRMM SECON CODA AMPLIT PERI AZIMU VELO AIN AR TRES W  DIS CAZ7
 LT9  SN IP        433 18.81                             150    0.0210 5.82 345 
 LT9  SZ E         433 18.85                  164.9  8.6      0        5.82 345 
 LT9  SE IS        433 20.25                             150   -0.0210 5.82 345 
 LT9  SZ  AML      433 20.32         0.9 0.36                          5.82 345 
                                                                                
 2010 1225 1101 37.0 L  21.323 -99.297 10.0  RAL  1 0.0-0.4LRAL                1
 GAP=360        0.30       5.2     2.2  0.0 -0.1123E+02 -0.5104E+05  0.1915E+05E
 ACTION:UPD 12-06-08 11:37 OP:RALL STATUS:               ID:20101225110137     I
 2010-12-25-1101-31S.PLUR1_003                                                 6
 STAT SP IPHASW D HRMM SECON CODA AMPLIT PERI AZIMU VELO AIN AR TRES W  DIS CAZ7
 LT9  SN IP       11 1 39.29                             138    0.0210 8.60 339 
 LT9  SZ E        11 1 39.37                  159.1  8.9      0        8.60 339 
 LT9  SE IS       11 1 40.90                             138   -0.0210 8.60 339 
 LT9  SZ  AML     11 1 41.03         1.6 0.20                          8.60 339 
                                                                                
 2010 1226 0504 38.1 L  21.298 -99.235 10.0  RAL  1 0.0 0.4LRAL                1
 GAP=360        0.32       6.5     6.7  0.0 -0.4342E+02 -0.5104E+05  0.1915E+05E
 ACTION:UPD 12-06-08 11:37 OP:RALL STATUS:               ID:20101226050438     I
 2010-12-26-0504-32S.PLUR1_003                                                 6
 STAT SP IPHASW D HRMM SECON CODA AMPLIT PERI AZIMU VELO AIN AR TRES W  DIS CAZ7
 LZ4  SZ E         5 4 40.18                  136.2 15.4      0        5.10 316 
 LZ4  SN IP        5 4 40.18                             153    0.0910 5.10 316 
 LZ4  SE IS        5 4 41.48                             153   -0.0910 5.10 316 
 LZ4  SZ  AML      5 4 41.72        12.9 0.52                          5.10 316 
                                                                                
