 2010 1217 1742 17.1 L  21.347 -99.291 10.0  RAL  1 0.1 2.3LRAL                1
 GAP=360        0.53      15.8    20.2  0.0 -0.3198E+03 -0.2130E+05  0.5698E+05E
 ACTION:UPD 12-06-08 11:37 OP:RALL STATUS:               ID:20101217174217     I
 2010-12-17-1742-09S.PLUR1_003                                                 6
 STAT SP IPHASW D HRMM SECON CODA AMPLIT PERI AZIMU VELO AIN AR TRES W  DIS CAZ7
 LZ4  SZ E        1742 19.29                  310.0 19.2      0        2.86 130 
 LZ4  SN IP       1742 19.30                             164    0.3010 2.86 130 
 LZ4  SE IS       1742 20.09                             164   -0.3010 2.86 130 
 LZ4  SZ  AML     1742 20.49      1104.9 0.46                          2.86 130 
                                                                                
 2010 1218 0838 32.2 L  21.304 -99.251 10.0  RAL  1 0.1 1.5LRAL                1
 GAP=360        0.42      13.4     9.5  0.0 -0.1273E+03 -0.2130E+05  0.5698E+05E
 ACTION:UPD 12-06-08 11:37 OP:RALL STATUS:               ID:20101218083832     I
 2010-12-18-0838-24S.PLUR1_003                                                 6
 STAT SP IPHASW D HRMM SECON CODA AMPLIT PERI AZIMU VELO AIN AR TRES W  DIS CAZ7
 LZ4  SZ E         838 34.33                  146.5 13.4      0        3.55 327 
 LZ4  SN IP        838 34.35                             161    0.2010 3.55 327 
 LZ4  SE IS        838 35.35                             161   -0.2010 3.55 327 
 LZ4  SZ  AML      838 35.73       180.9 0.24                          3.55 327 
                                                                                
 2010 1218 0844 58.2 L  21.345 -99.265 10.0  RAL  1 0.1 0.2LRAL                1
 GAP=360        0.59     630.2   999.9  0.0 -0.1713E+07 -0.2130E+05  0.5698E+05E
 ACTION:UPD 12-06-08 11:37 OP:RALL STATUS:               ID:20101218084458     I
 2010-12-18-0844-51S.PLUR1_003                                                 6
 STAT SP IPHASW D HRMM SECON CODA AMPLIT PERI AZIMU VELO AIN AR TRES W  DIS CAZ7
 LZ4  SZ E         845  0.18                   15.2 89.7      0        1.62 195 
 LZ4  SN IP        845  0.37                             171    0.3510 1.62 195 
 LZ4  SE IS        845  1.03                             171   -0.3510 1.62 195 
 LZ4  SZ  AML      845  1.19         7.9 0.16                          1.62 195 
                                                                                
 2010 1218 0911 52.5 L  21.170 -99.231 10.0  RAL  1 0.0 1.5LRAL                1
 GAP=360        0.30       4.0     1.1  0.0 -0.3926E+01 -0.2130E+05  0.5698E+05E
 ACTION:UPD 12-06-08 11:37 OP:RALL STATUS:               ID:20101218091152     I
 2010-12-18-0911-46S.PLUR1_003                                                 6
 STAT SP IPHASW D HRMM SECON CODA AMPLIT PERI AZIMU VELO AIN AR TRES W  DIS CAZ7
 LZ4  SZ E         911 56.02                  167.2 29.3      0        18.2 347 
 LZ4  SN IP        911 56.09                             116    0.0210 18.2 347 
 LZ4  SE IS        911 58.61                             116   -0.0210 18.2 347 
 LZ4  SZ  AML      911 59.12        83.0 0.54                          18.2 347 
                                                                                
 2010 1218 1133 34.0 L  21.591 -99.351 10.0  RAL  1 0.0 0.4LRAL                1
 GAP=360        0.30       4.4     1.8  0.0 -0.7529E+01 -0.2130E+05  0.5698E+05E
 ACTION:UPD 12-06-08 11:37 OP:RALL STATUS:               ID:20101218113334     I
 2010-12-18-1133-29S.PLUR1_003                                                 6
 STAT SP IPHASW D HRMM SECON CODA AMPLIT PERI AZIMU VELO AIN AR TRES W  DIS CAZ7
 LA4  SN IP       1133 36.78                             127    0.0110 12.6 160 
 LA4  SZ E        1133 36.86                  339.7  7.4      0        12.6 160 
 LA4  SE IS       1133 38.80                             127   -0.0110 12.6 160 
 LA4  SZ  AML     1133 39.32         8.1 0.14                          12.6 160 
                                                                                
 2010 1218 1326 34.6 L  21.504 -99.339 10.0  RAL  1 0.1 0.2LRAL                1
 GAP=360        0.37       7.8    11.4  0.0 -0.8813E+02 -0.2130E+05  0.5698E+05E
 ACTION:UPD 12-06-08 11:37 OP:RALL STATUS:               ID:20101218132634     I
 2010-12-18-1326-28S.PLUR1_003                                                 6
 STAT SP IPHASW D HRMM SECON CODA AMPLIT PERI AZIMU VELO AIN AR TRES W  DIS CAZ7
 LA4  SZ E        1326 36.68                  306.3 10.9      0        3.86 126 
 LA4  SN IP       1326 36.68                             159    0.1510 3.86 126 
 LA4  SE IS       1326 37.81                             159   -0.1510 3.86 126 
 LA4  SZ  AML     1326 38.07         7.5 0.24                          3.86 126 
                                                                                
 2010 1218 1434 35.2 L  21.335 -99.290 10.0  RAL  1 0.2 0.8LRAL                1
 GAP=360        0.73     147.8    84.7  0.0  0.1252E+05 -0.2130E+05  0.5698E+05E
 ACTION:UPD 12-06-08 11:37 OP:RALL STATUS:               ID:20101218143435     I
 2010-12-18-1434-28S.PLUR1_003                                                 6
 STAT SP IPHASW D HRMM SECON CODA AMPLIT PERI AZIMU VELO AIN AR TRES W  DIS CAZ7
 LZ4  SZ E        1434 37.46                  283.1 41.6      0        2.20 103 
 LZ4  SN IP       1434 37.51                             168    0.4510 2.20 103 
 LZ4  SE IS       1434 37.97                             168   -0.4510 2.20 103 
 LZ4  SZ  AML     1434 38.32        31.1 0.16                          2.20 103 
                                                                                
 2010 1218 1818 16.4 L  21.127 -99.162 10.0  RAL  1 0.0 0.7LRAL                1
 GAP=360        0.30       3.5     2.0  0.0 -0.6343E+01 -0.2130E+05  0.5698E+05E
 ACTION:UPD 12-06-08 11:37 OP:RALL STATUS:               ID:20101218181816     I
 2010-12-18-1818-14S.PLUR1_003                                                 6
 STAT SP IPHASW D HRMM SECON CODA AMPLIT PERI AZIMU VELO AIN AR TRES W  DIS CAZ7
 LZ4  SZ E        1818 20.95                  153.6 32.2      0        25.2 334 
 LZ4  SN IP       1818 20.96                             108    0.0310 25.2 334 
 LZ4  SE IS       1818 24.21                             108   -0.0310 25.2 334 
 LZ4  SZ  AML     1818 25.14        12.0 0.40                          25.2 334 
                                                                                
 2010 1218 1838  4.3 L  21.428 -99.353 10.0  RAL  1 0.0 0.6LRAL                1
 GAP=360        0.30       3.5     3.1  0.0 -0.1054E+02 -0.2130E+05  0.5698E+05E
 ACTION:UPD 12-06-08 11:37 OP:RALL STATUS:               ID:20101218183804     I
 2010-12-18-1837-59S.PLUR1_003                                                 6
 STAT SP IPHASW D HRMM SECON CODA AMPLIT PERI AZIMU VELO AIN AR TRES W  DIS CAZ7
 LZ4  SZ E        1838  7.22                  321.0 17.4      0        13.8 141 
 LZ4  SN IP       1838  7.22                             124    0.0210 13.8 141 
 LZ4  SE IS       1838  9.32                             124   -0.0210 13.8 141 
 LZ4  SZ  AML     1838 10.19        12.9 0.74                          13.8 141 
                                                                                
 2010 1218 2353 20.2 L  21.216 -99.288 10.0  RAL  1 0.0 0.1LRAL                1
 GAP=360        0.30       3.9     1.0  0.0 -0.3297E+01 -0.2130E+05  0.5698E+05E
 ACTION:UPD 12-06-08 11:37 OP:RALL STATUS:               ID:20101218235320     I
 2010-12-18-2353-17S.PLUR1_003                                                 6
 STAT SP IPHASW D HRMM SECON CODA AMPLIT PERI AZIMU VELO AIN AR TRES W  DIS CAZ7
 LT9  SZ E        2353 24.01                  168.6  8.7      0        20.3 349 
 LT9  SN IP       2353 24.02                             112    0.0210 20.3 349 
 LT9  SE IS       2353 26.74                             112   -0.0210 20.3 349 
 LT9  SZ  AML     2353 27.09         3.4 0.34                          20.3 349 
                                                                                
 2010 1219 0402 24.7 L  21.341 -99.288 10.0  RAL  1 0.2 1.3LRAL                1
 GAP=360        0.79     999.9   834.7  0.0  0.1027E+07 -0.2130E+05  0.5698E+05E
 ACTION:UPD 12-06-08 11:37 OP:RALL STATUS:               ID:20101219040224     I
 2010-12-19-0402-17S.PLUR1_003                                                 6
 STAT SP IPHASW D HRMM SECON CODA AMPLIT PERI AZIMU VELO AIN AR TRES W  DIS CAZ7
 LZ4  SZ E         4 2 27.03                  300.5 18.1      0        2.28 121 
 LZ4  SN IP        4 2 27.06                             168    0.5010 2.28 121 
 LZ4  SE IS        4 2 27.43                             168   -0.5010 2.28 121 
 LZ4  SZ  AML      4 2 27.51       104.6 0.16                          2.28 121 
                                                                                
 2010 1219 0519 21.8 L  21.531 -99.504 10.0  RAL  1 0.0 1.2LRAL                1
 GAP=360        0.30       2.6     3.1  0.0 -0.7379E+01 -0.2130E+05  0.5698E+05E
 ACTION:UPD 12-06-08 11:37 OP:RALL STATUS:               ID:20101219051921     I
 2010-12-19-0519-18S.PLUR1_003                                                 6
 STAT SP IPHASW D HRMM SECON CODA AMPLIT PERI AZIMU VELO AIN AR TRES W  DIS CAZ7
 LZ4  SZ E         519 27.45                  312.5 17.6      0        32.9 132 
 LZ4  SN IP        519 27.47                             103    0.0210 32.9 132 
 LZ4  SE IS        519 31.57                             103   -0.0210 32.9 132 
 LZ4  SZ  AML      519 31.85        26.6 0.36                          32.9 132 
                                                                                
 2010 1219 0805  3.6 L  21.344 -99.282 10.0  RAL  1 0.2 1.4LRAL                1
 GAP=360        0.87      45.0    42.4  0.0 -0.1909E+04 -0.2130E+05  0.5698E+05E
 ACTION:UPD 12-06-08 11:37 OP:RALL STATUS:               ID:20101219080503     I
 2010-12-19-0804-56S.PLUR1_003                                                 6
 STAT SP IPHASW D HRMM SECON CODA AMPLIT PERI AZIMU VELO AIN AR TRES W  DIS CAZ7
 LZ4  SZ E         8 5  5.96                  318.7 13.0      0        1.90 139 
 LZ4  SN IP        8 5  5.98                             170    0.5510 1.90 139 
 LZ4  SE IS        8 5  6.23                             170   -0.5510 1.90 139 
 LZ4  SZ  AML      8 5  6.32       126.2 0.16                          1.90 139 
                                                                                
 2010 1219 0939 13.3 L  21.349 -99.290 10.0  RAL  1 0.2 0.6LRAL                1
 GAP=360        0.66      20.7    23.6  0.0 -0.4877E+03 -0.2130E+05  0.5698E+05E
 ACTION:UPD 12-06-08 11:37 OP:RALL STATUS:               ID:20101219093913     I
 2010-12-19-0939-05S.PLUR1_003                                                 6
 STAT SP IPHASW D HRMM SECON CODA AMPLIT PERI AZIMU VELO AIN AR TRES W  DIS CAZ7
 LZ4  SZ E         939 15.56                  313.3 11.2      0        2.94 133 
 LZ4  SN IP        939 15.56                             164    0.4010 2.94 133 
 LZ4  SZ  AML      939 16.10        23.1 0.20                          2.94 133 
 LZ4  SE IS        939 16.14                             164   -0.4010 2.94 133 
                                                                                
 2010 1219 0953 22.7 L  21.293 -99.243 10.0  RAL  1 0.0 0.4LRAL                1
 GAP=360        0.32       7.4     5.3  0.0 -0.3944E+02 -0.2130E+05  0.5698E+05E
 ACTION:UPD 12-06-08 11:37 OP:RALL STATUS:               ID:20101219095322     I
 2010-12-19-0953-16S.PLUR1_003                                                 6
 STAT SP IPHASW D HRMM SECON CODA AMPLIT PERI AZIMU VELO AIN AR TRES W  DIS CAZ7
 LZ4  SN IP        953 24.78                             154    0.0710 5.02 326 
 LZ4  SZ E         953 24.79                  146.4 14.2      0        5.02 326 
 LZ4  SE IS        953 26.10                             154   -0.0710 5.02 326 
 LZ4  SZ  AML      953 26.69        13.8 0.10                          5.02 326 
                                                                                
 2010 1219 1210 14.0 L  21.314 -99.270 10.0  RAL  1 0.1 0.3LRAL                1
 GAP=360        0.63      67.4   608.9  0.0 -0.3412E+05 -0.2130E+05  0.5698E+05E
 ACTION:UPD 12-06-08 11:37 OP:RALL STATUS:               ID:20101219121014     I
 2010-12-19-1210-07S.PLUR1_003                                                 6
 STAT SP IPHASW D HRMM SECON CODA AMPLIT PERI AZIMU VELO AIN AR TRES W  DIS CAZ7
 LZ4  SZ E        1210 16.22                  183.1 35.6      0        1.85   3 
 LZ4  SN IP       1210 16.26                             170    0.3810 1.85   3 
 LZ4  SE IS       1210 16.86                             170   -0.3810 1.85   3 
 LZ4  SZ  AML     1210 17.38        12.0 0.22                          1.85   3 
                                                                                
 2010 1219 1349 17.4 L  21.307 -99.249 10.0  RAL  1 0.1 0.8LRAL                1
 GAP=360        0.41      12.9    10.8  0.0 -0.1397E+03 -0.2130E+05  0.5698E+05E
 ACTION:UPD 12-06-08 11:37 OP:RALL STATUS:               ID:20101219134917     I
 2010-12-19-1349-10S.PLUR1_003                                                 6
 STAT SP IPHASW D HRMM SECON CODA AMPLIT PERI AZIMU VELO AIN AR TRES W  DIS CAZ7
 LZ4  SZ E        1349 19.53                  142.0 14.3      0        3.40 322 
 LZ4  SN IP       1349 19.53                             162    0.1910 3.40 322 
 LZ4  SE IS       1349 20.54                             162   -0.1910 3.40 322 
 LZ4  SZ  AML     1349 21.17        37.7 0.20                          3.40 322 
                                                                                
 2010 1219 1507 51.4 L  21.333 -99.392 10.0  RAL  1 0.0 0.7LRAL                1
 GAP=360        0.30       0.3     5.0  0.0 -0.4217E+00 -0.2130E+05  0.5698E+05E
 ACTION:UPD 12-06-08 11:37 OP:RALL STATUS:               ID:20101219150751     I
 2010-12-19-1507-47S.PLUR1_003                                                 6
 STAT SP IPHASW D HRMM SECON CODA AMPLIT PERI AZIMU VELO AIN AR TRES W  DIS CAZ7
 LZ4  SZ E        15 7 54.10                  271.1 17.6      0        12.7  91 
 LZ4  SN IP       15 7 54.18                             127    0.0010 12.7  91 
 LZ4  SE IS       15 7 56.21                             127    0.0010 12.7  91 
 LZ4  SZ  AML     15 7 57.01        18.2 0.62                          12.7  91 
                                                                                
 2010 1219 1833 26.1 L  21.323 -99.430 10.0  RAL  1 0.0 0.8LRAL                1
 GAP=360        0.30       0.5     4.5  0.0  0.1045E+01 -0.2130E+05  0.5698E+05E
 ACTION:UPD 12-06-08 11:37 OP:RALL STATUS:               ID:20101219183326     I
 2010-12-19-1833-20S.PLUR1_003                                                 6
 STAT SP IPHASW D HRMM SECON CODA AMPLIT PERI AZIMU VELO AIN AR TRES W  DIS CAZ7
 LZ4  SZ E        1833 29.37                  266.9 18.8      0        16.7  87 
 LZ4  SN IP       1833 29.46                             119    0.0210 16.7  87 
 LZ4  SE IS       1833 31.83                             119   -0.0210 16.7  87 
 LZ4  SZ  AML     1833 33.68        19.9 0.28                          16.7  87 
                                                                                
 2010 1220 0632 39.8 L  20.977 -99.049 10.0  RAL  1 0.0 1.2LRAL                1
 GAP=360        0.30       3.3     2.3  0.0 -0.5897E+01 -0.2130E+05  0.5698E+05E
 ACTION:UPD 12-06-08 11:37 OP:RALL STATUS:               ID:20101220063239     I
 2010-12-20-0632-38S.PLUR1_003                                                 6
 STAT SP IPHASW D HRMM SECON CODA AMPLIT PERI AZIMU VELO AIN AR TRES W  DIS CAZ7
 LZ4  SZ E         632 47.33                  149.6  6.3      0        45.4 330 
 LZ4  SN IP        632 47.41                              98    0.0110 45.4 330 
 LZ4  SE IS        632 52.92                              98   -0.0110 45.4 330 
 LZ4  SZ  AML      632 54.74        18.7 0.26                          45.4 330 
                                                                                
 2010 1220 1155  6.9 L  21.313 -99.261 10.0  RAL  1 0.1 0.3LRAL                1
 GAP=360        0.56      31.3    15.7  0.0 -0.4901E+03 -0.2130E+05  0.5698E+05E
 ACTION:UPD 12-06-08 11:37 OP:RALL STATUS:               ID:20101220115506     I
 2010-12-20-1155-00S.PLUR1_003                                                 6
 STAT SP IPHASW D HRMM SECON CODA AMPLIT PERI AZIMU VELO AIN AR TRES W  DIS CAZ7
 LZ4  SZ E        1155  9.07                  154.5 14.3      0        2.14 335 
 LZ4  SN IP       1155  9.07                             168    0.3210 2.14 335 
 LZ4  SE IS       1155  9.80                             168   -0.3210 2.14 335 
 LZ4  SZ  AML     1155  9.92        11.5 0.22                          2.14 335 
                                                                                
 2010 1220 1251  8.8 L  21.834 -99.559  5.1  RAL  2 0.2 1.3LRAL                1
 GAP=353        3.22     139.7    89.3317.7 -0.1235E+05 -0.2777E+05  0.4369E+05E
 ACTION:UPD 12-06-08 11:37 OP:RALL STATUS:               ID:20101220125108     I
 2010-12-20-1251-07S.PLUR1_006                                                 6
 STAT SP IPHASW D HRMM SECON CODA AMPLIT PERI AZIMU VELO AIN AR TRES W  DIS CAZ7
 LA4  SZ E        1251 15.89                  336.0  8.7     10        46.7 146 
 LA4  SN IP       1251 15.97                              63   -0.2110 46.7 146 
 LA4  SE IS       1251 21.05                              63   -0.5310 46.7 146 
 LA4  SZ  AML     1251 23.11       101.1 0.34                          46.7 146 
 LT9  SN IP       1251 17.82                              63    0.4910 54.3 154 
 LT9  SZ E        1251 17.85                  321.9 10.1    -11        54.3 154 
 LT9  SE IS       1251 23.81                              63    0.2510 54.3 154 
 LT9  SZ  AML     1251 25.32         5.1 0.66                          54.3 154 
                                                                                
 2010 1220 1421 22.1 L  21.607 -99.456 10.0  RAL  1 0.0 1.1LRAL                1
 GAP=360        0.30       3.2     2.3  0.0 -0.6524E+01 -0.2777E+05  0.4369E+05E
 ACTION:UPD 12-06-08 11:37 OP:RALL STATUS:               ID:20101220142122     I
 2010-12-20-1421-23S.PLUR1_003                                                 6
 STAT SP IPHASW D HRMM SECON CODA AMPLIT PERI AZIMU VELO AIN AR TRES W  DIS CAZ7
 LZ4  SN IP       1421 28.33                             101    0.0210 36.1 148 
 LZ4  SZ E        1421 28.39                  327.7 12.7      0        36.1 148 
 LZ4  SE IS       1421 32.80                             101   -0.0210 36.1 148 
 LZ4  SZ  AML     1421 33.38        20.9 0.42                          36.1 148 
                                                                                
 2010 1220 1627  2.1 L  21.333 -99.279 10.0  RAL  1 0.1 0.8LRAL                1
 GAP=360        0.78     999.9   484.3  0.0  0.5647E+06 -0.2777E+05  0.4369E+05E
 ACTION:UPD 12-06-08 11:37 OP:RALL STATUS:               ID:20101220162702     I
 2010-12-20-1626-54S.PLUR1_003                                                 6
 STAT SP IPHASW D HRMM SECON CODA AMPLIT PERI AZIMU VELO AIN AR TRES W  DIS CAZ7
 LZ4  SZ E        1627  4.16                  289.3 36.6      3        0.99 106 
 LZ4  SN IP       1627  4.21                             175    0.2910 0.99 106 
 LZ4  SE IS       1627  4.98                             175   -0.2910 0.99 106 
 LZ4  SZ  AML     1627  6.14        33.5 0.18                          0.99 106 
                                                                                
