 2010  521 1356 37.3 L  20.983 -98.212 13.0  RAL  2 1.8 2.0LRAL                1
 GAP=345       25.38     190.4   242.1174.9 -0.8900E+04 -0.1191E+05 -0.7032E+04E
 ACTION:UPD 12-06-08 11:37 OP:RALL STATUS:               ID:20100521135637     I
 2010-05-21-1356-42S.PLUR1_006                                                 6
 STAT SP IPHASW D HRMM SECON CODA AMPLIT PERI AZIMU VELO AIN AR TRES W  DIS CAZ7
 LO8  SZ E        1356 50.77                  344.2  9.7    116         106 281 
 LO8  SN IP       1356 51.15                              95   -3.1010  106 281 
 LO8  SE IS       1357  3.84                              95   -2.8210  106 281 
 LO8  SZ  AML     1357  5.68        26.8 0.38                           106 281 
 LA4  SZ E        1356 58.24                  146.4  9.5     31         127 296 
 LA4  SN IP       1356 58.63                              52    1.4610  127 296 
 LA4  SE IS       1357 16.17                              52    4.4610  127 296 
 LA4  SZ  AML     1357 21.27        80.3 0.40                           127 296 
                                                                                
 2010  522 0841 17.5 L  21.202 -99.221 10.0  RAL  1 0.0 0.3LRAL                1
 GAP=360        0.30       4.1     1.6  0.0 -0.6236E+01 -0.1191E+05 -0.7032E+04E
 ACTION:UPD 12-06-08 11:37 OP:RALL STATUS:               ID:20100522084117     I
 2010-05-22-0841-14S.PLUR1_003                                                 6
 STAT SP IPHASW D HRMM SECON CODA AMPLIT PERI AZIMU VELO AIN AR TRES W  DIS CAZ7
 LZ4  SN IP        841 20.62                             122    0.0010 15.1 341 
 LZ4  SZ E         841 20.63                  160.7 43.2      0        15.1 341 
 LZ4  SE IS        841 22.87                             122    0.0010 15.1 341 
 LZ4  SZ  AML      841 23.49         5.8 0.40                          15.1 341 
                                                                                
 2010  522 1306 29.6 L  21.338 -99.296 10.0  RAL  1 0.1 1.5LRAL                1
 GAP=360        0.36       5.0    17.4  0.0 -0.8697E+02 -0.1191E+05 -0.7032E+04E
 ACTION:UPD 12-06-08 11:37 OP:RALL STATUS:               ID:20100522130629     I
 2010-05-22-1306-21S.PLUR1_003                                                 6
 STAT SP IPHASW D HRMM SECON CODA AMPLIT PERI AZIMU VELO AIN AR TRES W  DIS CAZ7
 LZ4  SZ E        13 6 31.57                  287.2 22.1      0        2.84 107 
 LZ4  SN IP       13 6 31.59                             165    0.1410 2.84 107 
 LZ4  SE IS       13 6 32.69                             165   -0.1410 2.84 107 
 LZ4  SZ  AML     13 6 32.93       153.9 0.10                          2.84 107 
                                                                                
 2010  522 2301 34.9 L  21.395 -99.327 10.5  RAL  2 0.4 0.5LRAL                1
 GAP=249        6.83       4.9     8.7 51.4  0.3341E+02 -0.4895E+01  0.4251E+01E
 ACTION:UPD 12-06-08 11:37 OP:RALL STATUS:               ID:20100522230134     I
 2010-05-22-2301-28S.PLUR1_006                                                 6
 STAT SP IPHASW D HRMM SECON CODA AMPLIT PERI AZIMU VELO AIN AR TRES W  DIS CAZ7
 LT7  SZ E        23 1 37.20                  225.2 31.2      6        0.07  39 
 LT7  SN IP       23 1 37.35                             180    0.6110 0.07  39 
 LT7  SE IS       23 1 38.44                             180    0.3510 0.07  39 
 LT7  SZ  AML     23 1 38.53         6.1 0.16                          0.07  39 
 LG3  SZ E        23 1 37.92                    2.1  9.0     32        15.3 150 
 LG3  SN IP       23 1 37.92                             123   -0.1510 15.3 150 
 LG3  SE IS       23 1 39.57                             123   -0.8110 15.3 150 
 LG3  SZ  AML     23 1 39.73        24.4 0.52                          15.3 150 
                                                                                
 2010  523 0755 31.5 L  21.416 -99.256 10.0  RAL  1 0.0 0.1LRAL                1
 GAP=360        0.30       4.3     0.4  0.0 -0.4570E+00 -0.4895E+01  0.4251E+01E
 ACTION:UPD 12-06-08 11:37 OP:RALL STATUS:               ID:20100523075531     I
 2010-05-23-0755-27S.PLUR1_003                                                 6
 STAT SP IPHASW D HRMM SECON CODA AMPLIT PERI AZIMU VELO AIN AR TRES W  DIS CAZ7
 LG3  SZ E         755 34.66                  358.7  4.7      0        15.5 179 
 LG3  SN IP        755 34.68                             121    0.0210 15.5 179 
 LG3  SE IS        755 36.94                             121   -0.0210 15.5 179 
 LG3  SZ  AML      755 37.47         3.8 0.36                          15.5 179 
                                                                                
 2010  523 1248 16.1 R  20.641-100.091  2.8  RAL  2 1.9 2.3LRAL                1
 GAP=343       25.87     819.8   999.9999.9  0.8279E+06 -0.2522E+07 -0.1962E+07E
 ACTION:UPD 12-06-08 11:37 OP:RALL STATUS:               ID:20100523124816     I
 2010-05-23-1248-22S.PLUR1_006                                                 6
 STAT SP IPHASW D HRMM SECON CODA AMPLIT PERI AZIMU VELO AIN AR TRES W  DIS CAZ7
 LO8  SZ E        1248 30.22                  332.1  7.8     94         108  58 
 LO8  SN IP       1248 30.41                              63   -3.0810  108  58 
 LO8  SE IS       1248 42.69                              63   -3.5310  108  58 
 LO8  SZ  AML     1248 44.56        37.7 0.26                           108  58 
 LA4  SZ E        1248 37.62                  143.9  8.1    -76         124  41 
 LA4  SN IP       1248 37.66                              63    1.7310  124  41 
 LA4  SE IS       1248 55.32                              63    4.8810  124  41 
 LA4  SZ  AML     1248 57.52       240.4 0.58                           124  41 
                                                                                
 2010  524 0847 51.7 L  21.206 -99.234 10.0  RAL  1 0.0 0.7LRAL                1
 GAP=360        0.30       4.3     1.3  0.0 -0.5120E+01 -0.2522E+07 -0.1962E+07E
 ACTION:UPD 12-06-08 11:37 OP:RALL STATUS:               ID:20100524084751     I
 2010-05-24-0847-47S.PLUR1_003                                                 6
 STAT SP IPHASW D HRMM SECON CODA AMPLIT PERI AZIMU VELO AIN AR TRES W  DIS CAZ7
 LZ4  SZ E         847 54.59                  165.2 25.2      0        14.3 345 
 LZ4  SN IP        847 54.69                             123    0.0010 14.3 345 
 LZ4  SE IS        847 56.87                             123    0.0010 14.3 345 
 LZ4  SZ  AML      847 57.15        16.1 0.10                          14.3 345 
                                                                                
 2010  526 0138 46.6 L  21.460 -99.040  5.1  RAL  2 1.1 1.3LRAL                1
 GAP=341       18.60     185.2   167.8555.6  0.2950E+05  0.7510E+05  0.8382E+05E
 ACTION:UPD 12-06-08 11:37 OP:RALL STATUS:               ID:20100526013846     I
 2010-05-26-0138-42S.PLUR1_006                                                 6
 STAT SP IPHASW D HRMM SECON CODA AMPLIT PERI AZIMU VELO AIN AR TRES W  DIS CAZ7
 LG3  SZ E         138 52.55                  348.2 11.6     59        30.0 227 
 LG3  SN IP        138 52.55                              63    1.1610 30.0 227 
 LG3  SE IS        138 53.25                              63   -1.6510 30.0 227 
 LG3  SZ  AML      138 53.37       476.7 0.28                          30.0 227 
 LO8  SN IP        138 54.05                              63    1.4410 37.8 208 
 LO8  SZ E         138 54.06                   96.5  8.1     68        37.8 208 
 LO8  SE IS        138 56.08                              63   -0.9410 37.8 208 
 LO8  SZ  AML      138 56.51         3.1 0.26                          37.8 208 
                                                                                
 2010  527 0430 43.5 L  21.610 -99.399 10.0  RAL  1 0.0 0.3LRAL                1
 GAP=360        0.30       3.5     2.5  0.0 -0.8704E+01  0.7510E+05  0.8382E+05E
 ACTION:UPD 12-06-08 11:37 OP:RALL STATUS:               ID:20100527043043     I
 2010-05-27-0430-40S.PLUR1_003                                                 6
 STAT SP IPHASW D HRMM SECON CODA AMPLIT PERI AZIMU VELO AIN AR TRES W  DIS CAZ7
 LA4  SN IP        430 46.87                             118    0.0110 16.8 146 
 LA4  SZ E         430 46.94                  326.2 14.4      0        16.8 146 
 LA4  SE IS        430 49.29                             118   -0.0110 16.8 146 
 LA4  SZ  AML      430 50.34         6.7 0.24                          16.8 146 
                                                                                
 2010  528 2104 50.4 L  21.190 -98.991 32.7  RAL  4 1.3 1.3LRAL                1
 GAP=307       19.44      32.1    83.1175.6 -0.1218E+04 -0.3849E+04  0.3088E+03E
 ACTION:UPD 12-06-08 11:37 OP:RALL STATUS:               ID:20100528210450     I
 2010-05-28-2104-48S.PLUR1_012                                                 6
 STAT SP IPHASW D HRMM SECON CODA AMPLIT PERI AZIMU VELO AIN AR TRES W  DIS CAZ7
 LO8  SN IP       21 4 59.70                             139    3.0210 23.3 262 
 LO8  SZ E        21 4 59.78                  129.3  7.5     48        23.3 262 
 LO8  SE IS       21 5  3.18                             139    1.8910 23.3 262 
 LO8  SZ  AML     21 5  4.67         9.2 0.34                          23.3 262 
 LG3  SZ E        21 4 58.36                   16.4 18.2    -92        28.8 289 
 LG3  SN IP       21 4 58.39                             132    1.2410 28.8 289 
 LG3  SE IS       21 5  0.61                             132   -1.4910 28.8 289 
 LG3  SZ  AML     21 5  1.21       109.5 0.28                          28.8 289 
 LT7  SN IP       21 4 58.36                             120   -0.1010 41.6 303 
 LT7  SZ E        21 4 58.36                  184.8  7.8     62        41.6 303 
 LT7  SE IS       21 5  0.70                             120   -3.6710 41.6 303 
 LT7  SZ  AML     21 5  1.86        14.0 0.62                          41.6 303 
 LA4  SZ E        21 4 59.99                  159.9  8.9     25        46.3 315 
 LA4  SN IP       21 5  0.05                             117    0.9910 46.3 315 
 LA4  SE IS       21 5  3.55                             117   -1.8710 46.3 315 
 LA4  SZ  AML     21 5  6.95        32.7 0.22                          46.3 315 
                                                                                
 2010  529 0613 54.2 L  21.249 -98.895 10.0  RAL  3 0.9 1.2LRAL                1
 GAP=312       13.50      26.8    88.1552.6  0.2362E+03 -0.2831E+05 -0.3015E+04E
 ACTION:UPD 12-06-08 11:37 OP:RALL STATUS:               ID:20100529061354     I
 2010-05-29-0613-51S.PLUR1_009                                                 6
 STAT SP IPHASW D HRMM SECON CODA AMPLIT PERI AZIMU VELO AIN AR TRES W  DIS CAZ7
 LO8  SZ E         614  2.27                  134.3  8.3     61        34.5 253 
 LO8  SN IP        614  2.28                             102    2.1710 34.5 253 
 LO8  SE IS        614  5.75                             102    1.3010 34.5 253 
 LO8  SZ  AML      614  7.25         7.1 0.26                          34.5 253 
 LG3  SN IP        614  0.87                             101    0.3610 37.2 275 
 LG3  SZ E         614  0.91                   63.3 35.2    -30        37.2 275 
 LG3  SE IS        614  3.18                             101   -1.9710 37.2 275 
 LG3  SZ  AML      614  3.66        75.9 0.10                          37.2 275 
 LA4  SZ E         614  2.59                  153.2  9.8     32        50.2 301 
 LA4  SN IP        614  2.61                              97    0.1110 50.2 301 
 LA4  SE IS        614  6.61                              97   -1.9810 50.2 301 
 LA4  SZ  AML      614  9.63        22.0 0.20                          50.2 301 
                                                                                
 2010  529 1311 50.0 L  21.356 -99.287 10.0  RAL  1 0.1 0.2LRAL                1
 GAP=360        0.45      15.2    11.0  0.0 -0.1665E+03 -0.2831E+05 -0.3015E+04E
 ACTION:UPD 12-06-08 11:37 OP:RALL STATUS:               ID:20100529131150     I
 2010-05-29-1311-43S.PLUR1_003                                                 6
 STAT SP IPHASW D HRMM SECON CODA AMPLIT PERI AZIMU VELO AIN AR TRES W  DIS CAZ7
 LZ4  SZ E        1311 52.09                  326.0 31.8      0        3.30 146 
 LZ4  SN IP       1311 52.11                             162    0.2310 3.30 146 
 LZ4  SE IS       1311 53.05                             162   -0.2310 3.30 146 
 LZ4  SZ  AML     1311 53.39         8.8 0.42                          3.30 146 
                                                                                
 2010  530 1047 29.1 L  21.491 -99.308 10.0  RAL  1 0.0 0.9LRAL                1
 GAP=360        0.30       4.0     1.1  0.0 -0.3911E+01 -0.2831E+05 -0.3015E+04E
 ACTION:UPD 12-06-08 11:37 OP:RALL STATUS:               ID:20100530104729     I
 2010-05-30-1047-23S.PLUR1_003                                                 6
 STAT SP IPHASW D HRMM SECON CODA AMPLIT PERI AZIMU VELO AIN AR TRES W  DIS CAZ7
 LZ4  SZ E        1047 32.54                  347.3 10.3      0        18.2 167 
 LZ4  SN IP       1047 32.65                             116    0.0210 18.2 167 
 LZ4  SE IS       1047 35.17                             116   -0.0210 18.2 167 
 LZ4  SZ  AML     1047 36.16        23.0 0.24                          18.2 167 
                                                                                
 2010  530 2047 18.5 L  21.435 -99.371 10.0  RAL  1 0.0-0.4LRAL                1
 GAP=360        0.30       4.8     5.5  0.0 -0.2604E+02 -0.2831E+05 -0.3015E+04E
 ACTION:UPD 12-06-08 11:37 OP:RALL STATUS:               ID:20100530204718     I
 2010-05-30-2047-13S.PLUR1_003                                                 6
 STAT SP IPHASW D HRMM SECON CODA AMPLIT PERI AZIMU VELO AIN AR TRES W  DIS CAZ7
 LT7  SN IP       2047 20.64                             147    0.0410 6.36 133 
 LT7  SZ E        2047 20.66                  313.3 12.8      0        6.36 133 
 LT7  SE IS       2047 22.06                             147   -0.0410 6.36 133 
 LT7  SZ  AML     2047 24.31         2.1 0.36                          6.36 133 
                                                                                
 2010  531 1051 30.7 L  21.273 -99.262 10.0  RAL  1 0.2 0.6LRAL                1
 GAP=360        2.53     582.4   506.7  0.0 -0.2950E+06 -0.2831E+05 -0.3015E+04E
 ACTION:UPD 12-06-08 11:37 OP:RALL STATUS:               ID:20100531105130     I
 2010-05-31-1051-23S.PLUR1_003                                                 6
 STAT SP IPHASW D HRMM SECON CODA AMPLIT PERI AZIMU VELO AIN AR TRES W  DIS CAZ7
 LG3  SZ E        1051 32.97                  268.1 29.8     12        1.03  76 
 LG3  SN IP       1051 32.99                             174    0.3910 1.03  76 
 LG3  SE IS       1051 33.57                             174   -0.3910 1.03  76 
 LG3  SZ  AML     1051 33.64        23.2 0.12                          1.03  76 
                                                                                
