 2010  8 1 1116  3.3 L  21.266 -99.276  6.6  RAL  2 0.0 0.3LRAL                1
 GAP=218        0.39       0.2     0.5  3.2  0.1180E+00  0.3566E+00  0.1627E+00E
 ACTION:UPD 13-02-28 14:29 OP:RALL STATUS:               ID:20100801111603     I
 2010-08-01-1115-55S.PLUR1_006                                                 6
 STAT SP IPHASW D HRMM SECON CODA AMPLIT PERI AZIMU VELO AIN AR TRES W  DIS CAZ7
 LG3  SZ E        1116  4.83                  245.8 92.7      0        2.70  66 
 LG3  SN IP       1116  4.87                             159    0.1510 2.70  66 
 LG3  SE IS       1116  5.75                             159    0.0110 2.70  66 
 LG3  SZ  AML     1116  6.30        50.7 0.38                          2.70  66 
 LD5  SZ E        1116  5.43                   27.8 10.2      0        9.88 208 
 LD5  SN IP       1116  5.47                             121    0.0310 9.88 208 
 LD5  SE IS       1116  6.80                             121   -0.1910 9.88 208 
 LD5  SZ  AML     1116  7.32         3.6 0.18                          9.88 208 
                                                                                
 2010  8 1 1121 35.2 L  21.391 -99.294 10.0  RAL  1 0.0 1.1LRAL                1
 GAP=360        0.30       6.0     2.5  0.0 -0.1478E+02  0.3566E+00  0.1627E+00E
 ACTION:UPD 13-02-28 14:29 OP:RALL STATUS:               ID:20100801112135     I
 2010-08-01-1121-20S.PLUR1_003                                                 6
 STAT SP IPHASW D HRMM SECON CODA AMPLIT PERI AZIMU VELO AIN AR TRES W  DIS CAZ7
 LZ4  SZ E        1121 37.37                  339.3  7.8      0        7.09 159 
 LZ4  SN IP       1121 37.39                             145    0.0210 7.09 159 
 LZ4  SE IS       1121 38.94                             145   -0.0210 7.09 159 
 LZ4  SZ  AML     1121 39.84        59.2 0.12                          7.09 159 
                                                                                
 2010  8 1 1126 31.3 L  21.487 -99.318 10.0  RAL  1 0.1 0.5LRAL                1
 GAP=360        0.56     999.9   685.0  0.0  0.9803E+06  0.3566E+00  0.1627E+00E
 ACTION:UPD 13-02-28 14:29 OP:RALL STATUS:               ID:20100801112631     I
 2010-08-01-1125-02S.PLUR1_006                                                 6
 STAT SP IPHASW D HRMM SECON CODA AMPLIT PERI AZIMU VELO AIN AR TRES W  DIS CAZ7
 LA4  SZ E        1126 33.44                  292.0 14.6      1        1.01 111 
 LA4  SN IP       1126 33.46                             174    0.3110 1.01 111 
 LA4  SE IS       1126 34.19                             174   -0.3110 1.01 111 
 LA4  SZ  AML     1126 34.42        19.6 0.10                          1.01 111 
                                                                                
 2010  8 1 1131 16.6 L  21.290 -99.240 10.0  RAL  1 0.0 0.3LRAL                1
 GAP=360        0.31       6.9     4.9  0.0 -0.3357E+02  0.3566E+00  0.1627E+00E
 ACTION:UPD 13-02-28 14:29 OP:RALL STATUS:               ID:20100801113116     I
 2010-08-01-1131-10S.PLUR1_003                                                 6
 STAT SP IPHASW D HRMM SECON CODA AMPLIT PERI AZIMU VELO AIN AR TRES W  DIS CAZ7
 LZ4  SN IP       1131 18.75                             152    0.0610 5.45 326 
 LZ4  SZ E        1131 18.79                  146.4  8.8      0        5.45 326 
 LZ4  SE IS       1131 20.11                             152   -0.0610 5.45 326 
 LZ4  SZ  AML     1131 20.85         9.3 0.36                          5.45 326 
                                                                                
 2010  8 1 1154 30.0 L  21.412 -99.307 10.0  RAL  1 0.0 0.8LRAL                1
 GAP=360        0.30       6.0     0.3  0.0 -0.1063E+01  0.3566E+00  0.1627E+00E
 ACTION:UPD 13-02-28 14:29 OP:RALL STATUS:               ID:20100801115430     I
 2010-08-01-1154-23S.PLUR1_003                                                 6
 STAT SP IPHASW D HRMM SECON CODA AMPLIT PERI AZIMU VELO AIN AR TRES W  DIS CAZ7
 LA4  SZ E        1154 32.18                  178.4  8.8      0        7.96 358 
 LA4  SN IP       1154 32.22                             142    0.0010 7.96 358 
 LA4  SE IS       1154 33.87                             142    0.0010 7.96 358 
 LA4  SZ  AML     1154 34.73        30.8 0.22                          7.96 358 
                                                                                
 2010  8 1 1208 25.8 L  21.294 -99.291 10.0  RAL  1 0.0 1.0LRAL                1
 GAP=360        0.32       8.3     5.0  0.0  0.4149E+02  0.3566E+00  0.1627E+00E
 ACTION:UPD 13-02-28 14:29 OP:RALL STATUS:               ID:20100801120825     I
 2010-08-01-1208-18S.PLUR1_003                                                 6
 STAT SP IPHASW D HRMM SECON CODA AMPLIT PERI AZIMU VELO AIN AR TRES W  DIS CAZ7
 LZ4  SN IP       12 8 27.89                             156    0.0810 4.66  29 
 LZ4  SZ E        12 8 27.89                  209.3 50.9      0        4.66  29 
 LZ4  SE IS       12 8 29.19                             156   -0.0810 4.66  29 
 LZ4  SZ  AML     12 8 29.54        46.8 0.20                          4.66  29 
                                                                                
 2010  8 1 1225 32.4 L  21.299 -99.274 10.0  RAL  1 0.1 0.5LRAL                1
 GAP=360        0.57      17.6    15.9  0.0 -0.2798E+03  0.3566E+00  0.1627E+00E
 ACTION:UPD 13-02-28 14:29 OP:RALL STATUS:               ID:20100801122532     I
 2010-08-01-1225-25S.PLUR1_003                                                 6
 STAT SP IPHASW D HRMM SECON CODA AMPLIT PERI AZIMU VELO AIN AR TRES W  DIS CAZ7
 LG3  SN IP       1225 34.62                             162    0.3310 3.39 140 
 LG3  SZ E        1225 34.66                  319.8 14.3      0        3.39 140 
 LG3  SE IS       1225 35.37                             162   -0.3310 3.39 140 
 LG3  SZ  AML     1225 35.68        16.3 0.20                          3.39 140 
                                                                                
 2010  8 1 1245 20.1 L  21.102 -99.141 10.0  RAL  1 0.0 0.7LRAL                1
 GAP=360        0.30       3.5     4.3  0.0 -0.1492E+02  0.3566E+00  0.1627E+00E
 ACTION:UPD 13-02-28 14:29 OP:RALL STATUS:               ID:20100801124520     I
 2010-08-01-1245-12S.PLUR1_009                                                 6
 STAT SP IPHASW D HRMM SECON CODA AMPLIT PERI AZIMU VELO AIN AR TRES W  DIS CAZ7
 LO8  SN IP       1245 22.65                             136    0.0210 9.89 311 
 LO8  SZ E        1245 22.74                  130.5  9.5      0        9.89 311 
 LO8  SE IS       1245 24.44                             136   -0.0210 9.89 311 
 LO8  SZ  AML     1245 24.92        20.6 0.30                          9.89 311 
                                                                                
 2010  8 1 1253 23.9 L  21.201 -99.357 10.0  RAL  1 0.0-0.2LRAL                1
 GAP=360        0.31       4.1    10.3  0.0 -0.4232E+02  0.3566E+00  0.1627E+00E
 ACTION:UPD 13-02-28 14:29 OP:RALL STATUS:               ID:20100801125323     I
 2010-08-01-1253-17S.PLUR1_003                                                 6
 STAT SP IPHASW D HRMM SECON CODA AMPLIT PERI AZIMU VELO AIN AR TRES W  DIS CAZ7
 LD5  SZ E        1253 25.90                  293.2 16.0      0        4.12 113 
 LD5  SN IP       1253 25.91                             158    0.0710 4.12 113 
 LD5  SE IS       1253 27.20                             158   -0.0710 4.12 113 
 LD5  SZ  AML     1253 28.33         3.7 0.26                          4.12 113 
                                                                                
 2010  8 1 1313 37.5 L  21.408 -99.298 10.0  RAL  1 0.0 0.7LRAL                1
 GAP=360        0.30       5.7     0.8  0.0 -0.4515E+01  0.3566E+00  0.1627E+00E
 ACTION:UPD 13-02-28 14:29 OP:RALL STATUS:               ID:20100801131337     I
 2010-08-01-1313-30S.PLUR1_003                                                 6
 STAT SP IPHASW D HRMM SECON CODA AMPLIT PERI AZIMU VELO AIN AR TRES W  DIS CAZ7
 LA4  SZ E        1313 39.64                  172.6  8.4      0        8.46 353 
 LA4  SN IP       1313 39.79                             140    0.0110 8.46 353 
 LA4  SE IS       1313 41.47                             140   -0.0110 8.46 353 
 LA4  SZ  AML     1313 41.75        20.9 0.28                          8.46 353 
                                                                                
 2010  8 1 1335  4.6 L  21.416 -99.297 10.0  RAL  1 0.0 0.0LRAL                1
 GAP=360        0.30       6.1     1.1  0.0 -0.6623E+01  0.3566E+00  0.1627E+00E
 ACTION:UPD 13-02-28 14:29 OP:RALL STATUS:               ID:20100801133504     I
 2010-08-01-1334-58S.PLUR1_003                                                 6
 STAT SP IPHASW D HRMM SECON CODA AMPLIT PERI AZIMU VELO AIN AR TRES W  DIS CAZ7
 LA4  SN IP       1335  6.88                             143    0.0110 7.60 351 
 LA4  SZ E        1335  6.90                  170.5 10.8      0        7.60 351 
 LA4  SE IS       1335  8.49                             143   -0.0110 7.60 351 
 LA4  SZ  AML     1335  9.46         4.1 0.42                          7.60 351 
                                                                                
 2010  8 1 1433 15.8 L  21.168 -99.129 10.4  RAL  2 0.9 0.0LRAL                1
 GAP=348       12.99      11.1    92.4126.5  0.5795E+03 -0.1042E+04 -0.9165E+02E
 ACTION:UPD 13-02-28 14:29 OP:RALL STATUS:               ID:20100801143315     I
 2010-08-01-1433-10S.PLUR1_006                                                 6
 STAT SP IPHASW D HRMM SECON CODA AMPLIT PERI AZIMU VELO AIN AR TRES W  DIS CAZ7
 LO8  SN IP       1433 19.45                             141    1.2010 8.75 264 
 LO8  SZ E        1433 19.53                  127.3  8.7     43        8.75 264 
 LO8  SE IS       1433 21.39                             141    1.3710 8.75 264 
 LO8  SZ  AML     1433 22.02         2.7 0.10                          8.75 264 
 LD5  SZ E        1433 19.00                   51.4  9.8    -43        19.9 276 
 LD5  SN IP       1433 19.01                             115   -0.6010 19.9 276 
 LD5  SE IS       1433 20.39                             115   -1.9810 19.9 276 
 LD5  SZ  AML     1433 20.49         3.4 0.18                          19.9 276 
                                                                                
 2010  8 1 1509 58.1 L  21.411 -99.003  8.9  RAL  3 1.3 0.9LRAL                1
 GAP=338       22.48     116.4   155.0999.9  0.1634E+05 -0.1097E+06 -0.7958E+05E
 ACTION:UPD 13-02-28 14:29 OP:RALL STATUS:               ID:20100801150958     I
 2010-08-01-1509-55S.PLUR1_009                                                 6
 STAT SP IPHASW D HRMM SECON CODA AMPLIT PERI AZIMU VELO AIN AR TRES W  DIS CAZ7
 LG3  SZ E        1510  4.07                   35.9 15.6    -23        30.0 240 
 LG3  SN IP       1510  4.07                             102    0.8010 30.0 240 
 LG3  SE IS       1510  5.15                             102   -1.9210 30.0 240 
 LG3  SZ  AML     1510  6.72       135.9 0.14                          30.0 240 
 LO8  SN IP       1510  6.13                              99    2.0110 35.4 218 
 LO8  SZ E        1510  6.19                  152.2  6.4    114        35.4 218 
 LO8  SE IS       1510  9.14                              99    0.6010 35.4 218 
 LO8  SZ  AML     1510  9.43         3.9 0.18                          35.4 218 
 LD5  SZ E        1510  5.37                  358.6 10.8     54        41.3 233 
 LD5  SN IP       1510  5.41                              97    0.4110 41.3 233 
 LD5  SE IS       1510  8.15                              97   -1.9110 41.3 233 
 LD5  SZ  AML     1510  8.23         3.6 0.44                          41.3 233 
                                                                                
 2010  8 1 1534 12.1 L  21.207 -99.272 10.0  RAL  1 0.0-0.2LRAL                1
 GAP=360        0.30       3.3     7.7  0.0  0.2522E+02 -0.1097E+06 -0.7958E+05E
 ACTION:UPD 13-02-28 14:29 OP:RALL STATUS:               ID:20100801153412     I
 2010-08-01-1534-05S.PLUR1_003                                                 6
 STAT SP IPHASW D HRMM SECON CODA AMPLIT PERI AZIMU VELO AIN AR TRES W  DIS CAZ7
 LD5  SN IP       1534 14.16                             152    0.0410 5.49 246 
 LD5  SZ E        1534 14.17                   65.6 11.8      0        5.49 246 
 LD5  SE IS       1534 15.58                             152   -0.0410 5.49 246 
 LD5  SZ  AML     1534 15.67         2.9 0.18                          5.49 246 
                                                                                
 2010  8 1 1552 55.6 L  21.420 -99.295 10.0  RAL  1 0.0 0.2LRAL                1
 GAP=360        0.30       6.3     1.4  0.0 -0.8722E+01 -0.1097E+06 -0.7958E+05E
 ACTION:UPD 13-02-28 14:29 OP:RALL STATUS:               ID:20100801155255     I
 2010-08-01-1552-49S.PLUR1_003                                                 6
 STAT SP IPHASW D HRMM SECON CODA AMPLIT PERI AZIMU VELO AIN AR TRES W  DIS CAZ7
 LA4  SZ E        1552 57.78                  168.4  6.3      0        7.17 348 
 LA4  SN IP       1552 57.79                             145    0.0210 7.17 348 
 LA4  SE IS       1552 59.36                             145   -0.0210 7.17 348 
 LA4  SZ  AML     1552 59.43         7.1 0.36                          7.17 348 
                                                                                
 2010  8 1 1727 27.7 L  21.286 -99.273 10.0  RAL  1 0.2 0.5LRAL                1
 GAP=360        0.66      17.3    33.9  0.0 -0.5850E+03 -0.1097E+06 -0.7958E+05E
 ACTION:UPD 13-02-28 14:29 OP:RALL STATUS:               ID:20100801172727     I
 2010-08-01-1727-20S.PLUR1_003                                                 6
 STAT SP IPHASW D HRMM SECON CODA AMPLIT PERI AZIMU VELO AIN AR TRES W  DIS CAZ7
 LG3  SZ E        1727 29.91                  298.6  8.1      0        2.46 119 
 LG3  SN IP       1727 29.96                             167    0.4010 2.46 119 
 LG3  SE IS       1727 30.54                             167   -0.4010 2.46 119 
 LG3  SZ  AML     1727 31.16        16.9 0.24                          2.46 119 
                                                                                
 2010  8 1 1813 53.2 L  21.153 -99.212 10.0  RAL  3 1.2 0.5LRAL                1
 GAP=293       18.76      20.8    25.7136.4 -0.2749E+03  0.2629E+03 -0.2338E+03E
 ACTION:UPD 13-02-28 14:29 OP:RALL STATUS:               ID:20100801181353     I
 2010-08-01-1813-46S.PLUR1_009                                                 6
 STAT SP IPHASW D HRMM SECON CODA AMPLIT PERI AZIMU VELO AIN AR TRES W  DIS CAZ7
 LO8  SN IP       1813 56.56                             176    1.4610 0.69 355 
 LO8  SZ E        1813 56.62                  143.7  6.4    -31        0.69 355 
 LO8  SE IS       1813 58.65                             176    2.1710 0.69 355 
 LO8  SZ  AML     1813 58.83         3.4 0.28                          0.69 355 
 LD5  SN IP       1813 56.12                             135    0.2410 11.8 288 
 LD5  SZ E        1813 56.13                   57.2  9.7    -50        11.8 288 
 LD5  SE IS       1813 57.52                             135   -0.3110 11.8 288 
 LD5  SZ  AML     1813 57.79         3.9 0.10                          11.8 288 
 LG3  SN IP       1813 55.19                             128   -1.0010 14.1 343 
 LG3  SZ E        1813 55.19                  251.2 17.4     88        14.1 343 
 LG3  SE IS       1813 55.81                             128   -2.5610 14.1 343 
 LG3  SZ  AML     1813 56.42       126.4 0.24                          14.1 343 
                                                                                
 2010  8 1 1859 20.9 L  21.300 -99.235 10.0  RAL  1 0.1 1.2LRAL                1
 GAP=360        0.42      14.4    10.5  0.0  0.1506E+03  0.2629E+03 -0.2338E+03E
 ACTION:UPD 13-02-28 14:29 OP:RALL STATUS:               ID:20100801185920     I
 2010-08-01-1859-14S.PLUR1_003                                                 6
 STAT SP IPHASW D HRMM SECON CODA AMPLIT PERI AZIMU VELO AIN AR TRES W  DIS CAZ7
 LG3  SZ E        1859 23.04                   34.2 33.5      0        3.32 214 
 LG3  SN IP       1859 23.08                             162    0.2010 3.32 214 
 LG3  SE IS       1859 24.08                             162   -0.2010 3.32 214 
 LG3  SZ  AML     1859 24.36        84.8 0.10                          3.32 214 
                                                                                
 2010  8 1 1959 40.5 L  21.268 -99.263 10.0  RAL  1 0.3 0.7LRAL                1
 GAP=360        3.42     999.9   999.9  0.0 -0.5180E+08  0.2629E+03 -0.2338E+03E
 ACTION:UPD 13-02-28 14:29 OP:RALL STATUS:               ID:20100801195940     I
 2010-08-01-1959-34S.PLUR1_003                                                 6
 STAT SP IPHASW D HRMM SECON CODA AMPLIT PERI AZIMU VELO AIN AR TRES W  DIS CAZ7
 LG3  SN IP       1959 42.74                             173    0.3710 1.34  53 
 LG3  SZ E        1959 42.78                  248.6 17.3     16        1.34  53 
 LG3  SE IS       1959 43.36                             173   -0.3710 1.34  53 
 LG3  SZ  AML     1959 43.75        30.4 0.40                          1.34  53 
                                                                                
 2010  8 1 2005 45.0 L  21.500 -99.324 10.0  RAL  1 0.1 0.0LRAL                1
 GAP=360        0.64      26.8    25.3  0.0 -0.6788E+03  0.2629E+03 -0.2338E+03E
 ACTION:UPD 13-02-28 14:29 OP:RALL STATUS:               ID:20100801200545     I
 2010-08-01-2005-38S.PLUR1_003                                                 6
 STAT SP IPHASW D HRMM SECON CODA AMPLIT PERI AZIMU VELO AIN AR TRES W  DIS CAZ7
 LA4  SN IP       20 5 47.31                             167    0.3810 2.38 139 
 LA4  SZ E        20 5 47.32                  318.7  9.4      0        2.38 139 
 LA4  SE IS       20 5 47.92                             167   -0.3810 2.38 139 
 LA4  SZ  AML     20 5 48.15         4.9 0.22                          2.38 139 
                                                                                
 2010  8 1 2021 18.8 L  21.265 -99.274 10.0  RAL  1 0.2 1.3LRAL                1
 GAP=360        0.69      17.9    34.5  0.0  0.6197E+03  0.2629E+03 -0.2338E+03E
 ACTION:UPD 13-02-28 14:29 OP:RALL STATUS:               ID:20100801202118     I
 2010-08-01-2021-11S.PLUR1_003                                                 6
 STAT SP IPHASW D HRMM SECON CODA AMPLIT PERI AZIMU VELO AIN AR TRES W  DIS CAZ7
 LG3  SZ E        2021 21.13                  240.9 17.8      0        2.51  61 
 LG3  SN IP       2021 21.15                             166    0.4210 2.51  61 
 LG3  SE IS       2021 21.69                             166   -0.4210 2.51  61 
 LG3  SZ  AML     2021 21.99       110.7 0.20                          2.51  61 
                                                                                
 2010  8 1 2047 14.2 L  21.291 -99.253 10.0  RAL  1 0.2 0.8LRAL                1
 GAP=360        1.20      70.5   416.4  0.0 -0.2935E+05  0.2629E+03 -0.2338E+03E
 ACTION:UPD 13-02-28 14:29 OP:RALL STATUS:               ID:20100801204714     I
 2010-08-01-2047-07S.PLUR1_003                                                 6
 STAT SP IPHASW D HRMM SECON CODA AMPLIT PERI AZIMU VELO AIN AR TRES W  DIS CAZ7
 LG3  SZ E        2047 16.55                  352.5  6.7     -3        1.74 177 
 LG3  SN IP       2047 16.57                             171    0.4710 1.74 177 
 LG3  SE IS       2047 17.00                             171   -0.4710 1.74 177 
 LG3  SZ  AML     2047 17.12        32.4 0.10                          1.74 177 
                                                                                
