 2010  627 0837 55.8 L  21.314 -99.222 10.0  RAL  1 0.0 0.5LRAL                1
 GAP=360        0.32       6.8     5.6  0.0  0.3802E+02 -0.3479E+02  0.8027E+02E
 ACTION:UPD 12-06-08 11:37 OP:RALL STATUS:               ID:20100627083755     I
 2010-06-27-0837-48S.PLUR1_003                                                 6
 STAT SP IPHASW D HRMM SECON CODA AMPLIT PERI AZIMU VELO AIN AR TRES W  DIS CAZ7
 LG3  SZ E         837 57.96                   37.1 18.4      0        5.32 217 
 LG3  SN IP        837 57.97                             153    0.0710 5.32 217 
 LG3  SE IS        837 59.32                             153   -0.0710 5.32 217 
 LG3  SZ  AML      837 59.81        17.2 0.10                          5.32 217 
                                                                                
 2010  627 0946 37.2 L  21.280 -99.239 10.0  RAL  1 0.3 0.2LRAL                1
 GAP=360        3.45     999.9   999.9  0.0 -0.6598E+08 -0.3479E+02  0.8027E+02E
 ACTION:UPD 12-06-08 11:37 OP:RALL STATUS:               ID:20100627094637     I
 2010-06-27-0946-30S.PLUR1_003                                                 6
 STAT SP IPHASW D HRMM SECON CODA AMPLIT PERI AZIMU VELO AIN AR TRES W  DIS CAZ7
 LG3  SN IP        946 39.27                             172    0.1610 1.45 250 
 LG3  SZ E         946 39.31                   86.2 23.5     16        1.45 250 
 LG3  SE IS        946 40.31                             172   -0.1610 1.45 250 
 LG3  SZ  AML      946 40.61         8.9 0.40                          1.45 250 
                                                                                
 2010  628 0456 24.3 L  21.261 -99.623 10.0  RAL  1 0.0 1.0LRAL                1
 GAP=360        0.30       1.0     4.0  0.0  0.5959E+00 -0.3479E+02  0.8027E+02E
 ACTION:UPD 12-06-08 11:37 OP:RALL STATUS:               ID:20100628045624     I
 2010-06-28-0456-21S.PLUR1_003                                                 6
 STAT SP IPHASW D HRMM SECON CODA AMPLIT PERI AZIMU VELO AIN AR TRES W  DIS CAZ7
 LG3  SN IP        456 30.88                             100    0.0110 38.5  88 
 LG3  SZ E         456 30.90                  267.7 12.5      0        38.5  88 
 LG3  SE IS        456 35.64                             100   -0.0110 38.5  88 
 LG3  SZ  AML      456 36.34        14.9 0.26                          38.5  88 
                                                                                
