 2010  915 1708  2.1 L  21.328 -99.288 10.0  RAL  1 0.0-0.4LRAL                1
 GAP=360        0.30       5.0     2.9  0.0 -0.1423E+02 -0.7534E+01  0.2403E+02E
 ACTION:UPD 13-02-28 14:29 OP:RALL STATUS:               ID:20100915170802     I
 2010-09-15-1707-56S.PLUR1_003                                                 6
 STAT SP IPHASW D HRMM SECON CODA AMPLIT PERI AZIMU VELO AIN AR TRES W  DIS CAZ7
 LT9  SN IP       17 8  4.35                             139    0.0210 8.42 332 
 LT9  SZ E        17 8  4.36                  152.0  7.7      0        8.42 332 
 LT9  SE IS       17 8  5.96                             139   -0.0210 8.42 332 
 LT9  SZ  AML     17 8  6.26         1.7 0.26                          8.42 332 
                                                                                
 2010  915 1720 14.2 L  21.433 -99.369 43.4  RAL  2 0.0 1.1LRAL                1
 GAP=274        0.34       0.2     0.3  3.9 -0.1425E-01  0.8299E-02 -0.1540E-02E
 ACTION:UPD 13-02-28 14:29 OP:RALL STATUS:               ID:20100915172014     I
 2010-09-15-1720-11S.PLUR1_006                                                 6
 STAT SP IPHASW D HRMM SECON CODA AMPLIT PERI AZIMU VELO AIN AR TRES W  DIS CAZ7
 LT9  SZ E        1720 20.52                  313.9  8.1      0        6.09 134 
 LT9  SN IP       1720 20.52                             171   -0.1310 6.09 134 
 LT9  SE IS       1720 25.37                             171   -0.0110 6.09 134 
 LT9  SZ  AML     1720 28.43         4.8 0.20                          6.09 134 
 LA4  SZ E        1720 20.86                  228.1 23.7      0        8.32  48 
 LA4  SN IP       1720 20.90                             168    0.1310 8.32  48 
 LA4  SE IS       1720 25.60                             168    0.0110 8.32  48 
 LA4  SZ  AML     1720 27.34        68.7 0.70                          8.32  48 
                                                                                
 2010  915 1850 49.3 L  21.209 -99.180  0.0  RAL  2 0.1 1.2LRAL                1
 GAP=347        0.95      11.3     7.5429.3 -0.8177E+02 -0.2702E+04  0.4169E+04E
 ACTION:UPD 13-02-28 14:29 OP:RALL STATUS:               ID:20100915185049     I
 2010-09-15-1850-43S.PLUR1_006                                                 6
 STAT SP IPHASW D HRMM SECON CODA AMPLIT PERI AZIMU VELO AIN AR TRES W  DIS CAZ7
 LT9  SZ E        1850 53.78                  145.8  9.0      2        25.6 324 
 LT9  SN IP       1850 53.80                              92    0.0710 25.6 324 
 LT9  SE IS       1850 56.65                              92   -0.3510 25.6 324 
 LT9  SZ  AML     1850 58.53        17.1 0.36                          25.6 324 
 LA4  SZ E        1850 55.25                  153.1  6.5     -2        33.2 336 
 LA4  SN IP       1850 55.34                              92    0.2810 33.2 336 
 LA4  SE IS       1850 59.29                              92   -0.0110 33.2 336 
 LA4  SZ  AML     1851  1.20        63.2 0.78                          33.2 336 
                                                                                
 2010  915 1858 20.7 L  21.242 -99.214 10.0  RAL  1 0.0 0.0LRAL                1
 GAP=360        0.30       3.3     2.5  0.0 -0.7828E+01 -0.2702E+04  0.4169E+04E
 ACTION:UPD 13-02-28 14:29 OP:RALL STATUS:               ID:20100915185820     I
 2010-09-15-1858-17S.PLUR1_003                                                 6
 STAT SP IPHASW D HRMM SECON CODA AMPLIT PERI AZIMU VELO AIN AR TRES W  DIS CAZ7
 LT9  SZ E        1858 24.54                  145.4  8.5      0        20.6 325 
 LT9  SN IP       1858 24.54                             112    0.0010 20.6 325 
 LT9  SE IS       1858 27.32                             112    0.0010 20.6 325 
 LT9  SZ  AML     1858 28.67         2.8 0.44                          20.6 325 
                                                                                
 2010  916 0054 48.6 L  21.184 -99.331 10.0  RAL  1 0.0 0.2LRAL                1
 GAP=360        0.30       3.9     0.7  0.0  0.3354E+00 -0.2702E+04  0.4169E+04E
 ACTION:UPD 13-02-28 14:29 OP:RALL STATUS:               ID:20100916005448     I
 2010-09-16-0054-46S.PLUR1_003                                                 6
 STAT SP IPHASW D HRMM SECON CODA AMPLIT PERI AZIMU VELO AIN AR TRES W  DIS CAZ7
 LT9  SN IP        054 52.87                             109    0.0110 23.4   1 
 LT9  SZ E         054 52.91                  181.2 10.0      0        23.4   1 
 LT9  SE IS        054 55.94                             109   -0.0110 23.4   1 
 LT9  SZ  AML      054 55.99         3.8 0.38                          23.4   1 
                                                                                
 2010  916 0140 36.1 L  21.289 -99.279 10.0  RAL  1 0.0-0.3LRAL                1
 GAP=360        0.30       4.2     1.9  0.0 -0.7953E+01 -0.2702E+04  0.4169E+04E
 ACTION:UPD 13-02-28 14:29 OP:RALL STATUS:               ID:20100916014036     I
 2010-09-16-0140-31S.PLUR1_003                                                 6
 STAT SP IPHASW D HRMM SECON CODA AMPLIT PERI AZIMU VELO AIN AR TRES W  DIS CAZ7
 LT9  SN IP        140 38.91                             126    0.0110 12.7 337 
 LT9  SZ E         140 39.00                  157.3  9.3      0        12.7 337 
 LT9  SE IS        140 40.90                             126   -0.0110 12.7 337 
 LT9  SZ  AML      140 41.27         1.9 0.26                          12.7 337 
                                                                                
 2010  916 0224 26.6 L  21.309 -99.303 10.0  RAL  1 0.0-0.2LRAL                1
 GAP=360        0.30       5.0     1.4  0.0 -0.6776E+01 -0.2702E+04  0.4169E+04E
 ACTION:UPD 13-02-28 14:29 OP:RALL STATUS:               ID:20100916022426     I
 2010-09-16-0224-20S.PLUR1_003                                                 6
 STAT SP IPHASW D HRMM SECON CODA AMPLIT PERI AZIMU VELO AIN AR TRES W  DIS CAZ7
 LT9  SZ E         224 28.99                  165.8  6.6      0        9.84 346 
 LT9  SN IP        224 29.01                             134    0.0110 9.84 346 
 LT9  SE IS        224 30.75                             134   -0.0110 9.84 346 
 LT9  SZ  AML      224 32.57         2.4 0.26                          9.84 346 
                                                                                
 2010  916 0504 14.2 L  21.279 -99.320 10.0  RAL  1 0.0-0.1LRAL                1
 GAP=360        0.30       4.5     0.4  0.0 -0.1079E+01 -0.2702E+04  0.4169E+04E
 ACTION:UPD 13-02-28 14:29 OP:RALL STATUS:               ID:20100916050414     I
 2010-09-16-0504-09S.PLUR1_003                                                 6
 STAT SP IPHASW D HRMM SECON CODA AMPLIT PERI AZIMU VELO AIN AR TRES W  DIS CAZ7
 LT9  SN IP        5 4 16.97                             126    0.0010 12.9 357 
 LT9  SZ E         5 4 17.00                  177.2  8.7      0        12.9 357 
 LT9  SE IS        5 4 18.99                             126    0.0010 12.9 357 
 LT9  SZ  AML      5 4 20.08         2.6 0.24                          12.9 357 
                                                                                
 2010  916 0711 52.4 L  21.369 -99.319 10.0  RAL  1 0.0 0.1LRAL                1
 GAP=360        0.31      13.4     3.7  0.0 -0.4978E+02 -0.2702E+04  0.4169E+04E
 ACTION:UPD 13-02-28 14:29 OP:RALL STATUS:               ID:20100916071152     I
 2010-09-16-0711-45S.PLUR1_003                                                 6
 STAT SP IPHASW D HRMM SECON CODA AMPLIT PERI AZIMU VELO AIN AR TRES W  DIS CAZ7
 LT9  SN IP        711 54.31                             164    0.0710 2.95 346 
 LT9  SZ E         711 54.32                  165.6  9.6      0        2.95 346 
 LT9  SE IS        711 55.51                             164   -0.0710 2.95 346 
 LT9  SZ  AML      711 56.09         6.2 0.10                          2.95 346 
                                                                                
 2010  916 1007  0.7 L  21.405 -99.345 10.0  RAL  1 0.1-0.5LRAL                1
 GAP=360        0.61      16.3    32.5  0.0 -0.5308E+03 -0.2702E+04  0.4169E+04E
 ACTION:UPD 13-02-28 14:29 OP:RALL STATUS:               ID:20100916100700     I
 2010-09-16-1006-53S.PLUR1_003                                                 6
 STAT SP IPHASW D HRMM SECON CODA AMPLIT PERI AZIMU VELO AIN AR TRES W  DIS CAZ7
 LT9  SN IP       10 7  2.85                             167    0.3610 2.26 118 
 LT9  SZ E        10 7  2.87                  298.3  8.4      0        2.26 118 
 LT9  SE IS       10 7  3.46                             167   -0.3610 2.26 118 
 LT9  SZ  AML     10 7  3.56         1.9 0.14                          2.26 118 
                                                                                
 2010  916 1534 49.3 L  21.406 -99.346 10.0  RAL  1 0.2-0.7LRAL                1
 GAP=360        0.71      19.5    36.8  0.0 -0.7154E+03 -0.2702E+04  0.4169E+04E
 ACTION:UPD 13-02-28 14:29 OP:RALL STATUS:               ID:20100916153449     I
 2010-09-16-1534-42S.PLUR1_003                                                 6
 STAT SP IPHASW D HRMM SECON CODA AMPLIT PERI AZIMU VELO AIN AR TRES W  DIS CAZ7
 LT9  SZ E        1534 51.50                  299.6 13.4      0        2.30 120 
 LT9  SN IP       1534 51.51                             167    0.4310 2.30 120 
 LT9  SE IS       1534 51.97                             167   -0.4310 2.30 120 
 LT9  SZ  AML     1534 52.08         1.2 0.24                          2.30 120 
                                                                                
 2010  916 1751 41.9 L  21.356 -99.307 10.0  RAL  1 0.0-0.3LRAL                1
 GAP=360        0.31       8.0     3.8  0.0 -0.3048E+02 -0.2702E+04  0.4169E+04E
 ACTION:UPD 13-02-28 14:29 OP:RALL STATUS:               ID:20100916175141     I
 2010-09-16-1751-35S.PLUR1_003                                                 6
 STAT SP IPHASW D HRMM SECON CODA AMPLIT PERI AZIMU VELO AIN AR TRES W  DIS CAZ7
 LT9  SZ E        1751 43.89                  155.9  8.7      0        4.82 336 
 LT9  SN IP       1751 43.91                             154    0.0510 4.82 336 
 LT9  SE IS       1751 45.23                             154   -0.0510 4.82 336 
 LT9  SZ  AML     1751 45.80         2.8 0.10                          4.82 336 
                                                                                
 2010  916 2319 45.5 L  21.763 -99.649 10.0  RAL  1 0.0 0.7LRAL                1
 GAP=360        0.30       3.0     2.8  0.0 -0.6359E+01 -0.2702E+04  0.4169E+04E
 ACTION:UPD 13-02-28 14:29 OP:RALL STATUS:               ID:20100916231945     I
 2010-09-16-2319-44S.PLUR1_003                                                 6
 STAT SP IPHASW D HRMM SECON CODA AMPLIT PERI AZIMU VELO AIN AR TRES W  DIS CAZ7
 LT9  SN IP       2319 54.17                              97    0.0110 52.6 141 
 LT9  SZ E        2319 54.20                  320.7 11.2      0        52.6 141 
 LT9  SE IS       2320  0.48                              97   -0.0110 52.6 141 
 LT9  SZ  AML     2320  2.33         5.7 0.60                          52.6 141 
                                                                                
 2010  917 0238 29.4 L  21.549 -99.352 10.0  RAL  1 0.0 0.9LRAL                1
 GAP=360        0.30       4.9     3.2  0.0 -0.1576E+02 -0.2702E+04  0.4169E+04E
 ACTION:UPD 13-02-28 14:29 OP:RALL STATUS:               ID:20100917023829     I
 2010-09-17-0238-22S.PLUR1_003                                                 6
 STAT SP IPHASW D HRMM SECON CODA AMPLIT PERI AZIMU VELO AIN AR TRES W  DIS CAZ7
 LA4  SN IP        238 31.77                             140    0.0210 8.50 149 
 LA4  SZ E         238 31.84                  328.8  8.9      0        8.50 149 
 LA4  SE IS        238 33.42                             140   -0.0210 8.50 149 
 LA4  SZ  AML      238 34.98        36.7 0.24                          8.50 149 
                                                                                
 2010  917 0248 50.7 L  21.327 -99.273 10.0  RAL  1 0.0-0.2LRAL                1
 GAP=360        0.30       4.3     3.4  0.0 -0.1448E+02 -0.2702E+04  0.4169E+04E
 ACTION:UPD 13-02-28 14:29 OP:RALL STATUS:               ID:20100917024850     I
 2010-09-17-0248-44S.PLUR1_003                                                 6
 STAT SP IPHASW D HRMM SECON CODA AMPLIT PERI AZIMU VELO AIN AR TRES W  DIS CAZ7
 LT9  SN IP        248 53.06                             136    0.0210 9.35 324 
 LT9  SZ E         248 53.10                  143.8 11.4      0        9.35 324 
 LT9  SE IS        248 54.74                             136   -0.0210 9.35 324 
 LT9  SZ  AML      248 56.43         2.5 0.28                          9.35 324 
                                                                                
 2010  917 1011 47.8 L  21.370 -99.321 10.0  RAL  1 0.0 0.1LRAL                1
 GAP=360        0.30      13.6     2.8  0.0 -0.3793E+02 -0.2702E+04  0.4169E+04E
 ACTION:UPD 13-02-28 14:29 OP:RALL STATUS:               ID:20100917101147     I
 2010-09-17-1011-40S.PLUR1_003                                                 6
 STAT SP IPHASW D HRMM SECON CODA AMPLIT PERI AZIMU VELO AIN AR TRES W  DIS CAZ7
 LT9  SN IP       1011 49.68                             164    0.0410 2.83 349 
 LT9  SZ E        1011 49.69                  169.2  6.9      0        2.83 349 
 LT9  SE IS       1011 50.94                             164   -0.0410 2.83 349 
 LT9  SZ  AML     1011 52.44         6.8 0.36                          2.83 349 
                                                                                
 2010  917 1146 57.2 L  21.362 -99.249 10.0  RAL  1 0.0 0.1LRAL                1
 GAP=360        0.30       4.0     2.0  0.0 -0.7761E+01 -0.2702E+04  0.4169E+04E
 ACTION:UPD 13-02-28 14:29 OP:RALL STATUS:               ID:20100917114657     I
 2010-09-17-1146-49S.PLUR1_006                                                 6
 STAT SP IPHASW D HRMM SECON CODA AMPLIT PERI AZIMU VELO AIN AR TRES W  DIS CAZ7
 LA4  SZ E        1147  0.25                  155.1  7.5      0        14.9 335 
 LA4  SN IP       1147  0.28                             122    0.0110 14.9 335 
 LA4  SE IS       1147  2.51                             122   -0.0110 14.9 335 
 LA4  SZ  AML     1147  3.14         4.4 0.20                          14.9 335 
                                                                                
 2010  917 1448 18.0 L  21.277 -99.232 10.0  RAL  1 0.0 0.7LRAL                1
 GAP=360        0.30       3.4     2.7  0.0 -0.8981E+01 -0.2702E+04  0.4169E+04E
 ACTION:UPD 13-02-28 14:29 OP:RALL STATUS:               ID:20100917144818     I
 2010-09-17-1448-11S.PLUR1_003                                                 6
 STAT SP IPHASW D HRMM SECON CODA AMPLIT PERI AZIMU VELO AIN AR TRES W  DIS CAZ7
 LT9  SN IP       1448 21.21                             118    0.0110 16.4 323 
 LT9  SZ E        1448 21.30                  143.4  7.8      0        16.4 323 
 LT9  SE IS       1448 23.55                             118   -0.0110 16.4 323 
 LT9  SZ  AML     1448 24.69        14.7 0.64                          16.4 323 
                                                                                
 2010  917 1553 15.6 L  21.551 -99.318 10.0  RAL  1 0.0 0.5LRAL                1
 GAP=360        0.30       6.2     0.9  0.0 -0.5069E+01 -0.2702E+04  0.4169E+04E
 ACTION:UPD 13-02-28 14:29 OP:RALL STATUS:               ID:20100917155315     I
 2010-09-17-1553-09S.PLUR1_003                                                 6
 STAT SP IPHASW D HRMM SECON CODA AMPLIT PERI AZIMU VELO AIN AR TRES W  DIS CAZ7
 LA4  SZ E        1553 17.77                  352.9  7.5      0        7.52 173 
 LA4  SN IP       1553 17.88                             143    0.0110 7.52 173 
 LA4  SE IS       1553 19.49                             143   -0.0110 7.52 173 
 LA4  SZ  AML     1553 19.54        14.1 0.26                          7.52 173 
                                                                                
 2010  918 0633 15.6 L  21.324 -99.307 10.0  RAL  1 0.0 0.0LRAL                1
 GAP=360        0.30       5.6     1.5  0.0 -0.8367E+01 -0.2702E+04  0.4169E+04E
 ACTION:UPD 13-02-28 14:29 OP:RALL STATUS:               ID:20100918063315     I
 2010-09-18-0633-09S.PLUR1_003                                                 6
 STAT SP IPHASW D HRMM SECON CODA AMPLIT PERI AZIMU VELO AIN AR TRES W  DIS CAZ7
 LT9  SZ E         633 17.83                  165.9  7.2      0        8.19 346 
 LT9  SN IP        633 17.84                             140    0.0110 8.19 346 
 LT9  SE IS        633 19.44                             140   -0.0110 8.19 346 
 LT9  SZ  AML      633 21.49         4.4 0.72                          8.19 346 
                                                                                
 2010  918 0852 24.3 L  21.390 -99.321 10.0  RAL  1 0.6-0.6LRAL                1
 GAP=360        7.58     999.9   494.4  0.0  0.9917E+06 -0.2702E+04  0.4169E+04E
 ACTION:UPD 13-02-28 14:29 OP:RALL STATUS:               ID:20100918085224     I
 2010-09-18-0852-16S.PLUR1_003                                                 6
 STAT SP IPHASW D HRMM SECON CODA AMPLIT PERI AZIMU VELO AIN AR TRES W  DIS CAZ7
 LT9  SZ E         852 26.60                  101.9  9.7    -35        0.81 318 
 LT9  SN IP        852 26.61                             175    0.5710 0.81 318 
 LT9  SE IS        852 26.76                             175   -0.5710 0.81 318 
 LT9  SZ  AML      852 26.86         1.3 0.18                          0.81 318 
                                                                                
 2010  918 0931 26.9 L  21.371 -99.315 10.0  RAL  1 0.1 0.1LRAL                1
 GAP=360        0.35      14.4     6.8  0.0 -0.9768E+02 -0.2702E+04  0.4169E+04E
 ACTION:UPD 13-02-28 14:29 OP:RALL STATUS:               ID:20100918093126     I
 2010-09-18-0931-19S.PLUR1_003                                                 6
 STAT SP IPHASW D HRMM SECON CODA AMPLIT PERI AZIMU VELO AIN AR TRES W  DIS CAZ7
 LT9  SZ E         931 28.82                  156.2  7.6      0        2.94 336 
 LT9  SN IP        931 28.83                             164    0.1310 2.94 336 
 LT9  SE IS        931 29.91                             164   -0.1310 2.94 336 
 LT9  SZ  AML      931 31.08         6.5 0.12                          2.94 336 
                                                                                
 2010  918 1016 32.9 L  21.378 -99.323 10.0  RAL  1 0.0 0.3LRAL                1
 GAP=360        0.32      20.3     3.7  0.0 -0.7567E+02 -0.2702E+04  0.4169E+04E
 ACTION:UPD 13-02-28 14:29 OP:RALL STATUS:               ID:20100918101632     I
 2010-09-18-1016-26S.PLUR1_003                                                 6
 STAT SP IPHASW D HRMM SECON CODA AMPLIT PERI AZIMU VELO AIN AR TRES W  DIS CAZ7
 LT9  SZ E        1016 34.76                  170.3  7.4      0        1.95 350 
 LT9  SN IP       1016 34.79                             169    0.0710 1.95 350 
 LT9  SE IS       1016 35.96                             169   -0.0710 1.95 350 
 LT9  SZ  AML     1016 36.82        11.9 0.36                          1.95 350 
                                                                                
