 2010  8 2 0630 39.2 L  21.335 -99.283 10.0  RAL  1 0.2 0.7LRAL                1
 GAP=360        1.59     337.9   278.7  0.0  0.9417E+05  0.1742E+05  0.5561E+06E
 ACTION:UPD 13-02-28 14:29 OP:RALL STATUS:               ID:20100802063039     I
 2010-08-02-0630-32S.PLUR1_003                                                 6
 STAT SP IPHASW D HRMM SECON CODA AMPLIT PERI AZIMU VELO AIN AR TRES W  DIS CAZ7
 LZ4  SZ E         630 41.47                  281.7 30.5     -6        1.48 108 
 LZ4  SN IP        630 41.47                             172    0.4410 1.48 108 
 LZ4  SE IS        630 41.93                             172   -0.4410 1.48 108 
 LZ4  SZ  AML      630 42.22        30.4 0.18                          1.48 108 
                                                                                
 2010  8 2 0634 44.2 L  21.256 -99.267 10.0  RAL  1 0.2 0.8LRAL                1
 GAP=360        0.66      27.3    20.4  0.0  0.5576E+03  0.1742E+05  0.5561E+06E
 ACTION:UPD 13-02-28 14:29 OP:RALL STATUS:               ID:20100802063444     I
 2010-08-02-0634-25S.PLUR1_003                                                 6
 STAT SP IPHASW D HRMM SECON CODA AMPLIT PERI AZIMU VELO AIN AR TRES W  DIS CAZ7
 LG3  SN IP        634 46.47                             166    0.4010 2.66  35 
 LG3  SZ E         634 46.48                  214.9 21.2      0        2.66  35 
 LG3  SE IS        634 47.06                             166   -0.4010 2.66  35 
 LG3  SZ  AML      634 47.14        36.3 0.10                          2.66  35 
                                                                                
 2010  8 2  639 40.9 L                       RAL  1                            1
 ACTION:UPD 13-02-28 14:29 OP:RALL STATUS:               ID:20100802063940     I
 2010-08-02-0639-40S.PLUR1_003                                                 6
 STAT SP IPHASW D HRMM SECON CODA AMPLIT PERI AZIMU VELO AIN AR TRES W  DIS CAZ7
 LA4  SZ E         639 50.57                  285.3 15.7                        
 LA4  SE IS        639 51.00                                                    
 LA4  SN IP        639 51.01                                                    
 LA4  SZ  AML      639 51.11        31.6 0.20                                   
                                                                                
 2010  8 2 0652 18.4 L  21.256 -99.275 10.0  RAL  1 0.1 0.1LRAL                1
 GAP=360        0.55      16.3    18.8  0.0  0.3062E+03  0.1742E+05  0.5561E+06E
 ACTION:UPD 13-02-28 14:29 OP:RALL STATUS:               ID:20100802065218     I
 2010-08-02-0652-12S.PLUR1_003                                                 6
 STAT SP IPHASW D HRMM SECON CODA AMPLIT PERI AZIMU VELO AIN AR TRES W  DIS CAZ7
 LG3  SN IP        652 20.59                             163    0.3210 3.14  47 
 LG3  SZ E         652 20.59                  227.2 13.9      0        3.14  47 
 LG3  SE IS        652 21.36                             163   -0.3210 3.14  47 
 LG3  SZ  AML      652 21.63         7.6 0.28                          3.14  47 
                                                                                
 2010  8 2 0701 49.8 L  21.275 -99.260 10.0  RAL  2 0.4 0.4LRAL                1
 GAP=236        7.71      29.8    23.8 68.9  0.6424E+03  0.6053E+03  0.7817E+03E
 ACTION:UPD 13-02-28 14:29 OP:RALL STATUS:               ID:20100802070149     I
 2010-08-02-0701-36S.PLUR1_009                                                 6
 STAT SP IPHASW D HRMM SECON CODA AMPLIT PERI AZIMU VELO AIN AR TRES W  DIS CAZ7
 LG3  SN IP        7 1 51.94                             176    0.3210 0.73  88 
 LG3  SZ E         7 1 51.95                  291.6 19.9     23        0.73  88 
 LG3  SE IS        7 1 52.62                             176   -0.3610 0.73  88 
 LG3  SZ  AML      7 1 52.78        59.2 0.10                          0.73  88 
 LD5  SN IP        7 1 52.74                             130    0.3110 11.7 213 
 LD5  SZ E         7 1 52.85                   62.0 11.7     29        11.7 213 
 LD5  SE IS        7 1 54.10                             130   -0.2710 11.7 213 
 LD5  SZ  AML      7 1 54.30         2.7 0.10                          11.7 213 
                                                                                
 2010  8 2 0707 30.6 L  21.267 -99.273 10.0  RAL  1 0.1 0.5LRAL                1
 GAP=360        0.50      12.4    28.1  0.0  0.3485E+03  0.6053E+03  0.7817E+03E
 ACTION:UPD 13-02-28 14:29 OP:RALL STATUS:               ID:20100802070730     I
 2010-08-02-0707-24S.PLUR1_003                                                 6
 STAT SP IPHASW D HRMM SECON CODA AMPLIT PERI AZIMU VELO AIN AR TRES W  DIS CAZ7
 LG3  SN IP        7 7 32.80                             167    0.2710 2.31  65 
 LG3  SZ E         7 7 32.90                  244.7 17.8      0        2.31  65 
 LG3  SE IS        7 7 33.63                             167   -0.2710 2.31  65 
 LG3  SZ  AML      7 7 33.82        18.6 0.20                          2.31  65 
                                                                                
 2010  8 2 0713 40.9 L  21.443 -99.246 10.0  RAL  3 1.7 0.9LRAL                1
 GAP=339       31.16     215.9    45.2640.6  0.3214E+04 -0.4581E+04 -0.6527E+05E
 ACTION:UPD 13-02-28 14:29 OP:RALL STATUS:               ID:20100802071340     I
 2010-08-02-0713-19S.PLUR1_012                                                 6
 STAT SP IPHASW D HRMM SECON CODA AMPLIT PERI AZIMU VELO AIN AR TRES W  DIS CAZ7
 LG3  SZ E         713 45.66                  270.1 20.4     92        18.6 182 
 LG3  SN IP        713 45.68                             111    1.2510 18.6 182 
 LG3  SE IS        713 46.19                             111   -0.8610 18.6 182 
 LG3  SZ  AML      713 46.84       382.9 0.10                          18.6 182 
 LD5  SZ E         713 46.81                   56.8 10.5     42        29.5 195 
 LD5  SN IP        713 46.90                             102    0.8910 29.5 195 
 LD5  SE IS        713 48.46                             102   -1.3210 29.5 195 
 LD5  SZ  AML      713 48.68         3.5 0.26                          29.5 195 
 LO8  SN IP        713 47.22                             101    0.8610 31.6 174 
 LO8  SZ E         713 47.24                  142.3  5.7    149        31.6 174 
 LO8  SE IS        713 49.58                             101   -0.8110 31.6 174 
 LO8  SZ  AML      713 49.79         3.0 0.18                          31.6 174 
                                                                                
 2010  8 2 0733 24.8 L  21.409 -99.367 10.0  RAL  1 0.0 0.0LRAL                1
 GAP=360        0.30       4.2     3.3  0.0  0.1355E+02 -0.4581E+04 -0.6527E+05E
 ACTION:UPD 13-02-28 14:29 OP:RALL STATUS:               ID:20100802073324     I
 2010-08-02-0733-19S.PLUR1_003                                                 6
 STAT SP IPHASW D HRMM SECON CODA AMPLIT PERI AZIMU VELO AIN AR TRES W  DIS CAZ7
 LA4  SN IP        733 27.29                             134    0.0110 10.2  36 
 LA4  SZ E         733 27.32                  216.2 11.1      0        10.2  36 
 LA4  SE IS        733 29.09                             134   -0.0110 10.2  36 
 LA4  SZ  AML      733 30.45         4.0 0.30                          10.2  36 
                                                                                
 2010  8 2 0822 13.9 L  21.368 -99.327 10.0  RAL  1 0.0 1.0LRAL                1
 GAP=360        0.30       4.6     0.8  0.0  0.3264E+01 -0.4581E+04 -0.6527E+05E
 ACTION:UPD 13-02-28 14:29 OP:RALL STATUS:               ID:20100802082213     I
 2010-08-02-0822-06S.PLUR1_009                                                 6
 STAT SP IPHASW D HRMM SECON CODA AMPLIT PERI AZIMU VELO AIN AR TRES W  DIS CAZ7
 LA4  SN IP        822 16.75                             127    0.0010 12.9   8 
 LA4  SZ E         822 16.76                  188.4  7.9      0        12.9   8 
 LA4  SE IS        822 18.81                             127    0.0010 12.9   8 
 LA4  SZ  AML      822 20.76        34.4 0.52                          12.9   8 
                                                                                
 2010  8 2 0830 50.1 L  21.298 -99.243 10.0  RAL  1 0.0 1.9LRAL                1
 GAP=360        0.34       8.4     6.8  0.0 -0.5695E+02 -0.4581E+04 -0.6527E+05E
 ACTION:UPD 13-02-28 14:29 OP:RALL STATUS:               ID:20100802083050     I
 2010-08-02-0830-42S.PLUR1_003                                                 6
 STAT SP IPHASW D HRMM SECON CODA AMPLIT PERI AZIMU VELO AIN AR TRES W  DIS CAZ7
 LZ4  SN IP        830 52.16                             156    0.1110 4.50 323 
 LZ4  SZ E         830 52.22                  143.0 10.3      0        4.50 323 
 LZ4  SE IS        830 53.38                             156   -0.1110 4.50 323 
 LZ4  SZ  AML      830 54.11       400.0 0.20                          4.50 323 
                                                                                
 2010  8 2 0904 39.3 L  21.254 -99.268 10.0  RAL  1 0.1 0.7LRAL                1
 GAP=360        0.57      21.8    15.8  0.0  0.3439E+03 -0.4581E+04 -0.6527E+05E
 ACTION:UPD 13-02-28 14:29 OP:RALL STATUS:               ID:20100802090439     I
 2010-08-02-0904-32S.PLUR1_003                                                 6
 STAT SP IPHASW D HRMM SECON CODA AMPLIT PERI AZIMU VELO AIN AR TRES W  DIS CAZ7
 LG3  SN IP        9 4 41.59                             164    0.3310 2.92  34 
 LG3  SZ E         9 4 41.77                  214.1 14.2      0        2.92  34 
 LG3  SE IS        9 4 42.33                             164   -0.3310 2.92  34 
 LG3  SZ  AML      9 4 42.46        24.8 0.44                          2.92  34 
                                                                                
 2010  8 2 0923 54.3 L  21.256 -99.265 10.0  RAL  1 0.2 0.7LRAL                1
 GAP=360        0.67      30.5    18.9  0.0  0.5767E+03 -0.4581E+04 -0.6527E+05E
 ACTION:UPD 13-02-28 14:29 OP:RALL STATUS:               ID:20100802092354     I
 2010-08-02-0923-46S.PLUR1_003                                                 6
 STAT SP IPHASW D HRMM SECON CODA AMPLIT PERI AZIMU VELO AIN AR TRES W  DIS CAZ7
 LG3  SZ E         923 56.56                  210.1 15.5      0        2.55  30 
 LG3  SN IP        923 56.59                             166    0.4110 2.55  30 
 LG3  SE IS        923 57.16                             166   -0.4110 2.55  30 
 LG3  SZ  AML      923 57.27        30.3 0.10                          2.55  30 
                                                                                
 2010  8 2 0932 36.2 L  21.291 -99.257 10.0  RAL  1 0.1 0.7LRAL                1
 GAP=360        1.08     999.9   999.9  0.0  0.5646E+07 -0.4581E+04 -0.6527E+05E
 ACTION:UPD 13-02-28 14:29 OP:RALL STATUS:               ID:20100802093236     I
 2010-08-02-0932-28S.PLUR1_003                                                 6
 STAT SP IPHASW D HRMM SECON CODA AMPLIT PERI AZIMU VELO AIN AR TRES W  DIS CAZ7
 LG3  SN IP        932 38.32                             170    0.2610 1.78 165 
 LG3  SZ E         932 38.35                  340.5 18.0     -4        1.78 165 
 LG3  SE IS        932 39.17                             170   -0.2610 1.78 165 
 LG3  SZ  AML      932 39.19        26.8 0.10                          1.78 165 
                                                                                
 2010  8 2 1021 16.3 L  21.340 -99.292 10.0  RAL  1 0.1 1.1LRAL                1
 GAP=360        0.48      10.6    24.5  0.0 -0.2608E+03 -0.4581E+04 -0.6527E+05E
 ACTION:UPD 13-02-28 14:29 OP:RALL STATUS:               ID:20100802102116     I
 2010-08-02-1021-09S.PLUR1_003                                                 6
 STAT SP IPHASW D HRMM SECON CODA AMPLIT PERI AZIMU VELO AIN AR TRES W  DIS CAZ7
 LZ4  SZ E        1021 18.38                  295.0 33.2      0        2.52 115 
 LZ4  SN IP       1021 18.43                             166    0.2610 2.52 115 
 LZ4  SE IS       1021 19.29                             166   -0.2610 2.52 115 
 LZ4  SZ  AML     1021 19.67        70.9 0.10                          2.52 115 
                                                                                
 2010  8 2 1046 14.3 L  21.433 -99.275 10.0  RAL  1 0.0 1.9LRAL                1
 GAP=360        0.30       4.9     0.4  0.0 -0.1195E+01 -0.4581E+04 -0.6527E+05E
 ACTION:UPD 13-02-28 14:29 OP:RALL STATUS:               ID:20100802104614     I
 2010-08-02-1046-07S.PLUR1_003                                                 6
 STAT SP IPHASW D HRMM SECON CODA AMPLIT PERI AZIMU VELO AIN AR TRES W  DIS CAZ7
 LZ4  SZ E        1046 16.89                  357.3 12.4      0        11.3 177 
 LZ4  SN IP       1046 16.93                             131    0.0010 11.3 177 
 LZ4  SE IS       1046 18.84                             131    0.0010 11.3 177 
 LZ4  SZ  AML     1046 19.17       324.9 0.16                          11.3 177 
                                                                                
 2010  8 2 1128  2.6 L  21.287 -99.216 10.0  RAL  1 0.0 0.9LRAL                1
 GAP=360        0.30       4.1     5.1  0.0 -0.2111E+02 -0.4581E+04 -0.6527E+05E
 ACTION:UPD 13-02-28 14:29 OP:RALL STATUS:               ID:20100802112802     I
 2010-08-02-1127-55S.PLUR1_003                                                 6
 STAT SP IPHASW D HRMM SECON CODA AMPLIT PERI AZIMU VELO AIN AR TRES W  DIS CAZ7
 LZ4  SZ E        1128  4.77                  130.7 16.8      0        7.38 311 
 LZ4  SN IP       1128  4.80                             144    0.0310 7.38 311 
 LZ4  SE IS       1128  6.35                             144   -0.0310 7.38 311 
 LZ4  SZ  AML     1128  6.58        32.9 0.42                          7.38 311 
                                                                                
 2010  8 2 1158 57.1 L  21.270 -99.268 10.0  RAL  2 0.6 0.5LRAL                1
 GAP=220       11.16      27.4    20.8 99.8  0.4520E+03  0.4587E+03  0.6472E+03E
 ACTION:UPD 13-02-28 14:29 OP:RALL STATUS:               ID:20100802115857     I
 2010-08-02-1158-50S.PLUR1_009                                                 6
 STAT SP IPHASW D HRMM SECON CODA AMPLIT PERI AZIMU VELO AIN AR TRES W  DIS CAZ7
 LG3  SN IP       1158 59.15                             170    0.1510 1.75  70 
 LG3  SZ E        1158 59.16                  267.7 16.3     17        1.75  70 
 LG3  SE IS       1158 59.92                             170   -0.4510 1.75  70 
 LG3  SZ  AML     1159  0.62        62.5 0.26                          1.75  70 
 LD5  SZ E        1158 60.00                   81.8  9.8     52        10.7 210 
 LD5  SN IP       1159  0.05                             133    0.3710 10.7 210 
 LD5  SE IS       1159  1.47                             133   -0.0710 10.7 210 
 LD5  SZ  AML     1159  1.64         3.0 0.24                          10.7 210 
                                                                                
 2010  8 2 1208 35.2 L  21.301 -99.218 10.0  RAL  1 0.0 1.1LRAL                1
 GAP=360        0.30       3.8     6.5  0.0 -0.2479E+02  0.4587E+03  0.6472E+03E
 ACTION:UPD 13-02-28 14:29 OP:RALL STATUS:               ID:20100802120835     I
 2010-08-02-1208-27S.PLUR1_003                                                 6
 STAT SP IPHASW D HRMM SECON CODA AMPLIT PERI AZIMU VELO AIN AR TRES W  DIS CAZ7
 LZ4  SZ E        12 8 37.37                  122.3 13.9      0        6.27 302 
 LZ4  SN IP       12 8 37.38                             148    0.0410 6.27 302 
 LZ4  SE IS       12 8 38.84                             148   -0.0410 6.27 302 
 LZ4  SZ  AML     12 8 39.43        59.3 0.10                          6.27 302 
                                                                                
 2010  8 2 1214 54.9 L  21.339 -99.298 10.0  RAL  1 0.0-0.3LRAL                1
 GAP=360        0.30       3.6     1.8  0.0 -0.6182E+01  0.4587E+03  0.6472E+03E
 ACTION:UPD 13-02-28 14:29 OP:RALL STATUS:               ID:20100802121454     I
 2010-08-02-1214-52S.PLUR1_003                                                 6
 STAT SP IPHASW D HRMM SECON CODA AMPLIT PERI AZIMU VELO AIN AR TRES W  DIS CAZ7
 LO8  SN IP       1214 58.94                             112    0.0010 21.7 156 
 LO8  SZ E        1214 58.97                  336.1  9.1      0        21.7 156 
 LO8  SE IS       1215  1.89                             112    0.0010 21.7 156 
 LO8  SZ  AML     1215  2.59         1.3 0.46                          21.7 156 
                                                                                
 2010  8 2 1333 57.9 L  21.466 -99.326 10.0  RAL  1 0.2 0.1LRAL                1
 GAP=360        0.70      26.7    25.8  0.0  0.6885E+03  0.4587E+03  0.6472E+03E
 ACTION:UPD 13-02-28 14:29 OP:RALL STATUS:               ID:20100802133357     I
 2010-08-02-1333-51S.PLUR1_003                                                 6
 STAT SP IPHASW D HRMM SECON CODA AMPLIT PERI AZIMU VELO AIN AR TRES W  DIS CAZ7
 LA4  SN IP       1334  0.18                             166    0.4310 2.62  42 
 LA4  SZ E        1334  0.19                  222.0  6.8      0        2.62  42 
 LA4  SE IS       1334  0.70                             166   -0.4310 2.62  42 
 LA4  SZ  AML     1334  1.01         6.3 0.22                          2.62  42 
                                                                                
 2010  8 2 1340 16.3 L  21.375 -99.252 10.0  RAL  3 1.4 1.0LRAL                1
 GAP=332       25.84     123.4    23.7262.8  0.5531E+03 -0.2142E+03 -0.6337E+04E
 ACTION:UPD 13-02-28 14:29 OP:RALL STATUS:               ID:20100802134016     I
 2010-08-02-1340-10S.PLUR1_009                                                 6
 STAT SP IPHASW D HRMM SECON CODA AMPLIT PERI AZIMU VELO AIN AR TRES W  DIS CAZ7
 LG3  SZ E        1340 19.97                  314.3 15.4     46        11.0 180 
 LG3  SN IP       1340 19.99                             130    1.1010 11.0 180 
 LG3  SE IS       1340 20.93                             130    0.1410 11.0 180 
 LG3  SZ  AML     1340 21.31       209.4 0.26                          11.0 180 
 LD5  SZ E        1340 20.49                   26.9  7.1      8        22.0 199 
 LD5  SN IP       1340 20.49                             110    0.1410 22.0 199 
 LD5  SE IS       1340 21.88                             110   -1.4410 22.0 199 
 LD5  SZ  AML     1340 22.38        15.4 0.34                          22.0 199 
 LO8  SN IP       1340 21.35                             109    0.6510 24.2 170 
 LO8  SZ E        1340 21.43                  131.8  6.2    141        24.2 170 
 LO8  SE IS       1340 23.33                             109   -0.5910 24.2 170 
 LO8  SZ  AML     1340 24.26         4.9 0.22                          24.2 170 
                                                                                
 2010  8 2 1348 12.0 L  21.326 -99.284 10.0  RAL  1 0.1 0.6LRAL                1
 GAP=360        1.10      29.4    90.0  0.0  0.2641E+04 -0.2142E+03 -0.6337E+04E
 ACTION:UPD 13-02-28 14:29 OP:RALL STATUS:               ID:20100802134812     I
 2010-08-02-1348-04S.PLUR1_003                                                 6
 STAT SP IPHASW D HRMM SECON CODA AMPLIT PERI AZIMU VELO AIN AR TRES W  DIS CAZ7
 LZ4  SZ E        1348 14.20                  255.2 32.7      4        1.61  71 
 LZ4  SN IP       1348 14.20                             171    0.3310 1.61  71 
 LZ4  SE IS       1348 14.89                             171   -0.3310 1.61  71 
 LZ4  SZ  AML     1348 15.13        24.0 0.16                          1.61  71 
                                                                                
