 2010  913 0036 47.3 L  21.293 -99.283 10.0  RAL  1 0.0-0.4LRAL                1
 GAP=360        0.30       4.3     1.9  0.0 -0.7931E+01 -0.8331E+03  0.1884E+04E
 ACTION:UPD 13-02-28 14:29 OP:RALL STATUS:               ID:20100913003647     I
 2010-09-13-0036-42S.PLUR1_003                                                 6
 STAT SP IPHASW D HRMM SECON CODA AMPLIT PERI AZIMU VELO AIN AR TRES W  DIS CAZ7
 LT9  SN IP        036 50.02                             127    0.0110 12.2 338 
 LT9  SZ E         036 50.02                  158.4  6.9      0        12.2 338 
 LT9  SE IS        036 51.96                             127   -0.0110 12.2 338 
 LT9  SZ  AML      036 51.98         1.5 0.10                          12.2 338 
                                                                                
 2010  913 0329 19.7 L  21.377 -99.323 10.0  RAL  1 0.2-0.2LRAL                1
 GAP=360        0.97      58.4    10.2  0.0 -0.5929E+03 -0.8331E+03  0.1884E+04E
 ACTION:UPD 13-02-28 14:29 OP:RALL STATUS:               ID:20100913032919     I
 2010-09-13-0329-12S.PLUR1_003                                                 6
 STAT SP IPHASW D HRMM SECON CODA AMPLIT PERI AZIMU VELO AIN AR TRES W  DIS CAZ7
 LT9  SZ E         329 22.10                  169.4  6.0      0        2.09 351 
 LT9  SN IP        329 22.12                             168    0.5910 2.09 351 
 LT9  SE IS        329 22.26                             168   -0.5910 2.09 351 
 LT9  SZ  AML      329 22.32         3.4 0.10                          2.09 351 
                                                                                
 2010  913 0522 53.2 L  21.231 -99.244 10.0  RAL  1 0.0 0.1LRAL                1
 GAP=360        0.30       3.6     1.9  0.0 -0.6503E+01 -0.8331E+03  0.1884E+04E
 ACTION:UPD 13-02-28 14:29 OP:RALL STATUS:               ID:20100913052253     I
 2010-09-13-0522-49S.PLUR1_003                                                 6
 STAT SP IPHASW D HRMM SECON CODA AMPLIT PERI AZIMU VELO AIN AR TRES W  DIS CAZ7
 LT9  SN IP        522 56.92                             113    0.0010 20.2 335 
 LT9  SZ E         522 56.94                  154.8  7.0      0        20.2 335 
 LT9  SE IS        522 59.66                             113    0.0010 20.2 335 
 LT9  SZ  AML      523  0.04         3.6 0.32                          20.2 335 
                                                                                
 2010  913 0526 12.8 L  21.241 -99.221 10.0  RAL  1 0.0 0.2LRAL                1
 GAP=360        0.30       3.4     2.3  0.0 -0.7632E+01 -0.8331E+03  0.1884E+04E
 ACTION:UPD 13-02-28 14:29 OP:RALL STATUS:               ID:20100913052612     I
 2010-09-13-0526-09S.PLUR1_003                                                 6
 STAT SP IPHASW D HRMM SECON CODA AMPLIT PERI AZIMU VELO AIN AR TRES W  DIS CAZ7
 LT9  SZ E         526 16.57                  147.5  6.9      0        20.3 328 
 LT9  SN IP        526 16.59                             112    0.0010 20.3 328 
 LT9  SE IS        526 19.34                             112    0.0010 20.3 328 
 LT9  SZ  AML      526 21.45         4.6 0.34                          20.3 328 
                                                                                
 2010  913 0742 19.8 L  21.331 -99.289 10.0  RAL  1 0.0-0.4LRAL                1
 GAP=360        0.30       5.1     3.0  0.0 -0.1507E+02 -0.8331E+03  0.1884E+04E
 ACTION:UPD 13-02-28 14:29 OP:RALL STATUS:               ID:20100913074219     I
 2010-09-13-0742-13S.PLUR1_003                                                 6
 STAT SP IPHASW D HRMM SECON CODA AMPLIT PERI AZIMU VELO AIN AR TRES W  DIS CAZ7
 LT9  SZ E         742 22.04                  151.8  7.7      0        8.09 332 
 LT9  SN IP        742 22.06                             140    0.0210 8.09 332 
 LT9  SE IS        742 23.64                             140   -0.0210 8.09 332 
 LT9  SZ  AML      742 23.76         1.7 0.10                          8.09 332 
                                                                                
 2010  913 1228 53.4 L  21.555 -99.350 10.0  RAL  1 0.0 0.2LRAL                1
 GAP=360        0.30       4.9     2.8  0.0 -0.1367E+02 -0.8331E+03  0.1884E+04E
 ACTION:UPD 13-02-28 14:29 OP:RALL STATUS:               ID:20100913122853     I
 2010-09-13-1228-48S.PLUR1_003                                                 6
 STAT SP IPHASW D HRMM SECON CODA AMPLIT PERI AZIMU VELO AIN AR TRES W  DIS CAZ7
 LA4  SZ E        1228 55.75                  332.1  8.1      0        8.98 152 
 LA4  SN IP       1228 55.78                             138    0.0110 8.98 152 
 LA4  SE IS       1228 57.48                             138   -0.0110 8.98 152 
 LA4  SZ  AML     1228 57.58         7.5 0.68                          8.98 152 
                                                                                
 2010  913 1305 47.2 L  21.246 -99.218 10.0  RAL  1 0.0 0.2LRAL                1
 GAP=360        0.30       3.3     2.5  0.0 -0.7866E+01 -0.8331E+03  0.1884E+04E
 ACTION:UPD 13-02-28 14:29 OP:RALL STATUS:               ID:20100913130547     I
 2010-09-13-1305-43S.PLUR1_003                                                 6
 STAT SP IPHASW D HRMM SECON CODA AMPLIT PERI AZIMU VELO AIN AR TRES W  DIS CAZ7
 LT9  SN IP       13 5 50.91                             113    0.0010 20.0 326 
 LT9  SZ E        13 5 50.92                  145.9  7.7      0        20.0 326 
 LT9  SE IS       13 5 53.63                             113    0.0010 20.0 326 
 LT9  SZ  AML     13 5 54.15         4.0 0.26                          20.0 326 
                                                                                
 2010  913 1515 53.2 L  21.522 -99.612 10.0  RAL  1 0.0 0.1LRAL                1
 GAP=360        0.30       1.8     3.7  0.0 -0.5687E+01 -0.8331E+03  0.1884E+04E
 ACTION:UPD 13-02-28 14:29 OP:RALL STATUS:               ID:20100913151553     I
 2010-09-13-1515-53S.PLUR1_003                                                 6
 STAT SP IPHASW D HRMM SECON CODA AMPLIT PERI AZIMU VELO AIN AR TRES W  DIS CAZ7
 LT9  SN IP       1515 58.88                             102    0.0210 32.8 115 
 LT9  SZ E        1515 58.94                  295.4 20.1      0        32.8 115 
 LT9  SE IS       1516  2.96                             102   -0.0210 32.8 115 
 LT9  SZ  AML     1516  3.48         2.2 0.16                          32.8 115 
                                                                                
 2010  913 1636 20.6 L  21.238 -99.223 10.0  RAL  1 0.0 0.1LRAL                1
 GAP=360        0.30       3.4     2.3  0.0 -0.7475E+01 -0.8331E+03  0.1884E+04E
 ACTION:UPD 13-02-28 14:29 OP:RALL STATUS:               ID:20100913163620     I
 2010-09-13-1636-17S.PLUR1_003                                                 6
 STAT SP IPHASW D HRMM SECON CODA AMPLIT PERI AZIMU VELO AIN AR TRES W  DIS CAZ7
 LT9  SN IP       1636 24.44                             112    0.0010 20.5 329 
 LT9  SZ E        1636 24.46                  148.5  7.7      0        20.5 329 
 LT9  SE IS       1636 27.21                             112    0.0010 20.5 329 
 LT9  SZ  AML     1636 27.43         3.3 0.28                          20.5 329 
                                                                                
 2010  913 1723 44.7 L  21.200 -99.216  0.0  RAL  2 0.1 1.7LRAL                1
 GAP=349        1.59      23.2    11.3811.8 -0.2523E+03 -0.7921E+04  0.1678E+05E
 ACTION:UPD 13-02-28 14:29 OP:RALL STATUS:               ID:20100913172344     I
 2010-09-13-1723-39S.PLUR1_006                                                 6
 STAT SP IPHASW D HRMM SECON CODA AMPLIT PERI AZIMU VELO AIN AR TRES W  DIS CAZ7
 LT9  SN IP       1723 49.21                              92    0.2010 24.5 332 
 LT9  SZ E        1723 49.27                  156.2  9.5      4        24.5 332 
 LT9  SE IS       1723 51.76                              92   -0.3710 24.5 332 
 LT9  SZ  AML     1723 52.19        48.5 0.10                          24.5 332 
 LA4  SN IP       1723 50.81                              92    0.3410 32.8 343 
 LA4  SZ E        1723 50.90                  157.1  7.6     -5        32.8 343 
 LA4  SE IS       1723 54.50                              92   -0.1710 32.8 343 
 LA4  SZ  AML     1723 55.27       260.0 0.28                          32.8 343 
                                                                                
 2010  913 2049 58.1 L  21.219 -99.266 10.0  RAL  1 0.0 0.4LRAL                1
 GAP=360        0.30       3.8     1.4  0.0 -0.4936E+01 -0.7921E+04  0.1678E+05E
 ACTION:UPD 13-02-28 14:29 OP:RALL STATUS:               ID:20100913204958     I
 2010-09-13-2049-54S.PLUR1_003                                                 6
 STAT SP IPHASW D HRMM SECON CODA AMPLIT PERI AZIMU VELO AIN AR TRES W  DIS CAZ7
 LT9  SZ E        2050  1.87                  162.3  9.9      0        20.5 342 
 LT9  SN IP       2050  1.88                             112    0.0210 20.5 342 
 LT9  SE IS       2050  4.61                             112   -0.0210 20.5 342 
 LT9  SZ  AML     2050  4.91         6.0 0.26                          20.5 342 
                                                                                
 2010  913 2258 30.7 L  21.377 -99.323 10.0  RAL  1 0.0-0.4LRAL                1
 GAP=360        0.32      19.3     3.4  0.0 -0.6591E+02 -0.7921E+04  0.1678E+05E
 ACTION:UPD 13-02-28 14:29 OP:RALL STATUS:               ID:20100913225830     I
 2010-09-13-2258-23S.PLUR1_003                                                 6
 STAT SP IPHASW D HRMM SECON CODA AMPLIT PERI AZIMU VELO AIN AR TRES W  DIS CAZ7
 LT9  SZ E        2258 32.59                  170.7 12.7      0        2.10 351 
 LT9  SN IP       2258 32.60                             168    0.0910 2.10 351 
 LT9  SE IS       2258 33.75                             168   -0.0910 2.10 351 
 LT9  SZ  AML     2258 33.85         2.3 0.30                          2.10 351 
                                                                                
 2010  914 0929  5.9 L  21.413 -99.344 10.0  RAL  1 0.2 0.9LRAL                1
 GAP=360        0.75      26.1    26.4  0.0 -0.6911E+03 -0.7921E+04  0.1678E+05E
 ACTION:UPD 13-02-28 14:29 OP:RALL STATUS:               ID:20100914092905     I
 2010-09-14-0928-58S.PLUR1_003                                                 6
 STAT SP IPHASW D HRMM SECON CODA AMPLIT PERI AZIMU VELO AIN AR TRES W  DIS CAZ7
 LT9  SN IP        929  8.16                             165    0.4710 2.72 137 
 LT9  SZ E         929  8.17                  316.7  7.1      0        2.72 137 
 LT9  SE IS        929  8.56                             165   -0.4710 2.72 137 
 LT9  SZ  AML      929  8.66        42.3 0.40                          2.72 137 
                                                                                
 2010  914 1055 21.2 L  21.275 -99.311 10.0  RAL  1 0.0 0.0LRAL                1
 GAP=360        0.30       4.4     0.7  0.0 -0.2552E+01 -0.7921E+04  0.1678E+05E
 ACTION:UPD 13-02-28 14:29 OP:RALL STATUS:               ID:20100914105521     I
 2010-09-14-1055-16S.PLUR1_003                                                 6
 STAT SP IPHASW D HRMM SECON CODA AMPLIT PERI AZIMU VELO AIN AR TRES W  DIS CAZ7
 LT9  SZ E        1055 24.01                  173.1  9.9      0        13.4 353 
 LT9  SN IP       1055 24.03                             124    0.0010 13.4 353 
 LT9  SZ  AML     1055 26.00         3.5 0.26                          13.4 353 
 LT9  SE IS       1055 26.10                             124    0.0010 13.4 353 
                                                                                
 2010  914 1114 45.2 L  21.264 -99.278  4.0  RAL  2 0.0 1.0LRAL                1
 GAP=349        0.35       3.1     1.0 11.8 -0.2854E+01 -0.7534E+01  0.2403E+02E
 ACTION:UPD 13-02-28 14:29 OP:RALL STATUS:               ID:20100914111445     I
 2010-09-14-1114-38S.PLUR1_006                                                 6
 STAT SP IPHASW D HRMM SECON CODA AMPLIT PERI AZIMU VELO AIN AR TRES W  DIS CAZ7
 LT9  SN IP       1114 47.95                             107   -0.0510 15.4 341 
 LT9  SZ E        1114 47.96                  160.5  6.4      0        15.4 341 
 LT9  SZ  AML     1114 49.95        14.9 0.24                          15.4 341 
 LT9  SE IS       1114 50.03                             107   -0.0210 15.4 341 
 LA4  SN IP       1114 49.57                             102    0.0010 24.5 352 
 LA4  SZ E        1114 49.60                  173.2  7.9      1        24.5 352 
 LA4  SE IS       1114 52.83                             102    0.0610 24.5 352 
 LA4  SZ  AML     1114 53.45        54.0 0.28                          24.5 352 
                                                                                
 2010  914 1232 33.5 L  21.272 -99.296 10.0  RAL  1 0.0 0.3LRAL                1
 GAP=360        0.30       4.3     1.1  0.0 -0.4484E+01 -0.7534E+01  0.2403E+02E
 ACTION:UPD 13-02-28 14:29 OP:RALL STATUS:               ID:20100914123233     I
 2010-09-14-1232-28S.PLUR1_003                                                 6
 STAT SP IPHASW D HRMM SECON CODA AMPLIT PERI AZIMU VELO AIN AR TRES W  DIS CAZ7
 LT9  SN IP       1232 36.45                             123    0.0010 14.0 347 
 LT9  SZ E        1232 36.49                  167.2  9.2      0        14.0 347 
 LT9  SZ  AML     1232 38.46         7.2 0.26                          14.0 347 
 LT9  SE IS       1232 38.57                             123    0.0010 14.0 347 
                                                                                
 2010  914 2340 37.6 L  21.638 -99.444 10.0  RAL  1 0.0 0.3LRAL                1
 GAP=360        0.30       3.5     1.9  0.0 -0.5699E+01 -0.7534E+01  0.2403E+02E
 ACTION:UPD 13-02-28 14:29 OP:RALL STATUS:               ID:20100914234037     I
 2010-09-14-2340-36S.PLUR1_003                                                 6
 STAT SP IPHASW D HRMM SECON CODA AMPLIT PERI AZIMU VELO AIN AR TRES W  DIS CAZ7
 LT9  SZ E        2340 42.57                  335.6  8.5      0        29.4 156 
 LT9  SN IP       2340 42.74                             104    0.0210 29.4 156 
 LT9  SE IS       2340 46.45                             104   -0.0210 29.4 156 
 LT9  SZ  AML     2340 48.80         4.2 0.26                          29.4 156 
                                                                                
 2010  914 2351 18.5 L  21.332 -99.313 10.0  RAL  1 0.0 0.0LRAL                1
 GAP=360        0.30       6.1     1.3  0.0 -0.8015E+01 -0.7534E+01  0.2403E+02E
 ACTION:UPD 13-02-28 14:29 OP:RALL STATUS:               ID:20100914235118     I
 2010-09-14-2351-11S.PLUR1_003                                                 6
 STAT SP IPHASW D HRMM SECON CODA AMPLIT PERI AZIMU VELO AIN AR TRES W  DIS CAZ7
 LT9  SZ E        2351 20.69                  168.8  8.5      0        7.19 349 
 LT9  SN IP       2351 20.69                             144    0.0110 7.19 349 
 LT9  SZ  AML     2351 22.22         4.2 0.14                          7.19 349 
 LT9  SE IS       2351 22.22                             144   -0.0110 7.19 349 
                                                                                
 2010  915 0251 23.8 L  21.410 -99.346 10.0  RAL  1 0.1-0.2LRAL                1
 GAP=360        0.56      17.5    23.1  0.0 -0.4052E+03 -0.7534E+01  0.2403E+02E
 ACTION:UPD 13-02-28 14:29 OP:RALL STATUS:               ID:20100915025123     I
 2010-09-15-0251-16S.PLUR1_003                                                 6
 STAT SP IPHASW D HRMM SECON CODA AMPLIT PERI AZIMU VELO AIN AR TRES W  DIS CAZ7
 LT9  SN IP        251 25.92                             165    0.3210 2.61 129 
 LT9  SZ E         251 25.94                  309.1 13.2      0        2.61 129 
 LT9  SE IS        251 26.61                             165   -0.3210 2.61 129 
 LT9  SZ  AML      251 26.69         3.8 0.10                          2.61 129 
                                                                                
 2010  915 0746 51.4 L  21.381 -99.321 10.0  RAL  1 0.2-0.4LRAL                1
 GAP=360        0.84      60.0    22.2  0.0 -0.1332E+04 -0.7534E+01  0.2403E+02E
 ACTION:UPD 13-02-28 14:29 OP:RALL STATUS:               ID:20100915074651     I
 2010-09-15-0746-44S.PLUR1_003                                                 6
 STAT SP IPHASW D HRMM SECON CODA AMPLIT PERI AZIMU VELO AIN AR TRES W  DIS CAZ7
 LT9  SN IP        746 53.74                             171    0.5310 1.68 341 
 LT9  SZ E         746 53.76                  161.0  5.8      0        1.68 341 
 LT9  SE IS        746 53.99                             171   -0.5310 1.68 341 
 LT9  SZ  AML      746 54.09         2.4 0.12                          1.68 341 
                                                                                
 2010  915 1228 35.7 L  21.316 -99.275 10.0  RAL  1 0.0-0.4LRAL                1
 GAP=360        0.30       4.3     2.8  0.0 -0.1213E+02 -0.7534E+01  0.2403E+02E
 ACTION:UPD 13-02-28 14:29 OP:RALL STATUS:               ID:20100915122835     I
 2010-09-15-1228-30S.PLUR1_003                                                 6
 STAT SP IPHASW D HRMM SECON CODA AMPLIT PERI AZIMU VELO AIN AR TRES W  DIS CAZ7
 LT9  SN E        1228 38.17                                           10.2 329 
 LT9  SN IP       1228 38.17                             133    0.0110 10.2 329 
 LT9  SZ E        1228 38.18                  148.7  8.5      0        10.2 329 
 LT9  SE IS       1228 39.94                             133   -0.0110 10.2 329 
 LT9  SZ  AML     1228 40.17         1.5 0.10                          10.2 329 
                                                                                
 2010  915 1336 46.5 L  21.353 -99.304 10.0  RAL  1 0.0-0.2LRAL                1
 GAP=360        0.30       7.3     3.9  0.0 -0.2820E+02 -0.7534E+01  0.2403E+02E
 ACTION:UPD 13-02-28 14:29 OP:RALL STATUS:               ID:20100915133646     I
 2010-09-15-1336-40S.PLUR1_003                                                 6
 STAT SP IPHASW D HRMM SECON CODA AMPLIT PERI AZIMU VELO AIN AR TRES W  DIS CAZ7
 LT9  SZ E        1336 48.44                  153.9  7.7      0        5.20 334 
 LT9  SN IP       1336 48.51                             152    0.0410 5.20 334 
 LT9  SE IS       1336 49.86                             152   -0.0410 5.20 334 
 LT9  SZ  AML     1336 49.94         3.1 0.10                          5.20 334 
                                                                                
 2010  915 1612 13.9 L  21.319 -99.299 10.0  RAL  1 0.0-0.4LRAL                1
 GAP=360        0.30       5.2     1.9  0.0 -0.9629E+01 -0.7534E+01  0.2403E+02E
 ACTION:UPD 13-02-28 14:29 OP:RALL STATUS:               ID:20100915161213     I
 2010-09-15-1612-08S.PLUR1_003                                                 6
 STAT SP IPHASW D HRMM SECON CODA AMPLIT PERI AZIMU VELO AIN AR TRES W  DIS CAZ7
 LT9  SN IP       1612 16.24                             137    0.0210 8.97 341 
 LT9  SZ E        1612 16.28                  161.4  9.6      0        8.97 341 
 LT9  SE IS       1612 17.89                             137   -0.0210 8.97 341 
 LT9  SZ  AML     1612 18.21         1.7 0.26                          8.97 341 
                                                                                
