 2010  4 1 0251 22.9 L  21.324 -99.271 10.0  RAL  1 0.2 0.3LRAL                1
 GAP=360        2.63     618.8   862.6  0.0 -0.5336E+06  0.6571E+04  0.1721E+04E
 ACTION:UPD 12-06-08 11:37 OP:RALL STATUS:               ID:20100401025122     I
 2010-04-01-0251-15S.PLUR1_003                                                 6
 STAT SP IPHASW D HRMM SECON CODA AMPLIT PERI AZIMU VELO AIN AR TRES W  DIS CAZ7
 LZ4  SZ E         251 24.79                  178.9 13.7    -11        0.76  11 
 LZ4  SN IP        251 24.80                             176    0.0810 0.76  11 
 LZ4  SE IS        251 25.98                             176   -0.0810 0.76  11 
 LZ4  SZ  AML      251 27.22        12.5 0.42                          0.76  11 
                                                                                
 2010  4 1 0906 33.4 L  21.645 -99.373 10.0  RAL  1 0.0 0.8LRAL                1
 GAP=360        0.30       3.8     1.6  0.0 -0.5723E+01  0.6571E+04  0.1721E+04E
 ACTION:UPD 12-06-08 11:37 OP:RALL STATUS:               ID:20100401090633     I
 2010-04-01-0906-30S.PLUR1_003                                                 6
 STAT SP IPHASW D HRMM SECON CODA AMPLIT PERI AZIMU VELO AIN AR TRES W  DIS CAZ7
 LA4  SN IP        9 6 37.05                             115    0.0010 19.1 160 
 LA4  SZ E         9 6 37.06                  339.7  6.0      0        19.1 160 
 LA4  SE IS        9 6 39.71                             115    0.0010 19.1 160 
 LA4  SZ  AML      9 6 42.06        17.9 0.48                          19.1 160 
                                                                                
 2010  4 1 1059 50.6 R                       RAL  0                            1
 ACTION:UPD 12-06-08 11:37 OP:RALL STATUS:               ID:20100401105950     I
 2010-04-01-1059-50S.PLUR1_003                                                 6
 STAT SP IPHASW D HRMM SECON CODA AMPLIT PERI AZIMU VELO AIN AR TRES W  DIS CAZ7
                                                                                
 2010  4 1 1234 17.8 L  21.328 -99.259 10.0  RAL  1 0.2 1.0LRAL                1
 GAP=360        2.52     999.9   999.9  0.0  0.6613E+08  0.6571E+04  0.1721E+04E
 ACTION:UPD 12-06-08 11:37 OP:RALL STATUS:               ID:20100401123417     I
 2010-04-01-1234-09S.PLUR1_003                                                 6
 STAT SP IPHASW D HRMM SECON CODA AMPLIT PERI AZIMU VELO AIN AR TRES W  DIS CAZ7
 LZ4  SN IP       1234 19.70                             174    0.0610 1.13 287 
 LZ4  SZ E        1234 19.71                   95.0 20.2    -11        1.13 287 
 LZ4  SE IS       1234 20.93                             174   -0.0610 1.13 287 
 LZ4  SZ  AML     1234 21.55        51.3 0.22                          1.13 287 
                                                                                
 2010  4 1 1423 12.0 L  21.299 -99.257 10.0  RAL  1 0.0 0.3LRAL                1
 GAP=360        0.33      11.2     4.3  0.0 -0.4875E+02  0.6571E+04  0.1721E+04E
 ACTION:UPD 12-06-08 11:37 OP:RALL STATUS:               ID:20100401142312     I
 2010-04-01-1423-06S.PLUR1_003                                                 6
 STAT SP IPHASW D HRMM SECON CODA AMPLIT PERI AZIMU VELO AIN AR TRES W  DIS CAZ7
 LZ4  SN IP       1423 14.03                             160    0.1010 3.79 340 
 LZ4  SZ E        1423 14.05                  160.2 12.8      0        3.79 340 
 LZ4  SE IS       1423 15.24                             160   -0.1010 3.79 340 
 LZ4  SZ  AML     1423 16.54        11.0 0.48                          3.79 340 
                                                                                
 2010  4 1 2124 44.7 L  21.262 -99.273 10.0  RAL  1 0.2 1.8LRAL                1
 GAP=360        0.70      20.6    30.7  0.0  0.6323E+03  0.6571E+04  0.1721E+04E
 ACTION:UPD 12-06-08 11:37 OP:RALL STATUS:               ID:20100401212444     I
 2010-04-01-2124-37S.PLUR1_003                                                 6
 STAT SP IPHASW D HRMM SECON CODA AMPLIT PERI AZIMU VELO AIN AR TRES W  DIS CAZ7
 LG3  SN IP       2124 47.01                             166    0.4310 2.67  54 
 LG3  SZ E        2124 47.01                  234.3 32.3      0        2.67  54 
 LG3  SE IS       2124 47.54                             166   -0.4310 2.67  54 
 LG3  SZ  AML     2124 47.61       308.9 0.10                          2.67  54 
                                                                                
 2010  4 1 2313 48.5 L  21.264 -99.257 10.0  RAL  1 0.2 0.8LRAL                1
 GAP=360        1.11     692.8   999.9  0.0 -0.1349E+07  0.6571E+04  0.1721E+04E
 ACTION:UPD 12-06-08 11:37 OP:RALL STATUS:               ID:20100401231348     I
 2010-04-01-2313-41S.PLUR1_003                                                 6
 STAT SP IPHASW D HRMM SECON CODA AMPLIT PERI AZIMU VELO AIN AR TRES W  DIS CAZ7
 LG3  SZ E        2313 50.72                  202.0 26.0      4        1.40  18 
 LG3  SN IP       2313 50.74                             172    0.4210 1.40  18 
 LG3  SE IS       2313 51.27                             172   -0.4210 1.40  18 
 LG3  SZ  AML     2313 51.35        38.5 0.10                          1.40  18 
                                                                                
 2010  4 2 0701 45.9 L  21.486 -99.315 10.0  RAL  2 0.7 0.8LRAL                1
 GAP=309       12.13       7.1    26.6 75.0  0.1489E+03 -0.6444E+02  0.2812E+01E
 ACTION:UPD 12-06-08 11:37 OP:RALL STATUS:               ID:20100402070145     I
 2010-04-02-0701-37S.PLUR1_006                                                 6
 STAT SP IPHASW D HRMM SECON CODA AMPLIT PERI AZIMU VELO AIN AR TRES W  DIS CAZ7
 LA4  SZ E         7 1 47.52                  280.1 17.6    -12        0.72 113 
 LA4  SN IP        7 1 47.55                             175   -0.1610 0.72 113 
 LA4  SE IS        7 1 49.50                             175    0.4410 0.72 113 
 LA4  SZ  AML      7 1 49.80        33.6 0.14                          0.72 113 
 LG3  SN IP        7 1 49.72                             110   -0.5310 24.2 164 
 LG3  SZ E         7 1 49.73                   42.2 13.8     58        24.2 164 
 LG3  SE IS        7 1 53.71                             110    0.2510 24.2 164 
 LG3  SZ  AML      7 1 55.57        15.7 0.22                          24.2 164 
                                                                                
 2010  4 2 0720  9.3 L  21.679 -99.433 10.0  RAL  1 0.0 0.8LRAL                1
 GAP=360        0.30       3.5     1.9  0.0 -0.5091E+01 -0.6444E+02  0.2812E+01E
 ACTION:UPD 12-06-08 11:37 OP:RALL STATUS:               ID:20100402072009     I
 2010-04-02-0720-12S.PLUR1_003                                                 6
 STAT SP IPHASW D HRMM SECON CODA AMPLIT PERI AZIMU VELO AIN AR TRES W  DIS CAZ7
 LZ4  SZ E         720 16.36                  336.4 14.5      0        42.1 156 
 LZ4  SN IP        720 16.36                              99    0.0110 42.1 156 
 LZ4  SE IS        720 21.51                              99   -0.0110 42.1 156 
 LZ4  SZ  AML      720 22.05         8.7 0.36                          42.1 156 
                                                                                
 2010  4 2 1045 19.4 L  21.265 -99.376 10.0  RAL  1 0.0 0.4LRAL                1
 GAP=360        0.30       0.5     4.9  0.0  0.2068E+01 -0.6444E+02  0.2812E+01E
 ACTION:UPD 12-06-08 11:37 OP:RALL STATUS:               ID:20100402104519     I
 2010-04-02-1045-15S.PLUR1_006                                                 6
 STAT SP IPHASW D HRMM SECON CODA AMPLIT PERI AZIMU VELO AIN AR TRES W  DIS CAZ7
 LG3  SN IP       1045 22.18                             127    0.0010 12.9  85 
 LG3  SZ E        1045 22.20                  264.8 13.5      0        12.9  85 
 LG3  SE IS       1045 24.24                             127    0.0010 12.9  85 
 LG3  SZ  AML     1045 26.60         9.2 0.50                          12.9  85 
                                                                                
 2010  4 2 2210 26.3 L  21.532 -99.388 10.0  RAL  1 0.0 1.3LRAL                1
 GAP=360        0.30       3.4     2.1  0.0 -0.6623E+01 -0.6444E+02  0.2812E+01E
 ACTION:UPD 12-06-08 11:37 OP:RALL STATUS:               ID:20100402221026     I
 2010-04-02-2210-21S.PLUR1_003                                                 6
 STAT SP IPHASW D HRMM SECON CODA AMPLIT PERI AZIMU VELO AIN AR TRES W  DIS CAZ7
 LZ4  SZ E        2210 30.86                  331.2  9.1      0        25.4 151 
 LZ4  SN IP       2210 30.89                             108    0.0010 25.4 151 
 LZ4  SE IS       2210 34.21                             108    0.0010 25.4 151 
 LZ4  SZ  AML     2210 34.75        39.1 0.38                          25.4 151 
                                                                                
 2010  4 3 2150 38.3 L  21.304 -99.300 10.0  RAL  1 0.0 0.2LRAL                1
 GAP=360        0.34       7.5     8.7  0.0  0.6504E+02 -0.6444E+02  0.2812E+01E
 ACTION:UPD 12-06-08 11:37 OP:RALL STATUS:               ID:20100403215038     I
 2010-04-03-2150-32S.PLUR1_003                                                 6
 STAT SP IPHASW D HRMM SECON CODA AMPLIT PERI AZIMU VELO AIN AR TRES W  DIS CAZ7
 LZ4  SZ E        2150 40.31                  227.3 24.9      0        4.32  47 
 LZ4  SN IP       2150 40.35                             157    0.1210 4.32  47 
 LZ4  SE IS       2150 41.55                             157   -0.1210 4.32  47 
 LZ4  SZ  AML     2150 42.95         8.7 0.56                          4.32  47 
                                                                                
 2010  4 3 2201 11.8 L  21.486 -99.296 10.0  RAL  1 0.1 0.3LRAL                1
 GAP=360        0.63      10.1    61.2  0.0  0.6203E+03 -0.6444E+02  0.2812E+01E
 ACTION:UPD 12-06-08 11:37 OP:RALL STATUS:               ID:20100403220111     I
 2010-04-03-2201-05S.PLUR1_003                                                 6
 STAT SP IPHASW D HRMM SECON CODA AMPLIT PERI AZIMU VELO AIN AR TRES W  DIS CAZ7
 LA4  SN IP       22 1 14.06                             172    0.3510 1.42 260 
 LA4  SZ E        22 1 14.13                   79.1  5.9      0        1.42 260 
 LA4  SE IS       22 1 14.71                             172   -0.3510 1.42 260 
 LA4  SZ  AML     22 1 15.14        10.0 0.26                          1.42 260 
                                                                                
 2010  4 3 2254 28.7 L  21.470 -99.259 10.0  RAL  1 0.0 0.8LRAL                1
 GAP=360        0.30       4.3     0.5  0.0  0.1366E+01 -0.6444E+02  0.2812E+01E
 ACTION:UPD 12-06-08 11:37 OP:RALL STATUS:               ID:20100403225428     I
 2010-04-03-2254-23S.PLUR1_003                                                 6
 STAT SP IPHASW D HRMM SECON CODA AMPLIT PERI AZIMU VELO AIN AR TRES W  DIS CAZ7
 LZ4  SN IP       2254 31.89                             121    0.0210 15.4 184 
 LZ4  SZ E        2254 31.93                    3.9 14.2      0        15.4 184 
 LZ4  SE IS       2254 34.13                             121   -0.0210 15.4 184 
 LZ4  SZ  AML     2254 34.52        20.5 0.24                          15.4 184 
                                                                                
 2010  4 4 0023 53.8 L  21.610 -99.253 10.0  RAL  1 0.0 0.8LRAL                1
 GAP=360        0.30       3.8     0.9  0.0  0.8052E+00 -0.6444E+02  0.2812E+01E
 ACTION:UPD 12-06-08 11:37 OP:RALL STATUS:               ID:20100404002353     I
 2010-04-04-0023-54S.PLUR1_003                                                 6
 STAT SP IPHASW D HRMM SECON CODA AMPLIT PERI AZIMU VELO AIN AR TRES W  DIS CAZ7
 LZ4  SN IP        023 59.16                             104    0.0110 31.0 183 
 LZ4  SZ E         023 59.47                    3.1 18.5      0        31.0 183 
 LZ4  SE IS        024  3.08                             104   -0.0110 31.0 183 
 LZ4  SZ  AML      024  4.23        12.5 0.50                          31.0 183 
                                                                                
 2010  4 4 0747 31.9 L  21.532 -99.332 10.0  RAL  1 0.0 1.3LRAL                1
 GAP=360        0.30       6.8     3.2  0.0 -0.2217E+02 -0.6444E+02  0.2812E+01E
 ACTION:UPD 12-06-08 11:37 OP:RALL STATUS:               ID:20100404074731     I
 2010-04-04-0747-24S.PLUR1_003                                                 6
 STAT SP IPHASW D HRMM SECON CODA AMPLIT PERI AZIMU VELO AIN AR TRES W  DIS CAZ7
 LA4  SN IP        747 34.01                             150    0.0310 5.89 156 
 LA4  SZ E         747 34.04                  336.2  7.8      0        5.89 156 
 LA4  SE IS        747 35.48                             150   -0.0310 5.89 156 
 LA4  SZ  AML      747 35.84       101.0 0.18                          5.89 156 
                                                                                
 2010  4 4 0919  9.2 L  21.528 -99.336 10.0  RAL  1 0.0 1.0LRAL                1
 GAP=360        0.30       6.8     4.2  0.0 -0.2886E+02 -0.6444E+02  0.2812E+01E
 ACTION:UPD 12-06-08 11:37 OP:RALL STATUS:               ID:20100404091909     I
 2010-04-04-0919-01S.PLUR1_003                                                 6
 STAT SP IPHASW D HRMM SECON CODA AMPLIT PERI AZIMU VELO AIN AR TRES W  DIS CAZ7
 LA4  SZ E         919 11.32                  330.0  9.0      0        5.62 150 
 LA4  SN IP        919 11.35                             151    0.0410 5.62 150 
 LA4  SE IS        919 12.77                             151   -0.0410 5.62 150 
 LA4  SZ  AML      919 13.12        47.9 0.18                          5.62 150 
                                                                                
 2010  4 4 2252 24.0 L  21.589 -99.414 10.0  RAL  1 0.0 0.9LRAL                1
 GAP=360        0.30       3.4     2.1  0.0 -0.6110E+01 -0.6444E+02  0.2812E+01E
 ACTION:UPD 12-06-08 11:37 OP:RALL STATUS:               ID:20100404225224     I
 2010-04-04-2252-24S.PLUR1_003                                                 6
 STAT SP IPHASW D HRMM SECON CODA AMPLIT PERI AZIMU VELO AIN AR TRES W  DIS CAZ7
 LZ4  SZ E        2252 29.48                  332.3 14.0      0        32.3 152 
 LZ4  SN IP       2252 29.57                             103    0.0210 32.3 152 
 LZ4  SE IS       2252 33.61                             103   -0.0210 32.3 152 
 LZ4  SZ  AML     2252 35.67        15.0 0.28                          32.3 152 
                                                                                
 2010  4 7 0959  9.4 R  20.561 -98.666 10.0  RAL  1 0.0 2.6LRAL                1
 GAP=360        0.30       3.4     3.3  0.0 -0.3168E+01 -0.6444E+02  0.2812E+01E
 ACTION:UPD 12-06-08 11:37 OP:RALL STATUS:               ID:20100407095909     I
 2010-04-07-0959-17S.PLUR1_003                                                 6
 STAT SP IPHASW D HRMM SECON CODA AMPLIT PERI AZIMU VELO AIN AR TRES W  DIS CAZ7
 LZ4  SZ E         959 26.30                  143.5  8.5      0         106 324 
 LZ4  SN IP        959 26.30                              93    0.0010  106 324 
 LZ4  SE IS        959 38.67                              93    0.0010  106 324 
 LZ4  SZ  AML      959 42.13       233.4 0.30                           106 324 
                                                                                
 2010  4 7 1901 27.5 R  20.796-100.174  6.2  RAL  3 1.7 2.1LRAL                1
 GAP=345       19.26     444.1   855.1999.9  0.3667E+06  0.6033E+08  0.3074E+08E
 ACTION:UPD 12-06-08 11:37 OP:RALL STATUS:               ID:20100407190127     I
 2010-04-07-1901-35S.PLUR1_012                                                 6
 STAT SP IPHASW D HRMM SECON CODA AMPLIT PERI AZIMU VELO AIN AR TRES W  DIS CAZ7
 LO8  SZ E        19 1 42.43                  333.8  8.5     86         108  68 
 LO8  SN IP       19 1 42.51                              91   -2.2710  108  68 
 LO8  SE IS       19 1 52.43                              91   -4.9410  108  68 
 LO8  SZ  AML     19 1 54.48        37.5 0.38                           108  68 
 LG3  SN IP       19 1 44.69                              91   -0.3510  110  61 
 LG3  SZ E        19 1 44.71                  257.4 11.6     16         110  61 
 LG3  SE IS       19 1 56.16                              91   -1.6510  110  61 
 LG3  SZ  AML     19 1 57.51       257.1 0.42                           110  61 
 LT7  SN IP       19 1 47.69                              91    2.5710  110  53 
 LT7  SZ E        19 1 47.78                  180.9 18.3    -51         110  53 
 LT7  SE IS       19 2  4.58                              91    6.6310  110  53 
 LT7  SZ  AML     19 2  5.83        22.0 0.86                           110  53 
                                                                                
 2010  4 7 1924  1.8 L  21.304 -99.205 10.0  RAL  1 0.0 0.6LRAL                1
 GAP=360        0.30       2.6     6.3  0.0 -0.1602E+02  0.6033E+08  0.3074E+08E
 ACTION:UPD 12-06-08 11:37 OP:RALL STATUS:               ID:20100407192401     I
 2010-04-07-1923-56S.PLUR1_003                                                 6
 STAT SP IPHASW D HRMM SECON CODA AMPLIT PERI AZIMU VELO AIN AR TRES W  DIS CAZ7
 LZ4  SN IP       1924  4.00                             144    0.0210 7.26 294 
 LZ4  SZ E        1924  4.03                  113.7 17.5      0        7.26 294 
 LZ4  SE IS       1924  5.55                             144   -0.0210 7.26 294 
 LZ4  SZ  AML     1924  7.14        17.6 0.56                          7.26 294 
                                                                                
 2010  4 8 0352 14.1 L  21.473 -99.304 10.0  RAL  1 0.2 0.2LRAL                1
 GAP=360        1.22     110.4    56.0  0.0 -0.6178E+04  0.6033E+08  0.3074E+08E
 ACTION:UPD 12-06-08 11:37 OP:RALL STATUS:               ID:20100408035214     I
 2010-04-08-0352-07S.PLUR1_003                                                 6
 STAT SP IPHASW D HRMM SECON CODA AMPLIT PERI AZIMU VELO AIN AR TRES W  DIS CAZ7
 LA4  SN IP        352 16.47                             173    0.5110 1.31 335 
 LA4  SZ E         352 16.59                  159.1  6.7      4        1.31 335 
 LA4  SE IS        352 16.81                             173   -0.5110 1.31 335 
 LA4  SZ  AML      352 16.88         9.6 0.16                          1.31 335 
                                                                                
 2010  4 9 1412 53.4 L  21.347 -99.293 10.0  RAL  1 0.1 0.5LRAL                1
 GAP=360        0.47      12.4    17.7  0.0 -0.2194E+03  0.6033E+08  0.3074E+08E
 ACTION:UPD 12-06-08 11:37 OP:RALL STATUS:               ID:20100409141253     I
 2010-04-09-1412-46S.PLUR1_003                                                 6
 STAT SP IPHASW D HRMM SECON CODA AMPLIT PERI AZIMU VELO AIN AR TRES W  DIS CAZ7
 LZ4  SZ E        1412 55.57                  306.8 17.3      0        3.01 127 
 LZ4  SN IP       1412 55.58                             164    0.2410 3.01 127 
 LZ4  SE IS       1412 56.48                             164   -0.2410 3.01 127 
 LZ4  SZ  AML     1412 56.82        18.0 0.34                          3.01 127 
                                                                                
