 2010  8 2 1401 25.5 L  21.279 -99.266 10.0  RAL  1 0.2 1.0LRAL                1
 GAP=360        2.03     576.2   357.6  0.0  0.2060E+06 -0.2142E+03 -0.6337E+04E
 ACTION:UPD 13-02-28 14:29 OP:RALL STATUS:               ID:20100802140125     I
 2010-08-02-1401-18S.PLUR1_003                                                 6
 STAT SP IPHASW D HRMM SECON CODA AMPLIT PERI AZIMU VELO AIN AR TRES W  DIS CAZ7
 LG3  SZ E        14 1 27.72                  275.0 16.2     -8        1.47 104 
 LG3  SN IP       14 1 27.74                             172    0.3510 1.47 104 
 LG3  SE IS       14 1 28.41                             172   -0.3510 1.47 104 
 LG3  SZ  AML     14 1 28.58        52.8 0.10                          1.47 104 
                                                                                
 2010  8 2 1410  5.3 L  21.316 -99.267 10.0  RAL  1 0.1 1.1LRAL                1
 GAP=360        0.38     413.5   999.9  0.0  0.1148E+07 -0.2142E+03 -0.6337E+04E
 ACTION:UPD 13-02-28 14:29 OP:RALL STATUS:               ID:20100802141005     I
 2010-08-02-1409-58S.PLUR1_003                                                 6
 STAT SP IPHASW D HRMM SECON CODA AMPLIT PERI AZIMU VELO AIN AR TRES W  DIS CAZ7
 LZ4  SN IP       1410  7.31                             171    0.1610 1.66 350 
 LZ4  SZ E        1410  7.33                  170.2 71.8      0        1.66 350 
 LZ4  SE IS       1410  8.35                             171   -0.1610 1.66 350 
 LZ4  SZ  AML     1410  8.46        65.6 0.16                          1.66 350 
                                                                                
 2010  8 2 1456  8.5 L  21.421 -98.887  5.1  RAL  2 1.2 1.1LRAL                1
 GAP=342       18.55     165.6   336.6741.9  0.5228E+05  0.2252E+06  0.1068E+06E
 ACTION:UPD 13-02-28 14:29 OP:RALL STATUS:               ID:20100802145608     I
 2010-08-02-1456-07S.PLUR1_006                                                 6
 STAT SP IPHASW D HRMM SECON CODA AMPLIT PERI AZIMU VELO AIN AR TRES W  DIS CAZ7
 LG3  SZ E        1456 15.57                   45.3 15.5    -21        41.2 247 
 LG3  SN IP       1456 15.64                              63    0.6310 41.2 247 
 LG3  SE IS       1456 16.82                              63   -2.9610 41.2 247 
 LG3  SZ  AML     1456 17.43       113.9 0.10                          41.2 247 
 LO8  SZ E        1456 17.53                  135.6  7.6     86        44.5 229 
 LO8  SN IP       1456 17.71                              63    2.1710 44.5 229 
 LO8  SE IS       1456 20.87                              63    0.1610 44.5 229 
 LO8  SZ  AML     1456 21.21         2.2 0.16                          44.5 229 
                                                                                
 2010  8 2 15 8 27.4 L                       RAL  0                            1
 ACTION:UPD 13-02-28 14:29 OP:RALL STATUS:               ID:20100802150827     I
 2010-08-02-1508-27S.PLUR1_006                                                 6
 STAT SP IPHASW D HRMM SECON CODA AMPLIT PERI AZIMU VELO AIN AR TRES W  DIS CAZ7
                                                                                
 2010  8 2 1539 26.3 L                       RAL  2                            1
 ACTION:UPD 13-02-28 14:29 OP:RALL STATUS:               ID:20100802153926     I
 2010-08-02-1539-26S.PLUR1_006                                                 6
 STAT SP IPHASW D HRMM SECON CODA AMPLIT PERI AZIMU VELO AIN AR TRES W  DIS CAZ7
 LG3  SN IP       1539 47.12                                                    
 LG3  SZ E        1539 47.15                  231.1 48.3                        
 LG3  SE IS       1539 47.72                                                    
 LG3  SZ  AML     1539 47.85        50.8 0.36                                   
 LZ4  SZ E        1539 35.50                  282.0 33.4                        
 LZ4  SN IP       1539 35.51                                                    
 LZ4  SE IS       1539 36.54                                                    
 LZ4  SZ  AML     1539 36.89        42.8 0.10                                   
                                                                                
 2010  8 2 1553 39.2 L  21.320 -99.273 10.0  RAL  1 0.3 1.3LRAL                1
 GAP=360        2.78     498.6   749.3  0.0 -0.3736E+06  0.2252E+06  0.1068E+06E
 ACTION:UPD 13-02-28 14:29 OP:RALL STATUS:               ID:20100802155339     I
 2010-08-02-1553-31S.PLUR1_003                                                 6
 STAT SP IPHASW D HRMM SECON CODA AMPLIT PERI AZIMU VELO AIN AR TRES W  DIS CAZ7
 LZ4  SZ E        1553 41.33                  182.3 21.9    -12        1.21  15 
 LZ4  SN IP       1553 41.37                             173    0.3710 1.21  15 
 LZ4  SE IS       1553 41.98                             173   -0.3710 1.21  15 
 LZ4  SZ  AML     1553 42.31       119.6 0.18                          1.21  15 
                                                                                
 2010  8 2 1632 10.4 L  21.398 -99.288 10.0  RAL  1 0.0 1.4LRAL                1
 GAP=360        0.30       5.9     1.7  0.0 -0.9709E+01  0.2252E+06  0.1068E+06E
 ACTION:UPD 13-02-28 14:29 OP:RALL STATUS:               ID:20100802163210     I
 2010-08-02-1631-43S.PLUR1_003                                                 6
 STAT SP IPHASW D HRMM SECON CODA AMPLIT PERI AZIMU VELO AIN AR TRES W  DIS CAZ7
 LZ4  SN IP       1632 12.68                             142    0.0210 7.73 165 
 LZ4  SZ E        1632 12.78                  345.4 11.9      0        7.73 165 
 LZ4  SE IS       1632 14.27                             142   -0.0210 7.73 165 
 LZ4  SZ  AML     1632 14.50       115.3 0.26                          7.73 165 
                                                                                
 2010  8 2 1649  1.9 L  21.333 -99.282 10.0  RAL  1 0.2 0.9LRAL                1
 GAP=360        1.90     562.4   314.0  0.0  0.1766E+06  0.2252E+06  0.1068E+06E
 ACTION:UPD 13-02-28 14:29 OP:RALL STATUS:               ID:20100802164901     I
 2010-08-02-1648-55S.PLUR1_003                                                 6
 STAT SP IPHASW D HRMM SECON CODA AMPLIT PERI AZIMU VELO AIN AR TRES W  DIS CAZ7
 LZ4  SZ E        1649  4.10                  271.8 21.4     -8        1.32 100 
 LZ4  SN IP       1649  4.10                             173    0.4010 1.32 100 
 LZ4  SE IS       1649  4.65                             173   -0.4010 1.32 100 
 LZ4  SZ  AML     1649  4.81        41.8 0.24                          1.32 100 
                                                                                
 2010  8 2 1800 48.0 L  21.346 -99.292 10.0  RAL  1 0.1 0.4LRAL                1
 GAP=360        0.55      15.1    22.6  0.0 -0.3400E+03  0.2252E+06  0.1068E+06E
 ACTION:UPD 13-02-28 14:29 OP:RALL STATUS:               ID:20100802180048     I
 2010-08-02-1800-41S.PLUR1_003                                                 6
 STAT SP IPHASW D HRMM SECON CODA AMPLIT PERI AZIMU VELO AIN AR TRES W  DIS CAZ7
 LZ4  SN IP       18 0 50.25                             165    0.3110 2.84 126 
 LZ4  SZ E        18 0 50.25                  305.6 18.0      0        2.84 126 
 LZ4  SE IS       18 0 51.00                             165   -0.3110 2.84 126 
 LZ4  SZ  AML     18 0 52.04        13.0 0.98                          2.84 126 
                                                                                
 2010  8 2 18 4 27.0 L                       RAL  0                            1
 ACTION:UPD 13-02-28 14:29 OP:RALL STATUS:               ID:20100802180427     I
 2010-08-02-1804-27S.PLUR1_018                                                 6
 STAT SP IPHASW D HRMM SECON CODA AMPLIT PERI AZIMU VELO AIN AR TRES W  DIS CAZ7
                                                                                
 2010  8 2 1815 52.3 L  21.301 -99.252 10.0  RAL  1 0.0 0.6LRAL                1
 GAP=360        0.35      11.2     6.6  0.0 -0.7337E+02  0.2252E+06  0.1068E+06E
 ACTION:UPD 13-02-28 14:29 OP:RALL STATUS:               ID:20100802181552     I
 2010-08-02-1815-45S.PLUR1_003                                                 6
 STAT SP IPHASW D HRMM SECON CODA AMPLIT PERI AZIMU VELO AIN AR TRES W  DIS CAZ7
 LZ4  SZ E        1815 54.35                  151.2 10.9      0        3.74 331 
 LZ4  SN IP       1815 54.38                             160    0.1310 3.74 331 
 LZ4  SE IS       1815 55.54                             160   -0.1310 3.74 331 
 LZ4  SZ  AML     1815 56.65        21.3 0.18                          3.74 331 
                                                                                
 2010  8 2 1820 33.0 L  21.318 -99.268 10.0  RAL  1 0.1 0.4LRAL                1
 GAP=360        0.65     327.7   999.9  0.0  0.1077E+07  0.2252E+06  0.1068E+06E
 ACTION:UPD 13-02-28 14:29 OP:RALL STATUS:               ID:20100802182033     I
 2010-08-02-1820-26S.PLUR1_003                                                 6
 STAT SP IPHASW D HRMM SECON CODA AMPLIT PERI AZIMU VELO AIN AR TRES W  DIS CAZ7
 LZ4  SZ E        1820 35.21                  174.5 21.7      0        1.41 355 
 LZ4  SN IP       1820 35.24                             172    0.3810 1.41 355 
 LZ4  SE IS       1820 35.82                             172   -0.3810 1.41 355 
 LZ4  SZ  AML     1820 36.26        12.8 0.20                          1.41 355 
                                                                                
 2010  8 2 1831 41.8 L  21.310 -99.285 10.0  RAL  1 0.1 0.2LRAL                1
 GAP=360        0.62      23.7    18.2  0.0  0.4316E+03  0.2252E+06  0.1068E+06E
 ACTION:UPD 13-02-28 14:29 OP:RALL STATUS:               ID:20100802183141     I
 2010-08-02-1831-34S.PLUR1_003                                                 6
 STAT SP IPHASW D HRMM SECON CODA AMPLIT PERI AZIMU VELO AIN AR TRES W  DIS CAZ7
 LZ4  SZ E        1831 43.95                  215.5 46.3      0        2.81  36 
 LZ4  SN IP       1831 44.03                             165    0.3610 2.81  36 
 LZ4  SE IS       1831 44.68                             165   -0.3610 2.81  36 
 LZ4  SZ  AML     1831 44.99         7.9 0.30                          2.81  36 
                                                                                
 2010  8 2 1846  9.0 L  21.360 -99.201 10.0  RAL  1 0.0 1.7LRAL                1
 GAP=360        0.30       2.5     5.9  0.0  0.1465E+02  0.2252E+06  0.1068E+06E
 ACTION:UPD 13-02-28 14:29 OP:RALL STATUS:               ID:20100802184609     I
 2010-08-02-1845-58S.PLUR1_003                                                 6
 STAT SP IPHASW D HRMM SECON CODA AMPLIT PERI AZIMU VELO AIN AR TRES W  DIS CAZ7
 LZ4  SN IP       1846 11.23                             142    0.0210 7.84 246 
 LZ4  SZ E        1846 11.28                   65.6 20.4      0        7.84 246 
 LZ4  SE IS       1846 12.83                             142   -0.0210 7.84 246 
 LZ4  SZ  AML     1846 12.99       224.4 0.24                          7.84 246 
                                                                                
 2010  8 2 1926 23.6 L  21.316 -99.270 10.0  RAL  1 0.2 1.1LRAL                1
 GAP=360        2.43     999.9   999.9  0.0 -0.2035E+09  0.2252E+06  0.1068E+06E
 ACTION:UPD 13-02-28 14:29 OP:RALL STATUS:               ID:20100802192623     I
 2010-08-02-1926-14S.PLUR1_003                                                 6
 STAT SP IPHASW D HRMM SECON CODA AMPLIT PERI AZIMU VELO AIN AR TRES W  DIS CAZ7
 LZ4  SN IP       1926 25.83                             171    0.3410 1.63   2 
 LZ4  SZ E        1926 25.84                  193.6 22.0     11        1.63   2 
 LZ4  SE IS       1926 26.50                             171   -0.3410 1.63   2 
 LZ4  SZ  AML     1926 26.78        64.7 0.20                          1.63   2 
                                                                                
 2010  8 2 1942 33.3 L  21.200 -99.319 10.0  RAL  3 1.5 1.4LRAL                1
 GAP=217       27.31      24.1    19.6201.0  0.3549E+03 -0.2219E+03 -0.2616E+03E
   81.0000   90.0000   40.0000     0  0.0   0.0                       FOCMEC   F
 ACTION:UPD 13-02-28 14:29 OP:RALL STATUS:               ID:20100802194233     I
 2010-08-02-1942-25S.PLUR1_009                                                 6
 STAT SP IPHASW D HRMM SECON CODA AMPLIT PERI AZIMU VELO AIN AR TRES W  DIS CAZ7
 LD5  SZ E      D 1942 36.07                   27.6 14.4     24        1.50 183 
 LD5  SN IP     C 1942 36.07                             172    0.9610 1.50 183 
 LD5  SE IS     C 1942 37.62                             172    1.1610 1.50 183 
 LD5  SZ  AMPG    1942 37.76        46.0 0.03                          1.50 183 
 LD5  SN  AMSG    1942 38.82       225.4 0.17                          1.50 183 
 LD5  SZ  AML     1942 39.18        16.6 0.84                          1.50 183 
 LG3  SZ E      C 1942 34.80                  281.6 23.3     62        10.9  40 
 LG3  SN IP     D 1942 34.82                             132   -1.0310 10.9  40 
 LG3  SE IS     D 1942 35.24                             132   -2.4910 10.9  40 
 LG3  SZ  AMPG    1942 35.31     27328.4 0.10                          10.9  40 
 LG3  SZ  AML     1942 35.35      4231.2 0.60                          10.9  40 
 LG3  SN  AMSG    1942 35.39     31870.3 0.09                          10.9  40 
 LO8  SZ E        1942 36.50                  149.9  5.5    -99        11.9 112 
 LO8  SN IP     C 1942 36.52                             130    0.5210 11.9 112 
 LO8  SE IS     C 1942 38.88                             130    0.8910 11.9 112 
 LO8  SZ  AMPG    1942 39.88        56.9 0.07                          11.9 112 
 LO8  SN  AMSG    1942 40.62        93.6 0.07                          11.9 112 
 LO8  SZ  AML     1942 41.13        13.1 0.24                          11.9 112 
                                                                                
 2010  8 2 2111 29.1 L  21.436 -99.314 10.0  RAL  1 0.0 1.3LRAL                1
 GAP=360        0.30       4.3     1.9  0.0 -0.7931E+01 -0.2219E+03 -0.2616E+03E
 ACTION:UPD 13-02-28 14:29 OP:RALL STATUS:               ID:20100802211129     I
 2010-08-02-2111-22S.PLUR1_003                                                 6
 STAT SP IPHASW D HRMM SECON CODA AMPLIT PERI AZIMU VELO AIN AR TRES W  DIS CAZ7
 LZ4  SN IP       2111 31.88                             127    0.0110 12.5 158 
 LZ4  SZ E        2111 31.92                  338.4 13.7      0        12.5 158 
 LZ4  SE IS       2111 33.88                             127   -0.0110 12.5 158 
 LZ4  SZ  AML     2111 34.29        77.1 0.20                          12.5 158 
                                                                                
 2010  8 2 2116 50.0 L  21.275 -99.259 10.0  RAL  1 0.4 0.6LRAL                1
 GAP=360        4.56     999.9   999.9  0.0 -0.6052E+10 -0.2219E+03 -0.2616E+03E
 ACTION:UPD 13-02-28 14:29 OP:RALL STATUS:               ID:20100802211650     I
 2010-08-02-2116-43S.PLUR1_003                                                 6
 STAT SP IPHASW D HRMM SECON CODA AMPLIT PERI AZIMU VELO AIN AR TRES W  DIS CAZ7
 LG3  SN IP       2116 52.28                             176    0.4110 0.70  88 
 LG3  SZ E        2116 52.31                  290.0 21.1     22        0.70  88 
 LG3  SE IS       2116 52.81                             176   -0.4110 0.70  88 
 LG3  SZ  AML     2116 52.93        22.2 0.32                          0.70  88 
                                                                                
 2010  8 2 2158  9.6 L  21.412 -99.301 13.6  RAL  3 0.2 0.6LRAL                1
 GAP=169        1.13       4.3     0.9 11.3 -0.1729E+01 -0.3341E+01  0.3337E+02E
 ACTION:UPD 13-02-28 14:29 OP:RALL STATUS:               ID:20100802215809     I
 2010-08-02-2158-02S.PLUR1_012                                                 6
 STAT SP IPHASW D HRMM SECON CODA AMPLIT PERI AZIMU VELO AIN AR TRES W  DIS CAZ7
 LA4  SZ E        2158 12.29                  174.5  8.9      1        8.01 354 
 LA4  SN IP       2158 12.33                             150    0.0110 8.01 354 
 LA4  SE IS       2158 14.27                             150   -0.0510 8.01 354 
 LA4  SZ  AML     2158 14.91       127.7 0.36                          8.01 354 
 LD5  SN IP       2158 13.92                             117   -0.3710 25.0 185 
 LD5  SZ E        2158 13.92                    7.8 10.1      3        25.0 185 
 LD5  SE IS       2158 17.29                             117   -0.4410 25.0 185 
 LD5  SZ  AML     2158 18.43         3.0 0.18                          25.0 185 
 LO8  SZ E      C 2158 14.59                                           29.3 162 
 LO8  SN IP       2158 14.95                             113    0.0110 29.3 162 
 LO8  SE IS       2158 19.69                             113    0.8410 29.3 162 
 LO8  SZ  AML     2158 20.58         2.8 0.10                          29.3 162 
 LO8  SZ  AMP     2158 20.60                                           29.3 162 
                                                                                
 2010  8 2 2223  0.5 L  21.322 -99.267 10.0  RAL  1 0.0 0.5LRAL                1
 GAP=360        0.30       4.0     1.2  0.0 -0.4157E+01 -0.3341E+01  0.3337E+02E
 ACTION:UPD 13-02-28 14:29 OP:RALL STATUS:               ID:20100802222300     I
 2010-08-02-2222-56S.PLUR1_003                                                 6
 STAT SP IPHASW D HRMM SECON CODA AMPLIT PERI AZIMU VELO AIN AR TRES W  DIS CAZ7
 LA4  SZ E        2223  3.96                  166.4  7.5      0        18.4 346 
 LA4  SN IP       2223  4.10                             116    0.0210 18.4 346 
 LA4  SE IS       2223  6.64                             116   -0.0210 18.4 346 
 LA4  SZ  AML     2223  6.93         8.8 0.10                          18.4 346 
                                                                                
 2010  8 2 2227 50.8 L  21.153 -99.212 10.0  RAL  3 1.2 0.3LRAL                1
 GAP=295       20.70      22.3    27.9150.6 -0.3148E+03  0.3117E+03 -0.2729E+03E
 ACTION:UPD 13-02-28 14:29 OP:RALL STATUS:               ID:20100802222750     I
 2010-08-02-2227-44S.PLUR1_009                                                 6
 STAT SP IPHASW D HRMM SECON CODA AMPLIT PERI AZIMU VELO AIN AR TRES W  DIS CAZ7
 LO8  SN IP       2227 54.42                             176    1.6910 0.70 353 
 LO8  SZ E        2227 54.59                  136.3  9.3    -36        0.70 353 
 LO8  SE IS       2227 56.20                             176    2.0910 0.70 353 
 LO8  SZ  AML     2227 57.25         1.8 0.22                          0.70 353 
 LD5  SN IP       2227 53.50                             135   -0.0110 11.8 288 
 LD5  SZ E        2227 53.53                   44.9  8.7    -62        11.8 288 
 LD5  SE IS       2227 54.83                             135   -0.6310 11.8 288 
 LD5  SZ  AML     2227 55.17         4.5 0.18                          11.8 288 
 LG3  SZ E        2227 52.93                  255.7 17.0     93        14.2 343 
 LG3  SN IP       2227 52.95                             128   -0.8710 14.2 343 
 LG3  SE IS       2227 53.74                             128   -2.2610 14.2 343 
 LG3  SZ  AML     2227 54.07        61.4 0.24                          14.2 343 
                                                                                
