 2010  910 2029 43.2 L  21.394 -99.328 10.0  RAL  1 0.9-0.5LRAL                1
 GAP=360       11.58     999.9   999.9  0.0 -0.2100E+11 -0.8466E+04  0.2355E+05E
 ACTION:UPD 13-02-28 14:29 OP:RALL STATUS:               ID:20100910202943     I
 2010-09-10-2029-36S.PLUR1_003                                                 6
 STAT SP IPHASW D HRMM SECON CODA AMPLIT PERI AZIMU VELO AIN AR TRES W  DIS CAZ7
 LT9  SN IP       2029 45.02                             179    0.0710 0.21  52 
 LT9  SZ E        2029 45.07                  176.3 10.4    -54        0.21  52 
 LT9  SE IS       2029 46.18                             179   -0.0710 0.21  52 
 LT9  SZ  AML     2029 46.93         1.7 0.38                          0.21  52 
                                                                                
 2010  910 2140  4.8 L  21.301 -99.341 10.0  RAL  1 0.0-0.3LRAL                1
 GAP=360        0.30       4.9     0.8  0.0  0.3869E+01 -0.8466E+04  0.2355E+05E
 ACTION:UPD 13-02-28 14:29 OP:RALL STATUS:               ID:20100910214004     I
 2010-09-10-2139-59S.PLUR1_003                                                 6
 STAT SP IPHASW D HRMM SECON CODA AMPLIT PERI AZIMU VELO AIN AR TRES W  DIS CAZ7
 LT9  SN IP       2140  7.27                             132    0.0010 10.5   8 
 LT9  SZ E        2140  7.41                  188.5 11.0      0        10.5   8 
 LT9  SE IS       2140  9.08                             132    0.0010 10.5   8 
 LT9  SZ  AML     2140  9.17         2.0 0.32                          10.5   8 
                                                                                
 2010  911 0146 44.1 L  21.228 -99.246  0.0  RAL  2 0.3 0.4LRAL                1
 GAP=349        3.30      46.4    19.2999.9 -0.8532E+03 -0.2384E+05  0.5978E+05E
 ACTION:UPD 13-02-28 14:29 OP:RALL STATUS:               ID:20100911014644     I
 2010-09-11-0146-39S.PLUR1_006                                                 6
 STAT SP IPHASW D HRMM SECON CODA AMPLIT PERI AZIMU VELO AIN AR TRES W  DIS CAZ7
 LT9  SZ E         146 48.33                  163.7  6.0      8        20.4 336 
 LT9  SN IP        146 48.33                              92    0.6310 20.4 336 
 LT9  SE IS        146 49.32                              92   -0.9810 20.4 336 
 LT9  SZ  AML      146 50.28         4.3 0.48                          20.4 336 
 LA4  SZ E         146 49.96                  155.0  6.2    -11        29.1 347 
 LA4  SN IP        146 49.98                              92    0.7510 29.1 347 
 LA4  SE IS        146 52.54                              92   -0.4010 29.1 347 
 LA4  SZ  AML      146 52.89        10.3 0.10                          29.1 347 
                                                                                
 2010  911 0350 34.0 L  21.345 -99.301 10.0  RAL  1 0.0 0.1LRAL                1
 GAP=360        0.30       6.4     3.3  0.0 -0.2093E+02 -0.2384E+05  0.5978E+05E
 ACTION:UPD 13-02-28 14:29 OP:RALL STATUS:               ID:20100911035034     I
 2010-09-11-0350-27S.PLUR1_003                                                 6
 STAT SP IPHASW D HRMM SECON CODA AMPLIT PERI AZIMU VELO AIN AR TRES W  DIS CAZ7
 LT9  SN IP        350 36.12                             148    0.0310 6.14 334 
 LT9  SZ E         350 36.14                  154.2  8.0      0        6.14 334 
 LT9  SE IS        350 37.56                             148   -0.0310 6.14 334 
 LT9  SZ  AML      350 37.77         6.2 0.42                          6.14 334 
                                                                                
 2010  911 0400 38.6 L  21.209 -99.238  0.0  RAL  2 0.3 1.5LRAL                1
 GAP=350        3.79      58.6    23.8999.9 -0.1336E+04 -0.4012E+05  0.1022E+06E
 ACTION:UPD 13-02-28 14:29 OP:RALL STATUS:               ID:20100911040038     I
 2010-09-11-0400-33S.PLUR1_006                                                 6
 STAT SP IPHASW D HRMM SECON CODA AMPLIT PERI AZIMU VELO AIN AR TRES W  DIS CAZ7
 LT9  SZ E         4 0 43.17                  165.8  7.5     10        22.6 336 
 LT9  SN IP        4 0 43.17                              92    0.6510 22.6 336 
 LT9  SE IS        4 0 44.58                              92   -0.8210 22.6 336 
 LT9  SZ  AML      4 0 44.84        35.1 0.40                          22.6 336 
 LA4  SZ E         4 0 44.63                  152.0  6.9    -13        31.3 346 
 LA4  SN IP        4 0 44.65                              92    0.6010 31.3 346 
 LA4  SE IS        4 0 47.61                              92   -0.4310 31.3 346 
 LA4  SZ  AML      4 0 47.77       152.9 0.40                          31.3 346 
                                                                                
 2010  911 0437 21.9 L  21.361 -99.319 10.0  RAL  1 0.0-0.7LRAL                1
 GAP=360        0.30      10.2     2.3  0.0 -0.2336E+02 -0.4012E+05  0.1022E+06E
 ACTION:UPD 13-02-28 14:29 OP:RALL STATUS:               ID:20100911043721     I
 2010-09-11-0437-15S.PLUR1_003                                                 6
 STAT SP IPHASW D HRMM SECON CODA AMPLIT PERI AZIMU VELO AIN AR TRES W  DIS CAZ7
 LT9  SN IP        437 23.83                             159    0.0410 3.86 348 
 LT9  SZ E         437 23.84                  168.2  7.2      0        3.86 348 
 LT9  SE IS        437 25.13                             159   -0.0410 3.86 348 
 LT9  SZ  AML      437 25.88         1.0 0.18                          3.86 348 
                                                                                
 2010  911 0707 18.7 L  21.246 -99.220 10.0  RAL  1 0.0 0.3LRAL                1
 GAP=360        0.30       3.3     2.4  0.0 -0.7849E+01 -0.4012E+05  0.1022E+06E
 ACTION:UPD 13-02-28 14:29 OP:RALL STATUS:               ID:20100911070718     I
 2010-09-11-0707-15S.PLUR1_003                                                 6
 STAT SP IPHASW D HRMM SECON CODA AMPLIT PERI AZIMU VELO AIN AR TRES W  DIS CAZ7
 LT9  SN IP        7 7 22.39                             113    0.0010 19.9 326 
 LT9  SZ E         7 7 22.40                  146.2  9.3      0        19.9 326 
 LT9  SE IS        7 7 25.10                             113    0.0010 19.9 326 
 LT9  SZ  AML      7 7 25.63         5.4 0.26                          19.9 326 
                                                                                
 2010  911 0719 24.3 L  21.192 -99.276  7.4  RAL  2 0.3 0.3LRAL                1
 GAP=353        5.28     140.3    28.8999.9 -0.3797E+04 -0.1075E+06  0.5558E+06E
 ACTION:UPD 13-02-28 14:29 OP:RALL STATUS:               ID:20100911071924     I
 2010-09-11-0719-21S.PLUR1_006                                                 6
 STAT SP IPHASW D HRMM SECON CODA AMPLIT PERI AZIMU VELO AIN AR TRES W  DIS CAZ7
 LT9  SZ E         719 28.76                  182.5 12.6     16        23.1 347 
 LT9  SN IP        719 28.76                              92    0.4110 23.1 347 
 LT9  SE IS        719 30.74                              92   -0.5910 23.1 347 
 LT9  SZ  AML      719 31.71         1.3 0.18                          23.1 347 
 LA4  SN IP        719 30.22                              92    0.4010 32.5 354 
 LA4  SZ E         719 30.24                  153.8  6.6    -19        32.5 354 
 LA4  SE IS        719 33.67                              92   -0.2110 32.5 354 
 LA4  SZ  AML      719 34.22        12.9 0.24                          32.5 354 
                                                                                
 2010  911 0822 34.6 L  21.248 -99.243 10.0  RAL  1 0.0 0.4LRAL                1
 GAP=360        0.30       3.6     2.1  0.0 -0.7267E+01 -0.1075E+06  0.5558E+06E
 ACTION:UPD 13-02-28 14:29 OP:RALL STATUS:               ID:20100911082234     I
 2010-09-11-0822-30S.PLUR1_003                                                 6
 STAT SP IPHASW D HRMM SECON CODA AMPLIT PERI AZIMU VELO AIN AR TRES W  DIS CAZ7
 LT9  SZ E         822 38.08                  152.1  7.4      0        18.4 332 
 LT9  SN IP        822 38.10                             115    0.0010 18.4 332 
 LT9  SE IS        822 40.66                             115    0.0010 18.4 332 
 LT9  SZ  AML      822 42.32         6.7 0.38                          18.4 332 
                                                                                
 2010  911 0921 28.6 L  21.413 -99.348 10.0  RAL  1 0.1-0.5LRAL                1
 GAP=360        0.50      14.1    17.8  0.0 -0.2523E+03 -0.1075E+06  0.5558E+06E
 ACTION:UPD 13-02-28 14:29 OP:RALL STATUS:               ID:20100911092128     I
 2010-09-11-0921-21S.PLUR1_003                                                 6
 STAT SP IPHASW D HRMM SECON CODA AMPLIT PERI AZIMU VELO AIN AR TRES W  DIS CAZ7
 LT9  SZ E         921 30.73                  310.4 31.5      0        2.99 130 
 LT9  SN IP        921 30.76                             163    0.2710 2.99 130 
 LT9  SE IS        921 31.56                             163   -0.2710 2.99 130 
 LT9  SZ  AML      921 31.75         1.6 0.22                          2.99 130 
                                                                                
 2010  911 0956  7.9 L  21.363 -99.297 10.0  RAL  1 0.0-0.5LRAL                1
 GAP=360        0.33       7.2     6.6  0.0 -0.4732E+02 -0.1075E+06  0.5558E+06E
 ACTION:UPD 13-02-28 14:29 OP:RALL STATUS:               ID:20100911095607     I
 2010-09-11-0956-01S.PLUR1_003                                                 6
 STAT SP IPHASW D HRMM SECON CODA AMPLIT PERI AZIMU VELO AIN AR TRES W  DIS CAZ7
 LT9  SZ E         956  9.88                  139.8  7.1      0        4.76 320 
 LT9  SN IP        956  9.90                             154    0.0910 4.76 320 
 LT9  SE IS        956 11.13                             154   -0.0910 4.76 320 
 LT9  SZ  AML      956 11.24         1.5 0.28                          4.76 320 
                                                                                
 2010  911 1037 43.6 L  21.408 -99.342 10.0  RAL  1 0.2-0.9LRAL                1
 GAP=360        0.77      29.1    37.2  0.0 -0.1084E+04 -0.1075E+06  0.5558E+06E
 ACTION:UPD 13-02-28 14:29 OP:RALL STATUS:               ID:20100911103743     I
 2010-09-11-1037-36S.PLUR1_003                                                 6
 STAT SP IPHASW D HRMM SECON CODA AMPLIT PERI AZIMU VELO AIN AR TRES W  DIS CAZ7
 LT9  SZ E        1037 45.85                  310.0 10.4      0        2.18 130 
 LT9  SN IP       1037 45.87                             168    0.4810 2.18 130 
 LT9  SE IS       1037 46.23                             168   -0.4810 2.18 130 
 LT9  SZ  AML     1037 46.31         0.7 0.10                          2.18 130 
                                                                                
 2010  911 1640 40.1 L  21.335 -99.301 10.0  RAL  1 0.0-0.5LRAL                1
 GAP=360        0.30       5.9     2.5  0.0 -0.1458E+02 -0.1075E+06  0.5558E+06E
 ACTION:UPD 13-02-28 14:29 OP:RALL STATUS:               ID:20100911164040     I
 2010-09-11-1640-33S.PLUR1_003                                                 6
 STAT SP IPHASW D HRMM SECON CODA AMPLIT PERI AZIMU VELO AIN AR TRES W  DIS CAZ7
 LT9  SZ E        1640 42.21                  158.4  7.9      0        7.14 338 
 LT9  SN IP       1640 42.21                             144    0.0210 7.14 338 
 LT9  SE IS       1640 43.73                             144   -0.0210 7.14 338 
 LT9  SZ  AML     1640 44.21         1.6 0.10                          7.14 338 
                                                                                
 2010  911 1928 16.2 L  21.258 -99.293 10.0  RAL  1 0.0-0.4LRAL                1
 GAP=360        0.30       4.2     1.1  0.0 -0.4130E+01 -0.1075E+06  0.5558E+06E
 ACTION:UPD 13-02-28 14:29 OP:RALL STATUS:               ID:20100911192816     I
 2010-09-11-1928-12S.PLUR1_003                                                 6
 STAT SP IPHASW D HRMM SECON CODA AMPLIT PERI AZIMU VELO AIN AR TRES W  DIS CAZ7
 LT9  SZ E        1928 19.27                  167.3  7.3      0        15.6 347 
 LT9  SN IP       1928 19.29                             120    0.0010 15.6 347 
 LT9  SE IS       1928 21.57                             120    0.0010 15.6 347 
 LT9  SZ  AML     1928 22.47         1.2 0.20                          15.6 347 
                                                                                
 2010  911 2014 27.5 L  21.352 -99.315 10.0  RAL  1 0.0-0.1LRAL                1
 GAP=360        0.30       8.2     2.2  0.0 -0.1796E+02 -0.1075E+06  0.5558E+06E
 ACTION:UPD 13-02-28 14:29 OP:RALL STATUS:               ID:20100911201427     I
 2010-09-11-2014-20S.PLUR1_003                                                 6
 STAT SP IPHASW D HRMM SECON CODA AMPLIT PERI AZIMU VELO AIN AR TRES W  DIS CAZ7
 LT9  SN IP       2014 29.51                             154    0.0310 4.89 346 
 LT9  SZ E        2014 29.55                  166.0  6.9      0        4.89 346 
 LT9  SE IS       2014 30.88                             154   -0.0310 4.89 346 
 LT9  SZ  AML     2014 31.03         4.2 0.10                          4.89 346 
                                                                                
 2010  911 2109 60.0 L  21.258 -99.224 10.0  RAL  1 0.0 0.0LRAL                1
 GAP=360        0.30       3.4     2.5  0.0 -0.8224E+01 -0.1075E+06  0.5558E+06E
 ACTION:UPD 13-02-28 14:29 OP:RALL STATUS:               ID:20100911210960     I
 2010-09-11-2109-56S.PLUR1_003                                                 6
 STAT SP IPHASW D HRMM SECON CODA AMPLIT PERI AZIMU VELO AIN AR TRES W  DIS CAZ7
 LT9  SN IP       2110  3.51                             115    0.0110 18.6 325 
 LT9  SZ E        2110  3.55                  145.1  9.5      0        18.6 325 
 LT9  SE IS       2110  6.08                             115   -0.0110 18.6 325 
 LT9  SZ  AML     2110  6.11         2.8 0.18                          18.6 325 
                                                                                
 2010  912 0301 18.8 L  21.373 -99.320 10.0  RAL  1 0.0 0.6LRAL                1
 GAP=360        0.33      15.7     4.5  0.0 -0.7059E+02 -0.1075E+06  0.5558E+06E
 ACTION:UPD 13-02-28 14:29 OP:RALL STATUS:               ID:20100912030118     I
 2010-09-12-0301-10S.PLUR1_003                                                 6
 STAT SP IPHASW D HRMM SECON CODA AMPLIT PERI AZIMU VELO AIN AR TRES W  DIS CAZ7
 LT9  SZ E         3 1 20.70                  165.0  7.6      0        2.59 345 
 LT9  SN IP        3 1 20.71                             165    0.0910 2.59 345 
 LT9  SE IS        3 1 21.86                             165   -0.0910 2.59 345 
 LT9  SZ  AML      3 1 21.98        22.7 0.18                          2.59 345 
                                                                                
 2010  912 0632 12.5 L  21.284 -99.267  0.0  RAL  2 0.1-0.1LRAL                1
 GAP=345        1.20       9.5     4.4271.0 -0.3919E+02 -0.8331E+03  0.1884E+04E
 ACTION:UPD 13-02-28 14:29 OP:RALL STATUS:               ID:20100912063212     I
 2010-09-12-0632-06S.PLUR1_006                                                 6
 STAT SP IPHASW D HRMM SECON CODA AMPLIT PERI AZIMU VELO AIN AR TRES W  DIS CAZ7
 LT9  SZ E         632 15.10                  155.9  7.8      2        13.7 333 
 LT9  SN IP        632 15.12                              93    0.2410 13.7 333 
 LT9  SE IS        632 16.30                              93   -0.3410 13.7 333 
 LT9  SZ  AML      632 16.39         2.1 0.26                          13.7 333 
 LA4  SZ E         632 16.62                  164.4 20.5     -3        22.5 349 
 LA4  SN IP        632 16.67                              93    0.2510 22.5 349 
 LA4  SE IS        632 19.14                              93   -0.1510 22.5 349 
 LA4  SZ  AML      632 19.44         3.3 0.16                          22.5 349 
                                                                                
 2010  912 0859 13.7 L  20.778 -99.375 10.0  RAL  1 0.0 1.3LRAL                1
 GAP=360        0.30       3.7     2.2  0.0  0.8908E+00 -0.8331E+03  0.1884E+04E
 ACTION:UPD 13-02-28 14:29 OP:RALL STATUS:               ID:20100912085913     I
 2010-09-12-0859-17S.PLUR1_003                                                 6
 STAT SP IPHASW D HRMM SECON CODA AMPLIT PERI AZIMU VELO AIN AR TRES W  DIS CAZ7
 LA4  SZ E         859 26.32                  185.0  6.0      0        78.5   5 
 LA4  SN IP        859 26.43                              94    0.0110 78.5   5 
 LA4  SE IS        859 35.69                              94   -0.0110 78.5   5 
 LA4  SZ  AML      859 37.07        15.4 0.16                          78.5   5 
                                                                                
 2010  912 1055 31.6 L  21.378 -99.339 10.0  RAL  1 0.2-0.8LRAL                1
 GAP=360        0.72      32.9    24.0  0.0  0.7881E+03 -0.8331E+03  0.1884E+04E
 ACTION:UPD 13-02-28 14:29 OP:RALL STATUS:               ID:20100912105531     I
 2010-09-12-1055-24S.PLUR1_003                                                 6
 STAT SP IPHASW D HRMM SECON CODA AMPLIT PERI AZIMU VELO AIN AR TRES W  DIS CAZ7
 LT9  SZ E        1055 33.81                  214.2 13.8      0        2.33  34 
 LT9  SN IP       1055 33.82                             167    0.4410 2.33  34 
 LT9  SE IS       1055 34.26                             167   -0.4410 2.33  34 
 LT9  SZ  AML     1055 34.44         0.8 0.32                          2.33  34 
                                                                                
 2010  912 1554 23.7 L  21.593 -99.318 10.0  RAL  1 0.0 0.4LRAL                1
 GAP=360        0.30       4.7     0.5  0.0 -0.1914E+01 -0.8331E+03  0.1884E+04E
 ACTION:UPD 13-02-28 14:29 OP:RALL STATUS:               ID:20100912155423     I
 2010-09-12-1554-19S.PLUR1_003                                                 6
 STAT SP IPHASW D HRMM SECON CODA AMPLIT PERI AZIMU VELO AIN AR TRES W  DIS CAZ7
 LA4  SN IP       1554 26.47                             129    0.0010 12.1 175 
 LA4  SZ E        1554 26.50                  355.4  7.8      0        12.1 175 
 LA4  SE IS       1554 28.46                             129    0.0010 12.1 175 
 LA4  SZ  AML     1554 28.81         9.2 0.10                          12.1 175 
                                                                                
 2010  912 1729 57.4 L  21.334 -99.310 10.0  RAL  1 0.0-0.7LRAL                1
 GAP=360        0.30       6.2     1.7  0.0 -0.1025E+02 -0.8331E+03  0.1884E+04E
 ACTION:UPD 13-02-28 14:29 OP:RALL STATUS:               ID:20100912172957     I
 2010-09-12-1729-51S.PLUR1_003                                                 6
 STAT SP IPHASW D HRMM SECON CODA AMPLIT PERI AZIMU VELO AIN AR TRES W  DIS CAZ7
 LT9  SN IP       1729 59.50                             145    0.0210 6.96 346 
 LT9  SZ E        1729 59.56                  166.2  9.2      0        6.96 346 
 LT9  SE IS       1730  1.00                             145   -0.0210 6.96 346 
 LT9  SZ  AML     1730  1.44         0.9 0.32                          6.96 346 
                                                                                
