 2010  511 0952 42.4 L  21.350 -99.275 10.0  RAL  1 0.1 0.5LRAL                1
 GAP=360        0.43     999.9   999.9  0.0  0.5736E+08  0.3033E+06  0.9323E+06E
 ACTION:UPD 12-06-08 11:37 OP:RALL STATUS:               ID:20100511095242     I
 2010-05-11-0952-36S.PLUR1_003                                                 6
 STAT SP IPHASW D HRMM SECON CODA AMPLIT PERI AZIMU VELO AIN AR TRES W  DIS CAZ7
 LZ4  SZ E         952 44.49                  345.4 23.6      0        2.14 165 
 LZ4  SN IP        952 44.49                             168    0.2110 2.14 165 
 LZ4  SE IS        952 45.44                             168   -0.2110 2.14 165 
 LZ4  SZ  AML      952 45.81        18.7 0.12                          2.14 165 
                                                                                
 2010  513 0337 13.4 L  21.289 -99.253 10.0  RAL  1 0.2 1.6LRAL                1
 GAP=360        2.64     999.9   999.9  0.0  0.2693E+09  0.3033E+06  0.9323E+06E
 ACTION:UPD 12-06-08 11:37 OP:RALL STATUS:               ID:20100513033713     I
 2010-05-13-0337-06S.PLUR1_003                                                 6
 STAT SP IPHASW D HRMM SECON CODA AMPLIT PERI AZIMU VELO AIN AR TRES W  DIS CAZ7
 LG3  SN IP        337 15.65                             172    0.4010 1.47 177 
 LG3  SZ E         337 15.65                  345.2 22.5    -11        1.47 177 
 LG3  SE IS        337 16.21                             172   -0.4010 1.47 177 
 LG3  SZ  AML      337 16.31       246.9 0.26                          1.47 177 
                                                                                
 2010  514 0410 31.3 L  21.259 -99.272 10.0  RAL  1 0.1 0.6LRAL                1
 GAP=360        0.62      20.9    24.3  0.0  0.5067E+03  0.3033E+06  0.9323E+06E
 ACTION:UPD 12-06-08 11:37 OP:RALL STATUS:               ID:20100514041031     I
 2010-05-14-0410-24S.PLUR1_003                                                 6
 STAT SP IPHASW D HRMM SECON CODA AMPLIT PERI AZIMU VELO AIN AR TRES W  DIS CAZ7
 LG3  SN IP        410 33.58                             165    0.3710 2.71  47 
 LG3  SZ E         410 33.62                  227.4 14.0      0        2.71  47 
 LG3  SE IS        410 34.23                             165   -0.3710 2.71  47 
 LG3  SZ  AML      410 34.28        21.4 0.32                          2.71  47 
                                                                                
 2010  514 1010 17.3 R  21.917 -99.652 10.0  RAL  1 0.0 1.5LRAL                1
 GAP=360        0.30       3.3     2.8  0.0 -0.4747E+01  0.3033E+06  0.9323E+06E
 ACTION:UPD 12-06-08 11:37 OP:RALL STATUS:               ID:20100514101017     I
 2010-05-14-1010-20S.PLUR1_003                                                 6
 STAT SP IPHASW D HRMM SECON CODA AMPLIT PERI AZIMU VELO AIN AR TRES W  DIS CAZ7
 LZ4  SZ E        1010 29.46                  328.7 37.3      0        76.0 149 
 LZ4  SN IP       1010 29.58                              94    0.0110 76.0 149 
 LZ4  SE IS       1010 38.55                              94   -0.0110 76.0 149 
 LZ4  SZ  AML     1010 39.57        25.2 0.24                          76.0 149 
                                                                                
 2010  514 1027  0.2 R  20.712 -99.545 10.0  RAL  1 0.0 1.6LRAL                1
 GAP=360        0.30       3.5     2.4  0.0  0.3827E+01  0.3033E+06  0.9323E+06E
 ACTION:UPD 12-06-08 11:37 OP:RALL STATUS:               ID:20100514102700     I
 2010-05-14-1027-03S.PLUR1_003                                                 6
 STAT SP IPHASW D HRMM SECON CODA AMPLIT PERI AZIMU VELO AIN AR TRES W  DIS CAZ7
 LZ4  SZ E        1027 11.99                  202.7 14.2      0        74.2  23 
 LZ4  SN IP       1027 12.26                              95    0.0110 74.2  23 
 LZ4  SE IS       1027 21.03                              95   -0.0110 74.2  23 
 LZ4  SZ  AML     1027 22.44        29.3 0.22                          74.2  23 
                                                                                
 2010  515 1009 37.4 L  21.292 -99.222 10.0  RAL  1 0.1 0.1LRAL                1
 GAP=360        0.39       7.3    13.6  0.0  0.9868E+02  0.3033E+06  0.9323E+06E
 ACTION:UPD 12-06-08 11:37 OP:RALL STATUS:               ID:20100515100937     I
 2010-05-15-1009-30S.PLUR1_003                                                 6
 STAT SP IPHASW D HRMM SECON CODA AMPLIT PERI AZIMU VELO AIN AR TRES W  DIS CAZ7
 LG3  SN IP       10 9 39.48                             161    0.1710 3.66 240 
 LG3  SZ E        10 9 39.55                   60.1 19.5      0        3.66 240 
 LG3  SE IS       10 9 40.56                             161   -0.1710 3.66 240 
 LG3  SZ  AML     10 9 40.91         6.0 0.36                          3.66 240 
                                                                                
 2010  516 0745 19.6 L  21.321 -99.275 10.0  RAL  1 0.3 1.0LRAL                1
 GAP=360        2.36     999.9   999.9  0.0 -0.3513E+08  0.3033E+06  0.9323E+06E
 ACTION:UPD 12-06-08 11:37 OP:RALL STATUS:               ID:20100516074519     I
 2010-05-16-0745-13S.PLUR1_003                                                 6
 STAT SP IPHASW D HRMM SECON CODA AMPLIT PERI AZIMU VELO AIN AR TRES W  DIS CAZ7
 LZ4  SN IP        745 22.09                             173    0.6110 1.21  27 
 LZ4  SZ E         745 22.11                  217.1  8.8     10        1.21  27 
 LZ4  SE IS        745 22.21                             173   -0.6110 1.21  27 
 LZ4  SZ  AML      745 22.29        52.2 0.20                          1.21  27 
                                                                                
 2010  517 0341 45.0 L  21.423 -99.270 10.0  RAL  1 0.0 0.2LRAL                1
 GAP=360        0.30       4.2     0.7  0.0 -0.2084E+01  0.3033E+06  0.9323E+06E
 ACTION:UPD 12-06-08 11:37 OP:RALL STATUS:               ID:20100517034145     I
 2010-05-17-0341-41S.PLUR1_003                                                 6
 STAT SP IPHASW D HRMM SECON CODA AMPLIT PERI AZIMU VELO AIN AR TRES W  DIS CAZ7
 LG3  SZ E         341 48.22                  353.8 13.2      0        16.4 174 
 LG3  SN IP        341 48.27                             119    0.0210 16.4 174 
 LG3  SE IS        341 50.62                             119   -0.0210 16.4 174 
 LG3  SZ  AML      341 51.45         5.1 0.22                          16.4 174 
                                                                                
 2010  517 0922 18.5 L  21.322 -99.249 10.0  RAL  1 0.1 0.7LRAL                1
 GAP=360        0.53      13.3    29.0  0.0 -0.3854E+03  0.3033E+06  0.9323E+06E
 ACTION:UPD 12-06-08 11:37 OP:RALL STATUS:               ID:20100517092218     I
 2010-05-17-0922-11S.PLUR1_003                                                 6
 STAT SP IPHASW D HRMM SECON CODA AMPLIT PERI AZIMU VELO AIN AR TRES W  DIS CAZ7
 LZ4  SZ E         922 20.68                  116.1 33.2      0        2.32 296 
 LZ4  SN IP        922 20.69                             167    0.3010 2.32 296 
 LZ4  SE IS        922 21.46                             167   -0.3010 2.32 296 
 LZ4  SZ  AML      922 21.92        30.2 0.24                          2.32 296 
                                                                                
 2010  518 0528 46.6 R  21.592-100.267 10.0  RAL  1 0.0 2.6LRAL                1
 GAP=360        0.30       3.0     3.9  0.0 -0.1755E+01  0.3033E+06  0.9323E+06E
 ACTION:UPD 12-06-08 11:37 OP:RALL STATUS:               ID:20100518052846     I
 2010-05-18-0528-53S.PLUR1_003                                                 6
 STAT SP IPHASW D HRMM SECON CODA AMPLIT PERI AZIMU VELO AIN AR TRES W  DIS CAZ7
 LG3  SZ E         529  4.23                  288.6 14.2      0         111 108 
 LG3  SN IP        529  4.29                              93    0.0010  111 108 
 LG3  SE IS        529 17.23                              93    0.0010  111 108 
 LG3  SZ  AML      529 21.30       224.2 0.34                           111 108 
                                                                                
 2010  518 0532 35.8 R  20.194 -98.765 10.0  RAL  1 0.0                        1
 GAP=360        0.30       4.6     4.3  0.0 -0.2348E+01  0.3033E+06  0.9323E+06E
 ACTION:UPD 12-06-08 11:37 OP:RALL STATUS:               ID:20100518053235     I
 2010-05-18-0532-42S.PLUR1_006                                                 6
 STAT SP IPHASW D HRMM SECON CODA AMPLIT PERI AZIMU VELO AIN AR TRES W  DIS CAZ7
 LA4  SZ E         532 59.21                  158.3  8.0      0         154 338 
 LA4  SN IP        532 59.34                              52    0.0110  154 338 
 LA4  SE IS        533 16.47                              52   -0.0110  154 338 
                                                                                
 2010  518 0737 13.1 R  20.260 -99.629 10.0  RAL  1 0.0 1.8LRAL                1
 GAP=360        0.30       3.6     3.4  0.0  0.1397E+01  0.3033E+06  0.9323E+06E
 ACTION:UPD 12-06-08 11:37 OP:RALL STATUS:               ID:20100518073713     I
 2010-05-18-0737-23S.PLUR1_003                                                 6
 STAT SP IPHASW D HRMM SECON CODA AMPLIT PERI AZIMU VELO AIN AR TRES W  DIS CAZ7
 LG3  SN IP        737 32.05                              93    0.0010  119  19 
 LG3  SZ E         737 32.06                  199.3  6.0      0         119  19 
 LG3  SE IS        737 45.92                              93    0.0010  119  19 
 LG3  SZ  AML      737 50.39        31.9 0.50                           119  19 
                                                                                
 2010  518 1011  7.1 R  20.576 -98.531 10.0  RAL  1 0.0 1.6LRAL                1
 GAP=360        0.30       3.4     3.5  0.0 -0.2705E+01  0.3033E+06  0.9323E+06E
 ACTION:UPD 12-06-08 11:37 OP:RALL STATUS:               ID:20100518101107     I
 2010-05-18-1011-15S.PLUR1_003                                                 6
 STAT SP IPHASW D HRMM SECON CODA AMPLIT PERI AZIMU VELO AIN AR TRES W  DIS CAZ7
 LZ4  SN IP       1011 25.28                              93    0.0010  114 318 
 LZ4  SZ E        1011 25.32                  137.3 22.3      0         114 318 
 LZ4  SE IS       1011 38.52                              93    0.0010  114 318 
 LZ4  SZ  AML     1011 41.43        21.9 0.32                           114 318 
                                                                                
 2010  519 0434 43.8 R  20.675-100.010 10.0  RAL  2 1.7 1.9LRAL                1
 GAP=342       22.82     351.3   506.4999.9  0.1565E+06  0.4866E+07  0.3206E+07E
 ACTION:UPD 12-06-08 11:37 OP:RALL STATUS:               ID:20100519043443     I
 2010-05-19-0434-48S.PLUR1_006                                                 6
 STAT SP IPHASW D HRMM SECON CODA AMPLIT PERI AZIMU VELO AIN AR TRES W  DIS CAZ7
 LO8  SZ E         434 55.89                  317.2 13.2     80        98.8  57 
 LO8  SN IP        434 56.43                              93   -3.2510 98.8  57 
 LO8  SE IS        435  8.60                              93   -2.6610 98.8  57 
 LO8  SZ  AML      435 10.59        23.1 0.30                          98.8  57 
 LA4  SZ E         435  3.31                  148.2  8.6    -70         115  39 
 LA4  SN IP        435  3.34                              93    1.1010  115  39 
 LA4  SE IS        435 20.51                              93    4.8110  115  39 
 LA4  SZ  AML      435 23.43        71.6 0.50                           115  39 
                                                                                
 2010  519 0500 57.5 R  21.347-100.433 10.0  RAL  1 0.0 1.0LRAL                1
 GAP=360        0.30       3.2     4.0  0.0 -0.2355E+00  0.4866E+07  0.3206E+07E
 ACTION:UPD 12-06-08 11:37 OP:RALL STATUS:               ID:20100519050057     I
 2010-05-19-0501-11S.PLUR1_003                                                 6
 STAT SP IPHASW D HRMM SECON CODA AMPLIT PERI AZIMU VELO AIN AR TRES W  DIS CAZ7
 LG3  SZ E         5 1 16.92                  273.9 12.1      0         123  93 
 LG3  SN IP        5 1 17.08                              93    0.0010  123  93 
 LG3  SE IS        5 1 31.37                              93    0.0010  123  93 
 LG3  SZ  AML      5 1 32.36         5.1 0.16                           123  93 
                                                                                
 2010  519 0932 47.7 R  22.398 -99.301 10.0  RAL  1 0.0 1.2LRAL                1
 GAP=360        0.30       3.7     3.5  0.0 -0.1469E+00  0.4866E+07  0.3206E+07E
 ACTION:UPD 12-06-08 11:37 OP:RALL STATUS:               ID:20100519093247     I
 2010-05-19-0933-00S.PLUR1_003                                                 6
 STAT SP IPHASW D HRMM SECON CODA AMPLIT PERI AZIMU VELO AIN AR TRES W  DIS CAZ7
 LG3  SZ E         933  7.56                  357.7  4.9      0         124 178 
 LG3  SN IP        933  7.57                              93    0.0010  124 178 
 LG3  SE IS        933 22.04                              93    0.0010  124 178 
 LG3  SZ  AML      933 23.04         7.6 0.14                           124 178 
                                                                                
 2010  520 0656 20.4 R  21.832 -99.371 10.0  RAL  1 0.0 2.1LRAL                1
 GAP=360        0.30       3.7     1.7  0.0 -0.2309E+01  0.4866E+07  0.3206E+07E
 ACTION:UPD 12-06-08 11:37 OP:RALL STATUS:               ID:20100520065620     I
 2010-05-20-0656-20S.PLUR1_003                                                 6
 STAT SP IPHASW D HRMM SECON CODA AMPLIT PERI AZIMU VELO AIN AR TRES W  DIS CAZ7
 LZ4  SN IP        656 29.66                              96    0.0110 56.4 169 
 LZ4  SZ E         656 29.71                  349.3  6.8      0        56.4 169 
 LZ4  SE IS        656 36.43                              96   -0.0110 56.4 169 
 LZ4  SZ  AML      656 37.67       118.3 0.24                          56.4 169 
                                                                                
 2010  520 0823 51.9 R  20.766-100.256 10.0  RAL  1 0.0 1.4LRAL                1
 GAP=360        0.30       3.2     3.8  0.0  0.1930E+01  0.4866E+07  0.3206E+07E
 ACTION:UPD 12-06-08 11:37 OP:RALL STATUS:               ID:20100520082351     I
 2010-05-20-0824-03S.PLUR1_003                                                 6
 STAT SP IPHASW D HRMM SECON CODA AMPLIT PERI AZIMU VELO AIN AR TRES W  DIS CAZ7
 LG3  SN IP        824 10.87                              93    0.0010  119  61 
 LG3  SZ E         824 10.94                  241.8 10.0      0         119  61 
 LG3  SE IS        824 24.69                              93    0.0010  119  61 
 LG3  SZ  AML      824 28.12        12.2 0.12                           119  61 
                                                                                
 2010  520 1056 11.7 R  20.860 -98.047 10.0  RAL  1 0.0 2.7LRAL                1
 GAP=360        0.30       3.7     4.9  0.0 -0.3645E+01  0.4866E+07  0.3206E+07E
 ACTION:UPD 12-06-08 11:37 OP:RALL STATUS:               ID:20100520105611     I
 2010-05-20-1056-24S.PLUR1_003                                                 6
 STAT SP IPHASW D HRMM SECON CODA AMPLIT PERI AZIMU VELO AIN AR TRES W  DIS CAZ7
 LZ4  SZ E        1056 33.15                  112.1 17.6      0         137 293 
 LZ4  SN IP       1056 33.21                              52    0.0110  137 293 
 LZ4  SE IS       1056 48.88                              52   -0.0110  137 293 
 LZ4  SZ  AML     1056 51.66       219.4 0.26                           137 293 
                                                                                
 2010  520 1649 16.8 R  21.858 -99.393  4.6  RAL  2 0.2 1.3LRAL                1
 GAP=356        2.41     189.3    37.4373.8 -0.6930E+04 -0.1362E+05  0.7031E+05E
 ACTION:UPD 12-06-08 11:37 OP:RALL STATUS:               ID:20100520164916     I
 2010-05-20-1649-15S.PLUR1_006                                                 6
 STAT SP IPHASW D HRMM SECON CODA AMPLIT PERI AZIMU VELO AIN AR TRES W  DIS CAZ7
 LA4  SN IP       1649 23.50                              63   -0.4010 42.3 168 
 LA4  SZ E        1649 23.51                  355.7  8.6      8        42.3 168 
 LA4  SE IS       1649 28.93                              63   -0.1410 42.3 168 
 LA4  SZ  AML     1649 29.60        93.6 0.48                          42.3 168 
 LT7  SN IP       1649 25.82                              63    0.5110 51.7 172 
 LT7  SZ E        1649 25.85                  344.0 10.6     -7        51.7 172 
 LT7  SE IS       1649 31.56                              63    0.0310 51.7 172 
 LT7  SZ  AML     1649 32.06         6.8 0.26                          51.7 172 
                                                                                
 2010  520 2049 46.6 R  21.160 -99.215 10.0  RAL  2 0.8 0.1LRAL                1
 GAP=242       12.31      12.4    30.5 68.7  0.3516E+03  0.4731E+02 -0.1842E-01E
 ACTION:UPD 12-06-08 11:37 OP:RALL STATUS:               ID:20100520204946     I
 2010-05-20-2049-41S.PLUR1_006                                                 6
 STAT SP IPHASW D HRMM SECON CODA AMPLIT PERI AZIMU VELO AIN AR TRES W  DIS CAZ7
 LO8  SZ E        2049 48.11                  333.1  9.4     59        0.16  94 
 LO8  SN IP       2049 48.24                             179   -0.2910 0.16  94 
 LO8  SE IS       2049 48.82                             179   -1.0810 0.16  94 
 LO8  SZ  AML     2049 53.57         3.3 0.14                          0.16  94 
 LT7  SN IP       2049 53.18                             104    1.5510 28.5 336 
 LT7  SZ E        2049 53.56                  158.7  7.7      3        28.5 336 
 LT7  SE IS       2049 55.10                             104   -0.1810 28.5 336 
 LT7  SZ  AML     2049 55.63         5.3 0.32                          28.5 336 
                                                                                
 2010  521 0510 27.7 R  21.229 -99.229 10.0  RAL  1 0.0 0.5LRAL                1
 GAP=360        0.30       4.5     1.8  0.0 -0.7859E+01  0.4731E+02 -0.1842E-01E
 ACTION:UPD 12-06-08 11:37 OP:RALL STATUS:               ID:20100521051027     I
 2010-05-21-0510-23S.PLUR1_003                                                 6
 STAT SP IPHASW D HRMM SECON CODA AMPLIT PERI AZIMU VELO AIN AR TRES W  DIS CAZ7
 LZ4  SN IP        510 30.41                             129    0.0110 12.0 340 
 LZ4  SZ E         510 30.48                  159.6 14.8      0        12.0 340 
 LZ4  SE IS        510 32.36                             129   -0.0110 12.0 340 
 LZ4  SZ  AML      510 32.99        11.1 0.38                          12.0 340 
                                                                                
 2010  521 1204 30.7 L  21.417 -99.236  9.9  RAL  2 1.2 1.2LRAL                1
 GAP=349       20.51     186.3    31.9384.9  0.2553E+04 -0.2748E+04 -0.3203E+05E
 ACTION:UPD 12-06-08 11:37 OP:RALL STATUS:               ID:20100521120430     I
 2010-05-21-1204-25S.PLUR1_006                                                 6
 STAT SP IPHASW D HRMM SECON CODA AMPLIT PERI AZIMU VELO AIN AR TRES W  DIS CAZ7
 LG3  SZ E        12 4 34.77                  343.0 25.2     23        15.7 186 
 LG3  SN IP       12 4 34.81                             116    0.8910 15.7 186 
 LG3  SE IS       12 4 35.31                             116   -0.9410 15.7 186 
 LG3  SZ  AML     12 4 35.77       345.4 0.10                          15.7 186 
 LO8  SZ E        12 4 36.47                   92.6  9.3     97        28.6 175 
 LO8  SN IP       12 4 36.48                             103    0.6810 28.6 175 
 LO8  SE IS       12 4 38.86                             103   -0.6310 28.6 175 
 LO8  SZ  AML     12 4 40.13         3.7 0.48                          28.6 175 
                                                                                
