 2010  417 2145 56.9 R  20.527 -98.684 10.0  RAL  1 0.0 3.3LRAL                1
 GAP=360        0.30       3.4     3.3  0.0 -0.2952E+01  0.3617E+01 -0.6718E+01E
 ACTION:UPD 12-06-08 11:37 OP:RALL STATUS:               ID:20100417214556     I
 2010-04-17-2146-04S.PLUR1_003                                                 6
 STAT SP IPHASW D HRMM SECON CODA AMPLIT PERI AZIMU VELO AIN AR TRES W  DIS CAZ7
 LZ4  SZ E        2146 14.13                  145.5  6.7      0         108 326 
 LZ4  SN IP       2146 14.16                              93    0.0010  108 326 
 LZ4  SE IS       2146 26.75                              93    0.0010  108 326 
 LZ4  SZ  AML     2146 32.15      1139.2 0.38                           108 326 
                                                                                
 2010  418 0427 12.3 R  21.710-100.037 10.0  RAL  1 0.0 2.0LRAL                1
 GAP=360        0.30       2.8     3.7  0.0 -0.3649E+01  0.3617E+01 -0.6718E+01E
 ACTION:UPD 12-06-08 11:37 OP:RALL STATUS:               ID:20100418042712     I
 2010-04-18-0427-17S.PLUR1_006                                                 6
 STAT SP IPHASW D HRMM SECON CODA AMPLIT PERI AZIMU VELO AIN AR TRES W  DIS CAZ7
 LG3  SZ E         427 26.99                  300.7 14.7      0        94.5 120 
 LG3  SN IP        427 27.47                              93    0.0110 94.5 120 
 LG3  SE IS        427 38.54                              93   -0.0110 94.5 120 
 LG3  SZ  AML      427 39.58        61.2 0.20                          94.5 120 
                                                                                
 2010  419 0055 15.8 L  21.279 -99.251 10.0  RAL  1 0.5 0.4LRAL                1
 GAP=360        5.75     999.9   999.9  0.0 -0.5082E+07  0.3617E+01 -0.6718E+01E
 ACTION:UPD 12-06-08 11:37 OP:RALL STATUS:               ID:20100419005515     I
 2010-04-19-0055-09S.PLUR1_003                                                 6
 STAT SP IPHASW D HRMM SECON CODA AMPLIT PERI AZIMU VELO AIN AR TRES W  DIS CAZ7
 LG3  SZ E         055 18.01                  351.3  5.3     27        0.34 199 
 LG3  SN IP        055 18.02                             178    0.3410 0.34 199 
 LG3  SE IS        055 18.69                             178   -0.3410 0.34 199 
 LG3  SZ  AML      055 18.83        13.5 0.10                          0.34 199 
                                                                                
 2010  419 1535 18.0 L  21.310 -99.241 10.0  RAL  1 0.1 0.5LRAL                1
 GAP=360        0.42       9.3    13.0  0.0 -0.1210E+03  0.3617E+01 -0.6718E+01E
 ACTION:UPD 12-06-08 11:37 OP:RALL STATUS:               ID:20100419153518     I
 2010-04-19-1535-11S.PLUR1_003                                                 6
 STAT SP IPHASW D HRMM SECON CODA AMPLIT PERI AZIMU VELO AIN AR TRES W  DIS CAZ7
 LZ4  SN IP       1535 20.16                             160    0.2010 3.73 308 
 LZ4  SZ E        1535 20.18                  127.6 20.2      0        3.73 308 
 LZ4  SE IS       1535 21.17                             160   -0.2010 3.73 308 
 LZ4  SZ  AML     1535 21.92        15.1 0.18                          3.73 308 
                                                                                
 2010  419 2018 14.2 L  21.318 -99.260 10.0  RAL  1 0.2 0.3LRAL                1
 GAP=360        0.86     126.1   338.7  0.0  0.4269E+05  0.3617E+01 -0.6718E+01E
 ACTION:UPD 12-06-08 11:37 OP:RALL STATUS:               ID:20100419201814     I
 2010-04-19-2018-07S.PLUR1_003                                                 6
 STAT SP IPHASW D HRMM SECON CODA AMPLIT PERI AZIMU VELO AIN AR TRES W  DIS CAZ7
 LZ4  SZ E        2018 16.48                  149.3 18.4      2        1.75 327 
 LZ4  SN IP       2018 16.50                             170    0.4710 1.75 327 
 LZ4  SE IS       2018 16.91                             170   -0.4710 1.75 327 
 LZ4  SZ  AML     2018 16.91        10.7 0.16                          1.75 327 
                                                                                
 2010  420 1345  4.3 L  21.020 -98.773 10.0  RAL  1 0.0 1.2LRAL                1
 GAP=360        0.30       2.5     3.4  0.0 -0.5572E+01  0.3617E+01 -0.6718E+01E
 ACTION:UPD 12-06-08 11:37 OP:RALL STATUS:               ID:20100420134504     I
 2010-04-20-1345-06S.PLUR1_003                                                 6
 STAT SP IPHASW D HRMM SECON CODA AMPLIT PERI AZIMU VELO AIN AR TRES W  DIS CAZ7
 LZ4  SN IP       1345 14.43                              96    0.0110 61.9 304 
 LZ4  SZ E        1345 14.60                  123.6  7.7      0        61.9 304 
 LZ4  SE IS       1345 21.81                              96   -0.0110 61.9 304 
 LZ4  SZ  AML     1345 24.57        15.0 0.44                          61.9 304 
                                                                                
 2010  420 1955 57.4 L  21.512 -99.320 10.0  RAL  1 0.0 0.9LRAL                1
 GAP=360        0.30       3.9     1.2  0.0 -0.4152E+01  0.3617E+01 -0.6718E+01E
 ACTION:UPD 12-06-08 11:37 OP:RALL STATUS:               ID:20100420195557     I
 2010-04-20-1955-54S.PLUR1_003                                                 6
 STAT SP IPHASW D HRMM SECON CODA AMPLIT PERI AZIMU VELO AIN AR TRES W  DIS CAZ7
 LZ4  SZ E        1956  1.20                  345.5 17.8      0        20.7 165 
 LZ4  SN IP       1956  1.28                             113    0.0210 20.7 165 
 LZ4  SE IS       1956  4.06                             113   -0.0210 20.7 165 
 LZ4  SZ  AML     1956  4.71        18.9 0.56                          20.7 165 
                                                                                
 2010  421 0934 28.6 L  21.319 -99.268 10.0  RAL  1 0.3 0.7LRAL                1
 GAP=360        2.29     150.2   625.8  0.0 -0.9394E+05  0.3617E+01 -0.6718E+01E
 ACTION:UPD 12-06-08 11:37 OP:RALL STATUS:               ID:20100421093428     I
 2010-04-21-0934-21S.PLUR1_003                                                 6
 STAT SP IPHASW D HRMM SECON CODA AMPLIT PERI AZIMU VELO AIN AR TRES W  DIS CAZ7
 LZ4  SZ E         934 31.01                  162.1 20.3     -9        1.30 352 
 LZ4  SN IP        934 31.03                             173    0.5910 1.30 352 
 LZ4  SE IS        934 31.19                             173   -0.5910 1.30 352 
 LZ4  SZ  AML      934 31.36        30.6 0.16                          1.30 352 
                                                                                
 2010  423 0838 54.6 L  21.287 -99.409 10.0  RAL  1 0.0 2.2LRAL                1
 GAP=360        0.30       1.4     4.4  0.0  0.6012E+01  0.3617E+01 -0.6718E+01E
 ACTION:UPD 12-06-08 11:37 OP:RALL STATUS:               ID:20100423083854     I
 2010-04-23-0838-47S.PLUR1_003                                                 6
 STAT SP IPHASW D HRMM SECON CODA AMPLIT PERI AZIMU VELO AIN AR TRES W  DIS CAZ7
 LZ4  SZ E         838 57.68                  251.4 17.0      0        15.3  71 
 LZ4  SN IP        838 57.70                             121    0.0010 15.3  71 
 LZ4  SE IS        838 59.97                             121    0.0010 15.3  71 
 LZ4  SZ  AML      839  0.89       476.1 0.32                          15.3  71 
                                                                                
 2010  423 1807 28.5 L  21.155 -99.015 34.1  RAL  4 1.1 1.7LRAL                1
 GAP=312       15.81      34.1    71.1145.7 -0.1759E+04 -0.1400E+04  0.2827E+03E
 ACTION:UPD 12-06-08 11:37 OP:RALL STATUS:               ID:20100423180728     I
 2010-04-23-1807-26S.PLUR1_012                                                 6
 STAT SP IPHASW D HRMM SECON CODA AMPLIT PERI AZIMU VELO AIN AR TRES W  DIS CAZ7
 LO8  SN IP       18 7 37.81                             145    3.0510 20.6 272 
 LO8  SZ E        18 7 37.88                  130.6  6.9     39        20.6 272 
 LO8  SE IS       18 7 41.25                             145    1.9310 20.6 272 
 LO8  SZ  AML     18 7 41.98        23.8 0.28                          20.6 272 
 LG3  SZ E        18 7 36.45                   45.4 20.3    -72        28.1 299 
 LG3  SN IP       18 7 36.48                             134    1.1210 28.1 299 
 LG3  SE IS       18 7 38.77                             134   -1.5810 28.1 299 
 LG3  SZ  AML     18 7 40.13       219.7 0.24                          28.1 299 
 LT7  SZ E        18 7 36.47                  180.8  8.0     51        41.9 310 
 LT7  SN IP       18 7 36.49                             119   -0.2410 41.9 310 
 LT7  SE IS       18 7 39.21                             119   -3.5110 41.9 310 
 LT7  SZ  AML     18 7 40.14        20.7 0.38                          41.9 310 
 LA4  SZ E        18 7 38.12                  160.5  8.3     21        47.5 320 
 LA4  SN IP       18 7 38.13                             115    0.7010 47.5 320 
 LA4  SE IS       18 7 42.47                             115   -1.4510 47.5 320 
 LA4  SZ  AML     18 7 43.39        86.6 0.26                          47.5 320 
                                                                                
 2010  423 2058 27.4 L  21.328 -99.277 10.0  RAL  1 0.4 1.0LRAL                1
 GAP=360        4.73     218.2   901.4  0.0 -0.1964E+06 -0.1400E+04  0.2827E+03E
 ACTION:UPD 12-06-08 11:37 OP:RALL STATUS:               ID:20100423205827     I
 2010-04-23-2058-20S.PLUR1_003                                                 6
 STAT SP IPHASW D HRMM SECON CODA AMPLIT PERI AZIMU VELO AIN AR TRES W  DIS CAZ7
 LZ4  SZ E        2058 29.41                  271.9 17.1     22        0.86  69 
 LZ4  SN IP       2058 29.42                             175    0.2010 0.86  69 
 LZ4  SE IS       2058 30.36                             175   -0.2010 0.86  69 
 LZ4  SZ  AML     2058 31.14        52.5 0.46                          0.86  69 
                                                                                
 2010  425 0442 45.8 L  21.186 -99.136 10.0  RAL  1 0.0 0.8LRAL                1
 GAP=360        0.30       2.7     3.6  0.0 -0.9648E+01 -0.1400E+04  0.2827E+03E
 ACTION:UPD 12-06-08 11:37 OP:RALL STATUS:               ID:20100425044245     I
 2010-04-25-0442-40S.PLUR1_003                                                 6
 STAT SP IPHASW D HRMM SECON CODA AMPLIT PERI AZIMU VELO AIN AR TRES W  DIS CAZ7
 LG3  SN IP        442 48.98                             121    0.0110 15.7 309 
 LG3  SZ E         442 49.02                  129.2 17.2      0        15.7 309 
 LG3  SE IS        442 51.28                             121   -0.0110 15.7 309 
 LG3  SZ  AML      442 52.57        17.8 0.20                          15.7 309 
                                                                                
 2010  425 0916 54.8 L  21.330 -99.281 10.0  RAL  1 0.2 1.3LRAL                1
 GAP=360        0.67     999.9   225.2  0.0 -0.4267E+06 -0.1400E+04  0.2827E+03E
 ACTION:UPD 12-06-08 11:37 OP:RALL STATUS:               ID:20100425091654     I
 2010-04-25-0916-47S.PLUR1_003                                                 6
 STAT SP IPHASW D HRMM SECON CODA AMPLIT PERI AZIMU VELO AIN AR TRES W  DIS CAZ7
 LZ4  SZ E         916 57.00                  265.1 24.5      0        1.21  86 
 LZ4  SN IP        916 57.01                             173    0.3910 1.21  86 
 LZ4  SE IS        916 57.57                             173   -0.3910 1.21  86 
 LZ4  SZ  AML      916 58.24       103.7 0.56                          1.21  86 
                                                                                
 2010  425 1911  8.0 L  21.367 -99.411 10.0  RAL  1 0.0 0.9LRAL                1
 GAP=360        0.30       1.2     4.5  0.0 -0.5094E+01 -0.1400E+04  0.2827E+03E
 ACTION:UPD 12-06-08 11:37 OP:RALL STATUS:               ID:20100425191108     I
 2010-04-25-1911-01S.PLUR1_003                                                 6
 STAT SP IPHASW D HRMM SECON CODA AMPLIT PERI AZIMU VELO AIN AR TRES W  DIS CAZ7
 LZ4  SZ E        1911 11.04                  285.4 27.7      0        15.2 105 
 LZ4  SN IP       1911 11.13                             121    0.0010 15.2 105 
 LZ4  SE IS       1911 13.39                             121    0.0010 15.2 105 
 LZ4  SZ  AML     1911 14.64        27.0 0.16                          15.2 105 
                                                                                
 2010  426 0645 20.6 L  21.289 -99.406 10.0  RAL  1 0.0 1.2LRAL                1
 GAP=360        0.30       1.4     4.4  0.0  0.6014E+01 -0.1400E+04  0.2827E+03E
 ACTION:UPD 12-06-08 11:37 OP:RALL STATUS:               ID:20100426064520     I
 2010-04-26-0645-14S.PLUR1_003                                                 6
 STAT SP IPHASW D HRMM SECON CODA AMPLIT PERI AZIMU VELO AIN AR TRES W  DIS CAZ7
 LZ4  SZ E         645 23.64                  251.8 13.4      0        14.9  72 
 LZ4  SN IP        645 23.70                             122    0.0010 14.9  72 
 LZ4  SE IS        645 25.93                             122    0.0010 14.9  72 
 LZ4  SZ  AML      645 27.68        49.1 0.32                          14.9  72 
                                                                                
 2010  426 1618 44.8 L  21.155 -99.208 40.3  RAL  2 0.8 0.3LRAL                1
 GAP=339        4.72      37.1    21.6 54.6 -0.6057E+03  0.2634E+03 -0.5385E+03E
 ACTION:UPD 12-06-08 11:37 OP:RALL STATUS:               ID:20100426161844     I
 2010-04-26-1618-45S.PLUR1_006                                                 6
 STAT SP IPHASW D HRMM SECON CODA AMPLIT PERI AZIMU VELO AIN AR TRES W  DIS CAZ7
 LO8  SN IP       1618 53.24                             179    2.3010 0.67 315 
 LO8  SZ E        1618 53.27                  134.1  8.9      0        0.67 315 
 LO8  SE IS       1618 56.64                             179    1.2110 0.67 315 
 LO8  SZ  AML     1618 57.28         2.5 0.34                          0.67 315 
 LT7  SZ E        1618 51.79                  165.9 10.0     11        29.2 335 
 LT7  SN IP       1618 51.80                             137   -0.3710 29.2 335 
 LT7  SE IS       1618 54.43                             137   -3.1410 29.2 335 
 LT7  SZ  AML     1618 55.30         3.0 0.64                          29.2 335 
                                                                                
 2010  428 0335 24.3 R  21.279 -99.263100.0  RAL  2 0.6 2.5LRAL                1
 GAP=308        3.50       9.2     5.9 41.0 -0.2883E+02  0.2958E+01 -0.6587E+01E
 ACTION:UPD 12-06-08 11:37 OP:RALL STATUS:               ID:20100428033524     I
 2010-04-28-0335-26S.PLUR1_006                                                 6
 STAT SP IPHASW D HRMM SECON CODA AMPLIT PERI AZIMU VELO AIN AR TRES W  DIS CAZ7
 LG3  SZ E         335 38.24                  285.7 12.5      0        1.14 107 
 LG3  SN IP        335 38.37                             179    0.7910 1.14 107 
 LG3  SE IS        335 49.65                             179    2.3610 1.14 107 
 LG3  SZ  AML      335 52.05       333.2 0.22                          1.14 107 
 LO8  SZ E         335 35.83                  341.4  7.0      3        14.1 158 
 LO8  SN IP        335 35.93                             171   -1.8110 14.1 158 
 LO8  SE IS        335 46.23                             171   -1.3410 14.1 158 
 LO8  SZ  AML      335 46.58        80.7 0.18                          14.1 158 
                                                                                
 2010  428 1152 55.3 L  21.406 -99.300 10.0  RAL  1 0.0 0.6LRAL                1
 GAP=360        0.30       4.1     1.5  0.0 -0.6098E+01  0.2958E+01 -0.6587E+01E
 ACTION:UPD 12-06-08 11:37 OP:RALL STATUS:               ID:20100428115255     I
 2010-04-28-1152-49S.PLUR1_003                                                 6
 STAT SP IPHASW D HRMM SECON CODA AMPLIT PERI AZIMU VELO AIN AR TRES W  DIS CAZ7
 LG3  SN IP       1152 58.42                             122    0.0010 15.2 161 
 LG3  SZ E        1152 58.43                  341.3  6.8      0        15.2 161 
 LG3  SE IS       1153  0.69                             122    0.0010 15.2 161 
 LG3  SZ  AML     1153  1.68        12.8 0.26                          15.2 161 
                                                                                
 2010  429 0958 55.0 L  21.356 -99.291 10.0  RAL  1 0.1 0.4LRAL                1
 GAP=360        0.45      13.1    11.5  0.0 -0.1513E+03  0.2958E+01 -0.6587E+01E
 ACTION:UPD 12-06-08 11:37 OP:RALL STATUS:               ID:20100429095855     I
 2010-04-29-0958-49S.PLUR1_003                                                 6
 STAT SP IPHASW D HRMM SECON CODA AMPLIT PERI AZIMU VELO AIN AR TRES W  DIS CAZ7
 LZ4  SZ E         958 57.16                  320.7 14.9      0        3.59 141 
 LZ4  SN IP        958 57.17                             161    0.2310 3.59 141 
 LZ4  SE IS        958 58.12                             161   -0.2310 3.59 141 
 LZ4  SZ  AML      958 58.59        14.4 0.14                          3.59 141 
                                                                                
 2010  429 1934 20.0 L  21.297 -99.369 10.0  RAL  1 0.0 0.4LRAL                1
 GAP=360        0.30       1.7     5.0  0.0  0.8417E+01  0.2958E+01 -0.6587E+01E
 ACTION:UPD 12-06-08 11:37 OP:RALL STATUS:               ID:20100429193420     I
 2010-04-29-1934-15S.PLUR1_003                                                 6
 STAT SP IPHASW D HRMM SECON CODA AMPLIT PERI AZIMU VELO AIN AR TRES W  DIS CAZ7
 LZ4  SZ E        1934 22.60                  250.0 35.1      0        11.0  70 
 LZ4  SN IP       1934 22.62                             132    0.0110 11.0  70 
 LZ4  SE IS       1934 24.48                             132   -0.0110 11.0  70 
 LZ4  SZ  AML     1934 25.39         9.1 0.50                          11.0  70 
                                                                                
 2010  429 2001 50.4 L  21.554 -99.315 10.0  RAL  1 0.0 0.7LRAL                1
 GAP=360        0.30       3.8     1.0  0.0 -0.2943E+01  0.2958E+01 -0.6587E+01E
 ACTION:UPD 12-06-08 11:37 OP:RALL STATUS:               ID:20100429200150     I
 2010-04-29-2001-48S.PLUR1_003                                                 6
 STAT SP IPHASW D HRMM SECON CODA AMPLIT PERI AZIMU VELO AIN AR TRES W  DIS CAZ7
 LZ4  SN IP       20 1 54.90                             108    0.0110 25.1 169 
 LZ4  SZ E        20 1 54.90                  349.1 10.0      0        25.1 169 
 LZ4  SE IS       20 1 58.17                             108   -0.0110 25.1 169 
 LZ4  SZ  AML     20 2  0.13        10.7 0.20                          25.1 169 
                                                                                
 2010  430 0513 42.8 L  21.747 -99.327 10.0  RAL  1 0.0 2.1LRAL                1
 GAP=360        0.30       3.7     1.4  0.0 -0.1724E+01  0.2958E+01 -0.6587E+01E
 ACTION:UPD 12-06-08 11:37 OP:RALL STATUS:               ID:20100430051342     I
 2010-04-30-0513-41S.PLUR1_003                                                 6
 STAT SP IPHASW D HRMM SECON CODA AMPLIT PERI AZIMU VELO AIN AR TRES W  DIS CAZ7
 LZ4  SN IP        513 50.52                              98    0.0110 46.5 173 
 LZ4  SZ E         513 50.61                  352.6 10.5      0        46.5 173 
 LZ4  SE IS        513 56.17                              98   -0.0110 46.5 173 
 LZ4  SZ  AML      513 56.57       164.6 0.26                          46.5 173 
                                                                                
