 2010 12 8 0140 25.9 L  21.494 -99.384 10.0  RAL  1 0.0 0.3LRAL                1
 GAP=360        0.30       4.1     2.4  0.0 -0.9683E+01  0.5903E+01 -0.6551E+01E
 ACTION:UPD 12-06-08 11:37 OP:RALL STATUS:               ID:20101208014025     I
 2010-12-08-0140-20S.PLUR1_003                                                 6
 STAT SP IPHASW D HRMM SECON CODA AMPLIT PERI AZIMU VELO AIN AR TRES W  DIS CAZ7
 LT9  SZ E         140 28.59                  331.2  7.3      0        12.4 151 
 LT9  SN IP        140 28.60                             127    0.0210 12.4 151 
 LT9  SE IS        140 30.55                             127   -0.0210 12.4 151 
 LT9  SZ  AML      140 30.90         7.6 0.22                          12.4 151 
                                                                                
 2010 12 8 1328 26.1 L  21.441 -99.353 10.0  RAL  1 0.0-0.2LRAL                1
 GAP=360        0.30       6.6     3.9  0.0 -0.2565E+02  0.5903E+01 -0.6551E+01E
 ACTION:UPD 12-06-08 11:37 OP:RALL STATUS:               ID:20101208132826     I
 2010-12-08-1328-19S.PLUR1_003                                                 6
 STAT SP IPHASW D HRMM SECON CODA AMPLIT PERI AZIMU VELO AIN AR TRES W  DIS CAZ7
 LT9  SZ E        1328 28.14                  331.2  7.9      0        5.72 151 
 LT9  SN IP       1328 28.16                             150    0.0410 5.72 151 
 LT9  SE IS       1328 29.55                             150   -0.0410 5.72 151 
 LT9  SZ  AML     1328 30.79         2.8 0.74                          5.72 151 
                                                                                
 2010 12 9  815 23.4 L                       RAL  1                            1
 ACTION:UPD 12-06-08 11:37 OP:RALL STATUS:               ID:20101209081523     I
 2010-12-09-0815-23S.PLUR1_003                                                 6
 STAT SP IPHASW D HRMM SECON CODA AMPLIT PERI AZIMU VELO AIN AR TRES W  DIS CAZ7
 LT9  SN IP        815 30.19                                                    
 LT9  SZ E         815 30.20                  148.8  8.1                        
 LT9  SZ  AML      815 33.10         0.9 0.12                                   
                                                                                
 2010 12 9 1228 47.7 L  20.845 -99.675 10.0  RAL  1 0.0 0.9LRAL                1
 GAP=360        0.30       3.3     2.6  0.0  0.4893E+01  0.5903E+01 -0.6551E+01E
 ACTION:UPD 12-06-08 11:37 OP:RALL STATUS:               ID:20101209122847     I
 2010-12-09-1228-57S.PLUR1_003                                                 6
 STAT SP IPHASW D HRMM SECON CODA AMPLIT PERI AZIMU VELO AIN AR TRES W  DIS CAZ7
 LT9  SN IP       1228 59.19                              95    0.0110 70.8  31 
 LT9  SZ E        1228 59.47                  210.8 12.6      0        70.8  31 
 LT9  SE IS       1229  7.56                              95   -0.0110 70.8  31 
 LT9  SZ  AML     1229  8.99         7.0 0.52                          70.8  31 
                                                                                
 2010 12 9 1752  5.4 L  20.762 -99.518 10.0  RAL  1 0.0 0.9LRAL                1
 GAP=360        0.30       3.6     2.2  0.0  0.2868E+01  0.5903E+01 -0.6551E+01E
 ACTION:UPD 12-06-08 11:37 OP:RALL STATUS:               ID:20101209175205     I
 2010-12-09-1752-15S.PLUR1_003                                                 6
 STAT SP IPHASW D HRMM SECON CODA AMPLIT PERI AZIMU VELO AIN AR TRES W  DIS CAZ7
 LT9  SZ E        1752 17.25                  195.9  8.6      0        72.8  16 
 LT9  SN IP       1752 17.25                              95    0.0110 72.8  16 
 LT9  SE IS       1752 25.85                              95   -0.0110 72.8  16 
 LT9  SZ  AML     1752 27.25         7.1 0.44                          72.8  16 
                                                                                
 2010 12 9 1940  8.1 L  20.808 -99.565 10.0  RAL  1 0.0 0.8LRAL                1
 GAP=360        0.30       3.5     2.3  0.0  0.3746E+01  0.5903E+01 -0.6551E+01E
 ACTION:UPD 12-06-08 11:37 OP:RALL STATUS:               ID:20101209194008     I
 2010-12-09-1940-17S.PLUR1_003                                                 6
 STAT SP IPHASW D HRMM SECON CODA AMPLIT PERI AZIMU VELO AIN AR TRES W  DIS CAZ7
 LT9  SZ E        1940 19.29                  200.9 10.2      0        69.6  21 
 LT9  SN IP       1940 19.39                              95    0.0110 69.6  21 
 LT9  SE IS       1940 27.62                              95   -0.0110 69.6  21 
 LT9  SZ  AML     1940 29.26         5.9 0.40                          69.6  21 
                                                                                
 2010 12 9 2248 18.9 L  21.259 -99.221 10.0  RAL  1 0.0 0.1LRAL                1
 GAP=360        0.30       3.3     2.6  0.0 -0.8305E+01  0.5903E+01 -0.6551E+01E
 ACTION:UPD 12-06-08 11:37 OP:RALL STATUS:               ID:20101209224818     I
 2010-12-09-2248-15S.PLUR1_003                                                 6
 STAT SP IPHASW D HRMM SECON CODA AMPLIT PERI AZIMU VELO AIN AR TRES W  DIS CAZ7
 LT9  SZ E        2248 22.45                  144.1  9.8      0        18.7 324 
 LT9  SN IP       2248 22.46                             115    0.0110 18.7 324 
 LT9  SE IS       2248 25.04                             115   -0.0110 18.7 324 
 LT9  SZ  AML     2248 25.88         3.5 0.32                          18.7 324 
                                                                                
 2010 1210 0144 10.9 L  21.627 -99.385 10.0  RAL  1 0.0 1.2LRAL                1
 GAP=360        0.30       3.7     2.0  0.0 -0.7292E+01  0.5903E+01 -0.6551E+01E
 ACTION:UPD 12-06-08 11:37 OP:RALL STATUS:               ID:20101210014410     I
 2010-12-10-0144-05S.PLUR1_003                                                 6
 STAT SP IPHASW D HRMM SECON CODA AMPLIT PERI AZIMU VELO AIN AR TRES W  DIS CAZ7
 LA4  SZ E         144 14.33                  333.6  8.2      0        17.7 154 
 LA4  SN IP        144 14.40                             117    0.0010 17.7 154 
 LA4  SE IS        144 16.91                             117    0.0010 17.7 154 
 LA4  SZ  AML      144 18.61        48.8 0.38                          17.7 154 
                                                                                
 2010 1211 0932 40.4 L  21.379 -99.317 10.0  RAL  1 0.2-0.3LRAL                1
 GAP=360        0.80      42.9    24.6  0.0 -0.1056E+04  0.5903E+01 -0.6551E+01E
 ACTION:UPD 12-06-08 11:37 OP:RALL STATUS:               ID:20101211093240     I
 2010-12-11-0932-33S.PLUR1_003                                                 6
 STAT SP IPHASW D HRMM SECON CODA AMPLIT PERI AZIMU VELO AIN AR TRES W  DIS CAZ7
 LT9  SZ E         932 42.67                  151.9 11.5      0        2.09 332 
 LT9  SN IP        932 42.68                             168    0.5010 2.09 332 
 LT9  SE IS        932 43.00                             168   -0.5010 2.09 332 
 LT9  SZ  AML      932 43.12         2.8 0.52                          2.09 332 
                                                                                
 2010 1211 1701 54.4 R  23.102-100.084 10.0  RAL  1 0.0                        1
 GAP=360        0.30       4.8     5.4  0.0  0.1418E+01  0.5903E+01 -0.6551E+01E
 ACTION:UPD 12-06-08 11:37 OP:RALL STATUS:               ID:20101211170154     I
 2010-12-11-1702-16S.PLUR1_003                                                 6
 STAT SP IPHASW D HRMM SECON CODA AMPLIT PERI AZIMU VELO AIN AR TRES W  DIS CAZ7
 LA4  SN IP       17 2 23.12                              52    0.0110  196 156 
 LA4  SZ E        17 2 23.14                  336.1 10.8      0         196 156 
 LA4  SE IS       17 2 44.04                              52   -0.0110  196 156 
                                                                                
 2010 1212 0642 16.4 L  21.301 -99.356 15.4  RAL  2 0.0 0.6LRAL                1
 GAP=357        0.39       4.3     1.3  4.6  0.5549E+01  0.2450E+01  0.8120E+01E
 ACTION:UPD 12-06-08 11:37 OP:RALL STATUS:               ID:20101212064216     I
 2010-12-12-0642-11S.PLUR1_006                                                 6
 STAT SP IPHASW D HRMM SECON CODA AMPLIT PERI AZIMU VELO AIN AR TRES W  DIS CAZ7
 LT9  SZ E         642 19.55                  195.7 16.9      0        10.9  16 
 LT9  SN IP        642 19.60                             145    0.0410 10.9  16 
 LT9  SE IS        642 21.88                             145    0.0210 10.9  16 
 LT9  SZ  AML      642 22.60         4.5 0.54                          10.9  16 
 LA4  SZ E         642 20.67                  194.6 12.0      1        20.8  13 
 LA4  SN IP        642 20.71                             126    0.0010 20.8  13 
 LA4  SE IS        642 23.80                             126   -0.0610 20.8  13 
 LA4  SZ  AML      642 24.44        23.0 0.30                          20.8  13 
                                                                                
 2010 1212 1106 50.7 L  21.349 -99.289 10.0  RAL  1 0.2 0.4LRAL                1
 GAP=360        0.75      24.3    27.1  0.0 -0.6580E+03  0.2450E+01  0.8120E+01E
 ACTION:UPD 12-06-08 11:37 OP:RALL STATUS:               ID:20101212110650     I
 2010-12-12-1106-44S.PLUR1_003                                                 6
 STAT SP IPHASW D HRMM SECON CODA AMPLIT PERI AZIMU VELO AIN AR TRES W  DIS CAZ7
 LZ4  SZ E        11 6 53.00                  313.9 16.7      0        2.85 134 
 LZ4  SN IP       11 6 53.03                             165    0.4610 2.85 134 
 LZ4  SE IS       11 6 53.48                             165   -0.4610 2.85 134 
 LZ4  SZ  AML     11 6 53.58        14.7 0.24                          2.85 134 
                                                                                
 2010 1212 1333 45.8 L  21.382 -99.321 10.0  RAL  1 0.2-0.3LRAL                1
 GAP=360        0.86     999.9   999.9  0.0  0.3321E+07  0.2450E+01  0.8120E+01E
 ACTION:UPD 12-06-08 11:37 OP:RALL STATUS:               ID:20101212133345     I
 2010-12-12-1333-38S.PLUR1_003                                                 6
 STAT SP IPHASW D HRMM SECON CODA AMPLIT PERI AZIMU VELO AIN AR TRES W  DIS CAZ7
 LT9  SZ E        1333 48.10                  160.0 12.7      0        1.53 340 
 LT9  SN IP       1333 48.12                             171    0.5410 1.53 340 
 LT9  SE IS       1333 48.34                             171   -0.5410 1.53 340 
 LT9  SZ  AML     1333 48.42         3.1 0.10                          1.53 340 
                                                                                
 2010 1212 1444 15.5 L  21.499 -99.362 10.0  RAL  1 0.0 1.5LRAL                1
 GAP=360        0.30       3.6     2.0  0.0 -0.6841E+01  0.2450E+01  0.8120E+01E
 ACTION:UPD 12-06-08 11:37 OP:RALL STATUS:               ID:20101212144415     I
 2010-12-12-1444-10S.PLUR1_003                                                 6
 STAT SP IPHASW D HRMM SECON CODA AMPLIT PERI AZIMU VELO AIN AR TRES W  DIS CAZ7
 LZ4  SZ E        1444 19.43                  332.8 16.9      0        20.9 153 
 LZ4  SN IP       1444 19.45                             112    0.0010 20.9 153 
 LZ4  SE IS       1444 22.29                             112    0.0010 20.9 153 
 LZ4  SZ  AML     1444 24.48        72.3 0.40                          20.9 153 
                                                                                
 2010 1212 1558 18.4 L  21.406 -99.339 10.0  RAL  1 0.0 0.2LRAL                1
 GAP=360        0.30       3.7     3.5  0.0 -0.1297E+02  0.2450E+01  0.8120E+01E
 ACTION:UPD 12-06-08 11:37 OP:RALL STATUS:               ID:20101212155818     I
 2010-12-12-1558-13S.PLUR1_003                                                 6
 STAT SP IPHASW D HRMM SECON CODA AMPLIT PERI AZIMU VELO AIN AR TRES W  DIS CAZ7
 LZ4  SZ E        1558 20.77                  318.8 97.0      0        11.0 139 
 LZ4  SN IP       1558 21.01                             132    0.0110 11.0 139 
 LZ4  SE IS       1558 22.87                             132   -0.0110 11.0 139 
 LZ4  SZ  AML     1558 23.28         5.9 0.26                          11.0 139 
                                                                                
 2010 1212 1614 46.0 L  21.481 -99.417 10.0  RAL  1 0.0 1.3LRAL                1
 GAP=360        0.30       2.9     2.9  0.0 -0.8118E+01  0.2450E+01  0.8120E+01E
 ACTION:UPD 12-06-08 11:37 OP:RALL STATUS:               ID:20101212161446     I
 2010-12-12-1614-40S.PLUR1_003                                                 6
 STAT SP IPHASW D HRMM SECON CODA AMPLIT PERI AZIMU VELO AIN AR TRES W  DIS CAZ7
 LZ4  SN IP       1614 50.18                             110    0.0010 22.6 137 
 LZ4  SZ E        1614 50.22                  317.5 13.7      0        22.6 137 
 LZ4  SE IS       1614 53.20                             110    0.0010 22.6 137 
 LZ4  SZ  AML     1614 55.44        50.5 0.22                          22.6 137 
                                                                                
 2010 1212 1739 10.0 L  21.371 -99.404 10.0  RAL  1 0.0                        1
 GAP=360        0.30       1.4     4.5  0.0 -0.5933E+01  0.2450E+01  0.8120E+01E
 ACTION:UPD 12-06-08 11:37 OP:RALL STATUS:               ID:20101212173910     I
 2010-12-12-1739-05S.PLUR1_003                                                 6
 STAT SP IPHASW D HRMM SECON CODA AMPLIT PERI AZIMU VELO AIN AR TRES W  DIS CAZ7
 LZ4  SZ E        1739 12.89                  287.8 30.4      0        14.7 108 
 LZ4  SN IP       1739 13.06                             122    0.0010 14.7 108 
 LZ4  SE IS       1739 15.27                             122    0.0010 14.7 108 
                                                                                
 2010 1212 2012 55.0 L  21.350 -99.293 10.0  RAL  1 0.1 0.3LRAL                1
 GAP=360        0.48      12.7    15.9  0.0 -0.2029E+03  0.2450E+01  0.8120E+01E
 ACTION:UPD 12-06-08 11:37 OP:RALL STATUS:               ID:20101212201255     I
 2010-12-12-2012-48S.PLUR1_003                                                 6
 STAT SP IPHASW D HRMM SECON CODA AMPLIT PERI AZIMU VELO AIN AR TRES W  DIS CAZ7
 LZ4  SZ E        2012 57.19                  310.6 33.7      0        3.28 131 
 LZ4  SN IP       2012 57.20                             162    0.2510 3.28 131 
 LZ4  SE IS       2012 58.09                             162   -0.2510 3.28 131 
 LZ4  SZ  AML     2012 58.95        10.5 0.18                          3.28 131 
                                                                                
 2010 1212 2021 59.8 L  21.313 -99.293 10.0  RAL  1 0.2 0.8LRAL                1
 GAP=360        0.66      17.5    23.6  0.0  0.4131E+03  0.2450E+01  0.8120E+01E
 ACTION:UPD 12-06-08 11:37 OP:RALL STATUS:               ID:20101212202159     I
 2010-12-12-2021-52S.PLUR1_003                                                 6
 STAT SP IPHASW D HRMM SECON CODA AMPLIT PERI AZIMU VELO AIN AR TRES W  DIS CAZ7
 LZ4  SZ E        2022  1.99                  231.4 23.6      0        3.16  51 
 LZ4  SN IP       2022  2.07                             163    0.4010 3.16  51 
 LZ4  SE IS       2022  2.66                             163   -0.4010 3.16  51 
 LZ4  SZ  AML     2022  3.16        36.5 0.14                          3.16  51 
                                                                                
 2010 1213 0015 26.3 L  21.302 -99.233 10.0  RAL  1 0.0-0.5LRAL                1
 GAP=360        0.30       3.2     3.2  0.0 -0.1033E+02  0.2450E+01  0.8120E+01E
 ACTION:UPD 12-06-08 11:37 OP:RALL STATUS:               ID:20101213001526     I
 2010-12-13-0015-21S.PLUR1_003                                                 6
 STAT SP IPHASW D HRMM SECON CODA AMPLIT PERI AZIMU VELO AIN AR TRES W  DIS CAZ7
 LT9  SZ E         015 29.19                  136.8 10.8      0        14.1 317 
 LT9  SN IP        015 29.20                             123    0.0210 14.1 317 
 LT9  SE IS        015 31.31                             123   -0.0210 14.1 317 
 LT9  SZ  AML      015 31.62         1.1 0.32                          14.1 317 
                                                                                
 2010 1213 0230  7.9 L  21.327 -99.282 10.0  RAL  1 0.1 0.3LRAL                1
 GAP=360        0.97     999.9   454.5  0.0 -0.7348E+06  0.2450E+01  0.8120E+01E
 ACTION:UPD 12-06-08 11:37 OP:RALL STATUS:               ID:20101213023007     I
 2010-12-13-0230-01S.PLUR1_003                                                 6
 STAT SP IPHASW D HRMM SECON CODA AMPLIT PERI AZIMU VELO AIN AR TRES W  DIS CAZ7
 LZ4  SZ E         230  9.96                  255.9 29.4      4        1.35  72 
 LZ4  SN IP        230 10.04                             173    0.3210 1.35  72 
 LZ4  SE IS        230 10.75                             173   -0.3210 1.35  72 
 LZ4  SZ  AML      230 11.59        11.0 0.22                          1.35  72 
                                                                                
 2010 1213 0946 24.8 L  21.321 -99.268 10.0  RAL  1 0.1 1.1LRAL                1
 GAP=360        0.60     136.8   999.9  0.0  0.2476E+06  0.2450E+01  0.8120E+01E
 ACTION:UPD 12-06-08 11:37 OP:RALL STATUS:               ID:20101213094624     I
 2010-12-13-0946-17S.PLUR1_003                                                 6
 STAT SP IPHASW D HRMM SECON CODA AMPLIT PERI AZIMU VELO AIN AR TRES W  DIS CAZ7
 LZ4  SZ E         946 26.75                  175.2 23.4      2        1.12 353 
 LZ4  SN IP        946 26.76                             174    0.1710 1.12 353 
 LZ4  SE IS        946 27.77                             174   -0.1710 1.12 353 
 LZ4  SZ  AML      946 27.86        63.3 0.18                          1.12 353 
                                                                                
 2010 1213 1023 19.2 L  21.450 -99.450 10.0  RAL  1 0.0 1.0LRAL                1
 GAP=360        0.30       2.3     3.5  0.0 -0.7626E+01  0.2450E+01  0.8120E+01E
 ACTION:UPD 12-06-08 11:37 OP:RALL STATUS:               ID:20101213102319     I
 2010-12-13-1023-15S.PLUR1_003                                                 6
 STAT SP IPHASW D HRMM SECON CODA AMPLIT PERI AZIMU VELO AIN AR TRES W  DIS CAZ7
 LZ4  SZ E        1023 23.30                  305.1 19.1      0        22.9 125 
 LZ4  SN IP       1023 23.43                             110    0.0010 22.9 125 
 LZ4  SE IS       1023 26.48                             110    0.0010 22.9 125 
 LZ4  SZ  AML     1023 26.81        22.5 0.46                          22.9 125 
                                                                                
 2010 1213 2059 13.6 L  21.295 -99.324 10.0  RAL  1 0.0-0.2LRAL                1
 GAP=360        0.30       4.9     0.3  0.0 -0.4841E+00  0.2450E+01  0.8120E+01E
 ACTION:UPD 12-06-08 11:37 OP:RALL STATUS:               ID:20101213205913     I
 2010-12-13-2059-08S.PLUR1_003                                                 6
 STAT SP IPHASW D HRMM SECON CODA AMPLIT PERI AZIMU VELO AIN AR TRES W  DIS CAZ7
 LT9  SN IP       2059 16.12                             130    0.0010 11.1 359 
 LT9  SZ E        2059 16.13                  178.9  7.5      0        11.1 359 
 LT9  SE IS       2059 17.98                             130    0.0010 11.1 359 
 LT9  SZ  AML     2059 18.19         2.6 0.38                          11.1 359 
                                                                                
