 2010  5 1 1132 14.7 L  21.570 -99.379 10.0  RAL  1 0.0 2.7LRAL                1
 GAP=360        0.30       3.5     1.8  0.0 -0.5532E+01  0.2900E+02 -0.2286E+02E
 ACTION:UPD 12-06-08 11:37 OP:RALL STATUS:               ID:20100501113214     I
 2010-05-01-1132-10S.PLUR1_003                                                 6
 STAT SP IPHASW D HRMM SECON CODA AMPLIT PERI AZIMU VELO AIN AR TRES W  DIS CAZ7
 LZ4  SN IP       1132 19.83                             105    0.0210 28.8 157 
 LZ4  SZ E        1132 19.88                  336.8  9.2      0        28.8 157 
 LZ4  SE IS       1132 23.49                             105   -0.0210 28.8 157 
 LZ4  SZ  AML     1132 24.59       943.2 0.16                          28.8 157 
                                                                                
 2010  5 1 1138 28.6 L  21.592 -99.304 10.0  RAL  1 0.0 0.8LRAL                1
 GAP=360        0.30       3.8     0.9  0.0 -0.1860E+01  0.2900E+02 -0.2286E+02E
 ACTION:UPD 12-06-08 11:37 OP:RALL STATUS:               ID:20100501113828     I
 2010-05-01-1138-28S.PLUR1_003                                                 6
 STAT SP IPHASW D HRMM SECON CODA AMPLIT PERI AZIMU VELO AIN AR TRES W  DIS CAZ7
 LZ4  SZ E        1138 33.72                  352.9 12.0      0        29.1 173 
 LZ4  SN IP       1138 33.72                             105    0.0110 29.1 173 
 LZ4  SE IS       1138 37.43                             105   -0.0110 29.1 173 
 LZ4  SZ  AML     1138 39.04        12.3 0.70                          29.1 173 
                                                                                
 2010  5 1 1151 42.1 L  21.578 -99.171 10.0  RAL  1 0.0 0.6LRAL                1
 GAP=360        0.30       3.6     1.6  0.0  0.4987E+01  0.2900E+02 -0.2286E+02E
 ACTION:UPD 12-06-08 11:37 OP:RALL STATUS:               ID:20100501115142     I
 2010-05-01-1151-41S.PLUR1_003                                                 6
 STAT SP IPHASW D HRMM SECON CODA AMPLIT PERI AZIMU VELO AIN AR TRES W  DIS CAZ7
 LZ4  SZ E        1151 47.27                   20.5 10.9      0        29.2 201 
 LZ4  SN IP       1151 47.27                             105    0.0210 29.2 201 
 LZ4  SE IS       1151 50.98                             105   -0.0210 29.2 201 
 LZ4  SZ  AML     1151 53.46         7.3 0.26                          29.2 201 
                                                                                
 2010  5 1 1253 48.9 L  21.470 -99.042 10.0  RAL  1 0.0 0.9LRAL                1
 GAP=360        0.30       2.2     3.5  0.0  0.7058E+01  0.2900E+02 -0.2286E+02E
 ACTION:UPD 12-06-08 11:37 OP:RALL STATUS:               ID:20100501125348     I
 2010-05-01-1253-48S.PLUR1_003                                                 6
 STAT SP IPHASW D HRMM SECON CODA AMPLIT PERI AZIMU VELO AIN AR TRES W  DIS CAZ7
 LZ4  SZ E        1253 53.88                   56.9 32.0      0        28.2 237 
 LZ4  SN EP       1253 53.89                             105    0.0310 28.2 237 
 LZ4  SE IS       1253 57.47                             105   -0.0310 28.2 237 
 LZ4  SZ  AML     1253 58.63        15.6 0.28                          28.2 237 
                                                                                
 2010  5 1 2111  1.1 L  21.484 -99.313 10.0  RAL  4 1.3 2.1LRAL                1
 GAP=267       24.29       9.8    20.7112.7  0.1078E+03 -0.3234E+02  0.4175E+02E
 ACTION:UPD 12-06-08 11:37 OP:RALL STATUS:               ID:20100501211101     I
 2010-05-01-2110-52S.PLUR1_012                                                 6
 STAT SP IPHASW D HRMM SECON CODA AMPLIT PERI AZIMU VELO AIN AR TRES W  DIS CAZ7
 LA4  SZ E        2111  2.41                  270.4 13.3     -3        0.43  95 
 LA4  SN EP       2111  2.45                             178   -0.5410 0.43  95 
 LA4  SE IS       2111  4.32                             178   -0.0210 0.43  95 
 LA4  SZ  AML     2111  5.45      3905.7 0.28                          0.43  95 
 LT7  SN IP       2111  2.52                             134   -1.0410 9.91 188 
 LT7  SZ E        2111  2.61                  330.3  7.8     38        9.91 188 
 LT7  SE IS       2111  4.70                             134   -0.6210 9.91 188 
 LT7  SZ  AML     2111  6.03       166.5 0.20                          9.91 188 
 LG3  SZ E        2111  5.14                   53.5 24.1     69        23.9 165 
 LG3  SN IP       2111  5.15                             109   -0.3410 23.9 165 
 LG3  SE IS       2111  9.92                             109    1.2610 23.9 165 
 LG3  SZ  AML     2111 14.13       856.1 0.62                          23.9 165 
 LO8  SZ E        2111  7.07                  121.6  7.6    138        37.4 164 
 LO8  SN IP       2111  7.09                             101   -0.4510 37.4 164 
 LO8  SE IS       2111 13.96                             101    1.7610 37.4 164 
 LO8  SZ  AML     2111 16.00        32.8 0.28                          37.4 164 
                                                                                
 2010  5 2 1120 47.2 L  21.286 -99.253 10.0  RAL  1 0.2 0.7LRAL                1
 GAP=360        1.95     177.5   582.1  0.0 -0.1033E+06 -0.3234E+02  0.4175E+02E
 ACTION:UPD 12-06-08 11:37 OP:RALL STATUS:               ID:20100502112047     I
 2010-05-02-1120-40S.PLUR1_003                                                 6
 STAT SP IPHASW D HRMM SECON CODA AMPLIT PERI AZIMU VELO AIN AR TRES W  DIS CAZ7
 LG3  SZ E        1120 49.45                  347.1 11.4     -8        1.18 176 
 LG3  SN IP       1120 49.51                             174    0.4310 1.18 176 
 LG3  SE IS       1120 50.00                             174   -0.4310 1.18 176 
 LG3  SZ  AML     1120 50.49        30.6 0.58                          1.18 176 
                                                                                
 2010  5 2 2232 57.7 L  21.485 -99.452 10.0  RAL  1 0.0 1.0LRAL                1
 GAP=360        0.30       0.4     4.7  0.0 -0.1303E+00 -0.3234E+02  0.4175E+02E
 ACTION:UPD 12-06-08 11:37 OP:RALL STATUS:               ID:20100502223257     I
 2010-05-02-2232-52S.PLUR1_003                                                 6
 STAT SP IPHASW D HRMM SECON CODA AMPLIT PERI AZIMU VELO AIN AR TRES W  DIS CAZ7
 LA4  SZ E        2233  0.79                  270.4 19.0      0        14.8  90 
 LA4  SN IP       2233  0.80                             122    0.0310 14.8  90 
 LA4  SE IS       2233  2.99                             122   -0.0310 14.8  90 
 LA4  SZ  AML     2233  3.82        33.2 0.26                          14.8  90 
                                                                                
 2010  5 5 0534  1.5 L  21.691 -99.492 10.0  RAL  1 0.0 1.4LRAL                1
 GAP=360        0.30       3.3     2.3  0.0 -0.5854E+01 -0.3234E+02  0.4175E+02E
 ACTION:UPD 12-06-08 11:37 OP:RALL STATUS:               ID:20100505053401     I
 2010-05-05-0534-00S.PLUR1_003                                                 6
 STAT SP IPHASW D HRMM SECON CODA AMPLIT PERI AZIMU VELO AIN AR TRES W  DIS CAZ7
 LZ4  SZ E         534  9.22                  330.1 13.6      0        46.1 150 
 LZ4  SN IP        534  9.22                              98    0.0110 46.1 150 
 LZ4  SE IS        534 14.81                              98   -0.0110 46.1 150 
 LZ4  SZ  AML      534 16.74        33.1 0.22                          46.1 150 
                                                                                
 2010  5 5 1018 11.0 L  21.974 -99.461 10.0  RAL  1 0.0 2.2LRAL                1
 GAP=360        0.30       3.6     2.3  0.0 -0.2817E+01 -0.3234E+02  0.4175E+02E
 ACTION:UPD 12-06-08 11:37 OP:RALL STATUS:               ID:20100505101811     I
 2010-05-05-1018-14S.PLUR1_003                                                 6
 STAT SP IPHASW D HRMM SECON CODA AMPLIT PERI AZIMU VELO AIN AR TRES W  DIS CAZ7
 LZ4  SN IP       1018 23.03                              95    0.0110 73.9 164 
 LZ4  SZ E        1018 23.09                  344.5  7.9      0        73.9 164 
 LZ4  SE IS       1018 31.77                              95   -0.0110 73.9 164 
 LZ4  SZ  AML     1018 35.86       125.1 0.50                          73.9 164 
                                                                                
 2010  5 5 1515 30.3 L  21.687 -99.514  5.0  RAL  2 0.0 0.8LRAL                1
 GAP=348        0.50       7.9     6.8 21.1 -0.5215E+02 -0.1292E+03  0.1518E+03E
 ACTION:UPD 12-06-08 11:37 OP:RALL STATUS:               ID:20100505151530     I
 2010-05-05-1515-25S.PLUR1_006                                                 6
 STAT SP IPHASW D HRMM SECON CODA AMPLIT PERI AZIMU VELO AIN AR TRES W  DIS CAZ7
 LA4  SZ E        1515 35.32                  318.0 11.8      1        30.9 137 
 LA4  SN IP       1515 35.33                              63    0.0810 30.9 137 
 LA4  SE IS       1515 38.86                              63   -0.0110 30.9 137 
 LA4  SZ  AML     1515 39.09        40.1 0.28                          30.9 137 
 LT7  SN IP       1515 36.22                              63   -0.0510 37.7 149 
 LT7  SZ E        1515 36.28                  327.5  7.3     -1        37.7 149 
 LT7  SE IS       1515 40.60                              63   -0.0310 37.7 149 
 LT7  SZ  AML     1515 42.35         3.0 0.36                          37.7 149 
                                                                                
 2010  5 5 2000  4.6 L  21.955 -99.474  7.1  RAL  2 0.3 1.7LRAL                1
 GAP=356        4.95     477.9   149.5964.4 -0.7080E+05 -0.1425E+06  0.4591E+06E
 ACTION:UPD 12-06-08 11:37 OP:RALL STATUS:               ID:20100505200004     I
 2010-05-05-2000-04S.PLUR1_006                                                 6
 STAT SP IPHASW D HRMM SECON CODA AMPLIT PERI AZIMU VELO AIN AR TRES W  DIS CAZ7
 LA4  SZ E        20 0 13.09                  357.8 12.8     16        54.9 162 
 LA4  SN IP       20 0 13.48                              63   -0.1510 54.9 162 
 LA4  SE IS       20 0 19.78                              63   -0.4310 54.9 162 
 LA4  SZ  AML     20 0 25.09       208.1 0.58                          54.9 162 
 LT7  SZ E        20 0 15.46                  328.2  8.6    -17        63.8 166 
 LT7  SN IP       20 0 15.46                              63    0.4810 63.8 166 
 LT7  SE IS       20 0 22.65                              63    0.1010 63.8 166 
 LT7  SZ  AML     20 0 26.16        11.1 0.74                          63.8 166 
                                                                                
 2010  5 7 0521 28.3 L  21.506 -99.331 10.0  RAL  1 0.1 0.1LRAL                1
 GAP=360        0.40      11.8    11.8  0.0 -0.1396E+03 -0.1425E+06  0.4591E+06E
 ACTION:UPD 12-06-08 11:37 OP:RALL STATUS:               ID:20100507052128     I
 2010-05-07-0521-21S.PLUR1_003                                                 6
 STAT SP IPHASW D HRMM SECON CODA AMPLIT PERI AZIMU VELO AIN AR TRES W  DIS CAZ7
 LA4  SN IP        521 30.46                             162    0.1810 3.39 137 
 LA4  SZ E         521 30.51                  316.9 10.0      0        3.39 137 
 LA4  SZ  AML      521 30.81         6.9 0.18                          3.39 137 
 LA4  SE IS        521 31.50                             162   -0.1810 3.39 137 
                                                                                
 2010  5 7 0631 59.4 L  21.394 -99.366 10.0  RAL  1 0.0 0.4LRAL                1
 GAP=360        0.30       2.7     4.2  0.0 -0.1121E+02 -0.1425E+06  0.4591E+06E
 ACTION:UPD 12-06-08 11:37 OP:RALL STATUS:               ID:20100507063159     I
 2010-05-07-0631-54S.PLUR1_003                                                 6
 STAT SP IPHASW D HRMM SECON CODA AMPLIT PERI AZIMU VELO AIN AR TRES W  DIS CAZ7
 LZ4  SN IP        632  2.14                             128    0.0210 12.2 125 
 LZ4  SZ E         632  2.17                  305.1 21.0      0        12.2 125 
 LZ4  SE IS        632  4.09                             128   -0.0210 12.2 125 
 LZ4  SZ  AML      632  5.19         9.5 0.48                          12.2 125 
                                                                                
 2010  5 7 1427 29.8 L  21.315 -99.305 10.0  RAL  1 0.0 0.7LRAL                1
 GAP=360        0.30       4.1     0.5  0.0 -0.4357E+00 -0.1425E+06  0.4591E+06E
 ACTION:UPD 12-06-08 11:37 OP:RALL STATUS:               ID:20100507142729     I
 2010-05-07-1427-26S.PLUR1_003                                                 6
 STAT SP IPHASW D HRMM SECON CODA AMPLIT PERI AZIMU VELO AIN AR TRES W  DIS CAZ7
 LA4  SN IP       1427 33.45                             115    0.0210 18.7 359 
 LA4  SZ E        1427 33.46                  178.6 10.0      0        18.7 359 
 LA4  SE IS       1427 36.04                             115   -0.0210 18.7 359 
 LA4  SZ  AML     1427 36.64        13.9 0.22                          18.7 359 
                                                                                
 2010  5 9 0700  2.9 L  21.298 -99.382 10.0  RAL  1 0.0 1.9LRAL                1
 GAP=360        0.30       1.4     4.8  0.0  0.6741E+01 -0.1425E+06  0.4591E+06E
 ACTION:UPD 12-06-08 11:37 OP:RALL STATUS:               ID:20100509070002     I
 2010-05-09-0659-56S.PLUR1_003                                                 6
 STAT SP IPHASW D HRMM SECON CODA AMPLIT PERI AZIMU VELO AIN AR TRES W  DIS CAZ7
 LZ4  SZ E         7 0  5.61                  252.6 11.8      0        12.2  73 
 LZ4  SN IP        7 0  5.63                             128    0.0110 12.2  73 
 LZ4  SE IS        7 0  7.61                             128   -0.0110 12.2  73 
 LZ4  SZ  AML      7 0  8.58       306.9 0.22                          12.2  73 
                                                                                
 2010  5 9 0753  9.9 L  21.289 -99.252 10.0  RAL  1 0.3 1.1LRAL                1
 GAP=360        3.06     218.0   999.9  0.0  0.2643E+06 -0.1425E+06  0.4591E+06E
 ACTION:UPD 12-06-08 11:37 OP:RALL STATUS:               ID:20100509075309     I
 2010-05-09-0753-02S.PLUR1_003                                                 6
 STAT SP IPHASW D HRMM SECON CODA AMPLIT PERI AZIMU VELO AIN AR TRES W  DIS CAZ7
 LG3  SZ E         753 12.18                  348.2 24.6     14        1.51 182 
 LG3  SN IP        753 12.21                             172    0.4110 1.51 182 
 LG3  SE IS        753 12.75                             172   -0.4110 1.51 182 
 LG3  SZ  AML      753 13.51        69.7 0.40                          1.51 182 
                                                                                
 2010  5 9 1205 35.9 L  21.715 -99.355 10.0  RAL  1 0.0 2.5LRAL                1
 GAP=360        0.30       3.7     1.4  0.0 -0.2729E+01 -0.1425E+06  0.4591E+06E
 ACTION:UPD 12-06-08 11:37 OP:RALL STATUS:               ID:20100509120535     I
 2010-05-09-1205-33S.PLUR1_003                                                 6
 STAT SP IPHASW D HRMM SECON CODA AMPLIT PERI AZIMU VELO AIN AR TRES W  DIS CAZ7
 LZ4  SN IP       12 5 43.16                              99    0.0110 43.5 168 
 LZ4  SZ E        12 5 43.27                  348.3 12.6      0        43.5 168 
 LZ4  SE IS       12 5 48.47                              99   -0.0110 43.5 168 
 LZ4  SZ  AML     12 5 49.43       446.5 0.58                          43.5 168 
                                                                                
 2010  5 9 1644 48.8 L  21.121 -99.133 40.8  RAL  4 0.9 1.5LRAL                1
 GAP=321       11.46      20.4    32.3 92.2 -0.5826E+03  0.3385E+02 -0.4077E+02E
 ACTION:UPD 12-06-08 11:37 OP:RALL STATUS:               ID:20100509164448     I
 2010-05-09-1644-47S.PLUR1_012                                                 6
 STAT SP IPHASW D HRMM SECON CODA AMPLIT PERI AZIMU VELO AIN AR TRES W  DIS CAZ7
 LO8  SZ E        1644 57.99                  138.5  6.7     22        9.31 297 
 LO8  SN IP       1644 58.02                             165    2.8910 9.31 297 
 LO8  SE IS       1645  1.07                             165    1.2910 9.31 297 
 LO8  SZ  AML     1645  1.14        19.7 0.18                          9.31 297 
 LG3  SZ E        1644 56.87                   86.3 65.7    -57        21.1 324 
 LG3  SN IP       1644 56.90                             148    1.2310 21.1 324 
 LG3  SE IS       1644 58.85                             148   -1.8610 21.1 324 
 LG3  SZ  AML     1644 59.01       154.4 0.18                          21.1 324 
 LT7  SZ E        1644 57.20                  175.4  8.5     29        36.3 327 
 LT7  SN IP       1644 57.20                             130    0.3710 36.3 327 
 LT7  SE IS       1644 59.50                             130   -3.2210 36.3 327 
 LT7  SZ  AML     1644 59.56        15.4 0.22                          36.3 327 
 LA4  SZ E        1644 58.66                  171.5  8.5     16        44.0 336 
 LA4  SN IP       1644 58.70                             123    1.0510 44.0 336 
 LA4  SE IS       1645  2.37                             123   -1.7610 44.0 336 
 LA4  SZ  AML     1645  3.68        30.7 0.24                          44.0 336 
                                                                                
 2010  5 9 2150 51.4 L  21.828 -99.173  5.0  RAL  3 1.6 1.8LRAL                1
 GAP=343       29.34     683.1   235.2999.9  0.1503E+06  0.3033E+06  0.9323E+06E
 ACTION:UPD 12-06-08 11:37 OP:RALL STATUS:               ID:20100509215051     I
 2010-05-09-2150-48S.PLUR1_009                                                 6
 STAT SP IPHASW D HRMM SECON CODA AMPLIT PERI AZIMU VELO AIN AR TRES W  DIS CAZ7
 LA4  SZ E        2150 58.20                    5.2 10.1    -14        40.6 200 
 LA4  SN IP       2150 58.27                              63    0.3810 40.6 200 
 LA4  SE IS       2151  0.90                              63   -1.7110 40.6 200 
 LA4  SZ  AML     2151  3.46       867.3 0.40                          40.6 200 
 LT7  SN IP       2151  0.13                              63    0.7510 50.5 198 
 LT7  SZ E        2151  0.14                  339.1 10.5     39        50.5 198 
 LT7  SE IS       2151  4.13                              63   -1.0610 50.5 198 
 LT7  SZ  AML     2151  5.38        30.5 0.44                          50.5 198 
 LO8  SN IP       2151  4.54                              63    1.4310 74.1 183 
 LO8  SZ E        2151  4.57                  166.9  6.7    164        74.1 183 
 LO8  SE IS       2151 11.85                              63    0.2110 74.1 183 
 LO8  SZ  AML     2151 15.46        11.1 0.54                          74.1 183 
                                                                                
 2010  510 0830 58.4 L  21.378-100.267 10.0  RAL  1 0.0 1.4LRAL                1
 GAP=360        0.30       2.7     4.0  0.0 -0.6859E+00  0.3033E+06  0.9323E+06E
 ACTION:UPD 12-06-08 11:37 OP:RALL STATUS:               ID:20100510083058     I
 2010-05-10-0831-10S.PLUR1_003                                                 6
 STAT SP IPHASW D HRMM SECON CODA AMPLIT PERI AZIMU VELO AIN AR TRES W  DIS CAZ7
 LG3  SN IP        831 15.34                              93    0.0010  106  96 
 LG3  SZ E         831 15.42                  276.3 15.3      0         106  96 
 LG3  SE IS        831 27.72                              93    0.0010  106  96 
 LG3  SZ  AML      831 29.92        12.7 0.22                           106  96 
                                                                                
