 2008  8 1 0936 52.2 L  21.332 -99.273  9.7  RAL  2 0.2 0.6LRAL                1
 GAP=241        2.13      13.4     4.8 19.4 -0.4296E+02  0.4445E+02 -0.1740E+03E
 ACTION:UPD 12-06-08 11:37 OP:RALL STATUS:               ID:20080801093652     I
 2008-08-01-0936-44S.PLUR1_006                                                 6
 STAT SP IPHASW D HRMM SECON CODA AMPLIT PERI AZIMU VELO AIN AR TRES W  DIS CAZ7
 LZ4  SN IP        936 53.99                             179   -0.0310 0.35 107 
 LZ4  SZ E         936 54.01                  294.3  6.9      8        0.35 107 
 LZ4  SE IS        936 54.94                             179   -0.3910 0.35 107 
 LZ4  SZ  AML      936 55.03        64.9 0.16                          0.35 107 
 LA4  SN IP        936 55.72                             116    0.1110 17.2 347 
 LA4  SZ E         936 55.94                  160.9 10.2     -5        17.2 347 
 LA4  SE IS        936 58.38                             116    0.3110 17.2 347 
 LA4  SZ  AML      937  0.71         5.0 0.48                          17.2 347 
                                                                                
