 2008  8 1 0103 22.2 L  21.373 -99.311 13.8  RAL  2 0.0 0.5LRAL                1
 GAP=224        0.35       0.5     0.4  3.5 -0.1370E+00  0.1246E+00 -0.1602E+00E
 ACTION:UPD 12-06-08 11:37 OP:RALL STATUS:               ID:20080801010322     I
 2008-08-01-0103-17S.PLUR1_006                                                 6
 STAT SP IPHASW D HRMM SECON CODA AMPLIT PERI AZIMU VELO AIN AR TRES W  DIS CAZ7
 LZ4  SN IP        1 3 25.03                             156    0.1510 6.36 137 
 LZ4  SZ E         1 3 25.10                  316.7  8.5      0        6.36 137 
 LZ4  SE IS        1 3 26.82                             156    0.0110 6.36 137 
 LZ4  SZ  AML      1 3 27.62        15.0 0.40                          6.36 137 
 LA4  SN IP        1 3 25.30                             138   -0.1010 12.3   1 
 LA4  SE IS        1 3 27.64                             138   -0.0610 12.3   1 
 LA4  SZ E         1 3 25.28                  181.0 10.2      0        12.3   1 
 LA4  SZ  AML      1 3 29.78         9.2 0.60                          12.3   1 
                                                                                
