 2008  8 2 0711 10.8 L  21.708 -99.499  0.0  RAL  2 0.2 1.5LRAL                1
 GAP=351        2.64      17.3    14.0 21.1 -0.2001E+03  0.1271E+02  0.9885E+00E
 ACTION:UPD 12-06-08 11:37 OP:RALL STATUS:               ID:20080802071110     I
 2008-08-02-0711-07S.PLUR1_006                                                 6
 STAT SP IPHASW D HRMM SECON CODA AMPLIT PERI AZIMU VELO AIN AR TRES W  DIS CAZ7
 LA4  SN IP        711 16.47                              92    0.1410 31.7 142 
 LA4  SZ E         711 16.50                  328.4  7.6      7        31.7 142 
 LA4  SE IS        711 19.70                              92   -0.6710 31.7 142 
 LA4  SZ  AML      711 20.61        84.5 0.28                          31.7 142 
 LZ4  SN IP        711 19.38                              63    0.2510 48.1 150 
 LZ4  SZ E         711 19.89                  320.2  7.8     -9        48.1 150 
 LZ4  SE IS        711 25.50                              63    0.2810 48.1 150 
 LZ4  SZ  AML      711 27.79        25.4 0.56                          48.1 150 
                                                                                
