 2008  8 2 0834 48.8 L  21.719 -99.506  5.2  RAL  2 0.3 1.1LRAL                1
 GAP=352        1.91      55.4    42.6135.0 -0.2339E+04 -0.5559E+04  0.7254E+04E
 ACTION:UPD 12-06-08 11:37 OP:RALL STATUS:               ID:20080802083448     I
 2008-08-02-0834-47S.PLUR1_006                                                 6
 STAT SP IPHASW D HRMM SECON CODA AMPLIT PERI AZIMU VELO AIN AR TRES W  DIS CAZ7
 LA4  SZ E         834 54.16                  325.2  7.4      3        33.1 142 
 LA4  SN IP        834 54.22                              63   -0.2610 33.1 142 
 LA4  SE IS        834 57.63                              63   -0.9610 33.1 142 
 LA4  SZ  AML      834 58.40        26.4 0.36                          33.1 142 
 LZ4  SN E         834 57.46                  324.7 10.4     -5        49.5 150 
 LZ4  SN IP        834 57.59                              63    0.5810 49.5 150 
 LZ4  SE IS        835  3.61                              63    0.6310 49.5 150 
 LZ4  SN  AML      835  3.98        10.6 0.52                          49.5 150 
                                                                                
