 2008  8 2 0140 24.7 L  21.667 -99.428  1.1  RAL  2 0.1 1.3LRAL                1
 GAP=353        1.38       9.5     6.2  9.4 -0.5187E+02  0.4967E+01 -0.5688E+01E
 ACTION:UPD 12-06-08 11:37 OP:RALL STATUS:               ID:20080802014024     I
 2008-08-02-0140-19S.PLUR1_006                                                 6
 STAT SP IPHASW D HRMM SECON CODA AMPLIT PERI AZIMU VELO AIN AR TRES W  DIS CAZ7
 LA4  SN IP        140 28.81                              97   -0.0510 23.7 149 
 LA4  SZ E         140 28.84                  325.3  9.0     -2        23.7 149 
 LA4  SE IS        140 32.08                              97    0.1810 23.7 149 
 LA4  SZ  AML      140 32.98        71.5 0.28                          23.7 149 
 LZ4  SN IP        140 31.64                              63   -0.1710 40.6 156 
 LZ4  SZ E         140 31.78                  341.7  8.2      6        40.6 156 
 LZ4  SE IS        140 37.03                              63    0.0310 40.6 156 
 LZ4  SZ  AML      140 40.17        21.4 0.60                          40.6 156 
                                                                                
