 2008  8 2 0729 28.6 L  21.671 -99.462 10.0  RAL  1 0.0 1.3LRAL                1
 GAP=360        0.30       3.1     2.6  0.0 -0.7520E+01  0.1271E+02  0.9885E+00E
 ACTION:UPD 12-06-08 11:37 OP:RALL STATUS:               ID:20080802072928     I
 2008-08-02-0729-24S.PLUR1_006                                                 6
 STAT SP IPHASW D HRMM SECON CODA AMPLIT PERI AZIMU VELO AIN AR TRES W  DIS CAZ7
 LA4  SN IP        729 33.25                             107    0.0010 26.1 143 
 LA4  SZ E         729 33.35                  322.6  7.4      0        26.1 143 
 LA4  SE IS        729 36.65                             107    0.0010 26.1 143 
 LA4  SZ  AML      729 37.42        39.5 0.28                          26.1 143 
                                                                                
