 2008  8 3 0121 57.2 L  22.401 -99.540  0.3  RAL  2 0.3 2.1LRAL                1
 GAP=360        4.44     999.9   999.9999.9 -0.8106E+09 -0.1610E+10  0.6297E+10E
 ACTION:UPD 12-06-08 11:37 OP:RALL STATUS:               ID:20080803012157     I
 2008-08-03-0122-05S.PLUR1_006                                                 6
 STAT SP IPHASW D HRMM SECON CODA AMPLIT PERI AZIMU VELO AIN AR TRES W  DIS CAZ7
 LA4  SN IP        122 14.13                              63   -0.1210  104 167 
 LA4  SZ E         122 14.27                    0.9  8.0     14         104 167 
 LA4  SE IS        122 26.61                              63   -0.1010  104 167 
 LA4  SZ  AML      122 32.77        51.8 0.40                           104 167 
 LZ4  SN IP        122 17.07                              63    0.1210  122 167 
 LZ4  SZ E         122 17.25                  330.3  8.2    -15         122 167 
 LZ4  SE IS        122 31.47                              63    0.1010  122 167 
 LZ4  SZ  AML      122 35.10        86.1 0.28                           122 167 
                                                                                
