 2008  8 3 0253 14.9 L  21.481 -99.302 26.8  RAL  2 0.9 0.9LRAL                1
 GAP=238       11.10     133.4    30.8128.8 -0.3396E+04  0.1528E+03 -0.8212E+03E
 ACTION:UPD 12-06-08 11:37 OP:RALL STATUS:               ID:20080803025314     I
 2008-08-03-0253-10S.PLUR1_006                                                 6
 STAT SP IPHASW D HRMM SECON CODA AMPLIT PERI AZIMU VELO AIN AR TRES W  DIS CAZ7
 LA4  SN IP        253 20.86                             178    1.5610 0.74 290 
 LA4  SZ E         253 21.67                  111.4  9.8      1        0.74 290 
 LA4  SE IS        253 24.21                             178    1.7010 0.74 290 
 LA4  SZ  AML      253 24.46         3.9 0.16                          0.74 290 
 LZ4  SN IP        253 19.79                             156   -0.2410 17.0 168 
 LZ4  SZ E         253 19.80                  297.6  9.2    -50        17.0 168 
 LZ4  SE IS        253 20.76                             156   -3.0210 17.0 168 
 LZ4  SZ  AML      253 20.88        65.0 0.12                          17.0 168 
                                                                                
