 2008  8 4 0406 26.8 L  21.669 -99.219 10.0  RAL  1 0.0 0.7LRAL                1
 GAP=360        0.30       3.6     1.8  0.0  0.6144E+01  0.4830E+00 -0.1400E+02E
 ACTION:UPD 12-06-08 11:37 OP:RALL STATUS:               ID:20080804040626     I
 2008-08-04-0406-24S.PLUR1_006                                                 6
 STAT SP IPHASW D HRMM SECON CODA AMPLIT PERI AZIMU VELO AIN AR TRES W  DIS CAZ7
 LA4  SZ E         4 6 30.85                   24.3 22.6      0        22.5 204 
 LA4  SN IP        4 6 30.96                             111    0.0010 22.5 204 
 LA4  SE IS        4 6 33.98                             111    0.0010 22.5 204 
 LA4  SZ  AML      4 6 36.40        13.1 0.48                          22.5 204 
                                                                                
