 2008  8 4 0149  3.4 R  22.483 -99.421 12.3  RAL  2 0.1 2.3LRAL                1
 GAP=359        1.00       9.2     7.9  6.6 -0.4105E+01  0.4830E+00 -0.1400E+02E
 ACTION:UPD 12-06-08 11:37 OP:RALL STATUS:               ID:20080804014903     I
 2008-08-04-0149-12S.PLUR1_006                                                 6
 STAT SP IPHASW D HRMM SECON CODA AMPLIT PERI AZIMU VELO AIN AR TRES W  DIS CAZ7
 LA4  SN IP        149 20.90                              94   -0.2610  111 174 
 LA4  SZ E         149 20.93                  356.8  9.6      3         111 174 
 LA4  SE IS        149 34.31                              94    0.1510  111 174 
 LA4  SZ  AML      149 35.97        70.9 0.24                           111 174 
 LZ4  SZ E         149 23.77                  349.9  9.0     -2         128 173 
 LZ4  SN IP        149 23.81                              52    0.2610  128 173 
 LZ4  SE IS        149 38.15                              52   -0.1410  128 173 
 LZ4  SZ  AML      149 41.66       152.1 0.36                           128 173 
                                                                                
