 2008  8 5 0139  5.2 L  22.473 -98.896  0.0  RAL  3 0.8 2.5LRAL                1
 GAP=356       13.97     110.4   100.3138.5  0.1027E+04  0.1802E+04  0.6648E+04E
 ACTION:UPD 12-06-08 11:37 OP:RALL STATUS:               ID:20080805013905     I
 2008-08-05-0139-15S.PLUR1_009                                                 6
 STAT SP IPHASW D HRMM SECON CODA AMPLIT PERI AZIMU VELO AIN AR TRES W  DIS CAZ7
 LA4  SN IP        139 23.72                              63   -0.5910  118 201 
 LA4  SZ E         139 24.09                   25.8 12.5      5         118 201 
 LA4  SE IS        139 36.62                              63   -1.6610  118 201 
 LA4  SZ  AML      139 38.87       112.3 0.28                           118 201 
 LZ4  SN IP        139 26.71                              63    0.1310  132 197 
 LZ4  SZ E         139 26.85                  322.6  8.1     54         132 197 
 LZ4  SE IS        139 42.14                              63   -0.0710  132 197 
 LZ4  SZ  AML      139 44.73       388.4 0.44                           132 197 
 LD5  SN IP        139 29.49                              44    0.3010  149 197 
 LD5  SZ E         139 29.60                   75.1  9.2     58         149 197 
 LD5  SE IS        139 48.63                              44    1.9010  149 197 
 LD5  SZ  AML      139 49.15        51.7 0.48                           149 197 
                                                                                
