 2008  8 5 1550 14.7 L  21.332 -99.281  4.8  RAL  2 0.1 0.4LRAL                1
 GAP=252        0.90       0.4     1.4  5.0  0.3055E+00  0.4997E+00 -0.2192E-02E
 ACTION:UPD 12-06-08 11:37 OP:RALL STATUS:               ID:20080805155014     I
 2008-08-05-1550-06S.PLUR1_006                                                 6
 STAT SP IPHASW D HRMM SECON CODA AMPLIT PERI AZIMU VELO AIN AR TRES W  DIS CAZ7
 LZ4  SZ E        1550 15.24                  280.8 12.1      2        1.17  98 
 LZ4  SN IP       1550 15.34                             169   -0.3610 1.17  98 
 LZ4  SE IS       1550 16.56                             169    0.1110 1.17  98 
 LZ4  SZ  AML     1550 16.99        62.3 0.48                          1.17  98 
 LA4  SZ E        1550 17.22                  170.3 10.7      0        17.0 350 
 LA4  SN IP       1550 17.55                             109   -0.2610 17.0 350 
 LA4  SE IS       1550 20.63                             109    0.5210 17.0 350 
 LA4  SZ  AML     1550 21.15         4.3 0.28                          17.0 350 
                                                                                
