 2008  8 6 2047 53.0 L  22.067 -99.821  5.6  RAL  2 0.2 1.6LRAL                1
 GAP=356        3.20      60.9    54.1999.9 -0.2946E+04  0.4430E+06 -0.5078E+06E
 ACTION:UPD 12-06-08 11:37 OP:RALL STATUS:               ID:20080806204753     I
 2008-08-06-2047-57S.PLUR1_006                                                 6
 STAT SP IPHASW D HRMM SECON CODA AMPLIT PERI AZIMU VELO AIN AR TRES W  DIS CAZ7
 LA4  SZ E        2048  6.27                  330.0  8.6      9        83.5 141 
 LA4  SN IP       2048  6.30                              90   -0.1910 83.5 141 
 LA4  SE IS       2048 15.71                              90   -0.6110 83.5 141 
 LA4  SZ  AML     2048 16.35        29.8 0.28                          83.5 141 
 LZ4  SN IP       2048  9.26                              90    0.3010 99.5 145 
 LZ4  SZ E        2048  9.45                  313.3  7.6    -11        99.5 145 
 LZ4  SE IS       2048 21.09                              90    0.4910 99.5 145 
 LZ4  SZ  AML     2048 24.26        20.3 0.56                          99.5 145 
                                                                                
