 2008  8 7 0343 24.4 L  21.602 -99.411  1.8  RAL  3 0.5 1.8LRAL                1
 GAP=333        7.66      16.0    17.5 26.3 -0.2696E+03  0.3635E+02 -0.2628E+02E
 ACTION:UPD 12-06-08 11:37 OP:RALL STATUS:               ID:20080807034324     I
 2008-08-07-0343-17S.PLUR1_009                                                 6
 STAT SP IPHASW D HRMM SECON CODA AMPLIT PERI AZIMU VELO AIN AR TRES W  DIS CAZ7
 LA4  SZ E         343 26.42                  311.9  8.7     -8        16.8 141 
 LA4  SN IP        343 26.43                             136   -0.9910 16.8 141 
 LA4  SE IS        343 29.88                             136    0.2810 16.8 141 
 LA4  SZ  AML      343 30.58       590.2 0.32                          16.8 141 
 LZ4  SN IP        343 29.72                             103   -0.5810 33.4 154 
 LZ4  SZ E         343 29.84                  324.6  7.6     -8        33.4 154 
 LZ4  SE IS        343 35.51                             103    0.9310 33.4 154 
 LZ4  SZ  AML      343 36.02       203.0 0.40                          33.4 154 
 LD5  SN IP        343 32.08                              63   -0.3910 46.9 168 
 LD5  SZ E         343 32.10                   29.8 15.7     41        46.9 168 
 LD5  SE IS        343 39.07                              63    0.7410 46.9 168 
 LD5  SZ  AML      343 41.24        13.9 0.36                          46.9 168 
                                                                                
