 2008  8 7 0550 55.1 L  21.144 -99.223  0.0  RAL  2 0.1 0.7LRAL                1
 GAP=360        2.07      22.5     6.6415.8 -0.1235E+03 -0.1657E+04  0.6642E+04E
 ACTION:UPD 12-06-08 11:37 OP:RALL STATUS:               ID:20080807055055     I
 2008-08-07-0550-50S.PLUR1_006                                                 6
 STAT SP IPHASW D HRMM SECON CODA AMPLIT PERI AZIMU VELO AIN AR TRES W  DIS CAZ7
 LZ4  SZ E         550 58.68                  171.7 12.4      5        21.2 347 
 LZ4  SN IP        550 58.68                              93   -0.1010 21.2 347 
 LZ4  SE IS        551  1.27                              93   -0.2210 21.2 347 
 LZ4  SZ  AML      551  1.94        25.4 0.64                          21.2 347 
 LA4  SZ E         551  1.59                  158.0 11.3     -8        38.6 347 
 LA4  SN IP        551  1.91                              92    0.0910 38.6 347 
 LA4  SE IS        551  6.98                              92    0.2310 38.6 347 
 LA4  SZ  AML      551  8.81         4.1 0.40                          38.6 347 
                                                                                
