 2008  8 7 1012 23.4 L  21.667 -99.490  0.0  RAL  2 0.2 1.0LRAL                1
 GAP=349        1.11       8.7     8.1252.6 -0.6458E+02  0.1365E+04 -0.1452E+04E
 ACTION:UPD 12-06-08 11:37 OP:RALL STATUS:               ID:20080807101223     I
 2008-08-07-1012-20S.PLUR1_006                                                 6
 STAT SP IPHASW D HRMM SECON CODA AMPLIT PERI AZIMU VELO AIN AR TRES W  DIS CAZ7
 LA4  SN IP       1012 27.93                              92   -0.3510 27.6 137 
 LA4  SZ E        1012 27.98                  318.3  8.0      1        27.6 137 
 LA4  SE IS       1012 31.26                              92   -0.5410 27.6 137 
 LA4  SZ  AML     1012 32.89        23.1 0.40                          27.6 137 
 LZ4  SZ E        1012 31.45                  326.0 10.1     -1        43.6 148 
 LZ4  SN IP       1012 31.45                              91    0.3710 43.6 148 
 LZ4  SE IS       1012 37.16                              91    0.5110 43.6 148 
 LZ4  SZ  AML     1012 39.88        15.1 0.40                          43.6 148 
                                                                                
