 2008  8 8 0352 47.2 L  21.797 -99.465  0.9  RAL  2 0.1 0.6LRAL                1
 GAP=356        0.97       7.2     4.3  7.6 -0.2150E+02  0.1113E+01 -0.4239E+00E
 ACTION:UPD 12-06-08 11:37 OP:RALL STATUS:               ID:20080808035247     I
 2008-08-08-0352-49S.PLUR1_006                                                 6
 STAT SP IPHASW D HRMM SECON CODA AMPLIT PERI AZIMU VELO AIN AR TRES W  DIS CAZ7
 LA4  SZ E         352 53.91                  332.6 11.4     -1        38.2 155 
 LA4  SN IP        352 53.97                              92    0.1210 38.2 155 
 LA4  SE IS        352 58.65                              92   -0.0910 38.2 155 
 LA4  SZ  AML      352 58.79         3.1 0.32                          38.2 155 
 LZ4  SN IP        352 56.42                              63   -0.1610 55.4 159 
 LZ4  SN E         352 56.45                  342.2 13.3      4        55.4 159 
 LZ4  SE IS        353  3.59                              63    0.1310 55.4 159 
 LZ4  SN  AML      353  4.07         9.2 0.16                          55.4 159 
                                                                                
