 2008  8 8 1825 16.9 L  21.823 -99.134  6.1  RAL  4 1.4 2.2LRAL                1
 GAP=341       26.08     518.8   193.6999.9  0.9292E+05  0.1897E+06  0.5422E+06E
 ACTION:UPD 12-06-08 11:37 OP:RALL STATUS:               ID:20080808182516     I
 2008-08-08-1825-14S.PLUR1_012                                                 6
 STAT SP IPHASW D HRMM SECON CODA AMPLIT PERI AZIMU VELO AIN AR TRES W  DIS CAZ7
 LA4  SN IP       1825 23.60                              63   -0.3010 41.7 206 
 LA4  SZ E        1825 23.79                  320.9  7.6     65        41.7 206 
 LA4  SE IS       1825 27.27                              63   -1.7210 41.7 206 
 LA4  SZ  AML     1825 27.96      1750.3 0.28                          41.7 206 
 LZ4  SN IP       1825 26.52                              63    0.3710 56.3 195 
 LZ4  SZ E        1825 26.64                  332.2  6.9     42        56.3 195 
 LZ4  SE IS       1825 32.96                              63    0.0810 56.3 195 
 LZ4  SZ  AML     1825 34.38       587.4 0.28                          56.3 195 
 LD5  SN IP       1825 29.43                              63    0.6810 73.1 195 
 LD5  SZ E        1825 29.54                   31.9 12.0     17        73.1 195 
 LD5  SE IS       1825 36.77                              63   -0.6210 73.1 195 
 LD5  SZ  AML     1825 38.61        41.2 0.40                          73.1 195 
 LO8  SN IP       1825 30.06                              63    1.1510 73.9 186 
 LO8  SZ E        1825 30.17                  157.2  6.1    151        73.9 186 
 LO8  SE IS       1825 38.02                              63    0.3610 73.9 186 
 LO8  SZ  AML     1825 41.72        22.3 1.04                          73.9 186 
                                                                                
