 2008  8 9 0009 51.9 L  21.686 -99.441  1.2  RAL  2 0.1 2.0LRAL                1
 GAP=353        0.91       6.3     4.2  6.7 -0.2255E+02  0.1844E+01 -0.1700E+01E
 ACTION:UPD 12-06-08 11:37 OP:RALL STATUS:               ID:20080809000951     I
 2008-08-09-0009-47S.PLUR1_006                                                 6
 STAT SP IPHASW D HRMM SECON CODA AMPLIT PERI AZIMU VELO AIN AR TRES W  DIS CAZ7
 LA4  SN IP        0 9 56.31                              95   -0.1510 26.3 149 
 LA4  SE IS        0 9 59.86                              95    0.0310 26.3 149 
 LZ4  SZ E         0 9 59.62                  332.5  8.7     -2        43.2 156 
 LZ4  SN IP        0 9 59.67                              63    0.3210 43.2 156 
 LZ4  SE IS        010  4.63                              63   -0.2010 43.2 156 
 LZ4  SZ  AML      010  6.98        98.3 0.32                          43.2 156 
 LA4  SZ E         0 9 56.47                  330.5  6.9      2        26.3 149 
 LA4  SZ  AML      010  0.57       305.9 0.28                          26.3 149 
                                                                                
