 2008  8 9 1402 42.7 L  22.363 -99.220  4.9  RAL  2 0.5 1.8LRAL                1
 GAP=357        2.94     777.7    64.8999.9  0.4775E+05  0.9259E+05  0.1172E+07E
 ACTION:UPD 12-06-08 11:37 OP:RALL STATUS:               ID:20080809140242     I
 2008-08-09-1402-52S.PLUR1_006                                                 6
 STAT SP IPHASW D HRMM SECON CODA AMPLIT PERI AZIMU VELO AIN AR TRES W  DIS CAZ7
 LA4  SZ E        14 2 58.27                    2.5  8.2     -2        97.8 185 
 LA4  SN IP       14 2 58.45                              63    0.0110 97.8 185 
 LA4  SE IS       14 3  8.01                              63   -1.8910 97.8 185 
 LA4  SZ  AML     14 3 15.99        33.4 0.52                          97.8 185 
 LZ4  SN IP       14 3  1.03                              63    0.0210  114 183 
 LZ4  SZ E        14 3  1.43                    7.1 10.6      5         114 183 
 LZ4  SE IS       14 3 16.21                              63    1.8610  114 183 
 LZ4  SZ  AML     14 3 19.78        33.3 0.32                           114 183 
                                                                                
