 2008  8 9 1328 12.6 L  21.489 -99.527 24.6  RAL  2 0.2 1.0LRAL                1
 GAP=328        1.64       2.3     7.1 23.0 -0.5384E+01  0.2643E+02 -0.1506E+01E
 ACTION:UPD 12-06-08 11:37 OP:RALL STATUS:               ID:20080809132812     I
 2008-08-09-1328-09S.PLUR1_006                                                 6
 STAT SP IPHASW D HRMM SECON CODA AMPLIT PERI AZIMU VELO AIN AR TRES W  DIS CAZ7
 LA4  SZ E        1328 17.51                  266.3 12.2     -4        22.6  91 
 LA4  SN IP       1328 17.65                             146   -0.4110 22.6  91 
 LA4  SE IS       1328 22.02                             146    0.0110 22.6  91 
 LA4  SZ  AML     1328 22.66        13.5 0.48                          22.6  91 
 LZ4  SZ E        1328 18.89                  307.9  7.9      5        31.9 123 
 LZ4  SN IP       1328 18.90                             130   -0.2110 31.9 123 
 LZ4  SE IS       1328 24.43                             130    0.6110 31.9 123 
 LZ4  SZ  AML     1328 27.02        20.7 0.44                          31.9 123 
                                                                                
