 2008  810 0824  3.3 L  22.059 -99.084 10.0  RAL  2 0.2 1.4LRAL                1
 GAP=353        2.93      57.8    25.2700.4  0.1161E+04 -0.1355E+05 -0.3650E+05E
 ACTION:UPD 12-06-08 11:37 OP:RALL STATUS:               ID:20080810082403     I
 2008-08-10-0824-08S.PLUR1_006                                                 6
 STAT SP IPHASW D HRMM SECON CODA AMPLIT PERI AZIMU VELO AIN AR TRES W  DIS CAZ7
 LA4  SN E         824 14.35                   29.8  9.9     10        67.8 200 
 LA4  SN IP        824 14.42                              95    0.0910 67.8 200 
 LA4  SE IS        824 22.21                              95   -0.2010 67.8 200 
 LA4  SN  AML      824 27.85        19.6 0.32                          67.8 200 
 LZ4  SN E         824 16.38                    3.2  9.8     -9        82.9 193 
 LZ4  SN IP        824 16.41                              94   -0.2510 82.9 193 
 LZ4  SE IS        824 26.78                              94    0.3510 82.9 193 
                                                                                
