 2008  810 1339 55.2 L  22.139 -99.256  1.4  RAL  2 0.2 2.4LRAL                1
 GAP=357        3.27     535.0    34.8999.9  0.1622E+05  0.3140E+05  0.5538E+06E
 ACTION:UPD 12-06-08 11:37 OP:RALL STATUS:               ID:20080810133955     I
 2008-08-10-1339-58S.PLUR1_006                                                 6
 STAT SP IPHASW D HRMM SECON CODA AMPLIT PERI AZIMU VELO AIN AR TRES W  DIS CAZ7
 LA4  SN IP       1340  7.12                              63   -0.1610 72.8 184 
 LA4  SZ E        1340  7.14                   14.4  8.2     10        72.8 184 
 LA4  SE IS       1340 15.80                              63   -0.3010 72.8 184 
 LA4  SZ  AML     1340 18.80       154.6 0.56                          72.8 184 
 LZ4  SN IP       1340  9.99                              63    0.1210 89.5 181 
 LZ4  SZ E        1340 10.06                  348.8  8.7     12        89.5 181 
 LZ4  SE IS       1340 20.93                              63    0.3510 89.5 181 
 LZ4  SZ  AML     1340 25.70       253.7 0.48                          89.5 181 
                                                                                
