 2008  814 1524 54.3 L  21.740 -99.563 10.0  RAL  2 0.6 1.0LRAL                1
 GAP=351        7.90      80.1    74.9539.5 -0.5476E+04  0.2966E+05 -0.3158E+05E
 ACTION:UPD 12-06-08 11:37 OP:RALL STATUS:               ID:20080814152454     I
 2008-08-14-1524-54S.PLUR1_006                                                 6
 STAT SP IPHASW D HRMM SECON CODA AMPLIT PERI AZIMU VELO AIN AR TRES W  DIS CAZ7
 LA4  SN IP       1525  2.32                             101    1.4810 38.6 137 
 LA4  SZ E        1525  2.57                  339.3 63.0     22        38.6 137 
 LA4  SE IS       1525  6.08                             101    0.4410 38.6 137 
 LA4  SZ  AML     1525  7.84        11.0 0.52                          38.6 137 
 LZ4  SZ E        1525  3.28                  297.1  7.3    -28        54.5 146 
 LZ4  SN IP       1525  3.37                              97    0.0910 54.5 146 
 LZ4  SE IS       1525  7.83                              97   -2.0110 54.5 146 
 LZ4  SZ  AML     1525  8.81        16.0 0.64                          54.5 146 
                                                                                
