 2008  814 2247 34.8 L  21.515 -98.992  7.2  RAL  3 1.7 1.9LRAL                1
 GAP=306       29.25      80.9   145.6999.9  0.7921E+04 -0.1903E+06 -0.6395E+05E
 ACTION:UPD 12-06-08 11:37 OP:RALL STATUS:               ID:20080814224734     I
 2008-08-14-2247-31S.PLUR1_009                                                 6
 STAT SP IPHASW D HRMM SECON CODA AMPLIT PERI AZIMU VELO AIN AR TRES W  DIS CAZ7
 LA4  SZ E        2247 41.54                  159.5  9.2     76        33.0 264 
 LA4  SN IP     D 2247 41.57                              96    1.1310 33.0 264 
 LA4  SE IS     D 2247 43.65                              96   -0.9110 33.0 264 
 LA4  SZ  AML     2247 44.97       194.3 0.56                          33.0 264 
 LZ4  SN IP     D 2247 40.80                              95    0.0210 35.3 235 
 LZ4  SZ E        2247 40.82                  321.1  6.3     94        35.3 235 
 LZ4  SZ  AML     2247 41.72       866.0 0.72                          35.3 235 
 LZ4  SE IS     C 2247 42.21                              95   -2.9310 35.3 235 
 LO8  SZ E        2247 43.99                  147.4  6.0    117        45.5 210 
 LO8  SN IP     C 2247 44.03                              94    1.6310 45.5 210 
 LO8  SE IS     C 2247 48.99                              94    1.0510 45.5 210 
 LO8  SZ  AML     2247 49.00         8.4 0.24                          45.5 210 
                                                                                
