 2008  815 1938 52.2 L  21.444 -99.365 26.4  RAL  2 0.0 1.1LRAL                1
 GAP=272        0.33       0.3     0.4  3.3  0.8486E-01  0.5225E-01  0.3554E-01E
 ACTION:UPD 12-06-08 11:37 OP:RALL STATUS:               ID:20080815193852     I
 2008-08-15-1938-47S.PLUR1_006                                                 6
 STAT SP IPHASW D HRMM SECON CODA AMPLIT PERI AZIMU VELO AIN AR TRES W  DIS CAZ7
 LA4  SN IP       1938 56.63                             164   -0.0110 7.29  53 
 LA4  SZ E        1938 56.81                  233.5 10.0      0        7.29  53 
 LA4  SE IS       1939  0.00                             164    0.0910 7.29  53 
 LA4  SZ  AML     1939  1.41        16.9 0.64                          7.29  53 
 LZ4  SZ E        1938 57.19                  321.7  8.5      0        16.0 142 
 LZ4  SN IP     D 1938 57.20                             147    0.0410 16.0 142 
 LZ4  SE IS       1939  0.69                             147   -0.1210 16.0 142 
 LZ4  SZ  AML     1939  1.15        35.4 0.32                          16.0 142 
                                                                                
