 2008  815 2137 10.2 L  22.100 -99.603  5.3  RAL  2 0.3 2.0LRAL                1
 GAP=358        6.29     999.9   813.9999.9 -0.1424E+07 -0.2999E+07  0.6458E+07E
 ACTION:UPD 12-06-08 11:37 OP:RALL STATUS:               ID:20080815213710     I
 2008-08-15-2137-12S.PLUR1_006                                                 6
 STAT SP IPHASW D HRMM SECON CODA AMPLIT PERI AZIMU VELO AIN AR TRES W  DIS CAZ7
 LA4  SZ E        2137 22.22                  354.1  8.3     18        74.7 156 
 LA4  SN IP     C 2137 22.23                              63   -0.0510 74.7 156 
 LA4  SE IS     C 2137 30.94                              63   -0.1610 74.7 156 
 LA4  SZ  AML     2137 31.83        82.5 0.24                          74.7 156 
 LZ4  SN E        2137 25.12                  315.7  8.2    -21        91.8 158 
 LZ4  SE IP     C 2137 25.14                              63    0.2010 91.8 158 
 LZ4  SN  AML     2137 39.35        55.3 0.24                          91.8 158 
                                                                                
