 2008  818 0937 58.4 L  21.730 -99.441  0.1  RAL  2 0.2 2.2LRAL                1
 GAP=355        2.93      21.5    12.6 23.3 -0.2124E+03  0.9232E+01 -0.3084E+01E
 ACTION:UPD 12-06-08 11:37 OP:RALL STATUS:               ID:20080818093758     I
 2008-08-18-0937-54S.PLUR1_006                                                 6
 STAT SP IPHASW D HRMM SECON CODA AMPLIT PERI AZIMU VELO AIN AR TRES W  DIS CAZ7
 LA4  SN IP        938  3.57                              92   -0.1310 30.5 153 
 LA4  SZ E         938  3.66                  340.9  7.8      8        30.5 153 
 LA4  SE IS     D  938  7.12                              92   -0.4810 30.5 153 
 LA4  SZ  AML      938  7.89       408.6 0.32                          30.5 153 
 LZ4  SZ E         938  6.83                  326.4  6.6    -11        47.6 158 
 LZ4  SN IP        938  6.97                              63    0.3310 47.6 158 
 LZ4  SE IS     D  938 12.96                              63    0.2810 47.6 158 
 LZ4  SZ  AML      938 14.30       165.7 0.32                          47.6 158 
                                                                                
