 2008  818 1539 37.7 L  21.967 -99.694  5.8  RAL  2 0.2 1.8LRAL                1
 GAP=355        2.47     229.8   172.7542.5 -0.3955E+05 -0.9326E+05  0.1243E+06E
 ACTION:UPD 12-06-08 11:37 OP:RALL STATUS:               ID:20080818153937     I
 2008-08-18-1539-41S.PLUR1_006                                                 6
 STAT SP IPHASW D HRMM SECON CODA AMPLIT PERI AZIMU VELO AIN AR TRES W  DIS CAZ7
 LA4  SN IP       1539 48.31                              63   -0.2310 66.7 143 
 LA4  SZ E        1539 48.46                  330.6  8.5      7        66.7 143 
 LA4  SE IS     D 1539 56.18                              63   -0.2810 66.7 143 
 LA4  SZ  AML     1539 58.26        62.3 0.44                          66.7 143 
 LZ4  SN IP       1539 51.47                              63    0.4110 83.0 148 
 LZ4  SZ E        1539 53.69                  318.9  9.8     -8        83.0 148 
 LZ4  SE IS       1540  0.92                              63    0.1010 83.0 148 
 LZ4  SZ  AML     1540  3.58        42.8 0.68                          83.0 148 
                                                                                
