 2008  819 2309  7.6 L  21.482 -99.322  0.6  RAL  2 0.1 0.6LRAL                1
 GAP=282        0.95       5.3     1.2  8.0 -0.4855E+01 -0.5244E+01  0.3237E+02E
 ACTION:UPD 12-06-08 11:37 OP:RALL STATUS:               ID:20080819230907     I
 2008-08-19-2308-58S.PLUR1_006                                                 6
 STAT SP IPHASW D HRMM SECON CODA AMPLIT PERI AZIMU VELO AIN AR TRES W  DIS CAZ7
 LA4  SN IP       23 9  7.78                             142   -0.2310 1.32  84 
 LA4  SZ E        23 9  7.80                  261.7 10.5     -1        1.32  84 
 LA4  SE IS       23 9  8.35                             142    0.0610 1.32  84 
 LA4  SZ  AML     23 9  8.56        65.8 0.28                          1.32  84 
 LZ4  SN IP       23 9 10.32                              95   -0.4110 17.6 162 
 LZ4  SZ E        23 9 11.14                  342.5  8.9      0        17.6 162 
 LZ4  SE IS       23 9 13.58                              95    0.5910 17.6 162 
 LZ4  SZ  AML     23 9 13.64        21.7 0.20                          17.6 162 
                                                                                
