 2008  819 2224 43.8 L  22.158 -99.297  2.9  RAL  2 0.3 1.8LRAL                1
 GAP=357        3.23     640.6    17.6999.9  0.2760E+04  0.5334E+04  0.7930E+06E
 ACTION:UPD 12-06-08 11:37 OP:RALL STATUS:               ID:20080819222443     I
 2008-08-19-2224-49S.PLUR1_006                                                 6
 STAT SP IPHASW D HRMM SECON CODA AMPLIT PERI AZIMU VELO AIN AR TRES W  DIS CAZ7
 LA4  SZ E        2224 55.60                   11.1 11.8     10        74.6 181 
 LA4  SN IP       2224 56.24                              63    0.1810 74.6 181 
 LA4  SE IS       2225  4.28                              63   -0.7210 74.6 181 
 LA4  SZ  AML     2225  7.76        44.6 0.52                          74.6 181 
 LZ4  SZ E        2224 58.49                  347.3 11.7    -10        91.6 178 
 LZ4  SN IP       2224 58.55                              63   -0.1310 91.6 178 
 LZ4  SE IS       2225 10.22                              63    0.6810 91.6 178 
 LZ4  SZ  AML     2225 14.02        48.7 0.44                          91.6 178 
                                                                                
