 2008  820 0521  6.9 L  21.379 -99.341 12.2  RAL  2 0.3 0.5LRAL                1
 GAP=251        1.64       1.7     1.7 17.9 -0.1121E+01  0.1542E+01 -0.1181E+01E
 ACTION:UPD 12-06-08 11:37 OP:RALL STATUS:               ID:20080820052106     I
 2008-08-20-0521-00S.PLUR1_006                                                 6
 STAT SP IPHASW D HRMM SECON CODA AMPLIT PERI AZIMU VELO AIN AR TRES W  DIS CAZ7
 LZ4  SZ E         521  8.60                  306.9  7.6      1        9.16 125 
 LZ4  SN IP        521  8.70                             147   -0.8110 9.16 125 
 LZ4  SE IS        521 10.81                             147   -0.6310 9.16 125 
 LZ4  SZ  AML      521 11.25        19.7 0.48                          9.16 125 
 LA4  SZ E         521  9.84                  197.7 13.0      2        12.1  16 
 LA4  SN IP        521 10.19                             139    0.3710 12.1  16 
 LA4  SE IS        521 13.04                             139    1.0710 12.1  16 
 LA4  SZ  AML      521 13.88         5.6 0.28                          12.1  16 
                                                                                
