 2008  820 0951  3.0 L  21.222 -99.207  0.0  RAL  2 0.5 0.7LRAL                1
 GAP=352        8.93      71.0    39.8874.8 -0.2696E+04 -0.1914E+05  0.3468E+05E
 ACTION:UPD 12-06-08 11:37 OP:RALL STATUS:               ID:20080820095103     I
 2008-08-20-0950-56S.PLUR1_006                                                 6
 STAT SP IPHASW D HRMM SECON CODA AMPLIT PERI AZIMU VELO AIN AR TRES W  DIS CAZ7
 LZ4  SN IP        951  5.69                              94    0.3210 13.7 332 
 LZ4  SZ E         951  5.73                  167.4 11.6     16        13.7 332 
 LZ4  SE IS        951  6.51                              94   -0.6110 13.7 332 
 LZ4  SZ  AML      951  7.96        44.1 0.20                          13.7 332 
 LA4  SN IP        951  8.96                              92    0.6010 30.9 340 
 LA4  SZ E         951  9.48                  119.4 14.7    -40        30.9 340 
 LA4  SE IS        951 11.99                              92   -0.3110 30.9 340 
 LA4  SZ  AML      951 12.70         5.3 0.24                          30.9 340 
                                                                                
