 2008  823 0827  3.0 L  21.343 -99.296 10.0  RAL  1 0.1 0.7LRAL                1
 GAP=360        0.43       8.1    18.3  0.0 -0.1486E+03 -0.3199E+06  0.5165E+06E
 ACTION:UPD 12-06-08 11:37 OP:RALL STATUS:               ID:20080823082703     I
 2008-08-23-0826-55S.PLUR1_006                                                 6
 STAT SP IPHASW D HRMM SECON CODA AMPLIT PERI AZIMU VELO AIN AR TRES W  DIS CAZ7
 LZ4  SZ E         827  5.09                  295.5  8.2      0        3.07 115 
 LZ4  SN IP        827  5.11                             163    0.2110 3.07 115 
 LZ4  SE IS        827  6.07                             163   -0.2110 3.07 115 
 LZ4  SZ  AML      827  6.15        28.0 0.16                          3.07 115 
                                                                                
