 2008  823 0336 54.0 L  22.215 -99.778  4.4  RAL  2 0.2 1.9LRAL                1
 GAP=357        2.02     481.5   298.4999.9 -0.1435E+06 -0.3199E+06  0.5165E+06E
 ACTION:UPD 12-06-08 11:37 OP:RALL STATUS:               ID:20080823033654     I
 2008-08-23-0337-00S.PLUR1_006                                                 6
 STAT SP IPHASW D HRMM SECON CODA AMPLIT PERI AZIMU VELO AIN AR TRES W  DIS CAZ7
 LA4  SZ E         337  9.24                  335.1 14.4      6        94.4 149 
 LA4  SN IP        337  9.65                              63    0.4510 94.4 149 
 LA4  SE IS        337 20.03                              63   -0.2610 94.4 149 
 LZ4  SN IP        337 11.37                              63   -0.4210  111 152 
 LZ4  SZ E         337 11.80                  324.9  8.5     -6         111 152 
 LZ4  SE IS     D  337 25.01                              63    0.2310  111 152 
 LZ4  SZ  AML      337 27.49        45.2 0.36                           111 152 
                                                                                
