 2008  823 1449 13.0 L  22.134 -99.410  0.0  RAL  2 0.2 2.0LRAL                1
 GAP=359        2.57     999.9   236.0999.9 -0.3357E+06 -0.6566E+06  0.3972E+07E
 ACTION:UPD 12-06-08 11:37 OP:RALL STATUS:               ID:20080823144913     I
 2008-08-23-1449-17S.PLUR1_006                                                 6
 STAT SP IPHASW D HRMM SECON CODA AMPLIT PERI AZIMU VELO AIN AR TRES W  DIS CAZ7
 LA4  SN IP       1449 24.96                              63   -0.2110 72.7 172 
 LA4  SZ E        1449 24.99                  359.5  8.6      8        72.7 172 
 LA4  SE IS       1449 33.80                              63   -0.2610 72.7 172 
 LA4  SZ  AML     1449 36.81        62.6 0.60                          72.7 172 
 LZ4  SZ E        1449 27.84                  341.2 11.2     -9        90.1 171 
 LZ4  SN IP     D 1449 28.04                              63    0.1910 90.1 171 
 LZ4  SE IS       1449 38.99                              63    0.2810 90.1 171 
 LZ4  SZ  AML     1449 43.46        95.3 0.48                          90.1 171 
                                                                                
