 2008  823 1420 48.4 L  21.631 -99.268 10.0  RAL  1 0.0 0.6LRAL                1
 GAP=360        0.30       4.1     1.2  0.0  0.4623E+01 -0.3199E+06  0.5165E+06E
 ACTION:UPD 12-06-08 11:37 OP:RALL STATUS:               ID:20080823142048     I
 2008-08-23-1420-44S.PLUR1_006                                                 6
 STAT SP IPHASW D HRMM SECON CODA AMPLIT PERI AZIMU VELO AIN AR TRES W  DIS CAZ7
 LA4  SZ E        1420 51.75                   14.7  9.7      0        16.8 195 
 LA4  SN IP       1420 51.76                             119    0.0010 16.8 195 
 LA4  SE IS     C 1420 54.19                             119    0.0010 16.8 195 
 LA4  SZ  AML     1420 55.38        12.7 0.32                          16.8 195 
                                                                                
