 2008  825 1503 57.6 L  21.832 -99.389  0.1  RAL  2 0.3 1.5LRAL                1
 GAP=360        4.58      36.3    16.0 36.9 -0.2708E+03 -0.1931E+01 -0.2936E+01E
 ACTION:UPD 12-06-08 11:37 OP:RALL STATUS:               ID:20080825150357     I
 2008-08-25-1503-55S.PLUR1_006                                                 6
 STAT SP IPHASW D HRMM SECON CODA AMPLIT PERI AZIMU VELO AIN AR TRES W  DIS CAZ7
 LA4  SZ E        15 4  4.16                    0.3  7.8     12        39.4 168 
 LA4  SN IP       15 4  4.26                              92   -0.2610 39.4 168 
 LA4  SE IS       15 4  8.89                              92   -0.6610 39.4 168 
 LA4  SZ  AML     15 4 12.58        50.2 0.28                          39.4 168 
 LZ4  SZ E        15 4  7.21                  329.8  9.0    -17        56.8 167 
 LZ4  SN IP       15 4  7.31                              63   -0.0210 56.8 167 
 LZ4  SZ  AML     15 4 15.01        39.3 0.48                          56.8 167 
 LZ4  SE IS     D 15 4 15.36                              63    0.9510 56.8 167 
                                                                                
