 2008  826 0029 37.7 L  22.090 -99.791  6.7  RAL  2 0.2 1.1LRAL                1
 GAP=356        1.40     192.2   145.7454.2 -0.2792E+05 -0.6599E+05  0.8715E+05E
 ACTION:UPD 12-06-08 11:37 OP:RALL STATUS:               ID:20080826002937     I
 2008-08-26-0029-41S.PLUR1_006                                                 6
 STAT SP IPHASW D HRMM SECON CODA AMPLIT PERI AZIMU VELO AIN AR TRES W  DIS CAZ7
 LA4  SZ E         029 50.96                  326.5 14.9      3        83.7 143 
 LA4  SN IP        029 51.00                              63   -0.2210 83.7 143 
 LA4  SE IS        030  0.53                              63   -0.5310 83.7 143 
 LA4  SZ  AML      030  1.04         9.8 0.24                          83.7 143 
 LZ4  SZ E         029 53.94                  322.9  6.5     -3        99.9 147 
 LZ4  SN IP     C  029 54.02                              63    0.2810 99.9 147 
 LZ4  SE IS     C  030  5.89                              63    0.4710 99.9 147 
 LZ4  SZ  AML      030  8.31         7.4 0.20                          99.9 147 
                                                                                
