 2008  827 0013 18.7 L  22.237 -99.398  3.7  RAL  2 0.3 1.9LRAL                1
 GAP=359        4.57     999.9   304.1999.9 -0.7136E+06 -0.1389E+07  0.1081E+08E
 ACTION:UPD 12-06-08 11:37 OP:RALL STATUS:               ID:20080827001318     I
 2008-08-27-0013-24S.PLUR1_006                                                 6
 STAT SP IPHASW D HRMM SECON CODA AMPLIT PERI AZIMU VELO AIN AR TRES W  DIS CAZ7
 LA4  SZ E         013 31.94                    8.0 10.0     14        83.9 174 
 LA4  SN IP        013 32.18                              63   -0.1110 83.9 174 
 LA4  SE IS        013 42.02                              63   -0.2210 83.9 174 
 LA4  SZ  AML      013 47.57        39.4 0.44                          83.9 174 
 LZ4  SZ E         013 35.05                  335.4  9.3    -16         101 172 
 LZ4  SN IP        013 35.08                              63    0.1110  101 172 
 LZ4  SE IS        013 47.10                              63    0.2310  101 172 
 LZ4  SZ  AML      013 53.97        60.9 0.44                           101 172 
                                                                                
