 2008  8 7 1012 20.8 L                       RAL                               1
 2008-08-07-1012-20S.PLUR1_006                                                 6
 STAT SP IPHASW D HRMM SECON CODA AMPLIT PERI AZIMU VELO AIN AR TRES W  DIS CAZ7
                                                                                
