 2009  4 1 0328 59.6 L  21.031 -99.333 10.0  RAL  1 0.0 0.9LRAL                1
 GAP=360        0.30       3.7     1.2  0.0  0.2764E+01  0.8173E+00 -0.1827E+01E
 ACTION:UPD 12-06-08 11:37 OP:RALL STATUS:               ID:20090401032859     I
 2009-04-01-0329-00S.PLUR1_003                                                 6
 STAT SP IPHASW D HRMM SECON CODA AMPLIT PERI AZIMU VELO AIN AR TRES W  DIS CAZ7
 LZ4  SZ E         329  5.43                  191.2 19.6      0        33.8  11 
 LZ4  SN IP        329  5.45                             102    0.0110 33.8  11 
 LZ4  SE IS        329  9.68                             102   -0.0110 33.8  11 
 LZ4  SZ  AML      329 10.05        14.4 0.62                          33.8  11 
                                                                                
