 2009  4 1 0812 12.0 L  21.332 -99.285 10.0  RAL  1 0.0 0.2LRAL                1
 GAP=360        0.39     455.1     4.8  0.0 -0.1963E+04  0.2155E+01 -0.1695E+00E
 ACTION:UPD 12-06-08 11:37 OP:RALL STATUS:               ID:20090401081212     I
 2009-04-01-0812-06S.PLUR1_003                                                 6
 STAT SP IPHASW D HRMM SECON CODA AMPLIT PERI AZIMU VELO AIN AR TRES W  DIS CAZ7
 LZ4  SZ E         812 13.89                  272.7 34.2      0        1.58  94 
 LZ4  SN IP        812 13.92                             171    0.1210 1.58  94 
 LZ4  SE IS        812 15.03                             171   -0.1210 1.58  94 
 LZ4  SZ  AML      812 15.38         9.4 0.68                          1.58  94 
                                                                                
