 2009  4 1 0350 32.2 L  21.320 -98.957 10.0  RAL  1 0.0 0.9LRAL                1
 GAP=360        0.30       0.8     4.1  0.0 -0.5647E+00  0.8173E+00 -0.1827E+01E
 ACTION:UPD 12-06-08 11:37 OP:RALL STATUS:               ID:20090401035032     I
 2009-04-01-0350-32S.PLUR1_003                                                 6
 STAT SP IPHASW D HRMM SECON CODA AMPLIT PERI AZIMU VELO AIN AR TRES W  DIS CAZ7
 LZ4  SZ E         350 37.69                   92.1 39.7      0        32.4 272 
 LZ4  SN IP        350 37.79                             103    0.0110 32.4 272 
 LZ4  SE IS        350 41.87                             103   -0.0110 32.4 272 
 LZ4  SZ  AML      350 42.16        15.5 0.80                          32.4 272 
                                                                                
