 2009  4 1 0523 16.1 L  21.251 -99.219 10.0  RAL  1 0.0 1.5LRAL                1
 GAP=360        0.30       4.4     2.8  0.0 -0.1231E+02  0.8173E+00 -0.1827E+01E
 ACTION:UPD 12-06-08 11:37 OP:RALL STATUS:               ID:20090401052316     I
 2009-04-01-0523-09S.PLUR1_003                                                 6
 STAT SP IPHASW D HRMM SECON CODA AMPLIT PERI AZIMU VELO AIN AR TRES W  DIS CAZ7
 LZ4  SN IP        523 18.65                             134    0.0110 10.2 329 
 LZ4  SZ E         523 18.66                  149.4 13.9      0        10.2 329 
 LZ4  SE IS        523 20.45                             134   -0.0110 10.2 329 
 LZ4  SZ  AML      523 21.46       141.0 0.36                          10.2 329 
                                                                                
