 2009  4 1 0544 47.5 L  21.264 -99.240  5.7  RAL  3 0.4 0.7LRAL                1
 GAP=240        4.77       2.5     7.1 22.1  0.1339E+02  0.2155E+01 -0.1695E+00E
 ACTION:UPD 12-06-08 11:37 OP:RALL STATUS:               ID:20090401054447     I
 2009-04-01-0544-35S.PLUR1_009                                                 6
 STAT SP IPHASW D HRMM SECON CODA AMPLIT PERI AZIMU VELO AIN AR TRES W  DIS CAZ7
 LG3  SZ E         544 48.78                  134.0 10.8      0        1.79 315 
 LG3  SN IP        544 48.87                             164    0.1510 1.79 315 
 LG3  SE IS        544 49.87                             164    0.2610 1.79 315 
 LG3  SZ  AML      544 50.21       161.3 0.22                          1.79 315 
 LD5  SZ E         544 49.02                   27.4  8.0    -16        11.9 224 
 LD5  SN IP        544 49.04                             107   -0.8210 11.9 224 
 LD5  SE IS        544 50.04                             107   -1.5510 11.9 224 
 LD5  SZ  AML      544 51.47         6.5 0.32                          11.9 224 
 LA4  SZ E         544 52.24                  145.3  9.2    -17        25.3 344 
 LA4  SN IP        544 52.26                              93    0.3310 25.3 344 
 LA4  SE IS        544 56.78                              93    1.6210 25.3 344 
 LA4  SZ  AML      544 58.13        10.0 0.36                          25.3 344 
                                                                                
