 2009  4 1 0539 44.3 L  21.338 -99.295 10.0  RAL  1 0.1 0.5LRAL                1
 GAP=360        0.36       4.9    18.2  0.0 -0.8882E+02  0.8173E+00 -0.1827E+01E
 ACTION:UPD 12-06-08 11:37 OP:RALL STATUS:               ID:20090401053944     I
 2009-04-01-0539-36S.PLUR1_003                                                 6
 STAT SP IPHASW D HRMM SECON CODA AMPLIT PERI AZIMU VELO AIN AR TRES W  DIS CAZ7
 LZ4  SZ E         539 46.31                  286.1 14.8      0        2.75 106 
 LZ4  SN IP        539 46.36                             165    0.1410 2.75 106 
 LZ4  SE IS        539 47.45                             165   -0.1410 2.75 106 
 LZ4  SZ  AML      539 47.91        17.9 0.66                          2.75 106 
                                                                                
