 2009  4 1 1242 32.7 L  21.586 -99.095 10.0  RAL  1 0.0 1.0LRAL                1
 GAP=360        0.30       3.2     2.3  0.0  0.6669E+01  0.2155E+01 -0.1695E+00E
 ACTION:UPD 12-06-08 11:37 OP:RALL STATUS:               ID:20090401124232     I
 2009-04-01-1242-30S.PLUR1_003                                                 6
 STAT SP IPHASW D HRMM SECON CODA AMPLIT PERI AZIMU VELO AIN AR TRES W  DIS CAZ7
 LZ4  SN IP       1242 38.46                             102    0.0210 33.6 213 
 LZ4  SZ E        1242 38.49                   32.5 18.6      0        33.6 213 
 LZ4  SE IS       1242 42.64                             102   -0.0210 33.6 213 
 LZ4  SZ  AML     1242 43.49        17.8 0.14                          33.6 213 
                                                                                
