 2009  4 1 1917 35.3 L  21.377 -98.605 10.0  RAL  1 0.0 1.5LRAL                1
 GAP=360        0.30       2.0     3.9  0.0 -0.1738E+01  0.2155E+01 -0.1695E+00E
 ACTION:UPD 12-06-08 11:37 OP:RALL STATUS:               ID:20090401191735     I
 2009-04-01-1917-34S.PLUR1_003                                                 6
 STAT SP IPHASW D HRMM SECON CODA AMPLIT PERI AZIMU VELO AIN AR TRES W  DIS CAZ7
 LA4  SZ E        1917 47.08                   99.1 10.8      0        74.0 279 
 LA4  SN IP       1917 47.33                              95    0.0110 74.0 279 
 LA4  SE IS       1917 56.08                              95   -0.0110 74.0 279 
 LA4  SZ  AML     1918  0.27        25.1 0.44                          74.0 279 
                                                                                
