 2009  4 1 1854 54.2 L  20.857 -98.956 10.0  RAL  1 0.0 1.5LRAL                1
 GAP=360        0.30       3.3     2.5  0.0 -0.5404E+01  0.2155E+01 -0.1695E+00E
 ACTION:UPD 12-06-08 11:37 OP:RALL STATUS:               ID:20090401185454     I
 2009-04-01-1854-55S.PLUR1_003                                                 6
 STAT SP IPHASW D HRMM SECON CODA AMPLIT PERI AZIMU VELO AIN AR TRES W  DIS CAZ7
 LZ4  SZ E        1855  4.32                  148.1 10.9      0        61.8 328 
 LZ4  SN IP       1855  4.33                              96    0.0110 61.8 328 
 LZ4  SE IS       1855 11.69                              96   -0.0110 61.8 328 
 LZ4  SZ  AML     1855 17.32        27.6 0.30                          61.8 328 
                                                                                
