 2009  4 1 1304 43.0 L  21.547 -99.387 10.0  RAL  1 0.0 1.1LRAL                1
 GAP=360        0.30       3.3     4.1  0.0 -0.1343E+02  0.2155E+01 -0.1695E+00E
 ACTION:UPD 12-06-08 11:37 OP:RALL STATUS:               ID:20090401130443     I
 2009-04-01-1304-30S.PLUR1_003                                                 6
 STAT SP IPHASW D HRMM SECON CODA AMPLIT PERI AZIMU VELO AIN AR TRES W  DIS CAZ7
 LA4  SZ E        13 4 45.54                  310.7 18.4      0        10.7 131 
 LA4  SN IP       13 4 45.57                             133    0.0110 10.7 131 
 LA4  SE IS       13 4 47.41                             133   -0.0110 10.7 131 
 LA4  SZ  AML     13 4 49.03        55.1 0.72                          10.7 131 
                                                                                
