 2009  4 1 1109 13.3 L  21.274 -99.235 10.0  RAL  1 0.0 0.5LRAL                1
 GAP=360        0.30       5.5     3.4  0.0 -0.1853E+02  0.2155E+01 -0.1695E+00E
 ACTION:UPD 12-06-08 11:37 OP:RALL STATUS:               ID:20090401110913     I
 2009-04-01-1109-07S.PLUR1_003                                                 6
 STAT SP IPHASW D HRMM SECON CODA AMPLIT PERI AZIMU VELO AIN AR TRES W  DIS CAZ7
 LZ4  SZ E        11 9 15.50                  150.3 24.8      0        7.28 330 
 LZ4  SN IP       11 9 15.54                             144    0.0210 7.28 330 
 LZ4  SE IS       11 9 17.10                             144   -0.0210 7.28 330 
 LZ4  SZ  AML     11 9 17.66        15.4 0.32                          7.28 330 
                                                                                
