 2009  4 1 1502 44.1 L  21.317 -99.298 10.0  RAL  1 0.1 0.7LRAL                1
 GAP=360        0.39       7.2    15.0  0.0  0.1079E+03  0.2155E+01 -0.1695E+00E
 ACTION:UPD 12-06-08 11:37 OP:RALL STATUS:               ID:20090401150244     I
 2009-04-01-1502-36S.PLUR1_003                                                 6
 STAT SP IPHASW D HRMM SECON CODA AMPLIT PERI AZIMU VELO AIN AR TRES W  DIS CAZ7
 LZ4  SZ E        15 2 46.16                  242.8 40.5      0        3.36  63 
 LZ4  SN IP       15 2 46.17                             162    0.1710 3.36  63 
 LZ4  SE IS       15 2 47.22                             162   -0.1710 3.36  63 
 LZ4  SZ  AML     15 2 47.64        28.0 0.30                          3.36  63 
                                                                                
