 2009  4 1 2036 16.3 L  21.305 -99.298 10.0  RAL  1 0.2 0.7LRAL                1
 GAP=360        0.99      22.8    26.0  0.0  0.5934E+03  0.2155E+01 -0.1695E+00E
 ACTION:UPD 12-06-08 11:37 OP:RALL STATUS:               ID:20090401203616     I
 2009-04-01-2036-09S.PLUR1_003                                                 6
 STAT SP IPHASW D HRMM SECON CODA AMPLIT PERI AZIMU VELO AIN AR TRES W  DIS CAZ7
 LZ4  SZ E        2036 18.90                  226.4 29.8      0        4.11  47 
 LZ4  SN IP       2036 18.91                             158    0.6410 4.11  47 
 LZ4  SE IS       2036 19.06                             158   -0.6410 4.11  47 
 LZ4  SZ  AML     2036 19.14        23.7 0.24                          4.11  47 
                                                                                
