 2009  4 2 0123 47.6 L  21.307 -99.261 10.0  RAL  1 0.1 0.4LRAL                1
 GAP=360        0.40      18.5     6.7  0.0 -0.1239E+03  0.2155E+01 -0.1695E+00E
 ACTION:UPD 12-06-08 11:37 OP:RALL STATUS:               ID:20090402012347     I
 2009-04-02-0123-40S.PLUR1_003                                                 6
 STAT SP IPHASW D HRMM SECON CODA AMPLIT PERI AZIMU VELO AIN AR TRES W  DIS CAZ7
 LZ4  SN IP        123 49.63                             165    0.1810 2.73 341 
 LZ4  SZ E         123 49.64                  161.5 11.2      0        2.73 341 
 LZ4  SE IS        123 50.64                             165   -0.1810 2.73 341 
 LZ4  SZ  AML      123 52.13        13.2 0.28                          2.73 341 
                                                                                
