 2009  4 2 0117 55.6 L  21.271 -99.199 10.0  RAL  1 0.0 0.4LRAL                1
 GAP=360        0.30       3.5     4.2  0.0 -0.1473E+02  0.2155E+01 -0.1695E+00E
 ACTION:UPD 12-06-08 11:37 OP:RALL STATUS:               ID:20090402011755     I
 2009-04-02-0117-50S.PLUR1_003                                                 6
 STAT SP IPHASW D HRMM SECON CODA AMPLIT PERI AZIMU VELO AIN AR TRES W  DIS CAZ7
 LZ4  SZ E         117 58.10                  132.2 15.1      0        9.82 312 
 LZ4  SN IP        117 58.11                             135    0.0210 9.82 312 
 LZ4  SE IS        117 59.86                             135   -0.0210 9.82 312 
 LZ4  SZ  AML      118  2.89        10.9 0.60                          9.82 312 
                                                                                
