 2009  4 2 0147  1.9 L  21.265 -99.255 10.0  RAL  1 0.2 0.8LRAL                1
 GAP=360        1.82     509.9   999.9  0.0 -0.8747E+06  0.2155E+01 -0.1695E+00E
 ACTION:UPD 12-06-08 11:37 OP:RALL STATUS:               ID:20090402014701     I
 2009-04-02-0146-55S.PLUR1_003                                                 6
 STAT SP IPHASW D HRMM SECON CODA AMPLIT PERI AZIMU VELO AIN AR TRES W  DIS CAZ7
 LG3  SZ E         147  4.20                  198.7 15.1      8        1.19  11 
 LG3  SN IP        147  4.23                             173    0.4810 1.19  11 
 LG3  SE IS        147  4.63                             173   -0.4810 1.19  11 
 LG3  SZ  AML      147  4.92        32.4 0.32                          1.19  11 
                                                                                
