 2009  4 2 0132 58.1 L  21.256 -99.229 10.0  RAL  1 0.0 0.5LRAL                1
 GAP=360        0.30       4.8     2.7  0.0 -0.1272E+02  0.2155E+01 -0.1695E+00E
 ACTION:UPD 12-06-08 11:37 OP:RALL STATUS:               ID:20090402013258     I
 2009-04-02-0132-53S.PLUR1_003                                                 6
 STAT SP IPHASW D HRMM SECON CODA AMPLIT PERI AZIMU VELO AIN AR TRES W  DIS CAZ7
 LZ4  SZ E         133  0.47                  152.9 12.3      0        9.29 333 
 LZ4  SN IP        133  0.50                             137    0.0110 9.29 333 
 LZ4  SE IS        133  2.22                             137   -0.0110 9.29 333 
 LZ4  SZ  AML      133  4.01        14.2 0.70                          9.29 333 
                                                                                
