 2009  4 2 0249 18.3 L  21.302 -99.242 10.0  RAL  1 0.1 0.2LRAL                1
 GAP=360        0.35       8.6     8.1  0.0 -0.6939E+02  0.2155E+01 -0.1695E+00E
 ACTION:UPD 12-06-08 11:37 OP:RALL STATUS:               ID:20090402024918     I
 2009-04-02-0249-12S.PLUR1_003                                                 6
 STAT SP IPHASW D HRMM SECON CODA AMPLIT PERI AZIMU VELO AIN AR TRES W  DIS CAZ7
 LZ4  SZ IP        249 20.38                             157    0.1310 4.31 319 
 LZ4  SN E         249 20.41                  138.8 71.1      0        4.31 319 
 LZ4  SE IS        249 21.55                             157   -0.1310 4.31 319 
 LZ4  SN  AML      249 21.73         7.7 0.24                          4.31 319 
                                                                                
