 2009  4 2 1052 19.3 L  21.352 -99.279 10.0  RAL  1 0.2 1.0LRAL                1
 GAP=360        0.96     897.8   999.9  0.0  0.1829E+07  0.2155E+01 -0.1695E+00E
 ACTION:UPD 12-06-08 11:37 OP:RALL STATUS:               ID:20090402105219     I
 2009-04-02-1052-12S.PLUR1_003                                                 6
 STAT SP IPHASW D HRMM SECON CODA AMPLIT PERI AZIMU VELO AIN AR TRES W  DIS CAZ7
 LZ4  SZ E        1052 21.63                  333.2  7.2     -2        2.51 156 
 LZ4  SN IP       1052 21.64                             166    0.4610 2.51 156 
 LZ4  SE IS       1052 22.09                             166   -0.4610 2.51 156 
 LZ4  SZ  AML     1052 22.71        59.5 0.18                          2.51 156 
                                                                                
