 2009  4 2 1702 26.2 L  21.525 -99.340 10.0  RAL  1 0.0 0.6LRAL                1
 GAP=360        0.31       6.6     5.0  0.0 -0.3295E+02  0.2155E+01 -0.1695E+00E
 ACTION:UPD 12-06-08 11:37 OP:RALL STATUS:               ID:20090402170226     I
 2009-04-02-1702-15S.PLUR1_003                                                 6
 STAT SP IPHASW D HRMM SECON CODA AMPLIT PERI AZIMU VELO AIN AR TRES W  DIS CAZ7
 LA4  SZ E        17 2 28.28                  325.2  9.0      0        5.54 145 
 LA4  SN IP       17 2 28.30                             152    0.0610 5.54 145 
 LA4  SE IS       17 2 29.69                             152   -0.0610 5.54 145 
 LA4  SZ  AML     17 2 29.99        18.7 0.42                          5.54 145 
                                                                                
