 2009  4 2 1232 48.3 L  21.312 -99.254 10.0  RAL  1 0.2 0.5LRAL                1
 GAP=360        0.71      28.1    22.8  0.0 -0.6396E+03  0.2155E+01 -0.1695E+00E
 ACTION:UPD 12-06-08 11:37 OP:RALL STATUS:               ID:20090402123248     I
 2009-04-02-1232-41S.PLUR1_003                                                 6
 STAT SP IPHASW D HRMM SECON CODA AMPLIT PERI AZIMU VELO AIN AR TRES W  DIS CAZ7
 LZ4  SZ E        1232 50.60                  142.9 16.4      0        2.66 323 
 LZ4  SN IP       1232 50.62                             166    0.4310 2.66 323 
 LZ4  SE IS       1232 51.13                             166   -0.4310 2.66 323 
 LZ4  SZ  AML     1232 51.22        16.2 0.18                          2.66 323 
                                                                                
