 2009  4 3 0215 11.0 L  21.511 -99.345 10.0  RAL  1 0.0 0.0LRAL                1
 GAP=360        0.33       6.1     8.1  0.0 -0.4920E+02  0.2155E+01 -0.1695E+00E
 ACTION:UPD 12-06-08 11:37 OP:RALL STATUS:               ID:20090403021511     I
 2009-04-03-0215-00S.PLUR1_003                                                 6
 STAT SP IPHASW D HRMM SECON CODA AMPLIT PERI AZIMU VELO AIN AR TRES W  DIS CAZ7
 LA4  SN IP        215 13.06                             155    0.0910 4.77 129 
 LA4  SZ E         215 13.09                  308.7 13.3      0        4.77 129 
 LA4  SE IS        215 14.34                             155   -0.0910 4.77 129 
 LA4  SZ  AML      215 15.29         5.2 0.30                          4.77 129 
                                                                                
