 2009  4 3 0629 11.0 L  21.358 -99.435 10.0  RAL  1 0.0 0.7LRAL                1
 GAP=360        0.30       0.8     4.4  0.0 -0.3112E+01  0.2155E+01 -0.1695E+00E
 ACTION:UPD 12-06-08 11:37 OP:RALL STATUS:               ID:20090403062911     I
 2009-04-03-0629-07S.PLUR1_003                                                 6
 STAT SP IPHASW D HRMM SECON CODA AMPLIT PERI AZIMU VELO AIN AR TRES W  DIS CAZ7
 LZ4  SZ E         629 14.39                  279.8 18.0      0        17.4 100 
 LZ4  SN IP        629 14.41                             117    0.0210 17.4 100 
 LZ4  SE IS        629 16.85                             117   -0.0210 17.4 100 
 LZ4  SZ  AML      629 17.47        13.2 0.34                          17.4 100 
                                                                                
