 2009  4 3 0730 12.3 L  21.304 -99.258 10.0  RAL  1 0.1 0.2LRAL                1
 GAP=360        0.37      14.4     6.1  0.0 -0.8846E+02  0.2155E+01 -0.1695E+00E
 ACTION:UPD 12-06-08 11:37 OP:RALL STATUS:               ID:20090403073012     I
 2009-04-03-0730-06S.PLUR1_003                                                 6
 STAT SP IPHASW D HRMM SECON CODA AMPLIT PERI AZIMU VELO AIN AR TRES W  DIS CAZ7
 LZ4  SZ E         730 14.29                  158.4 19.9      0        3.16 338 
 LZ4  SN IP        730 14.30                             163    0.1410 3.16 338 
 LZ4  SE IS        730 15.40                             163   -0.1410 3.16 338 
 LZ4  SZ  AML      730 15.90         8.2 0.28                          3.16 338 
                                                                                
