 2009  4 3 1344 31.0 L  21.238 -99.327 10.0  RAL  1 0.0 0.3LRAL                1
 GAP=360        0.30       4.1     2.6  0.0  0.1067E+02  0.2155E+01 -0.1695E+00E
 ACTION:UPD 12-06-08 11:37 OP:RALL STATUS:               ID:20090403134431     I
 2009-04-03-1344-25S.PLUR1_003                                                 6
 STAT SP IPHASW D HRMM SECON CODA AMPLIT PERI AZIMU VELO AIN AR TRES W  DIS CAZ7
 LZ4  SZ E        1344 33.66                  210.4 53.5      0        11.9  30 
 LZ4  SN IP       1344 33.72                             129    0.0210 11.9  30 
 LZ4  SE IS       1344 35.64                             129   -0.0210 11.9  30 
 LZ4  SZ  AML     1344 36.97         6.9 0.16                          11.9  30 
                                                                                
