 2009  4 3 2328 21.3 L  21.244 -99.338 10.0  RAL  1 0.0 0.6LRAL                1
 GAP=360        0.30       3.9     3.0  0.0  0.1166E+02  0.2155E+01 -0.1695E+00E
 ACTION:UPD 12-06-08 11:37 OP:RALL STATUS:               ID:20090403232821     I
 2009-04-03-2328-16S.PLUR1_003                                                 6
 STAT SP IPHASW D HRMM SECON CODA AMPLIT PERI AZIMU VELO AIN AR TRES W  DIS CAZ7
 LZ4  SZ E        2328 23.92                  216.0 23.4      0        12.0  36 
 LZ4  SN IP       2328 23.95                             129    0.0010 12.0  36 
 LZ4  SE IS       2328 25.91                             129    0.0010 12.0  36 
 LZ4  SZ  AML     2328 26.70        15.8 0.66                          12.0  36 
                                                                                
