 2009  4 3 2029 51.0 L  21.322 -99.267 10.0  RAL  1 0.1 1.0LRAL                1
 GAP=360        0.76     999.9   999.9  0.0  0.9256E+07  0.2155E+01 -0.1695E+00E
 ACTION:UPD 12-06-08 11:37 OP:RALL STATUS:               ID:20090403202951     I
 2009-04-03-2029-43S.PLUR1_003                                                 6
 STAT SP IPHASW D HRMM SECON CODA AMPLIT PERI AZIMU VELO AIN AR TRES W  DIS CAZ7
 LZ4  SN IP       2029 53.21                             174    0.3710 1.03 347 
 LZ4  SZ E        2029 53.22                  165.1 18.3     -1        1.03 347 
 LZ4  SE IS       2029 53.82                             174   -0.3710 1.03 347 
 LZ4  SZ  AML     2029 53.97        59.9 0.16                          1.03 347 
                                                                                
