 2009  4 4 0312 44.8 L  21.501 -99.326 10.0  RAL  1 0.2 0.1LRAL                1
 GAP=360        0.79      29.6    30.0  0.0 -0.8857E+03  0.2155E+01 -0.1695E+00E
 ACTION:UPD 12-06-08 11:37 OP:RALL STATUS:               ID:20090404031244     I
 2009-04-04-0312-33S.PLUR1_003                                                 6
 STAT SP IPHASW D HRMM SECON CODA AMPLIT PERI AZIMU VELO AIN AR TRES W  DIS CAZ7
 LA4  SZ E         312 47.18                  316.7 10.0      0        2.60 137 
 LA4  SN IP        312 47.19                             166    0.5010 2.60 137 
 LA4  SE IS        312 47.58                             166   -0.5010 2.60 137 
 LA4  SZ  AML      312 47.59         7.6 0.16                          2.60 137 
                                                                                
