 2009  4 4 1834 44.8 L  21.367 -99.361 10.0  RAL  1 0.0 1.0LRAL                1
 GAP=360        0.30       2.0     5.1  0.0 -0.1008E+02  0.2155E+01 -0.1695E+00E
 ACTION:UPD 12-06-08 11:37 OP:RALL STATUS:               ID:20090404183444     I
 2009-04-04-1834-38S.PLUR1_003                                                 6
 STAT SP IPHASW D HRMM SECON CODA AMPLIT PERI AZIMU VELO AIN AR TRES W  DIS CAZ7
 LZ4  SZ E        1834 47.22                  293.0 19.9      0        10.3 113 
 LZ4  SN IP       1834 47.34                             134    0.0210 10.3 113 
 LZ4  SE IS       1834 49.13                             134   -0.0210 10.3 113 
 LZ4  SZ  AML     1834 50.05        35.9 0.20                          10.3 113 
                                                                                
