 2009  4 4 1035 51.9 L  21.334 -99.257 10.0  RAL  1 0.2 0.4LRAL                1
 GAP=360        1.89     293.2   285.8  0.0 -0.8378E+05  0.2155E+01 -0.1695E+00E
 ACTION:UPD 12-06-08 11:37 OP:RALL STATUS:               ID:20090404103551     I
 2009-04-04-1035-45S.PLUR1_003                                                 6
 STAT SP IPHASW D HRMM SECON CODA AMPLIT PERI AZIMU VELO AIN AR TRES W  DIS CAZ7
 LZ4  SZ E        1035 53.90                   83.0 67.2      9        1.39 254 
 LZ4  SN IP       1035 53.91                             172    0.2110 1.39 254 
 LZ4  SE IS       1035 54.84                             172   -0.2110 1.39 254 
 LZ4  SZ  AML     1035 55.37        14.1 0.38                          1.39 254 
                                                                                
