 2009  4 4 1903 39.7 L  21.275 -99.253 10.1  RAL  2 0.3 0.4LRAL                1
 GAP=317        3.26       1.9     7.1 20.0  0.1079E+02  0.1007E+01 -0.1055E+01E
 ACTION:UPD 12-06-08 11:37 OP:RALL STATUS:               ID:20090404190339     I
 2009-04-04-1903-32S.PLUR1_006                                                 6
 STAT SP IPHASW D HRMM SECON CODA AMPLIT PERI AZIMU VELO AIN AR TRES W  DIS CAZ7
 LG3  SZ E        19 3 41.90                  205.1 15.1     -3        0.05  29 
 LG3  SN IP       19 3 41.93                             180    0.3610 0.05  29 
 LG3  SE IS       19 3 43.81                             180    0.8710 0.05  29 
 LG3  SZ  AML     19 3 44.89        19.6 0.40                          0.05  29 
 LA4  SZ E        19 3 43.22                  151.8  9.2    -13        23.8 346 
 LA4  SN IP       19 3 43.24                             110   -0.8010 23.8 346 
 LA4  SZ  AML     19 3 46.69         3.9 0.10                          23.8 346 
 LA4  SE IS       19 3 46.77                             110   -0.4310 23.8 346 
                                                                                
