 2009  4 5 0323  1.7 L  21.204 -99.185 10.0  RAL  1 0.0 0.4LRAL                1
 GAP=360        0.30       3.6     2.4  0.0 -0.8458E+01 -0.1000E+02  0.1344E+01E
 ACTION:UPD 12-06-08 11:37 OP:RALL STATUS:               ID:20090405032301     I
 2009-04-05-0322-58S.PLUR1_003                                                 6
 STAT SP IPHASW D HRMM SECON CODA AMPLIT PERI AZIMU VELO AIN AR TRES W  DIS CAZ7
 LZ4  SN IP        323  5.01                             119    0.0110 16.6 328 
 LZ4  SZ E         323  5.05                  148.1 55.1      0        16.6 328 
 LZ4  SE IS        323  7.40                             119   -0.0110 16.6 328 
 LZ4  SZ  AML      323  8.14         8.2 0.50                          16.6 328 
                                                                                
