 2009  4 5 0011  0.1 L  21.255 -99.256 10.0  RAL  1 0.0 1.2LRAL                1
 GAP=360        0.30       5.6     1.1  0.0 -0.5776E+01  0.1007E+01 -0.1055E+01E
 ACTION:UPD 12-06-08 11:37 OP:RALL STATUS:               ID:20090405001100     I
 2009-04-05-0010-53S.PLUR1_003                                                 6
 STAT SP IPHASW D HRMM SECON CODA AMPLIT PERI AZIMU VELO AIN AR TRES W  DIS CAZ7
 LZ4  SZ E         011  2.45                  170.3 12.6      0        8.51 350 
 LZ4  SN IP        011  2.45                             140    0.0110 8.51 350 
 LZ4  SE IS        011  4.12                             140   -0.0110 8.51 350 
 LZ4  SZ  AML      011  4.26        67.0 0.20                          8.51 350 
                                                                                
