 2009  4 5 0816 34.4 L  21.265 -99.272 10.0  RAL  1 0.2 0.5LRAL                1
 GAP=360        0.90      24.4    47.3  0.0  0.1155E+04 -0.1000E+02  0.1344E+01E
 ACTION:UPD 12-06-08 11:37 OP:RALL STATUS:               ID:20090405081634     I
 2009-04-05-0816-27S.PLUR1_003                                                 6
 STAT SP IPHASW D HRMM SECON CODA AMPLIT PERI AZIMU VELO AIN AR TRES W  DIS CAZ7
 LG3  SN IP        816 36.86                             167    0.5710 2.37  61 
 LG3  SZ E         816 36.89                  241.1 19.5      0        2.37  61 
 LG3  SE IS        816 37.10                             167   -0.5710 2.37  61 
 LG3  SZ  AML      816 37.25        16.2 0.22                          2.37  61 
                                                                                
