 2009  4 5 0452 34.0 L  21.314 -99.409 10.0  RAL  1 0.0 0.9LRAL                1
 GAP=360        0.30       0.7     4.7  0.0  0.2599E+01 -0.1000E+02  0.1344E+01E
 ACTION:UPD 12-06-08 11:37 OP:RALL STATUS:               ID:20090405045234     I
 2009-04-05-0452-28S.PLUR1_003                                                 6
 STAT SP IPHASW D HRMM SECON CODA AMPLIT PERI AZIMU VELO AIN AR TRES W  DIS CAZ7
 LZ4  SZ E         452 37.01                  262.7 16.5      0        14.6  83 
 LZ4  SN IP        452 37.06                             123    0.0010 14.6  83 
 LZ4  SE IS        452 39.27                             123    0.0010 14.6  83 
 LZ4  SZ  AML      452 39.63        28.9 0.12                          14.6  83 
                                                                                
