 2009  4 5 0522 21.2 L  21.280 -99.087 10.0  RAL  1 0.0 0.4LRAL                1
 GAP=360        0.30       2.7     3.0  0.0 -0.7444E+01 -0.1000E+02  0.1344E+01E
 ACTION:UPD 12-06-08 11:37 OP:RALL STATUS:               ID:20090405052221     I
 2009-04-05-0522-17S.PLUR1_003                                                 6
 STAT SP IPHASW D HRMM SECON CODA AMPLIT PERI AZIMU VELO AIN AR TRES W  DIS CAZ7
 LA4  SZ E         522 26.67                  134.3 10.4      0        32.2 314 
 LA4  SN IP        522 26.77                             103    0.0210 32.2 314 
 LA4  SE IS        522 30.80                             103   -0.0210 32.2 314 
 LA4  SZ  AML      522 31.82         4.9 0.58                          32.2 314 
                                                                                
