 2009  4 5 0040 24.5 L  21.268 -99.200  0.0  RAL  2 0.1 0.7LRAL                1
 GAP=305        0.64       0.4     1.9 15.7 -0.5924E+00 -0.1000E+02  0.1344E+01E
 ACTION:UPD 12-06-08 11:37 OP:RALL STATUS:               ID:20090405004024     I
 2009-04-05-0040-16S.PLUR1_006                                                 6
 STAT SP IPHASW D HRMM SECON CODA AMPLIT PERI AZIMU VELO AIN AR TRES W  DIS CAZ7
 LG3  SZ E         040 25.13                   99.0 16.7      0        5.48 279 
 LG3  SN IP        040 25.16                             102   -0.2710 5.48 279 
 LG3  SE IS        040 26.20                             102    0.0510 5.48 279 
 LG3  SZ  AML      040 26.63       104.4 0.26                          5.48 279 
 LA4  SZ E         040 28.74                  155.4  9.1      1        26.4 335 
 LA4  SN IP        040 28.88                              92   -0.2010 26.4 335 
 LA4  SE IS        040 32.88                              92    0.4210 26.4 335 
 LA4  SZ  AML      040 34.92         4.9 0.32                          26.4 335 
                                                                                
