 2009  4 5 1021 47.4 L  21.722 -99.408 10.0  RAL  1 0.0 0.6LRAL                1
 GAP=360        0.30       3.6     1.7  0.0 -0.5206E+01 -0.1000E+02  0.1344E+01E
 ACTION:UPD 12-06-08 11:37 OP:RALL STATUS:               ID:20090405102147     I
 2009-04-05-1021-41S.PLUR1_003                                                 6
 STAT SP IPHASW D HRMM SECON CODA AMPLIT PERI AZIMU VELO AIN AR TRES W  DIS CAZ7
 LA4  SZ E        1021 52.33                  338.7  8.9      0        28.3 159 
 LA4  SN IP       1021 52.38                             105    0.0210 28.3 159 
 LA4  SE IS       1021 55.99                             105   -0.0210 28.3 159 
 LA4  SZ  AML     1021 58.96         7.8 0.50                          28.3 159 
                                                                                
