 2009  4 5 1145 29.5 L  21.641 -99.297 10.0  RAL  1 0.0 1.0LRAL                1
 GAP=360        0.30       3.8     1.0  0.0 -0.1188E+01 -0.1000E+02  0.1344E+01E
 ACTION:UPD 12-06-08 11:37 OP:RALL STATUS:               ID:20090405114529     I
 2009-04-05-1145-30S.PLUR1_003                                                 6
 STAT SP IPHASW D HRMM SECON CODA AMPLIT PERI AZIMU VELO AIN AR TRES W  DIS CAZ7
 LZ4  SZ E        1145 35.27                  355.3 20.3      0        34.4 175 
 LZ4  SN IP       1145 35.45                             102    0.0110 34.4 175 
 LZ4  SE IS       1145 39.75                             102   -0.0110 34.4 175 
 LZ4  SZ  AML     1145 40.66        15.8 0.64                          34.4 175 
                                                                                
