 2009  4 5 1515 28.5 L  21.333 -99.271 10.0  RAL  1 1.1 1.0LRAL                1
 GAP=360       13.84     999.9   999.9  0.0  0.5337E+08 -0.1000E+02  0.1344E+01E
 ACTION:UPD 12-06-08 11:37 OP:RALL STATUS:               ID:20090405151528     I
 2009-04-05-1515-21S.PLUR1_003                                                 6
 STAT SP IPHASW D HRMM SECON CODA AMPLIT PERI AZIMU VELO AIN AR TRES W  DIS CAZ7
 LZ4  SZ E        1515 30.81                  263.8 13.1    -65        0.30 150 
 LZ4  SN IP       1515 30.85                             178    0.5510 0.30 150 
 LZ4  SE IS       1515 31.08                             178   -0.5510 0.30 150 
 LZ4  SZ  AML     1515 31.15        54.8 0.18                          0.30 150 
                                                                                
