 2009  4 5 1638  7.1 L  21.846 -99.453 10.0  RAL  1 0.0 0.3LRAL                1
 GAP=360        0.30       3.5     1.8  0.0 -0.4501E+01 -0.1000E+02  0.1344E+01E
 ACTION:UPD 12-06-08 11:37 OP:RALL STATUS:               ID:20090405163807     I
 2009-04-05-1638-05S.PLUR1_003                                                 6
 STAT SP IPHASW D HRMM SECON CODA AMPLIT PERI AZIMU VELO AIN AR TRES W  DIS CAZ7
 LA4  SZ E        1638 14.33                  339.7  9.7      0        42.8 160 
 LA4  SN IP       1638 14.35                              99    0.0110 42.8 160 
 LA4  SE IS       1638 19.58                              99   -0.0110 42.8 160 
 LA4  SZ  AML     1638 21.49         2.7 0.24                          42.8 160 
                                                                                
