 2009  4 5 2254 10.7 L  21.742 -99.290 10.0  RAL  1 0.0 1.5LRAL                1
 GAP=360        0.30       3.7     1.3  0.0 -0.6151E+00 -0.1000E+02  0.1344E+01E
 ACTION:UPD 12-06-08 11:37 OP:RALL STATUS:               ID:20090405225410     I
 2009-04-05-2254-09S.PLUR1_003                                                 6
 STAT SP IPHASW D HRMM SECON CODA AMPLIT PERI AZIMU VELO AIN AR TRES W  DIS CAZ7
 LZ4  SN IP       2254 18.34                              98    0.0110 45.6 177 
 LZ4  SZ E        2254 18.48                  357.4  9.9      0        45.6 177 
 LZ4  SE IS       2254 23.89                              98   -0.0110 45.6 177 
 LZ4  SZ  AML     2254 24.86        40.3 0.52                          45.6 177 
                                                                                
