 2009  4 6 0851 55.8 L  21.197 -98.915 10.0  RAL  1 0.0 1.0LRAL                1
 GAP=360        0.30       1.7     3.8  0.0 -0.4869E+01 -0.1000E+02  0.1344E+01E
 ACTION:UPD 12-06-08 11:37 OP:RALL STATUS:               ID:20090406085155     I
 2009-04-06-0851-58S.PLUR1_003                                                 6
 STAT SP IPHASW D HRMM SECON CODA AMPLIT PERI AZIMU VELO AIN AR TRES W  DIS CAZ7
 LZ4  SZ E         852  2.46                  111.9 22.1      0        39.7 292 
 LZ4  SN IP        852  2.51                             100    0.0110 39.7 292 
 LZ4  SE IS        852  7.39                             100   -0.0110 39.7 292 
 LZ4  SZ  AML      852  9.33        13.4 0.58                          39.7 292 
                                                                                
