 2009  4 6 1111 35.8 L  21.488 -99.289 10.0  RAL  1 0.1 0.2LRAL                1
 GAP=360        0.36       5.7    23.8  0.0  0.1345E+03 -0.1000E+02  0.1344E+01E
 ACTION:UPD 12-06-08 11:37 OP:RALL STATUS:               ID:20090406111135     I
 2009-04-06-1111-24S.PLUR1_003                                                 6
 STAT SP IPHASW D HRMM SECON CODA AMPLIT PERI AZIMU VELO AIN AR TRES W  DIS CAZ7
 LA4  SZ E        1111 37.84                   75.7  6.1      0        2.09 256 
 LA4  SN IP       1111 37.84                             169    0.1410 2.09 256 
 LA4  SE IS       1111 38.93                             169   -0.1410 2.09 256 
 LA4  SZ  AML     1111 39.26         9.0 0.42                          2.09 256 
                                                                                
