 2009  4 6 1420 50.9 L  21.508 -99.451 10.0  RAL  1 0.0 0.6LRAL                1
 GAP=360        0.30       0.9     4.6  0.0 -0.3643E+01 -0.1000E+02  0.1344E+01E
 ACTION:UPD 12-06-08 11:37 OP:RALL STATUS:               ID:20090406142050     I
 2009-04-06-1420-42S.PLUR1_003                                                 6
 STAT SP IPHASW D HRMM SECON CODA AMPLIT PERI AZIMU VELO AIN AR TRES W  DIS CAZ7
 LA4  SZ E        1420 53.70                  280.6  6.2      0        15.0 101 
 LA4  SN IP       1420 53.95                             122    0.0010 15.0 101 
 LA4  SE IS       1420 56.20                             122    0.0010 15.0 101 
 LA4  SZ  AML     1420 58.16        12.9 0.26                          15.0 101 
                                                                                
