 2009  4 6 2303 19.7 L  21.545 -99.383 10.0  RAL  1 0.0 0.2LRAL                1
 GAP=360        0.30       3.4     4.1  0.0 -0.1408E+02 -0.1000E+02  0.1344E+01E
 ACTION:UPD 12-06-08 11:37 OP:RALL STATUS:               ID:20090406230319     I
 2009-04-06-2303-09S.PLUR1_003                                                 6
 STAT SP IPHASW D HRMM SECON CODA AMPLIT PERI AZIMU VELO AIN AR TRES W  DIS CAZ7
 LA4  SN IP       23 3 22.27                             134    0.0210 10.3 131 
 LA4  SZ E        23 3 22.29                  311.5  7.9      0        10.3 131 
 LA4  SE IS       23 3 24.07                             134   -0.0210 10.3 131 
 LA4  SZ  AML     23 3 24.44         5.7 0.22                          10.3 131 
                                                                                
