 2009  4 7 0148 19.1 L  21.508 -99.171 10.0  RAL  1 0.0 0.3LRAL                1
 GAP=360        0.30       0.9     4.6  0.0  0.3785E+01 -0.1000E+02  0.1344E+01E
 ACTION:UPD 12-06-08 11:37 OP:RALL STATUS:               ID:20090407014819     I
 2009-04-07-0148-09S.PLUR1_003                                                 6
 STAT SP IPHASW D HRMM SECON CODA AMPLIT PERI AZIMU VELO AIN AR TRES W  DIS CAZ7
 LA4  SZ E         148 22.08                   79.2  5.5      0        14.5 259 
 LA4  SN IP        148 22.09                             123    0.0010 14.5 259 
 LA4  SE IS        148 24.30                             123    0.0010 14.5 259 
 LA4  SZ  AML      148 24.73         6.5 0.18                          14.5 259 
                                                                                
