 2009  4 7 1326 19.4 L  21.345 -99.301 10.0  RAL  1 0.0 0.3LRAL                1
 GAP=360        0.35       5.7    12.6  0.0 -0.7248E+02 -0.1000E+02  0.1344E+01E
 ACTION:UPD 12-06-08 11:37 OP:RALL STATUS:               ID:20090407132619     I
 2009-04-07-1326-13S.PLUR1_003                                                 6
 STAT SP IPHASW D HRMM SECON CODA AMPLIT PERI AZIMU VELO AIN AR TRES W  DIS CAZ7
 LZ4  SZ E        1326 21.36                  296.0 36.7      0        3.60 116 
 LZ4  SN IP       1326 21.40                             161    0.1210 3.60 116 
 LZ4  SE IS       1326 22.56                             161   -0.1210 3.60 116 
 LZ4  SZ  AML     1326 22.93        10.4 0.44                          3.60 116 
                                                                                
