 2009  4 7 1038 17.4 L  21.334 -99.281 10.0  RAL  1 0.1 1.0LRAL                1
 GAP=360        0.64     999.9   999.9  0.0  0.6192E+07 -0.1000E+02  0.1344E+01E
 ACTION:UPD 12-06-08 11:37 OP:RALL STATUS:               ID:20090407103817     I
 2009-04-07-1038-10S.PLUR1_003                                                 6
 STAT SP IPHASW D HRMM SECON CODA AMPLIT PERI AZIMU VELO AIN AR TRES W  DIS CAZ7
 LZ4  SZ E        1038 19.62                  286.0 31.6      0        1.23 106 
 LZ4  SN IP       1038 19.66                             173    0.3810 1.23 106 
 LZ4  SE IS       1038 20.24                             173   -0.3810 1.23 106 
 LZ4  SZ  AML     1038 20.54        59.7 0.16                          1.23 106 
                                                                                
