 2009  4 7 1136 29.1 L  21.608 -99.292 10.0  RAL  1 0.0 0.3LRAL                1
 GAP=360        0.30       4.4     0.7  0.0  0.2661E+01 -0.1000E+02  0.1344E+01E
 ACTION:UPD 12-06-08 11:37 OP:RALL STATUS:               ID:20090407113629     I
 2009-04-07-1136-19S.PLUR1_003                                                 6
 STAT SP IPHASW D HRMM SECON CODA AMPLIT PERI AZIMU VELO AIN AR TRES W  DIS CAZ7
 LA4  SN IP       1136 32.08                             124    0.0010 13.9 187 
 LA4  SZ E        1136 32.09                    7.2  8.7      0        13.9 187 
 LA4  SE IS       1136 34.23                             124    0.0010 13.9 187 
 LA4  SZ  AML     1136 34.57         7.6 0.10                          13.9 187 
                                                                                
