 2009  4 7 1027  5.8 L  21.321 -99.268 10.0  RAL  1 0.0-0.1LRAL                1
 GAP=360        0.34     374.2   999.9  0.0  0.1224E+07 -0.1000E+02  0.1344E+01E
 ACTION:UPD 12-06-08 11:37 OP:RALL STATUS:               ID:20090407102705     I
 2009-04-07-1026-59S.PLUR1_003                                                 6
 STAT SP IPHASW D HRMM SECON CODA AMPLIT PERI AZIMU VELO AIN AR TRES W  DIS CAZ7
 LZ4  SZ E        1027  7.73                  172.4 25.5      0        1.12 352 
 LZ4  SN IP       1027  7.74                             174    0.1110 1.12 352 
 LZ4  SE IS       1027  8.86                             174   -0.1110 1.12 352 
 LZ4  SZ  AML     1027  9.17         4.3 0.50                          1.12 352 
                                                                                
