 2009  4 7 1112 45.8 L  21.245 -99.265 10.0  RAL  1 0.0 0.2LRAL                1
 GAP=360        0.34      12.2     4.9  0.0  0.6038E+02 -0.1000E+02  0.1344E+01E
 ACTION:UPD 12-06-08 11:37 OP:RALL STATUS:               ID:20090407111245     I
 2009-04-07-1112-39S.PLUR1_003                                                 6
 STAT SP IPHASW D HRMM SECON CODA AMPLIT PERI AZIMU VELO AIN AR TRES W  DIS CAZ7
 LG3  SZ E        1112 47.76                  200.6 13.6      0        3.57  21 
 LG3  SN IP       1112 47.84                             161    0.1110 3.57  21 
 LG3  SE IS       1112 49.03                             161   -0.1110 3.57  21 
 LG3  SZ  AML     1112 49.28         9.3 0.48                          3.57  21 
                                                                                
