 2009  4 7 2242 50.7 L  21.309 -99.250 10.0  RAL  1 0.1 0.7LRAL                1
 GAP=360        0.56      18.7    16.5  0.0 -0.3081E+03 -0.1000E+02  0.1344E+01E
 ACTION:UPD 12-06-08 11:37 OP:RALL STATUS:               ID:20090407224250     I
 2009-04-07-2242-43S.PLUR1_003                                                 6
 STAT SP IPHASW D HRMM SECON CODA AMPLIT PERI AZIMU VELO AIN AR TRES W  DIS CAZ7
 LZ4  SZ E        2242 52.94                  140.5 11.7      0        3.13 321 
 LZ4  SN IP       2242 52.95                             163    0.3210 3.13 321 
 LZ4  SE IS       2242 53.69                             163   -0.3210 3.13 321 
 LZ4  SZ  AML     2242 53.96        24.2 0.22                          3.13 321 
                                                                                
