 2009  4 7 2041 11.3 L  21.331 -99.274 10.0  RAL  1 0.1 0.7LRAL                1
 GAP=360        0.40     999.9   999.9  0.0 -0.7552E+08 -0.1000E+02  0.1344E+01E
 ACTION:UPD 12-06-08 11:37 OP:RALL STATUS:               ID:20090407204111     I
 2009-04-07-2041-04S.PLUR1_003                                                 6
 STAT SP IPHASW D HRMM SECON CODA AMPLIT PERI AZIMU VELO AIN AR TRES W  DIS CAZ7
 LZ4  SZ E        2041 13.17                  267.5 24.8      0        0.46  88 
 LZ4  SN IP       2041 13.27                             177    0.1810 0.46  88 
 LZ4  SE IS       2041 14.25                             177   -0.1810 0.46  88 
 LZ4  SZ  AML     2041 15.82        28.6 0.28                          0.46  88 
                                                                                
