 2009  4 7 2002 49.2 L  22.130 -98.910 10.0  RAL  1 0.0 0.9LRAL                1
 GAP=360        0.30       3.4     2.8  0.0  0.4295E+01 -0.1000E+02  0.1344E+01E
 ACTION:UPD 12-06-08 11:37 OP:RALL STATUS:               ID:20090407200249     I
 2009-04-07-2002-49S.PLUR1_003                                                 6
 STAT SP IPHASW D HRMM SECON CODA AMPLIT PERI AZIMU VELO AIN AR TRES W  DIS CAZ7
 LA4  SZ E        20 3  2.22                   29.9 18.1      0        82.6 210 
 LA4  SN IP       20 3  2.57                              94    0.0110 82.6 210 
 LA4  SE IS       20 3 12.29                              94   -0.0110 82.6 210 
 LA4  SZ  AML     20 3 12.81         5.5 0.30                          82.6 210 
                                                                                
