 2009  4 8 0719 28.6 L  21.312 -99.280 10.0  RAL  1 0.1 0.3LRAL                1
 GAP=360        0.61      30.2    17.8  0.0  0.5368E+03 -0.1000E+02  0.1344E+01E
 ACTION:UPD 12-06-08 11:37 OP:RALL STATUS:               ID:20090408071928     I
 2009-04-08-0719-22S.PLUR1_003                                                 6
 STAT SP IPHASW D HRMM SECON CODA AMPLIT PERI AZIMU VELO AIN AR TRES W  DIS CAZ7
 LZ4  SZ E         719 30.77                  208.8 24.4      0        2.33  29 
 LZ4  SN IP        719 30.80                             167    0.3610 2.33  29 
 LZ4  SE IS        719 31.45                             167   -0.3610 2.33  29 
 LZ4  SZ  AML      719 32.86        10.1 0.52                          2.33  29 
                                                                                
