 2009  4 8 0602  5.6 L  21.325 -99.291 10.0  RAL  1 0.1 0.2LRAL                1
 GAP=360        0.40       6.7    22.9  0.0  0.1535E+03 -0.1000E+02  0.1344E+01E
 ACTION:UPD 12-06-08 11:37 OP:RALL STATUS:               ID:20090408060205     I
 2009-04-08-0601-59S.PLUR1_003                                                 6
 STAT SP IPHASW D HRMM SECON CODA AMPLIT PERI AZIMU VELO AIN AR TRES W  DIS CAZ7
 LZ4  SN IP        6 2  7.60                             167    0.1810 2.33  73 
 LZ4  SZ E         6 2  7.64                  252.6 24.7      0        2.33  73 
 LZ4  SE IS        6 2  8.61                             167   -0.1810 2.33  73 
 LZ4  SZ  AML      6 2 10.15         8.3 0.54                          2.33  73 
                                                                                
