 2009  4 8 0353 31.0 L  21.445 -99.314 10.0  RAL  1 0.0 0.6LRAL                1
 GAP=360        0.30       4.3     1.7  0.0 -0.7019E+01 -0.1000E+02  0.1344E+01E
 ACTION:UPD 12-06-08 11:37 OP:RALL STATUS:               ID:20090408035331     I
 2009-04-08-0353-27S.PLUR1_003                                                 6
 STAT SP IPHASW D HRMM SECON CODA AMPLIT PERI AZIMU VELO AIN AR TRES W  DIS CAZ7
 LZ4  SZ E         353 33.91                  340.0 33.7      0        13.4 160 
 LZ4  SN IP        353 33.93                             125    0.0110 13.4 160 
 LZ4  SE IS        353 36.02                             125   -0.0110 13.4 160 
 LZ4  SZ  AML      353 36.61        12.8 0.72                          13.4 160 
                                                                                
