 2009  4 8 0525 30.4 L  21.335 -99.282 10.0  RAL  1 0.2 0.6LRAL                1
 GAP=360        0.93     999.9   999.9  0.0  0.5269E+07 -0.1000E+02  0.1344E+01E
 ACTION:UPD 12-06-08 11:37 OP:RALL STATUS:               ID:20090408052530     I
 2009-04-08-0525-23S.PLUR1_003                                                 6
 STAT SP IPHASW D HRMM SECON CODA AMPLIT PERI AZIMU VELO AIN AR TRES W  DIS CAZ7
 LZ4  SN IP        525 32.83                             173    0.6010 1.34 111 
 LZ4  SZ E         525 32.84                  291.5  6.2      0        1.34 111 
 LZ4  SE IS        525 32.98                             173   -0.6010 1.34 111 
 LZ4  SZ  AML      525 33.03        23.2 0.14                          1.34 111 
                                                                                
