 2009  4 8 1421 59.4 L  21.279 -99.336 10.0  RAL  1 0.0 0.2LRAL                1
 GAP=360        0.30       3.9     0.8  0.0  0.1976E+01 -0.1000E+02  0.1344E+01E
 ACTION:UPD 12-06-08 11:37 OP:RALL STATUS:               ID:20090408142159     I
 2009-04-08-1421-52S.PLUR1_003                                                 6
 STAT SP IPHASW D HRMM SECON CODA AMPLIT PERI AZIMU VELO AIN AR TRES W  DIS CAZ7
 LA4  SZ E        1422  3.53                  187.0 11.8      0        22.8   7 
 LA4  SN IP       1422  3.57                             110    0.0110 22.8   7 
 LA4  SE IS       1422  6.60                             110   -0.0110 22.8   7 
 LA4  SZ  AML     1422  6.70         4.0 0.18                          22.8   7 
                                                                                
