 2009  4 8 1345 10.7 L  21.466 -99.393 10.0  RAL  1 0.0 0.8LRAL                1
 GAP=360        0.30       3.1     2.9  0.0 -0.8524E+01 -0.1000E+02  0.1344E+01E
 ACTION:UPD 12-06-08 11:37 OP:RALL STATUS:               ID:20090408134510     I
 2009-04-08-1345-07S.PLUR1_003                                                 6
 STAT SP IPHASW D HRMM SECON CODA AMPLIT PERI AZIMU VELO AIN AR TRES W  DIS CAZ7
 LZ4  SN IP       1345 14.41                             114    0.0110 19.7 139 
 LZ4  SZ E        1345 14.42                  319.5 13.1      0        19.7 139 
 LZ4  SE IS       1345 17.12                             114   -0.0110 19.7 139 
 LZ4  SZ  AML     1345 18.01        17.5 0.16                          19.7 139 
                                                                                
