 2009  4 9 0508 22.9 L  21.323 -99.304 10.0  RAL  1 0.0 0.1LRAL                1
 GAP=360        0.30       2.5    11.6  0.0  0.2901E+02 -0.1000E+02  0.1344E+01E
 ACTION:UPD 12-06-08 11:37 OP:RALL STATUS:               ID:20090409050822     I
 2009-04-09-0508-16S.PLUR1_003                                                 6
 STAT SP IPHASW D HRMM SECON CODA AMPLIT PERI AZIMU VELO AIN AR TRES W  DIS CAZ7
 LZ4  SZ IP        5 8 24.85                             160    0.0310 3.68  77 
 LZ4  SN E         5 8 24.94                  256.9 37.8      0        3.68  77 
 LZ4  SE IS        5 8 26.20                             160   -0.0310 3.68  77 
 LZ4  SN  AML      5 8 26.63         6.9 0.14                          3.68  77 
                                                                                
