 2009  4 9 0325 58.0 L  21.246 -99.236 10.0  RAL  1 0.0 0.4LRAL                1
 GAP=360        0.30       4.9     1.9  0.0 -0.9317E+01 -0.1000E+02  0.1344E+01E
 ACTION:UPD 12-06-08 11:37 OP:RALL STATUS:               ID:20090409032558     I
 2009-04-09-0325-52S.PLUR1_003                                                 6
 STAT SP IPHASW D HRMM SECON CODA AMPLIT PERI AZIMU VELO AIN AR TRES W  DIS CAZ7
 LZ4  SZ E         326  0.48                  159.9 13.7      0        10.0 340 
 LZ4  SN IP        326  0.51                             134    0.0210 10.0 340 
 LZ4  SE IS        326  2.28                             134   -0.0210 10.0 340 
 LZ4  SZ  AML      326  2.64         9.6 0.28                          10.0 340 
                                                                                
