 2009  4 9 1102 43.1 L  21.183 -99.260 10.0  RAL  1 0.0 0.3LRAL                1
 GAP=360        0.30       4.2     0.5  0.0 -0.1108E+01 -0.1000E+02  0.1344E+01E
 ACTION:UPD 12-06-08 11:37 OP:RALL STATUS:               ID:20090409110243     I
 2009-04-09-1102-39S.PLUR1_003                                                 6
 STAT SP IPHASW D HRMM SECON CODA AMPLIT PERI AZIMU VELO AIN AR TRES W  DIS CAZ7
 LZ4  SZ E        11 2 46.42                  176.7 48.2      0        16.4 357 
 LZ4  SN IP       11 2 46.43                             119    0.0210 16.4 357 
 LZ4  SE IS       11 2 48.77                             119   -0.0210 16.4 357 
 LZ4  SZ  AML     11 2 48.88         5.5 0.16                          16.4 357 
                                                                                
