 2009  4 9 2358 59.2 L  21.224 -98.946 10.0  RAL  2 1.0 1.1LRAL                1
 GAP=335       13.43      26.7   122.3609.4  0.9849E+03 -0.4888E+05 -0.3924E+04E
 ACTION:UPD 12-06-08 11:37 OP:RALL STATUS:               ID:20090409235859     I
 2009-04-09-2358-56S.PLUR1_006                                                 6
 STAT SP IPHASW D HRMM SECON CODA AMPLIT PERI AZIMU VELO AIN AR TRES W  DIS CAZ7
 LO8  SN IP       2359  6.34                             105    2.0410 28.7 256 
 LO8  SZ E        2359  6.35                  138.8  6.4     63        28.7 256 
 LO8  SE IS       2359  8.45                             105    0.4510 28.7 256 
 LO8  SZ  AML     2359  9.66         2.9 0.32                          28.7 256 
 LG3  SZ E        2359  5.14                   95.8 18.8     -3        32.4 280 
 LG3  SN IP       2359  5.17                             103    0.3310 32.4 280 
 LG3  SE IS       2359  6.11                             103   -2.8210 32.4 280 
 LG3  SZ  AML     2359  6.15       212.5 0.14                          32.4 280 
                                                                                
