 2009  4 9 2319 20.5 L  21.269 -99.245 10.0  RAL  1 0.0 1.4LRAL                1
 GAP=360        0.30       5.9     2.4  0.0 -0.1391E+02 -0.1000E+02  0.1344E+01E
 ACTION:UPD 12-06-08 11:37 OP:RALL STATUS:               ID:20090409231920     I
 2009-04-09-2319-13S.PLUR1_003                                                 6
 STAT SP IPHASW D HRMM SECON CODA AMPLIT PERI AZIMU VELO AIN AR TRES W  DIS CAZ7
 LZ4  SZ E        2319 22.72                  159.6 13.2      0        7.33 340 
 LZ4  SN IP       2319 22.76                             144    0.0210 7.33 340 
 LZ4  SE IS       2319 24.33                             144   -0.0210 7.33 340 
 LZ4  SZ  AML     2319 26.26       118.0 0.24                          7.33 340 
                                                                                
