 2009  410 0601 44.6 L  21.344 -99.269 10.0  RAL  1 0.1 0.9LRAL                1
 GAP=360        0.57      22.5   999.9  0.0  0.2859E+05 -0.4888E+05 -0.3924E+04E
 ACTION:UPD 12-06-08 11:37 OP:RALL STATUS:               ID:20090410060144     I
 2009-04-10-0601-37S.PLUR1_003                                                 6
 STAT SP IPHASW D HRMM SECON CODA AMPLIT PERI AZIMU VELO AIN AR TRES W  DIS CAZ7
 LZ4  SZ E         6 1 46.74                    0.6 11.3      0        1.40 181 
 LZ4  SN IP        6 1 46.74                             172    0.3210 1.40 181 
 LZ4  SE IS        6 1 47.44                             172   -0.3210 1.40 181 
 LZ4  SZ  AML      6 1 48.35        48.9 0.18                          1.40 181 
                                                                                
