 2009  410 0545 17.0 L  21.355 -99.388 10.0  RAL  1 0.0                        1
 GAP=360        0.30       1.0     4.9  0.0 -0.4693E+01 -0.4888E+05 -0.3924E+04E
 ACTION:UPD 12-06-08 11:37 OP:RALL STATUS:               ID:20090410054517     I
 2009-04-10-0545-12S.PLUR1_003                                                 6
 STAT SP IPHASW D HRMM SECON CODA AMPLIT PERI AZIMU VELO AIN AR TRES W  DIS CAZ7
 LZ4  SZ E         545 19.71                  282.1 19.7      0        12.6 102 
 LZ4  SN IP        545 19.76                             127    0.0010 12.6 102 
 LZ4  SE IS        545 21.78                             127    0.0010 12.6 102 
                                                                                
