 2009  410 1008 35.1 L  21.341 -99.281 10.0  RAL  1 0.8 2.1LRAL                1
 GAP=360        9.71     553.8   583.3  0.0 -0.3230E+06 -0.4888E+05 -0.3924E+04E
 ACTION:UPD 12-06-08 11:37 OP:RALL STATUS:               ID:20090410100835     I
 2009-04-10-1008-28S.PLUR1_003                                                 6
 STAT SP IPHASW D HRMM SECON CODA AMPLIT PERI AZIMU VELO AIN AR TRES W  DIS CAZ7
 LZ4  SN IP       10 8 37.30                             171    0.3310 1.63 136 
 LZ4  SZ E        10 8 37.31                    1.8 13.3     46        1.63 136 
 LZ4  SE IS       10 8 38.00                             171   -0.3310 1.63 136 
 LZ4  SZ  AML     10 8 38.92       640.3 0.20                          1.63 136 
                                                                                
