 2009  410 1238  3.5 L  21.272 -99.252 21.8  RAL  2 0.4 0.4LRAL                1
 GAP=359        4.21       2.9     9.3 36.0  0.1911E+02  0.8034E+00 -0.2282E+01E
 ACTION:UPD 12-06-08 11:37 OP:RALL STATUS:               ID:20090410123803     I
 2009-04-10-1237-56S.PLUR1_006                                                 6
 STAT SP IPHASW D HRMM SECON CODA AMPLIT PERI AZIMU VELO AIN AR TRES W  DIS CAZ7
 LG3  SZ E        1238  8.45                  171.3 10.1      5        0.43 346 
 LG3  SN IP       1238  8.45                             179    1.2610 0.43 346 
 LG3  SE IS       1238 10.04                             179    0.1810 0.43 346 
 LG3  SZ  AML     1238 10.43        10.3 0.22                          0.43 346 
 LA4  SZ E        1238  8.92                  148.4  6.7    -16        24.2 346 
 LA4  SN IP       1238  8.95                             128    0.1110 24.2 346 
 LA4  SE IS       1238 11.17                             128   -1.5510 24.2 346 
 LA4  SZ  AML     1238 11.77         3.2 0.22                          24.2 346 
                                                                                
