 2009  410 1831  1.4 L  21.727 -99.393 10.0  RAL  1 0.0 1.0LRAL                1
 GAP=360        0.30       3.7     1.5  0.0 -0.4491E+01  0.8034E+00 -0.2282E+01E
 ACTION:UPD 12-06-08 11:37 OP:RALL STATUS:               ID:20090410183101     I
 2009-04-10-1830-52S.PLUR1_003                                                 6
 STAT SP IPHASW D HRMM SECON CODA AMPLIT PERI AZIMU VELO AIN AR TRES W  DIS CAZ7
 LA4  SZ E        1831  6.20                  342.1 11.9      0        28.3 162 
 LA4  SN IP       1831  6.39                             105    0.0210 28.3 162 
 LA4  SE IS       1831 10.01                             105   -0.0210 28.3 162 
 LA4  SZ  AML     1831 12.99        18.5 0.50                          28.3 162 
                                                                                
