 2009  410 1157 16.4 L  21.347 -99.275 10.0  RAL  1 0.2 1.1LRAL                1
 GAP=360        1.56     999.9   999.9  0.0  0.8913E+07  0.2487E+03 -0.1051E+04E
 ACTION:UPD 12-06-08 11:37 OP:RALL STATUS:               ID:20090410115716     I
 2009-04-10-1157-09S.PLUR1_003                                                 6
 STAT SP IPHASW D HRMM SECON CODA AMPLIT PERI AZIMU VELO AIN AR TRES W  DIS CAZ7
 LZ4  SN IP       1157 18.52                             170    0.3110 1.91 163 
 LZ4  SZ E        1157 18.54                  336.2  6.6     -6        1.91 163 
 LZ4  SE IS       1157 19.25                             170   -0.3110 1.91 163 
 LZ4  SZ  AML     1157 20.02        71.5 0.20                          1.91 163 
                                                                                
