 2009  410 1049 14.8 L  21.276 -99.263 10.0  RAL  2 0.6 1.2LRAL                1
 GAP=257        5.89      31.5    14.3 50.0 -0.1927E+03  0.2487E+03 -0.1051E+04E
 ACTION:UPD 12-06-08 11:37 OP:RALL STATUS:               ID:20090410104914     I
 2009-04-10-1049-03S.PLUR1_006                                                 6
 STAT SP IPHASW D HRMM SECON CODA AMPLIT PERI AZIMU VELO AIN AR TRES W  DIS CAZ7
 LG3  SN IP       1049 17.79                             176    1.1410 1.09  91 
 LG3  SZ E        1049 17.80                  256.0 11.5    -14        1.09  91 
 LG3  SE IS       1049 19.40                             176    1.3910 1.09  91 
 LG3  SZ  AML     1049 19.80       112.1 0.22                          1.09  91 
 LA4  SZ E        1049 18.27                  147.6  8.0    -20        23.5 348 
 LA4  SN IP       1049 18.28                             111   -0.8010 23.5 348 
 LA4  SE IS       1049 20.48                             111   -1.7210 23.5 348 
 LA4  SZ  AML     1049 22.42        27.9 0.56                          23.5 348 
                                                                                
