 2009  410 2126 22.9 L  21.964 -99.277 10.0  RAL  1 0.0 1.3LRAL                1
 GAP=360        0.30       3.7     1.5  0.0  0.8111E+00  0.8034E+00 -0.2282E+01E
 ACTION:UPD 12-06-08 11:37 OP:RALL STATUS:               ID:20090410212622     I
 2009-04-10-2126-20S.PLUR1_003                                                 6
 STAT SP IPHASW D HRMM SECON CODA AMPLIT PERI AZIMU VELO AIN AR TRES W  DIS CAZ7
 LA4  SZ E        2126 31.50                    3.6  8.4      0        53.3 184 
 LA4  SN IP       2126 31.67                              97    0.0110 53.3 184 
 LA4  SE IS       2126 38.09                              97   -0.0110 53.3 184 
 LA4  SZ  AML     2126 42.04        20.3 0.42                          53.3 184 
                                                                                
