 2009  410 2044 48.1 L  22.019 -99.259 10.0  RAL  1 0.0 1.5LRAL                1
 GAP=360        0.30       3.7     2.1  0.0  0.1492E+00  0.8034E+00 -0.2282E+01E
 ACTION:UPD 12-06-08 11:37 OP:RALL STATUS:               ID:20090410204448     I
 2009-04-10-2044-53S.PLUR1_003                                                 6
 STAT SP IPHASW D HRMM SECON CODA AMPLIT PERI AZIMU VELO AIN AR TRES W  DIS CAZ7
 LZ4  SN IP       2045  0.46                              94    0.0110 76.2 181 
 LZ4  SZ E        2045  0.53                    0.8 13.6      0        76.2 181 
 LZ4  SE IS       2045  9.46                              94   -0.0110 76.2 181 
 LZ4  SZ  AML     2045 13.91        24.8 0.52                          76.2 181 
                                                                                
