 2009  411 0741 30.3 L  21.259 -99.224 10.0  RAL  1 0.0 0.8LRAL                1
 GAP=360        0.30       4.7     3.0  0.0 -0.1395E+02  0.1734E+01 -0.7995E+00E
 ACTION:UPD 12-06-08 11:37 OP:RALL STATUS:               ID:20090411074130     I
 2009-04-11-0741-23S.PLUR1_003                                                 6
 STAT SP IPHASW D HRMM SECON CODA AMPLIT PERI AZIMU VELO AIN AR TRES W  DIS CAZ7
 LZ4  SZ E         741 32.69                  149.0 17.1      0        9.25 329 
 LZ4  SN IP        741 32.70                             137    0.0210 9.25 329 
 LZ4  SZ  AML      741 34.17        26.9 0.82                          9.25 329 
 LZ4  SE IS        741 34.41                             137   -0.0210 9.25 329 
                                                                                
