 2009  411 0603 25.4 L  21.347 -99.292 10.0  RAL  1 0.2 1.9LRAL                1
 GAP=360        0.73      20.1    28.8  0.0 -0.5794E+03  0.8034E+00 -0.2282E+01E
 ACTION:UPD 12-06-08 11:37 OP:RALL STATUS:               ID:20090411060325     I
 2009-04-11-0603-18S.PLUR1_003                                                 6
 STAT SP IPHASW D HRMM SECON CODA AMPLIT PERI AZIMU VELO AIN AR TRES W  DIS CAZ7
 LZ4  SZ E         6 3 27.78                  306.9 13.4      0        2.91 127 
 LZ4  SN IP        6 3 27.79                             164    0.4510 2.91 127 
 LZ4  SE IS        6 3 28.27                             164   -0.4510 2.91 127 
 LZ4  SZ  AML      6 3 28.41       405.6 0.20                          2.91 127 
                                                                                
