 2009  411 0922 56.1 R  20.258 -98.631 10.0  RAL  2 0.9 3.2LRAL                1
 GAP=358       16.49     999.9   999.9999.9 -0.2071E+08  0.2988E+08 -0.5115E+08E
 ACTION:UPD 12-06-08 11:37 OP:RALL STATUS:               ID:20090411092256     I
 2009-04-11-0923-04S.PLUR1_009                                                 6
 STAT SP IPHASW D HRMM SECON CODA AMPLIT PERI AZIMU VELO AIN AR TRES W  DIS CAZ7
 LG3  SZ E         923 16.58                   98.2  7.9    -51         130 330 
 LG3  SN IP        923 17.39                              52    0.7110  130 330 
 LG3  SE IS        923 32.08                              52    0.3610  130 330 
 LG3  SZ  AML      923 39.28       556.6 0.46                           130 330 
 LA4  SZ E         923 18.61                  214.1 11.5     62         153 333 
 LA4  SN IP        923 18.69                              52   -0.7810  153 333 
 LA4  SE IS        923 36.27                              52   -0.2910  153 333 
 LA4  SZ  AML      923 37.16       845.6 0.44                           153 333 
                                                                                
