 2009  411 0840 17.5 R  20.128 -99.946 10.0  RAL  1 0.0 3.5LRAL                1
 GAP=360        0.30       4.5     4.3  0.0  0.3099E+01  0.1734E+01 -0.7995E+00E
 ACTION:UPD 12-06-08 11:37 OP:RALL STATUS:               ID:20090411084017     I
 2009-04-11-0840-30S.PLUR1_003                                                 6
 STAT SP IPHASW D HRMM SECON CODA AMPLIT PERI AZIMU VELO AIN AR TRES W  DIS CAZ7
 LZ4  SN IP        840 40.62                              52    0.0110  151  28 
 LZ4  SZ E         840 41.06                  208.0 16.9      0         151  28 
 LZ4  SE IS        840 57.48                              52   -0.0110  151  28 
 LZ4  SZ  AML      841  0.16      1051.5 0.58                           151  28 
                                                                                
