 2009  411 0318 12.8 L  21.710 -99.318 10.0  RAL  1 0.0 1.1LRAL                1
 GAP=360        0.30       3.9     0.7  0.0 -0.5811E+00  0.8034E+00 -0.2282E+01E
 ACTION:UPD 12-06-08 11:37 OP:RALL STATUS:               ID:20090411031812     I
 2009-04-11-0318-05S.PLUR1_003                                                 6
 STAT SP IPHASW D HRMM SECON CODA AMPLIT PERI AZIMU VELO AIN AR TRES W  DIS CAZ7
 LA4  SN IP        318 17.37                             108    0.0110 25.1 178 
 LA4  SZ E         318 17.41                  357.9 10.5      0        25.1 178 
 LA4  SE IS        318 20.65                             108   -0.0110 25.1 178 
 LA4  SZ  AML      318 21.96        29.5 0.32                          25.1 178 
                                                                                
