 2009  411 0333 37.2 L  21.323 -99.271 10.0  RAL  1 0.2 0.2LRAL                1
 GAP=360        1.89     666.8   999.9  0.0 -0.1395E+07  0.8034E+00 -0.2282E+01E
 ACTION:UPD 12-06-08 11:37 OP:RALL STATUS:               ID:20090411033337     I
 2009-04-11-0333-30S.PLUR1_003                                                 6
 STAT SP IPHASW D HRMM SECON CODA AMPLIT PERI AZIMU VELO AIN AR TRES W  DIS CAZ7
 LZ4  SZ E         333 39.42                  199.9 23.6      8        0.94  12 
 LZ4  SN IP        333 39.46                             175    0.4710 0.94  12 
 LZ4  SE IS        333 39.87                             175   -0.4710 0.94  12 
 LZ4  SZ  AML      333 40.22         9.3 0.34                          0.94  12 
                                                                                
