 2009  411 0824  1.5 L  21.271 -99.233 10.0  RAL  1 0.1 0.8LRAL                1
 GAP=360        0.41       7.1    26.9  0.0 -0.1899E+03  0.1734E+01 -0.7995E+00E
 ACTION:UPD 12-06-08 11:37 OP:RALL STATUS:               ID:20090411082401     I
 2009-04-11-0823-53S.PLUR1_003                                                 6
 STAT SP IPHASW D HRMM SECON CODA AMPLIT PERI AZIMU VELO AIN AR TRES W  DIS CAZ7
 LG3  SZ E         824  3.52                  105.7 16.3      0        2.06 286 
 LG3  SN IP        824  3.55                             169    0.1910 2.06 286 
 LG3  SE IS        824  4.55                             169   -0.1910 2.06 286 
 LG3  SZ  AML      824  4.87        39.1 0.24                          2.06 286 
                                                                                
