 2009  411 0645 48.9 L  21.274 -99.265 11.9  RAL  2 0.3 0.8LRAL                1
 GAP=267        3.01       1.9     6.5 20.8  0.9930E+01  0.1734E+01 -0.7995E+00E
 ACTION:UPD 12-06-08 11:37 OP:RALL STATUS:               ID:20090411064548     I
 2009-04-11-0645-41S.PLUR1_006                                                 6
 STAT SP IPHASW D HRMM SECON CODA AMPLIT PERI AZIMU VELO AIN AR TRES W  DIS CAZ7
 LG3  SZ E         645 51.69                  265.2 16.7      3        1.28  82 
 LG3  SN IP        645 51.77                             178    0.6610 1.28  82 
 LG3  SE IS        645 53.15                             178    0.4610 1.28  82 
 LG3  SZ  AML      645 55.27        32.1 0.48                          1.28  82 
 LA4  SN IP        645 53.09                             117   -0.2810 23.6 349 
 LA4  SZ E         645 53.11                  155.7  8.4    -12        23.6 349 
 LA4  SE IS        645 55.75                             117   -0.8410 23.6 349 
 LA4  SZ  AML      645 57.77        14.1 0.82                          23.6 349 
                                                                                
