 2009  411 0810 36.1 L  21.256 -99.247 10.0  RAL  1 0.1 0.4LRAL                1
 GAP=360        0.37      20.9     5.9  0.0 -0.1224E+03  0.1734E+01 -0.7995E+00E
 ACTION:UPD 12-06-08 11:37 OP:RALL STATUS:               ID:20090411081036     I
 2009-04-11-0810-29S.PLUR1_003                                                 6
 STAT SP IPHASW D HRMM SECON CODA AMPLIT PERI AZIMU VELO AIN AR TRES W  DIS CAZ7
 LG3  SN IP        810 38.17                             168    0.1510 2.28 345 
 LG3  SZ E         810 38.23                  165.3  7.4      0        2.28 345 
 LG3  SE IS        810 39.25                             168   -0.1510 2.28 345 
 LG3  SZ  AML      810 39.38        13.2 0.26                          2.28 345 
                                                                                
