 2009  411 1228 36.8 L  21.602 -99.306 10.0  RAL  1 0.0 0.0LRAL                1
 GAP=360        0.30       4.6     0.4  0.0  0.5853E+00  0.2988E+08 -0.5115E+08E
 ACTION:UPD 12-06-08 11:37 OP:RALL STATUS:               ID:20090411122836     I
 2009-04-11-1228-27S.PLUR1_003                                                 6
 STAT SP IPHASW D HRMM SECON CODA AMPLIT PERI AZIMU VELO AIN AR TRES W  DIS CAZ7
 LA4  SZ E        1228 39.62                    1.5  9.0      0        13.1 182 
 LA4  SN IP       1228 39.68                             126    0.0010 13.1 182 
 LA4  SE IS       1228 41.76                             126    0.0010 13.1 182 
 LA4  SZ  AML     1228 42.04         3.3 0.30                          13.1 182 
                                                                                
