 2009  411 2143 45.9 L  21.282 -99.227 10.0  RAL  1 0.0 0.5LRAL                1
 GAP=360        0.30       5.1     4.5  0.0 -0.2298E+02  0.2988E+08 -0.5115E+08E
 ACTION:UPD 12-06-08 11:37 OP:RALL STATUS:               ID:20090411214345     I
 2009-04-11-2143-40S.PLUR1_003                                                 6
 STAT SP IPHASW D HRMM SECON CODA AMPLIT PERI AZIMU VELO AIN AR TRES W  DIS CAZ7
 LZ4  SZ E        2143 48.11                  140.9 14.4      0        6.94 321 
 LZ4  SN IP       2143 48.14                             146    0.0310 6.94 321 
 LZ4  SE IS       2143 49.65                             146   -0.0310 6.94 321 
 LZ4  SZ  AML     2143 49.75        13.5 0.34                          6.94 321 
                                                                                
