 2009  412 0610 36.3 L  21.351 -99.287 10.0  RAL  1 0.2 0.2LRAL                1
 GAP=360        0.66      23.5    20.2  0.0 -0.4754E+03  0.2988E+08 -0.5115E+08E
 ACTION:UPD 12-06-08 11:37 OP:RALL STATUS:               ID:20090412061036     I
 2009-04-12-0610-29S.PLUR1_003                                                 6
 STAT SP IPHASW D HRMM SECON CODA AMPLIT PERI AZIMU VELO AIN AR TRES W  DIS CAZ7
 LZ4  SZ E         610 38.60                  321.3 89.3      0        2.91 141 
 LZ4  SN IP        610 38.61                             164    0.4010 2.91 141 
 LZ4  SZ  AML      610 39.10         8.2 0.34                          2.91 141 
 LZ4  SE IS        610 39.20                             164   -0.4010 2.91 141 
                                                                                
