 2009  412 1732 20.4 L  21.342 -99.272 10.0  RAL  1 0.1 0.4LRAL                1
 GAP=360        0.55     530.9   999.9  0.0  0.1398E+07  0.2988E+08 -0.5115E+08E
 ACTION:UPD 12-06-08 11:37 OP:RALL STATUS:               ID:20090412173220     I
 2009-04-12-1732-13S.PLUR1_003                                                 6
 STAT SP IPHASW D HRMM SECON CODA AMPLIT PERI AZIMU VELO AIN AR TRES W  DIS CAZ7
 LZ4  SZ E        1732 22.42                  346.7 22.2      0        1.27 166 
 LZ4  SN IP       1732 22.52                             173    0.3110 1.27 166 
 LZ4  SE IS       1732 23.24                             173   -0.3110 1.27 166 
 LZ4  SZ  AML     1732 23.93        13.8 0.28                          1.27 166 
                                                                                
