 2009  412 1315 15.3 L  21.501 -99.329 10.0  RAL  1 0.2 0.5LRAL                1
 GAP=360        0.76      24.7    27.7  0.0 -0.6840E+03  0.2988E+08 -0.5115E+08E
 ACTION:UPD 12-06-08 11:37 OP:RALL STATUS:               ID:20090412131515     I
 2009-04-12-1315-03S.PLUR1_003                                                 6
 STAT SP IPHASW D HRMM SECON CODA AMPLIT PERI AZIMU VELO AIN AR TRES W  DIS CAZ7
 LA4  SZ E        1315 17.70                  313.7 13.4      0        2.84 134 
 LA4  SN IP       1315 17.71                             165    0.4710 2.84 134 
 LA4  SE IS       1315 18.16                             165   -0.4710 2.84 134 
 LA4  SZ  AML     1315 18.20        18.2 0.10                          2.84 134 
                                                                                
