 2009  412 2101 54.9 L  21.578 -99.355 10.0  RAL  1 0.0 0.1LRAL                1
 GAP=360        0.30       4.4     2.2  0.0 -0.9567E+01  0.2988E+08 -0.5115E+08E
 ACTION:UPD 12-06-08 11:37 OP:RALL STATUS:               ID:20090412210154     I
 2009-04-12-2101-45S.PLUR1_003                                                 6
 STAT SP IPHASW D HRMM SECON CODA AMPLIT PERI AZIMU VELO AIN AR TRES W  DIS CAZ7
 LA4  SN IP       21 1 57.57                             130    0.0210 11.4 156 
 LA4  SZ E        21 1 57.59                  335.6 11.1      0        11.4 156 
 LA4  SE IS       21 1 59.47                             130   -0.0210 11.4 156 
 LA4  SZ  AML     21 1 59.63         4.6 0.10                          11.4 156 
                                                                                
