 2009  412 2313 34.5 L  21.282 -99.200 10.0  RAL  1 0.0 1.0LRAL                1
 GAP=360        0.30       1.1     8.4  0.0  0.8842E+01  0.2988E+08 -0.5115E+08E
 ACTION:UPD 12-06-08 11:37 OP:RALL STATUS:               ID:20090412231334     I
 2009-04-12-2313-28S.PLUR1_003                                                 6
 STAT SP IPHASW D HRMM SECON CODA AMPLIT PERI AZIMU VELO AIN AR TRES W  DIS CAZ7
 LG3  SN IP       2313 36.58                             152    0.0210 5.48 262 
 LG3  SZ E        2313 36.65                   82.3 12.1      0        5.48 262 
 LG3  SE IS       2313 38.05                             152   -0.0210 5.48 262 
 LG3  SZ  AML     2313 38.22        47.4 0.10                          5.48 262 
                                                                                
