 2009  412 2227 41.5 L  21.222 -99.195 10.0  RAL  1 0.0 0.8LRAL                1
 GAP=360        0.30       3.7     2.6  0.0 -0.9452E+01  0.2988E+08 -0.5115E+08E
 ACTION:UPD 12-06-08 11:37 OP:RALL STATUS:               ID:20090412222741     I
 2009-04-12-2227-37S.PLUR1_003                                                 6
 STAT SP IPHASW D HRMM SECON CODA AMPLIT PERI AZIMU VELO AIN AR TRES W  DIS CAZ7
 LZ4  SZ E        2227 44.44                  147.4 17.2      0        14.3 327 
 LZ4  SN IP       2227 44.55                             123    0.0110 14.3 327 
 LZ4  SE IS       2227 46.71                             123   -0.0110 14.3 327 
 LZ4  SZ  AML     2227 47.83        19.8 0.14                          14.3 327 
                                                                                
