 2009  413 0811 17.8 L  21.232 -99.313 10.0  RAL  1 0.0 0.3LRAL                1
 GAP=360        0.30       3.7     5.2  0.0  0.1898E+02  0.2988E+08 -0.5115E+08E
 ACTION:UPD 12-06-08 11:37 OP:RALL STATUS:               ID:20090413081117     I
 2009-04-13-0811-11S.PLUR1_003                                                 6
 STAT SP IPHASW D HRMM SECON CODA AMPLIT PERI AZIMU VELO AIN AR TRES W  DIS CAZ7
 LG3  SN IP        811 20.06                             142    0.0310 7.92  53 
 LG3  SZ E         811 20.08                  232.6 20.7      0        7.92  53 
 LG3  SE IS        811 21.66                             142   -0.0310 7.92  53 
 LG3  SZ  AML      811 21.82         8.9 0.10                          7.92  53 
                                                                                
