 2009  413 0724 37.5 L  21.337 -99.289 10.0  RAL  1 0.1 0.9LRAL                1
 GAP=360        0.43     786.6   299.4  0.0  0.2355E+06  0.2988E+08 -0.5115E+08E
 ACTION:UPD 12-06-08 11:37 OP:RALL STATUS:               ID:20090413072437     I
 2009-04-13-0724-30S.PLUR1_003                                                 6
 STAT SP IPHASW D HRMM SECON CODA AMPLIT PERI AZIMU VELO AIN AR TRES W  DIS CAZ7
 LZ4  SZ E         724 39.56                  288.0 24.2      0        2.12 108 
 LZ4  SN IP        724 39.57                             168    0.2110 2.12 108 
 LZ4  SE IS        724 40.51                             168   -0.2110 2.12 108 
 LZ4  SZ  AML      724 40.88        42.8 0.14                          2.12 108 
                                                                                
