 2009  413 0954 16.2 L  21.318 -99.283 10.0  RAL  1 0.2 0.6LRAL                1
 GAP=360        0.90     999.9   999.9  0.0 -0.1692E+07  0.2988E+08 -0.5115E+08E
 ACTION:UPD 12-06-08 11:37 OP:RALL STATUS:               ID:20090413095416     I
 2009-04-13-0954-09S.PLUR1_003                                                 6
 STAT SP IPHASW D HRMM SECON CODA AMPLIT PERI AZIMU VELO AIN AR TRES W  DIS CAZ7
 LZ4  SZ E         954 18.63                  225.0 29.6      0        1.94  45 
 LZ4  SN IP        954 18.67                             169    0.5710 1.94  45 
 LZ4  SE IS        954 18.88                             169   -0.5710 1.94  45 
 LZ4  SZ  AML      954 19.02        21.2 0.24                          1.94  45 
                                                                                
