 2009  413 0807 27.4 L  21.349 -99.423 10.0  RAL  1 0.0 0.6LRAL                1
 GAP=360        0.30       0.7     4.6  0.0 -0.2489E+01  0.2988E+08 -0.5115E+08E
 ACTION:UPD 12-06-08 11:37 OP:RALL STATUS:               ID:20090413080727     I
 2009-04-13-0807-23S.PLUR1_003                                                 6
 STAT SP IPHASW D HRMM SECON CODA AMPLIT PERI AZIMU VELO AIN AR TRES W  DIS CAZ7
 LZ4  SZ E         8 7 30.48                  277.4 43.4      0        16.0  97 
 LZ4  SN IP        8 7 30.66                             120    0.0210 16.0  97 
 LZ4  SE IS        8 7 32.96                             120   -0.0210 16.0  97 
 LZ4  SZ  AML      8 7 33.71        11.5 0.18                          16.0  97 
                                                                                
