 2009  413 0118 47.1 L  21.317 -99.286 10.0  RAL  1 0.2 1.7LRAL                1
 GAP=360        0.90      35.1    41.9  0.0  0.1471E+04  0.2988E+08 -0.5115E+08E
 ACTION:UPD 12-06-08 11:37 OP:RALL STATUS:               ID:20090413011847     I
 2009-04-13-0118-40S.PLUR1_003                                                 6
 STAT SP IPHASW D HRMM SECON CODA AMPLIT PERI AZIMU VELO AIN AR TRES W  DIS CAZ7
 LZ4  SZ E         118 49.53                  228.0 30.6      0        2.25  48 
 LZ4  SN IP        118 49.56                             168    0.5710 2.25  48 
 LZ4  SE IS        118 49.78                             168   -0.5710 2.25  48 
 LZ4  SZ  AML      118 49.92       282.8 0.26                          2.25  48 
                                                                                
