 2009  413 0729  5.9 L  21.307 -99.288 10.0  RAL  1 0.1 0.0LRAL                1
 GAP=360        0.47      15.9    12.4  0.0  0.1980E+03  0.2988E+08 -0.5115E+08E
 ACTION:UPD 12-06-08 11:37 OP:RALL STATUS:               ID:20090413072905     I
 2009-04-13-0729-00S.PLUR1_003                                                 6
 STAT SP IPHASW D HRMM SECON CODA AMPLIT PERI AZIMU VELO AIN AR TRES W  DIS CAZ7
 LZ4  SN IP        729  8.09                             163    0.2510 3.20  36 
 LZ4  SZ E         729  8.09                  216.0 10.4      0        3.20  36 
 LZ4  SE IS        729  8.99                             163   -0.2510 3.20  36 
 LZ4  SZ  AML      729  9.38         4.9 0.12                          3.20  36 
                                                                                
