 2009  413 1511 44.5 L  21.340 -98.652 10.0  RAL  1 0.0 1.6LRAL                1
 GAP=360        0.30       2.0     3.9  0.0 -0.2511E+01  0.2988E+08 -0.5115E+08E
 ACTION:UPD 12-06-08 11:37 OP:RALL STATUS:               ID:20090413151144     I
 2009-04-13-1511-43S.PLUR1_003                                                 6
 STAT SP IPHASW D HRMM SECON CODA AMPLIT PERI AZIMU VELO AIN AR TRES W  DIS CAZ7
 LA4  SZ E        1511 55.76                  103.0  9.9      0        70.0 283 
 LA4  SN IP       1511 55.92                              95    0.0110 70.0 283 
 LA4  SE IS       1512  4.22                              95   -0.0110 70.0 283 
 LA4  SZ  AML     1512  8.55        30.7 0.30                          70.0 283 
                                                                                
