 2009  413 2351  8.4 L  21.487 -99.314 10.0  RAL  1 0.4 0.9LRAL                1
 GAP=360        4.59     999.9   999.9  0.0  0.3080E+07  0.2988E+08 -0.5115E+08E
 ACTION:UPD 12-06-08 11:37 OP:RALL STATUS:               ID:20090413235108     I
 2009-04-13-2350-56S.PLUR1_003                                                 6
 STAT SP IPHASW D HRMM SECON CODA AMPLIT PERI AZIMU VELO AIN AR TRES W  DIS CAZ7
 LA4  SZ E        2351 10.72                  289.5 24.8    -21        0.63 131 
 LA4  SN IP       2351 10.75                             177    0.4610 0.63 131 
 LA4  SE IS       2351 11.18                             177   -0.4610 0.63 131 
 LA4  SZ  AML     2351 11.21        44.2 0.10                          0.63 131 
                                                                                
