 2009  414 0236 16.9 L  21.485 -99.318 10.0  RAL  1 0.2 0.2LRAL                1
 GAP=360        1.25      22.6   182.6  0.0 -0.4130E+04  0.2988E+08 -0.5115E+08E
 ACTION:UPD 12-06-08 11:37 OP:RALL STATUS:               ID:20090414023616     I
 2009-04-14-0236-05S.PLUR1_003                                                 6
 STAT SP IPHASW D HRMM SECON CODA AMPLIT PERI AZIMU VELO AIN AR TRES W  DIS CAZ7
 LA4  SZ E         236 19.17                  282.3 27.7      5        0.95  98 
 LA4  SN IP        236 19.20                             175    0.4710 0.95  98 
 LA4  SE IS        236 19.61                             175   -0.4710 0.95  98 
 LA4  SZ  AML      236 19.71         8.9 0.22                          0.95  98 
                                                                                
