 2009  414 0608 56.0 L  21.512 -99.322 10.0  RAL  1 0.0 0.9LRAL                1
 GAP=360        0.30       3.9     1.3  0.0 -0.4327E+01  0.2988E+08 -0.5115E+08E
 ACTION:UPD 12-06-08 11:37 OP:RALL STATUS:               ID:20090414060856     I
 2009-04-14-0608-51S.PLUR1_003                                                 6
 STAT SP IPHASW D HRMM SECON CODA AMPLIT PERI AZIMU VELO AIN AR TRES W  DIS CAZ7
 LZ4  SN IP        6 8 59.89                             112    0.0210 20.8 165 
 LZ4  SZ E         6 8 59.97                  344.8  7.4      0        20.8 165 
 LZ4  SE IS        6 9  2.68                             112   -0.0210 20.8 165 
 LZ4  SZ  AML      6 9  3.52        18.5 0.16                          20.8 165 
                                                                                
