 2009  414 0847  0.9 L  21.281 -99.238 10.0  RAL  1 0.3 0.9LRAL                1
 GAP=360        3.59     106.7   304.5  0.0  0.3248E+05  0.2988E+08 -0.5115E+08E
 ACTION:UPD 12-06-08 11:37 OP:RALL STATUS:               ID:20090414084700     I
 2009-04-14-0846-54S.PLUR1_003                                                 6
 STAT SP IPHASW D HRMM SECON CODA AMPLIT PERI AZIMU VELO AIN AR TRES W  DIS CAZ7
 LG3  SN IP        847  3.08                             172    0.3410 1.56 249 
 LG3  SZ E         847  3.11                   86.3 14.1     17        1.56 249 
 LG3  SE IS        847  3.77                             172   -0.3410 1.56 249 
 LG3  SZ  AML      847  3.91        45.6 0.28                          1.56 249 
                                                                                
