 2009  414 0758 14.2 L  21.327 -99.204 10.0  RAL  1 0.0-0.1LRAL                1
 GAP=360        0.30       0.5     7.1  0.0 -0.3188E+01  0.2988E+08 -0.5115E+08E
 ACTION:UPD 12-06-08 11:37 OP:RALL STATUS:               ID:20090414075814     I
 2009-04-14-0758-08S.PLUR1_003                                                 6
 STAT SP IPHASW D HRMM SECON CODA AMPLIT PERI AZIMU VELO AIN AR TRES W  DIS CAZ7
 LZ4  SZ E         758 16.31                   93.9 16.7      0        6.84 274 
 LZ4  SN IP        758 16.31                             146    0.0110 6.84 274 
 LZ4  SE IS        758 17.87                             146   -0.0110 6.84 274 
 LZ4  SZ  AML      758 18.72         4.1 0.10                          6.84 274 
                                                                                
