 2009  414 0603 54.9 L  21.498 -99.321 10.0  RAL  1 0.2-0.2LRAL                1
 GAP=360        0.77      40.1    32.7  0.0 -0.1309E+04  0.2988E+08 -0.5115E+08E
 ACTION:UPD 12-06-08 11:37 OP:RALL STATUS:               ID:20090414060354     I
 2009-04-14-0603-43S.PLUR1_003                                                 6
 STAT SP IPHASW D HRMM SECON CODA AMPLIT PERI AZIMU VELO AIN AR TRES W  DIS CAZ7
 LA4  SN IP        6 3 57.26                             169    0.4810 2.02 143 
 LA4  SZ E         6 3 57.26                  322.8 13.2      0        2.02 143 
 LA4  SE IS        6 3 57.67                             169   -0.4810 2.02 143 
 LA4  SZ  AML      6 3 57.79         3.6 0.22                          2.02 143 
                                                                                
