 2009  414 1516 10.4 L  21.413 -99.469 10.0  RAL  1 0.0 1.2LRAL                1
 GAP=360        0.30       1.8     4.0  0.0  0.6949E+01  0.2988E+08 -0.5115E+08E
 ACTION:UPD 12-06-08 11:37 OP:RALL STATUS:               ID:20090414151610     I
 2009-04-14-1515-59S.PLUR1_003                                                 6
 STAT SP IPHASW D HRMM SECON CODA AMPLIT PERI AZIMU VELO AIN AR TRES W  DIS CAZ7
 LA4  SZ E        1516 13.68                  244.6 49.7      0        18.3  65 
 LA4  SN IP       1516 13.93                             116    0.0010 18.3  65 
 LA4  SE IS       1516 16.51                             116    0.0010 18.3  65 
 LA4  SZ  AML     1516 18.93        46.8 0.78                          18.3  65 
                                                                                
