 2009  414 1613 50.4 L  21.805 -99.396 10.0  RAL  1 0.0 0.6LRAL                1
 GAP=360        0.30       3.7     1.4  0.0 -0.3415E+01 -0.7358E+01  0.4844E+01E
 ACTION:UPD 12-06-08 11:37 OP:RALL STATUS:               ID:20090414161350     I
 2009-04-14-1613-47S.PLUR1_003                                                 6
 STAT SP IPHASW D HRMM SECON CODA AMPLIT PERI AZIMU VELO AIN AR TRES W  DIS CAZ7
 LA4  SZ E        1613 56.72                  345.8  8.9      0        36.7 166 
 LA4  SN IP       1613 56.72                             101    0.0110 36.7 166 
 LA4  SE IS       1614  1.27                             101   -0.0110 36.7 166 
 LA4  SZ  AML     1614  6.43         6.6 0.66                          36.7 166 
                                                                                
