 2009  414 1459 54.5 L  21.339 -99.492 10.0  RAL  1 0.0 0.4LRAL                1
 GAP=360        0.30       2.6     3.2  0.0  0.7775E+01  0.2988E+08 -0.5115E+08E
 ACTION:UPD 12-06-08 11:37 OP:RALL STATUS:               ID:20090414145954     I
 2009-04-14-1459-48S.PLUR1_003                                                 6
 STAT SP IPHASW D HRMM SECON CODA AMPLIT PERI AZIMU VELO AIN AR TRES W  DIS CAZ7
 LA4  SZ E        1459 58.98                  229.9 17.1      0        24.9  50 
 LA4  SZ IP       1459 59.01                             108    0.0010 24.9  50 
 LA4  SN IP       1459 59.01                             108           24.9  50 
 LA4  SE IS       15 0  2.28                             108    0.0010 24.9  50 
 LA4  SZ  AML     15 0  2.58         5.4 0.42                          24.9  50 
                                                                                
