 2009  414 1837 21.6 L  21.286 -99.266 10.0  RAL  1 0.0 0.3LRAL                1
 GAP=360        0.30       8.5     0.7  0.0 -0.5528E+01 -0.7358E+01  0.4844E+01E
 ACTION:UPD 12-06-08 11:37 OP:RALL STATUS:               ID:20090414183721     I
 2009-04-14-1837-15S.PLUR1_003                                                 6
 STAT SP IPHASW D HRMM SECON CODA AMPLIT PERI AZIMU VELO AIN AR TRES W  DIS CAZ7
 LZ4  SN IP       1837 23.66                             154    0.0110 4.94 356 
 LZ4  SZ E        1837 23.69                  175.9 16.0      0        4.94 356 
 LZ4  SE IS       1837 25.10                             154   -0.0110 4.94 356 
 LZ4  SZ  AML     1837 25.32        11.3 0.16                          4.94 356 
                                                                                
