 2009  414 1309 48.0 L  21.570 -99.364 10.0  RAL  1 0.0 0.0LRAL                1
 GAP=360        0.30       4.3     2.8  0.0 -0.1165E+02  0.2988E+08 -0.5115E+08E
 ACTION:UPD 12-06-08 11:37 OP:RALL STATUS:               ID:20090414130948     I
 2009-04-14-1309-38S.PLUR1_003                                                 6
 STAT SP IPHASW D HRMM SECON CODA AMPLIT PERI AZIMU VELO AIN AR TRES W  DIS CAZ7
 LA4  SZ E        13 9 50.60                  329.2  9.8      0        11.1 149 
 LA4  SN IP       13 9 50.66                             132    0.0210 11.1 149 
 LA4  SE IS       13 9 52.51                             132   -0.0210 11.1 149 
 LA4  SZ  AML     13 9 54.76         4.1 0.40                          11.1 149 
                                                                                
