 2009  414 1532 14.3 L  21.194 -99.151  3.0  RAL  2 0.1 1.7LRAL                1
 GAP=338        1.27       5.5     6.3  7.5 -0.3206E+02 -0.7358E+01  0.4844E+01E
 ACTION:UPD 12-06-08 11:37 OP:RALL STATUS:               ID:20090414153214     I
 2009-04-14-1532-07S.PLUR1_009                                                 6
 STAT SP IPHASW D HRMM SECON CODA AMPLIT PERI AZIMU VELO AIN AR TRES W  DIS CAZ7
 LG3  SZ E        1532 17.19                  132.0 14.4      2        13.9 310 
 LG3  SN IP       1532 17.21                             103    0.3910 13.9 310 
 LG3  SE IS       1532 18.24                             103   -0.4310 13.9 310 
 LG3  SZ  AML     1532 18.40       632.0 0.26                          13.9 310 
 LA4  SZ E        1532 20.61                  147.8  8.0     -4        36.0 333 
 LA4  SN IP       1532 20.62                              63    0.1010 36.0 333 
 LA4  SE IS       1532 25.03                              63   -0.0510 36.0 333 
 LA4  SZ  AML     1532 25.85        27.0 0.42                          36.0 333 
                                                                                
