 2009  414 1426 48.2 L  21.577 -99.410 10.0  RAL  1 0.0 1.2LRAL                1
 GAP=360        0.30       3.4     2.1  0.0 -0.6225E+01  0.2988E+08 -0.5115E+08E
 ACTION:UPD 12-06-08 11:37 OP:RALL STATUS:               ID:20090414142648     I
 2009-04-14-1426-45S.PLUR1_003                                                 6
 STAT SP IPHASW D HRMM SECON CODA AMPLIT PERI AZIMU VELO AIN AR TRES W  DIS CAZ7
 LZ4  SN IP       1426 53.56                             104    0.0210 30.9 152 
 LZ4  SZ E        1426 53.65                  332.0 11.8      0        30.9 152 
 LZ4  SE IS       1426 57.45                             104   -0.0210 30.9 152 
 LZ4  SZ  AML     1427  0.91        31.7 0.56                          30.9 152 
                                                                                
