 2009  414 1442 52.8 L  21.251 -99.247 10.0  RAL  1 0.0 1.9LRAL                1
 GAP=360        0.30       5.3     1.5  0.0 -0.7966E+01  0.2988E+08 -0.5115E+08E
 ACTION:UPD 12-06-08 11:37 OP:RALL STATUS:               ID:20090414144252     I
 2009-04-14-1442-45S.PLUR1_003                                                 6
 STAT SP IPHASW D HRMM SECON CODA AMPLIT PERI AZIMU VELO AIN AR TRES W  DIS CAZ7
 LZ4  SZ E        1442 55.13                  165.0 13.9      0        9.16 345 
 LZ4  SN IP       1442 55.15                             137    0.0110 9.16 345 
 LZ4  SE IS       1442 56.86                             137   -0.0110 9.16 345 
 LZ4  SZ  AML     1442 57.83       368.9 0.24                          9.16 345 
                                                                                
