 2009  414 1410 34.3 L  21.520 -99.463 10.0  RAL  1 0.0 0.8LRAL                1
 GAP=360        0.30       2.8     2.9  0.0 -0.7533E+01  0.2988E+08 -0.5115E+08E
 ACTION:UPD 12-06-08 11:37 OP:RALL STATUS:               ID:20090414141034     I
 2009-04-14-1410-34S.PLUR1_003                                                 6
 STAT SP IPHASW D HRMM SECON CODA AMPLIT PERI AZIMU VELO AIN AR TRES W  DIS CAZ7
 LZ4  SN IP       1410 39.45                             105    0.0010 29.0 136 
 LZ4  SZ E        1410 39.52                  316.3 10.9      0        29.0 136 
 LZ4  SE IS       1410 43.17                             105    0.0010 29.0 136 
 LZ4  SZ  AML     1410 45.80        13.3 0.62                          29.0 136 
                                                                                
