 2009  415 0825 15.5 L  21.514 -99.229 10.0  RAL  1 0.0 0.9LRAL                1
 GAP=360        0.30       3.9     1.0  0.0  0.3418E+01 -0.7358E+01  0.4844E+01E
 ACTION:UPD 12-06-08 11:37 OP:RALL STATUS:               ID:20090415082515     I
 2009-04-15-0825-10S.PLUR1_003                                                 6
 STAT SP IPHASW D HRMM SECON CODA AMPLIT PERI AZIMU VELO AIN AR TRES W  DIS CAZ7
 LZ4  SZ E         825 19.41                   11.8 10.1      0        20.7 192 
 LZ4  SN IP        825 19.42                             112    0.0210 20.7 192 
 LZ4  SE IS        825 22.21                             112   -0.0210 20.7 192 
 LZ4  SZ  AML      825 22.74        22.5 0.30                          20.7 192 
                                                                                
