 2009  415 1117 20.1 L  21.284 -99.217 10.0  RAL  1 0.0 0.5LRAL                1
 GAP=360        0.30       4.3     4.9  0.0 -0.2076E+02 -0.7358E+01  0.4844E+01E
 ACTION:UPD 12-06-08 11:37 OP:RALL STATUS:               ID:20090415111720     I
 2009-04-15-1117-14S.PLUR1_003                                                 6
 STAT SP IPHASW D HRMM SECON CODA AMPLIT PERI AZIMU VELO AIN AR TRES W  DIS CAZ7
 LZ4  SN IP       1117 22.38                             143    0.0310 7.52 313 
 LZ4  SZ E        1117 22.39                  133.1 16.0      0        7.52 313 
 LZ4  SE IS       1117 23.94                             143   -0.0310 7.52 313 
 LZ4  SZ  AML     1117 24.39        14.2 0.28                          7.52 313 
                                                                                
