 2009  415 1208 30.5 L  21.264 -99.238  3.0  RAL  1 0.0 0.4LRAL                1
 GAP=360        0.28       3.9     4.8  0.0 -0.1884E+02  0.8231E-02 -0.7668E-02E
 ACTION:UPD 12-06-08 11:37 OP:RALL STATUS:               ID:20090415120830     I
 2009-04-15-1208-22S.PLUR1_003                                                 6
 STAT SP IPHASW D HRMM SECON CODA AMPLIT PERI AZIMU VELO AIN AR TRES W  DIS CAZ7
 LG3  SN IP       12 8 31.29                             154   -0.0310 2.04 311 
 LG3  SZ E        12 8 31.34                  130.7 11.3      0        2.04 311 
 LG3  SZ IP       12 8 31.34                             154    0.0210 2.04 311 
 LG3  SE IS       12 8 31.91                             154    0.0110 2.04 311 
 LG3  SZ  AML     12 8 31.99        32.7 0.20                          2.04 311 
                                                                                
