 2009  415 1329 52.6 L  21.726 -99.465 10.0  RAL  1 0.0 1.4LRAL                1
 GAP=360        0.30       3.3     2.2  0.0 -0.6629E+01  0.8231E-02 -0.7668E-02E
 ACTION:UPD 12-06-08 11:37 OP:RALL STATUS:               ID:20090415132952     I
 2009-04-15-1329-43S.PLUR1_003                                                 6
 STAT SP IPHASW D HRMM SECON CODA AMPLIT PERI AZIMU VELO AIN AR TRES W  DIS CAZ7
 LA4  SZ E        1329 58.00                  329.0 10.2      0        31.3 149 
 LA4  SN IP       1329 58.06                             104    0.0210 31.3 149 
 LA4  SE IS       1330  1.99                             104   -0.0210 31.3 149 
 LA4  SZ  AML     1330  3.17        46.3 0.56                          31.3 149 
                                                                                
