 2009  415 2251  8.1 L  21.290 -99.205 10.0  RAL  1 0.0 0.7LRAL                1
 GAP=360        0.30       3.3     5.3  0.0 -0.1733E+02  0.8231E-02 -0.7668E-02E
 ACTION:UPD 12-06-08 11:37 OP:RALL STATUS:               ID:20090415225108     I
 2009-04-15-2251-02S.PLUR1_003                                                 6
 STAT SP IPHASW D HRMM SECON CODA AMPLIT PERI AZIMU VELO AIN AR TRES W  DIS CAZ7
 LZ4  SN IP       2251 10.35                             141    0.0210 8.07 304 
 LZ4  SZ E        2251 10.36                  123.9 18.0      0        8.07 304 
 LZ4  SE IS       2251 11.97                             141   -0.0210 8.07 304 
 LZ4  SZ  AML     2251 12.00        22.3 0.10                          8.07 304 
                                                                                
