 2009  415 2227 49.8 L  21.277 -99.274 10.0  RAL  1 0.0 0.4LRAL                1
 GAP=360        0.30       7.3     0.7  0.0  0.4685E+01  0.8231E-02 -0.7668E-02E
 ACTION:UPD 12-06-08 11:37 OP:RALL STATUS:               ID:20090415222749     I
 2009-04-15-2227-44S.PLUR1_003                                                 6
 STAT SP IPHASW D HRMM SECON CODA AMPLIT PERI AZIMU VELO AIN AR TRES W  DIS CAZ7
 LZ4  SZ E        2227 51.78                  184.7 13.4      0        5.95   5 
 LZ4  SN IP       2227 51.89                             150    0.0110 5.95   5 
 LZ4  SZ  AML     2227 53.23        11.1 0.60                          5.95   5 
 LZ4  SE IS       2227 53.39                             150   -0.0110 5.95   5 
                                                                                
