 2009  415 2343 17.5 L  21.252 -99.232 10.0  RAL  1 0.1 0.7LRAL                1
 GAP=360        0.47      14.6    12.9  0.0 -0.1881E+03  0.8231E-02 -0.7668E-02E
 ACTION:UPD 12-06-08 11:37 OP:RALL STATUS:               ID:20090415234317     I
 2009-04-15-2343-11S.PLUR1_003                                                 6
 STAT SP IPHASW D HRMM SECON CODA AMPLIT PERI AZIMU VELO AIN AR TRES W  DIS CAZ7
 LG3  SN IP       2343 19.69                             162    0.2510 3.38 320 
 LG3  SZ E        2343 19.72                  140.4 16.7      0        3.38 320 
 LG3  SE IS       2343 20.61                             162   -0.2510 3.38 320 
 LG3  SZ  AML     2343 20.95        29.0 0.22                          3.38 320 
                                                                                
