 2009  416 0023 19.9 L  21.481 -99.393 28.7  RAL  3 1.8 1.9LRAL                1
 GAP=296       32.77      24.5    79.4253.5 -0.1349E+03  0.8384E+03  0.2952E+03E
 ACTION:UPD 12-06-08 11:37 OP:RALL STATUS:               ID:20090416002319     I
 2009-04-16-0023-10S.PLUR1_009                                                 6
 STAT SP IPHASW D HRMM SECON CODA AMPLIT PERI AZIMU VELO AIN AR TRES W  DIS CAZ7
 LA4  SZ E         023 24.31                  270.5 14.1      3        8.74  88 
 LA4  SN IP        023 24.41                             163   -0.3110 8.74  88 
 LA4  SE IS        023 28.15                             163   -0.1310 8.74  88 
 LA4  SZ  AML      023 32.82       214.6 0.46                          8.74  88 
 LG3  SN IP        023 25.87                             135   -0.2810 27.0 147 
 LG3  SZ E         023 25.92                  219.3 12.8    -99        27.0 147 
 LG3  SE IS        023 30.81                             135    0.0710 27.0 147 
 LG3  SZ  AML      023 33.38       332.0 0.36                          27.0 147 
 LO8  SZ E         023 27.60                  127.7  7.1    155        40.1 152 
 LO8  SN IP        023 27.63                             122   -0.0610 40.1 152 
 LO8  SE IS        023 34.13                             122    0.7210 40.1 152 
 LO8  SZ  AML      023 36.80        21.2 0.44                          40.1 152 
                                                                                
