 2009  416 0542 47.8 L  21.271 -99.264 10.0  RAL  1 0.3 0.2LRAL                1
 GAP=360        3.72     999.9   999.9  0.0 -0.7940E+08  0.8384E+03  0.2952E+03E
 ACTION:UPD 12-06-08 11:37 OP:RALL STATUS:               ID:20090416054247     I
 2009-04-16-0542-40S.PLUR1_003                                                 6
 STAT SP IPHASW D HRMM SECON CODA AMPLIT PERI AZIMU VELO AIN AR TRES W  DIS CAZ7
 LG3  SN IP        542 50.21                             173    0.5310 1.33  65 
 LG3  SZ E         542 50.21                  262.8 10.5     17        1.33  65 
 LG3  SE IS        542 50.51                             173   -0.5310 1.33  65 
 LG3  SZ  AML      542 50.73         9.9 0.10                          1.33  65 
                                                                                
