 2009  416 0112 34.9 L  21.625 -99.350 10.0  RAL  1 0.0 1.3LRAL                1
 GAP=360        0.30       3.7     1.4  0.0 -0.3525E+01  0.8384E+03  0.2952E+03E
 ACTION:UPD 12-06-08 11:37 OP:RALL STATUS:               ID:20090416011234     I
 2009-04-16-0112-32S.PLUR1_003                                                 6
 STAT SP IPHASW D HRMM SECON CODA AMPLIT PERI AZIMU VELO AIN AR TRES W  DIS CAZ7
 LZ4  SN IP        112 40.66                             102    0.0110 33.7 166 
 LZ4  SZ E         112 40.69                  345.6  8.5      0        33.7 166 
 LZ4  SE IS        112 44.87                             102   -0.0110 33.7 166 
 LZ4  SZ  AML      112 44.92        35.6 0.52                          33.7 166 
                                                                                
