 2009  416 0204 56.7 L  21.253 -99.457 10.0  RAL  1 0.0 0.7LRAL                1
 GAP=360        0.30       3.3     2.2  0.0  0.6693E+01  0.8384E+03  0.2952E+03E
 ACTION:UPD 12-06-08 11:37 OP:RALL STATUS:               ID:20090416020456     I
 2009-04-16-0204-51S.PLUR1_003                                                 6
 STAT SP IPHASW D HRMM SECON CODA AMPLIT PERI AZIMU VELO AIN AR TRES W  DIS CAZ7
 LA4  SZ E         2 5  1.91                  211.0 20.0      0        29.7  31 
 LA4  SN IP        2 5  1.93                             104    0.0210 29.7  31 
 LA4  SE IS        2 5  5.69                             104   -0.0210 29.7  31 
 LA4  SZ  AML      2 5 10.21         8.9 0.58                          29.7  31 
                                                                                
