 2009  416 1601 39.9 L  21.322 -99.247 10.0  RAL  1 0.1 0.4LRAL                1
 GAP=360        0.40     771.2   353.5  0.0  0.2726E+06  0.8384E+03  0.2952E+03E
 ACTION:UPD 12-06-08 11:37 OP:RALL STATUS:               ID:20090416160139     I
 2009-04-16-1601-33S.PLUR1_003                                                 6
 STAT SP IPHASW D HRMM SECON CODA AMPLIT PERI AZIMU VELO AIN AR TRES W  DIS CAZ7
 LZ4  SN IP       16 1 41.99                             166    0.1810 2.54 292 
 LZ4  SZ E        16 1 42.01                  111.7 36.6      0        2.54 292 
 LZ4  SE IS       16 1 43.00                             166   -0.1810 2.54 292 
 LZ4  SZ  AML     16 1 43.52        14.5 0.10                          2.54 292 
                                                                                
