 2009  416 2331  6.0 L  21.592 -99.431 10.0  RAL  1 0.0 2.6LRAL                1
 GAP=360        0.30       3.3     2.2  0.0 -0.6380E+01  0.8384E+03  0.2952E+03E
 ACTION:UPD 12-06-08 11:37 OP:RALL STATUS:               ID:20090416233106     I
 2009-04-16-2331-02S.PLUR1_003                                                 6
 STAT SP IPHASW D HRMM SECON CODA AMPLIT PERI AZIMU VELO AIN AR TRES W  DIS CAZ7
 LZ4  SN IP       2331 11.73                             102    0.0210 33.4 150 
 LZ4  SZ E        2331 11.74                  330.0 14.0      0        33.4 150 
 LZ4  SE IS       2331 15.89                             102   -0.0210 33.4 150 
 LZ4  SZ  AML     2331 16.39       767.1 0.16                          33.4 150 
                                                                                
