 2009  416 2110 23.0 L  21.318 -99.295 10.0  RAL  1 0.1 0.5LRAL                1
 GAP=360        0.41       8.5    17.0  0.0  0.1445E+03  0.8384E+03  0.2952E+03E
 ACTION:UPD 12-06-08 11:37 OP:RALL STATUS:               ID:20090416211023     I
 2009-04-16-2110-16S.PLUR1_003                                                 6
 STAT SP IPHASW D HRMM SECON CODA AMPLIT PERI AZIMU VELO AIN AR TRES W  DIS CAZ7
 LZ4  SZ E        2110 24.88                  241.7 30.8      0        3.02  62 
 LZ4  SN IP       2110 25.10                             164    0.1910 3.02  62 
 LZ4  SE IS       2110 26.11                             164   -0.1910 3.02  62 
 LZ4  SZ  AML     2110 26.24        15.8 0.22                          3.02  62 
                                                                                
