 2009  416 2129  1.8 L  21.363 -99.242 10.0  RAL  1 0.1 0.4LRAL                1
 GAP=360        0.37       8.8     7.8  0.0  0.6866E+02  0.8384E+03  0.2952E+03E
 ACTION:UPD 12-06-08 11:37 OP:RALL STATUS:               ID:20090416212901     I
 2009-04-16-2128-55S.PLUR1_003                                                 6
 STAT SP IPHASW D HRMM SECON CODA AMPLIT PERI AZIMU VELO AIN AR TRES W  DIS CAZ7
 LZ4  SZ E        2129  3.87                   39.3 11.0      0        4.56 219 
 LZ4  SN IP       2129  3.93                             156    0.1510 4.56 219 
 LZ4  SE IS       2129  5.07                             156   -0.1510 4.56 219 
 LZ4  SZ  AML     2129  7.06        12.3 0.64                          4.56 219 
                                                                                
