 2009  417 1121 37.8 L  21.263 -99.251 10.0  RAL  1 0.1 0.1LRAL                1
 GAP=360        0.96      50.2   332.4  0.0 -0.1665E+05  0.8384E+03  0.2952E+03E
 ACTION:UPD 12-06-08 11:37 OP:RALL STATUS:               ID:20090417112137     I
 2009-04-17-1121-31S.PLUR1_003                                                 6
 STAT SP IPHASW D HRMM SECON CODA AMPLIT PERI AZIMU VELO AIN AR TRES W  DIS CAZ7
 LG3  SZ E        1121 39.96                  168.6 19.4     -3        1.41 353 
 LG3  SN IP       1121 39.96                             172    0.2610 1.41 353 
 LG3  SE IS       1121 40.80                             172   -0.2610 1.41 353 
 LG3  SZ  AML     1121 41.44         7.0 0.10                          1.41 353 
                                                                                
