 2009  417 1932 37.5 L  21.541 -99.494 10.0  RAL  1 0.0 1.3LRAL                1
 GAP=360        0.30       2.8     3.0  0.0 -0.7410E+01  0.8384E+03  0.2952E+03E
 ACTION:UPD 12-06-08 11:37 OP:RALL STATUS:               ID:20090417193237     I
 2009-04-17-1932-37S.PLUR1_003                                                 6
 STAT SP IPHASW D HRMM SECON CODA AMPLIT PERI AZIMU VELO AIN AR TRES W  DIS CAZ7
 LZ4  SZ E        1932 43.18                  315.0  9.6      0        32.9 135 
 LZ4  SN IP       1932 43.20                             103    0.0210 32.9 135 
 LZ4  SE IS       1932 47.30                             103   -0.0210 32.9 135 
 LZ4  SZ  AML     1932 47.63        33.0 0.14                          32.9 135 
                                                                                
