 2009  417 1836 39.1 L  21.391 -99.271 10.0  RAL  1 0.0 0.7LRAL                1
 GAP=360        0.30       4.6     1.9  0.0 -0.8892E+01  0.8384E+03  0.2952E+03E
 ACTION:UPD 12-06-08 11:37 OP:RALL STATUS:               ID:20090417183639     I
 2009-04-17-1836-27S.PLUR1_003                                                 6
 STAT SP IPHASW D HRMM SECON CODA AMPLIT PERI AZIMU VELO AIN AR TRES W  DIS CAZ7
 LA4  SZ E        1836 41.72                  158.9  7.1      0        10.9 339 
 LA4  SN IP       1836 41.74                             132    0.0110 10.9 339 
 LA4  SE IS       1836 43.60                             132   -0.0110 10.9 339 
 LA4  SZ  AML     1836 45.68        18.1 0.28                          10.9 339 
                                                                                
