 2009  417 1740 46.0 L  21.348 -99.263 10.0  RAL  1 0.1 1.1LRAL                1
 GAP=360        0.43     509.6   999.9  0.0 -0.8957E+06  0.8384E+03  0.2952E+03E
 ACTION:UPD 12-06-08 11:37 OP:RALL STATUS:               ID:20090417174046     I
 2009-04-17-1740-38S.PLUR1_003                                                 6
 STAT SP IPHASW D HRMM SECON CODA AMPLIT PERI AZIMU VELO AIN AR TRES W  DIS CAZ7
 LZ4  SZ E        1740 48.09                   18.2 13.3      0        2.01 198 
 LZ4  SN IP       1740 48.11                             169    0.2110 2.01 198 
 LZ4  SE IS       1740 49.05                             169   -0.2110 2.01 198 
 LZ4  SZ  AML     1740 49.88        77.1 0.24                          2.01 198 
                                                                                
