 2009  417 1326 29.8 L  21.610 -99.376 10.0  RAL  1 0.0 0.3LRAL                1
 GAP=360        0.30       3.9     2.1  0.0 -0.7842E+01  0.8384E+03  0.2952E+03E
 ACTION:UPD 12-06-08 11:37 OP:RALL STATUS:               ID:20090417132629     I
 2009-04-17-1326-20S.PLUR1_003                                                 6
 STAT SP IPHASW D HRMM SECON CODA AMPLIT PERI AZIMU VELO AIN AR TRES W  DIS CAZ7
 LA4  SN IP       1326 33.01                             121    0.0110 15.6 154 
 LA4  SZ E        1326 33.06                  333.7  8.9      0        15.6 154 
 LA4  SE IS       1326 35.31                             121   -0.0110 15.6 154 
 LA4  SZ  AML     1326 35.55         5.8 0.10                          15.6 154 
                                                                                
