 2009  417 1026 23.4 L  21.316 -99.266 10.0  RAL  1 0.1 0.6LRAL                1
 GAP=360        0.39     721.6   999.9  0.0  0.2852E+07  0.8384E+03  0.2952E+03E
 ACTION:UPD 12-06-08 11:37 OP:RALL STATUS:               ID:20090417102623     I
 2009-04-17-1026-16S.PLUR1_003                                                 6
 STAT SP IPHASW D HRMM SECON CODA AMPLIT PERI AZIMU VELO AIN AR TRES W  DIS CAZ7
 LZ4  SZ E        1026 25.37                  168.4 12.9      0        1.73 348 
 LZ4  SN IP       1026 25.38                             170    0.1710 1.73 348 
 LZ4  SE IS       1026 26.40                             170   -0.1710 1.73 348 
 LZ4  SZ  AML     1026 26.91        20.0 0.10                          1.73 348 
                                                                                
