 2009  417 1153 39.3 L  21.544 -99.492 10.0  RAL  1 0.0 1.1LRAL                1
 GAP=360        0.30       2.8     2.9  0.0 -0.7404E+01  0.8384E+03  0.2952E+03E
 ACTION:UPD 12-06-08 11:37 OP:RALL STATUS:               ID:20090417115339     I
 2009-04-17-1153-39S.PLUR1_003                                                 6
 STAT SP IPHASW D HRMM SECON CODA AMPLIT PERI AZIMU VELO AIN AR TRES W  DIS CAZ7
 LZ4  SN IP       1153 44.97                             103    0.0210 33.0 136 
 LZ4  SZ E        1153 45.06                  315.6 13.2      0        33.0 136 
 LZ4  SE IS       1153 49.08                             103   -0.0210 33.0 136 
 LZ4  SZ  AML     1153 49.42        21.2 0.14                          33.0 136 
                                                                                
