 2009  417 1450  3.3 L  21.859 -99.414 10.0  RAL  1 0.0 0.5LRAL                1
 GAP=360        0.30       3.6     1.5  0.0 -0.3368E+01  0.8384E+03  0.2952E+03E
 ACTION:UPD 12-06-08 11:37 OP:RALL STATUS:               ID:20090417145003     I
 2009-04-17-1450-01S.PLUR1_003                                                 6
 STAT SP IPHASW D HRMM SECON CODA AMPLIT PERI AZIMU VELO AIN AR TRES W  DIS CAZ7
 LA4  SZ E        1450 10.56                  345.4  8.6      0        43.0 165 
 LA4  SN IP       1450 10.57                              99    0.0110 43.0 165 
 LA4  SE IS       1450 15.83                              99   -0.0110 43.0 165 
 LA4  SZ  AML     1450 17.70         4.0 0.24                          43.0 165 
                                                                                
