 2009  417 2249 49.7 L  21.279 -99.241 10.0  RAL  1 0.3 1.2LRAL                1
 GAP=360        3.30     890.7   680.3  0.0 -0.6058E+06  0.8384E+03  0.2952E+03E
 ACTION:UPD 12-06-08 11:37 OP:RALL STATUS:               ID:20090417224949     I
 2009-04-17-2249-43S.PLUR1_003                                                 6
 STAT SP IPHASW D HRMM SECON CODA AMPLIT PERI AZIMU VELO AIN AR TRES W  DIS CAZ7
 LG3  SZ E        2249 51.90                   88.0 37.1     15        1.28 253 
 LG3  SN IP       2249 51.93                             173    0.3910 1.28 253 
 LG3  SE IS       2249 52.52                             173   -0.3910 1.28 253 
 LG3  SZ  AML     2249 53.04        80.9 0.32                          1.28 253 
                                                                                
