 2009  417 2153 35.9 L  21.294 -99.249 10.0  RAL  1 0.0 0.5LRAL                1
 GAP=360        0.32       8.5     4.9  0.0 -0.4142E+02  0.8384E+03  0.2952E+03E
 ACTION:UPD 12-06-08 11:37 OP:RALL STATUS:               ID:20090417215335     I
 2009-04-17-2153-28S.PLUR1_003                                                 6
 STAT SP IPHASW D HRMM SECON CODA AMPLIT PERI AZIMU VELO AIN AR TRES W  DIS CAZ7
 LZ4  SZ E        2153 37.97                  152.1 13.8      0        4.62 332 
 LZ4  SN IP       2153 37.97                             156    0.0810 4.62 332 
 LZ4  SE IS       2153 39.26                             156   -0.0810 4.62 332 
 LZ4  SZ  AML     2153 40.80        18.1 0.48                          4.62 332 
                                                                                
