 2009  417 2028 38.9 L  21.237 -99.458 10.0  RAL  1 0.0 0.5LRAL                1
 GAP=360        0.30       3.3     2.2  0.0  0.6397E+01  0.8384E+03  0.2952E+03E
 ACTION:UPD 12-06-08 11:37 OP:RALL STATUS:               ID:20090417202838     I
 2009-04-17-2028-33S.PLUR1_003                                                 6
 STAT SP IPHASW D HRMM SECON CODA AMPLIT PERI AZIMU VELO AIN AR TRES W  DIS CAZ7
 LA4  SN IP       2028 44.42                             103    0.0210 31.3  29 
 LA4  SZ E        2028 44.76                  209.5 18.1      0        31.3  29 
 LA4  SE IS       2028 48.36                             103   -0.0210 31.3  29 
 LA4  SZ  AML     2028 52.34         6.0 0.26                          31.3  29 
                                                                                
