 2009  417 2036 30.8 L  21.346 -99.239 10.0  RAL  1 0.0 0.4LRAL                1
 GAP=360        0.35       6.3    12.7  0.0  0.8015E+02  0.8384E+03  0.2952E+03E
 ACTION:UPD 12-06-08 11:37 OP:RALL STATUS:               ID:20090417203630     I
 2009-04-17-2036-24S.PLUR1_003                                                 6
 STAT SP IPHASW D HRMM SECON CODA AMPLIT PERI AZIMU VELO AIN AR TRES W  DIS CAZ7
 LZ4  SZ E        2036 32.76                   62.0 47.1      0        3.53 242 
 LZ4  SN IP       2036 32.80                             161    0.1310 3.53 242 
 LZ4  SE IS       2036 33.95                             161   -0.1310 3.53 242 
 LZ4  SZ  AML     2036 36.42        14.7 0.54                          3.53 242 
                                                                                
