 2009  418 0838 35.3 L  21.319 -99.263 10.0  RAL  1 0.3 0.2LRAL                1
 GAP=360        3.04     999.9   999.9  0.0  0.4053E+08  0.8384E+03  0.2952E+03E
 ACTION:UPD 12-06-08 11:37 OP:RALL STATUS:               ID:20090418083835     I
 2009-04-18-0838-28S.PLUR1_003                                                 6
 STAT SP IPHASW D HRMM SECON CODA AMPLIT PERI AZIMU VELO AIN AR TRES W  DIS CAZ7
 LZ4  SN IP        838 37.63                             172    0.4910 1.47 334 
 LZ4  SZ E         838 37.64                  168.1 19.5     14        1.47 334 
 LZ4  SE IS        838 38.00                             172   -0.4910 1.47 334 
 LZ4  SZ  AML      838 38.44         9.3 0.50                          1.47 334 
                                                                                
