 2009  418 0342 34.6 L  21.340 -99.291 10.0  RAL  1 0.2                        1
 GAP=360        1.08      24.7    56.9  0.0 -0.1402E+04  0.8384E+03  0.2952E+03E
 ACTION:UPD 12-06-08 11:37 OP:RALL STATUS:               ID:20090418034234     I
 2009-04-18-0342-27S.PLUR1_003                                                 6
 STAT SP IPHASW D HRMM SECON CODA AMPLIT PERI AZIMU VELO AIN AR TRES W  DIS CAZ7
 LZ4  SZ E         342 37.03                  292.1 34.5     -2        2.44 115 
 LZ4  SN IP        342 37.03                             167    0.5710 2.44 115 
 LZ4  SE IS        342 37.25                             167   -0.5710 2.44 115 
 LZ4  SZ IS        342 37.27                             141           2.44 115 
                                                                                
