 2009  418 0616  4.2 L  21.343 -99.269 10.0  RAL  1 0.2 1.1LRAL                1
 GAP=360        2.03     999.9   999.9  0.0 -0.3093E+09  0.8384E+03  0.2952E+03E
 ACTION:UPD 12-06-08 11:37 OP:RALL STATUS:               ID:20090418061604     I
 2009-04-18-0615-57S.PLUR1_003                                                 6
 STAT SP IPHASW D HRMM SECON CODA AMPLIT PERI AZIMU VELO AIN AR TRES W  DIS CAZ7
 LZ4  SN IP        616  6.43                             173    0.4310 1.30 182 
 LZ4  SZ E         616  6.44                  352.6  7.5      9        1.30 182 
 LZ4  SE IS        616  6.91                             173   -0.4310 1.30 182 
 LZ4  SZ  AML      616  6.96        73.3 0.18                          1.30 182 
                                                                                
