 2009  418 0320  2.7 L  21.328 -99.276 10.0  RAL  1 0.2 0.2LRAL                1
 GAP=360        2.33     999.9   655.3  0.0 -0.1713E+07  0.8384E+03  0.2952E+03E
 ACTION:UPD 12-06-08 11:37 OP:RALL STATUS:               ID:20090418032002     I
 2009-04-18-0319-56S.PLUR1_003                                                 6
 STAT SP IPHASW D HRMM SECON CODA AMPLIT PERI AZIMU VELO AIN AR TRES W  DIS CAZ7
 LZ4  SZ E         320  4.71                  258.3 22.6     11        0.68  67 
 LZ4  SN IP        320  4.74                             176    0.2110 0.68  67 
 LZ4  SE IS        320  5.65                             176   -0.2110 0.68  67 
 LZ4  SZ  AML      320  6.48        10.0 0.48                          0.68  67 
                                                                                
