 2009  418 0136 10.0 L  21.187 -99.178 10.0  RAL  1 0.0 0.6LRAL                1
 GAP=360        0.30       3.5     2.3  0.0 -0.7797E+01  0.8384E+03  0.2952E+03E
 ACTION:UPD 12-06-08 11:37 OP:RALL STATUS:               ID:20090418013610     I
 2009-04-18-0136-06S.PLUR1_003                                                 6
 STAT SP IPHASW D HRMM SECON CODA AMPLIT PERI AZIMU VELO AIN AR TRES W  DIS CAZ7
 LZ4  SN IP        136 13.57                             116    0.0010 18.5 329 
 LZ4  SZ E         136 13.57                  149.2 20.6      0        18.5 329 
 LZ4  SE IS        136 16.16                             116    0.0010 18.5 329 
 LZ4  SZ  AML      136 17.11        11.2 0.20                          18.5 329 
                                                                                
