 2009  418 1326 17.8 L  21.710 -99.449 10.0  RAL  1 0.0 0.6LRAL                1
 GAP=360        0.30       3.3     2.2  0.0 -0.6659E+01  0.8384E+03  0.2952E+03E
 ACTION:UPD 12-06-08 11:37 OP:RALL STATUS:               ID:20090418132617     I
 2009-04-18-1326-12S.PLUR1_003                                                 6
 STAT SP IPHASW D HRMM SECON CODA AMPLIT PERI AZIMU VELO AIN AR TRES W  DIS CAZ7
 LA4  SN IP       1326 22.95                             105    0.0210 28.9 150 
 LA4  SZ E        1326 23.03                  329.9 10.0      0        28.9 150 
 LA4  SE IS       1326 26.62                             105   -0.0210 28.9 150 
 LA4  SZ  AML     1326 27.27         7.3 0.30                          28.9 150 
                                                                                
