 2009  418 1936 34.2 R                       RAL  0                            1
 ACTION:UPD 12-06-08 11:37 OP:RALL STATUS:               ID:20090418193634     I
 2009-04-18-1936-34S.PLUR1_003                                                 6
 STAT SP IPHASW D HRMM SECON CODA AMPLIT PERI AZIMU VELO AIN AR TRES W  DIS CAZ7
                                                                                
