 2009  418 1430 52.9 L  21.259 -99.470 10.0  RAL  1 0.0 0.7LRAL                1
 GAP=360        0.30       3.2     2.4  0.0  0.7017E+01  0.8384E+03  0.2952E+03E
 ACTION:UPD 12-06-08 11:37 OP:RALL STATUS:               ID:20090418143052     I
 2009-04-18-1430-48S.PLUR1_003                                                 6
 STAT SP IPHASW D HRMM SECON CODA AMPLIT PERI AZIMU VELO AIN AR TRES W  DIS CAZ7
 LA4  SZ E        1430 58.09                  213.9 23.9      0        29.9  34 
 LA4  SN IP       1430 58.15                             104    0.0210 29.9  34 
 LA4  SE IS       1431  1.93                             104   -0.0210 29.9  34 
 LA4  SZ  AML     1431  5.88        10.3 0.32                          29.9  34 
                                                                                
