 2009  418 1555 36.7 L  21.250 -99.273 10.0  RAL  1 0.1 0.4LRAL                1
 GAP=360        0.53      16.2    13.0  0.0  0.2105E+03  0.8384E+03  0.2952E+03E
 ACTION:UPD 12-06-08 11:37 OP:RALL STATUS:               ID:20090418155536     I
 2009-04-18-1555-30S.PLUR1_003                                                 6
 STAT SP IPHASW D HRMM SECON CODA AMPLIT PERI AZIMU VELO AIN AR TRES W  DIS CAZ7
 LG3  SZ E        1555 38.60                  216.8 17.2      0        3.56  37 
 LG3  SN IP       1555 38.93                             161    0.2910 3.56  37 
 LG3  SE IS       1555 39.76                             161   -0.2910 3.56  37 
 LG3  SZ  AML     1555 40.49        12.9 0.20                          3.56  37 
                                                                                
