 2009  418 1457 52.1 L  21.347 -99.291 10.0  RAL  1 0.2 1.1LRAL                1
 GAP=360        0.66      18.7    25.7  0.0 -0.4803E+03  0.8384E+03  0.2952E+03E
 ACTION:UPD 12-06-08 11:37 OP:RALL STATUS:               ID:20090418145752     I
 2009-04-18-1457-45S.PLUR1_003                                                 6
 STAT SP IPHASW D HRMM SECON CODA AMPLIT PERI AZIMU VELO AIN AR TRES W  DIS CAZ7
 LZ4  SZ E        1457 54.39                  308.0 30.2      0        2.88 128 
 LZ4  SN IP       1457 54.43                             164    0.4010 2.88 128 
 LZ4  SE IS       1457 55.02                             164   -0.4010 2.88 128 
 LZ4  SZ  AML     1457 55.48        63.8 0.12                          2.88 128 
                                                                                
