 2009  418 1505  2.6 L  21.242 -99.215 10.0  RAL  1 0.0 0.7LRAL                1
 GAP=360        0.30       4.2     2.7  0.0 -0.1111E+02  0.8384E+03  0.2952E+03E
 ACTION:UPD 12-06-08 11:37 OP:RALL STATUS:               ID:20090418150502     I
 2009-04-18-1504-58S.PLUR1_003                                                 6
 STAT SP IPHASW D HRMM SECON CODA AMPLIT PERI AZIMU VELO AIN AR TRES W  DIS CAZ7
 LZ4  SN IP       15 5  5.28                             131    0.0210 11.3 330 
 LZ4  SZ E        15 5  5.29                  149.8 16.4      0        11.3 330 
 LZ4  SE IS       15 5  7.15                             131   -0.0210 11.3 330 
 LZ4  SZ  AML     15 5  7.31        18.9 0.16                          11.3 330 
                                                                                
