 2009  418 1333 17.1 L  21.587 -99.435 10.0  RAL  1 0.0 1.3LRAL                1
 GAP=360        0.30       3.3     2.3  0.0 -0.6526E+01  0.8384E+03  0.2952E+03E
 ACTION:UPD 12-06-08 11:37 OP:RALL STATUS:               ID:20090418133317     I
 2009-04-18-1333-17S.PLUR1_003                                                 6
 STAT SP IPHASW D HRMM SECON CODA AMPLIT PERI AZIMU VELO AIN AR TRES W  DIS CAZ7
 LZ4  SN IP       1333 22.83                             102    0.0210 33.2 149 
 LZ4  SZ E        1333 22.91                  328.9 12.7      0        33.2 149 
 LZ4  SE IS       1333 26.97                             102   -0.0210 33.2 149 
 LZ4  SZ  AML     1333 27.33        38.4 0.14                          33.2 149 
                                                                                
