 2009  418 2309 31.8 L  21.418 -99.266 10.0  RAL  1 0.0 0.4LRAL                1
 GAP=360        0.30       4.9     3.2  0.0 -0.1576E+02  0.8384E+03  0.2952E+03E
 ACTION:UPD 12-06-08 11:37 OP:RALL STATUS:               ID:20090418230931     I
 2009-04-18-2309-21S.PLUR1_003                                                 6
 STAT SP IPHASW D HRMM SECON CODA AMPLIT PERI AZIMU VELO AIN AR TRES W  DIS CAZ7
 LA4  SN IP       23 9 34.19                             140    0.0210 8.51 329 
 LA4  SZ E        23 9 34.40                  148.7 10.0      0        8.51 329 
 LA4  SE IS       23 9 35.84                             140   -0.0210 8.51 329 
 LA4  SZ  AML     23 9 36.04        10.8 0.24                          8.51 329 
                                                                                
