 2009  418 2258  5.2 L  21.473 -99.292 10.0  RAL  1 0.2 0.4LRAL                1
 GAP=360        0.73      25.3    41.1  0.0 -0.1042E+04  0.8384E+03  0.2952E+03E
 ACTION:UPD 12-06-08 11:37 OP:RALL STATUS:               ID:20090418225805     I
 2009-04-18-2257-53S.PLUR1_003                                                 6
 STAT SP IPHASW D HRMM SECON CODA AMPLIT PERI AZIMU VELO AIN AR TRES W  DIS CAZ7
 LA4  SZ E        2258  7.45                  123.5  9.3      0        2.10 303 
 LA4  SN IP       2258  7.57                             169    0.4510 2.10 303 
 LA4  SE IS       2258  8.04                             169   -0.4510 2.10 303 
 LA4  SZ  AML     2258  8.19        13.4 0.40                          2.10 303 
                                                                                
