 2009  419 0940 47.2 L  21.269 -99.243 10.0  RAL  1 0.0 0.5LRAL                1
 GAP=360        0.30       5.8     2.5  0.0 -0.1450E+02  0.8384E+03  0.2952E+03E
 ACTION:UPD 12-06-08 11:37 OP:RALL STATUS:               ID:20090419094047     I
 2009-04-19-0940-41S.PLUR1_003                                                 6
 STAT SP IPHASW D HRMM SECON CODA AMPLIT PERI AZIMU VELO AIN AR TRES W  DIS CAZ7
 LZ4  SZ E         940 49.44                  158.3 11.7      0        7.38 338 
 LZ4  SN IP        940 49.44                             144    0.0210 7.38 338 
 LZ4  SE IS        940 51.01                             144   -0.0210 7.38 338 
 LZ4  SZ  AML      940 51.04        15.6 0.34                          7.38 338 
                                                                                
