 2009  419 0118 25.1 L  21.623 -99.348 10.0  RAL  1 0.0 0.4LRAL                1
 GAP=360        0.30       4.1     1.2  0.0 -0.4751E+01  0.8384E+03  0.2952E+03E
 ACTION:UPD 12-06-08 11:37 OP:RALL STATUS:               ID:20090419011825     I
 2009-04-19-0118-16S.PLUR1_003                                                 6
 STAT SP IPHASW D HRMM SECON CODA AMPLIT PERI AZIMU VELO AIN AR TRES W  DIS CAZ7
 LA4  SN IP        118 28.36                             120    0.0010 15.9 165 
 LA4  SZ E         118 28.41                  345.4 10.4      0        15.9 165 
 LA4  SE IS        118 30.70                             120    0.0010 15.9 165 
 LA4  SZ  AML      118 31.39         8.1 0.26                          15.9 165 
                                                                                
