 2009  419 0542 43.7 L  21.517 -99.334 10.0  RAL  1 0.0 0.3LRAL                1
 GAP=360        0.33       8.4     6.5  0.0 -0.5438E+02  0.8384E+03  0.2952E+03E
 ACTION:UPD 12-06-08 11:37 OP:RALL STATUS:               ID:20090419054243     I
 2009-04-19-0542-32S.PLUR1_003                                                 6
 STAT SP IPHASW D HRMM SECON CODA AMPLIT PERI AZIMU VELO AIN AR TRES W  DIS CAZ7
 LA4  SZ E         542 45.73                  324.4  7.4      0        4.51 144 
 LA4  SN IP        542 45.76                             156    0.1010 4.51 144 
 LA4  SE IS        542 47.01                             156   -0.1010 4.51 144 
 LA4  SZ  AML      542 47.39        11.2 0.24                          4.51 144 
                                                                                
