 2009  419 1150 31.4 L  21.326 -99.257 10.0  RAL  1 0.2 0.7LRAL                1
 GAP=360        0.93     999.9   999.9  0.0  0.5053E+07  0.8384E+03  0.2952E+03E
 ACTION:UPD 12-06-08 11:37 OP:RALL STATUS:               ID:20090419115031     I
 2009-04-19-1150-24S.PLUR1_003                                                 6
 STAT SP IPHASW D HRMM SECON CODA AMPLIT PERI AZIMU VELO AIN AR TRES W  DIS CAZ7
 LZ4  SZ E        1150 33.85                  111.1  9.9      0        1.42 291 
 LZ4  SN IP       1150 33.85                             172    0.5910 1.42 291 
 LZ4  SE IS       1150 34.01                             172   -0.5910 1.42 291 
 LZ4  SZ  AML     1150 34.23        29.2 0.18                          1.42 291 
                                                                                
