 2009  419 1040  6.7 L  21.208 -99.265 10.0  RAL  1 0.0 0.8LRAL                1
 GAP=360        0.30       6.1     1.2  0.0  0.7075E+01  0.8384E+03  0.2952E+03E
 ACTION:UPD 12-06-08 11:37 OP:RALL STATUS:               ID:20090419104006     I
 2009-04-19-1040-01S.PLUR1_003                                                 6
 STAT SP IPHASW D HRMM SECON CODA AMPLIT PERI AZIMU VELO AIN AR TRES W  DIS CAZ7
 LG3  SZ E        1040  8.90                  190.1 11.1      0        7.58  10 
 LG3  SN IP       1040  8.94                             143    0.0110 7.58  10 
 LG3  SE IS       1040 10.55                             143   -0.0110 7.58  10 
 LG3  SZ  AML     1040 10.66        30.2 0.34                          7.58  10 
                                                                                
