 2009  419 1010 26.0 L  21.320 -99.258 10.0  RAL  1 0.5 0.5LRAL                1
 GAP=360        5.86     999.9   999.9  0.0  0.8927E+08  0.8384E+03  0.2952E+03E
 ACTION:UPD 12-06-08 11:37 OP:RALL STATUS:               ID:20090419101026     I
 2009-04-19-1010-18S.PLUR1_003                                                 6
 STAT SP IPHASW D HRMM SECON CODA AMPLIT PERI AZIMU VELO AIN AR TRES W  DIS CAZ7
 LZ4  SN IP       1010 28.29                             171    0.4810 1.70 317 
 LZ4  SZ E        1010 28.32                  164.7 18.3     28        1.70 317 
 LZ4  SE IS       1010 28.69                             171   -0.4810 1.70 317 
 LZ4  SZ  AML     1010 28.77        17.5 0.24                          1.70 317 
                                                                                
