 2009  419 2247 49.4 L  21.616 -99.396 10.0  RAL  1 0.0 1.1LRAL                1
 GAP=360        0.30       3.6     2.4  0.0 -0.8280E+01  0.8384E+03  0.2952E+03E
 ACTION:UPD 12-06-08 11:37 OP:RALL STATUS:               ID:20090419224749     I
 2009-04-19-2247-38S.PLUR1_003                                                 6
 STAT SP IPHASW D HRMM SECON CODA AMPLIT PERI AZIMU VELO AIN AR TRES W  DIS CAZ7
 LA4  SZ E        2247 52.69                  328.5  8.2      0        17.2 148 
 LA4  SN IP       2247 52.75                             118    0.0110 17.2 148 
 LA4  SE IS       2247 55.21                             118   -0.0110 17.2 148 
 LA4  SZ  AML     2247 58.21        37.6 0.36                          17.2 148 
                                                                                
