 2009  419 2326 58.2 L  21.316 -99.279 10.0  RAL  1 0.2 0.9LRAL                1
 GAP=360        1.34     999.9   999.9  0.0 -0.4208E+07  0.8384E+03  0.2952E+03E
 ACTION:UPD 12-06-08 11:37 OP:RALL STATUS:               ID:20090419232658     I
 2009-04-19-2326-51S.PLUR1_003                                                 6
 STAT SP IPHASW D HRMM SECON CODA AMPLIT PERI AZIMU VELO AIN AR TRES W  DIS CAZ7
 LZ4  SN IP       2327  0.61                             169    0.5910 1.92  30 
 LZ4  SZ E        2327  0.63                  215.1 11.8      5        1.92  30 
 LZ4  SE IS       2327  0.79                             169   -0.5910 1.92  30 
 LZ4  SZ  AML     2327  1.14        42.5 0.16                          1.92  30 
                                                                                
