 2009  420 0153  8.8 L  21.340 -99.290 10.0  RAL  1 0.2 0.4LRAL                1
 GAP=360        0.88      22.1    48.5  0.0 -0.1070E+04  0.8384E+03  0.2952E+03E
 ACTION:UPD 12-06-08 11:37 OP:RALL STATUS:               ID:20090420015308     I
 2009-04-20-0153-01S.PLUR1_003                                                 6
 STAT SP IPHASW D HRMM SECON CODA AMPLIT PERI AZIMU VELO AIN AR TRES W  DIS CAZ7
 LZ4  SN IP        153 11.27                             167    0.5610 2.32 116 
 LZ4  SZ E         153 11.27                  296.0 19.7      0        2.32 116 
 LZ4  SE IS        153 11.51                             167   -0.5610 2.32 116 
 LZ4  SZ  AML      153 11.62        14.4 0.18                          2.32 116 
                                                                                
