 2009  420 1134  7.3 L  21.216 -99.685 10.0  RAL  2 1.5 2.0LRAL                1
 GAP=331       15.53      79.4   181.7999.9  0.1147E+05  0.1369E+07  0.4956E+06E
 ACTION:UPD 12-06-08 11:37 OP:RALL STATUS:               ID:20090420113407     I
 2009-04-20-1134-00S.PLUR1_006                                                 6
 STAT SP IPHASW D HRMM SECON CODA AMPLIT PERI AZIMU VELO AIN AR TRES W  DIS CAZ7
 LG3  SZ E        1134 18.30                  196.9 13.0    -64        45.3  82 
 LG3  SN IP       1134 18.58                              91    3.7010 45.3  82 
 LG3  SE IS       1134 22.00                              91    1.5810 45.3  82 
 LG3  SZ  AML     1134 23.20        29.4 0.40                          45.3  82 
 LA4  SZ E        1134 15.26                  255.7 21.9     23        48.9  53 
 LA4  SN IP       1134 15.28                              91   -0.1510 48.9  53 
 LA4  SE IS       1134 16.25                              91   -5.1310 48.9  53 
 LA4  SZ  AML     1134 17.05       438.3 0.54                          48.9  53 
                                                                                
