 2009  420 1711  5.1 L  21.313 -99.298 10.0  RAL  1 0.1 0.6LRAL                1
 GAP=360        0.38       8.0    13.0  0.0  0.1039E+03  0.1369E+07  0.4956E+06E
 ACTION:UPD 12-06-08 11:37 OP:RALL STATUS:               ID:20090420171105     I
 2009-04-20-1710-58S.PLUR1_003                                                 6
 STAT SP IPHASW D HRMM SECON CODA AMPLIT PERI AZIMU VELO AIN AR TRES W  DIS CAZ7
 LZ4  SZ E        1711  7.13                  236.7 34.8      0        3.50  57 
 LZ4  SN IP       1711  7.15                             161    0.1610 3.50  57 
 LZ4  SE IS       1711  8.24                             161   -0.1610 3.50  57 
 LZ4  SZ  AML     1711  8.52        21.6 0.20                          3.50  57 
                                                                                
