 2009  420 1702 19.1 L  21.500 -99.321 10.0  RAL  1 0.2 0.5LRAL                1
 GAP=360        0.76     790.4   999.9  0.0  0.9975E+06  0.1369E+07  0.4956E+06E
 ACTION:UPD 12-06-08 11:37 OP:RALL STATUS:               ID:20090420170219     I
 2009-04-20-1702-07S.PLUR1_003                                                 6
 STAT SP IPHASW D HRMM SECON CODA AMPLIT PERI AZIMU VELO AIN AR TRES W  DIS CAZ7
 LA4  SZ E        17 2 21.44                  324.2 10.1      0        2.20 144 
 LA4  SN IP       17 2 21.44                             168    0.4710 2.20 144 
 LA4  SE IS       17 2 21.87                             168   -0.4710 2.20 144 
 LA4  SZ  AML     17 2 21.95        16.8 0.18                          2.20 144 
                                                                                
