 2009  420 1032 42.7 L  21.539 -99.308 10.0  RAL  1 0.0 1.5LRAL                1
 GAP=360        0.30       3.9     1.0  0.0 -0.2750E+01  0.8384E+03  0.2952E+03E
 ACTION:UPD 12-06-08 11:37 OP:RALL STATUS:               ID:20090420103242     I
 2009-04-20-1032-37S.PLUR1_003                                                 6
 STAT SP IPHASW D HRMM SECON CODA AMPLIT PERI AZIMU VELO AIN AR TRES W  DIS CAZ7
 LZ4  SN IP       1032 47.00                             109    0.0110 23.4 170 
 LZ4  SZ E        1032 47.01                  350.1 13.8      0        23.4 170 
 LZ4  SE IS       1032 50.08                             109   -0.0110 23.4 170 
 LZ4  SZ  AML     1032 50.68        76.0 0.26                          23.4 170 
                                                                                
