 2009  420 1729 41.9 L  21.501 -99.322 10.0  RAL  1 0.2 0.9LRAL                1
 GAP=360        0.77      36.1    27.7  0.0 -0.1001E+04  0.1369E+07  0.4956E+06E
 ACTION:UPD 12-06-08 11:37 OP:RALL STATUS:               ID:20090420172941     I
 2009-04-20-1729-29S.PLUR1_003                                                 6
 STAT SP IPHASW D HRMM SECON CODA AMPLIT PERI AZIMU VELO AIN AR TRES W  DIS CAZ7
 LA4  SZ E        1729 44.30                  324.4 10.0      0        2.32 144 
 LA4  SN IP       1729 44.31                             167    0.4810 2.32 144 
 LA4  SE IS       1729 44.72                             167   -0.4810 2.32 144 
 LA4  SZ  AML     1729 44.82        42.3 0.40                          2.32 144 
                                                                                
