 2009  420 2127 37.1 L  21.334 -99.274 10.0  RAL  1 0.3 0.5LRAL                1
 GAP=360        4.12     915.8   999.9  0.0  0.1690E+07  0.1369E+07  0.4956E+06E
 ACTION:UPD 12-06-08 11:37 OP:RALL STATUS:               ID:20090420212737     I
 2009-04-20-2127-30S.PLUR1_003                                                 6
 STAT SP IPHASW D HRMM SECON CODA AMPLIT PERI AZIMU VELO AIN AR TRES W  DIS CAZ7
 LZ4  SZ E        2127 39.16                  287.4 18.1    -18        0.64 127 
 LZ4  SN IP       2127 39.20                             176    0.2910 0.64 127 
 LZ4  SE IS       2127 39.95                             176   -0.2910 0.64 127 
 LZ4  SZ  AML     2127 40.71        18.7 0.68                          0.64 127 
                                                                                
