 2009  420 2334 32.3 L  21.529 -99.387 10.0  RAL  1 0.0 0.5LRAL                1
 GAP=360        0.30       2.8     4.9  0.0 -0.1385E+02  0.1369E+07  0.4956E+06E
 ACTION:UPD 12-06-08 11:37 OP:RALL STATUS:               ID:20090420233432     I
 2009-04-20-2334-23S.PLUR1_003                                                 6
 STAT SP IPHASW D HRMM SECON CODA AMPLIT PERI AZIMU VELO AIN AR TRES W  DIS CAZ7
 LA4  SZ E        2334 34.73                  301.8 13.6      0        9.50 122 
 LA4  SN IP       2334 34.75                             136    0.0110 9.50 122 
 LA4  SE IS       2334 36.49                             136   -0.0110 9.50 122 
 LA4  SZ  AML     2334 37.95        14.2 0.54                          9.50 122 
                                                                                
