 2009  421 0554 53.9 L  21.319 -99.268 10.0  RAL  1 0.1 0.5LRAL                1
 GAP=360        0.53     136.6   999.9  0.0  0.2236E+06  0.1369E+07  0.4956E+06E
 ACTION:UPD 12-06-08 11:37 OP:RALL STATUS:               ID:20090421055453     I
 2009-04-21-0554-47S.PLUR1_003                                                 6
 STAT SP IPHASW D HRMM SECON CODA AMPLIT PERI AZIMU VELO AIN AR TRES W  DIS CAZ7
 LZ4  SZ E         554 55.91                  174.7 16.6      2        1.32 353 
 LZ4  SN IP        554 55.91                             173    0.1610 1.32 353 
 LZ4  SE IS        554 56.93                             173   -0.1610 1.32 353 
 LZ4  SZ  AML      554 57.51        17.2 0.54                          1.32 353 
                                                                                
