 2009  421 0739 12.3 L  21.242 -99.272 10.0  RAL  1 0.0 0.4LRAL                1
 GAP=360        0.33       9.6     5.6  0.0  0.5408E+02  0.1369E+07  0.4956E+06E
 ACTION:UPD 12-06-08 11:37 OP:RALL STATUS:               ID:20090421073912     I
 2009-04-21-0739-05S.PLUR1_003                                                 6
 STAT SP IPHASW D HRMM SECON CODA AMPLIT PERI AZIMU VELO AIN AR TRES W  DIS CAZ7
 LG3  SZ E         739 14.29                  208.8 12.6      0        4.20  29 
 LG3  SN IP        739 14.33                             158    0.1010 4.20  29 
 LG3  SE IS        739 15.58                             158   -0.1010 4.20  29 
 LG3  SZ  AML      739 15.69        12.1 0.10                          4.20  29 
                                                                                
