 2009  421 0903  0.5 L  21.456 -99.381 10.0  RAL  1 0.0 0.6LRAL                1
 GAP=360        0.30       3.2     2.9  0.0 -0.8864E+01  0.1369E+07  0.4956E+06E
 ACTION:UPD 12-06-08 11:37 OP:RALL STATUS:               ID:20090421090300     I
 2009-04-21-0902-57S.PLUR1_003                                                 6
 STAT SP IPHASW D HRMM SECON CODA AMPLIT PERI AZIMU VELO AIN AR TRES W  DIS CAZ7
 LZ4  SZ E         9 3  3.91                  320.1 22.6      0        18.1 140 
 LZ4  SN IP        9 3  4.04                             116    0.0110 18.1 140 
 LZ4  SE IS        9 3  6.58                             116   -0.0110 18.1 140 
 LZ4  SZ  AML      9 3  6.98        12.2 0.52                          18.1 140 
                                                                                
