 2009  421 0635 57.1 L  21.325 -99.290 10.0  RAL  1 0.1 0.7LRAL                1
 GAP=360        0.57      10.1    34.2  0.0  0.3446E+03  0.1369E+07  0.4956E+06E
 ACTION:UPD 12-06-08 11:37 OP:RALL STATUS:               ID:20090421063557     I
 2009-04-21-0635-50S.PLUR1_003                                                 6
 STAT SP IPHASW D HRMM SECON CODA AMPLIT PERI AZIMU VELO AIN AR TRES W  DIS CAZ7
 LZ4  SZ E         635 59.22                  252.6 18.1      0        2.23  72 
 LZ4  SN IP        635 59.32                             168    0.3310 2.23  72 
 LZ4  SE IS        636  0.03                             168   -0.3310 2.23  72 
 LZ4  SZ  AML      636  0.46        27.9 0.16                          2.23  72 
                                                                                
