 2009  421 0330 59.0 L  21.327 -99.283 10.0  RAL  1 0.4 0.3LRAL                1
 GAP=360        3.70     765.0   623.0  0.0 -0.4765E+06  0.1369E+07  0.4956E+06E
 ACTION:UPD 12-06-08 11:37 OP:RALL STATUS:               ID:20090421033059     I
 2009-04-21-0330-52S.PLUR1_003                                                 6
 STAT SP IPHASW D HRMM SECON CODA AMPLIT PERI AZIMU VELO AIN AR TRES W  DIS CAZ7
 LZ4  SZ E         331  1.41                  269.3  9.5     17        1.52  72 
 LZ4  SN IP        331  1.42                             172    0.5610 1.52  72 
 LZ4  SE IS        331  1.65                             172   -0.5610 1.52  72 
 LZ4  SZ  AML      331  1.74        12.0 0.18                          1.52  72 
                                                                                
