 2009  421 0658  4.3 L  21.283 -99.275 10.0  RAL  1 0.1 0.0LRAL                1
 GAP=360        0.43       7.8    23.2  0.0 -0.1806E+03  0.1369E+07  0.4956E+06E
 ACTION:UPD 12-06-08 11:37 OP:RALL STATUS:               ID:20090421065804     I
 2009-04-21-0657-57S.PLUR1_003                                                 6
 STAT SP IPHASW D HRMM SECON CODA AMPLIT PERI AZIMU VELO AIN AR TRES W  DIS CAZ7
 LG3  SN IP        658  6.36                             167    0.2110 2.47 110 
 LG3  SZ E         658  6.46                  289.7 66.1      0        2.47 110 
 LG3  SE IS        658  7.33                             167   -0.2110 2.47 110 
 LG3  SZ  AML      658  7.48         5.9 0.26                          2.47 110 
                                                                                
