 2009  421 1759 42.8 L  21.520 -99.324 10.0  RAL  1 0.0 0.7LRAL                1
 GAP=360        0.31       9.3     3.9  0.0 -0.3600E+02  0.1369E+07  0.4956E+06E
 ACTION:UPD 12-06-08 11:37 OP:RALL STATUS:               ID:20090421175942     I
 2009-04-21-1759-30S.PLUR1_003                                                 6
 STAT SP IPHASW D HRMM SECON CODA AMPLIT PERI AZIMU VELO AIN AR TRES W  DIS CAZ7
 LA4  SZ E        1759 44.85                  338.7  8.6      0        4.29 159 
 LA4  SN IP       1759 44.86                             157    0.0510 4.29 159 
 LA4  SE IS       1759 46.20                             157   -0.0510 4.29 159 
 LA4  SZ  AML     1759 46.49        28.3 0.22                          4.29 159 
                                                                                
