 2009  421 1231  9.5 L  21.313 -99.253 10.0  RAL  1 0.2 1.0LRAL                1
 GAP=360        0.75      28.1    26.2  0.0 -0.7375E+03  0.1369E+07  0.4956E+06E
 ACTION:UPD 12-06-08 11:37 OP:RALL STATUS:               ID:20090421123109     I
 2009-04-21-1231-02S.PLUR1_003                                                 6
 STAT SP IPHASW D HRMM SECON CODA AMPLIT PERI AZIMU VELO AIN AR TRES W  DIS CAZ7
 LZ4  SN IP       1231 11.81                             165    0.4710 2.68 319 
 LZ4  SZ E        1231 11.84                  139.0 14.1      0        2.68 319 
 LZ4  SE IS       1231 12.25                             165   -0.4710 2.68 319 
 LZ4  SZ  AML     1231 12.65        57.0 0.38                          2.68 319 
                                                                                
