 2009  421 1446 31.7 L  21.700 -99.327 10.0  RAL  1 0.0 0.5LRAL                1
 GAP=360        0.30       3.9     0.7  0.0 -0.1233E+01  0.1369E+07  0.4956E+06E
 ACTION:UPD 12-06-08 11:37 OP:RALL STATUS:               ID:20090421144631     I
 2009-04-21-1446-25S.PLUR1_003                                                 6
 STAT SP IPHASW D HRMM SECON CODA AMPLIT PERI AZIMU VELO AIN AR TRES W  DIS CAZ7
 LA4  SN IP       1446 36.03                             109    0.0110 24.0 176 
 LA4  SZ E        1446 36.06                  355.6  8.9      0        24.0 176 
 LA4  SE IS       1446 39.19                             109   -0.0110 24.0 176 
 LA4  SZ  AML     1446 39.69         6.7 0.24                          24.0 176 
                                                                                
