 2009  421 1006 27.7 L  21.387 -99.390 10.0  RAL  1 0.0 0.0LRAL                1
 GAP=360        0.30       3.6     3.0  0.0  0.1059E+02  0.1369E+07  0.4956E+06E
 ACTION:UPD 12-06-08 11:37 OP:RALL STATUS:               ID:20090421100627     I
 2009-04-21-1006-18S.PLUR1_003                                                 6
 STAT SP IPHASW D HRMM SECON CODA AMPLIT PERI AZIMU VELO AIN AR TRES W  DIS CAZ7
 LA4  SZ E        10 6 30.61                  218.3 11.6      0        13.6  38 
 LA4  SN IP       10 6 30.64                             125   -0.0110 13.6  38 
 LA4  SE IS       10 6 32.78                             125    0.0110 13.6  38 
 LA4  SZ  AML     10 6 34.65         3.6 0.30                          13.6  38 
                                                                                
