 2009  422 0106 59.9 L  21.308 -99.283 10.0  RAL  1 0.0 0.2LRAL                1
 GAP=360        0.33       7.4     7.1  0.0 -0.5183E+02  0.1369E+07  0.4956E+06E
 ACTION:UPD 12-06-08 11:37 OP:RALL STATUS:               ID:20090422010659     I
 2009-04-22-0106-53S.PLUR1_003                                                 6
 STAT SP IPHASW D HRMM SECON CODA AMPLIT PERI AZIMU VELO AIN AR TRES W  DIS CAZ7
 LG3  SZ E         1 7  2.00                  318.2 23.6      0        4.76 138 
 LG3  SN IP        1 7  2.03                             155    0.1010 4.76 138 
 LG3  SE IS        1 7  3.30                             155   -0.1010 4.76 138 
 LG3  SZ  AML      1 7  3.48         7.3 0.10                          4.76 138 
                                                                                
