 2009  422 0543 10.1 L  21.445 -99.383 10.0  RAL  1 0.0 1.3LRAL                1
 GAP=360        0.30       3.1     3.1  0.0 -0.9200E+01  0.1369E+07  0.4956E+06E
 ACTION:UPD 12-06-08 11:37 OP:RALL STATUS:               ID:20090422054310     I
 2009-04-22-0543-04S.PLUR1_003                                                 6
 STAT SP IPHASW D HRMM SECON CODA AMPLIT PERI AZIMU VELO AIN AR TRES W  DIS CAZ7
 LZ4  SZ E         543 13.50                  317.0 11.0      0        17.3 137 
 LZ4  SN IP        543 13.52                             117    0.0110 17.3 137 
 LZ4  SE IS        543 15.98                             117   -0.0110 17.3 137 
 LZ4  SZ  AML      543 16.29        54.7 0.50                          17.3 137 
                                                                                
