 2009  422 0051 38.3 L  21.328 -99.275 10.0  RAL  1 0.3 0.3LRAL                1
 GAP=360        4.09     999.9   999.9  0.0 -0.4237E+09  0.1369E+07  0.4956E+06E
 ACTION:UPD 12-06-08 11:37 OP:RALL STATUS:               ID:20090422005138     I
 2009-04-22-0051-31S.PLUR1_003                                                 6
 STAT SP IPHASW D HRMM SECON CODA AMPLIT PERI AZIMU VELO AIN AR TRES W  DIS CAZ7
 LZ4  SN IP        051 40.34                             177    0.1910 0.60  64 
 LZ4  SZ E         051 40.36                  263.3 67.1     19        0.60  64 
 LZ4  SE IS        051 41.30                             177   -0.1910 0.60  64 
 LZ4  SZ  AML      051 41.76        12.4 0.56                          0.60  64 
                                                                                
