 2009  422 0002 14.3 L  21.331 -99.270 10.0  RAL  1 0.3 0.7LRAL                1
 GAP=360        3.67     999.9   999.9  0.0  0.7009E+09  0.1369E+07  0.4956E+06E
 ACTION:UPD 12-06-08 11:37 OP:RALL STATUS:               ID:20090422000214     I
 2009-04-22-0002-07S.PLUR1_003                                                 6
 STAT SP IPHASW D HRMM SECON CODA AMPLIT PERI AZIMU VELO AIN AR TRES W  DIS CAZ7
 LZ4  SZ E         0 2 16.28                  276.1 57.1    -16        0.10 114 
 LZ4  SN IP        0 2 16.35                             180    0.2210 0.10 114 
 LZ4  SE IS        0 2 17.24                             180   -0.2210 0.10 114 
 LZ4  SZ  AML      0 2 17.66        30.0 0.34                          0.10 114 
                                                                                
