 2009  422 0648 26.1 L  21.270 -99.257 10.0  RAL  2 0.9 0.5LRAL                1
 GAP=308        7.27       3.5    15.8 50.6  0.3638E+02  0.4688E+02  0.5649E+00E
 ACTION:UPD 12-06-08 11:37 OP:RALL STATUS:               ID:20090422064826     I
 2009-04-22-0648-16S.PLUR1_006                                                 6
 STAT SP IPHASW D HRMM SECON CODA AMPLIT PERI AZIMU VELO AIN AR TRES W  DIS CAZ7
 LG3  SZ E         648 29.18                  190.9 17.7    -27        0.77  39 
 LG3  SN IP        648 29.18                             173    1.2110 0.77  39 
 LG3  SE IS        648 32.19                             173    2.8710 0.77  39 
 LG3  SZ  AML      648 32.95        13.9 0.28                          0.77  39 
 LA4  SZ E         648 28.71                  168.0 11.8      1        24.2 347 
 LA4  SN IP        648 28.83                             117   -1.6810 24.2 347 
 LA4  SE IS        648 31.31                             117   -2.4010 24.2 347 
 LA4  SZ  AML      648 32.06         9.5 0.38                          24.2 347 
                                                                                
