 2009  422 1646 54.6 L  21.652 -99.355 10.0  RAL  1 0.0 0.8LRAL                1
 GAP=360        0.30       3.7     1.4  0.0 -0.3367E+01  0.4688E+02  0.5649E+00E
 ACTION:UPD 12-06-08 11:37 OP:RALL STATUS:               ID:20090422164654     I
 2009-04-22-1646-56S.PLUR1_003                                                 6
 STAT SP IPHASW D HRMM SECON CODA AMPLIT PERI AZIMU VELO AIN AR TRES W  DIS CAZ7
 LZ4  SN IP       1647  0.89                             101    0.0110 36.6 166 
 LZ4  SZ E        1647  1.02                  346.0  9.6      0        36.6 166 
 LZ4  SE IS       1647  5.43                             101   -0.0110 36.6 166 
 LZ4  SZ  AML     1647  5.45         9.2 0.38                          36.6 166 
                                                                                
