 2009  423 0937 25.9 L  21.349 -99.253 10.0  RAL  1 0.2 1.1LRAL                1
 GAP=360        0.77      28.7    27.6  0.0  0.7913E+03  0.4688E+02  0.5649E+00E
 ACTION:UPD 12-06-08 11:37 OP:RALL STATUS:               ID:20090423093725     I
 2009-04-23-0937-18S.PLUR1_003                                                 6
 STAT SP IPHASW D HRMM SECON CODA AMPLIT PERI AZIMU VELO AIN AR TRES W  DIS CAZ7
 LZ4  SZ E         937 28.27                   41.8 10.8      0        2.64 222 
 LZ4  SN IP        937 28.30                             166    0.4810 2.64 222 
 LZ4  SE IS        937 28.72                             166   -0.4810 2.64 222 
 LZ4  SZ  AML      937 28.83        70.5 0.26                          2.64 222 
                                                                                
