 2009  423 0846 19.1 L  21.255 -99.246 10.0  RAL  1 0.0 0.7LRAL                1
 GAP=360        0.30       5.4     1.7  0.0 -0.9114E+01  0.4688E+02  0.5649E+00E
 ACTION:UPD 12-06-08 11:37 OP:RALL STATUS:               ID:20090423084619     I
 2009-04-23-0846-12S.PLUR1_003                                                 6
 STAT SP IPHASW D HRMM SECON CODA AMPLIT PERI AZIMU VELO AIN AR TRES W  DIS CAZ7
 LZ4  SZ E         846 21.45                  163.7 15.0      0        8.74 344 
 LZ4  SN IP        846 21.47                             139    0.0210 8.74 344 
 LZ4  SE IS        846 23.14                             139   -0.0210 8.74 344 
 LZ4  SZ  AML      846 24.27        22.2 0.12                          8.74 344 
                                                                                
