 2009  423 1045  7.0 L  21.262 -99.277 10.0  RAL  1 0.1 0.2LRAL                1
 GAP=360        0.46      10.8    19.4  0.0  0.2104E+03  0.4688E+02  0.5649E+00E
 ACTION:UPD 12-06-08 11:37 OP:RALL STATUS:               ID:20090423104507     I
 2009-04-23-1045-00S.PLUR1_003                                                 6
 STAT SP IPHASW D HRMM SECON CODA AMPLIT PERI AZIMU VELO AIN AR TRES W  DIS CAZ7
 LG3  SZ E        1045  9.01                  239.2 20.0      0        2.94  59 
 LG3  SN IP       1045  9.18                             164    0.2410 2.94  59 
 LG3  SE IS       1045 10.10                             164   -0.2410 2.94  59 
 LG3  SZ  AML     1045 10.26         8.3 0.20                          2.94  59 
                                                                                
