 2009  424 0634  6.6 L  21.303 -99.185 10.0  RAL  1 0.0 0.4LRAL                1
 GAP=360        0.30       1.8     5.5  0.0 -0.9765E+01  0.4688E+02  0.5649E+00E
 ACTION:UPD 12-06-08 11:37 OP:RALL STATUS:               ID:20090424063406     I
 2009-04-24-0634-01S.PLUR1_003                                                 6
 STAT SP IPHASW D HRMM SECON CODA AMPLIT PERI AZIMU VELO AIN AR TRES W  DIS CAZ7
 LZ4  SZ E         634  8.97                  109.2 16.3      0        9.33 289 
 LZ4  SN IP        634  9.03                             137    0.0210 9.33 289 
 LZ4  SE IS        634 10.74                             137   -0.0210 9.33 289 
 LZ4  SZ  AML      634 11.91        10.5 0.20                          9.33 289 
                                                                                
