 2009  424 0918 41.5 L  21.326 -99.284 10.0  RAL  1 0.1 0.4LRAL                1
 GAP=360        0.48      13.5    39.2  0.0  0.5269E+03  0.4688E+02  0.5649E+00E
 ACTION:UPD 12-06-08 11:37 OP:RALL STATUS:               ID:20090424091841     I
 2009-04-24-0918-34S.PLUR1_003                                                 6
 STAT SP IPHASW D HRMM SECON CODA AMPLIT PERI AZIMU VELO AIN AR TRES W  DIS CAZ7
 LZ4  SZ E         918 43.34                  249.7 20.6      0        1.61  70 
 LZ4  SN IP        918 43.58                             171    0.2610 1.61  70 
 LZ4  SE IS        918 44.42                             171   -0.2610 1.61  70 
 LZ4  SZ  AML      918 45.15        13.9 0.70                          1.61  70 
                                                                                
