 2009  424 1911 57.1 L  21.317 -99.267 10.0  RAL  1 0.0 0.1LRAL                1
 GAP=360        0.35     364.7   999.9  0.0  0.8739E+06  0.4688E+02  0.5649E+00E
 ACTION:UPD 12-06-08 11:37 OP:RALL STATUS:               ID:20090424191157     I
 2009-04-24-1911-50S.PLUR1_003                                                 6
 STAT SP IPHASW D HRMM SECON CODA AMPLIT PERI AZIMU VELO AIN AR TRES W  DIS CAZ7
 LZ4  SZ E        1911 59.04                  170.0 30.8      0        1.53 350 
 LZ4  SN IP       1911 59.11                             172    0.1310 1.53 350 
 LZ4  SE IS       1912  0.20                             172   -0.1310 1.53 350 
 LZ4  SZ  AML     1912  0.34         6.8 0.26                          1.53 350 
                                                                                
