 2009  424 1908 42.4 L  21.305 -99.259 10.0  RAL  1 0.1 0.2LRAL                1
 GAP=360        0.36      14.6     5.8  0.0 -0.8523E+02  0.4688E+02  0.5649E+00E
 ACTION:UPD 12-06-08 11:37 OP:RALL STATUS:               ID:20090424190842     I
 2009-04-24-1908-36S.PLUR1_003                                                 6
 STAT SP IPHASW D HRMM SECON CODA AMPLIT PERI AZIMU VELO AIN AR TRES W  DIS CAZ7
 LZ4  SZ E        19 8 44.40                  159.6 22.1      0        3.10 340 
 LZ4  SN IP       19 8 44.43                             163    0.1410 3.10 340 
 LZ4  SE IS       19 8 45.54                             163   -0.1410 3.10 340 
 LZ4  SZ  AML     19 8 46.07         8.9 0.34                          3.10 340 
                                                                                
