 2009  424 1548  7.6 L  21.299 -99.223 10.0  RAL  1 0.0 1.0LRAL                1
 GAP=360        0.31       4.4     6.5  0.0 -0.2871E+02  0.4688E+02  0.5649E+00E
 ACTION:UPD 12-06-08 11:37 OP:RALL STATUS:               ID:20090424154807     I
 2009-04-24-1548-00S.PLUR1_003                                                 6
 STAT SP IPHASW D HRMM SECON CODA AMPLIT PERI AZIMU VELO AIN AR TRES W  DIS CAZ7
 LZ4  SZ E        1548  9.76                  126.0 14.5      0        5.99 306 
 LZ4  SN IP       1548  9.76                             150    0.0510 5.99 306 
 LZ4  SE IS       1548 11.18                             150   -0.0510 5.99 306 
 LZ4  SZ  AML     1548 11.44        46.8 0.18                          5.99 306 
                                                                                
