 2009  425 0432 28.7 L  21.322 -99.266 10.0  RAL  1 0.2 1.0LRAL                1
 GAP=360        1.05     803.4   999.9  0.0  0.1652E+07  0.4688E+02  0.5649E+00E
 ACTION:UPD 12-06-08 11:37 OP:RALL STATUS:               ID:20090425043228     I
 2009-04-25-0432-22S.PLUR1_003                                                 6
 STAT SP IPHASW D HRMM SECON CODA AMPLIT PERI AZIMU VELO AIN AR TRES W  DIS CAZ7
 LZ4  SZ E         432 31.04                  163.7 28.8      3        1.08 341 
 LZ4  SN IP        432 31.04                             174    0.5310 1.08 341 
 LZ4  SE IS        432 31.32                             174   -0.5310 1.08 341 
 LZ4  SZ  AML      432 31.47        55.2 0.18                          1.08 341 
                                                                                
