 2009  425 0749  4.8 L  21.643 -99.575 10.0  RAL  1 0.0 1.3LRAL                1
 GAP=360        0.30       2.2     3.5  0.0 -0.6731E+01  0.4951E+02 -0.1656E+03E
 ACTION:UPD 12-06-08 11:37 OP:RALL STATUS:               ID:20090425074904     I
 2009-04-25-0748-57S.PLUR1_003                                                 6
 STAT SP IPHASW D HRMM SECON CODA AMPLIT PERI AZIMU VELO AIN AR TRES W  DIS CAZ7
 LA4  SN IP        749 10.53                             103    0.0210 32.7 123 
 LA4  SZ E         749 10.55                  302.7  9.4      0        32.7 123 
 LA4  SE IS        749 14.62                             103   -0.0210 32.7 123 
 LA4  SZ  AML      749 15.39        37.8 0.56                          32.7 123 
                                                                                
