 2009  425 0612 59.1 L  21.159 -99.212 37.8  RAL  2 0.3 0.9LRAL                1
 GAP=326        1.87      14.6     7.6 21.6 -0.5331E+02  0.4951E+02 -0.1656E+03E
 ACTION:UPD 12-06-08 11:37 OP:RALL STATUS:               ID:20090425061259     I
 2009-04-25-0612-52S.PLUR1_006                                                 6
 STAT SP IPHASW D HRMM SECON CODA AMPLIT PERI AZIMU VELO AIN AR TRES W  DIS CAZ7
 LO8  SN IP        613  5.92                             180    1.0010 0.17 310 
 LO8  SZ E         613  5.95                  124.6  7.3     -4        0.17 310 
 LO8  SE IS        613  9.19                             180    0.0010 0.17 310 
 LO8  SZ  AML      613  9.52         3.5 0.36                          0.17 310 
 LA4  SN IP        613  7.08                             125    0.0110 37.4 344 
 LA4  SZ E         613  7.09                  162.5  7.4     -1        37.4 344 
 LA4  SE IS        613 11.91                             125   -1.0010 37.4 344 
 LA4  SZ  AML      613 12.60        37.1 0.36                          37.4 344 
                                                                                
