 2009  425 0713 37.6 L  21.340 -99.295 10.0  RAL  1 0.1 0.4LRAL                1
 GAP=360        0.37       6.4    17.4  0.0 -0.1111E+03  0.4951E+02 -0.1656E+03E
 ACTION:UPD 12-06-08 11:37 OP:RALL STATUS:               ID:20090425071337     I
 2009-04-25-0713-31S.PLUR1_003                                                 6
 STAT SP IPHASW D HRMM SECON CODA AMPLIT PERI AZIMU VELO AIN AR TRES W  DIS CAZ7
 LZ4  SZ E         713 39.48                  291.5 24.5      0        2.83 111 
 LZ4  SN IP        713 39.62                             165    0.1510 2.83 111 
 LZ4  SE IS        713 40.70                             165   -0.1510 2.83 111 
 LZ4  SZ  AML      713 40.79        13.0 0.22                          2.83 111 
                                                                                
