 2009  425 0400 35.9 L  21.321 -99.272 10.0  RAL  1 0.4 0.4LRAL                1
 GAP=360        3.85     682.0   755.6  0.0 -0.5152E+06  0.4688E+02  0.5649E+00E
 ACTION:UPD 12-06-08 11:37 OP:RALL STATUS:               ID:20090425040035     I
 2009-04-25-0400-29S.PLUR1_003                                                 6
 STAT SP IPHASW D HRMM SECON CODA AMPLIT PERI AZIMU VELO AIN AR TRES W  DIS CAZ7
 LZ4  SZ E         4 0 38.27                  178.1 25.1    -17        1.08  16 
 LZ4  SN IP        4 0 38.29                             174    0.5410 1.08  16 
 LZ4  SE IS        4 0 38.56                             174   -0.5410 1.08  16 
 LZ4  SZ  AML      4 0 38.81        13.2 0.18                          1.08  16 
                                                                                
