 2009  425 0151 46.9 L  21.252 -99.237 10.0  RAL  1 0.0 0.6LRAL                1
 GAP=360        0.30       5.0     2.1  0.0 -0.1052E+02  0.4688E+02  0.5649E+00E
 ACTION:UPD 12-06-08 11:37 OP:RALL STATUS:               ID:20090425015146     I
 2009-04-25-0151-41S.PLUR1_003                                                 6
 STAT SP IPHASW D HRMM SECON CODA AMPLIT PERI AZIMU VELO AIN AR TRES W  DIS CAZ7
 LZ4  SZ E         151 49.33                  158.8 14.8      0        9.39 339 
 LZ4  SN IP        151 49.35                             137    0.0210 9.39 339 
 LZ4  SE IS        151 51.06                             137   -0.0210 9.39 339 
 LZ4  SZ  AML      151 52.38        18.2 0.38                          9.39 339 
                                                                                
