 2009  425 0501 35.8 L  21.282 -99.097 10.0  RAL  1 0.0 1.7LRAL                1
 GAP=360        0.30       1.3     4.2  0.0 -0.4908E+01  0.4688E+02  0.5649E+00E
 ACTION:UPD 12-06-08 11:37 OP:RALL STATUS:               ID:20090425050135     I
 2009-04-25-0501-29S.PLUR1_003                                                 6
 STAT SP IPHASW D HRMM SECON CODA AMPLIT PERI AZIMU VELO AIN AR TRES W  DIS CAZ7
 LZ4  SZ E         5 1 39.31                  106.8 36.1      0        18.6 287 
 LZ4  SN IP        5 1 39.39                             115    0.0010 18.6 287 
 LZ4  SE IS        5 1 42.00                             115    0.0010 18.6 287 
 LZ4  SZ  AML      5 1 42.47       138.0 0.44                          18.6 287 
                                                                                
