 2009  425 1116 24.2 L  21.475 -98.984 10.0  RAL  1 0.0 0.3LRAL                1
 GAP=360        0.30       0.9     4.1  0.0 -0.4092E+00  0.4951E+02 -0.1656E+03E
 ACTION:UPD 12-06-08 11:37 OP:RALL STATUS:               ID:20090425111624     I
 2009-04-25-1116-20S.PLUR1_003                                                 6
 STAT SP IPHASW D HRMM SECON CODA AMPLIT PERI AZIMU VELO AIN AR TRES W  DIS CAZ7
 LA4  SN IP       1116 30.01                             102    0.0110 33.7 272 
 LA4  SZ E        1116 30.03                   91.5 15.4      0        33.7 272 
 LA4  SE IS       1116 34.24                             102   -0.0110 33.7 272 
 LA4  SZ  AML     1116 36.31         3.5 0.20                          33.7 272 
                                                                                
