 2009  425 1000 15.1 L  21.751 -99.795 10.0  RAL  1 0.0 1.3LRAL                1
 GAP=360        0.30       2.8     3.3  0.0 -0.5502E+01  0.4951E+02 -0.1656E+03E
 ACTION:UPD 12-06-08 11:37 OP:RALL STATUS:               ID:20090425100015     I
 2009-04-25-1000-18S.PLUR1_003                                                 6
 STAT SP IPHASW D HRMM SECON CODA AMPLIT PERI AZIMU VELO AIN AR TRES W  DIS CAZ7
 LZ4  SZ E        10 0 26.75                  310.6 26.3      0        71.6 130 
 LZ4  SN IP       10 0 26.76                              95    0.0110 71.6 130 
 LZ4  SE IS       10 0 35.23                              95   -0.0110 71.6 130 
 LZ4  SZ  AML     10 0 37.41        14.7 0.10                          71.6 130 
                                                                                
