 2009  425 1506 51.7 L  21.313 -99.262 10.0  RAL  1 0.2 0.4LRAL                1
 GAP=360        0.98     784.9   999.9  0.0  0.1616E+07  0.4951E+02 -0.1656E+03E
 ACTION:UPD 12-06-08 11:37 OP:RALL STATUS:               ID:20090425150651     I
 2009-04-25-1506-45S.PLUR1_003                                                 6
 STAT SP IPHASW D HRMM SECON CODA AMPLIT PERI AZIMU VELO AIN AR TRES W  DIS CAZ7
 LZ4  SZ E        15 6 54.05                  156.4 14.6     -2        2.07 339 
 LZ4  SN IP       15 6 54.06                             169    0.4510 2.07 339 
 LZ4  SE IS       15 6 54.51                             169   -0.4510 2.07 339 
 LZ4  SZ  AML     15 6 54.69        14.6 0.56                          2.07 339 
                                                                                
