 2009  425 1648 36.3 L  21.246 -99.257 10.0  RAL  1 0.0 1.6LRAL                1
 GAP=360        0.30       5.3     0.8  0.0 -0.4216E+01  0.4951E+02 -0.1656E+03E
 ACTION:UPD 12-06-08 11:37 OP:RALL STATUS:               ID:20090425164836     I
 2009-04-25-1648-29S.PLUR1_003                                                 6
 STAT SP IPHASW D HRMM SECON CODA AMPLIT PERI AZIMU VELO AIN AR TRES W  DIS CAZ7
 LZ4  SZ E        1648 38.70                  172.0 12.3      0        9.46 352 
 LZ4  SN IP       1648 38.70                             136    0.0010 9.46 352 
 LZ4  SE IS       1648 40.45                             136    0.0010 9.46 352 
 LZ4  SZ  AML     1648 41.39       179.2 0.24                          9.46 352 
                                                                                
