 2009  425 1533 48.8 L  21.313 -99.256 10.0  RAL  1 0.2 0.3LRAL                1
 GAP=360        0.76      33.4    25.0  0.0 -0.8353E+03  0.4951E+02 -0.1656E+03E
 ACTION:UPD 12-06-08 11:37 OP:RALL STATUS:               ID:20090425153348     I
 2009-04-25-1533-42S.PLUR1_003                                                 6
 STAT SP IPHASW D HRMM SECON CODA AMPLIT PERI AZIMU VELO AIN AR TRES W  DIS CAZ7
 LZ4  SZ E        1533 51.12                  145.1 19.3      0        2.45 325 
 LZ4  SN IP       1533 51.14                             167    0.4710 2.45 325 
 LZ4  SE IS       1533 51.57                             167   -0.4710 2.45 325 
 LZ4  SZ  AML     1533 51.64        11.0 0.18                          2.45 325 
                                                                                
