 2009  425 1616 29.8 L  21.356 -99.262 10.0  RAL  1 0.0 1.7LRAL                1
 GAP=360        0.34      15.2     4.2  0.0  0.6412E+02  0.4951E+02 -0.1656E+03E
 ACTION:UPD 12-06-08 11:37 OP:RALL STATUS:               ID:20090425161629     I
 2009-04-25-1616-22S.PLUR1_003                                                 6
 STAT SP IPHASW D HRMM SECON CODA AMPLIT PERI AZIMU VELO AIN AR TRES W  DIS CAZ7
 LZ4  SZ E        1616 31.80                   14.5 19.1      0        2.91 194 
 LZ4  SN IP       1616 31.82                             164    0.1210 2.91 194 
 LZ4  SE IS       1616 32.97                             164   -0.1210 2.91 194 
 LZ4  SZ  AML     1616 34.09       255.4 0.28                          2.91 194 
                                                                                
