 2009  425 1004 32.7 L  21.251 -99.249 10.0  RAL  1 0.0 1.3LRAL                1
 GAP=360        0.30       5.3     1.4  0.0 -0.7413E+01  0.4951E+02 -0.1656E+03E
 ACTION:UPD 12-06-08 11:37 OP:RALL STATUS:               ID:20090425100432     I
 2009-04-25-1004-25S.PLUR1_003                                                 6
 STAT SP IPHASW D HRMM SECON CODA AMPLIT PERI AZIMU VELO AIN AR TRES W  DIS CAZ7
 LZ4  SZ E        10 4 35.07                  166.2 14.0      0        9.12 346 
 LZ4  SN IP       10 4 35.07                             137    0.0110 9.12 346 
 LZ4  SE IS       10 4 36.78                             137   -0.0110 9.12 346 
 LZ4  SZ  AML     10 4 37.75        85.8 0.24                          9.12 346 
                                                                                
