 2009  425 1801  3.8 L  21.086 -99.135 10.0  RAL  1 0.0 0.0LRAL                1
 GAP=360        0.30       3.5     3.7  0.0 -0.1279E+02  0.4951E+02 -0.1656E+03E
 ACTION:UPD 12-06-08 11:37 OP:RALL STATUS:               ID:20090425180103     I
 2009-04-25-1800-59S.PLUR1_003                                                 6
 STAT SP IPHASW D HRMM SECON CODA AMPLIT PERI AZIMU VELO AIN AR TRES W  DIS CAZ7
 LO8  SN IP       18 1  6.48                             131    0.0110 11.5 315 
 LO8  SZ E        18 1  6.52                  135.4  7.9      0        11.5 315 
 LO8  SE IS       18 1  8.42                             131   -0.0110 11.5 315 
 LO8  SZ  AML     18 1  9.98         4.2 0.52                          11.5 315 
                                                                                
