 2009  425 1741 33.3 L  21.387 -99.572 10.0  RAL  1 0.0 0.9LRAL                1
 GAP=360        0.30       1.1     4.0  0.0 -0.2790E+01  0.4951E+02 -0.1656E+03E
 ACTION:UPD 12-06-08 11:37 OP:RALL STATUS:               ID:20090425174133     I
 2009-04-25-1741-33S.PLUR1_003                                                 6
 STAT SP IPHASW D HRMM SECON CODA AMPLIT PERI AZIMU VELO AIN AR TRES W  DIS CAZ7
 LZ4  SZ E        1741 38.82                  281.2 10.2      0        32.0 101 
 LZ4  SN IP       1741 38.88                             103    0.0110 32.0 101 
 LZ4  SE IS       1741 42.91                             103   -0.0110 32.0 101 
 LZ4  SZ  AML     1741 43.32        15.5 0.22                          32.0 101 
                                                                                
