 2009  425 2013 46.3 L  21.516 -99.474 10.0  RAL  1 0.0 0.7LRAL                1
 GAP=360        0.30       2.7     3.0  0.0 -0.7505E+01  0.4951E+02 -0.1656E+03E
 ACTION:UPD 12-06-08 11:37 OP:RALL STATUS:               ID:20090425201346     I
 2009-04-25-2013-45S.PLUR1_003                                                 6
 STAT SP IPHASW D HRMM SECON CODA AMPLIT PERI AZIMU VELO AIN AR TRES W  DIS CAZ7
 LZ4  SZ E        2013 51.36                  314.0 12.7      0        29.5 134 
 LZ4  SN IP       2013 51.43                             104    0.0010 29.5 134 
 LZ4  SE IS       2013 55.20                             104    0.0010 29.5 134 
 LZ4  SZ  AML     2013 56.91        10.6 0.50                          29.5 134 
                                                                                
