 2009  426 0230 18.4 L  21.322 -99.268 10.0  RAL  1 0.1 0.3LRAL                1
 GAP=360        0.86      89.1   999.9  0.0  0.1644E+06  0.4951E+02 -0.1656E+03E
 ACTION:UPD 12-06-08 11:37 OP:RALL STATUS:               ID:20090426023018     I
 2009-04-26-0230-12S.PLUR1_003                                                 6
 STAT SP IPHASW D HRMM SECON CODA AMPLIT PERI AZIMU VELO AIN AR TRES W  DIS CAZ7
 LZ4  SZ E         230 20.37                  177.0 23.7      4        1.00 353 
 LZ4  SN IP        230 20.41                             174    0.1710 1.00 353 
 LZ4  SE IS        230 21.42                             174   -0.1710 1.00 353 
 LZ4  SZ  AML      230 21.54        10.2 0.24                          1.00 353 
                                                                                
