 2009  426 0640 44.2 L  21.335 -99.273 10.0  RAL  1 0.4 0.2LRAL                1
 GAP=360        4.67     613.5   999.9  0.0  0.1794E+07  0.4951E+02 -0.1656E+03E
 ACTION:UPD 12-06-08 11:37 OP:RALL STATUS:               ID:20090426064044     I
 2009-04-26-0640-37S.PLUR1_003                                                 6
 STAT SP IPHASW D HRMM SECON CODA AMPLIT PERI AZIMU VELO AIN AR TRES W  DIS CAZ7
 LZ4  SZ E         640 46.27                  347.6 32.9     22        0.58 145 
 LZ4  SN IP        640 46.28                             177    0.2210 0.58 145 
 LZ4  SE IS        640 47.17                             177   -0.2210 0.58 145 
 LZ4  SZ  AML      640 47.56         9.1 0.14                          0.58 145 
                                                                                
