 2009  426 1747 53.4 L  21.352 -99.289 10.0  RAL  1 0.2 0.5LRAL                1
 GAP=360        0.67      22.2    19.7  0.0 -0.4378E+03  0.4951E+02 -0.1656E+03E
 ACTION:UPD 12-06-08 11:37 OP:RALL STATUS:               ID:20090426174753     I
 2009-04-26-1747-46S.PLUR1_003                                                 6
 STAT SP IPHASW D HRMM SECON CODA AMPLIT PERI AZIMU VELO AIN AR TRES W  DIS CAZ7
 LZ4  SZ E        1747 55.70                  320.5 10.9      0        3.10 140 
 LZ4  SN IP       1747 55.71                             163    0.4010 3.10 140 
 LZ4  SE IS       1747 56.29                             163   -0.4010 3.10 140 
 LZ4  SZ  AML     1747 56.33        17.8 0.10                          3.10 140 
                                                                                
