 2009  426 1425 44.8 L  21.346 -99.278 10.0  RAL  1 0.1 0.7LRAL                1
 GAP=360        0.64      39.1    20.6  0.0 -0.8057E+03  0.4951E+02 -0.1656E+03E
 ACTION:UPD 12-06-08 11:37 OP:RALL STATUS:               ID:20090426142544     I
 2009-04-26-1425-38S.PLUR1_003                                                 6
 STAT SP IPHASW D HRMM SECON CODA AMPLIT PERI AZIMU VELO AIN AR TRES W  DIS CAZ7
 LZ4  SN IP       1425 47.06                             169    0.3810 1.92 154 
 LZ4  SZ E        1425 47.07                  333.8 12.0      0        1.92 154 
 LZ4  SE IS       1425 47.65                             169   -0.3810 1.92 154 
 LZ4  SZ  AML     1425 47.72        27.0 0.16                          1.92 154 
                                                                                
