 2009  427 0201 54.0 L  21.508 -99.314 10.0  RAL  1 0.0 0.3LRAL                1
 GAP=360        0.30      14.2     2.7  0.0 -0.3842E+02  0.4951E+02 -0.1656E+03E
 ACTION:UPD 12-06-08 11:37 OP:RALL STATUS:               ID:20090427020154     I
 2009-04-27-0201-42S.PLUR1_003                                                 6
 STAT SP IPHASW D HRMM SECON CODA AMPLIT PERI AZIMU VELO AIN AR TRES W  DIS CAZ7
 LA4  SZ E         2 1 55.95                  350.0  7.9      0        2.78 170 
 LA4  SN IP        2 1 55.98                             165    0.0310 2.78 170 
 LA4  SE IS        2 1 57.30                             165   -0.0310 2.78 170 
 LA4  SZ  AML      2 1 57.73        10.8 0.26                          2.78 170 
                                                                                
