 2009  427 0750 25.4 L  21.296 -99.484 10.0  RAL  1 0.0 1.1LRAL                1
 GAP=360        0.30       2.9     2.8  0.0  0.7576E+01  0.4951E+02 -0.1656E+03E
 ACTION:UPD 12-06-08 11:37 OP:RALL STATUS:               ID:20090427075025     I
 2009-04-27-0750-16S.PLUR1_003                                                 6
 STAT SP IPHASW D HRMM SECON CODA AMPLIT PERI AZIMU VELO AIN AR TRES W  DIS CAZ7
 LA4  SZ E         750 30.28                  221.2 18.5      0        27.5  41 
 LA4  SN IP        750 30.33                             106    0.0010 27.5  41 
 LA4  SE IS        750 33.89                             106    0.0010 27.5  41 
 LA4  SZ  AML      750 34.99        23.6 0.46                          27.5  41 
                                                                                
