 2009  427 0106 22.1 L  21.600 -99.339 10.0  RAL  1 0.0 0.4LRAL                1
 GAP=360        0.30       4.4     1.2  0.0 -0.5097E+01  0.4951E+02 -0.1656E+03E
 ACTION:UPD 12-06-08 11:37 OP:RALL STATUS:               ID:20090427010622     I
 2009-04-27-0106-12S.PLUR1_003                                                 6
 STAT SP IPHASW D HRMM SECON CODA AMPLIT PERI AZIMU VELO AIN AR TRES W  DIS CAZ7
 LA4  SN IP        1 6 24.92                             126    0.0010 13.2 166 
 LA4  SZ E         1 6 24.97                  346.4  7.1      0        13.2 166 
 LA4  SE IS        1 6 27.00                             126    0.0010 13.2 166 
 LA4  SZ  AML      1 6 27.23         9.7 0.30                          13.2 166 
                                                                                
