 2009  427 1348  4.6 L  21.333 -99.291 10.0  RAL  1 0.1 0.7LRAL                1
 GAP=360        0.48     999.9   143.3  0.0  0.1610E+06  0.4951E+02 -0.1656E+03E
 ACTION:UPD 12-06-08 11:37 OP:RALL STATUS:               ID:20090427134804     I
 2009-04-27-1347-57S.PLUR1_003                                                 6
 STAT SP IPHASW D HRMM SECON CODA AMPLIT PERI AZIMU VELO AIN AR TRES W  DIS CAZ7
 LZ4  SZ E        1348  6.65                  275.3 18.8      0        2.23  95 
 LZ4  SN IP       1348  6.71                             168    0.2610 2.23  95 
 LZ4  SE IS       1348  7.56                             168   -0.2610 2.23  95 
 LZ4  SZ  AML     1348  8.24        29.4 0.12                          2.23  95 
                                                                                
