 2009  427 2207 11.5 L  21.335 -99.283 10.0  RAL  1 0.1 0.4LRAL                1
 GAP=360        0.44      11.1    38.8  0.0 -0.4315E+03  0.4951E+02 -0.1656E+03E
 ACTION:UPD 12-06-08 11:37 OP:RALL STATUS:               ID:20090427220711     I
 2009-04-27-2207-05S.PLUR1_003                                                 6
 STAT SP IPHASW D HRMM SECON CODA AMPLIT PERI AZIMU VELO AIN AR TRES W  DIS CAZ7
 LZ4  SZ E        22 7 13.56                  287.3 15.5      0        1.52 107 
 LZ4  SN IP       22 7 13.58                             172    0.2210 1.52 107 
 LZ4  SZ  AML     22 7 14.34        14.8 0.52                          1.52 107 
 LZ4  SE IS       22 7 14.49                             172   -0.2210 1.52 107 
                                                                                
