 2009  428 0522 39.7 L  21.257 -99.409 10.0  RAL  1 0.0 0.8LRAL                1
 GAP=360        0.30       2.1     3.9  0.0  0.8063E+01  0.4951E+02 -0.1656E+03E
 ACTION:UPD 12-06-08 11:37 OP:RALL STATUS:               ID:20090428052239     I
 2009-04-28-0522-33S.PLUR1_003                                                 6
 STAT SP IPHASW D HRMM SECON CODA AMPLIT PERI AZIMU VELO AIN AR TRES W  DIS CAZ7
 LZ4  SZ E         522 42.80                  240.7 31.1      0        16.6  61 
 LZ4  SN IP        522 42.96                             119    0.0110 16.6  61 
 LZ4  SE IS        522 45.35                             119   -0.0110 16.6  61 
 LZ4  SZ  AML      522 46.99        19.6 0.64                          16.6  61 
                                                                                
