 2009  428 0605  7.5 L  21.485 -99.529 10.0  RAL  1 0.0 0.9LRAL                1
 GAP=360        0.30       2.2     3.5  0.0 -0.6723E+01  0.4951E+02 -0.1656E+03E
 ACTION:UPD 12-06-08 11:37 OP:RALL STATUS:               ID:20090428060507     I
 2009-04-28-0605-07S.PLUR1_003                                                 6
 STAT SP IPHASW D HRMM SECON CODA AMPLIT PERI AZIMU VELO AIN AR TRES W  DIS CAZ7
 LZ4  SZ E         6 5 13.02                  302.3 12.1      0        31.9 122 
 LZ4  SN IP        6 5 13.06                             103    0.0210 31.9 122 
 LZ4  SE IS        6 5 17.05                             103   -0.0210 31.9 122 
 LZ4  SZ  AML      6 5 18.33        12.8 0.26                          31.9 122 
                                                                                
