 2009  428 0916 52.6 L  21.482 -99.315 10.0  RAL  1 0.2 0.6LRAL                1
 GAP=360        0.76      36.8   171.7  0.0  0.6313E+04 -0.4028E+06  0.7481E+05E
 ACTION:UPD 12-06-08 11:37 OP:RALL STATUS:               ID:20090428091652     I
 2009-04-28-0916-40S.PLUR1_003                                                 6
 STAT SP IPHASW D HRMM SECON CODA AMPLIT PERI AZIMU VELO AIN AR TRES W  DIS CAZ7
 LA4  SZ E         916 54.83                  256.8 26.1      0        0.61  77 
 LA4  SN IP        916 54.88                             177    0.4710 0.61  77 
 LA4  SZ  AML      916 55.27        22.2 0.20                          0.61  77 
 LA4  SE IS        916 55.28                             177   -0.4710 0.61  77 
                                                                                
