 2009  428 0228 16.6 L  21.605 -99.218 10.0  RAL  1 0.0 0.8LRAL                1
 GAP=360        0.30       3.5     2.7  0.0  0.9017E+01  0.4951E+02 -0.1656E+03E
 ACTION:UPD 12-06-08 11:37 OP:RALL STATUS:               ID:20090428022816     I
 2009-04-28-0228-07S.PLUR1_003                                                 6
 STAT SP IPHASW D HRMM SECON CODA AMPLIT PERI AZIMU VELO AIN AR TRES W  DIS CAZ7
 LA4  SZ E         228 19.70                   35.1 11.3      0        16.3 215 
 LA4  SN IP        228 19.91                             119    0.0110 16.3 215 
 LA4  SE IS        228 22.28                             119   -0.0110 16.3 215 
 LA4  SZ  AML      228 22.85        18.0 0.24                          16.3 215 
                                                                                
