 2009  428 0722 48.5 L  21.550 -99.770  6.9  RAL  2 1.2 0.7LRAL                1
 GAP=339       19.28     112.4   472.2914.7 -0.4014E+05 -0.4028E+06  0.7481E+05E
 ACTION:UPD 12-06-08 11:37 OP:RALL STATUS:               ID:20090428072248     I
 2009-04-28-0722-47S.PLUR1_006                                                 6
 STAT SP IPHASW D HRMM SECON CODA AMPLIT PERI AZIMU VELO AIN AR TRES W  DIS CAZ7
 LA4  SZ E         722 58.12                  306.3 27.7     27        48.3  99 
 LA4  SN IP        722 58.17                              63    1.6310 48.3  99 
 LA4  SE IS        723  1.37                              63   -1.0110 48.3  99 
 LA4  SZ  AML      723  2.84         6.8 0.70                          48.3  99 
 LG3  SN IP        722 59.63                              63    1.0210 61.6 119 
 LG3  SZ E         722 59.65                  210.3 11.6    -88        61.6 119 
 LG3  SE IS        723  4.32                              63   -1.6410 61.6 119 
 LG3  SZ  AML      723  7.29         3.8 0.22                          61.6 119 
                                                                                
