 2009  428 2239 57.7 L  21.500 -99.327 10.0  RAL  1 0.2 0.0LRAL                1
 GAP=360        0.79      28.1    31.5  0.0 -0.8837E+03 -0.4028E+06  0.7481E+05E
 ACTION:UPD 12-06-08 11:37 OP:RALL STATUS:               ID:20090428223957     I
 2009-04-28-2239-46S.PLUR1_003                                                 6
 STAT SP IPHASW D HRMM SECON CODA AMPLIT PERI AZIMU VELO AIN AR TRES W  DIS CAZ7
 LA4  SZ E        2240  0.04                  313.8 15.1      0        2.61 134 
 LA4  SN IP       2240  0.07                             166    0.5010 2.61 134 
 LA4  SE IS       2240  0.46                             166   -0.5010 2.61 134 
 LA4  SZ  AML     2240  0.55         5.7 0.20                          2.61 134 
                                                                                
