 2009  429 0115 20.4 L  21.348 -99.280 10.0  RAL  1 0.3 0.6LRAL                1
 GAP=360        2.40     999.9   999.9  0.0  0.1078E+08 -0.4028E+06  0.7481E+05E
 ACTION:UPD 12-06-08 11:37 OP:RALL STATUS:               ID:20090429011520     I
 2009-04-29-0115-13S.PLUR1_003                                                 6
 STAT SP IPHASW D HRMM SECON CODA AMPLIT PERI AZIMU VELO AIN AR TRES W  DIS CAZ7
 LZ4  SN IP        115 22.80                             168    0.5810 2.16 151 
 LZ4  SZ E         115 22.80                  319.9 11.7    -10        2.16 151 
 LZ4  SE IS        115 23.00                             168   -0.5810 2.16 151 
 LZ4  SZ  AML      115 23.08        23.3 0.48                          2.16 151 
                                                                                
