 2009  429 0712 57.3 L  21.487 -99.319 10.0  RAL  1 0.2 0.4LRAL                1
 GAP=360        0.73     999.9   999.9  0.0  0.8617E+07 -0.4028E+06  0.7481E+05E
 ACTION:UPD 12-06-08 11:37 OP:RALL STATUS:               ID:20090429071257     I
 2009-04-29-0712-45S.PLUR1_003                                                 6
 STAT SP IPHASW D HRMM SECON CODA AMPLIT PERI AZIMU VELO AIN AR TRES W  DIS CAZ7
 LA4  SZ E         712 59.60                  287.5 22.0      0        1.10 108 
 LA4  SN IP        712 59.61                             174    0.4510 1.10 108 
 LA4  SE IS        713  0.07                             174   -0.4510 1.10 108 
 LA4  SZ  AML      713  0.13        13.0 0.20                          1.10 108 
                                                                                
