 2009  429 0922 13.3 L  21.536 -99.505 10.0  RAL  1 0.0 1.1LRAL                1
 GAP=360        0.30       2.7     3.1  0.0 -0.7363E+01  0.2858E+02 -0.3548E+02E
 ACTION:UPD 12-06-08 11:37 OP:RALL STATUS:               ID:20090429092213     I
 2009-04-29-0922-13S.PLUR1_003                                                 6
 STAT SP IPHASW D HRMM SECON CODA AMPLIT PERI AZIMU VELO AIN AR TRES W  DIS CAZ7
 LZ4  SZ E         922 19.03                  313.0 13.3      0        33.3 133 
 LZ4  SN IP        922 19.04                             102    0.0210 33.3 133 
 LZ4  SE IS        922 23.19                             102   -0.0210 33.3 133 
 LZ4  SZ  AML      922 24.29        19.5 0.54                          33.3 133 
                                                                                
