 2009  429 0738 11.8 L  21.107 -99.118 21.7  RAL  3 0.7 2.4LRAL                1
 GAP=326        4.90      16.7    19.6 35.6 -0.3052E+03  0.2858E+02 -0.3548E+02E
 ACTION:UPD 12-06-08 11:37 OP:RALL STATUS:               ID:20090429073811     I
 2009-04-29-0738-06S.PLUR1_009                                                 6
 STAT SP IPHASW D HRMM SECON CODA AMPLIT PERI AZIMU VELO AIN AR TRES W  DIS CAZ7
 LO8  SN IP        738 18.23                             152    2.2610 11.5 301 
 LO8  SZ E         738 18.35                  136.6  6.5     16        11.5 301 
 LO8  SE IS        738 20.33                             152    1.3510 11.5 301 
 LO8  SZ  AML      738 21.82        79.8 0.52                          11.5 301 
 LG3  SZ E         738 17.12                  131.5 11.9    -11        23.4 323 
 LG3  SN IP        738 17.14                             132    0.0810 23.4 323 
 LG3  SE IS        738 18.17                             132   -2.7010 23.4 323 
 LG3  SZ  AML      738 18.35      3518.5 0.30                          23.4 323 
 LA4  SN IP        738 20.44                             111    0.4010 46.2 335 
 LA4  SZ E         738 20.45                  154.7  7.6      0        46.2 335 
 LA4  SE IS        738 24.62                             111   -1.3910 46.2 335 
 LA4  SZ  AML      738 26.10       257.1 0.56                          46.2 335 
                                                                                
