 2009  429 1158 40.7 L  21.314 -99.249 10.0  RAL  1 0.2 0.3LRAL                1
 GAP=360        0.67      21.0    26.1  0.0 -0.5466E+03  0.2858E+02 -0.3548E+02E
 ACTION:UPD 12-06-08 11:37 OP:RALL STATUS:               ID:20090429115840     I
 2009-04-29-1158-33S.PLUR1_003                                                 6
 STAT SP IPHASW D HRMM SECON CODA AMPLIT PERI AZIMU VELO AIN AR TRES W  DIS CAZ7
 LZ4  SZ E        1158 42.98                  130.8 11.8      0        2.80 311 
 LZ4  SN IP       1158 43.02                             165    0.4110 2.80 311 
 LZ4  SE IS       1158 43.58                             165   -0.4110 2.80 311 
 LZ4  SZ  AML     1158 45.53        10.5 0.68                          2.80 311 
                                                                                
