 2009  429 1008 43.0 L  21.243 -99.253 10.0  RAL  1 0.0 0.5LRAL                1
 GAP=360        0.30       5.1     1.0  0.0 -0.5135E+01  0.2858E+02 -0.3548E+02E
 ACTION:UPD 12-06-08 11:37 OP:RALL STATUS:               ID:20090429100843     I
 2009-04-29-1008-37S.PLUR1_003                                                 6
 STAT SP IPHASW D HRMM SECON CODA AMPLIT PERI AZIMU VELO AIN AR TRES W  DIS CAZ7
 LZ4  SN IP       10 8 45.46                             135    0.0110 9.87 350 
 LZ4  SZ E        10 8 45.47                  169.7 19.7      0        9.87 350 
 LZ4  SE IS       10 8 47.24                             135   -0.0110 9.87 350 
 LZ4  SZ  AML     10 8 47.73        13.4 0.38                          9.87 350 
                                                                                
