 2009  429 1029 43.4 L  21.662 -99.180 10.0  RAL  1 0.0 0.8LRAL                1
 GAP=360        0.30       3.3     2.4  0.0  0.7439E+01  0.2858E+02 -0.3548E+02E
 ACTION:UPD 12-06-08 11:37 OP:RALL STATUS:               ID:20090429102943     I
 2009-04-29-1029-36S.PLUR1_003                                                 6
 STAT SP IPHASW D HRMM SECON CODA AMPLIT PERI AZIMU VELO AIN AR TRES W  DIS CAZ7
 LA4  SZ E        1029 47.63                   34.0 12.0      0        23.8 214 
 LA4  SN IP       1029 47.72                             109    0.0010 23.8 214 
 LA4  SE IS       1029 50.88                             109    0.0010 23.8 214 
 LA4  SZ  AML     1029 51.75        14.1 0.28                          23.8 214 
                                                                                
