 2009  429 1042 21.5 L  21.422 -99.554 10.0  RAL  1 0.0 0.3LRAL                1
 GAP=360        0.30       1.2     4.0  0.0  0.3925E+01  0.2858E+02 -0.3548E+02E
 ACTION:UPD 12-06-08 11:37 OP:RALL STATUS:               ID:20090429104221     I
 2009-04-29-1042-15S.PLUR1_003                                                 6
 STAT SP IPHASW D HRMM SECON CODA AMPLIT PERI AZIMU VELO AIN AR TRES W  DIS CAZ7
 LA4  SZ E        1042 26.08                  255.0  9.7      0        26.3  75 
 LA4  SN IP       1042 26.20                             107    0.0210 26.3  75 
 LA4  SE IS       1042 29.60                             107   -0.0210 26.3  75 
 LA4  SZ  AML     1042 30.62         4.5 0.74                          26.3  75 
                                                                                
