 2009  429 1945 13.2 L  21.521 -99.328 10.0  RAL  1 0.0 0.8LRAL                1
 GAP=360        0.31       8.6     4.4  0.0 -0.3812E+02  0.2858E+02 -0.3548E+02E
 ACTION:UPD 12-06-08 11:37 OP:RALL STATUS:               ID:20090429194513     I
 2009-04-29-1945-01S.PLUR1_003                                                 6
 STAT SP IPHASW D HRMM SECON CODA AMPLIT PERI AZIMU VELO AIN AR TRES W  DIS CAZ7
 LA4  SN IP       1945 15.22                             156    0.0610 4.58 154 
 LA4  SZ E        1945 15.23                  334.4  9.5      0        4.58 154 
 LA4  SE IS       1945 16.55                             156   -0.0610 4.58 154 
 LA4  SZ  AML     1945 16.61        33.8 0.10                          4.58 154 
                                                                                
