 2009  429 2014 55.0 L  20.962 -98.783 10.0  RAL  1 0.0 1.4LRAL                1
 GAP=360        0.30       2.7     3.3  0.0 -0.5757E+01  0.2858E+02 -0.3548E+02E
 ACTION:UPD 12-06-08 11:37 OP:RALL STATUS:               ID:20090429201455     I
 2009-04-29-2014-56S.PLUR1_003                                                 6
 STAT SP IPHASW D HRMM SECON CODA AMPLIT PERI AZIMU VELO AIN AR TRES W  DIS CAZ7
 LZ4  SZ E        2015  5.39                  128.9  8.7      0        65.0 309 
 LZ4  SN IP       2015  5.65                              95    0.0110 65.0 309 
 LZ4  SE IS       2015 13.37                              95   -0.0110 65.0 309 
 LZ4  SZ  AML     2015 15.04        24.4 0.26                          65.0 309 
                                                                                
