 2009  430 0635 24.5 L  21.694 -99.302 10.0  RAL  1 0.0 1.1LRAL                1
 GAP=360        0.30       3.7     1.2  0.0 -0.1168E+01  0.2858E+02 -0.3548E+02E
 ACTION:UPD 12-06-08 11:37 OP:RALL STATUS:               ID:20090430063524     I
 2009-04-30-0635-27S.PLUR1_003                                                 6
 STAT SP IPHASW D HRMM SECON CODA AMPLIT PERI AZIMU VELO AIN AR TRES W  DIS CAZ7
 LZ4  SN IP        635 31.29                             100    0.0110 40.3 175 
 LZ4  SZ E         635 31.35                  355.2  6.8      0        40.3 175 
 LZ4  SE IS        635 36.25                             100   -0.0110 40.3 175 
 LZ4  SZ  AML      635 39.59        16.5 0.48                          40.3 175 
                                                                                
