 2009  430 0757 22.1 L  21.669 -99.371 10.0  RAL  1 0.0 0.8LRAL                1
 GAP=360        0.30       3.8     1.4  0.0 -0.4782E+01  0.2858E+02 -0.3548E+02E
 ACTION:UPD 12-06-08 11:37 OP:RALL STATUS:               ID:20090430075722     I
 2009-04-30-0757-14S.PLUR1_003                                                 6
 STAT SP IPHASW D HRMM SECON CODA AMPLIT PERI AZIMU VELO AIN AR TRES W  DIS CAZ7
 LA4  SZ E         757 26.13                  342.8  9.5      0        21.5 163 
 LA4  SN IP        757 26.13                             112    0.0210 21.5 163 
 LA4  SE IS        757 29.00                             112   -0.0210 21.5 163 
 LA4  SZ  AML      757 31.00        15.3 0.36                          21.5 163 
                                                                                
