 2009  430 0644 35.5 L  21.305 -99.250 10.0  RAL  1 0.1 0.6LRAL                1
 GAP=360        0.45      14.4    10.7  0.0 -0.1537E+03  0.2858E+02 -0.3548E+02E
 ACTION:UPD 12-06-08 11:37 OP:RALL STATUS:               ID:20090430064435     I
 2009-04-30-0644-29S.PLUR1_003                                                 6
 STAT SP IPHASW D HRMM SECON CODA AMPLIT PERI AZIMU VELO AIN AR TRES W  DIS CAZ7
 LZ4  SN IP        644 37.70                             161    0.2310 3.50 325 
 LZ4  SZ E         644 37.72                  145.4 13.1      0        3.50 325 
 LZ4  SE IS        644 38.64                             161   -0.2310 3.50 325 
 LZ4  SZ  AML      644 39.26        21.4 0.18                          3.50 325 
                                                                                
