 2009  430 0046 18.6 L  21.318 -99.269 10.0  RAL  1 0.0 0.2LRAL                1
 GAP=360        0.23       9.1    14.0 35.6 -0.6348E+00  0.2858E+02 -0.3548E+02E
 ACTION:UPD 12-06-08 11:37 OP:RALL STATUS:               ID:20090430004618     I
 2009-04-30-0046-12S.PLUR1_003                                                 6
 STAT SP IPHASW D HRMM SECON CODA AMPLIT PERI AZIMU VELO AIN AR TRES W  DIS CAZ7
 LZ4  SZ E         046 20.51                  179.6 29.9      0        1.47 360 
 LZ4  SN IP        046 20.52                             172    0.0310 1.47 360 
 LZ4  SE IS        046 21.81                             172   -0.0310 1.47 360 
 LZ4  SZ  AML      046 22.07         8.8 0.22                          1.47 360 
                                                                                
