 2009  430 0355 28.5 L  21.342 -99.277 10.0  RAL  1 0.2 0.4LRAL                1
 GAP=360        1.20      90.8    57.9  0.0 -0.5259E+04  0.2858E+02 -0.3548E+02E
 ACTION:UPD 12-06-08 11:37 OP:RALL STATUS:               ID:20090430035528     I
 2009-04-30-0355-21S.PLUR1_003                                                 6
 STAT SP IPHASW D HRMM SECON CODA AMPLIT PERI AZIMU VELO AIN AR TRES W  DIS CAZ7
 LZ4  SN IP        355 30.80                             172    0.4110 1.48 149 
 LZ4  SZ E         355 30.82                  334.0  7.3      5        1.48 149 
 LZ4  SE IS        355 31.32                             172   -0.4110 1.48 149 
 LZ4  SZ  AML      355 31.91        14.0 0.28                          1.48 149 
                                                                                
