 2009  430 1459 12.2 L  21.316 -99.265 10.0  RAL  1 0.1 0.5LRAL                1
 GAP=360        0.47     319.7   999.9  0.0  0.4040E+06  0.2858E+02 -0.3548E+02E
 ACTION:UPD 12-06-08 11:37 OP:RALL STATUS:               ID:20090430145912     I
 2009-04-30-1459-04S.PLUR1_003                                                 6
 STAT SP IPHASW D HRMM SECON CODA AMPLIT PERI AZIMU VELO AIN AR TRES W  DIS CAZ7
 LZ4  SZ E        1459 14.25                  164.1 23.9      1        1.73 343 
 LZ4  SN IP       1459 14.27                             171    0.2110 1.73 343 
 LZ4  SE IS       1459 15.20                             171   -0.2110 1.73 343 
 LZ4  SZ  AML     1459 15.71        18.7 0.26                          1.73 343 
                                                                                
