 2009  430 1032 50.1 L  21.311 -99.222 10.0  RAL  1 0.0 0.4LRAL                1
 GAP=360        0.30       3.4     7.9  0.0 -0.2639E+02  0.2858E+02 -0.3548E+02E
 ACTION:UPD 12-06-08 11:37 OP:RALL STATUS:               ID:20090430103250     I
 2009-04-30-1032-44S.PLUR1_003                                                 6
 STAT SP IPHASW D HRMM SECON CODA AMPLIT PERI AZIMU VELO AIN AR TRES W  DIS CAZ7
 LZ4  SZ E        1032 52.06                  114.6 16.1      0        5.38 295 
 LZ4  SN IP       1032 52.13                             152    0.0410 5.38 295 
 LZ4  SE IS       1032 53.54                             152   -0.0410 5.38 295 
 LZ4  SZ  AML     1032 54.12        14.0 0.22                          5.38 295 
                                                                                
