 2009  430 1152  0.1 L  21.669 -99.549 10.0  RAL  1 0.0 1.4LRAL                1
 GAP=360        0.30       3.0     2.7  0.0 -0.6502E+01  0.2858E+02 -0.3548E+02E
 ACTION:UPD 12-06-08 11:37 OP:RALL STATUS:               ID:20090430115200     I
 2009-04-30-1151-58S.PLUR1_003                                                 6
 STAT SP IPHASW D HRMM SECON CODA AMPLIT PERI AZIMU VELO AIN AR TRES W  DIS CAZ7
 LZ4  SZ E        1152  7.98                  322.3 13.5      0        47.3 142 
 LZ4  SN IP       1152  8.00                              98    0.0210 47.3 142 
 LZ4  SE IS       1152 13.73                              98   -0.0210 47.3 142 
 LZ4  SZ  AML     1152 14.32        28.9 0.16                          47.3 142 
                                                                                
