 2009  430 1314 26.2 L  21.593 -99.646 10.0  RAL  1 0.0 0.8LRAL                1
 GAP=360        0.30       1.5     3.8  0.0 -0.4401E+01  0.2858E+02 -0.3548E+02E
 ACTION:UPD 12-06-08 11:37 OP:RALL STATUS:               ID:20090430131426     I
 2009-04-30-1314-19S.PLUR1_003                                                 6
 STAT SP IPHASW D HRMM SECON CODA AMPLIT PERI AZIMU VELO AIN AR TRES W  DIS CAZ7
 LA4  SZ E        1314 32.46                  289.1 10.5      0        37.0 109 
 LA4  SN IP       1314 32.55                             101    0.0110 37.0 109 
 LA4  SE IS       1314 37.13                             101   -0.0110 37.0 109 
 LA4  SZ  AML     1314 37.61        10.2 0.68                          37.0 109 
                                                                                
