 2009  430 1155  7.9 L  21.256 -99.228 10.0  RAL  1 0.1 0.8LRAL                1
 GAP=360        0.46      12.2    15.5  0.0 -0.1891E+03  0.2858E+02 -0.3548E+02E
 ACTION:UPD 12-06-08 11:37 OP:RALL STATUS:               ID:20090430115507     I
 2009-04-30-1155-00S.PLUR1_003                                                 6
 STAT SP IPHASW D HRMM SECON CODA AMPLIT PERI AZIMU VELO AIN AR TRES W  DIS CAZ7
 LG3  SZ E        1155 10.02                  130.1 14.8      0        3.33 310 
 LG3  SN IP       1155 10.05                             162    0.2410 3.33 310 
 LG3  SE IS       1155 10.98                             162   -0.2410 3.33 310 
 LG3  SZ  AML     1155 11.17        34.9 0.24                          3.33 310 
                                                                                
