 2009  430 2306 53.5 L  21.351 -99.287 10.0  RAL  1 0.2 0.3LRAL                1
 GAP=360        0.70      25.4    21.4  0.0 -0.5432E+03  0.2858E+02 -0.3548E+02E
 ACTION:UPD 12-06-08 11:37 OP:RALL STATUS:               ID:20090430230653     I
 2009-04-30-2306-46S.PLUR1_003                                                 6
 STAT SP IPHASW D HRMM SECON CODA AMPLIT PERI AZIMU VELO AIN AR TRES W  DIS CAZ7
 LZ4  SZ E        23 6 55.75                  321.8 31.6      0        2.88 142 
 LZ4  SN IP       23 6 55.80                             164    0.4310 2.88 142 
 LZ4  SE IS       23 6 56.33                             164   -0.4310 2.88 142 
 LZ4  SZ  AML     23 6 56.71        11.5 0.16                          2.88 142 
                                                                                
