 2009  430 2313 48.2 L  21.323 -99.286 10.0  RAL  1 0.2 0.4LRAL                1
 GAP=360        0.66      19.5    42.9  0.0  0.8357E+03  0.2858E+02 -0.3548E+02E
 ACTION:UPD 12-06-08 11:37 OP:RALL STATUS:               ID:20090430231348     I
 2009-04-30-2313-41S.PLUR1_003                                                 6
 STAT SP IPHASW D HRMM SECON CODA AMPLIT PERI AZIMU VELO AIN AR TRES W  DIS CAZ7
 LZ4  SZ E        2313 50.37                  244.0 53.8      0        1.94  64 
 LZ4  SN IP       2313 50.46                             169    0.4010 1.94  64 
 LZ4  SE IS       2313 51.02                             169   -0.4010 1.94  64 
 LZ4  SZ  AML     2313 51.46        13.1 0.10                          1.94  64 
                                                                                
