 2010  8 4  119  8.3 L                       RAL                               1
 2010-08-04-0119-08S.PLUR1_003                                                 6
 STAT SP IPHASW D HRMM SECON CODA AMPLIT PERI AZIMU VELO AIN AR TRES W  DIS CAZ7
                                                                                
