 2010  9 1 0514 30.7 L  21.386 -99.330 10.0  RAL  1 0.2 0.0LRAL                1
 GAP=360        0.70     999.9   999.9  0.0 -0.7152E+07 -0.1716E+05  0.3314E+05E
 ACTION:UPD 13-02-28 14:29 OP:RALL STATUS:               ID:20100901051430     I
 2010-09-01-0514-23S.PLUR1_003                                                 6
 STAT SP IPHASW D HRMM SECON CODA AMPLIT PERI AZIMU VELO AIN AR TRES W  DIS CAZ7
 LT9  SZ E         514 32.90                  199.6  6.4      0        1.09  19 
 LT9  SN IP        514 32.90                             174    0.4310 1.09  19 
 LT9  SE IS        514 33.35                             174   -0.4310 1.09  19 
 LT9  SZ  AML      514 34.07         6.1 0.40                          1.09  19 
                                                                                
