 2010  9 1  935 16.1 L                       RAL  1                            1
 ACTION:UPD 13-02-28 14:29 OP:RALL STATUS:               ID:20100901093516     I
 2010-09-01-0935-16S.PLUR1_003                                                 6
 STAT SP IPHASW D HRMM SECON CODA AMPLIT PERI AZIMU VELO AIN AR TRES W  DIS CAZ7
 LA4  SN IP        935 25.22                                                    
 LA4  SZ E         935 25.29                                                    
 LA4  SE IS        935 26.33                                                    
 LA4  SZ  AML      935 26.76        30.9 0.28                                   
                                                                                
