 2010  9 1 0453 51.7 L  21.473 -99.313 10.0  RAL  1 0.1 0.4LRAL                1
 GAP=360        1.03     782.8   999.9  0.0 -0.1660E+07 -0.1716E+05  0.3314E+05E
 ACTION:UPD 13-02-28 14:29 OP:RALL STATUS:               ID:20100901045351     I
 2010-09-01-0453-44S.PLUR1_003                                                 6
 STAT SP IPHASW D HRMM SECON CODA AMPLIT PERI AZIMU VELO AIN AR TRES W  DIS CAZ7
 LA4  SZ E         453 53.84                  202.6 14.4      4        1.19  19 
 LA4  SN IP        453 53.87                             173    0.3410 1.19  19 
 LA4  SE IS        453 54.54                             173   -0.3410 1.19  19 
 LA4  SZ  AML      453 54.59        14.1 0.42                          1.19  19 
                                                                                
