 2010  9 1 1931  5.8 L  21.243 -99.233  0.0  RAL  2 0.7 0.3LRAL                1
 GAP=347       10.37     115.6    60.3999.9 -0.6681E+04 -0.1821E+06  0.3596E+06E
 ACTION:UPD 13-02-28 14:29 OP:RALL STATUS:               ID:20100901193105     I
 2010-09-01-1931-00S.PLUR1_006                                                 6
 STAT SP IPHASW D HRMM SECON CODA AMPLIT PERI AZIMU VELO AIN AR TRES W  DIS CAZ7
 LT9  SZ E        1931 10.03                  173.1  7.3     23        19.4 330 
 LT9  SN IP       1931 10.04                              92    0.8410 19.4 330 
 LT9  SE IS       1931 10.38                              92   -1.3010 19.4 330 
 LT9  SZ  AML     1931 10.50         5.7 0.10                          19.4 330 
 LA4  SN IP       1931 11.68                              92    1.0210 27.8 344 
 LA4  SZ E        1931 11.73                  119.3 21.1    -43        27.8 344 
 LA4  SE IS       1931 13.63                              92   -0.5710 27.8 344 
 LA4  SZ  AML     1931 15.51         3.7 0.36                          27.8 344 
                                                                                
