 2010  9 1 1823 54.1 L  21.500 -99.320 10.0  RAL  1 0.2 1.1LRAL                1
 GAP=360        0.67      35.3    23.4  0.0 -0.8274E+03 -0.1716E+05  0.3314E+05E
 ACTION:UPD 13-02-28 14:29 OP:RALL STATUS:               ID:20100901182354     I
 2010-09-01-1823-46S.PLUR1_003                                                 6
 STAT SP IPHASW D HRMM SECON CODA AMPLIT PERI AZIMU VELO AIN AR TRES W  DIS CAZ7
 LA4  SN IP       1823 56.37                             168    0.4110 2.14 148 
 LA4  SZ E        1823 56.39                  328.3  9.0      0        2.14 148 
 LA4  SE IS       1823 56.93                             168   -0.4110 2.14 148 
 LA4  SZ  AML     1823 57.04        65.3 0.24                          2.14 148 
                                                                                
