 2010  9 1 1819 12.1 L  21.503 -99.327 10.0  RAL  1 0.2-0.1LRAL                1
 GAP=360        0.73      26.6    24.9  0.0 -0.6625E+03 -0.1716E+05  0.3314E+05E
 ACTION:UPD 13-02-28 14:29 OP:RALL STATUS:               ID:20100901181912     I
 2010-09-01-1819-05S.PLUR1_003                                                 6
 STAT SP IPHASW D HRMM SECON CODA AMPLIT PERI AZIMU VELO AIN AR TRES W  DIS CAZ7
 LA4  SN IP       1819 14.42                             165    0.4510 2.79 139 
 LA4  SZ E        1819 14.45                  318.9  9.2      0        2.79 139 
 LA4  SE IS       1819 14.90                             165   -0.4510 2.79 139 
 LA4  SZ  AML     1819 14.99         4.3 0.18                          2.79 139 
                                                                                
