 2010  9 1 2338  8.1 L  21.366 -99.318 10.0  RAL  1 0.0 0.9LRAL                1
 GAP=360        0.30      11.6     3.3  0.0 -0.3841E+02 -0.1821E+06  0.3596E+06E
 ACTION:UPD 13-02-28 14:29 OP:RALL STATUS:               ID:20100901233808     I
 2010-09-01-2338-00S.PLUR1_003                                                 6
 STAT SP IPHASW D HRMM SECON CODA AMPLIT PERI AZIMU VELO AIN AR TRES W  DIS CAZ7
 LT9  SN IP       2338 10.05                             161    0.0510 3.35 345 
 LT9  SZ E        2338 10.06                  165.0  7.9      0        3.35 345 
 LT9  SE IS       2338 11.31                             161   -0.0510 3.35 345 
 LT9  SZ  AML     2338 11.61        46.1 0.20                          3.35 345 
                                                                                
