 2010  9 2 0200 43.7 L  21.502 -99.326 10.0  RAL  1 0.1 0.2LRAL                1
 GAP=360        0.57      21.3    19.6  0.0 -0.4178E+03 -0.1821E+06  0.3596E+06E
 ACTION:UPD 13-02-28 14:29 OP:RALL STATUS:               ID:20100902020043     I
 2010-09-02-0200-36S.PLUR1_003                                                 6
 STAT SP IPHASW D HRMM SECON CODA AMPLIT PERI AZIMU VELO AIN AR TRES W  DIS CAZ7
 LA4  SN IP        2 0 45.88                             165    0.3310 2.71 139 
 LA4  SZ E         2 0 45.89                  319.5  8.2      0        2.71 139 
 LA4  SE IS        2 0 46.61                             165   -0.3310 2.71 139 
 LA4  SZ  AML      2 0 46.86         7.9 0.28                          2.71 139 
                                                                                
