 2010  9 2 2109 58.2 L  21.492 -99.315 10.0  RAL  1 0.2 0.6LRAL                1
 GAP=360        2.15     999.9   999.9  0.0  0.2700E+08 -0.1821E+06  0.3596E+06E
 ACTION:UPD 13-02-28 14:29 OP:RALL STATUS:               ID:20100902210958     I
 2010-09-02-2109-51S.PLUR1_003                                                 6
 STAT SP IPHASW D HRMM SECON CODA AMPLIT PERI AZIMU VELO AIN AR TRES W  DIS CAZ7
 LA4  SN IP       2110  0.46                             174    0.3710 1.15 145 
 LA4  SZ E        2110  0.51                  335.1  5.5     10        1.15 145 
 LA4  SE IS       2110  1.08                             174   -0.3710 1.15 145 
 LA4  SZ  AML     2110  1.18        21.0 0.28                          1.15 145 
                                                                                
