 2010  9 3 0147  3.0 L  21.358 -99.311 10.0  RAL  1 0.0-0.3LRAL                1
 GAP=360        0.31       8.8     3.6  0.0 -0.3190E+02 -0.1821E+06  0.3596E+06E
 ACTION:UPD 13-02-28 14:29 OP:RALL STATUS:               ID:20100903014703     I
 2010-09-03-0146-56S.PLUR1_003                                                 6
 STAT SP IPHASW D HRMM SECON CODA AMPLIT PERI AZIMU VELO AIN AR TRES W  DIS CAZ7
 LT9  SN IP        147  4.94                             156    0.0510 4.38 339 
 LT9  SZ E         147  4.94                  159.2  8.4      0        4.38 339 
 LT9  SE IS        147  6.24                             156   -0.0510 4.38 339 
 LT9  SZ  AML      147  6.62         2.5 0.38                          4.38 339 
                                                                                
