 2010  9 3  022 54.2 L                       RAL  1                            1
 ACTION:UPD 13-02-28 14:29 OP:RALL STATUS:               ID:20100903002254     I
 2010-09-03-0022-54S.PLUR1_003                                                 6
 STAT SP IPHASW D HRMM SECON CODA AMPLIT PERI AZIMU VELO AIN AR TRES W  DIS CAZ7
 LA4  SN IP        023  3.86                                                    
 LA4  SZ E         023  3.86                                                    
 LA4  SE IS        023  4.33                                                    
                                                                                
