 2010  9 3 1723 17.5 L  21.317 -99.303 10.0  RAL  1 0.0-0.5LRAL                1
 GAP=360        0.30       5.2     1.6  0.0 -0.8358E+01 -0.1821E+06  0.3596E+06E
 ACTION:UPD 13-02-28 14:29 OP:RALL STATUS:               ID:20100903172317     I
 2010-09-03-1723-11S.PLUR1_003                                                 6
 STAT SP IPHASW D HRMM SECON CODA AMPLIT PERI AZIMU VELO AIN AR TRES W  DIS CAZ7
 LT9  SZ E        1723 19.80                  164.1  7.5      0        8.97 344 
 LT9  SN IP       1723 19.81                             137    0.0110 8.97 344 
 LT9  SE IS       1723 21.47                             137   -0.0110 8.97 344 
 LT9  SZ  AML     1723 22.69         1.5 0.12                          8.97 344 
                                                                                
