 2010  9 4 0759 23.9 L  21.486 -99.329 10.0  RAL  1 0.2 0.2LRAL                1
 GAP=360        0.72       5.8    47.7  0.0 -0.2758E+03 -0.1821E+06  0.3596E+06E
 ACTION:UPD 13-02-28 14:29 OP:RALL STATUS:               ID:20100904075923     I
 2010-09-04-0759-17S.PLUR1_003                                                 6
 STAT SP IPHASW D HRMM SECON CODA AMPLIT PERI AZIMU VELO AIN AR TRES W  DIS CAZ7
 LA4  SZ E         759 26.19                  276.5 15.4      0        2.14  97 
 LA4  SN IP        759 26.20                             168    0.4310 2.14  97 
 LA4  SE IS        759 26.72                             168   -0.4310 2.14  97 
 LA4  SZ  AML      759 26.88         9.5 0.16                          2.14  97 
                                                                                
