 2010  9 4 1622 46.5 L  21.405 -99.338  2.5  RAL  2 0.1 0.1LRAL                1
 GAP=246        0.55       1.3     0.8  4.1  0.8935E+00 -0.1266E+01 -0.2441E+01E
 ACTION:UPD 13-02-28 14:29 OP:RALL STATUS:               ID:20100904162246     I
 2010-09-04-1622-37S.PLUR1_006                                                 6
 STAT SP IPHASW D HRMM SECON CODA AMPLIT PERI AZIMU VELO AIN AR TRES W  DIS CAZ7
 LT9  SN IP       1622 46.94                             152   -0.1810 1.57 132 
 LT9  SZ E        1622 46.95                  313.5 12.1      1        1.57 132 
 LT9  SE IS       1622 47.58                             152    0.0110 1.57 132 
 LT9  SZ  AML     1622 47.69         8.8 0.10                          1.57 132 
 LA4  SZ E        1622 48.07                  199.2  7.9      0        9.21  19 
 LA4  SN IP       1622 48.09                             111   -0.1310 9.21  19 
 LA4  SE IS       1622 49.79                             111    0.3010 9.21  19 
 LA4  SZ  AML     1622 50.03        15.9 0.16                          9.21  19 
                                                                                
