 2010  9 4 2020 12.1 L  21.500 -99.319 10.0  RAL  1 0.1 0.1LRAL                1
 GAP=360        0.54      29.7    18.6  0.0 -0.5529E+03 -0.1266E+01 -0.2441E+01E
 ACTION:UPD 13-02-28 14:29 OP:RALL STATUS:               ID:20100904202012     I
 2010-09-04-2020-05S.PLUR1_003                                                 6
 STAT SP IPHASW D HRMM SECON CODA AMPLIT PERI AZIMU VELO AIN AR TRES W  DIS CAZ7
 LA4  SZ E        2020 14.27                  329.8 10.5      0        2.08 150 
 LA4  SZ IP       2020 14.28                             169    0.3010 2.08 150 
 LA4  SN IP       2020 14.29                             167           2.08 150 
 LA4  SN E        2020 14.30                                           2.08 150 
 LA4  SE IS       2020 15.04                             169   -0.3010 2.08 150 
 LA4  SZ  AML     2020 15.11         7.8 0.24                          2.08 150 
                                                                                
