 2010  9 4 2309 40.0 L  21.247 -99.231 10.0  RAL  1 0.0 0.5LRAL                1
 GAP=360        0.30       3.5     2.3  0.0 -0.7656E+01 -0.1266E+01 -0.2441E+01E
 ACTION:UPD 13-02-28 14:29 OP:RALL STATUS:               ID:20100904230940     I
 2010-09-04-2309-36S.PLUR1_003                                                 6
 STAT SP IPHASW D HRMM SECON CODA AMPLIT PERI AZIMU VELO AIN AR TRES W  DIS CAZ7
 LT9  SN IP       23 9 43.59                             114    0.0010 19.1 329 
 LT9  SZ E        23 9 43.62                  148.8  9.1      0        19.1 329 
 LT9  SE IS       23 9 46.22                             114    0.0010 19.1 329 
 LT9  SZ  AML     23 9 47.70         9.0 0.22                          19.1 329 
                                                                                
