 2010  9 5 0842 54.9 L  21.371 -99.316 10.0  RAL  1 0.1-0.4LRAL                1
 GAP=360        0.38      15.9     6.8  0.0 -0.1079E+03 -0.1266E+01 -0.2441E+01E
 ACTION:UPD 13-02-28 14:29 OP:RALL STATUS:               ID:20100905084254     I
 2010-09-05-0842-48S.PLUR1_003                                                 6
 STAT SP IPHASW D HRMM SECON CODA AMPLIT PERI AZIMU VELO AIN AR TRES W  DIS CAZ7
 LT9  SZ E         842 56.88                  158.3  8.3      0        2.89 338 
 LT9  SN IP        842 56.90                             164    0.1610 2.89 338 
 LT9  SE IS        842 57.92                             164   -0.1610 2.89 338 
 LT9  SZ  AML      842 58.19         2.2 0.12                          2.89 338 
                                                                                
