 2010  9 5 1452  4.9 L  21.336 -99.296 10.0  RAL  1 0.0-0.1LRAL                1
 GAP=360        0.30       5.6     2.9  0.0 -0.1615E+02 -0.1266E+01 -0.2441E+01E
 ACTION:UPD 13-02-28 14:29 OP:RALL STATUS:               ID:20100905145204     I
 2010-09-05-1451-58S.PLUR1_003                                                 6
 STAT SP IPHASW D HRMM SECON CODA AMPLIT PERI AZIMU VELO AIN AR TRES W  DIS CAZ7
 LT9  SZ E        1452  7.06                  154.3  8.1      0        7.33 334 
 LT9  SN IP       1452  7.07                             143    0.0210 7.33 334 
 LT9  SE IS       1452  8.59                             143   -0.0210 7.33 334 
 LT9  SZ  AML     1452  9.16         3.8 0.58                          7.33 334 
                                                                                
