 2010  9 5 1601 17.9 L  21.250 -99.225 10.0  RAL  1 0.0 0.2LRAL                1
 GAP=360        0.30       3.4     2.4  0.0 -0.7911E+01 -0.1266E+01 -0.2441E+01E
 ACTION:UPD 13-02-28 14:29 OP:RALL STATUS:               ID:20100905160117     I
 2010-09-05-1601-14S.PLUR1_003                                                 6
 STAT SP IPHASW D HRMM SECON CODA AMPLIT PERI AZIMU VELO AIN AR TRES W  DIS CAZ7
 LT9  SZ E        16 1 21.52                  146.7  9.0      0        19.2 327 
 LT9  SN IP       16 1 21.56                             114    0.0010 19.2 327 
 LT9  SE IS       16 1 24.20                             114    0.0010 19.2 327 
 LT9  SZ  AML     16 1 25.08         4.0 0.44                          19.2 327 
                                                                                
