 2010  9 5 1505 21.5 L  21.541 -99.330 10.0  RAL  1 0.0 0.9LRAL                1
 GAP=360        0.30       6.4     2.3  0.0 -0.1456E+02 -0.1266E+01 -0.2441E+01E
 ACTION:UPD 13-02-28 14:29 OP:RALL STATUS:               ID:20100905150521     I
 2010-09-05-1505-15S.PLUR1_003                                                 6
 STAT SP IPHASW D HRMM SECON CODA AMPLIT PERI AZIMU VELO AIN AR TRES W  DIS CAZ7
 LA4  SZ E        15 5 23.63                  341.6  7.6      0        6.73 162 
 LA4  SN IP       15 5 23.66                             147    0.0210 6.73 162 
 LA4  SE IS       15 5 25.20                             147   -0.0210 6.73 162 
 LA4  SZ  AML     15 5 25.42        38.5 0.10                          6.73 162 
                                                                                
