 2010  9 5 1218 58.5 L  21.319 -99.169 10.0  RAL  1 0.0 0.5LRAL                1
 GAP=360        0.30       3.1     2.7  0.0 -0.7861E+01 -0.1266E+01 -0.2441E+01E
 ACTION:UPD 13-02-28 14:29 OP:RALL STATUS:               ID:20100905121858     I
 2010-09-05-1218-56S.PLUR1_003                                                 6
 STAT SP IPHASW D HRMM SECON CODA AMPLIT PERI AZIMU VELO AIN AR TRES W  DIS CAZ7
 LA4  SZ E        1219  2.71                  141.4  5.6      0        23.3 321 
 LA4  SN IP       1219  2.73                             110    0.0010 23.3 321 
 LA4  SE IS       1219  5.83                             110    0.0010 23.3 321 
 LA4  SZ  AML     1219  6.32         8.3 0.18                          23.3 321 
                                                                                
