 2010  9 6 0911 41.8 L  21.229 -99.265 10.0  RAL  1 0.0 0.3LRAL                1
 GAP=360        0.30       3.8     1.5  0.0 -0.5320E+01 -0.1266E+01 -0.2441E+01E
 ACTION:UPD 13-02-28 14:29 OP:RALL STATUS:               ID:20100906091141     I
 2010-09-06-0911-38S.PLUR1_003                                                 6
 STAT SP IPHASW D HRMM SECON CODA AMPLIT PERI AZIMU VELO AIN AR TRES W  DIS CAZ7
 LT9  SN IP        911 45.44                             114    0.0010 19.5 341 
 LT9  SZ E         911 45.46                  160.8  6.7      0        19.5 341 
 LT9  SE IS        911 48.11                             114    0.0010 19.5 341 
 LT9  SZ  AML      911 48.71         5.8 0.24                          19.5 341 
                                                                                
