 2010  9 6 0059 13.9 L  21.234 -99.369 10.0  RAL  1 0.0 0.0LRAL                1
 GAP=360        0.30       4.0     1.2  0.0  0.4192E+01 -0.1266E+01 -0.2441E+01E
 ACTION:UPD 13-02-28 14:29 OP:RALL STATUS:               ID:20100906005913     I
 2010-09-06-0059-09S.PLUR1_003                                                 6
 STAT SP IPHASW D HRMM SECON CODA AMPLIT PERI AZIMU VELO AIN AR TRES W  DIS CAZ7
 LT9  SN IP        059 17.42                             115    0.0210 18.4  14 
 LT9  SZ E         059 17.42                  194.0  8.0      0        18.4  14 
 LT9  SE IS        059 19.94                             115   -0.0210 18.4  14 
 LT9  SZ  AML      059 20.58         2.6 0.22                          18.4  14 
                                                                                
