 2010  9 6 0632 41.7 L  21.411 -99.345 10.0  RAL  1 0.1-0.3LRAL                1
 GAP=360        0.59      19.6    24.1  0.0 -0.4707E+03 -0.1266E+01 -0.2441E+01E
 ACTION:UPD 13-02-28 14:29 OP:RALL STATUS:               ID:20100906063241     I
 2010-09-06-0632-34S.PLUR1_003                                                 6
 STAT SP IPHASW D HRMM SECON CODA AMPLIT PERI AZIMU VELO AIN AR TRES W  DIS CAZ7
 LT9  SN IP        632 43.83                             166    0.3510 2.57 131 
 LT9  SZ E         632 43.84                  311.1 10.9      0        2.57 131 
 LT9  SE IS        632 44.47                             166   -0.3510 2.57 131 
 LT9  SZ  AML      632 44.68         2.5 0.18                          2.57 131 
                                                                                
