 2010  9 6 0106  4.9 L  21.345 -99.311 10.0  RAL  1 0.0 0.4LRAL                1
 GAP=360        0.30       7.1     2.2  0.0 -0.1577E+02 -0.1266E+01 -0.2441E+01E
 ACTION:UPD 13-02-28 14:29 OP:RALL STATUS:               ID:20100906010604     I
 2010-09-06-0105-57S.PLUR1_003                                                 6
 STAT SP IPHASW D HRMM SECON CODA AMPLIT PERI AZIMU VELO AIN AR TRES W  DIS CAZ7
 LT9  SN IP        1 6  6.92                             150    0.0210 5.76 344 
 LT9  SZ E         1 6  6.93                  163.7  7.5      0        5.76 344 
 LT9  SE IS        1 6  8.35                             150   -0.0210 5.76 344 
 LT9  SZ  AML      1 6  8.46        12.6 0.34                          5.76 344 
                                                                                
