 2010  9 6 0829 56.1 L  21.348 -99.296 10.0  RAL  1 0.0 0.5LRAL                1
 GAP=360        0.30       6.1     3.9  0.0 -0.2395E+02 -0.1266E+01 -0.2441E+01E
 ACTION:UPD 13-02-28 14:29 OP:RALL STATUS:               ID:20100906082956     I
 2010-09-06-0829-48S.PLUR1_003                                                 6
 STAT SP IPHASW D HRMM SECON CODA AMPLIT PERI AZIMU VELO AIN AR TRES W  DIS CAZ7
 LT9  SN IP        829 58.19                             148    0.0410 6.13 329 
 LT9  SZ E         829 58.22                  149.1  7.6      0        6.13 329 
 LT9  SE IS        829 59.61                             148   -0.0410 6.13 329 
 LT9  SZ  AML      829 59.73        16.8 0.32                          6.13 329 
                                                                                
