 2010  9 6 0612 46.8 L  21.372 -99.320 10.0  RAL  1 0.0 1.3LRAL                1
 GAP=360        0.33      15.5     3.9  0.0 -0.6079E+02 -0.1266E+01 -0.2441E+01E
 ACTION:UPD 13-02-28 14:29 OP:RALL STATUS:               ID:20100906061246     I
 2010-09-06-0612-38S.PLUR1_003                                                 6
 STAT SP IPHASW D HRMM SECON CODA AMPLIT PERI AZIMU VELO AIN AR TRES W  DIS CAZ7
 LT9  SZ E         612 48.75                  166.7  7.8      0        2.68 347 
 LT9  SN IP        612 48.75                             165    0.1010 2.68 347 
 LT9  SE IS        612 49.89                             165   -0.1010 2.68 347 
 LT9  SZ  AML      612 50.04       115.8 0.50                          2.68 347 
                                                                                
