 2010  9 6 1530 51.0 L  21.506 -99.327 10.0  RAL  1 0.1 0.5LRAL                1
 GAP=360        0.46      15.7    12.8  0.0 -0.2006E+03 -0.1266E+01 -0.2441E+01E
 ACTION:UPD 13-02-28 14:29 OP:RALL STATUS:               ID:20100906153051     I
 2010-09-06-1530-44S.PLUR1_003                                                 6
 STAT SP IPHASW D HRMM SECON CODA AMPLIT PERI AZIMU VELO AIN AR TRES W  DIS CAZ7
 LA4  SZ E        1530 53.15                  322.8  8.2      0        3.13 143 
 LA4  SN IP       1530 53.20                             163    0.2310 3.13 143 
 LA4  SE IS       1530 54.13                             163   -0.2310 3.13 143 
 LA4  SZ  AML     1530 54.67        15.9 0.18                          3.13 143 
                                                                                
