 2010  9 6 1604  2.0 L  21.404 -99.326  9.7  RAL  2 0.5 2.4LRAL                1
 GAP=187        8.75      22.2     5.0 91.4  0.8914E+02  0.5149E+02  0.2814E+03E
 ACTION:UPD 13-02-28 14:29 OP:RALL STATUS:               ID:20100906160402     I
 2010-09-06-1603-53S.PLUR1_006                                                 6
 STAT SP IPHASW D HRMM SECON CODA AMPLIT PERI AZIMU VELO AIN AR TRES W  DIS CAZ7
 LT9  SZ E        16 4  3.56                  347.4 14.1     17        0.92 184 
 LT9  SN IP       16 4  3.56                             135   -0.1610 0.92 184 
 LT9  SE IS       16 4  4.22                             135   -0.7610 0.92 184 
 LT9  SZ  AML     16 4  4.44       808.9 0.20                          0.92 184 
 LA4  SZ E        16 4  4.76                  152.0  9.3    -38        9.03  11 
 LA4  SN IP       16 4  4.78                             141    0.4610 9.03  11 
 LA4  SE IS       16 4  6.50                             141    0.4710 9.03  11 
 LA4  SZ  AML     16 4  6.61      1818.5 0.20                          9.03  11 
                                                                                
