 2010  9 6 1025 55.2 L  21.381 -99.329 10.0  RAL  1 0.2                        1
 GAP=360        1.38     316.6   999.9  0.0 -0.4399E+06 -0.1266E+01 -0.2441E+01E
 ACTION:UPD 13-02-28 14:29 OP:RALL STATUS:               ID:20100906102555     I
 2010-09-06-1025-47S.PLUR1_003                                                 6
 STAT SP IPHASW D HRMM SECON CODA AMPLIT PERI AZIMU VELO AIN AR TRES W  DIS CAZ7
 LT9  SZ E        1025 57.38                  194.8  9.6      6        1.61   9 
 LT9  SN IP       1025 57.38                             171    0.4110 1.61   9 
 LT9  SE IS       1025 57.86                             171   -0.4110 1.61   9 
                                                                                
