 2010  9 6 1058 12.9 L  21.338 -99.291 10.0  RAL  1 0.0-0.3LRAL                1
 GAP=360        0.30       5.4     3.3  0.0 -0.1789E+02 -0.1266E+01 -0.2441E+01E
 ACTION:UPD 13-02-28 14:29 OP:RALL STATUS:               ID:20100906105812     I
 2010-09-06-1058-06S.PLUR1_003                                                 6
 STAT SP IPHASW D HRMM SECON CODA AMPLIT PERI AZIMU VELO AIN AR TRES W  DIS CAZ7
 LT9  SZ E        1058 15.10                  150.0  7.5      0        7.30 330 
 LT9  SN IP       1058 15.10                             143    0.0210 7.30 330 
 LT9  SE IS       1058 16.63                             143   -0.0210 7.30 330 
 LT9  SZ  AML     1058 16.72         2.5 0.26                          7.30 330 
                                                                                
