 2010  9 6 1054  0.6 L  21.355 -99.309 10.0  RAL  1 0.0-0.2LRAL                1
 GAP=360        0.30       8.1     3.5  0.0 -0.2801E+02 -0.1266E+01 -0.2441E+01E
 ACTION:UPD 13-02-28 14:29 OP:RALL STATUS:               ID:20100906105400     I
 2010-09-06-1053-54S.PLUR1_003                                                 6
 STAT SP IPHASW D HRMM SECON CODA AMPLIT PERI AZIMU VELO AIN AR TRES W  DIS CAZ7
 LT9  SZ E        1054  2.57                  158.2  7.1      0        4.77 338 
 LT9  SN IP       1054  2.58                             154    0.0410 4.77 338 
 LT9  SE IS       1054  3.92                             154   -0.0410 4.77 338 
 LT9  SZ  AML     1054  4.05         3.6 0.10                          4.77 338 
                                                                                
