 2010  9 6 1001 33.3 L  21.338 -99.290 10.0  RAL  1 0.0-0.5LRAL                1
 GAP=360        0.30       5.3     3.4  0.0 -0.1769E+02 -0.1266E+01 -0.2441E+01E
 ACTION:UPD 13-02-28 14:29 OP:RALL STATUS:               ID:20100906100133     I
 2010-09-06-1001-27S.PLUR1_003                                                 6
 STAT SP IPHASW D HRMM SECON CODA AMPLIT PERI AZIMU VELO AIN AR TRES W  DIS CAZ7
 LT9  SZ E        10 1 35.37                  149.4  9.1      0        7.42 329 
 LT9  SN IP       10 1 35.43                             143    0.0210 7.42 329 
 LT9  SE IS       10 1 36.97                             143   -0.0210 7.42 329 
 LT9  SZ  AML     10 1 37.03         1.4 0.30                          7.42 329 
                                                                                
