 2010  9 6 2333 24.8 L  21.412 -99.351 10.0  RAL  1 0.1-0.7LRAL                1
 GAP=360        0.55      13.3    19.9  0.0 -0.2636E+03 -0.1113E+06  0.1515E+06E
 ACTION:UPD 13-02-28 14:29 OP:RALL STATUS:               ID:20100906233324     I
 2010-09-06-2333-18S.PLUR1_003                                                 6
 STAT SP IPHASW D HRMM SECON CODA AMPLIT PERI AZIMU VELO AIN AR TRES W  DIS CAZ7
 LT9  SZ E        2333 26.94                  305.6 18.4      0        3.14 126 
 LT9  SN IP       2333 26.98                             163    0.3110 3.14 126 
 LT9  SE IS       2333 27.71                             163   -0.3110 3.14 126 
 LT9  SZ  AML     2333 28.15         1.2 0.38                          3.14 126 
                                                                                
