 2010  9 6 2020 29.1 L  21.416 -99.339 10.0  RAL  1 0.1-0.2LRAL                1
 GAP=360        0.57      23.9    14.7  0.0 -0.3519E+03  0.5149E+02  0.2814E+03E
 ACTION:UPD 13-02-28 14:29 OP:RALL STATUS:               ID:20100906202029     I
 2010-09-06-2020-22S.PLUR1_003                                                 6
 STAT SP IPHASW D HRMM SECON CODA AMPLIT PERI AZIMU VELO AIN AR TRES W  DIS CAZ7
 LT9  SZ E        2020 31.25                  330.2 21.5      0        2.67 150 
 LT9  SN IP       2020 31.26                             165    0.3310 2.67 150 
 LT9  SE IS       2020 31.94                             165   -0.3310 2.67 150 
 LT9  SZ  AML     2020 32.76         3.1 0.66                          2.67 150 
                                                                                
