 2010  9 6 2313 32.1 L  21.194 -99.147  4.7  RAL  2 0.5 0.3LRAL                1
 GAP=348        5.43      65.4    49.1999.9 -0.3073E+04 -0.1113E+06  0.1515E+06E
 ACTION:UPD 13-02-28 14:29 OP:RALL STATUS:               ID:20100906231332     I
 2010-09-06-2313-29S.PLUR1_006                                                 6
 STAT SP IPHASW D HRMM SECON CODA AMPLIT PERI AZIMU VELO AIN AR TRES W  DIS CAZ7
 LT9  SZ E        2313 37.94                  154.8  7.5     15        29.1 320 
 LT9  SN IP       2313 37.96                              92    0.8410 29.1 320 
 LT9  SE IS       2313 39.27                              92   -1.5010 29.1 320 
 LT9  SZ  AML     2313 39.91         2.2 0.20                          29.1 320 
 LA4  SZ E        2313 39.39                  132.9  8.5    -18        36.2 332 
 LA4  SN IP       2313 39.41                              92    1.1410 36.2 332 
 LA4  SE IS       2313 42.27                              92   -0.4810 36.2 332 
 LA4  SZ  AML     2313 43.80         5.4 0.28                          36.2 332 
                                                                                
