 2010  9 7 0328 30.0 L  21.593 -99.320 10.0  RAL  1 0.0 0.3LRAL                1
 GAP=360        0.30       4.7     0.6  0.0 -0.2159E+01 -0.1113E+06  0.1515E+06E
 ACTION:UPD 13-02-28 14:29 OP:RALL STATUS:               ID:20100907032830     I
 2010-09-07-0328-25S.PLUR1_003                                                 6
 STAT SP IPHASW D HRMM SECON CODA AMPLIT PERI AZIMU VELO AIN AR TRES W  DIS CAZ7
 LA4  SN IP        328 32.75                             129    0.0010 12.1 175 
 LA4  SZ E         328 32.80                  354.8  6.9      0        12.1 175 
 LA4  SE IS        328 34.74                             129    0.0010 12.1 175 
 LA4  SZ  AML      328 34.82         6.7 0.10                          12.1 175 
                                                                                
