 2010  9 7 0342 10.6 L  21.392 -99.315 10.0  RAL  1 0.2-0.5LRAL                1
 GAP=360        0.90     999.9   999.9  0.0  0.6130E+07 -0.1113E+06  0.1515E+06E
 ACTION:UPD 13-02-28 14:29 OP:RALL STATUS:               ID:20100907034210     I
 2010-09-07-0342-03S.PLUR1_003                                                 6
 STAT SP IPHASW D HRMM SECON CODA AMPLIT PERI AZIMU VELO AIN AR TRES W  DIS CAZ7
 LT9  SN IP        342 13.00                             173    0.5810 1.24 288 
 LT9  SZ E         342 13.01                  108.4 13.3      0        1.24 288 
 LT9  SE IS        342 13.15                             173   -0.5810 1.24 288 
 LT9  SZ  AML      342 13.32         1.8 0.28                          1.24 288 
                                                                                
