 2010  9 7 0832 13.4 L  21.371 -99.320 10.0  RAL  1 0.0-0.2LRAL                1
 GAP=360        0.32      14.6     3.9  0.0 -0.5644E+02 -0.1113E+06  0.1515E+06E
 ACTION:UPD 13-02-28 14:29 OP:RALL STATUS:               ID:20100907083213     I
 2010-09-07-0832-06S.PLUR1_003                                                 6
 STAT SP IPHASW D HRMM SECON CODA AMPLIT PERI AZIMU VELO AIN AR TRES W  DIS CAZ7
 LT9  SZ E         832 15.33                  166.1  7.4      0        2.72 346 
 LT9  SN IP        832 15.33                             165    0.0710 2.72 346 
 LT9  SE IS        832 16.52                             165   -0.0710 2.72 346 
 LT9  SZ  AML      832 16.75         3.3 0.68                          2.72 346 
                                                                                
