 2010  9 7 0948 59.4 L  21.375 -99.314 10.0  RAL  1 0.1-0.3LRAL                1
 GAP=360        0.57      24.9    15.3  0.0 -0.3807E+03 -0.1113E+06  0.1515E+06E
 ACTION:UPD 13-02-28 14:29 OP:RALL STATUS:               ID:20100907094859     I
 2010-09-07-0948-51S.PLUR1_003                                                 6
 STAT SP IPHASW D HRMM SECON CODA AMPLIT PERI AZIMU VELO AIN AR TRES W  DIS CAZ7
 LT9  SZ E         949  1.57                  150.3 12.8      0        2.58 330 
 LT9  SN IP        949  1.58                             166    0.3310 2.58 330 
 LT9  SE IS        949  2.25                             166   -0.3310 2.58 330 
 LT9  SZ  AML      949  2.37         2.9 0.14                          2.58 330 
                                                                                
