 2010  9 7 1301 10.7 L  21.403 -99.338  1.9  RAL  2 0.1 0.8LRAL                1
 GAP=255        1.16       0.6     1.0  7.4 -0.1890E+00  0.5477E+00 -0.5856E+00E
 ACTION:UPD 13-02-28 14:29 OP:RALL STATUS:               ID:20100907130110     I
 2010-09-07-1301-01S.PLUR1_006                                                 6
 STAT SP IPHASW D HRMM SECON CODA AMPLIT PERI AZIMU VELO AIN AR TRES W  DIS CAZ7
 LT9  SZ E        13 1 10.90                  308.3 13.2      5        1.46 124 
 LT9  SN IP       13 1 10.91                             151   -0.2910 1.46 124 
 LT9  SE IS       13 1 11.48                             151   -0.1010 1.46 124 
 LT9  SZ  AML     13 1 12.00        54.7 0.56                          1.46 124 
 LA4  SZ E        13 1 12.32                  198.7  7.1      0        9.46  19 
 LA4  SN IP       13 1 12.32                             108   -0.0910 9.46  19 
 LA4  SE IS       13 1 14.16                             108    0.4810 9.46  19 
 LA4  SZ  AML     13 1 15.99        83.3 0.46                          9.46  19 
                                                                                
