 2010  9 7 1432 59.5 L  21.355 -99.370 10.0  RAL  1 0.0-0.6LRAL                1
 GAP=360        0.30       4.9     5.3  0.0  0.2616E+02  0.5477E+00 -0.5856E+00E
 ACTION:UPD 13-02-28 14:29 OP:RALL STATUS:               ID:20100907143259     I
 2010-09-07-1432-53S.PLUR1_003                                                 6
 STAT SP IPHASW D HRMM SECON CODA AMPLIT PERI AZIMU VELO AIN AR TRES W  DIS CAZ7
 LT9  SN IP       1433  1.59                             147    0.0410 6.34  45 
 LT9  SZ E        1433  1.64                  225.0 11.0      0        6.34  45 
 LT9  SE IS       1433  3.01                             147   -0.0410 6.34  45 
 LT9  SZ  AML     1433  3.09         1.2 0.10                          6.34  45 
                                                                                
