 2010  9 7 1440 21.2 L  21.314 -99.345 10.0  RAL  1 0.0-0.9LRAL                1
 GAP=360        0.30       5.2     1.2  0.0  0.6196E+01  0.5477E+00 -0.5856E+00E
 ACTION:UPD 13-02-28 14:29 OP:RALL STATUS:               ID:20100907144021     I
 2010-09-07-1440-15S.PLUR1_003                                                 6
 STAT SP IPHASW D HRMM SECON CODA AMPLIT PERI AZIMU VELO AIN AR TRES W  DIS CAZ7
 LT9  SN IP       1440 23.50                             136    0.0110 9.20  12 
 LT9  SZ E        1440 23.50                  191.9  8.0      0        9.20  12 
 LT9  SE IS       1440 25.19                             136   -0.0110 9.20  12 
 LT9  SZ  AML     1440 26.85         0.5 0.44                          9.20  12 
                                                                                
