 2010  9 7 1926 41.1 L  21.344 -99.268 10.0  RAL  1 0.0-0.6LRAL                1
 GAP=360        0.30       3.9     4.5  0.0 -0.1752E+02  0.5477E+00 -0.5856E+00E
 ACTION:UPD 13-02-28 14:29 OP:RALL STATUS:               ID:20100907192641     I
 2010-09-07-1926-35S.PLUR1_003                                                 6
 STAT SP IPHASW D HRMM SECON CODA AMPLIT PERI AZIMU VELO AIN AR TRES W  DIS CAZ7
 LT9  SN IP       1926 43.40                             140    0.0210 8.27 314 
 LT9  SZ E        1926 43.40                  133.5  7.4      0        8.27 314 
 LT9  SE IS       1926 45.00                             140   -0.0210 8.27 314 
 LT9  SZ  AML     1926 45.11         1.1 0.22                          8.27 314 
                                                                                
