 2010  9 7 1103 18.7 L  21.412 -99.345 10.0  RAL  1 0.1-0.5LRAL                1
 GAP=360        0.58      19.7    22.2  0.0 -0.4388E+03 -0.1113E+06  0.1515E+06E
 ACTION:UPD 13-02-28 14:29 OP:RALL STATUS:               ID:20100907110318     I
 2010-09-07-1103-10S.PLUR1_003                                                 6
 STAT SP IPHASW D HRMM SECON CODA AMPLIT PERI AZIMU VELO AIN AR TRES W  DIS CAZ7
 LT9  SZ E        11 3 20.70                  313.6 17.9      0        2.62 134 
 LT9  SN IP       11 3 20.82                             165    0.3410 2.62 134 
 LT9  SE IS       11 3 21.48                             165   -0.3410 2.62 134 
 LT9  SZ  AML     11 3 21.77         1.8 0.30                          2.62 134 
                                                                                
