 2010  9 7 1158 55.2 L  21.314 -99.300 10.0  RAL  1 0.0-0.8LRAL                1
 GAP=360        0.30       5.1     1.7  0.0 -0.8325E+01 -0.1113E+06  0.1515E+06E
 ACTION:UPD 13-02-28 14:29 OP:RALL STATUS:               ID:20100907115855     I
 2010-09-07-1158-49S.PLUR1_003                                                 6
 STAT SP IPHASW D HRMM SECON CODA AMPLIT PERI AZIMU VELO AIN AR TRES W  DIS CAZ7
 LT9  SZ E        1158 57.61                  163.3  7.9      0        9.35 343 
 LT9  SN IP       1158 57.61                             136    0.0110 9.35 343 
 LT9  SE IS       1158 59.30                             136   -0.0110 9.35 343 
 LT9  SZ  AML     1159  0.83         0.7 0.62                          9.35 343 
                                                                                
