 2010  9 7 2036 10.2 L  21.370 -99.320 10.0  RAL  1 0.0-0.5LRAL                1
 GAP=360        0.31      13.6     3.7  0.0 -0.4978E+02  0.5477E+00 -0.5856E+00E
 ACTION:UPD 13-02-28 14:29 OP:RALL STATUS:               ID:20100907203610     I
 2010-09-07-2036-03S.PLUR1_003                                                 6
 STAT SP IPHASW D HRMM SECON CODA AMPLIT PERI AZIMU VELO AIN AR TRES W  DIS CAZ7
 LT9  SN IP       2036 12.15                             164    0.0710 2.89 346 
 LT9  SZ E        2036 12.17                  166.0  7.0      0        2.89 346 
 LT9  SE IS       2036 13.36                             164   -0.0710 2.89 346 
 LT9  SZ  AML     2036 13.44         1.7 0.32                          2.89 346 
                                                                                
