 2010  9 7 2212 41.8 L  21.614 -99.341 10.0  RAL  1 0.0 0.3LRAL                1
 GAP=360        0.30       4.3     1.1  0.0 -0.4519E+01  0.5477E+00 -0.5856E+00E
 ACTION:UPD 13-02-28 14:29 OP:RALL STATUS:               ID:20100907221241     I
 2010-09-07-2212-37S.PLUR1_003                                                 6
 STAT SP IPHASW D HRMM SECON CODA AMPLIT PERI AZIMU VELO AIN AR TRES W  DIS CAZ7
 LA4  SN IP       2212 44.84                             122    0.0010 14.8 167 
 LA4  SZ E        2212 44.95                  346.9  9.5      0        14.8 167 
 LA4  SE IS       2212 47.07                             122    0.0010 14.8 167 
 LA4  SZ  AML     2212 47.11         7.0 0.10                          14.8 167 
                                                                                
