 2010  9 7 2146 28.5 L  21.268 -99.249 10.0  RAL  1 0.0 0.3LRAL                1
 GAP=360        0.30       3.7     2.3  0.0 -0.8076E+01  0.5477E+00 -0.5856E+00E
 ACTION:UPD 13-02-28 14:29 OP:RALL STATUS:               ID:20100907214628     I
 2010-09-07-2146-24S.PLUR1_003                                                 6
 STAT SP IPHASW D HRMM SECON CODA AMPLIT PERI AZIMU VELO AIN AR TRES W  DIS CAZ7
 LT9  SZ E        2146 31.45                  150.5  7.5      0        16.2 331 
 LT9  SN IP       2146 31.72                             119    0.0110 16.2 331 
 LT9  SE IS       2146 34.05                             119   -0.0110 16.2 331 
 LT9  SZ  AML     2146 34.51         5.5 0.32                          16.2 331 
                                                                                
