 2010  9 7 2333 25.3 L  21.330 -99.306 10.0  RAL  1 0.0-0.1LRAL                1
 GAP=360        0.30       5.9     1.9  0.0 -0.1088E+02  0.5477E+00 -0.5856E+00E
 ACTION:UPD 13-02-28 14:29 OP:RALL STATUS:               ID:20100907233325     I
 2010-09-07-2333-19S.PLUR1_003                                                 6
 STAT SP IPHASW D HRMM SECON CODA AMPLIT PERI AZIMU VELO AIN AR TRES W  DIS CAZ7
 LT9  SN IP       2333 27.49                             143    0.0210 7.49 344 
 LT9  SZ E        2333 27.54                  163.6  7.6      0        7.49 344 
 LT9  SE IS       2333 29.02                             143   -0.0210 7.49 344 
 LT9  SZ  AML     2333 29.49         3.6 0.30                          7.49 344 
                                                                                
