 2010  9 8 0837 18.6 L  21.246 -99.268 10.0  RAL  1 0.0 0.3LRAL                1
 GAP=360        0.30       3.9     1.6  0.0 -0.5799E+01  0.5477E+00 -0.5856E+00E
 ACTION:UPD 13-02-28 14:29 OP:RALL STATUS:               ID:20100908083718     I
 2010-09-08-0837-14S.PLUR1_003                                                 6
 STAT SP IPHASW D HRMM SECON CODA AMPLIT PERI AZIMU VELO AIN AR TRES W  DIS CAZ7
 LT9  SZ E         837 21.98                  159.9  7.8      0        17.6 340 
 LT9  SN IP        837 22.04                             116    0.0010 17.6 340 
 LT9  SE IS        837 24.52                             116    0.0010 17.6 340 
 LT9  SZ  AML      837 24.99         5.9 0.20                          17.6 340 
                                                                                
