 2010  9 8 0433 45.2 L  21.378 -99.334 10.0  RAL  1 0.1-1.0LRAL                1
 GAP=360        0.49      27.0    12.1  0.0  0.3269E+03  0.5477E+00 -0.5856E+00E
 ACTION:UPD 13-02-28 14:29 OP:RALL STATUS:               ID:20100908043345     I
 2010-09-08-0433-38S.PLUR1_003                                                 6
 STAT SP IPHASW D HRMM SECON CODA AMPLIT PERI AZIMU VELO AIN AR TRES W  DIS CAZ7
 LT9  SN IP        433 47.28                             168    0.2610 2.13  23 
 LT9  SZ E         433 47.29                  202.7 19.5      0        2.13  23 
 LT9  SE IS        433 48.08                             168   -0.2610 2.13  23 
 LT9  SZ  AML      433 48.55         0.6 0.42                          2.13  23 
                                                                                
