 2010  9 8 0919 27.0 L  21.371 -99.319 10.0  RAL  1 0.0-0.6LRAL                1
 GAP=360        0.33      14.7     4.7  0.0 -0.6958E+02  0.5477E+00 -0.5856E+00E
 ACTION:UPD 13-02-28 14:29 OP:RALL STATUS:               ID:20100908091927     I
 2010-09-08-0919-20S.PLUR1_003                                                 6
 STAT SP IPHASW D HRMM SECON CODA AMPLIT PERI AZIMU VELO AIN AR TRES W  DIS CAZ7
 LT9  SZ E         919 28.88                  163.4 11.6      0        2.76 343 
 LT9  SN IP        919 28.90                             165    0.0910 2.76 343 
 LT9  SE IS        919 30.05                             165   -0.0910 2.76 343 
 LT9  SZ  AML      919 30.27         1.4 0.26                          2.76 343 
                                                                                
