 2010  9 8 1115 37.7 L  21.266 -99.196 10.0  RAL  1 0.0 0.5LRAL                1
 GAP=360        0.30       3.5     1.9  0.0 -0.6143E+01  0.5477E+00 -0.5856E+00E
 ACTION:UPD 13-02-28 14:29 OP:RALL STATUS:               ID:20100908111537     I
 2010-09-08-1115-36S.PLUR1_003                                                 6
 STAT SP IPHASW D HRMM SECON CODA AMPLIT PERI AZIMU VELO AIN AR TRES W  DIS CAZ7
 LA4  SZ E        1115 42.33                  154.1  6.4      0        26.7 334 
 LA4  SN IP       1115 42.44                             107    0.0210 26.7 334 
 LA4  SE IS       1115 45.87                             107   -0.0210 26.7 334 
 LA4  SZ  AML     1115 47.20         6.6 0.56                          26.7 334 
                                                                                
