 2010  9 8 1715  2.7 L  21.417 -99.349 10.0  RAL  1 0.1 0.1LRAL                1
 GAP=360        0.48      13.2    14.3  0.0 -0.1880E+03  0.5477E+00 -0.5856E+00E
 ACTION:UPD 13-02-28 14:29 OP:RALL STATUS:               ID:20100908171502     I
 2010-09-08-1714-55S.PLUR1_003                                                 6
 STAT SP IPHASW D HRMM SECON CODA AMPLIT PERI AZIMU VELO AIN AR TRES W  DIS CAZ7
 LT9  SN IP       1715  4.78                             161    0.2510 3.36 135 
 LT9  SZ E        1715  4.79                  314.8 19.7      0        3.36 135 
 LT9  SE IS       1715  5.63                             161   -0.2510 3.36 135 
 LT9  SZ  AML     1715  5.85         7.0 0.38                          3.36 135 
                                                                                
