 2010  9 8 1103 53.5 L  21.315 -99.311 10.0  RAL  1 0.0-0.3LRAL                1
 GAP=360        0.30       5.3     1.0  0.0 -0.5309E+01  0.5477E+00 -0.5856E+00E
 ACTION:UPD 13-02-28 14:29 OP:RALL STATUS:               ID:20100908110353     I
 2010-09-08-1103-47S.PLUR1_003                                                 6
 STAT SP IPHASW D HRMM SECON CODA AMPLIT PERI AZIMU VELO AIN AR TRES W  DIS CAZ7
 LT9  SN IP       11 3 55.79                             137    0.0110 9.03 350 
 LT9  SZ E        11 3 55.82                  170.1 10.6      0        9.03 350 
 LT9  SE IS       11 3 57.47                             137   -0.0110 9.03 350 
 LT9  SZ  AML     11 3 57.61         2.3 0.34                          9.03 350 
                                                                                
