 2010  9 8 1225 34.3 L  21.500 -99.327 10.0  RAL  1 0.2 0.1LRAL                1
 GAP=360        0.79      28.1    31.5  0.0 -0.8852E+03  0.5477E+00 -0.5856E+00E
 ACTION:UPD 13-02-28 14:29 OP:RALL STATUS:               ID:20100908122534     I
 2010-09-08-1225-27S.PLUR1_003                                                 6
 STAT SP IPHASW D HRMM SECON CODA AMPLIT PERI AZIMU VELO AIN AR TRES W  DIS CAZ7
 LA4  SN IP       1225 36.67                             166    0.5010 2.61 134 
 LA4  SZ E        1225 36.67                  313.7 12.0      0        2.61 134 
 LA4  SZ  AML     1225 36.92         7.4 0.44                          2.61 134 
 LA4  SE IS       1225 37.06                             166   -0.5010 2.61 134 
                                                                                
