 2010  9 8 1012 16.9 L  21.243 -99.236 10.0  RAL  1 0.0 0.1LRAL                1
 GAP=360        0.30       3.5     2.2  0.0 -0.7308E+01  0.5477E+00 -0.5856E+00E
 ACTION:UPD 13-02-28 14:29 OP:RALL STATUS:               ID:20100908101216     I
 2010-09-08-1012-13S.PLUR1_003                                                 6
 STAT SP IPHASW D HRMM SECON CODA AMPLIT PERI AZIMU VELO AIN AR TRES W  DIS CAZ7
 LT9  SN IP       1012 20.52                             114    0.0010 19.3 331 
 LT9  SZ E        1012 20.53                  150.9 10.7      0        19.3 331 
 LT9  SE IS       1012 23.17                             114    0.0010 19.3 331 
 LT9  SZ  AML     1012 23.51         3.6 0.20                          19.3 331 
                                                                                
