 2010  9 8 1538 19.7 L  21.369 -99.319 10.0  RAL  1 0.0-0.9LRAL                1
 GAP=360        0.33      13.9     4.1  0.0 -0.5630E+02  0.5477E+00 -0.5856E+00E
 ACTION:UPD 13-02-28 14:29 OP:RALL STATUS:               ID:20100908153819     I
 2010-09-08-1538-13S.PLUR1_003                                                 6
 STAT SP IPHASW D HRMM SECON CODA AMPLIT PERI AZIMU VELO AIN AR TRES W  DIS CAZ7
 LT9  SZ E        1538 21.64                  164.8  7.4      0        2.98 345 
 LT9  SN IP       1538 21.65                             163    0.1010 2.98 345 
 LT9  SE IS       1538 22.80                             163   -0.1010 2.98 345 
 LT9  SZ  AML     1538 23.56         0.7 0.48                          2.98 345 
                                                                                
