 2010  9 8 2047  6.4 L  21.412 -99.329  0.0  RAL  2 0.2 0.3LRAL                1
 GAP=202        1.21       2.1     0.4 22.1 -0.5686E+00  0.3416E+01 -0.2732E+02E
 ACTION:UPD 13-02-28 14:29 OP:RALL STATUS:               ID:20100908204706     I
 2010-09-08-2046-56S.PLUR1_006                                                 6
 STAT SP IPHASW D HRMM SECON CODA AMPLIT PERI AZIMU VELO AIN AR TRES W  DIS CAZ7
 LT9  SZ E        2047  6.17                  352.7 24.0      1        1.81 172 
 LT9  SN IP       2047  6.23                             112   -0.5110 1.81 172 
 LT9  SE IS       2047  6.89                             112   -0.1010 1.81 172 
 LT9  SZ  AML     2047  7.49        13.8 0.34                          1.81 172 
 LA4  SZ E        2047  7.62                  197.2  7.4      3        8.25  14 
 LA4  SN IP       2047  7.64                              98   -0.2110 8.25  14 
 LA4  SE IS       2047  9.73                              98    0.8210 8.25  14 
 LA4  SZ  AML     2047 11.43        51.2 0.32                          8.25  14 
                                                                                
