 2010  9 8 2134 21.7 L  21.189 -99.168  5.9  RAL  2 0.4 1.0LRAL                1
 GAP=348        4.58      56.6    37.0999.9 -0.2001E+04 -0.7136E+05  0.1125E+06E
 ACTION:UPD 13-02-28 14:29 OP:RALL STATUS:               ID:20100908213421     I
 2010-09-08-2134-17S.PLUR1_006                                                 6
 STAT SP IPHASW D HRMM SECON CODA AMPLIT PERI AZIMU VELO AIN AR TRES W  DIS CAZ7
 LT9  SN IP       2134 27.22                              91    0.6810 28.1 324 
 LT9  SZ E        2134 27.30                  156.7  9.0     12        28.1 324 
 LT9  SE IS       2134 28.87                              91   -1.1910 28.1 324 
 LT9  SZ  AML     2134 29.14        12.0 0.10                          28.1 324 
 LA4  SZ E        2134 28.69                  139.4  7.2    -15        35.7 336 
 LA4  SN IP       2134 28.71                              92    0.9610 35.7 336 
 LA4  SE IS       2134 31.70                              92   -0.4610 35.7 336 
 LA4  SZ  AML     2134 33.19        34.2 0.22                          35.7 336 
                                                                                
