 2010  9 9 0009 48.3 L  21.280 -99.261  0.0  RAL  2 0.1 0.5LRAL                1
 GAP=345        1.34      10.9     5.3307.2 -0.5504E+02 -0.1171E+04  0.2497E+04E
 ACTION:UPD 13-02-28 14:29 OP:RALL STATUS:               ID:20100909000948     I
 2010-09-09-0009-42S.PLUR1_006                                                 6
 STAT SP IPHASW D HRMM SECON CODA AMPLIT PERI AZIMU VELO AIN AR TRES W  DIS CAZ7
 LT9  SN IP        0 9 50.95                              93    0.1610 14.5 332 
 LT9  SZ E         0 9 50.97                  154.9  7.5      3        14.5 332 
 LT9  SE IS        0 9 52.19                              93   -0.4610 14.5 332 
 LT9  SZ  AML      0 9 52.36         5.2 0.26                          14.5 332 
 LA4  SZ E         0 9 52.57                  162.6 10.6     -4        23.1 348 
 LA4  SN IP        0 9 52.65                              93    0.3510 23.1 348 
 LA4  SE IS        0 9 55.21                              93   -0.0510 23.1 348 
 LA4  SZ  AML      0 9 55.44        15.8 0.14                          23.1 348 
                                                                                
