 2010  9 9 0303  2.6 L  21.366 -99.318 10.0  RAL  1 0.0-0.1LRAL                1
 GAP=360        0.31      11.6     3.2  0.0 -0.3653E+02 -0.1171E+04  0.2497E+04E
 ACTION:UPD 13-02-28 14:29 OP:RALL STATUS:               ID:20100909030302     I
 2010-09-09-0302-55S.PLUR1_003                                                 6
 STAT SP IPHASW D HRMM SECON CODA AMPLIT PERI AZIMU VELO AIN AR TRES W  DIS CAZ7
 LT9  SN IP        3 3  4.48                             161    0.0510 3.39 346 
 LT9  SZ E         3 3  4.55                  165.7  7.9      0        3.39 346 
 LT9  SE IS        3 3  5.73                             161   -0.0510 3.39 346 
 LT9  SZ  AML      3 3  5.82         4.0 0.26                          3.39 346 
                                                                                
