 2010  9 9 0332 54.9 L  21.378 -99.323 10.0  RAL  1 0.0-0.3LRAL                1
 GAP=360        0.32      20.8     4.0  0.0 -0.8334E+02 -0.1171E+04  0.2497E+04E
 ACTION:UPD 13-02-28 14:29 OP:RALL STATUS:               ID:20100909033254     I
 2010-09-09-0332-48S.PLUR1_003                                                 6
 STAT SP IPHASW D HRMM SECON CODA AMPLIT PERI AZIMU VELO AIN AR TRES W  DIS CAZ7
 LT9  SN IP        332 56.81                             169    0.0710 1.90 350 
 LT9  SZ E         332 56.85                  169.8  8.5      0        1.90 350 
 LT9  SE IS        332 57.98                             169   -0.0710 1.90 350 
 LT9  SZ  AML      332 58.74         2.9 0.16                          1.90 350 
                                                                                
