 2010  9 9 0820 30.5 L  21.328 -99.323 10.0  RAL  1 0.0-0.4LRAL                1
 GAP=360        0.30       6.1     0.4  0.0 -0.2085E+01 -0.1171E+04  0.2497E+04E
 ACTION:UPD 13-02-28 14:29 OP:RALL STATUS:               ID:20100909082030     I
 2010-09-09-0820-24S.PLUR1_003                                                 6
 STAT SP IPHASW D HRMM SECON CODA AMPLIT PERI AZIMU VELO AIN AR TRES W  DIS CAZ7
 LT9  SN IP        820 32.69                             143    0.0010 7.44 357 
 LT9  SZ E         820 32.78                  177.0  8.8      0        7.44 357 
 LT9  SE IS        820 34.26                             143    0.0010 7.44 357 
 LT9  SZ  AML      820 34.84         1.8 0.14                          7.44 357 
                                                                                
