 2010  9 9 0248  5.2 L  21.241 -99.259 10.0  RAL  1 0.0-0.1LRAL                1
 GAP=360        0.30       3.8     1.7  0.0 -0.6172E+01 -0.1171E+04  0.2497E+04E
 ACTION:UPD 13-02-28 14:29 OP:RALL STATUS:               ID:20100909024805     I
 2010-09-09-0248-01S.PLUR1_003                                                 6
 STAT SP IPHASW D HRMM SECON CODA AMPLIT PERI AZIMU VELO AIN AR TRES W  DIS CAZ7
 LT9  SN IP        248  8.75                             115    0.0010 18.4 338 
 LT9  SZ E         248  8.80                  157.7  8.1      0        18.4 338 
 LT9  SE IS        248 11.31                             115    0.0010 18.4 338 
 LT9  SZ  AML      248 11.56         2.5 0.32                          18.4 338 
                                                                                
