 2010  9 9 1409 23.9 L  21.300 -99.297 10.0  RAL  1 0.0-0.5LRAL                1
 GAP=360        0.30       4.7     1.5  0.0 -0.6693E+01  0.1346E+05 -0.3578E+05E
 ACTION:UPD 13-02-28 14:29 OP:RALL STATUS:               ID:20100909140923     I
 2010-09-09-1409-18S.PLUR1_003                                                 6
 STAT SP IPHASW D HRMM SECON CODA AMPLIT PERI AZIMU VELO AIN AR TRES W  DIS CAZ7
 LT9  SN IP       14 9 26.42                             131    0.0110 11.0 344 
 LT9  SZ E        14 9 26.45                  164.1 11.5      0        11.0 344 
 LT9  SE IS       14 9 28.26                             131   -0.0110 11.0 344 
 LT9  SZ  AML     14 9 28.76         1.3 0.32                          11.0 344 
                                                                                
