 2010  9 9 1945  3.4 L  21.217 -99.218  0.0  RAL  2 0.3 1.6LRAL                1
 GAP=348        3.10      39.7    20.6999.9 -0.7832E+03 -0.2410E+05  0.4794E+05E
 ACTION:UPD 13-02-28 14:29 OP:RALL STATUS:               ID:20100909194503     I
 2010-09-09-1944-58S.PLUR1_006                                                 6
 STAT SP IPHASW D HRMM SECON CODA AMPLIT PERI AZIMU VELO AIN AR TRES W  DIS CAZ7
 LT9  SZ E        1945  7.92                  158.1  7.6      8        22.7 330 
 LT9  SN IP       1945  7.93                              92    0.5910 22.7 330 
 LT9  SE IS       1945  9.37                              92   -0.8710 22.7 330 
 LT9  SZ  AML     1945 10.04        38.2 0.28                          22.7 330 
 LA4  SZ E        1945  9.44                  151.1  6.6    -10        31.0 342 
 LA4  SN IP       1945  9.47                              92    0.6810 31.0 342 
 LA4  SE IS       1945 12.35                              92   -0.4010 31.0 342 
 LA4  SZ  AML     1945 12.39       166.9 0.20                          31.0 342 
                                                                                
