 2010  9 9 1021 37.2 L  21.529 -99.354 10.0  RAL  1 0.0 0.1LRAL                1
 GAP=360        0.30       4.9     4.9  0.0 -0.2410E+02  0.1346E+05 -0.3578E+05E
 ACTION:UPD 13-02-28 14:29 OP:RALL STATUS:               ID:20100909102137     I
 2010-09-09-1021-31S.PLUR1_003                                                 6
 STAT SP IPHASW D HRMM SECON CODA AMPLIT PERI AZIMU VELO AIN AR TRES W  DIS CAZ7
 LA4  SZ E        1021 39.40                  317.4  8.5      0        6.87 137 
 LA4  SN IP       1021 39.45                             146    0.0410 6.87 137 
 LA4  SE IS       1021 40.96                             146   -0.0410 6.87 137 
 LA4  SZ  AML     1021 41.18         6.3 0.18                          6.87 137 
                                                                                
