 2010  9 9 1544 49.1 L  21.557 -99.334 10.0  RAL  1 0.0 0.5LRAL                1
 GAP=360        0.30       5.5     1.9  0.0 -0.1026E+02  0.1346E+05 -0.3578E+05E
 ACTION:UPD 13-02-28 14:29 OP:RALL STATUS:               ID:20100909154449     I
 2010-09-09-1544-43S.PLUR1_003                                                 6
 STAT SP IPHASW D HRMM SECON CODA AMPLIT PERI AZIMU VELO AIN AR TRES W  DIS CAZ7
 LA4  SZ E        1544 51.37                  342.5  8.2      0        8.46 162 
 LA4  SN IP       1544 51.40                             140    0.0210 8.46 162 
 LA4  SE IS       1544 53.05                             140   -0.0210 8.46 162 
 LA4  SZ  AML     1544 53.25        13.6 0.10                          8.46 162 
                                                                                
