 2010  9 9 1514 52.1 L  21.338 -99.302 10.0  RAL  1 0.0-0.6LRAL                1
 GAP=360        0.30       6.1     2.6  0.0 -0.1572E+02  0.1346E+05 -0.3578E+05E
 ACTION:UPD 13-02-28 14:29 OP:RALL STATUS:               ID:20100909151452     I
 2010-09-09-1514-45S.PLUR1_003                                                 6
 STAT SP IPHASW D HRMM SECON CODA AMPLIT PERI AZIMU VELO AIN AR TRES W  DIS CAZ7
 LT9  SN IP       1514 54.25                             145    0.0210 6.80 338 
 LT9  SZ E        1514 54.26                  158.3  8.4      0        6.80 338 
 LT9  SE IS       1514 55.74                             145   -0.0210 6.80 338 
 LT9  SZ  AML     1514 55.87         1.3 0.38                          6.80 338 
                                                                                
