 2010  9 9 1230  5.5 L  21.391 -99.329 10.0  RAL  1 0.4-0.4LRAL                1
 GAP=360        5.17     999.9   999.9  0.0 -0.4614E+07  0.1346E+05 -0.3578E+05E
 ACTION:UPD 13-02-28 14:29 OP:RALL STATUS:               ID:20100909123005     I
 2010-09-09-1229-57S.PLUR1_003                                                 6
 STAT SP IPHASW D HRMM SECON CODA AMPLIT PERI AZIMU VELO AIN AR TRES W  DIS CAZ7
 LT9  SZ E        1230  7.50                  188.0 33.9    -24        0.60  33 
 LT9  SN IP       1230  7.52                             177    0.2810 0.60  33 
 LT9  SE IS       1230  8.26                             177   -0.2810 0.60  33 
 LT9  SZ  AML     1230  8.30         2.5 0.34                          0.60  33 
                                                                                
