 2010  9 9 1433 21.4 L  21.431 -99.234 10.0  RAL  1 0.0 0.1LRAL                1
 GAP=360        0.30       3.2     4.6  0.0 -0.1450E+02  0.1346E+05 -0.3578E+05E
 ACTION:UPD 13-02-28 14:29 OP:RALL STATUS:               ID:20100909143321     I
 2010-09-09-1433-16S.PLUR1_003                                                 6
 STAT SP IPHASW D HRMM SECON CODA AMPLIT PERI AZIMU VELO AIN AR TRES W  DIS CAZ7
 LA4  SZ E        1433 23.80                  126.7 11.4      0        9.70 307 
 LA4  SN IP       1433 23.87                             136    0.0210 9.70 307 
 LA4  SE IS       1433 25.62                             136   -0.0210 9.70 307 
 LA4  SZ  AML     1433 25.79         4.7 0.10                          9.70 307 
                                                                                
