 2010  9 9 1006 46.2 Ll 21.674 -99.388  0.0  RAL  2 0.5 1.6LRAL                1
 GAP=350        7.36      61.5    25.1999.9 -0.1308E+04  0.1346E+05 -0.3578E+05E
 ACTION:UPD 13-02-28 14:29 OP:RALL STATUS:               ID:20100909100646     I
 2010-09-09-1006-40S.PLUR1_006                                                 6
 STAT SP IPHASW D HRMM SECON CODA AMPLIT PERI AZIMU VELO AIN AR TRES W  DIS CAZ7
 LA4  SZ E        10 6 50.56                  358.3  8.3     20        22.6 159 
 LA4  SN IP       10 6 50.57                              93    0.4610 22.6 159 
 LA4  SE IS       10 6 52.23                              93   -0.7710 22.6 159 
 LA4  SZ  AML     10 6 53.68       549.1 0.20                          22.6 159 
 LT9  SN IP       10 6 52.23                              91    0.5710 31.5 168 
 LT9  SZ E        10 6 52.25                  318.5 11.7    -29        31.5 168 
 LT9  SE IS       10 6 55.42                              91   -0.2610 31.5 168 
 LT9  SZ  AML     10 6 55.94        15.3 0.24                          31.5 168 
                                                                                
