 2010  9 9 2352 38.5 L  21.391 -99.314 10.0  RAL  1 0.2 0.2LRAL                1
 GAP=360        0.90     999.9   999.9  0.0  0.4783E+07 -0.2410E+05  0.4794E+05E
 ACTION:UPD 13-02-28 14:29 OP:RALL STATUS:               ID:20100909235238     I
 2010-09-09-2352-31S.PLUR1_003                                                 6
 STAT SP IPHASW D HRMM SECON CODA AMPLIT PERI AZIMU VELO AIN AR TRES W  DIS CAZ7
 LT9  SN IP       2352 40.85                             172    0.5710 1.37 289 
 LT9  SZ E        2352 40.85                  109.4  9.2      0        1.37 289 
 LT9  SE IS       2352 41.01                             172   -0.5710 1.37 289 
 LT9  SZ  AML     2352 41.09         9.8 0.10                          1.37 289 
                                                                                
