 2010  9 9 2016 45.3 L  21.405 -99.347 10.0  RAL  1 0.1 0.2LRAL                1
 GAP=360        0.63      15.4    32.8  0.0 -0.5057E+03 -0.2410E+05  0.4794E+05E
 ACTION:UPD 13-02-28 14:29 OP:RALL STATUS:               ID:20100909201645     I
 2010-09-09-2016-37S.PLUR1_003                                                 6
 STAT SP IPHASW D HRMM SECON CODA AMPLIT PERI AZIMU VELO AIN AR TRES W  DIS CAZ7
 LT9  SZ E        2016 47.43                  296.8 13.6      0        2.35 117 
 LT9  SN IP       2016 47.47                             167    0.3710 2.35 117 
 LT9  SE IS       2016 48.05                             167   -0.3710 2.35 117 
 LT9  SZ  AML     2016 48.19         8.5 0.50                          2.35 117 
                                                                                
