 2010  910 0834 22.1 L  21.219 -99.224 10.0  RAL  1 0.0 0.6LRAL                1
 GAP=360        0.30       3.5     2.1  0.0 -0.6809E+01 -0.2410E+05  0.4794E+05E
 ACTION:UPD 13-02-28 14:29 OP:RALL STATUS:               ID:20100910083422     I
 2010-09-10-0834-18S.PLUR1_003                                                 6
 STAT SP IPHASW D HRMM SECON CODA AMPLIT PERI AZIMU VELO AIN AR TRES W  DIS CAZ7
 LT9  SN IP        834 26.18                             110    0.0010 22.2 332 
 LT9  SZ E         834 26.20                  151.5  7.5      0        22.2 332 
 LT9  SE IS        834 29.14                             110    0.0010 22.2 332 
 LT9  SZ  AML      834 29.16         8.7 0.40                          22.2 332 
                                                                                
