 2010  910 0825 29.3 L  21.215 -99.233 10.0  RAL  1 0.0 0.2LRAL                1
 GAP=360        0.30       3.6     1.9  0.0 -0.6381E+01 -0.2410E+05  0.4794E+05E
 ACTION:UPD 13-02-28 14:29 OP:RALL STATUS:               ID:20100910082529     I
 2010-09-10-0825-26S.PLUR1_003                                                 6
 STAT SP IPHASW D HRMM SECON CODA AMPLIT PERI AZIMU VELO AIN AR TRES W  DIS CAZ7
 LT9  SZ E         825 33.41                  154.1  7.0      0        22.2 334 
 LT9  SN IP        825 33.41                             110    0.0010 22.2 334 
 LT9  SE IS        825 36.37                             110    0.0010 22.2 334 
 LT9  SZ  AML      825 37.68         3.7 0.52                          22.2 334 
                                                                                
