 2010  910 0658  0.3 L  21.351 -99.307 10.0  RAL  1 0.0 0.1LRAL                1
 GAP=360        0.30       7.4     3.2  0.0 -0.2368E+02 -0.2410E+05  0.4794E+05E
 ACTION:UPD 13-02-28 14:29 OP:RALL STATUS:               ID:20100910065800     I
 2010-09-10-0657-53S.PLUR1_003                                                 6
 STAT SP IPHASW D HRMM SECON CODA AMPLIT PERI AZIMU VELO AIN AR TRES W  DIS CAZ7
 LT9  SN IP        658  2.27                             152    0.0310 5.26 338 
 LT9  SZ E         658  2.28                  158.1  7.3      0        5.26 338 
 LT9  SE IS        658  3.65                             152   -0.0310 5.26 338 
 LT9  SZ  AML      658  4.35         6.5 0.18                          5.26 338 
                                                                                
