 2010  910 0318 14.4 L  21.370 -99.318 10.0  RAL  1 0.0-0.7LRAL                1
 GAP=360        0.35      14.5     4.9  0.0 -0.7060E+02 -0.2410E+05  0.4794E+05E
 ACTION:UPD 13-02-28 14:29 OP:RALL STATUS:               ID:20100910031814     I
 2010-09-10-0318-07S.PLUR1_003                                                 6
 STAT SP IPHASW D HRMM SECON CODA AMPLIT PERI AZIMU VELO AIN AR TRES W  DIS CAZ7
 LT9  SZ E         318 16.34                  162.7  7.9      0        2.97 343 
 LT9  SN IP        318 16.36                             163    0.1210 2.97 343 
 LT9  SE IS        318 17.46                             163   -0.1210 2.97 343 
 LT9  SZ  AML      318 17.54         1.1 0.32                          2.97 343 
                                                                                
