 2010  910 0930 15.5 L  21.363 -99.309 10.0  RAL  1 0.0-0.6LRAL                1
 GAP=360        0.33       9.6     5.3  0.0 -0.5120E+02 -0.8466E+04  0.2355E+05E
 ACTION:UPD 13-02-28 14:29 OP:RALL STATUS:               ID:20100910093015     I
 2010-09-10-0930-08S.PLUR1_003                                                 6
 STAT SP IPHASW D HRMM SECON CODA AMPLIT PERI AZIMU VELO AIN AR TRES W  DIS CAZ7
 LT9  SZ E         930 17.47                  152.8  7.9      0        4.04 333 
 LT9  SN IP        930 17.47                             158    0.0910 4.04 333 
 LT9  SE IS        930 18.67                             158   -0.0910 4.04 333 
 LT9  SZ  AML      930 18.86         1.3 0.10                          4.04 333 
                                                                                
