 2010  910 0859 41.5 L  21.242 -99.260  0.0  RAL  2 0.2 0.3LRAL                1
 GAP=349        2.24      30.3    11.3888.5 -0.3279E+03 -0.8466E+04  0.2355E+05E
 ACTION:UPD 13-02-28 14:29 OP:RALL STATUS:               ID:20100910085941     I
 2010-09-10-0859-36S.PLUR1_006                                                 6
 STAT SP IPHASW D HRMM SECON CODA AMPLIT PERI AZIMU VELO AIN AR TRES W  DIS CAZ7
 LT9  SN IP        859 45.27                              92    0.5110 18.3 338 
 LT9  SZ E         859 45.28                  163.2  7.3      5        18.3 338 
 LT9  SE IS        859 46.49                              92   -0.6110 18.3 338 
 LT9  SZ  AML      859 46.67         2.8 0.10                          18.3 338 
 LA4  SN IP        859 46.81                              92    0.4910 27.3 349 
 LA4  SZ E         859 46.84                  161.2  6.3     -7        27.3 349 
 LA4  SE IS        859 49.41                              92   -0.3910 27.3 349 
 LA4  SZ  AML      859 49.66         9.1 0.14                          27.3 349 
                                                                                
