 2010  910 1243 28.5 L  21.341 -99.301 10.0  RAL  1 0.0-0.6LRAL                1
 GAP=360        0.30       6.2     2.9  0.0 -0.1776E+02 -0.8466E+04  0.2355E+05E
 ACTION:UPD 13-02-28 14:29 OP:RALL STATUS:               ID:20100910124328     I
 2010-09-10-1243-22S.PLUR1_003                                                 6
 STAT SP IPHASW D HRMM SECON CODA AMPLIT PERI AZIMU VELO AIN AR TRES W  DIS CAZ7
 LT9  SZ E        1243 30.60                  156.5  8.2      0        6.50 337 
 LT9  SN IP       1243 30.64                             147    0.0210 6.50 337 
 LT9  SE IS       1243 32.12                             147   -0.0210 6.50 337 
 LT9  SZ  AML     1243 33.15         1.2 0.26                          6.50 337 
                                                                                
