 2010  910 1455 21.4 L  21.236 -99.244 10.0  RAL  1 0.0-0.1LRAL                1
 GAP=360        0.30       3.6     2.0  0.0 -0.6732E+01 -0.8466E+04  0.2355E+05E
 ACTION:UPD 13-02-28 14:29 OP:RALL STATUS:               ID:20100910145521     I
 2010-09-10-1455-18S.PLUR1_003                                                 6
 STAT SP IPHASW D HRMM SECON CODA AMPLIT PERI AZIMU VELO AIN AR TRES W  DIS CAZ7
 LT9  SN IP       1455 25.07                             113    0.0010 19.6 334 
 LT9  SZ E        1455 25.08                  154.0  7.9      0        19.6 334 
 LT9  SE IS       1455 27.75                             113    0.0010 19.6 334 
 LT9  SZ  AML     1455 29.40         2.0 0.42                          19.6 334 
                                                                                
