 2010  910 1846 40.3 L  21.367 -99.315 10.0  RAL  1 0.0-0.5LRAL                1
 GAP=360        0.34      12.6     5.1  0.0 -0.6387E+02 -0.8466E+04  0.2355E+05E
 ACTION:UPD 13-02-28 14:29 OP:RALL STATUS:               ID:20100910184640     I
 2010-09-10-1846-33S.PLUR1_003                                                 6
 STAT SP IPHASW D HRMM SECON CODA AMPLIT PERI AZIMU VELO AIN AR TRES W  DIS CAZ7
 LT9  SN IP       1846 42.29                             162    0.1110 3.31 340 
 LT9  SZ E        1846 42.30                  159.6  8.6      0        3.31 340 
 LT9  SE IS       1846 43.42                             162   -0.1110 3.31 340 
 LT9  SZ  AML     1846 44.26         1.8 0.20                          3.31 340 
                                                                                
