 2010  910 1623 53.4 L  21.266 -99.253 10.0  RAL  1 0.0 0.0LRAL                1
 GAP=360        0.30       3.7     2.2  0.0 -0.7829E+01 -0.8466E+04  0.2355E+05E
 ACTION:UPD 13-02-28 14:29 OP:RALL STATUS:               ID:20100910162353     I
 2010-09-10-1623-49S.PLUR1_003                                                 6
 STAT SP IPHASW D HRMM SECON CODA AMPLIT PERI AZIMU VELO AIN AR TRES W  DIS CAZ7
 LT9  SZ E        1623 56.53                  151.9  9.0      0        16.2 332 
 LT9  SN IP       1623 56.57                             119    0.0110 16.2 332 
 LT9  SE IS       1623 58.90                             119   -0.0110 16.2 332 
 LT9  SZ  AML     1624  0.52         3.1 0.36                          16.2 332 
                                                                                
