 2010  910 1752 51.6 L  21.317 -99.310 10.0  RAL  1 0.0-0.4LRAL                1
 GAP=360        0.30       5.4     1.2  0.0 -0.6150E+01 -0.8466E+04  0.2355E+05E
 ACTION:UPD 13-02-28 14:29 OP:RALL STATUS:               ID:20100910175251     I
 2010-09-10-1752-45S.PLUR1_003                                                 6
 STAT SP IPHASW D HRMM SECON CODA AMPLIT PERI AZIMU VELO AIN AR TRES W  DIS CAZ7
 LT9  SZ E        1752 53.91                  168.8  7.4      0        8.81 349 
 LT9  SN IP       1752 53.94                             138    0.0110 8.81 349 
 LT9  SE IS       1752 55.60                             138   -0.0110 8.81 349 
 LT9  SZ  AML     1752 55.72         1.8 0.32                          8.81 349 
                                                                                
