 2010  910 1446  0.1 L  21.362 -99.318 10.0  RAL  1 0.0-0.6LRAL                1
 GAP=360        0.30      10.3     2.7  0.0 -0.2784E+02 -0.8466E+04  0.2355E+05E
 ACTION:UPD 13-02-28 14:29 OP:RALL STATUS:               ID:20100910144600     I
 2010-09-10-1445-54S.PLUR1_003                                                 6
 STAT SP IPHASW D HRMM SECON CODA AMPLIT PERI AZIMU VELO AIN AR TRES W  DIS CAZ7
 LT9  SZ E        1446  2.05                  166.3  8.6      0        3.76 346 
 LT9  SN IP       1446  2.05                             159    0.0310 3.76 346 
 LT9  SE IS       1446  3.36                             159   -0.0310 3.76 346 
 LT9  SZ  AML     1446  4.02         1.2 0.12                          3.76 346 
                                                                                
