 2010  910 1609 49.6 L  21.379 -99.338 10.0  RAL  1 0.2-0.6LRAL                1
 GAP=360        0.71      34.6    25.2  0.0  0.8725E+03 -0.8466E+04  0.2355E+05E
 ACTION:UPD 13-02-28 14:29 OP:RALL STATUS:               ID:20100910160949     I
 2010-09-10-1609-42S.PLUR1_003                                                 6
 STAT SP IPHASW D HRMM SECON CODA AMPLIT PERI AZIMU VELO AIN AR TRES W  DIS CAZ7
 LT9  SN IP       16 9 51.80                             168    0.4410 2.18  34 
 LT9  SZ E        16 9 51.82                  214.2 17.0      0        2.18  34 
 LT9  SE IS       16 9 52.25                             168   -0.4410 2.18  34 
 LT9  SZ  AML     16 9 52.40         1.4 0.40                          2.18  34 
                                                                                
