 2010  910 2029 43.2 L  21.394 -99.328 10.0  RAL  1 0.9-0.5LRAL                1
 GAP=360       11.58     999.9   999.9  0.0 -0.2100E+11 -0.8466E+04  0.2355E+05E
 ACTION:UPD 13-02-28 14:29 OP:RALL STATUS:               ID:20100910202943     I
 2010-09-10-2029-36S.PLUR1_003                                                 6
 STAT SP IPHASW D HRMM SECON CODA AMPLIT PERI AZIMU VELO AIN AR TRES W  DIS CAZ7
 LT9  SN IP       2029 45.02                             179    0.0710 0.21  52 
 LT9  SZ E        2029 45.07                  176.3 10.4    -54        0.21  52 
 LT9  SE IS       2029 46.18                             179   -0.0710 0.21  52 
 LT9  SZ  AML     2029 46.93         1.7 0.38                          0.21  52 
                                                                                
