 2010  910 2140  4.8 L  21.301 -99.341 10.0  RAL  1 0.0-0.3LRAL                1
 GAP=360        0.30       4.9     0.8  0.0  0.3869E+01 -0.8466E+04  0.2355E+05E
 ACTION:UPD 13-02-28 14:29 OP:RALL STATUS:               ID:20100910214004     I
 2010-09-10-2139-59S.PLUR1_003                                                 6
 STAT SP IPHASW D HRMM SECON CODA AMPLIT PERI AZIMU VELO AIN AR TRES W  DIS CAZ7
 LT9  SN IP       2140  7.27                             132    0.0010 10.5   8 
 LT9  SZ E        2140  7.41                  188.5 11.0      0        10.5   8 
 LT9  SE IS       2140  9.08                             132    0.0010 10.5   8 
 LT9  SZ  AML     2140  9.17         2.0 0.32                          10.5   8 
                                                                                
