 2010  911 0719 24.3 L  21.192 -99.276  7.4  RAL  2 0.3 0.3LRAL                1
 GAP=353        5.28     140.3    28.8999.9 -0.3797E+04 -0.1075E+06  0.5558E+06E
 ACTION:UPD 13-02-28 14:29 OP:RALL STATUS:               ID:20100911071924     I
 2010-09-11-0719-21S.PLUR1_006                                                 6
 STAT SP IPHASW D HRMM SECON CODA AMPLIT PERI AZIMU VELO AIN AR TRES W  DIS CAZ7
 LT9  SZ E         719 28.76                  182.5 12.6     16        23.1 347 
 LT9  SN IP        719 28.76                              92    0.4110 23.1 347 
 LT9  SE IS        719 30.74                              92   -0.5910 23.1 347 
 LT9  SZ  AML      719 31.71         1.3 0.18                          23.1 347 
 LA4  SN IP        719 30.22                              92    0.4010 32.5 354 
 LA4  SZ E         719 30.24                  153.8  6.6    -19        32.5 354 
 LA4  SE IS        719 33.67                              92   -0.2110 32.5 354 
 LA4  SZ  AML      719 34.22        12.9 0.24                          32.5 354 
                                                                                
