 2010  911 0956  7.9 L  21.363 -99.297 10.0  RAL  1 0.0-0.5LRAL                1
 GAP=360        0.33       7.2     6.6  0.0 -0.4732E+02 -0.1075E+06  0.5558E+06E
 ACTION:UPD 13-02-28 14:29 OP:RALL STATUS:               ID:20100911095607     I
 2010-09-11-0956-01S.PLUR1_003                                                 6
 STAT SP IPHASW D HRMM SECON CODA AMPLIT PERI AZIMU VELO AIN AR TRES W  DIS CAZ7
 LT9  SZ E         956  9.88                  139.8  7.1      0        4.76 320 
 LT9  SN IP        956  9.90                             154    0.0910 4.76 320 
 LT9  SE IS        956 11.13                             154   -0.0910 4.76 320 
 LT9  SZ  AML      956 11.24         1.5 0.28                          4.76 320 
                                                                                
