 2010  911 0707 18.7 L  21.246 -99.220 10.0  RAL  1 0.0 0.3LRAL                1
 GAP=360        0.30       3.3     2.4  0.0 -0.7849E+01 -0.4012E+05  0.1022E+06E
 ACTION:UPD 13-02-28 14:29 OP:RALL STATUS:               ID:20100911070718     I
 2010-09-11-0707-15S.PLUR1_003                                                 6
 STAT SP IPHASW D HRMM SECON CODA AMPLIT PERI AZIMU VELO AIN AR TRES W  DIS CAZ7
 LT9  SN IP        7 7 22.39                             113    0.0010 19.9 326 
 LT9  SZ E         7 7 22.40                  146.2  9.3      0        19.9 326 
 LT9  SE IS        7 7 25.10                             113    0.0010 19.9 326 
 LT9  SZ  AML      7 7 25.63         5.4 0.26                          19.9 326 
                                                                                
