 2010  911 0350 34.0 L  21.345 -99.301 10.0  RAL  1 0.0 0.1LRAL                1
 GAP=360        0.30       6.4     3.3  0.0 -0.2093E+02 -0.2384E+05  0.5978E+05E
 ACTION:UPD 13-02-28 14:29 OP:RALL STATUS:               ID:20100911035034     I
 2010-09-11-0350-27S.PLUR1_003                                                 6
 STAT SP IPHASW D HRMM SECON CODA AMPLIT PERI AZIMU VELO AIN AR TRES W  DIS CAZ7
 LT9  SN IP        350 36.12                             148    0.0310 6.14 334 
 LT9  SZ E         350 36.14                  154.2  8.0      0        6.14 334 
 LT9  SE IS        350 37.56                             148   -0.0310 6.14 334 
 LT9  SZ  AML      350 37.77         6.2 0.42                          6.14 334 
                                                                                
