 2010  911 0822 34.6 L  21.248 -99.243 10.0  RAL  1 0.0 0.4LRAL                1
 GAP=360        0.30       3.6     2.1  0.0 -0.7267E+01 -0.1075E+06  0.5558E+06E
 ACTION:UPD 13-02-28 14:29 OP:RALL STATUS:               ID:20100911082234     I
 2010-09-11-0822-30S.PLUR1_003                                                 6
 STAT SP IPHASW D HRMM SECON CODA AMPLIT PERI AZIMU VELO AIN AR TRES W  DIS CAZ7
 LT9  SZ E         822 38.08                  152.1  7.4      0        18.4 332 
 LT9  SN IP        822 38.10                             115    0.0010 18.4 332 
 LT9  SE IS        822 40.66                             115    0.0010 18.4 332 
 LT9  SZ  AML      822 42.32         6.7 0.38                          18.4 332 
                                                                                
