 2010  911 0146 44.1 L  21.228 -99.246  0.0  RAL  2 0.3 0.4LRAL                1
 GAP=349        3.30      46.4    19.2999.9 -0.8532E+03 -0.2384E+05  0.5978E+05E
 ACTION:UPD 13-02-28 14:29 OP:RALL STATUS:               ID:20100911014644     I
 2010-09-11-0146-39S.PLUR1_006                                                 6
 STAT SP IPHASW D HRMM SECON CODA AMPLIT PERI AZIMU VELO AIN AR TRES W  DIS CAZ7
 LT9  SZ E         146 48.33                  163.7  6.0      8        20.4 336 
 LT9  SN IP        146 48.33                              92    0.6310 20.4 336 
 LT9  SE IS        146 49.32                              92   -0.9810 20.4 336 
 LT9  SZ  AML      146 50.28         4.3 0.48                          20.4 336 
 LA4  SZ E         146 49.96                  155.0  6.2    -11        29.1 347 
 LA4  SN IP        146 49.98                              92    0.7510 29.1 347 
 LA4  SE IS        146 52.54                              92   -0.4010 29.1 347 
 LA4  SZ  AML      146 52.89        10.3 0.10                          29.1 347 
                                                                                
