 2010  911 0400 38.6 L  21.209 -99.238  0.0  RAL  2 0.3 1.5LRAL                1
 GAP=350        3.79      58.6    23.8999.9 -0.1336E+04 -0.4012E+05  0.1022E+06E
 ACTION:UPD 13-02-28 14:29 OP:RALL STATUS:               ID:20100911040038     I
 2010-09-11-0400-33S.PLUR1_006                                                 6
 STAT SP IPHASW D HRMM SECON CODA AMPLIT PERI AZIMU VELO AIN AR TRES W  DIS CAZ7
 LT9  SZ E         4 0 43.17                  165.8  7.5     10        22.6 336 
 LT9  SN IP        4 0 43.17                              92    0.6510 22.6 336 
 LT9  SE IS        4 0 44.58                              92   -0.8210 22.6 336 
 LT9  SZ  AML      4 0 44.84        35.1 0.40                          22.6 336 
 LA4  SZ E         4 0 44.63                  152.0  6.9    -13        31.3 346 
 LA4  SN IP        4 0 44.65                              92    0.6010 31.3 346 
 LA4  SE IS        4 0 47.61                              92   -0.4310 31.3 346 
 LA4  SZ  AML      4 0 47.77       152.9 0.40                          31.3 346 
                                                                                
