 2010  911 0437 21.9 L  21.361 -99.319 10.0  RAL  1 0.0-0.7LRAL                1
 GAP=360        0.30      10.2     2.3  0.0 -0.2336E+02 -0.4012E+05  0.1022E+06E
 ACTION:UPD 13-02-28 14:29 OP:RALL STATUS:               ID:20100911043721     I
 2010-09-11-0437-15S.PLUR1_003                                                 6
 STAT SP IPHASW D HRMM SECON CODA AMPLIT PERI AZIMU VELO AIN AR TRES W  DIS CAZ7
 LT9  SN IP        437 23.83                             159    0.0410 3.86 348 
 LT9  SZ E         437 23.84                  168.2  7.2      0        3.86 348 
 LT9  SE IS        437 25.13                             159   -0.0410 3.86 348 
 LT9  SZ  AML      437 25.88         1.0 0.18                          3.86 348 
                                                                                
