 2010  911 0921 28.6 L  21.413 -99.348 10.0  RAL  1 0.1-0.5LRAL                1
 GAP=360        0.50      14.1    17.8  0.0 -0.2523E+03 -0.1075E+06  0.5558E+06E
 ACTION:UPD 13-02-28 14:29 OP:RALL STATUS:               ID:20100911092128     I
 2010-09-11-0921-21S.PLUR1_003                                                 6
 STAT SP IPHASW D HRMM SECON CODA AMPLIT PERI AZIMU VELO AIN AR TRES W  DIS CAZ7
 LT9  SZ E         921 30.73                  310.4 31.5      0        2.99 130 
 LT9  SN IP        921 30.76                             163    0.2710 2.99 130 
 LT9  SE IS        921 31.56                             163   -0.2710 2.99 130 
 LT9  SZ  AML      921 31.75         1.6 0.22                          2.99 130 
                                                                                
