 2010  911 1640 40.1 L  21.335 -99.301 10.0  RAL  1 0.0-0.5LRAL                1
 GAP=360        0.30       5.9     2.5  0.0 -0.1458E+02 -0.1075E+06  0.5558E+06E
 ACTION:UPD 13-02-28 14:29 OP:RALL STATUS:               ID:20100911164040     I
 2010-09-11-1640-33S.PLUR1_003                                                 6
 STAT SP IPHASW D HRMM SECON CODA AMPLIT PERI AZIMU VELO AIN AR TRES W  DIS CAZ7
 LT9  SZ E        1640 42.21                  158.4  7.9      0        7.14 338 
 LT9  SN IP       1640 42.21                             144    0.0210 7.14 338 
 LT9  SE IS       1640 43.73                             144   -0.0210 7.14 338 
 LT9  SZ  AML     1640 44.21         1.6 0.10                          7.14 338 
                                                                                
