 2010  911 1037 43.6 L  21.408 -99.342 10.0  RAL  1 0.2-0.9LRAL                1
 GAP=360        0.77      29.1    37.2  0.0 -0.1084E+04 -0.1075E+06  0.5558E+06E
 ACTION:UPD 13-02-28 14:29 OP:RALL STATUS:               ID:20100911103743     I
 2010-09-11-1037-36S.PLUR1_003                                                 6
 STAT SP IPHASW D HRMM SECON CODA AMPLIT PERI AZIMU VELO AIN AR TRES W  DIS CAZ7
 LT9  SZ E        1037 45.85                  310.0 10.4      0        2.18 130 
 LT9  SN IP       1037 45.87                             168    0.4810 2.18 130 
 LT9  SE IS       1037 46.23                             168   -0.4810 2.18 130 
 LT9  SZ  AML     1037 46.31         0.7 0.10                          2.18 130 
                                                                                
