 2010  911 1928 16.2 L  21.258 -99.293 10.0  RAL  1 0.0-0.4LRAL                1
 GAP=360        0.30       4.2     1.1  0.0 -0.4130E+01 -0.1075E+06  0.5558E+06E
 ACTION:UPD 13-02-28 14:29 OP:RALL STATUS:               ID:20100911192816     I
 2010-09-11-1928-12S.PLUR1_003                                                 6
 STAT SP IPHASW D HRMM SECON CODA AMPLIT PERI AZIMU VELO AIN AR TRES W  DIS CAZ7
 LT9  SZ E        1928 19.27                  167.3  7.3      0        15.6 347 
 LT9  SN IP       1928 19.29                             120    0.0010 15.6 347 
 LT9  SE IS       1928 21.57                             120    0.0010 15.6 347 
 LT9  SZ  AML     1928 22.47         1.2 0.20                          15.6 347 
                                                                                
