 2010  911 2109 60.0 L  21.258 -99.224 10.0  RAL  1 0.0 0.0LRAL                1
 GAP=360        0.30       3.4     2.5  0.0 -0.8224E+01 -0.1075E+06  0.5558E+06E
 ACTION:UPD 13-02-28 14:29 OP:RALL STATUS:               ID:20100911210960     I
 2010-09-11-2109-56S.PLUR1_003                                                 6
 STAT SP IPHASW D HRMM SECON CODA AMPLIT PERI AZIMU VELO AIN AR TRES W  DIS CAZ7
 LT9  SN IP       2110  3.51                             115    0.0110 18.6 325 
 LT9  SZ E        2110  3.55                  145.1  9.5      0        18.6 325 
 LT9  SE IS       2110  6.08                             115   -0.0110 18.6 325 
 LT9  SZ  AML     2110  6.11         2.8 0.18                          18.6 325 
                                                                                
