 2010  911 2014 27.5 L  21.352 -99.315 10.0  RAL  1 0.0-0.1LRAL                1
 GAP=360        0.30       8.2     2.2  0.0 -0.1796E+02 -0.1075E+06  0.5558E+06E
 ACTION:UPD 13-02-28 14:29 OP:RALL STATUS:               ID:20100911201427     I
 2010-09-11-2014-20S.PLUR1_003                                                 6
 STAT SP IPHASW D HRMM SECON CODA AMPLIT PERI AZIMU VELO AIN AR TRES W  DIS CAZ7
 LT9  SN IP       2014 29.51                             154    0.0310 4.89 346 
 LT9  SZ E        2014 29.55                  166.0  6.9      0        4.89 346 
 LT9  SE IS       2014 30.88                             154   -0.0310 4.89 346 
 LT9  SZ  AML     2014 31.03         4.2 0.10                          4.89 346 
                                                                                
