 2010  912 0301 18.8 L  21.373 -99.320 10.0  RAL  1 0.0 0.6LRAL                1
 GAP=360        0.33      15.7     4.5  0.0 -0.7059E+02 -0.1075E+06  0.5558E+06E
 ACTION:UPD 13-02-28 14:29 OP:RALL STATUS:               ID:20100912030118     I
 2010-09-12-0301-10S.PLUR1_003                                                 6
 STAT SP IPHASW D HRMM SECON CODA AMPLIT PERI AZIMU VELO AIN AR TRES W  DIS CAZ7
 LT9  SZ E         3 1 20.70                  165.0  7.6      0        2.59 345 
 LT9  SN IP        3 1 20.71                             165    0.0910 2.59 345 
 LT9  SE IS        3 1 21.86                             165   -0.0910 2.59 345 
 LT9  SZ  AML      3 1 21.98        22.7 0.18                          2.59 345 
                                                                                
