 2010  912 0632 12.5 L  21.284 -99.267  0.0  RAL  2 0.1-0.1LRAL                1
 GAP=345        1.20       9.5     4.4271.0 -0.3919E+02 -0.8331E+03  0.1884E+04E
 ACTION:UPD 13-02-28 14:29 OP:RALL STATUS:               ID:20100912063212     I
 2010-09-12-0632-06S.PLUR1_006                                                 6
 STAT SP IPHASW D HRMM SECON CODA AMPLIT PERI AZIMU VELO AIN AR TRES W  DIS CAZ7
 LT9  SZ E         632 15.10                  155.9  7.8      2        13.7 333 
 LT9  SN IP        632 15.12                              93    0.2410 13.7 333 
 LT9  SE IS        632 16.30                              93   -0.3410 13.7 333 
 LT9  SZ  AML      632 16.39         2.1 0.26                          13.7 333 
 LA4  SZ E         632 16.62                  164.4 20.5     -3        22.5 349 
 LA4  SN IP        632 16.67                              93    0.2510 22.5 349 
 LA4  SE IS        632 19.14                              93   -0.1510 22.5 349 
 LA4  SZ  AML      632 19.44         3.3 0.16                          22.5 349 
                                                                                
