 2010  912 0859 13.7 L  20.778 -99.375 10.0  RAL  1 0.0 1.3LRAL                1
 GAP=360        0.30       3.7     2.2  0.0  0.8908E+00 -0.8331E+03  0.1884E+04E
 ACTION:UPD 13-02-28 14:29 OP:RALL STATUS:               ID:20100912085913     I
 2010-09-12-0859-17S.PLUR1_003                                                 6
 STAT SP IPHASW D HRMM SECON CODA AMPLIT PERI AZIMU VELO AIN AR TRES W  DIS CAZ7
 LA4  SZ E         859 26.32                  185.0  6.0      0        78.5   5 
 LA4  SN IP        859 26.43                              94    0.0110 78.5   5 
 LA4  SE IS        859 35.69                              94   -0.0110 78.5   5 
 LA4  SZ  AML      859 37.07        15.4 0.16                          78.5   5 
                                                                                
