 2010  912 1554 23.7 L  21.593 -99.318 10.0  RAL  1 0.0 0.4LRAL                1
 GAP=360        0.30       4.7     0.5  0.0 -0.1914E+01 -0.8331E+03  0.1884E+04E
 ACTION:UPD 13-02-28 14:29 OP:RALL STATUS:               ID:20100912155423     I
 2010-09-12-1554-19S.PLUR1_003                                                 6
 STAT SP IPHASW D HRMM SECON CODA AMPLIT PERI AZIMU VELO AIN AR TRES W  DIS CAZ7
 LA4  SN IP       1554 26.47                             129    0.0010 12.1 175 
 LA4  SZ E        1554 26.50                  355.4  7.8      0        12.1 175 
 LA4  SE IS       1554 28.46                             129    0.0010 12.1 175 
 LA4  SZ  AML     1554 28.81         9.2 0.10                          12.1 175 
                                                                                
