 2010  912 1055 31.6 L  21.378 -99.339 10.0  RAL  1 0.2-0.8LRAL                1
 GAP=360        0.72      32.9    24.0  0.0  0.7881E+03 -0.8331E+03  0.1884E+04E
 ACTION:UPD 13-02-28 14:29 OP:RALL STATUS:               ID:20100912105531     I
 2010-09-12-1055-24S.PLUR1_003                                                 6
 STAT SP IPHASW D HRMM SECON CODA AMPLIT PERI AZIMU VELO AIN AR TRES W  DIS CAZ7
 LT9  SZ E        1055 33.81                  214.2 13.8      0        2.33  34 
 LT9  SN IP       1055 33.82                             167    0.4410 2.33  34 
 LT9  SE IS       1055 34.26                             167   -0.4410 2.33  34 
 LT9  SZ  AML     1055 34.44         0.8 0.32                          2.33  34 
                                                                                
