 2010  912 1729 57.4 L  21.334 -99.310 10.0  RAL  1 0.0-0.7LRAL                1
 GAP=360        0.30       6.2     1.7  0.0 -0.1025E+02 -0.8331E+03  0.1884E+04E
 ACTION:UPD 13-02-28 14:29 OP:RALL STATUS:               ID:20100912172957     I
 2010-09-12-1729-51S.PLUR1_003                                                 6
 STAT SP IPHASW D HRMM SECON CODA AMPLIT PERI AZIMU VELO AIN AR TRES W  DIS CAZ7
 LT9  SN IP       1729 59.50                             145    0.0210 6.96 346 
 LT9  SZ E        1729 59.56                  166.2  9.2      0        6.96 346 
 LT9  SE IS       1730  1.00                             145   -0.0210 6.96 346 
 LT9  SZ  AML     1730  1.44         0.9 0.32                          6.96 346 
                                                                                
