 2010  913 0742 19.8 L  21.331 -99.289 10.0  RAL  1 0.0-0.4LRAL                1
 GAP=360        0.30       5.1     3.0  0.0 -0.1507E+02 -0.8331E+03  0.1884E+04E
 ACTION:UPD 13-02-28 14:29 OP:RALL STATUS:               ID:20100913074219     I
 2010-09-13-0742-13S.PLUR1_003                                                 6
 STAT SP IPHASW D HRMM SECON CODA AMPLIT PERI AZIMU VELO AIN AR TRES W  DIS CAZ7
 LT9  SZ E         742 22.04                  151.8  7.7      0        8.09 332 
 LT9  SN IP        742 22.06                             140    0.0210 8.09 332 
 LT9  SE IS        742 23.64                             140   -0.0210 8.09 332 
 LT9  SZ  AML      742 23.76         1.7 0.10                          8.09 332 
                                                                                
