 2010  913 0329 19.7 L  21.377 -99.323 10.0  RAL  1 0.2-0.2LRAL                1
 GAP=360        0.97      58.4    10.2  0.0 -0.5929E+03 -0.8331E+03  0.1884E+04E
 ACTION:UPD 13-02-28 14:29 OP:RALL STATUS:               ID:20100913032919     I
 2010-09-13-0329-12S.PLUR1_003                                                 6
 STAT SP IPHASW D HRMM SECON CODA AMPLIT PERI AZIMU VELO AIN AR TRES W  DIS CAZ7
 LT9  SZ E         329 22.10                  169.4  6.0      0        2.09 351 
 LT9  SN IP        329 22.12                             168    0.5910 2.09 351 
 LT9  SE IS        329 22.26                             168   -0.5910 2.09 351 
 LT9  SZ  AML      329 22.32         3.4 0.10                          2.09 351 
                                                                                
