 2010  913 0522 53.2 L  21.231 -99.244 10.0  RAL  1 0.0 0.1LRAL                1
 GAP=360        0.30       3.6     1.9  0.0 -0.6503E+01 -0.8331E+03  0.1884E+04E
 ACTION:UPD 13-02-28 14:29 OP:RALL STATUS:               ID:20100913052253     I
 2010-09-13-0522-49S.PLUR1_003                                                 6
 STAT SP IPHASW D HRMM SECON CODA AMPLIT PERI AZIMU VELO AIN AR TRES W  DIS CAZ7
 LT9  SN IP        522 56.92                             113    0.0010 20.2 335 
 LT9  SZ E         522 56.94                  154.8  7.0      0        20.2 335 
 LT9  SE IS        522 59.66                             113    0.0010 20.2 335 
 LT9  SZ  AML      523  0.04         3.6 0.32                          20.2 335 
                                                                                
