 2010  913 0036 47.3 L  21.293 -99.283 10.0  RAL  1 0.0-0.4LRAL                1
 GAP=360        0.30       4.3     1.9  0.0 -0.7931E+01 -0.8331E+03  0.1884E+04E
 ACTION:UPD 13-02-28 14:29 OP:RALL STATUS:               ID:20100913003647     I
 2010-09-13-0036-42S.PLUR1_003                                                 6
 STAT SP IPHASW D HRMM SECON CODA AMPLIT PERI AZIMU VELO AIN AR TRES W  DIS CAZ7
 LT9  SN IP        036 50.02                             127    0.0110 12.2 338 
 LT9  SZ E         036 50.02                  158.4  6.9      0        12.2 338 
 LT9  SE IS        036 51.96                             127   -0.0110 12.2 338 
 LT9  SZ  AML      036 51.98         1.5 0.10                          12.2 338 
                                                                                
