 2010  913 0526 12.8 L  21.241 -99.221 10.0  RAL  1 0.0 0.2LRAL                1
 GAP=360        0.30       3.4     2.3  0.0 -0.7632E+01 -0.8331E+03  0.1884E+04E
 ACTION:UPD 13-02-28 14:29 OP:RALL STATUS:               ID:20100913052612     I
 2010-09-13-0526-09S.PLUR1_003                                                 6
 STAT SP IPHASW D HRMM SECON CODA AMPLIT PERI AZIMU VELO AIN AR TRES W  DIS CAZ7
 LT9  SZ E         526 16.57                  147.5  6.9      0        20.3 328 
 LT9  SN IP        526 16.59                             112    0.0010 20.3 328 
 LT9  SE IS        526 19.34                             112    0.0010 20.3 328 
 LT9  SZ  AML      526 21.45         4.6 0.34                          20.3 328 
                                                                                
