 2010  913 1723 44.7 L  21.200 -99.216  0.0  RAL  2 0.1 1.7LRAL                1
 GAP=349        1.59      23.2    11.3811.8 -0.2523E+03 -0.7921E+04  0.1678E+05E
 ACTION:UPD 13-02-28 14:29 OP:RALL STATUS:               ID:20100913172344     I
 2010-09-13-1723-39S.PLUR1_006                                                 6
 STAT SP IPHASW D HRMM SECON CODA AMPLIT PERI AZIMU VELO AIN AR TRES W  DIS CAZ7
 LT9  SN IP       1723 49.21                              92    0.2010 24.5 332 
 LT9  SZ E        1723 49.27                  156.2  9.5      4        24.5 332 
 LT9  SE IS       1723 51.76                              92   -0.3710 24.5 332 
 LT9  SZ  AML     1723 52.19        48.5 0.10                          24.5 332 
 LA4  SN IP       1723 50.81                              92    0.3410 32.8 343 
 LA4  SZ E        1723 50.90                  157.1  7.6     -5        32.8 343 
 LA4  SE IS       1723 54.50                              92   -0.1710 32.8 343 
 LA4  SZ  AML     1723 55.27       260.0 0.28                          32.8 343 
                                                                                
