 2010  913 1636 20.6 L  21.238 -99.223 10.0  RAL  1 0.0 0.1LRAL                1
 GAP=360        0.30       3.4     2.3  0.0 -0.7475E+01 -0.8331E+03  0.1884E+04E
 ACTION:UPD 13-02-28 14:29 OP:RALL STATUS:               ID:20100913163620     I
 2010-09-13-1636-17S.PLUR1_003                                                 6
 STAT SP IPHASW D HRMM SECON CODA AMPLIT PERI AZIMU VELO AIN AR TRES W  DIS CAZ7
 LT9  SN IP       1636 24.44                             112    0.0010 20.5 329 
 LT9  SZ E        1636 24.46                  148.5  7.7      0        20.5 329 
 LT9  SE IS       1636 27.21                             112    0.0010 20.5 329 
 LT9  SZ  AML     1636 27.43         3.3 0.28                          20.5 329 
                                                                                
