 2010  913 1305 47.2 L  21.246 -99.218 10.0  RAL  1 0.0 0.2LRAL                1
 GAP=360        0.30       3.3     2.5  0.0 -0.7866E+01 -0.8331E+03  0.1884E+04E
 ACTION:UPD 13-02-28 14:29 OP:RALL STATUS:               ID:20100913130547     I
 2010-09-13-1305-43S.PLUR1_003                                                 6
 STAT SP IPHASW D HRMM SECON CODA AMPLIT PERI AZIMU VELO AIN AR TRES W  DIS CAZ7
 LT9  SN IP       13 5 50.91                             113    0.0010 20.0 326 
 LT9  SZ E        13 5 50.92                  145.9  7.7      0        20.0 326 
 LT9  SE IS       13 5 53.63                             113    0.0010 20.0 326 
 LT9  SZ  AML     13 5 54.15         4.0 0.26                          20.0 326 
                                                                                
