 2010  913 1228 53.4 L  21.555 -99.350 10.0  RAL  1 0.0 0.2LRAL                1
 GAP=360        0.30       4.9     2.8  0.0 -0.1367E+02 -0.8331E+03  0.1884E+04E
 ACTION:UPD 13-02-28 14:29 OP:RALL STATUS:               ID:20100913122853     I
 2010-09-13-1228-48S.PLUR1_003                                                 6
 STAT SP IPHASW D HRMM SECON CODA AMPLIT PERI AZIMU VELO AIN AR TRES W  DIS CAZ7
 LA4  SZ E        1228 55.75                  332.1  8.1      0        8.98 152 
 LA4  SN IP       1228 55.78                             138    0.0110 8.98 152 
 LA4  SE IS       1228 57.48                             138   -0.0110 8.98 152 
 LA4  SZ  AML     1228 57.58         7.5 0.68                          8.98 152 
                                                                                
