 2010  913 1515 53.2 L  21.522 -99.612 10.0  RAL  1 0.0 0.1LRAL                1
 GAP=360        0.30       1.8     3.7  0.0 -0.5687E+01 -0.8331E+03  0.1884E+04E
 ACTION:UPD 13-02-28 14:29 OP:RALL STATUS:               ID:20100913151553     I
 2010-09-13-1515-53S.PLUR1_003                                                 6
 STAT SP IPHASW D HRMM SECON CODA AMPLIT PERI AZIMU VELO AIN AR TRES W  DIS CAZ7
 LT9  SN IP       1515 58.88                             102    0.0210 32.8 115 
 LT9  SZ E        1515 58.94                  295.4 20.1      0        32.8 115 
 LT9  SE IS       1516  2.96                             102   -0.0210 32.8 115 
 LT9  SZ  AML     1516  3.48         2.2 0.16                          32.8 115 
                                                                                
