 2010  913 2049 58.1 L  21.219 -99.266 10.0  RAL  1 0.0 0.4LRAL                1
 GAP=360        0.30       3.8     1.4  0.0 -0.4936E+01 -0.7921E+04  0.1678E+05E
 ACTION:UPD 13-02-28 14:29 OP:RALL STATUS:               ID:20100913204958     I
 2010-09-13-2049-54S.PLUR1_003                                                 6
 STAT SP IPHASW D HRMM SECON CODA AMPLIT PERI AZIMU VELO AIN AR TRES W  DIS CAZ7
 LT9  SZ E        2050  1.87                  162.3  9.9      0        20.5 342 
 LT9  SN IP       2050  1.88                             112    0.0210 20.5 342 
 LT9  SE IS       2050  4.61                             112   -0.0210 20.5 342 
 LT9  SZ  AML     2050  4.91         6.0 0.26                          20.5 342 
                                                                                
