 2010  913 2258 30.7 L  21.377 -99.323 10.0  RAL  1 0.0-0.4LRAL                1
 GAP=360        0.32      19.3     3.4  0.0 -0.6591E+02 -0.7921E+04  0.1678E+05E
 ACTION:UPD 13-02-28 14:29 OP:RALL STATUS:               ID:20100913225830     I
 2010-09-13-2258-23S.PLUR1_003                                                 6
 STAT SP IPHASW D HRMM SECON CODA AMPLIT PERI AZIMU VELO AIN AR TRES W  DIS CAZ7
 LT9  SZ E        2258 32.59                  170.7 12.7      0        2.10 351 
 LT9  SN IP       2258 32.60                             168    0.0910 2.10 351 
 LT9  SE IS       2258 33.75                             168   -0.0910 2.10 351 
 LT9  SZ  AML     2258 33.85         2.3 0.30                          2.10 351 
                                                                                
