 2010  914 0929  5.9 L  21.413 -99.344 10.0  RAL  1 0.2 0.9LRAL                1
 GAP=360        0.75      26.1    26.4  0.0 -0.6911E+03 -0.7921E+04  0.1678E+05E
 ACTION:UPD 13-02-28 14:29 OP:RALL STATUS:               ID:20100914092905     I
 2010-09-14-0928-58S.PLUR1_003                                                 6
 STAT SP IPHASW D HRMM SECON CODA AMPLIT PERI AZIMU VELO AIN AR TRES W  DIS CAZ7
 LT9  SN IP        929  8.16                             165    0.4710 2.72 137 
 LT9  SZ E         929  8.17                  316.7  7.1      0        2.72 137 
 LT9  SE IS        929  8.56                             165   -0.4710 2.72 137 
 LT9  SZ  AML      929  8.66        42.3 0.40                          2.72 137 
                                                                                
