 2010  914 1232 33.5 L  21.272 -99.296 10.0  RAL  1 0.0 0.3LRAL                1
 GAP=360        0.30       4.3     1.1  0.0 -0.4484E+01 -0.7534E+01  0.2403E+02E
 ACTION:UPD 13-02-28 14:29 OP:RALL STATUS:               ID:20100914123233     I
 2010-09-14-1232-28S.PLUR1_003                                                 6
 STAT SP IPHASW D HRMM SECON CODA AMPLIT PERI AZIMU VELO AIN AR TRES W  DIS CAZ7
 LT9  SN IP       1232 36.45                             123    0.0010 14.0 347 
 LT9  SZ E        1232 36.49                  167.2  9.2      0        14.0 347 
 LT9  SZ  AML     1232 38.46         7.2 0.26                          14.0 347 
 LT9  SE IS       1232 38.57                             123    0.0010 14.0 347 
                                                                                
