 2010  914 1055 21.2 L  21.275 -99.311 10.0  RAL  1 0.0 0.0LRAL                1
 GAP=360        0.30       4.4     0.7  0.0 -0.2552E+01 -0.7921E+04  0.1678E+05E
 ACTION:UPD 13-02-28 14:29 OP:RALL STATUS:               ID:20100914105521     I
 2010-09-14-1055-16S.PLUR1_003                                                 6
 STAT SP IPHASW D HRMM SECON CODA AMPLIT PERI AZIMU VELO AIN AR TRES W  DIS CAZ7
 LT9  SZ E        1055 24.01                  173.1  9.9      0        13.4 353 
 LT9  SN IP       1055 24.03                             124    0.0010 13.4 353 
 LT9  SZ  AML     1055 26.00         3.5 0.26                          13.4 353 
 LT9  SE IS       1055 26.10                             124    0.0010 13.4 353 
                                                                                
