 2010  914 1114 45.2 L  21.264 -99.278  4.0  RAL  2 0.0 1.0LRAL                1
 GAP=349        0.35       3.1     1.0 11.8 -0.2854E+01 -0.7534E+01  0.2403E+02E
 ACTION:UPD 13-02-28 14:29 OP:RALL STATUS:               ID:20100914111445     I
 2010-09-14-1114-38S.PLUR1_006                                                 6
 STAT SP IPHASW D HRMM SECON CODA AMPLIT PERI AZIMU VELO AIN AR TRES W  DIS CAZ7
 LT9  SN IP       1114 47.95                             107   -0.0510 15.4 341 
 LT9  SZ E        1114 47.96                  160.5  6.4      0        15.4 341 
 LT9  SZ  AML     1114 49.95        14.9 0.24                          15.4 341 
 LT9  SE IS       1114 50.03                             107   -0.0210 15.4 341 
 LA4  SN IP       1114 49.57                             102    0.0010 24.5 352 
 LA4  SZ E        1114 49.60                  173.2  7.9      1        24.5 352 
 LA4  SE IS       1114 52.83                             102    0.0610 24.5 352 
 LA4  SZ  AML     1114 53.45        54.0 0.28                          24.5 352 
                                                                                
