 2010  914 2351 18.5 L  21.332 -99.313 10.0  RAL  1 0.0 0.0LRAL                1
 GAP=360        0.30       6.1     1.3  0.0 -0.8015E+01 -0.7534E+01  0.2403E+02E
 ACTION:UPD 13-02-28 14:29 OP:RALL STATUS:               ID:20100914235118     I
 2010-09-14-2351-11S.PLUR1_003                                                 6
 STAT SP IPHASW D HRMM SECON CODA AMPLIT PERI AZIMU VELO AIN AR TRES W  DIS CAZ7
 LT9  SZ E        2351 20.69                  168.8  8.5      0        7.19 349 
 LT9  SN IP       2351 20.69                             144    0.0110 7.19 349 
 LT9  SZ  AML     2351 22.22         4.2 0.14                          7.19 349 
 LT9  SE IS       2351 22.22                             144   -0.0110 7.19 349 
                                                                                
