 2010  914 2340 37.6 L  21.638 -99.444 10.0  RAL  1 0.0 0.3LRAL                1
 GAP=360        0.30       3.5     1.9  0.0 -0.5699E+01 -0.7534E+01  0.2403E+02E
 ACTION:UPD 13-02-28 14:29 OP:RALL STATUS:               ID:20100914234037     I
 2010-09-14-2340-36S.PLUR1_003                                                 6
 STAT SP IPHASW D HRMM SECON CODA AMPLIT PERI AZIMU VELO AIN AR TRES W  DIS CAZ7
 LT9  SZ E        2340 42.57                  335.6  8.5      0        29.4 156 
 LT9  SN IP       2340 42.74                             104    0.0210 29.4 156 
 LT9  SE IS       2340 46.45                             104   -0.0210 29.4 156 
 LT9  SZ  AML     2340 48.80         4.2 0.26                          29.4 156 
                                                                                
