 2010  915 0746 51.4 L  21.381 -99.321 10.0  RAL  1 0.2-0.4LRAL                1
 GAP=360        0.84      60.0    22.2  0.0 -0.1332E+04 -0.7534E+01  0.2403E+02E
 ACTION:UPD 13-02-28 14:29 OP:RALL STATUS:               ID:20100915074651     I
 2010-09-15-0746-44S.PLUR1_003                                                 6
 STAT SP IPHASW D HRMM SECON CODA AMPLIT PERI AZIMU VELO AIN AR TRES W  DIS CAZ7
 LT9  SN IP        746 53.74                             171    0.5310 1.68 341 
 LT9  SZ E         746 53.76                  161.0  5.8      0        1.68 341 
 LT9  SE IS        746 53.99                             171   -0.5310 1.68 341 
 LT9  SZ  AML      746 54.09         2.4 0.12                          1.68 341 
                                                                                
