 2010  915 0251 23.8 L  21.410 -99.346 10.0  RAL  1 0.1-0.2LRAL                1
 GAP=360        0.56      17.5    23.1  0.0 -0.4052E+03 -0.7534E+01  0.2403E+02E
 ACTION:UPD 13-02-28 14:29 OP:RALL STATUS:               ID:20100915025123     I
 2010-09-15-0251-16S.PLUR1_003                                                 6
 STAT SP IPHASW D HRMM SECON CODA AMPLIT PERI AZIMU VELO AIN AR TRES W  DIS CAZ7
 LT9  SN IP        251 25.92                             165    0.3210 2.61 129 
 LT9  SZ E         251 25.94                  309.1 13.2      0        2.61 129 
 LT9  SE IS        251 26.61                             165   -0.3210 2.61 129 
 LT9  SZ  AML      251 26.69         3.8 0.10                          2.61 129 
                                                                                
