 2010  915 1336 46.5 L  21.353 -99.304 10.0  RAL  1 0.0-0.2LRAL                1
 GAP=360        0.30       7.3     3.9  0.0 -0.2820E+02 -0.7534E+01  0.2403E+02E
 ACTION:UPD 13-02-28 14:29 OP:RALL STATUS:               ID:20100915133646     I
 2010-09-15-1336-40S.PLUR1_003                                                 6
 STAT SP IPHASW D HRMM SECON CODA AMPLIT PERI AZIMU VELO AIN AR TRES W  DIS CAZ7
 LT9  SZ E        1336 48.44                  153.9  7.7      0        5.20 334 
 LT9  SN IP       1336 48.51                             152    0.0410 5.20 334 
 LT9  SE IS       1336 49.86                             152   -0.0410 5.20 334 
 LT9  SZ  AML     1336 49.94         3.1 0.10                          5.20 334 
                                                                                
