 2010  915 1612 13.9 L  21.319 -99.299 10.0  RAL  1 0.0-0.4LRAL                1
 GAP=360        0.30       5.2     1.9  0.0 -0.9629E+01 -0.7534E+01  0.2403E+02E
 ACTION:UPD 13-02-28 14:29 OP:RALL STATUS:               ID:20100915161213     I
 2010-09-15-1612-08S.PLUR1_003                                                 6
 STAT SP IPHASW D HRMM SECON CODA AMPLIT PERI AZIMU VELO AIN AR TRES W  DIS CAZ7
 LT9  SN IP       1612 16.24                             137    0.0210 8.97 341 
 LT9  SZ E        1612 16.28                  161.4  9.6      0        8.97 341 
 LT9  SE IS       1612 17.89                             137   -0.0210 8.97 341 
 LT9  SZ  AML     1612 18.21         1.7 0.26                          8.97 341 
                                                                                
