 2010  915 1708  2.1 L  21.328 -99.288 10.0  RAL  1 0.0-0.4LRAL                1
 GAP=360        0.30       5.0     2.9  0.0 -0.1423E+02 -0.7534E+01  0.2403E+02E
 ACTION:UPD 13-02-28 14:29 OP:RALL STATUS:               ID:20100915170802     I
 2010-09-15-1707-56S.PLUR1_003                                                 6
 STAT SP IPHASW D HRMM SECON CODA AMPLIT PERI AZIMU VELO AIN AR TRES W  DIS CAZ7
 LT9  SN IP       17 8  4.35                             139    0.0210 8.42 332 
 LT9  SZ E        17 8  4.36                  152.0  7.7      0        8.42 332 
 LT9  SE IS       17 8  5.96                             139   -0.0210 8.42 332 
 LT9  SZ  AML     17 8  6.26         1.7 0.26                          8.42 332 
                                                                                
