 2010  915 1228 35.7 L  21.316 -99.275 10.0  RAL  1 0.0-0.4LRAL                1
 GAP=360        0.30       4.3     2.8  0.0 -0.1213E+02 -0.7534E+01  0.2403E+02E
 ACTION:UPD 13-02-28 14:29 OP:RALL STATUS:               ID:20100915122835     I
 2010-09-15-1228-30S.PLUR1_003                                                 6
 STAT SP IPHASW D HRMM SECON CODA AMPLIT PERI AZIMU VELO AIN AR TRES W  DIS CAZ7
 LT9  SN E        1228 38.17                                           10.2 329 
 LT9  SN IP       1228 38.17                             133    0.0110 10.2 329 
 LT9  SZ E        1228 38.18                  148.7  8.5      0        10.2 329 
 LT9  SE IS       1228 39.94                             133   -0.0110 10.2 329 
 LT9  SZ  AML     1228 40.17         1.5 0.10                          10.2 329 
                                                                                
