 2010  915 1850 49.3 L  21.209 -99.180  0.0  RAL  2 0.1 1.2LRAL                1
 GAP=347        0.95      11.3     7.5429.3 -0.8177E+02 -0.2702E+04  0.4169E+04E
 ACTION:UPD 13-02-28 14:29 OP:RALL STATUS:               ID:20100915185049     I
 2010-09-15-1850-43S.PLUR1_006                                                 6
 STAT SP IPHASW D HRMM SECON CODA AMPLIT PERI AZIMU VELO AIN AR TRES W  DIS CAZ7
 LT9  SZ E        1850 53.78                  145.8  9.0      2        25.6 324 
 LT9  SN IP       1850 53.80                              92    0.0710 25.6 324 
 LT9  SE IS       1850 56.65                              92   -0.3510 25.6 324 
 LT9  SZ  AML     1850 58.53        17.1 0.36                          25.6 324 
 LA4  SZ E        1850 55.25                  153.1  6.5     -2        33.2 336 
 LA4  SN IP       1850 55.34                              92    0.2810 33.2 336 
 LA4  SE IS       1850 59.29                              92   -0.0110 33.2 336 
 LA4  SZ  AML     1851  1.20        63.2 0.78                          33.2 336 
                                                                                
