 2010  915 1858 20.7 L  21.242 -99.214 10.0  RAL  1 0.0 0.0LRAL                1
 GAP=360        0.30       3.3     2.5  0.0 -0.7828E+01 -0.2702E+04  0.4169E+04E
 ACTION:UPD 13-02-28 14:29 OP:RALL STATUS:               ID:20100915185820     I
 2010-09-15-1858-17S.PLUR1_003                                                 6
 STAT SP IPHASW D HRMM SECON CODA AMPLIT PERI AZIMU VELO AIN AR TRES W  DIS CAZ7
 LT9  SZ E        1858 24.54                  145.4  8.5      0        20.6 325 
 LT9  SN IP       1858 24.54                             112    0.0010 20.6 325 
 LT9  SE IS       1858 27.32                             112    0.0010 20.6 325 
 LT9  SZ  AML     1858 28.67         2.8 0.44                          20.6 325 
                                                                                
