 2010  915 1720 14.2 L  21.433 -99.369 43.4  RAL  2 0.0 1.1LRAL                1
 GAP=274        0.34       0.2     0.3  3.9 -0.1425E-01  0.8299E-02 -0.1540E-02E
 ACTION:UPD 13-02-28 14:29 OP:RALL STATUS:               ID:20100915172014     I
 2010-09-15-1720-11S.PLUR1_006                                                 6
 STAT SP IPHASW D HRMM SECON CODA AMPLIT PERI AZIMU VELO AIN AR TRES W  DIS CAZ7
 LT9  SZ E        1720 20.52                  313.9  8.1      0        6.09 134 
 LT9  SN IP       1720 20.52                             171   -0.1310 6.09 134 
 LT9  SE IS       1720 25.37                             171   -0.0110 6.09 134 
 LT9  SZ  AML     1720 28.43         4.8 0.20                          6.09 134 
 LA4  SZ E        1720 20.86                  228.1 23.7      0        8.32  48 
 LA4  SN IP       1720 20.90                             168    0.1310 8.32  48 
 LA4  SE IS       1720 25.60                             168    0.0110 8.32  48 
 LA4  SZ  AML     1720 27.34        68.7 0.70                          8.32  48 
                                                                                
