 2010  916 0711 52.4 L  21.369 -99.319 10.0  RAL  1 0.0 0.1LRAL                1
 GAP=360        0.31      13.4     3.7  0.0 -0.4978E+02 -0.2702E+04  0.4169E+04E
 ACTION:UPD 13-02-28 14:29 OP:RALL STATUS:               ID:20100916071152     I
 2010-09-16-0711-45S.PLUR1_003                                                 6
 STAT SP IPHASW D HRMM SECON CODA AMPLIT PERI AZIMU VELO AIN AR TRES W  DIS CAZ7
 LT9  SN IP        711 54.31                             164    0.0710 2.95 346 
 LT9  SZ E         711 54.32                  165.6  9.6      0        2.95 346 
 LT9  SE IS        711 55.51                             164   -0.0710 2.95 346 
 LT9  SZ  AML      711 56.09         6.2 0.10                          2.95 346 
                                                                                
