 2010  916 0054 48.6 L  21.184 -99.331 10.0  RAL  1 0.0 0.2LRAL                1
 GAP=360        0.30       3.9     0.7  0.0  0.3354E+00 -0.2702E+04  0.4169E+04E
 ACTION:UPD 13-02-28 14:29 OP:RALL STATUS:               ID:20100916005448     I
 2010-09-16-0054-46S.PLUR1_003                                                 6
 STAT SP IPHASW D HRMM SECON CODA AMPLIT PERI AZIMU VELO AIN AR TRES W  DIS CAZ7
 LT9  SN IP        054 52.87                             109    0.0110 23.4   1 
 LT9  SZ E         054 52.91                  181.2 10.0      0        23.4   1 
 LT9  SE IS        054 55.94                             109   -0.0110 23.4   1 
 LT9  SZ  AML      054 55.99         3.8 0.38                          23.4   1 
                                                                                
