 2010  916 0224 26.6 L  21.309 -99.303 10.0  RAL  1 0.0-0.2LRAL                1
 GAP=360        0.30       5.0     1.4  0.0 -0.6776E+01 -0.2702E+04  0.4169E+04E
 ACTION:UPD 13-02-28 14:29 OP:RALL STATUS:               ID:20100916022426     I
 2010-09-16-0224-20S.PLUR1_003                                                 6
 STAT SP IPHASW D HRMM SECON CODA AMPLIT PERI AZIMU VELO AIN AR TRES W  DIS CAZ7
 LT9  SZ E         224 28.99                  165.8  6.6      0        9.84 346 
 LT9  SN IP        224 29.01                             134    0.0110 9.84 346 
 LT9  SE IS        224 30.75                             134   -0.0110 9.84 346 
 LT9  SZ  AML      224 32.57         2.4 0.26                          9.84 346 
                                                                                
