 2010  916 0140 36.1 L  21.289 -99.279 10.0  RAL  1 0.0-0.3LRAL                1
 GAP=360        0.30       4.2     1.9  0.0 -0.7953E+01 -0.2702E+04  0.4169E+04E
 ACTION:UPD 13-02-28 14:29 OP:RALL STATUS:               ID:20100916014036     I
 2010-09-16-0140-31S.PLUR1_003                                                 6
 STAT SP IPHASW D HRMM SECON CODA AMPLIT PERI AZIMU VELO AIN AR TRES W  DIS CAZ7
 LT9  SN IP        140 38.91                             126    0.0110 12.7 337 
 LT9  SZ E         140 39.00                  157.3  9.3      0        12.7 337 
 LT9  SE IS        140 40.90                             126   -0.0110 12.7 337 
 LT9  SZ  AML      140 41.27         1.9 0.26                          12.7 337 
                                                                                
