 2010  916 0504 14.2 L  21.279 -99.320 10.0  RAL  1 0.0-0.1LRAL                1
 GAP=360        0.30       4.5     0.4  0.0 -0.1079E+01 -0.2702E+04  0.4169E+04E
 ACTION:UPD 13-02-28 14:29 OP:RALL STATUS:               ID:20100916050414     I
 2010-09-16-0504-09S.PLUR1_003                                                 6
 STAT SP IPHASW D HRMM SECON CODA AMPLIT PERI AZIMU VELO AIN AR TRES W  DIS CAZ7
 LT9  SN IP        5 4 16.97                             126    0.0010 12.9 357 
 LT9  SZ E         5 4 17.00                  177.2  8.7      0        12.9 357 
 LT9  SE IS        5 4 18.99                             126    0.0010 12.9 357 
 LT9  SZ  AML      5 4 20.08         2.6 0.24                          12.9 357 
                                                                                
