 2010  916 1007  0.7 L  21.405 -99.345 10.0  RAL  1 0.1-0.5LRAL                1
 GAP=360        0.61      16.3    32.5  0.0 -0.5308E+03 -0.2702E+04  0.4169E+04E
 ACTION:UPD 13-02-28 14:29 OP:RALL STATUS:               ID:20100916100700     I
 2010-09-16-1006-53S.PLUR1_003                                                 6
 STAT SP IPHASW D HRMM SECON CODA AMPLIT PERI AZIMU VELO AIN AR TRES W  DIS CAZ7
 LT9  SN IP       10 7  2.85                             167    0.3610 2.26 118 
 LT9  SZ E        10 7  2.87                  298.3  8.4      0        2.26 118 
 LT9  SE IS       10 7  3.46                             167   -0.3610 2.26 118 
 LT9  SZ  AML     10 7  3.56         1.9 0.14                          2.26 118 
                                                                                
