 2010  916 1534 49.3 L  21.406 -99.346 10.0  RAL  1 0.2-0.7LRAL                1
 GAP=360        0.71      19.5    36.8  0.0 -0.7154E+03 -0.2702E+04  0.4169E+04E
 ACTION:UPD 13-02-28 14:29 OP:RALL STATUS:               ID:20100916153449     I
 2010-09-16-1534-42S.PLUR1_003                                                 6
 STAT SP IPHASW D HRMM SECON CODA AMPLIT PERI AZIMU VELO AIN AR TRES W  DIS CAZ7
 LT9  SZ E        1534 51.50                  299.6 13.4      0        2.30 120 
 LT9  SN IP       1534 51.51                             167    0.4310 2.30 120 
 LT9  SE IS       1534 51.97                             167   -0.4310 2.30 120 
 LT9  SZ  AML     1534 52.08         1.2 0.24                          2.30 120 
                                                                                
