 2010  916 1751 41.9 L  21.356 -99.307 10.0  RAL  1 0.0-0.3LRAL                1
 GAP=360        0.31       8.0     3.8  0.0 -0.3048E+02 -0.2702E+04  0.4169E+04E
 ACTION:UPD 13-02-28 14:29 OP:RALL STATUS:               ID:20100916175141     I
 2010-09-16-1751-35S.PLUR1_003                                                 6
 STAT SP IPHASW D HRMM SECON CODA AMPLIT PERI AZIMU VELO AIN AR TRES W  DIS CAZ7
 LT9  SZ E        1751 43.89                  155.9  8.7      0        4.82 336 
 LT9  SN IP       1751 43.91                             154    0.0510 4.82 336 
 LT9  SE IS       1751 45.23                             154   -0.0510 4.82 336 
 LT9  SZ  AML     1751 45.80         2.8 0.10                          4.82 336 
                                                                                
