 2010  916 2319 45.5 L  21.763 -99.649 10.0  RAL  1 0.0 0.7LRAL                1
 GAP=360        0.30       3.0     2.8  0.0 -0.6359E+01 -0.2702E+04  0.4169E+04E
 ACTION:UPD 13-02-28 14:29 OP:RALL STATUS:               ID:20100916231945     I
 2010-09-16-2319-44S.PLUR1_003                                                 6
 STAT SP IPHASW D HRMM SECON CODA AMPLIT PERI AZIMU VELO AIN AR TRES W  DIS CAZ7
 LT9  SN IP       2319 54.17                              97    0.0110 52.6 141 
 LT9  SZ E        2319 54.20                  320.7 11.2      0        52.6 141 
 LT9  SE IS       2320  0.48                              97   -0.0110 52.6 141 
 LT9  SZ  AML     2320  2.33         5.7 0.60                          52.6 141 
                                                                                
