 2010  917 0248 50.7 L  21.327 -99.273 10.0  RAL  1 0.0-0.2LRAL                1
 GAP=360        0.30       4.3     3.4  0.0 -0.1448E+02 -0.2702E+04  0.4169E+04E
 ACTION:UPD 13-02-28 14:29 OP:RALL STATUS:               ID:20100917024850     I
 2010-09-17-0248-44S.PLUR1_003                                                 6
 STAT SP IPHASW D HRMM SECON CODA AMPLIT PERI AZIMU VELO AIN AR TRES W  DIS CAZ7
 LT9  SN IP        248 53.06                             136    0.0210 9.35 324 
 LT9  SZ E         248 53.10                  143.8 11.4      0        9.35 324 
 LT9  SE IS        248 54.74                             136   -0.0210 9.35 324 
 LT9  SZ  AML      248 56.43         2.5 0.28                          9.35 324 
                                                                                
