 2010  917 0238 29.4 L  21.549 -99.352 10.0  RAL  1 0.0 0.9LRAL                1
 GAP=360        0.30       4.9     3.2  0.0 -0.1576E+02 -0.2702E+04  0.4169E+04E
 ACTION:UPD 13-02-28 14:29 OP:RALL STATUS:               ID:20100917023829     I
 2010-09-17-0238-22S.PLUR1_003                                                 6
 STAT SP IPHASW D HRMM SECON CODA AMPLIT PERI AZIMU VELO AIN AR TRES W  DIS CAZ7
 LA4  SN IP        238 31.77                             140    0.0210 8.50 149 
 LA4  SZ E         238 31.84                  328.8  8.9      0        8.50 149 
 LA4  SE IS        238 33.42                             140   -0.0210 8.50 149 
 LA4  SZ  AML      238 34.98        36.7 0.24                          8.50 149 
                                                                                
