 2010  917 1553 15.6 L  21.551 -99.318 10.0  RAL  1 0.0 0.5LRAL                1
 GAP=360        0.30       6.2     0.9  0.0 -0.5069E+01 -0.2702E+04  0.4169E+04E
 ACTION:UPD 13-02-28 14:29 OP:RALL STATUS:               ID:20100917155315     I
 2010-09-17-1553-09S.PLUR1_003                                                 6
 STAT SP IPHASW D HRMM SECON CODA AMPLIT PERI AZIMU VELO AIN AR TRES W  DIS CAZ7
 LA4  SZ E        1553 17.77                  352.9  7.5      0        7.52 173 
 LA4  SN IP       1553 17.88                             143    0.0110 7.52 173 
 LA4  SE IS       1553 19.49                             143   -0.0110 7.52 173 
 LA4  SZ  AML     1553 19.54        14.1 0.26                          7.52 173 
                                                                                
