 2010  917 1448 18.0 L  21.277 -99.232 10.0  RAL  1 0.0 0.7LRAL                1
 GAP=360        0.30       3.4     2.7  0.0 -0.8981E+01 -0.2702E+04  0.4169E+04E
 ACTION:UPD 13-02-28 14:29 OP:RALL STATUS:               ID:20100917144818     I
 2010-09-17-1448-11S.PLUR1_003                                                 6
 STAT SP IPHASW D HRMM SECON CODA AMPLIT PERI AZIMU VELO AIN AR TRES W  DIS CAZ7
 LT9  SN IP       1448 21.21                             118    0.0110 16.4 323 
 LT9  SZ E        1448 21.30                  143.4  7.8      0        16.4 323 
 LT9  SE IS       1448 23.55                             118   -0.0110 16.4 323 
 LT9  SZ  AML     1448 24.69        14.7 0.64                          16.4 323 
                                                                                
