 2010  917 1146 57.2 L  21.362 -99.249 10.0  RAL  1 0.0 0.1LRAL                1
 GAP=360        0.30       4.0     2.0  0.0 -0.7761E+01 -0.2702E+04  0.4169E+04E
 ACTION:UPD 13-02-28 14:29 OP:RALL STATUS:               ID:20100917114657     I
 2010-09-17-1146-49S.PLUR1_006                                                 6
 STAT SP IPHASW D HRMM SECON CODA AMPLIT PERI AZIMU VELO AIN AR TRES W  DIS CAZ7
 LA4  SZ E        1147  0.25                  155.1  7.5      0        14.9 335 
 LA4  SN IP       1147  0.28                             122    0.0110 14.9 335 
 LA4  SE IS       1147  2.51                             122   -0.0110 14.9 335 
 LA4  SZ  AML     1147  3.14         4.4 0.20                          14.9 335 
                                                                                
