 2010  917 1011 47.8 L  21.370 -99.321 10.0  RAL  1 0.0 0.1LRAL                1
 GAP=360        0.30      13.6     2.8  0.0 -0.3793E+02 -0.2702E+04  0.4169E+04E
 ACTION:UPD 13-02-28 14:29 OP:RALL STATUS:               ID:20100917101147     I
 2010-09-17-1011-40S.PLUR1_003                                                 6
 STAT SP IPHASW D HRMM SECON CODA AMPLIT PERI AZIMU VELO AIN AR TRES W  DIS CAZ7
 LT9  SN IP       1011 49.68                             164    0.0410 2.83 349 
 LT9  SZ E        1011 49.69                  169.2  6.9      0        2.83 349 
 LT9  SE IS       1011 50.94                             164   -0.0410 2.83 349 
 LT9  SZ  AML     1011 52.44         6.8 0.36                          2.83 349 
                                                                                
