 2010  918 0633 15.6 L  21.324 -99.307 10.0  RAL  1 0.0 0.0LRAL                1
 GAP=360        0.30       5.6     1.5  0.0 -0.8367E+01 -0.2702E+04  0.4169E+04E
 ACTION:UPD 13-02-28 14:29 OP:RALL STATUS:               ID:20100918063315     I
 2010-09-18-0633-09S.PLUR1_003                                                 6
 STAT SP IPHASW D HRMM SECON CODA AMPLIT PERI AZIMU VELO AIN AR TRES W  DIS CAZ7
 LT9  SZ E         633 17.83                  165.9  7.2      0        8.19 346 
 LT9  SN IP        633 17.84                             140    0.0110 8.19 346 
 LT9  SE IS        633 19.44                             140   -0.0110 8.19 346 
 LT9  SZ  AML      633 21.49         4.4 0.72                          8.19 346 
                                                                                
