 2010  918 0852 24.3 L  21.390 -99.321 10.0  RAL  1 0.6-0.6LRAL                1
 GAP=360        7.58     999.9   494.4  0.0  0.9917E+06 -0.2702E+04  0.4169E+04E
 ACTION:UPD 13-02-28 14:29 OP:RALL STATUS:               ID:20100918085224     I
 2010-09-18-0852-16S.PLUR1_003                                                 6
 STAT SP IPHASW D HRMM SECON CODA AMPLIT PERI AZIMU VELO AIN AR TRES W  DIS CAZ7
 LT9  SZ E         852 26.60                  101.9  9.7    -35        0.81 318 
 LT9  SN IP        852 26.61                             175    0.5710 0.81 318 
 LT9  SE IS        852 26.76                             175   -0.5710 0.81 318 
 LT9  SZ  AML      852 26.86         1.3 0.18                          0.81 318 
                                                                                
