 2010  918 0931 26.9 L  21.371 -99.315 10.0  RAL  1 0.1 0.1LRAL                1
 GAP=360        0.35      14.4     6.8  0.0 -0.9768E+02 -0.2702E+04  0.4169E+04E
 ACTION:UPD 13-02-28 14:29 OP:RALL STATUS:               ID:20100918093126     I
 2010-09-18-0931-19S.PLUR1_003                                                 6
 STAT SP IPHASW D HRMM SECON CODA AMPLIT PERI AZIMU VELO AIN AR TRES W  DIS CAZ7
 LT9  SZ E         931 28.82                  156.2  7.6      0        2.94 336 
 LT9  SN IP        931 28.83                             164    0.1310 2.94 336 
 LT9  SE IS        931 29.91                             164   -0.1310 2.94 336 
 LT9  SZ  AML      931 31.08         6.5 0.12                          2.94 336 
                                                                                
