 2010  918 1016 32.9 L  21.378 -99.323 10.0  RAL  1 0.0 0.3LRAL                1
 GAP=360        0.32      20.3     3.7  0.0 -0.7567E+02 -0.2702E+04  0.4169E+04E
 ACTION:UPD 13-02-28 14:29 OP:RALL STATUS:               ID:20100918101632     I
 2010-09-18-1016-26S.PLUR1_003                                                 6
 STAT SP IPHASW D HRMM SECON CODA AMPLIT PERI AZIMU VELO AIN AR TRES W  DIS CAZ7
 LT9  SZ E        1016 34.76                  170.3  7.4      0        1.95 350 
 LT9  SN IP       1016 34.79                             169    0.0710 1.95 350 
 LT9  SE IS       1016 35.96                             169   -0.0710 1.95 350 
 LT9  SZ  AML     1016 36.82        11.9 0.36                          1.95 350 
                                                                                
