 2010  918 1113 28.0 L  21.349 -99.302 10.0  RAL  1 0.0-0.5LRAL                1
 GAP=360        0.30       6.7     3.6  0.0 -0.2414E+02 -0.2702E+04  0.4169E+04E
 ACTION:UPD 13-02-28 14:29 OP:RALL STATUS:               ID:20100918111328     I
 2010-09-18-1113-21S.PLUR1_003                                                 6
 STAT SP IPHASW D HRMM SECON CODA AMPLIT PERI AZIMU VELO AIN AR TRES W  DIS CAZ7
 LT9  SZ E        1113 30.01                  153.4  7.5      0        5.71 333 
 LT9  SN IP       1113 30.02                             150    0.0310 5.71 333 
 LT9  SE IS       1113 31.42                             150   -0.0310 5.71 333 
 LT9  SZ  AML     1113 31.74         1.7 0.10                          5.71 333 
                                                                                
