 2010  918 2113 37.0 L  21.559 -99.309 10.0  RAL  1 0.0 0.8LRAL                1
 GAP=360        0.30       5.8     0.2  0.0  0.1256E+00 -0.2702E+04  0.4169E+04E
 ACTION:UPD 13-02-28 14:29 OP:RALL STATUS:               ID:20100918211337     I
 2010-09-18-2113-31S.PLUR1_003                                                 6
 STAT SP IPHASW D HRMM SECON CODA AMPLIT PERI AZIMU VELO AIN AR TRES W  DIS CAZ7
 LA4  SZ E        2113 39.34                    0.2  7.7      0        8.36 180 
 LA4  SN IP       2113 39.34                             140    0.0010 8.36 180 
 LA4  SE IS       2113 41.02                             140    0.0010 8.36 180 
 LA4  SZ  AML     2113 41.82        28.1 0.16                          8.36 180 
                                                                                
