 2010  919 0646 20.4 L  21.247 -99.377 14.8  RAL  2 0.2 0.8LRAL                1
 GAP=357        3.13      40.0    13.7 56.2  0.5180E+03  0.4816E+03  0.1468E+04E
 ACTION:UPD 13-02-28 14:29 OP:RALL STATUS:               ID:20100919064620     I
 2010-09-19-0646-15S.PLUR1_006                                                 6
 STAT SP IPHASW D HRMM SECON CODA AMPLIT PERI AZIMU VELO AIN AR TRES W  DIS CAZ7
 LT9  SN IP        646 24.59                             130    0.4610 17.2  18 
 LT9  SZ E         646 24.60                  189.7 27.8     -7        17.2  18 
 LT9  SE IS        646 26.99                             130    0.1210 17.2  18 
 LT9  SZ  AML      646 28.31         4.6 0.64                          17.2  18 
 LA4  SZ E         646 25.29                  207.6 12.5     13        27.1  15 
 LA4  SN IP        646 25.37                             117   -0.0910 27.1  15 
 LA4  SE IS        646 28.70                             117   -0.4810 27.1  15 
 LA4  SZ  AML      646 29.71        44.4 0.44                          27.1  15 
                                                                                
