 2010  919 0348 37.8 L  21.494 -99.328 10.0  RAL  1 0.1                        1
 GAP=360        0.58      16.7    30.9  0.0 -0.5177E+03 -0.2702E+04  0.4169E+04E
 ACTION:UPD 13-02-28 14:29 OP:RALL STATUS:               ID:20100919034837     I
 2010-09-19-0348-31S.PLUR1_003                                                 6
 STAT SP IPHASW D HRMM SECON CODA AMPLIT PERI AZIMU VELO AIN AR TRES W  DIS CAZ7
 LA4  SN IP        348 40.05                             167    0.3410 2.32 120 
 LA4  SZ E         348 40.28                  300.2 15.1      0        2.32 120 
 LA4  SE IS        348 40.75                             167   -0.3410 2.32 120 
                                                                                
