 2010  919 1207 12.7 L  21.241 -99.258 10.0  RAL  1 0.0-0.4LRAL                1
 GAP=360        0.30       3.8     1.7  0.0 -0.6221E+01  0.4816E+03  0.1468E+04E
 ACTION:UPD 13-02-28 14:29 OP:RALL STATUS:               ID:20100919120712     I
 2010-09-19-1207-09S.PLUR1_003                                                 6
 STAT SP IPHASW D HRMM SECON CODA AMPLIT PERI AZIMU VELO AIN AR TRES W  DIS CAZ7
 LT9  SN IP       12 7 16.27                             115    0.0010 18.5 337 
 LT9  SZ E        12 7 16.35                  157.4  8.4      0        18.5 337 
 LT9  SE IS       12 7 18.84                             115    0.0010 18.5 337 
 LT9  SZ  AML     12 7 19.30         1.0 0.22                          18.5 337 
                                                                                
