 2010  920 0617  0.7 L  21.398 -99.331 10.0  RAL  2 0.5 0.0LRAL                1
 GAP=250        5.69       2.3     4.8 34.0 -0.4796E+01  0.5903E+01 -0.6551E+01E
 ACTION:UPD 13-02-28 14:29 OP:RALL STATUS:               ID:20100920061700     I
 2010-09-20-0616-52S.PLUR1_006                                                 6
 STAT SP IPHASW D HRMM SECON CODA AMPLIT PERI AZIMU VELO AIN AR TRES W  DIS CAZ7
 LT9  SZ E         617  1.85                  284.1 15.6    -18        0.62 124 
 LT9  SN IP        617  1.86                             165   -0.6410 0.62 124 
 LT9  SE IS        617  2.20                             165   -1.5910 0.62 124 
 LT9  SZ  AML      617  2.82         3.2 0.60                          0.62 124 
 LA4  SZ E         617  4.29                  177.7  6.6    -15        9.72  14 
 LA4  SN IP        617  4.33                             112    1.1610 9.72  14 
 LA4  SE IS        617  6.02                             112    1.0710 9.72  14 
 LA4  SZ  AML      617  6.11         6.5 0.24                          9.72  14 
                                                                                
