 2010  920 0006 14.3 L  21.228 -99.251 10.0  RAL  1 0.0-0.2LRAL                1
 GAP=360        0.30       3.7     1.7  0.0 -0.6062E+01  0.4816E+03  0.1468E+04E
 ACTION:UPD 13-02-28 14:29 OP:RALL STATUS:               ID:20100920000614     I
 2010-09-20-0006-11S.PLUR1_003                                                 6
 STAT SP IPHASW D HRMM SECON CODA AMPLIT PERI AZIMU VELO AIN AR TRES W  DIS CAZ7
 LT9  SN IP        0 6 18.02                             113    0.0010 20.0 337 
 LT9  SZ E         0 6 18.03                  157.1  7.7      0        20.0 337 
 LT9  SE IS        0 6 20.75                             113    0.0010 20.0 337 
 LT9  SZ  AML      0 6 22.34         1.7 0.34                          20.0 337 
                                                                                
