 2010  920 0413 51.2 L  21.336 -99.308 10.0  RAL  1 0.0-0.5LRAL                1
 GAP=360        0.30       6.2     2.0  0.0 -0.1228E+02  0.4816E+03  0.1468E+04E
 ACTION:UPD 13-02-28 14:29 OP:RALL STATUS:               ID:20100920041351     I
 2010-09-20-0413-45S.PLUR1_003                                                 6
 STAT SP IPHASW D HRMM SECON CODA AMPLIT PERI AZIMU VELO AIN AR TRES W  DIS CAZ7
 LT9  SZ E         413 53.28                  163.6  7.1      0        6.80 344 
 LT9  SN IP        413 53.28                             145    0.0110 6.80 344 
 LT9  SE IS        413 54.79                             145   -0.0110 6.80 344 
 LT9  SZ  AML      413 55.58         1.5 0.12                          6.80 344 
                                                                                
