 2010  920 1213 15.9 L  21.306 -99.303 10.0  RAL  1 0.0 0.5LRAL                1
 GAP=360        0.30       4.1     0.6  0.0 -0.5770E+00  0.5903E+01 -0.6551E+01E
 ACTION:UPD 13-02-28 14:29 OP:RALL STATUS:               ID:20100920121315     I
 2010-09-20-1213-13S.PLUR1_003                                                 6
 STAT SP IPHASW D HRMM SECON CODA AMPLIT PERI AZIMU VELO AIN AR TRES W  DIS CAZ7
 LA4  SZ E        1213 19.66                  178.1  4.9      0        19.6 358 
 LA4  SN IP       1213 19.67                             114    0.0210 19.6 358 
 LA4  SE IS       1213 22.36                             114   -0.0210 19.6 358 
 LA4  SZ  AML     1213 22.79         8.3 0.16                          19.6 358 
                                                                                
