 2010  921 0256  6.7 L  21.259 -99.277 10.0  RAL  1 0.0 0.0LRAL                1
 GAP=360        0.30       4.0     1.5  0.0 -0.5747E+01  0.5903E+01 -0.6551E+01E
 ACTION:UPD 13-02-28 14:29 OP:RALL STATUS:               ID:20100921025606     I
 2010-09-21-0256-02S.PLUR1_003                                                 6
 STAT SP IPHASW D HRMM SECON CODA AMPLIT PERI AZIMU VELO AIN AR TRES W  DIS CAZ7
 LT9  SZ E         256  9.85                  161.4  8.3      0        15.9 341 
 LT9  SN IP        256  9.85                             119    0.0010 15.9 341 
 LT9  SE IS        256 12.16                             119    0.0010 15.9 341 
 LT9  SZ  AML      256 12.36         2.9 0.36                          15.9 341 
                                                                                
