 2010  921 0218  5.3 L  21.249 -99.262 10.0  RAL  1 0.0-0.2LRAL                1
 GAP=360        0.30       3.8     1.7  0.0 -0.6325E+01  0.5903E+01 -0.6551E+01E
 ACTION:UPD 13-02-28 14:29 OP:RALL STATUS:               ID:20100921021805     I
 2010-09-21-0218-01S.PLUR1_003                                                 6
 STAT SP IPHASW D HRMM SECON CODA AMPLIT PERI AZIMU VELO AIN AR TRES W  DIS CAZ7
 LT9  SZ E         218  8.74                  157.7  7.4      0        17.5 338 
 LT9  SN IP        218  8.74                             116    0.0010 17.5 338 
 LT9  SE IS        218 11.21                             116    0.0010 17.5 338 
 LT9  SZ  AML      218 11.35         2.0 0.34                          17.5 338 
                                                                                
