 2010  921 0432 34.1 L  21.330 -99.201 10.0  RAL  1 0.0 0.4LRAL                1
 GAP=360        0.30       3.4     2.4  0.0 -0.7790E+01  0.5903E+01 -0.6551E+01E
 ACTION:UPD 13-02-28 14:29 OP:RALL STATUS:               ID:20100921043234     I
 2010-09-21-0432-31S.PLUR1_003                                                 6
 STAT SP IPHASW D HRMM SECON CODA AMPLIT PERI AZIMU VELO AIN AR TRES W  DIS CAZ7
 LA4  SN IP        432 37.94                             113    0.0010 20.4 327 
 LA4  SZ E         432 37.98                  146.8 10.9      0        20.4 327 
 LA4  SE IS        432 40.73                             113    0.0010 20.4 327 
 LA4  SZ  AML      432 41.80         6.6 0.42                          20.4 327 
                                                                                
