 2010  921 0327 42.6 L  21.507 -99.330 10.0  RAL  1 0.1 0.0LRAL                1
 GAP=360        0.45      13.8    12.3  0.0 -0.1700E+03  0.5903E+01 -0.6551E+01E
 ACTION:UPD 13-02-28 14:29 OP:RALL STATUS:               ID:20100921032742     I
 2010-09-21-0327-36S.PLUR1_003                                                 6
 STAT SP IPHASW D HRMM SECON CODA AMPLIT PERI AZIMU VELO AIN AR TRES W  DIS CAZ7
 LA4  SZ E         327 44.70                  320.2 17.0      0        3.41 140 
 LA4  SN IP        327 44.72                             162    0.2310 3.41 140 
 LA4  SE IS        327 45.67                             162   -0.2310 3.41 140 
 LA4  SZ  AML      327 45.77         5.2 0.30                          3.41 140 
                                                                                
