 2010  921 0002 51.6 L  21.354 -99.286 10.0  RAL  1 0.0-0.1LRAL                1
 GAP=360        0.30       5.3     5.2  0.0 -0.2739E+02  0.5903E+01 -0.6551E+01E
 ACTION:UPD 13-02-28 14:29 OP:RALL STATUS:               ID:20100921000251     I
 2010-09-21-0002-45S.PLUR1_003                                                 6
 STAT SP IPHASW D HRMM SECON CODA AMPLIT PERI AZIMU VELO AIN AR TRES W  DIS CAZ7
 LT9  SN IP        0 2 53.74                             148    0.0510 6.17 318 
 LT9  SZ E         0 2 53.76                  137.5  9.4      0        6.17 318 
 LT9  SE IS        0 2 55.14                             148   -0.0510 6.17 318 
 LT9  SZ  AML      0 2 55.88         3.8 0.10                          6.17 318 
                                                                                
