 2010  921 1910  8.9 L  21.363 -99.316 10.0  RAL  1 0.0-0.1LRAL                1
 GAP=360        0.30      10.3     3.3  0.0 -0.3420E+02  0.5903E+01 -0.6551E+01E
 ACTION:UPD 13-02-28 14:29 OP:RALL STATUS:               ID:20100921191008     I
 2010-09-21-1910-02S.PLUR1_003                                                 6
 STAT SP IPHASW D HRMM SECON CODA AMPLIT PERI AZIMU VELO AIN AR TRES W  DIS CAZ7
 LT9  SZ E        1910 10.76                  163.3  7.4      0        3.76 343 
 LT9  SN IP       1910 10.78                             159    0.0510 3.76 343 
 LT9  SE IS       1910 12.06                             159   -0.0510 3.76 343 
 LT9  SZ  AML     1910 12.30         3.8 0.46                          3.76 343 
                                                                                
