 2010  921 1334 23.6 L  21.493 -99.331 10.0  RAL  1 0.1 1.2LRAL                1
 GAP=360        0.48      10.3    24.3  0.0 -0.2508E+03  0.5903E+01 -0.6551E+01E
 ACTION:UPD 13-02-28 14:29 OP:RALL STATUS:               ID:20100921133423     I
 2010-09-21-1334-16S.PLUR1_003                                                 6
 STAT SP IPHASW D HRMM SECON CODA AMPLIT PERI AZIMU VELO AIN AR TRES W  DIS CAZ7
 LA4  SZ E        1334 25.68                  294.5 15.6      0        2.55 115 
 LA4  SN IP       1334 25.71                             166    0.2510 2.55 115 
 LA4  SE IS       1334 26.59                             166   -0.2510 2.55 115 
 LA4  SZ  AML     1334 26.92        83.4 0.10                          2.55 115 
                                                                                
