 2010  921 1519 39.9 L  21.324 -99.228 10.0  RAL  1 0.0 1.4LRAL                1
 GAP=360        0.30       3.7     1.9  0.0 -0.6685E+01  0.5903E+01 -0.6551E+01E
 ACTION:UPD 13-02-28 14:29 OP:RALL STATUS:               ID:20100921151939     I
 2010-09-21-1519-34S.PLUR1_003                                                 6
 STAT SP IPHASW D HRMM SECON CODA AMPLIT PERI AZIMU VELO AIN AR TRES W  DIS CAZ7
 LA4  SN IP       1519 43.59                             114    0.0010 19.6 335 
 LA4  SZ E        1519 43.61                  154.7  8.2      0        19.6 335 
 LA4  SE IS       1519 46.30                             114    0.0010 19.6 335 
 LA4  SZ  AML     1519 46.86        70.9 0.16                          19.6 335 
                                                                                
