 2010  921 1809 21.0 L  21.358 -99.305 10.0  RAL  1 0.0-0.3LRAL                1
 GAP=360        0.31       8.1     4.7  0.0 -0.3833E+02  0.5903E+01 -0.6551E+01E
 ACTION:UPD 13-02-28 14:29 OP:RALL STATUS:               ID:20100921180921     I
 2010-09-21-1809-14S.PLUR1_003                                                 6
 STAT SP IPHASW D HRMM SECON CODA AMPLIT PERI AZIMU VELO AIN AR TRES W  DIS CAZ7
 LT9  SN IP       18 9 22.99                             155    0.0710 4.67 332 
 LT9  SZ E        18 9 23.14                  151.6 10.9      0        4.67 332 
 LT9  SE IS       18 9 24.26                             155   -0.0710 4.67 332 
 LT9  SZ  AML     18 9 24.38         2.3 0.28                          4.67 332 
                                                                                
