 2010  921 1534  9.6 L  21.325 -99.260 10.0  RAL  1 0.0 0.4LRAL                1
 GAP=360        0.30       4.0     1.3  0.0 -0.4740E+01  0.5903E+01 -0.6551E+01E
 ACTION:UPD 13-02-28 14:29 OP:RALL STATUS:               ID:20100921153409     I
 2010-09-21-1534-06S.PLUR1_003                                                 6
 STAT SP IPHASW D HRMM SECON CODA AMPLIT PERI AZIMU VELO AIN AR TRES W  DIS CAZ7
 LA4  SN IP       1534 13.10                             116    0.0010 18.3 344 
 LA4  SZ E        1534 13.10                  164.0  8.3      0        18.3 344 
 LA4  SE IS       1534 15.68                             116    0.0010 18.3 344 
 LA4  SZ  AML     1534 15.99         6.5 0.54                          18.3 344 
                                                                                
