 2010  922 1412 17.4 L  21.325 -99.503 10.0  RAL  1 0.0 1.0LRAL                1
 GAP=360        0.30       2.6     3.2  0.0  0.7641E+01  0.5903E+01 -0.6551E+01E
 ACTION:UPD 13-02-28 14:29 OP:RALL STATUS:               ID:20100922141217     I
 2010-09-22-1412-13S.PLUR1_003                                                 6
 STAT SP IPHASW D HRMM SECON CODA AMPLIT PERI AZIMU VELO AIN AR TRES W  DIS CAZ7
 LA4  SZ E        1412 22.12                  229.0 12.0      0        26.7  49 
 LA4  SN IP       1412 22.18                             107    0.0010 26.7  49 
 LA4  SE IS       1412 25.65                             107    0.0010 26.7  49 
 LA4  SZ  AML     1412 26.34        19.9 0.42                          26.7  49 
                                                                                
