 2010  923 0938 24.6 L  21.468 -99.332 10.0  RAL  1 0.1 0.2LRAL                1
 GAP=360        0.47      12.4    18.5  0.0  0.2288E+03  0.5903E+01 -0.6551E+01E
 ACTION:UPD 13-02-28 14:29 OP:RALL STATUS:               ID:20100923093824     I
 2010-09-23-0938-17S.PLUR1_003                                                 6
 STAT SP IPHASW D HRMM SECON CODA AMPLIT PERI AZIMU VELO AIN AR TRES W  DIS CAZ7
 LA4  SZ E         938 26.69                  234.2 13.1      0        2.99  54 
 LA4  SN IP        938 26.71                             164    0.2510 2.99  54 
 LA4  SE IS        938 27.61                             164   -0.2510 2.99  54 
 LA4  SZ  AML      938 27.71         9.2 0.24                          2.99  54 
                                                                                
