 2010  923 0929 30.4 L  21.267 -99.339 10.0  RAL  1 0.0 0.6LRAL                1
 GAP=360        0.30       3.9     0.9  0.0  0.2045E+01  0.5903E+01 -0.6551E+01E
 ACTION:UPD 13-02-28 14:29 OP:RALL STATUS:               ID:20100923092930     I
 2010-09-23-0929-25S.PLUR1_003                                                 6
 STAT SP IPHASW D HRMM SECON CODA AMPLIT PERI AZIMU VELO AIN AR TRES W  DIS CAZ7
 LA4  SZ E         929 34.67                  187.4 15.2      0        24.1   7 
 LA4  SN IP        929 34.77                             109    0.0110 24.1   7 
 LA4  SE IS        929 37.94                             109   -0.0110 24.1   7 
 LA4  SZ  AML      929 41.50         9.5 0.26                          24.1   7 
                                                                                
