 2010  923 0725 19.8 L  21.504 -99.326 10.0  RAL  1 0.2 2.2LRAL                1
 GAP=360        0.66      24.0    20.7  0.0 -0.4980E+03  0.5903E+01 -0.6551E+01E
 ACTION:UPD 13-02-28 14:29 OP:RALL STATUS:               ID:20100923072519     I
 2010-09-23-0725-12S.PLUR1_003                                                 6
 STAT SP IPHASW D HRMM SECON CODA AMPLIT PERI AZIMU VELO AIN AR TRES W  DIS CAZ7
 LA4  SN IP        725 22.07                             164    0.4010 2.89 141 
 LA4  SZ E         725 22.08                  321.2 10.2      0        2.89 141 
 LA4  SE IS        725 22.66                             164   -0.4010 2.89 141 
 LA4  SZ  AML      725 22.81       964.0 0.20                          2.89 141 
                                                                                
