 2010  923 0740 16.9 L  21.314 -99.297 10.0  RAL  1 0.0 0.7LRAL                1
 GAP=360        0.30       4.1     0.6  0.0 -0.1148E+01  0.5903E+01 -0.6551E+01E
 ACTION:UPD 13-02-28 14:29 OP:RALL STATUS:               ID:20100923074016     I
 2010-09-23-0740-13S.PLUR1_003                                                 6
 STAT SP IPHASW D HRMM SECON CODA AMPLIT PERI AZIMU VELO AIN AR TRES W  DIS CAZ7
 LA4  SZ E         740 20.50                  176.3  5.8      0        18.8 356 
 LA4  SN IP        740 20.53                             115    0.0210 18.8 356 
 LA4  SE IS        740 23.13                             115   -0.0210 18.8 356 
 LA4  SZ  AML      740 23.67        14.9 0.16                          18.8 356 
                                                                                
