 2010  924 1349  4.0 L  21.308 -99.277 10.0  RAL  1 0.0 0.5LRAL                1
 GAP=360        0.30       4.0     0.9  0.0 -0.2927E+01  0.5903E+01 -0.6551E+01E
 ACTION:UPD 13-02-28 14:29 OP:RALL STATUS:               ID:20100924134904     I
 2010-09-24-1349-00S.PLUR1_003                                                 6
 STAT SP IPHASW D HRMM SECON CODA AMPLIT PERI AZIMU VELO AIN AR TRES W  DIS CAZ7
 LA4  SN IP       1349  7.72                             114    0.0210 19.7 350 
 LA4  SZ E        1349  7.73                  170.2  8.5      0        19.7 350 
 LA4  SE IS       1349 10.41                             114   -0.0210 19.7 350 
 LA4  SZ  AML     1349 10.70         8.7 0.10                          19.7 350 
                                                                                
