 2010  925 0328 45.1 L  21.333 -99.230 10.0  RAL  1 0.0 1.0LRAL                1
 GAP=360        0.30       3.7     2.0  0.0 -0.7026E+01  0.5903E+01 -0.6551E+01E
 ACTION:UPD 13-02-28 14:29 OP:RALL STATUS:               ID:20100925032845     I
 2010-09-25-0328-41S.PLUR1_003                                                 6
 STAT SP IPHASW D HRMM SECON CODA AMPLIT PERI AZIMU VELO AIN AR TRES W  DIS CAZ7
 LA4  SN IP        328 48.71                             116    0.0010 18.6 334 
 LA4  SZ E         328 48.73                  153.8  6.4      0        18.6 334 
 LA4  SE IS        328 51.32                             116    0.0010 18.6 334 
 LA4  SZ  AML      328 51.53        25.3 0.10                          18.6 334 
                                                                                
