 2010  925 0120 31.2 L  21.382 -99.286 10.0  RAL  1 0.0-0.1LRAL                1
 GAP=360        0.30       4.7     1.1  0.0 -0.5013E+01  0.5903E+01 -0.6551E+01E
 ACTION:UPD 13-02-28 14:29 OP:RALL STATUS:               ID:20100925012031     I
 2010-09-25-0120-26S.PLUR1_003                                                 6
 STAT SP IPHASW D HRMM SECON CODA AMPLIT PERI AZIMU VELO AIN AR TRES W  DIS CAZ7
 LA4  SZ E         120 33.85                  168.2 10.1      0        11.5 348 
 LA4  SN IP        120 33.85                             130    0.0010 11.5 348 
 LA4  SE IS        120 35.78                             130    0.0010 11.5 348 
 LA4  SZ  AML      120 36.94         3.0 0.30                          11.5 348 
                                                                                
