 2010  926 0156 24.6 L  21.642 -99.426 10.0  RAL  1 0.0 2.0LRAL                1
 GAP=360        0.30       3.3     2.5  0.0 -0.7829E+01  0.5903E+01 -0.6551E+01E
 ACTION:UPD 13-02-28 14:29 OP:RALL STATUS:               ID:20100926015624     I
 2010-09-26-0156-19S.PLUR1_003                                                 6
 STAT SP IPHASW D HRMM SECON CODA AMPLIT PERI AZIMU VELO AIN AR TRES W  DIS CAZ7
 LA4  SN IP        156 28.61                             112    0.0010 21.3 145 
 LA4  SZ E         156 28.64                  325.3 10.0      0        21.3 145 
 LA4  SE IS        156 31.50                             112    0.0010 21.3 145 
 LA4  SZ  AML      156 31.76       239.1 0.26                          21.3 145 
                                                                                
