 2010  926 0423 31.1 L  21.491 -99.326 10.0  RAL  1 0.2 0.4LRAL                1
 GAP=360        0.79      23.2    52.2  0.0 -0.1211E+04  0.5903E+01 -0.6551E+01E
 ACTION:UPD 13-02-28 14:29 OP:RALL STATUS:               ID:20100926042331     I
 2010-09-26-0423-23S.PLUR1_003                                                 6
 STAT SP IPHASW D HRMM SECON CODA AMPLIT PERI AZIMU VELO AIN AR TRES W  DIS CAZ7
 LA4  SZ E         423 33.46                  295.5 13.6      0        1.93 115 
 LA4  SN IP        423 33.46                             169    0.4910 1.93 115 
 LA4  SE IS        423 33.84                             169   -0.4910 1.93 115 
 LA4  SZ  AML      423 33.89        13.3 0.10                          1.93 115 
                                                                                
