 2010  926 1741 42.0 L  21.531 -99.347 10.0  RAL  1 0.0 0.1LRAL                1
 GAP=360        0.30       5.6     4.5  0.0 -0.2470E+02  0.5903E+01 -0.6551E+01E
 ACTION:UPD 13-02-28 14:29 OP:RALL STATUS:               ID:20100926174142     I
 2010-09-26-1741-36S.PLUR1_003                                                 6
 STAT SP IPHASW D HRMM SECON CODA AMPLIT PERI AZIMU VELO AIN AR TRES W  DIS CAZ7
 LA4  SN IP       1741 44.22                             147    0.0410 6.59 143 
 LA4  SZ E        1741 44.24                  323.3  9.8      0        6.59 143 
 LA4  SE IS       1741 45.71                             147   -0.0410 6.59 143 
 LA4  SZ  AML     1741 45.98         6.2 0.16                          6.59 143 
                                                                                
