 2010  926 2301 17.2 L  21.487 -99.317 10.0  RAL  1 0.2 0.8LRAL                1
 GAP=360        0.77     999.9   721.1  0.0  0.1069E+07  0.5903E+01 -0.6551E+01E
 ACTION:UPD 13-02-28 14:29 OP:RALL STATUS:               ID:20100926230117     I
 2010-09-26-2301-09S.PLUR1_003                                                 6
 STAT SP IPHASW D HRMM SECON CODA AMPLIT PERI AZIMU VELO AIN AR TRES W  DIS CAZ7
 LA4  SZ E        23 1 19.46                  292.4  8.6      2        0.90 110 
 LA4  SN IP       23 1 19.46                             175    0.4010 0.90 110 
 LA4  SE IS       23 1 20.02                             175   -0.4010 0.90 110 
 LA4  SZ  AML     23 1 20.19        39.3 0.22                          0.90 110 
                                                                                
