 2010  927 0108 21.5 L  21.616 -99.311 10.0  RAL  1 0.0 0.5LRAL                1
 GAP=360        0.30       4.4     0.4  0.0 -0.2553E+00  0.5903E+01 -0.6551E+01E
 ACTION:UPD 13-02-28 14:29 OP:RALL STATUS:               ID:20100927010821     I
 2010-09-27-0108-17S.PLUR1_003                                                 6
 STAT SP IPHASW D HRMM SECON CODA AMPLIT PERI AZIMU VELO AIN AR TRES W  DIS CAZ7
 LA4  SZ E         1 8 24.60                  359.3  8.1      0        14.6 179 
 LA4  SN IP        1 8 24.60                             123    0.0310 14.6 179 
 LA4  SE IS        1 8 26.77                             123   -0.0310 14.6 179 
 LA4  SZ  AML      1 8 26.88        10.5 0.26                          14.6 179 
                                                                                
