 2010  927 0613 39.4 L  21.483 -99.317 10.0  RAL  1 0.2 0.7LRAL                1
 GAP=360        0.73     999.9   545.8  0.0 -0.1714E+07  0.5903E+01 -0.6551E+01E
 ACTION:UPD 13-02-28 14:29 OP:RALL STATUS:               ID:20100927061339     I
 2010-09-27-0613-32S.PLUR1_003                                                 6
 STAT SP IPHASW D HRMM SECON CODA AMPLIT PERI AZIMU VELO AIN AR TRES W  DIS CAZ7
 LA4  SZ E         613 41.71                  263.8 18.4      1        0.86  83 
 LA4  SN IP        613 41.72                             175    0.4310 0.86  83 
 LA4  SE IS        613 42.21                             175   -0.4310 0.86  83 
 LA4  SZ  AML      613 42.31        30.9 0.20                          0.86  83 
                                                                                
