 2010  929 1527 19.0 L  21.282 -99.210 10.0  RAL  1 0.0 0.7LRAL                1
 GAP=360        0.30       3.6     1.9  0.0 -0.6090E+01  0.5903E+01 -0.6551E+01E
 ACTION:UPD 13-02-28 14:29 OP:RALL STATUS:               ID:20100929152719     I
 2010-09-29-1527-16S.PLUR1_003                                                 6
 STAT SP IPHASW D HRMM SECON CODA AMPLIT PERI AZIMU VELO AIN AR TRES W  DIS CAZ7
 LA4  SZ E        1527 23.44                  155.4  6.6      0        24.5 335 
 LA4  SN IP       1527 23.47                             108    0.0210 24.5 335 
 LA4  SE IS       1527 26.66                             108   -0.0210 24.5 335 
 LA4  SZ  AML     1527 27.23        10.5 0.26                          24.5 335 
                                                                                
