 2010  930 0508 31.5 L  21.479 -99.321 10.0  RAL  1 0.2 1.7LRAL                1
 GAP=360        0.71      27.5    67.9  0.0  0.1865E+04  0.5903E+01 -0.6551E+01E
 ACTION:UPD 13-02-28 14:29 OP:RALL STATUS:               ID:20100930050831     I
 2010-09-30-0508-24S.PLUR1_003                                                 6
 STAT SP IPHASW D HRMM SECON CODA AMPLIT PERI AZIMU VELO AIN AR TRES W  DIS CAZ7
 LA4  SZ E         5 8 33.78                  246.4 23.3      0        1.36  67 
 LA4  SN IP        5 8 33.81                             173    0.4410 1.36  67 
 LA4  SE IS        5 8 34.29                             173   -0.4410 1.36  67 
 LA4  SZ  AML      5 8 34.46       260.2 0.16                          1.36  67 
                                                                                
