 2010  930  5 8 24.6 L                                                         1
 2010-09-30-0508-24S.PLUR1_003                                                 6
 STAT SP IPHASW D HRMM SECON CODA AMPLIT PERI AZIMU VELO AIN AR TRES W  DIS CAZ7
                                                                                
