 2009  6 1 0102 10.4 L  21.614 -99.344 10.0  RAL  1 0.0 1.1LRAL                1
 GAP=360        0.30       3.7     1.3  0.0 -0.3401E+01  0.1058E+00  0.1950E-01E
 ACTION:UPD 12-06-08 11:37 OP:RALL STATUS:               ID:20090601010210     I
 2009-06-01-0102-10S.PLUR1_003                                                 6
 STAT SP IPHASW D HRMM SECON CODA AMPLIT PERI AZIMU VELO AIN AR TRES W  DIS CAZ7
 LZ4  SZ E         1 2 16.03                  346.3 14.0      0        32.3 166 
 LZ4  SN IP        1 2 16.04                             103    0.0110 32.3 166 
 LZ4  SE IS        1 2 20.10                             103   -0.0110 32.3 166 
 LZ4  SZ  AML      1 2 23.77        20.6 0.74                          32.3 166 
                                                                                
