 2009  6 1 0123 43.7 L  21.823 -99.352 10.0  RAL  1 0.0 0.3LRAL                1
 GAP=360        0.30       3.7     1.2  0.0 -0.1650E+01  0.1058E+00  0.1950E-01E
 ACTION:UPD 12-06-08 11:37 OP:RALL STATUS:               ID:20090601012343     I
 2009-06-01-0123-41S.PLUR1_003                                                 6
 STAT SP IPHASW D HRMM SECON CODA AMPLIT PERI AZIMU VELO AIN AR TRES W  DIS CAZ7
 LA4  SZ E         123 50.16                  353.3  9.4      0        37.9 173 
 LA4  SN IP        123 50.17                             101    0.0110 37.9 173 
 LA4  SE IS        123 54.86                             101   -0.0110 37.9 173 
 LA4  SZ  AML      123 55.00         3.3 0.76                          37.9 173 
                                                                                
