 2009  6 1 0405  9.1 L  21.482 -99.317 10.0  RAL  1 0.3 0.2LRAL                1
 GAP=360        3.25     999.9   999.9  0.0 -0.3344E+09  0.1058E+00  0.1950E-01E
 ACTION:UPD 12-06-08 11:37 OP:RALL STATUS:               ID:20090601040509     I
 2009-06-01-0404-57S.PLUR1_003                                                 6
 STAT SP IPHASW D HRMM SECON CODA AMPLIT PERI AZIMU VELO AIN AR TRES W  DIS CAZ7
 LA4  SN IP        4 5 11.42                             175    0.4610 0.86  81 
 LA4  SZ E         4 5 11.42                  276.2 22.1     15        0.86  81 
 LA4  SE IS        4 5 11.86                             175   -0.4610 0.86  81 
 LA4  SZ  AML      4 5 12.12         8.2 0.34                          0.86  81 
                                                                                
