 2009  6 1 1608 47.9 L  21.368 -98.906 10.0  RAL  1 0.0 1.3LRAL                1
 GAP=360        0.30       1.1     4.0  0.0  0.1491E+01  0.1058E+00  0.1950E-01E
 ACTION:UPD 12-06-08 11:37 OP:RALL STATUS:               ID:20090601160847     I
 2009-06-01-1608-46S.PLUR1_003                                                 6
 STAT SP IPHASW D HRMM SECON CODA AMPLIT PERI AZIMU VELO AIN AR TRES W  DIS CAZ7
 LZ4  SN IP       16 8 54.40                             100    0.0110 37.9 264 
 LZ4  SZ E        16 8 54.46                   83.8 19.9      0        37.9 264 
 LZ4  SE IS       16 8 59.09                             100   -0.0110 37.9 264 
 LZ4  SZ  AML     16 8 59.74        28.8 0.26                          37.9 264 
                                                                                
