 2009  6 1 1838 12.2 L  21.252 -99.170 10.0  RAL  1 0.0-0.1LRAL                1
 GAP=360        0.30       4.6     2.1  0.0  0.9655E+01  0.1058E+00  0.1950E-01E
 ACTION:UPD 12-06-08 11:37 OP:RALL STATUS:               ID:20090601183812     I
 2009-06-01-1838-07S.PLUR1_003                                                 6
 STAT SP IPHASW D HRMM SECON CODA AMPLIT PERI AZIMU VELO AIN AR TRES W  DIS CAZ7
 LO8  SZ E        1838 14.80                   23.4 11.4      0        11.2 203 
 LO8  SN IP       1838 14.87                             132    0.0210 11.2 203 
 LO8  SE IS       1838 16.77                             132   -0.0210 11.2 203 
 LO8  SZ  AML     1838 18.31         3.1 0.28                          11.2 203 
                                                                                
