 2009  6 1 1935 12.0 L  21.994 -99.363 10.0  RAL  1 0.0 1.1LRAL                1
 GAP=360        0.30       3.7     1.6  0.0 -0.1228E+01  0.1058E+00  0.1950E-01E
 ACTION:UPD 12-06-08 11:37 OP:RALL STATUS:               ID:20090601193512     I
 2009-06-01-1935-10S.PLUR1_003                                                 6
 STAT SP IPHASW D HRMM SECON CODA AMPLIT PERI AZIMU VELO AIN AR TRES W  DIS CAZ7
 LA4  SZ E        1935 21.31                  354.4  7.4      0        56.7 174 
 LA4  SN IP       1935 21.35                              96    0.0110 56.7 174 
 LA4  SE IS       1935 28.16                              96   -0.0110 56.7 174 
 LA4  SZ  AML     1935 31.16        13.8 0.42                          56.7 174 
                                                                                
