 2009  6 1 1708 51.7 R  21.994 -99.278 10.0  RAL  1 0.0 1.5LRAL                1
 GAP=360        0.30       3.7     2.0  0.0 -0.1342E+00  0.1058E+00  0.1950E-01E
 ACTION:UPD 12-06-08 11:37 OP:RALL STATUS:               ID:20090601170851     I
 2009-06-01-1708-54S.PLUR1_003                                                 6
 STAT SP IPHASW D HRMM SECON CODA AMPLIT PERI AZIMU VELO AIN AR TRES W  DIS CAZ7
 LZ4  SN IP       17 9  3.64                              95    0.0110 73.5 179 
 LZ4  SZ E        17 9  4.00                  359.3 12.8      0        73.5 179 
 LZ4  SE IS       17 9 12.33                              95   -0.0110 73.5 179 
 LZ4  SZ  AML     17 9 15.17        25.5 0.32                          73.5 179 
                                                                                
