 2009  6 1 2310 38.2 L  21.659 -99.361 10.0  RAL  1 0.0 0.2LRAL                1
 GAP=360        0.30       3.9     1.3  0.0 -0.4456E+01  0.1058E+00  0.1950E-01E
 ACTION:UPD 12-06-08 11:37 OP:RALL STATUS:               ID:20090601231038     I
 2009-06-01-2310-30S.PLUR1_003                                                 6
 STAT SP IPHASW D HRMM SECON CODA AMPLIT PERI AZIMU VELO AIN AR TRES W  DIS CAZ7
 LA4  SN IP       2310 42.06                             113    0.0210 20.2 165 
 LA4  SZ E        2310 42.07                  344.6  8.1      0        20.2 165 
 LA4  SE IS       2310 44.79                             113   -0.0210 20.2 165 
 LA4  SZ  AML     2310 45.44         4.4 0.30                          20.2 165 
                                                                                
