 2009  6 2 0715 18.7 L  21.156 -98.350 10.0  RAL  1 0.0 1.6LRAL                1
 GAP=360        0.30       2.5     3.9  0.0 -0.1172E+01  0.1058E+00  0.1950E-01E
 ACTION:UPD 12-06-08 11:37 OP:RALL STATUS:               ID:20090602071518     I
 2009-06-02-0715-25S.PLUR1_003                                                 6
 STAT SP IPHASW D HRMM SECON CODA AMPLIT PERI AZIMU VELO AIN AR TRES W  DIS CAZ7
 LG3  SN IP        715 33.96                              93    0.0110 94.6 278 
 LG3  SZ E         715 34.00                   97.9 14.5      0        94.6 278 
 LG3  SE IS        715 45.05                              93   -0.0110 94.6 278 
 LG3  SZ  AML      715 45.98        24.8 0.14                          94.6 278 
                                                                                
