 2009  6 2 1922 40.5 L  21.328 -99.262 10.0  RAL  1 0.5 1.1LRAL                1
 GAP=360        6.63     999.9   999.9  0.0  0.1334E+09  0.1058E+00  0.1950E-01E
 ACTION:UPD 12-06-08 11:37 OP:RALL STATUS:               ID:20090602192240     I
 2009-06-02-1922-33S.PLUR1_003                                                 6
 STAT SP IPHASW D HRMM SECON CODA AMPLIT PERI AZIMU VELO AIN AR TRES W  DIS CAZ7
 LZ4  SZ E        1922 42.72                   80.7 15.6    -30        0.85 292 
 LZ4  SN IP       1922 42.76                             175    0.4010 0.85 292 
 LZ4  SZ  AML     1922 43.27        70.4 0.28                          0.85 292 
 LZ4  SE IS       1922 43.29                             175   -0.4010 0.85 292 
                                                                                
