 2009  6 3 0936 45.5 L  21.665 -99.429 10.0  RAL  1 0.0 0.9LRAL                1
 GAP=360        0.30       3.3     2.3  0.0 -0.7207E+01  0.1058E+00  0.1950E-01E
 ACTION:UPD 12-06-08 11:37 OP:RALL STATUS:               ID:20090603093645     I
 2009-06-03-0936-36S.PLUR1_003                                                 6
 STAT SP IPHASW D HRMM SECON CODA AMPLIT PERI AZIMU VELO AIN AR TRES W  DIS CAZ7
 LA4  SZ E         936 49.80                  328.2  9.8      0        23.7 148 
 LA4  SN IP        936 49.83                             109    0.0010 23.7 148 
 LA4  SE IS        936 52.97                             109    0.0010 23.7 148 
 LA4  SZ  AML      936 57.26        17.3 0.38                          23.7 148 
                                                                                
