 2009  6 3 0703 59.0 L  21.702 -99.299 10.0  RAL  1 0.0 1.1LRAL                1
 GAP=360        0.30       3.7     1.2  0.0 -0.1018E+01  0.1058E+00  0.1950E-01E
 ACTION:UPD 12-06-08 11:37 OP:RALL STATUS:               ID:20090603070359     I
 2009-06-03-0703-56S.PLUR1_003                                                 6
 STAT SP IPHASW D HRMM SECON CODA AMPLIT PERI AZIMU VELO AIN AR TRES W  DIS CAZ7
 LZ4  SN IP        7 4  5.93                              99    0.0110 41.2 176 
 LZ4  SZ E         7 4  5.95                  355.8 12.2      0        41.2 176 
 LZ4  SE IS        7 4 10.99                              99   -0.0110 41.2 176 
 LZ4  SZ  AML      7 4 11.18        19.2 0.32                          41.2 176 
                                                                                
