 2009  6 3 0516 25.0 L  21.321 -99.433 10.0  RAL  1 0.0 0.4LRAL                1
 GAP=360        0.30       0.5     4.5  0.0  0.1263E+01  0.1058E+00  0.1950E-01E
 ACTION:UPD 12-06-08 11:37 OP:RALL STATUS:               ID:20090603051625     I
 2009-06-03-0516-21S.PLUR1_003                                                 6
 STAT SP IPHASW D HRMM SECON CODA AMPLIT PERI AZIMU VELO AIN AR TRES W  DIS CAZ7
 LZ4  SZ E         516 28.29                  266.2 38.5      0        17.0  86 
 LZ4  SN IP        516 28.41                             118    0.0210 17.0  86 
 LZ4  SE IS        516 30.81                             118   -0.0210 17.0  86 
 LZ4  SZ  AML      516 31.83         8.4 0.26                          17.0  86 
                                                                                
