 2009  6 3 0644 40.9 L  21.415 -99.338 10.0  RAL  1 0.0 0.5LRAL                1
 GAP=360        0.30       3.8     3.2  0.0 -0.1209E+02  0.1058E+00  0.1950E-01E
 ACTION:UPD 12-06-08 11:37 OP:RALL STATUS:               ID:20090603064440     I
 2009-06-03-0644-36S.PLUR1_003                                                 6
 STAT SP IPHASW D HRMM SECON CODA AMPLIT PERI AZIMU VELO AIN AR TRES W  DIS CAZ7
 LZ4  SN IP        644 43.61                             130    0.0310 11.7 143 
 LZ4  SZ E         644 43.62                  322.6 11.3      0        11.7 143 
 LZ4  SE IS        644 45.50                             130   -0.0310 11.7 143 
 LZ4  SZ  AML      644 46.24        11.6 0.48                          11.7 143 
                                                                                
