 2009  6 3 2341 55.0 L  21.559 -99.372 10.0  RAL  1 0.0 0.4LRAL                1
 GAP=360        0.30       4.0     3.3  0.0 -0.1332E+02  0.1058E+00  0.1950E-01E
 ACTION:UPD 12-06-08 11:37 OP:RALL STATUS:               ID:20090603234155     I
 2009-06-03-2341-45S.PLUR1_003                                                 6
 STAT SP IPHASW D HRMM SECON CODA AMPLIT PERI AZIMU VELO AIN AR TRES W  DIS CAZ7
 LA4  SZ E        2341 57.45                  322.2 12.5      0        10.6 142 
 LA4  SN IP       2341 57.57                             133    0.0110 10.6 142 
 LA4  SE IS       2341 59.40                             133   -0.0110 10.6 142 
 LA4  SZ  AML     2342  0.81        10.7 0.60                          10.6 142 
                                                                                
