 2009  6 4 0659 21.5 L  21.262 -99.223 10.0  RAL  1 0.0 0.7LRAL                1
 GAP=360        0.30       4.7     3.2  0.0 -0.1468E+02  0.1058E+00  0.1950E-01E
 ACTION:UPD 12-06-08 11:37 OP:RALL STATUS:               ID:20090604065921     I
 2009-06-04-0659-14S.PLUR1_003                                                 6
 STAT SP IPHASW D HRMM SECON CODA AMPLIT PERI AZIMU VELO AIN AR TRES W  DIS CAZ7
 LZ4  SZ E         659 23.85                  147.6 11.7      0        9.06 328 
 LZ4  SN IP        659 23.85                             138    0.0210 9.06 328 
 LZ4  SE IS        659 25.54                             138   -0.0210 9.06 328 
 LZ4  SZ  AML      659 25.84        21.5 0.28                          9.06 328 
                                                                                
