 2009  6 4 0841 55.0 L  21.444 -99.195 10.0  RAL  1 0.0 0.8LRAL                1
 GAP=360        0.30       3.7     2.5  0.0  0.9148E+01  0.1058E+00  0.1950E-01E
 ACTION:UPD 12-06-08 11:37 OP:RALL STATUS:               ID:20090604084155     I
 2009-06-04-0841-50S.PLUR1_003                                                 6
 STAT SP IPHASW D HRMM SECON CODA AMPLIT PERI AZIMU VELO AIN AR TRES W  DIS CAZ7
 LZ4  SN IP        841 58.01                             122    0.0110 14.7 212 
 LZ4  SZ E         841 58.17                   31.7 14.3      0        14.7 212 
 LZ4  SE IS        842  0.21                             122   -0.0110 14.7 212 
 LZ4  SZ  AML      842  1.12        21.9 0.26                          14.7 212 
                                                                                
