 2009  6 4 1814 45.6 L  21.717 -99.323 10.0  RAL  1 0.0 1.1LRAL                1
 GAP=360        0.30       3.9     0.8  0.0 -0.8488E+00  0.1058E+00  0.1950E-01E
 ACTION:UPD 12-06-08 11:37 OP:RALL STATUS:               ID:20090604181445     I
 2009-06-04-1814-36S.PLUR1_003                                                 6
 STAT SP IPHASW D HRMM SECON CODA AMPLIT PERI AZIMU VELO AIN AR TRES W  DIS CAZ7
 LA4  SN IP       1814 50.29                             107    0.0110 25.9 177 
 LA4  SZ E        1814 50.30                  356.9  9.8      0        25.9 177 
 LA4  SE IS       1814 53.65                             107   -0.0110 25.9 177 
 LA4  SZ  AML     1814 55.38        27.5 0.28                          25.9 177 
                                                                                
