 2009  6 4 1219  4.0 L  21.165 -99.288 10.0  RAL  1 0.0 1.0LRAL                1
 GAP=360        0.30       4.1     0.7  0.0  0.1803E+01  0.1058E+00  0.1950E-01E
 ACTION:UPD 12-06-08 11:37 OP:RALL STATUS:               ID:20090604121904     I
 2009-06-04-1218-58S.PLUR1_003                                                 6
 STAT SP IPHASW D HRMM SECON CODA AMPLIT PERI AZIMU VELO AIN AR TRES W  DIS CAZ7
 LZ4  SZ E        1219  7.47                  185.8 15.8      0        18.5   6 
 LZ4  SN IP       1219  7.58                             116    0.0210 18.5   6 
 LZ4  SE IS       1219 10.14                             116   -0.0210 18.5   6 
 LZ4  SZ  AML     1219 10.34        28.7 0.36                          18.5   6 
                                                                                
