 2009  6 4 2111 27.0 L  21.315 -99.248 10.0  RAL  1 0.2 0.6LRAL                1
 GAP=360        0.70      19.9    27.5  0.0 -0.5461E+03  0.1058E+00  0.1950E-01E
 ACTION:UPD 12-06-08 11:37 OP:RALL STATUS:               ID:20090604211127     I
 2009-06-04-2111-19S.PLUR1_003                                                 6
 STAT SP IPHASW D HRMM SECON CODA AMPLIT PERI AZIMU VELO AIN AR TRES W  DIS CAZ7
 LZ4  SZ E        2111 29.26                  127.8 25.2      0        2.86 308 
 LZ4  SN IP       2111 29.30                             164    0.4310 2.86 308 
 LZ4  SE IS       2111 29.83                             164   -0.4310 2.86 308 
 LZ4  SZ  AML     2111 30.62        19.5 0.10                          2.86 308 
                                                                                
