 2009  6 5 0138 28.8 L  21.513 -99.322 10.0  RAL  1 0.0-0.2LRAL                1
 GAP=360        0.33      11.9     5.4  0.0 -0.6399E+02  0.1058E+00  0.1950E-01E
 ACTION:UPD 12-06-08 11:37 OP:RALL STATUS:               ID:20090605013828     I
 2009-06-05-0138-18S.PLUR1_003                                                 6
 STAT SP IPHASW D HRMM SECON CODA AMPLIT PERI AZIMU VELO AIN AR TRES W  DIS CAZ7
 LA4  SZ E         138 30.82                  337.3  9.1      0        3.49 157 
 LA4  SN IP        138 30.83                             161    0.1010 3.49 157 
 LA4  SE IS        138 32.04                             161   -0.1010 3.49 157 
 LA4  SZ  AML      138 32.28         3.5 0.22                          3.49 157 
                                                                                
