 2009  6 5 0329 27.4 L  21.610 -99.338 10.0  RAL  1 0.0 0.0LRAL                1
 GAP=360        0.30       4.3     1.1  0.0 -0.4218E+01  0.1058E+00  0.1950E-01E
 ACTION:UPD 12-06-08 11:37 OP:RALL STATUS:               ID:20090605032927     I
 2009-06-05-0329-18S.PLUR1_003                                                 6
 STAT SP IPHASW D HRMM SECON CODA AMPLIT PERI AZIMU VELO AIN AR TRES W  DIS CAZ7
 LA4  SN IP        329 30.39                             123    0.0010 14.3 168 
 LA4  SZ E         329 30.40                  348.1  6.6      0        14.3 168 
 LA4  SZ  AML      329 32.54         3.2 0.28                          14.3 168 
 LA4  SE IS        329 32.58                             123    0.0010 14.3 168 
                                                                                
