 2009  6 5 1814 36.3 L  21.617 -99.328 10.0  RAL  1 0.0 1.8LRAL                1
 GAP=360        0.30       4.3     0.7  0.0 -0.2673E+01  0.1058E+00  0.1950E-01E
 ACTION:UPD 12-06-08 11:37 OP:RALL STATUS:               ID:20090605181436     I
 2009-06-05-1814-24S.PLUR1_003                                                 6
 STAT SP IPHASW D HRMM SECON CODA AMPLIT PERI AZIMU VELO AIN AR TRES W  DIS CAZ7
 LA4  SZ E        1814 39.38                  352.4  9.9      0        14.8 172 
 LA4  SN IP       1814 39.40                             122    0.0010 14.8 172 
 LA4  SE IS       1814 41.64                             122    0.0010 14.8 172 
 LA4  SZ  AML     1814 43.12       231.4 0.42                          14.8 172 
                                                                                
