 2009  6 5 1536 55.5 L  21.705 -99.217 10.0  RAL  1 0.0 1.5LRAL                1
 GAP=360        0.30       3.7     1.3  0.0  0.1797E+01  0.1058E+00  0.1950E-01E
 ACTION:UPD 12-06-08 11:37 OP:RALL STATUS:               ID:20090605153655     I
 2009-06-05-1536-53S.PLUR1_003                                                 6
 STAT SP IPHASW D HRMM SECON CODA AMPLIT PERI AZIMU VELO AIN AR TRES W  DIS CAZ7
 LZ4  SN IP       1537  2.55                              99    0.0110 41.8 188 
 LZ4  SZ E        1537  2.75                    7.5 13.7      0        41.8 188 
 LZ4  SE IS       1537  7.67                              99   -0.0110 41.8 188 
 LZ4  SZ  AML     1537  8.89        44.0 0.50                          41.8 188 
                                                                                
