 2009  6 5 1054 30.9 L  21.410 -99.427 10.0  RAL  1 0.0 0.4LRAL                1
 GAP=360        0.30       2.0     3.9  0.0 -0.7426E+01  0.1058E+00  0.1950E-01E
 ACTION:UPD 12-06-08 11:37 OP:RALL STATUS:               ID:20090605105430     I
 2009-06-05-1054-28S.PLUR1_003                                                 6
 STAT SP IPHASW D HRMM SECON CODA AMPLIT PERI AZIMU VELO AIN AR TRES W  DIS CAZ7
 LZ4  SN IP       1054 34.48                             116    0.0010 18.5 118 
 LZ4  SZ E        1054 34.55                  298.4 18.7      0        18.5 118 
 LZ4  SE IS       1054 37.07                             116    0.0010 18.5 118 
 LZ4  SZ  AML     1054 37.56         7.5 0.38                          18.5 118 
                                                                                
