 2009  6 5 2352  6.4 L  21.772 -99.493 10.0  RAL  1 0.0 1.2LRAL                1
 GAP=360        0.30       3.3     2.3  0.0 -0.6311E+01  0.1058E+00  0.1950E-01E
 ACTION:UPD 12-06-08 11:37 OP:RALL STATUS:               ID:20090605235206     I
 2009-06-05-2351-58S.PLUR1_003                                                 6
 STAT SP IPHASW D HRMM SECON CODA AMPLIT PERI AZIMU VELO AIN AR TRES W  DIS CAZ7
 LA4  SZ E        2352 12.69                  329.2 11.3      0        37.2 149 
 LA4  SN IP       2352 12.73                             101    0.0210 37.2 149 
 LA4  SE IS       2352 17.33                             101   -0.0210 37.2 149 
 LA4  SZ  AML     2352 20.50        23.6 0.38                          37.2 149 
                                                                                
