 2009  6 5 2113 56.5 R  21.815 -99.282 10.0  RAL  1 0.0 1.5LRAL                1
 GAP=360        0.30       3.7     1.5  0.0 -0.3153E+00  0.1058E+00  0.1950E-01E
 ACTION:UPD 12-06-08 11:37 OP:RALL STATUS:               ID:20090605211356     I
 2009-06-05-2113-56S.PLUR1_003                                                 6
 STAT SP IPHASW D HRMM SECON CODA AMPLIT PERI AZIMU VELO AIN AR TRES W  DIS CAZ7
 LZ4  SN IP       2114  5.40                              97    0.0110 53.6 179 
 LZ4  SZ E        2114  5.41                  358.6 15.0      0        53.6 179 
 LZ4  SE IS       2114 11.85                              97   -0.0110 53.6 179 
 LZ4  SZ  AML     2114 12.60        35.1 0.16                          53.6 179 
                                                                                
