 2009  6 6 0528  9.0 L  21.285 -99.234 10.0  RAL  1 0.2 0.7LRAL                1
 GAP=360        0.66      19.5    38.3  0.0  0.7470E+03  0.1058E+00  0.1950E-01E
 ACTION:UPD 12-06-08 11:37 OP:RALL STATUS:               ID:20090606052809     I
 2009-06-06-0528-02S.PLUR1_003                                                 6
 STAT SP IPHASW D HRMM SECON CODA AMPLIT PERI AZIMU VELO AIN AR TRES W  DIS CAZ7
 LG3  SN IP        528 11.24                             168    0.4010 2.16 241 
 LG3  SZ E         528 11.24                   61.3 36.2      0        2.16 241 
 LG3  SE IS        528 11.82                             168   -0.4010 2.16 241 
 LG3  SZ  AML      528 11.97        30.4 0.10                          2.16 241 
                                                                                
