 2009  6 6 0205 41.1 L  21.679 -99.294 10.0  RAL  1 0.0 0.8LRAL                1
 GAP=360        0.30       4.0     0.7  0.0  0.1193E+01  0.1058E+00  0.1950E-01E
 ACTION:UPD 12-06-08 11:37 OP:RALL STATUS:               ID:20090606020541     I
 2009-06-06-0205-33S.PLUR1_003                                                 6
 STAT SP IPHASW D HRMM SECON CODA AMPLIT PERI AZIMU VELO AIN AR TRES W  DIS CAZ7
 LA4  SZ E         2 5 45.10                    4.1 14.8      0        21.7 184 
 LA4  SN IP        2 5 45.18                             111    0.0110 21.7 184 
 LA4  SE IS        2 5 48.09                             111   -0.0110 21.7 184 
 LA4  SZ  AML      2 5 49.62        16.7 0.38                          21.7 184 
                                                                                
