 2009  6 6 0546 21.5 L  21.212 -99.279  4.5  RAL  2 0.1 0.8LRAL                1
 GAP=333        0.60       2.9     1.2  2.4  0.3151E+01  0.1751E+00  0.2764E+00E
 ACTION:UPD 12-06-08 11:37 OP:RALL STATUS:               ID:20090606054621     I
 2009-06-06-0546-14S.PLUR1_006                                                 6
 STAT SP IPHASW D HRMM SECON CODA AMPLIT PERI AZIMU VELO AIN AR TRES W  DIS CAZ7
 LG3  SZ E         546 23.40                  200.4 41.7      0        7.60  21 
 LG3  SN IP        546 23.41                             124    0.3010 7.60  21 
 LG3  SE IS        546 24.01                             124   -0.3110 7.60  21 
 LG3  SZ  AML      546 24.14       102.4 0.10                          7.60  21 
 LA4  SN IP        546 26.74                              63    0.0510 30.3 354 
 LA4  SZ E         546 26.90                  175.3 10.1      1        30.3 354 
 LA4  SE IS        546 30.47                              63   -0.0410 30.3 354 
 LA4  SZ  AML      546 32.32         4.7 0.50                          30.3 354 
                                                                                
