 2009  6 6 0307 42.3 L  21.306 -99.259 10.0  RAL  1 0.1 1.1LRAL                1
 GAP=360        0.38      15.9     6.8  0.0 -0.1080E+03  0.1058E+00  0.1950E-01E
 ACTION:UPD 12-06-08 11:37 OP:RALL STATUS:               ID:20090606030742     I
 2009-06-06-0307-35S.PLUR1_003                                                 6
 STAT SP IPHASW D HRMM SECON CODA AMPLIT PERI AZIMU VELO AIN AR TRES W  DIS CAZ7
 LZ4  SZ E         3 7 44.30                  158.3 10.3      0        2.97 338 
 LZ4  SN IP        3 7 44.32                             164    0.1610 2.97 338 
 LZ4  SE IS        3 7 45.38                             164   -0.1610 2.97 338 
 LZ4  SZ  AML      3 7 45.66        70.1 0.36                          2.97 338 
                                                                                
