 2009  6 6 0249 31.9 L  21.321 -99.237 10.0  RAL  1 0.0 0.3LRAL                1
 GAP=360        0.31       3.7    12.0  0.0 -0.4460E+02  0.1058E+00  0.1950E-01E
 ACTION:UPD 12-06-08 11:37 OP:RALL STATUS:               ID:20090606024931     I
 2009-06-06-0249-26S.PLUR1_003                                                 6
 STAT SP IPHASW D HRMM SECON CODA AMPLIT PERI AZIMU VELO AIN AR TRES W  DIS CAZ7
 LZ4  SN IP        249 33.89                             161    0.0710 3.60 288 
 LZ4  SZ E         249 33.91                  108.4 32.0      0        3.60 288 
 LZ4  SE IS        249 35.16                             161   -0.0710 3.60 288 
 LZ4  SZ  AML      249 36.27        10.4 0.30                          3.60 288 
                                                                                
