 2009  6 8 0007 51.5 L  21.343 -99.292 10.0  RAL  1 0.1 0.4LRAL                1
 GAP=360        0.51      12.3    23.4  0.0 -0.2874E+03  0.1751E+00  0.2764E+00E
 ACTION:UPD 12-06-08 11:37 OP:RALL STATUS:               ID:20090608000751     I
 2009-06-08-0007-45S.PLUR1_003                                                 6
 STAT SP IPHASW D HRMM SECON CODA AMPLIT PERI AZIMU VELO AIN AR TRES W  DIS CAZ7
 LZ4  SN IP        0 7 53.67                             165    0.2810 2.72 119 
 LZ4  SZ E         0 7 53.69                  299.4 20.1      0        2.72 119 
 LZ4  SE IS        0 7 54.48                             165   -0.2810 2.72 119 
 LZ4  SZ  AML      0 7 55.59        14.7 0.58                          2.72 119 
                                                                                
