 2009  6 8 0310  7.4 L  21.524 -99.285 10.0  RAL  1 0.0 0.9LRAL                1
 GAP=360        0.30       4.0     0.7  0.0 -0.1224E+01  0.1751E+00  0.2764E+00E
 ACTION:UPD 12-06-08 11:37 OP:RALL STATUS:               ID:20090608031007     I
 2009-06-08-0310-02S.PLUR1_003                                                 6
 STAT SP IPHASW D HRMM SECON CODA AMPLIT PERI AZIMU VELO AIN AR TRES W  DIS CAZ7
 LZ4  SN IP        310 11.35                             112    0.0110 21.5 176 
 LZ4  SZ E         310 11.52                  355.8 10.8      0        21.5 176 
 LZ4  SE IS        310 14.23                             112   -0.0110 21.5 176 
 LZ4  SZ  AML      310 15.59        20.9 0.72                          21.5 176 
                                                                                
