 2009  6 8 0750 35.9 L  21.779 -99.197 10.0  RAL  1 0.0 1.3LRAL                1
 GAP=360        0.30       3.7     1.5  0.0  0.1951E+01  0.1751E+00  0.2764E+00E
 ACTION:UPD 12-06-08 11:37 OP:RALL STATUS:               ID:20090608075035     I
 2009-06-08-0750-36S.PLUR1_003                                                 6
 STAT SP IPHASW D HRMM SECON CODA AMPLIT PERI AZIMU VELO AIN AR TRES W  DIS CAZ7
 LZ4  SN IP        750 44.18                              97    0.0110 50.1 189 
 LZ4  SZ E         750 44.22                    8.6 14.4      0        50.1 189 
 LZ4  SE IS        750 50.24                              97   -0.0110 50.1 189 
 LZ4  SZ  AML      750 52.41        22.6 0.34                          50.1 189 
                                                                                
