 2009  6 8 1626 22.2 L  21.629 -99.277 10.0  RAL  1 0.0 0.8LRAL                1
 GAP=360        0.30       3.8     0.9  0.0 -0.3587E+00  0.1751E+00  0.2764E+00E
 ACTION:UPD 12-06-08 11:37 OP:RALL STATUS:               ID:20090608162622     I
 2009-06-08-1626-22S.PLUR1_003                                                 6
 STAT SP IPHASW D HRMM SECON CODA AMPLIT PERI AZIMU VELO AIN AR TRES W  DIS CAZ7
 LZ4  SN IP       1626 27.88                             103    0.0110 33.0 179 
 LZ4  SZ E        1626 27.92                  358.6 18.7      0        33.0 179 
 LZ4  SE IS       1626 32.02                             103   -0.0110 33.0 179 
 LZ4  SZ  AML     1626 32.24         9.9 0.24                          33.0 179 
                                                                                
