 2009  6 8 1033 49.8 L  21.415 -99.785 10.0  RAL  1 0.0 1.1LRAL                1
 GAP=360        0.30       1.7     3.9  0.0 -0.3225E+01  0.1751E+00  0.2764E+00E
 ACTION:UPD 12-06-08 11:37 OP:RALL STATUS:               ID:20090608103349     I
 2009-06-08-1033-52S.PLUR1_003                                                 6
 STAT SP IPHASW D HRMM SECON CODA AMPLIT PERI AZIMU VELO AIN AR TRES W  DIS CAZ7
 LG3  SN IP       1033 59.28                              96    0.0110 57.4 106 
 LG3  SZ E        1033 59.39                  285.7 15.7      0        57.4 106 
 LG3  SE IS       1034  6.16                              96   -0.0110 57.4 106 
 LG3  SZ  AML     1034  8.12        13.6 0.40                          57.4 106 
                                                                                
