 2009  6 8 1910 21.6 L  21.519 -99.316 10.0  RAL  1 0.0 1.3LRAL                1
 GAP=360        0.30      10.1     2.0  0.0 -0.1987E+02  0.1751E+00  0.2764E+00E
 ACTION:UPD 12-06-08 11:37 OP:RALL STATUS:               ID:20090608191021     I
 2009-06-08-1910-09S.PLUR1_003                                                 6
 STAT SP IPHASW D HRMM SECON CODA AMPLIT PERI AZIMU VELO AIN AR TRES W  DIS CAZ7
 LA4  SZ E        1910 23.55                  349.8  8.0      0        4.01 170 
 LA4  SN IP       1910 23.55                             159    0.0310 4.01 170 
 LA4  SE IS       1910 24.93                             159   -0.0310 4.01 170 
 LA4  SZ  AML     1910 25.01        94.7 0.24                          4.01 170 
                                                                                
