 2009  6 8 1055 17.8 L  21.300 -99.295 10.0  RAL  1 0.0 0.3LRAL                1
 GAP=360        0.34       8.6     7.2  0.0  0.6249E+02  0.1751E+00  0.2764E+00E
 ACTION:UPD 12-06-08 11:37 OP:RALL STATUS:               ID:20090608105517     I
 2009-06-08-1055-11S.PLUR1_003                                                 6
 STAT SP IPHASW D HRMM SECON CODA AMPLIT PERI AZIMU VELO AIN AR TRES W  DIS CAZ7
 LZ4  SZ E        1055 19.83                  218.1 44.6      0        4.37  38 
 LZ4  SN IP       1055 19.88                             157    0.1210 4.37  38 
 LZ4  SE IS       1055 21.08                             157   -0.1210 4.37  38 
 LZ4  SZ  AML     1055 22.37        10.7 0.82                          4.37  38 
                                                                                
