 2009  6 8 1802 14.1 L  21.619 -99.370 10.0  RAL  1 0.0 1.2LRAL                1
 GAP=360        0.30       3.9     1.8  0.0 -0.6910E+01  0.1751E+00  0.2764E+00E
 ACTION:UPD 12-06-08 11:37 OP:RALL STATUS:               ID:20090608180214     I
 2009-06-08-1802-03S.PLUR1_003                                                 6
 STAT SP IPHASW D HRMM SECON CODA AMPLIT PERI AZIMU VELO AIN AR TRES W  DIS CAZ7
 LA4  SZ E        18 2 17.33                  337.0  8.5      0        16.3 157 
 LA4  SN IP       18 2 17.37                             120    0.0010 16.3 157 
 LA4  SE IS       18 2 19.74                             120    0.0010 16.3 157 
 LA4  SZ  AML     18 2 20.83        47.1 0.32                          16.3 157 
                                                                                
