 2009  6 8 2241 59.8 L  21.349 -99.292 10.0  RAL  1 0.2 1.2LRAL                1
 GAP=360        0.71      20.2    24.6  0.0 -0.4958E+03  0.1751E+00  0.2764E+00E
 ACTION:UPD 12-06-08 11:37 OP:RALL STATUS:               ID:20090608224159     I
 2009-06-08-2241-52S.PLUR1_003                                                 6
 STAT SP IPHASW D HRMM SECON CODA AMPLIT PERI AZIMU VELO AIN AR TRES W  DIS CAZ7
 LZ4  SZ E        2242  2.11                  311.3 14.9      0        3.11 131 
 LZ4  SN IP       2242  2.14                             163    0.4310 3.11 131 
 LZ4  SE IS       2242  2.66                             163   -0.4310 3.11 131 
 LZ4  SZ  AML     2242  3.30        86.3 0.18                          3.11 131 
                                                                                
