 2009  6 9 0518 41.1 L  21.300 -99.257 10.0  RAL  1 0.0 0.3LRAL                1
 GAP=360        0.33      11.5     4.7  0.0 -0.5403E+02  0.1751E+00  0.2764E+00E
 ACTION:UPD 12-06-08 11:37 OP:RALL STATUS:               ID:20090609051841     I
 2009-06-09-0518-35S.PLUR1_003                                                 6
 STAT SP IPHASW D HRMM SECON CODA AMPLIT PERI AZIMU VELO AIN AR TRES W  DIS CAZ7
 LZ4  SZ E         518 43.08                  159.1 16.9      0        3.70 339 
 LZ4  SN IP        518 43.10                             160    0.1010 3.70 339 
 LZ4  SE IS        518 44.30                             160   -0.1010 3.70 339 
 LZ4  SZ  AML      518 45.91        11.4 0.54                          3.70 339 
                                                                                
