 2009  6 9 0608  4.6 L  21.351 -99.283 10.0  RAL  1 0.1 0.5LRAL                1
 GAP=360        0.51      21.6    15.1  0.0 -0.3252E+03  0.1751E+00  0.2764E+00E
 ACTION:UPD 12-06-08 11:37 OP:RALL STATUS:               ID:20090609060804     I
 2009-06-09-0607-57S.PLUR1_003                                                 6
 STAT SP IPHASW D HRMM SECON CODA AMPLIT PERI AZIMU VELO AIN AR TRES W  DIS CAZ7
 LZ4  SZ E         6 8  6.70                  326.9 12.0      0        2.64 147 
 LZ4  SN IP        6 8  6.73                             166    0.2810 2.64 147 
 LZ4  SE IS        6 8  7.54                             166   -0.2810 2.64 147 
 LZ4  SZ  AML      6 8  8.02        17.5 0.32                          2.64 147 
                                                                                
