 2009  6 9 0803 45.9 L  21.256 -99.244 10.0  RAL  1 0.2 0.3LRAL                1
 GAP=360        1.45     999.9   999.9  0.0  0.4388E+07  0.1751E+00  0.2764E+00E
 ACTION:UPD 12-06-08 11:37 OP:RALL STATUS:               ID:20090609080345     I
 2009-06-09-0803-39S.PLUR1_003                                                 6
 STAT SP IPHASW D HRMM SECON CODA AMPLIT PERI AZIMU VELO AIN AR TRES W  DIS CAZ7
 LG3  SN IP        8 3 48.16                             167    0.3610 2.35 339 
 LG3  SZ E         8 3 48.16                  152.8 14.6     -5        2.35 339 
 LG3  SE IS        8 3 48.82                             167   -0.3610 2.35 339 
 LG3  SZ  AML      8 3 48.96        10.9 0.10                          2.35 339 
                                                                                
