 2009  6 9 0019  1.9 L  21.275 -99.248 10.0  RAL  1 0.0 0.0LRAL                1
 GAP=360        0.30       6.4     2.5  0.0 -0.1590E+02  0.1751E+00  0.2764E+00E
 ACTION:UPD 12-06-08 11:37 OP:RALL STATUS:               ID:20090609001901     I
 2009-06-09-0018-56S.PLUR1_003                                                 6
 STAT SP IPHASW D HRMM SECON CODA AMPLIT PERI AZIMU VELO AIN AR TRES W  DIS CAZ7
 LZ4  SZ E         019  3.99                  160.3 19.6      0        6.56 340 
 LZ4  SN IP        019  4.02                             147    0.0210 6.56 340 
 LZ4  SE IS        019  5.53                             147   -0.0210 6.56 340 
 LZ4  SZ  AML      019  5.78         5.1 0.26                          6.56 340 
                                                                                
