 2009  610 0151 58.8 L  20.988 -99.249 10.0  RAL  1 0.0 0.8LRAL                1
 GAP=360        0.30       3.8     1.1  0.0 -0.7853E+00  0.1751E+00  0.2764E+00E
 ACTION:UPD 12-06-08 11:37 OP:RALL STATUS:               ID:20090610015158     I
 2009-06-10-0152-01S.PLUR1_003                                                 6
 STAT SP IPHASW D HRMM SECON CODA AMPLIT PERI AZIMU VELO AIN AR TRES W  DIS CAZ7
 LZ4  SN IP        152  5.28                             100    0.0110 38.0 357 
 LZ4  SZ E         152  5.29                  176.8 37.9      0        38.0 357 
 LZ4  SE IS        152  9.98                             100   -0.0110 38.0 357 
 LZ4  SZ  AML      152 10.83        10.5 0.50                          38.0 357 
                                                                                
