 2009  610 0715 20.4 L  21.511 -99.446 10.0  RAL  1 0.0 1.5LRAL                1
 GAP=360        0.30       2.9     2.8  0.0 -0.7659E+01  0.1751E+00  0.2764E+00E
 ACTION:UPD 12-06-08 11:37 OP:RALL STATUS:               ID:20090610071520     I
 2009-06-10-0715-16S.PLUR1_003                                                 6
 STAT SP IPHASW D HRMM SECON CODA AMPLIT PERI AZIMU VELO AIN AR TRES W  DIS CAZ7
 LZ4  SZ E         715 25.19                  317.6 11.5      0        27.0 138 
 LZ4  SN IP        715 25.22                             106    0.0010 27.0 138 
 LZ4  SE IS        715 28.72                             106    0.0010 27.0 138 
 LZ4  SZ  AML      715 30.18        69.3 0.18                          27.0 138 
                                                                                
