 2009  610 0426 13.2 L  21.332 -99.268 10.0  RAL  1 0.8 0.3LRAL                1
 GAP=360       10.55     999.9   999.9  0.0 -0.1207E+11  0.1751E+00  0.2764E+00E
 ACTION:UPD 12-06-08 11:37 OP:RALL STATUS:               ID:20090610042613     I
 2009-06-10-0426-06S.PLUR1_003                                                 6
 STAT SP IPHASW D HRMM SECON CODA AMPLIT PERI AZIMU VELO AIN AR TRES W  DIS CAZ7
 LZ4  SN IP        426 15.57                             179    0.5510 0.26 229 
 LZ4  SZ E         426 15.57                   98.9  9.8     50        0.26 229 
 LZ4  SE IS        426 15.80                             179   -0.5510 0.26 229 
 LZ4  SZ  AML      426 15.89        11.1 0.12                          0.26 229 
                                                                                
