 2009  610 0138 18.2 L  21.685 -99.338 10.0  RAL  1 0.0 1.6LRAL                1
 GAP=360        0.30       3.9     0.8  0.0 -0.2194E+01  0.1751E+00  0.2764E+00E
 ACTION:UPD 12-06-08 11:37 OP:RALL STATUS:               ID:20090610013818     I
 2009-06-10-0138-08S.PLUR1_003                                                 6
 STAT SP IPHASW D HRMM SECON CODA AMPLIT PERI AZIMU VELO AIN AR TRES W  DIS CAZ7
 LA4  SZ E         138 22.35                  352.3  8.0      0        22.5 172 
 LA4  SN IP        138 22.39                             111    0.0110 22.5 172 
 LA4  SE IS        138 25.38                             111   -0.0110 22.5 172 
 LA4  SZ  AML      138 27.26        86.3 0.40                          22.5 172 
                                                                                
