 2009  610 2251 41.7 L  21.679 -99.401 10.0  RAL  1 0.0 1.7LRAL                1
 GAP=360        0.30       3.6     1.7  0.0 -0.4399E+01  0.1751E+00  0.2764E+00E
 ACTION:UPD 12-06-08 11:37 OP:RALL STATUS:               ID:20090610225141     I
 2009-06-10-2251-40S.PLUR1_003                                                 6
 STAT SP IPHASW D HRMM SECON CODA AMPLIT PERI AZIMU VELO AIN AR TRES W  DIS CAZ7
 LZ4  SN IP       2251 48.61                              99    0.0110 40.8 160 
 LZ4  SZ E        2251 49.11                  340.5  7.0      0        40.8 160 
 LZ4  SE IS       2251 53.62                              99   -0.0110 40.8 160 
 LZ4  SZ  AML     2251 55.13        79.3 0.18                          40.8 160 
                                                                                
