 2009  611 1015  0.2 L  21.332 -99.276 10.0  RAL  1 0.3 0.4LRAL                1
 GAP=360        3.20     753.0   888.0  0.0  0.6685E+06  0.1751E+00  0.2764E+00E
 ACTION:UPD 12-06-08 11:37 OP:RALL STATUS:               ID:20090611101500     I
 2009-06-11-1014-53S.PLUR1_003                                                 6
 STAT SP IPHASW D HRMM SECON CODA AMPLIT PERI AZIMU VELO AIN AR TRES W  DIS CAZ7
 LZ4  SZ E        1015  2.21                  269.8 23.3    -14        0.68 105 
 LZ4  SN IP       1015  2.23                             176    0.2110 0.68 105 
 LZ4  SE IS       1015  3.14                             176   -0.2110 0.68 105 
 LZ4  SZ  AML     1015  4.02        15.8 0.14                          0.68 105 
                                                                                
