 2009  611 1259 55.8 R  22.354 -98.652 10.0  RAL  1 0.0 1.9LRAL                1
 GAP=360        0.30       4.4     4.0  0.0  0.5056E+01  0.1751E+00  0.2764E+00E
 ACTION:UPD 12-06-08 11:37 OP:RALL STATUS:               ID:20090611125955     I
 2009-06-11-1300-07S.PLUR1_003                                                 6
 STAT SP IPHASW D HRMM SECON CODA AMPLIT PERI AZIMU VELO AIN AR TRES W  DIS CAZ7
 LZ4  SZ E        13 0 16.42                   29.3 10.9      0         130 210 
 LZ4  SN IP       13 0 16.46                              52    0.0110  130 210 
 LZ4  SE IS       13 0 31.49                              52   -0.0110  130 210 
 LZ4  SZ  AML     13 0 35.16        35.7 0.14                           130 210 
                                                                                
