 2009  611 1144 10.8 L  21.315 -99.263 10.0  RAL  1 0.2-0.2LRAL                1
 GAP=360        2.49     999.9   999.9  0.0  0.1874E+08  0.1751E+00  0.2764E+00E
 ACTION:UPD 12-06-08 11:37 OP:RALL STATUS:               ID:20090611114410     I
 2009-06-11-1144-04S.PLUR1_003                                                 6
 STAT SP IPHASW D HRMM SECON CODA AMPLIT PERI AZIMU VELO AIN AR TRES W  DIS CAZ7
 LZ4  SN IP       1144 12.90                             170    0.2710 1.91 339 
 LZ4  SZ E        1144 12.91                  170.4 11.3     12        1.91 339 
 LZ4  SE IS       1144 13.72                             170   -0.2710 1.91 339 
 LZ4  SZ  AML     1144 14.47         3.9 0.34                          1.91 339 
                                                                                
