 2009  611 2334  9.6 L  21.462 -99.298 10.0  RAL  1 0.1 0.2LRAL                1
 GAP=360        0.47      21.0    11.1  0.0 -0.2327E+03  0.1751E+00  0.2764E+00E
 ACTION:UPD 12-06-08 11:37 OP:RALL STATUS:               ID:20090611233409     I
 2009-06-11-2333-58S.PLUR1_003                                                 6
 STAT SP IPHASW D HRMM SECON CODA AMPLIT PERI AZIMU VELO AIN AR TRES W  DIS CAZ7
 LA4  SN IP       2334 11.74                             166    0.2410 2.66 334 
 LA4  SZ E        2334 11.75                  153.7  8.8      0        2.66 334 
 LA4  SE IS       2334 12.64                             166   -0.2410 2.66 334 
 LA4  SZ  AML     2334 12.96         9.6 0.42                          2.66 334 
                                                                                
