 2009  612 0410 49.6 L  21.261 -99.251 10.0  RAL  1 0.2 0.4LRAL                1
 GAP=360        2.25     999.9   999.9  0.0  0.8378E+08  0.1751E+00  0.2764E+00E
 ACTION:UPD 12-06-08 11:37 OP:RALL STATUS:               ID:20090612041049     I
 2009-06-12-0410-42S.PLUR1_003                                                 6
 STAT SP IPHASW D HRMM SECON CODA AMPLIT PERI AZIMU VELO AIN AR TRES W  DIS CAZ7
 LG3  SN IP        410 51.86                             171    0.4210 1.66 355 
 LG3  SZ E         410 51.89                  185.3 12.3     10        1.66 355 
 LG3  SE IS        410 52.38                             171   -0.4210 1.66 355 
 LG3  SZ  AML      410 53.45        15.5 0.18                          1.66 355 
                                                                                
