 2009  612 0406  2.0 L  21.750 -99.426 10.0  RAL  1 0.0 0.9LRAL                1
 GAP=360        0.30       3.5     1.8  0.0 -0.5227E+01  0.1751E+00  0.2764E+00E
 ACTION:UPD 12-06-08 11:37 OP:RALL STATUS:               ID:20090612040602     I
 2009-06-12-0405-54S.PLUR1_003                                                 6
 STAT SP IPHASW D HRMM SECON CODA AMPLIT PERI AZIMU VELO AIN AR TRES W  DIS CAZ7
 LA4  SN IP        4 6  7.56                             103    0.0210 31.9 158 
 LA4  SZ E         4 6  7.58                  337.7  7.3      0        31.9 158 
 LA4  SE IS        4 6 11.57                             103   -0.0210 31.9 158 
 LA4  SZ  AML      4 6 12.84        15.9 0.46                          31.9 158 
                                                                                
