 2009  612 1335 35.2 L  21.285 -99.210 10.0  RAL  1 0.0 0.1LRAL                1
 GAP=360        0.30       3.6     1.9  0.0 -0.6209E+01  0.1751E+00  0.2764E+00E
 ACTION:UPD 12-06-08 11:37 OP:RALL STATUS:               ID:20090612133535     I
 2009-06-12-1335-29S.PLUR1_003                                                 6
 STAT SP IPHASW D HRMM SECON CODA AMPLIT PERI AZIMU VELO AIN AR TRES W  DIS CAZ7
 LA4  SZ E        1335 39.66                  154.9  7.2      0        24.3 335 
 LA4  SN IP       1335 39.66                             109    0.0310 24.3 335 
 LA4  SE IS       1335 42.82                             109   -0.0310 24.3 335 
 LA4  SZ  AML     1335 43.73         2.9 0.28                          24.3 335 
                                                                                
