 2009  612 2227 14.2 L  21.716 -99.326 10.0  RAL  1 0.0 1.0LRAL                1
 GAP=360        0.30       3.9     0.8  0.0 -0.1095E+01  0.1751E+00  0.2764E+00E
 ACTION:UPD 12-06-08 11:37 OP:RALL STATUS:               ID:20090612222714     I
 2009-06-12-2227-07S.PLUR1_003                                                 6
 STAT SP IPHASW D HRMM SECON CODA AMPLIT PERI AZIMU VELO AIN AR TRES W  DIS CAZ7
 LA4  SN IP       2227 18.81                             107    0.0110 25.8 176 
 LA4  SZ E        2227 18.86                  356.0  9.1      0        25.8 176 
 LA4  SE IS       2227 22.16                             107   -0.0110 25.8 176 
 LA4  SZ  AML     2227 22.50        22.1 0.28                          25.8 176 
                                                                                
