 2009  613 0232 51.8 L  21.322 -99.269 10.0  RAL  1 0.3 0.3LRAL                1
 GAP=360        3.24     999.9   999.9  0.0  0.2046E+10  0.1751E+00  0.2764E+00E
 ACTION:UPD 12-06-08 11:37 OP:RALL STATUS:               ID:20090613023251     I
 2009-06-13-0232-44S.PLUR1_003                                                 6
 STAT SP IPHASW D HRMM SECON CODA AMPLIT PERI AZIMU VELO AIN AR TRES W  DIS CAZ7
 LZ4  SN IP        232 54.12                             175    0.5110 0.95 359 
 LZ4  SZ E         232 54.12                  163.8 22.9    -14        0.95 359 
 LZ4  SE IS        232 54.45                             175   -0.5110 0.95 359 
 LZ4  SZ  AML      232 55.35        10.8 0.38                          0.95 359 
                                                                                
