 2009  613 1038 21.8 L  21.142 -99.172 10.0  RAL  1 0.0 1.9LRAL                1
 GAP=360        0.30       3.5     1.9  0.0 -0.6285E+01  0.1751E+00  0.2764E+00E
 ACTION:UPD 12-06-08 11:37 OP:RALL STATUS:               ID:20090613103821     I
 2009-06-13-1038-19S.PLUR1_003                                                 6
 STAT SP IPHASW D HRMM SECON CODA AMPLIT PERI AZIMU VELO AIN AR TRES W  DIS CAZ7
 LZ4  SN IP       1038 26.04                             110    0.0010 23.2 334 
 LZ4  SZ E        1038 26.07                  154.3 15.7      0        23.2 334 
 LZ4  SE IS       1038 29.13                             110    0.0010 23.2 334 
 LZ4  SZ  AML     1038 29.49       175.6 0.22                          23.2 334 
                                                                                
