 2009  613 1332 17.9 L  21.272 -99.220  3.2  RAL  2 0.4 1.0LRAL                1
 GAP=298        3.05       1.4     8.0 18.7 -0.7307E+01 -0.2163E+02  0.1384E+01E
 ACTION:UPD 12-06-08 11:37 OP:RALL STATUS:               ID:20090613133217     I
 2009-06-13-1332-10S.PLUR1_006                                                 6
 STAT SP IPHASW D HRMM SECON CODA AMPLIT PERI AZIMU VELO AIN AR TRES W  DIS CAZ7
 LG3  SZ E        1332 17.86                   92.1 14.3     -3        3.38 277 
 LG3  SN IP       1332 17.90                             142   -0.9210 3.38 277 
 LG3  SE IS       1332 19.76                             142    0.2410 3.38 277 
 LG3  SZ  AML     1332 19.91       132.8 0.28                          3.38 277 
 LA4  SZ E        1332 21.62                  169.6  7.9     11        25.2 339 
 LA4  SN IP       1332 21.67                             100   -0.6510 25.2 339 
 LA4  SE IS       1332 26.91                             100    1.3310 25.2 339 
 LA4  SZ  AML     1332 27.89        19.3 0.66                          25.2 339 
                                                                                
