 2009  613 1741 31.9 L  21.248 -99.245 10.0  RAL  1 0.0 0.8LRAL                1
 GAP=360        0.30       5.1     1.5  0.0 -0.7796E+01 -0.2163E+02  0.1384E+01E
 ACTION:UPD 12-06-08 11:37 OP:RALL STATUS:               ID:20090613174131     I
 2009-06-13-1741-25S.PLUR1_003                                                 6
 STAT SP IPHASW D HRMM SECON CODA AMPLIT PERI AZIMU VELO AIN AR TRES W  DIS CAZ7
 LZ4  SN IP       1741 34.32                             136    0.0110 9.52 345 
 LZ4  SZ E        1741 34.33                  164.6 19.3      0        9.52 345 
 LZ4  SE IS       1741 36.06                             136   -0.0110 9.52 345 
 LZ4  SZ  AML     1741 36.82        28.7 0.24                          9.52 345 
                                                                                
