 2009  613 2338 37.9 L  21.263 -99.232 10.0  RAL  1 0.2 1.2LRAL                1
 GAP=360        0.65      18.4    31.3  0.0 -0.5739E+03 -0.2163E+02  0.1384E+01E
 ACTION:UPD 12-06-08 11:37 OP:RALL STATUS:               ID:20090613233837     I
 2009-06-13-2338-30S.PLUR1_003                                                 6
 STAT SP IPHASW D HRMM SECON CODA AMPLIT PERI AZIMU VELO AIN AR TRES W  DIS CAZ7
 LG3  SZ E        2338 40.15                  122.2 13.8      0        2.53 302 
 LG3  SN IP       2338 40.17                             166    0.3910 2.53 302 
 LG3  SE IS       2338 40.77                             166   -0.3910 2.53 302 
 LG3  SN  AML     2338 40.98       104.1 0.16                          2.53 302 
 LG3  SZ  AML     2338 41.27        59.2 0.44                          2.53 302 
                                                                                
