 2009  613 2036  1.0 L  21.252 -99.227 10.0  RAL  1 0.1 0.7LRAL                1
 GAP=360        0.45      11.6    12.9  0.0 -0.1499E+03 -0.2163E+02  0.1384E+01E
 ACTION:UPD 12-06-08 11:37 OP:RALL STATUS:               ID:20090613203601     I
 2009-06-13-2035-54S.PLUR1_003                                                 6
 STAT SP IPHASW D HRMM SECON CODA AMPLIT PERI AZIMU VELO AIN AR TRES W  DIS CAZ7
 LG3  SZ E        2036  3.11                  134.1 10.3      0        3.73 314 
 LG3  SN IP       2036  3.19                             160    0.2310 3.73 314 
 LG3  SE IS       2036  4.15                             160   -0.2310 3.73 314 
 LG3  SZ  AML     2036  4.49        28.4 0.20                          3.73 314 
                                                                                
