 2009  613 2043 53.8 L  21.289 -99.257 10.0  RAL  1 0.0 0.5LRAL                1
 GAP=360        0.30       8.4     2.6  0.0 -0.2190E+02 -0.2163E+02  0.1384E+01E
 ACTION:UPD 12-06-08 11:37 OP:RALL STATUS:               ID:20090613204353     I
 2009-06-13-2043-47S.PLUR1_003                                                 6
 STAT SP IPHASW D HRMM SECON CODA AMPLIT PERI AZIMU VELO AIN AR TRES W  DIS CAZ7
 LZ4  SZ E        2043 55.75                  163.9 15.7      0        4.80 344 
 LZ4  SN IP       2043 55.79                             155    0.0210 4.80 344 
 LZ4  SE IS       2043 57.20                             155   -0.0210 4.80 344 
 LZ4  SZ  AML     2043 59.60        17.1 0.32                          4.80 344 
                                                                                
