 2009  614 0408 44.4 L  21.714 -99.315 10.0  RAL  1 0.0 1.3LRAL                1
 GAP=360        0.30       3.9     0.7  0.0 -0.3581E+00 -0.2163E+02  0.1384E+01E
 ACTION:UPD 12-06-08 11:37 OP:RALL STATUS:               ID:20090614040844     I
 2009-06-14-0408-35S.PLUR1_003                                                 6
 STAT SP IPHASW D HRMM SECON CODA AMPLIT PERI AZIMU VELO AIN AR TRES W  DIS CAZ7
 LA4  SZ E         4 8 48.94                  358.7  9.5      0        25.5 179 
 LA4  SN IP        4 8 48.96                             108    0.0110 25.5 179 
 LA4  SE IS        4 8 52.28                             108   -0.0110 25.5 179 
 LA4  SZ  AML      4 8 52.65        46.1 0.28                          25.5 179 
                                                                                
