 2009  614 0219 18.8 L  21.665 -99.373 10.0  RAL  1 0.0 0.4LRAL                1
 GAP=360        0.30       3.8     1.5  0.0 -0.5041E+01 -0.2163E+02  0.1384E+01E
 ACTION:UPD 12-06-08 11:37 OP:RALL STATUS:               ID:20090614021918     I
 2009-06-14-0219-11S.PLUR1_003                                                 6
 STAT SP IPHASW D HRMM SECON CODA AMPLIT PERI AZIMU VELO AIN AR TRES W  DIS CAZ7
 LA4  SZ E         219 22.75                  341.9  8.7      0        21.1 162 
 LA4  SN IP        219 22.77                             112    0.0210 21.1 162 
 LA4  SE IS        219 25.60                             112   -0.0210 21.1 162 
 LA4  SZ  AML      219 26.31         6.0 0.32                          21.1 162 
                                                                                
