 2009  614 0115 52.4 L  21.250 -99.278 10.0  RAL  1 0.1 0.5LRAL                1
 GAP=360        0.37       9.8     9.7  0.0  0.9525E+02 -0.2163E+02  0.1384E+01E
 ACTION:UPD 12-06-08 11:37 OP:RALL STATUS:               ID:20090614011552     I
 2009-06-14-0115-46S.PLUR1_003                                                 6
 STAT SP IPHASW D HRMM SECON CODA AMPLIT PERI AZIMU VELO AIN AR TRES W  DIS CAZ7
 LG3  SZ E         115 54.54                  222.9 17.0      0        3.87  43 
 LG3  SN IP        115 54.55                             159    0.1610 3.87  43 
 LG3  SE IS        115 55.67                             159   -0.1610 3.87  43 
 LG3  SZ  AML      115 55.82        18.1 0.22                          3.87  43 
                                                                                
