 2009  614 2220 58.8 L  21.322 -99.272 10.0  RAL  1 0.2 0.9LRAL                1
 GAP=360        2.37     128.9   999.9  0.0 -0.2122E+06 -0.2163E+02  0.1384E+01E
 ACTION:UPD 12-06-08 11:37 OP:RALL STATUS:               ID:20090614222058     I
 2009-06-14-2220-51S.PLUR1_003                                                 6
 STAT SP IPHASW D HRMM SECON CODA AMPLIT PERI AZIMU VELO AIN AR TRES W  DIS CAZ7
 LZ4  SZ E        2221  0.77                  185.3 21.8    -10        0.98  17 
 LZ4  SN IP       2221  0.77                             175    0.1010 0.98  17 
 LZ4  SE IS       2221  1.92                             175   -0.1010 0.98  17 
 LZ4  SZ  AML     2221  2.47        47.2 0.10                          0.98  17 
                                                                                
