 2009  615 0923 15.0 L  21.549 -99.467 10.0  RAL  1 0.0 0.6LRAL                1
 GAP=360        0.30       3.0     2.7  0.0 -0.7388E+01 -0.2163E+02  0.1384E+01E
 ACTION:UPD 12-06-08 11:37 OP:RALL STATUS:               ID:20090615092315     I
 2009-06-15-0923-15S.PLUR1_003                                                 6
 STAT SP IPHASW D HRMM SECON CODA AMPLIT PERI AZIMU VELO AIN AR TRES W  DIS CAZ7
 LZ4  SZ E         923 20.49                  319.7  9.0      0        31.6 140 
 LZ4  SN IP        923 20.50                             103    0.0210 31.6 140 
 LZ4  SE IS        923 24.46                             103   -0.0210 31.6 140 
 LZ4  SZ  AML      923 26.21         7.6 0.18                          31.6 140 
                                                                                
