 2009  615 0304 39.7 L  21.300 -99.448 10.0  RAL  1 0.0 0.8LRAL                1
 GAP=360        0.30       0.9     4.3  0.0  0.3152E+01 -0.2163E+02  0.1384E+01E
 ACTION:UPD 12-06-08 11:37 OP:RALL STATUS:               ID:20090615030439     I
 2009-06-15-0304-34S.PLUR1_003                                                 6
 STAT SP IPHASW D HRMM SECON CODA AMPLIT PERI AZIMU VELO AIN AR TRES W  DIS CAZ7
 LZ4  SZ E         3 4 43.12                  259.7 23.1      0        18.8  80 
 LZ4  SN IP        3 4 43.29                             115    0.0210 18.8  80 
 LZ4  SE IS        3 4 45.88                             115   -0.0210 18.8  80 
 LZ4  SZ  AML      3 4 46.96        17.4 0.40                          18.8  80 
                                                                                
