 2009  615 0708  2.7 L  21.263 -99.440 10.0  RAL  1 0.0 1.1LRAL                1
 GAP=360        0.30       1.7     4.0  0.0  0.6267E+01 -0.2163E+02  0.1384E+01E
 ACTION:UPD 12-06-08 11:37 OP:RALL STATUS:               ID:20090615070802     I
 2009-06-15-0707-57S.PLUR1_003                                                 6
 STAT SP IPHASW D HRMM SECON CODA AMPLIT PERI AZIMU VELO AIN AR TRES W  DIS CAZ7
 LZ4  SZ E         7 8  6.31                  247.1 29.3      0        19.2  67 
 LZ4  SN IP        7 8  6.34                             115    0.0010 19.2  67 
 LZ4  SE IS        7 8  9.00                             115    0.0010 19.2  67 
 LZ4  SZ  AML      7 8  9.21        34.2 0.58                          19.2  67 
                                                                                
