 2009  615 0220 35.2 L  21.502 -99.313 10.0  RAL  1 0.0 0.2LRAL                1
 GAP=360        0.32      20.4     4.3  0.0 -0.8765E+02 -0.2163E+02  0.1384E+01E
 ACTION:UPD 12-06-08 11:37 OP:RALL STATUS:               ID:20090615022035     I
 2009-06-15-0220-24S.PLUR1_003                                                 6
 STAT SP IPHASW D HRMM SECON CODA AMPLIT PERI AZIMU VELO AIN AR TRES W  DIS CAZ7
 LA4  SN IP        220 37.20                             169    0.0910 2.07 169 
 LA4  SZ E         220 37.21                  348.9  8.0      0        2.07 169 
 LA4  SE IS        220 38.39                             169   -0.0910 2.07 169 
 LA4  SZ  AML      220 39.18         9.1 0.16                          2.07 169 
                                                                                
