 2009  615 1221 11.3 L  21.406 -99.497 10.0  RAL  1 0.0 0.6LRAL                1
 GAP=360        0.30       1.7     3.9  0.0  0.6201E+01 -0.2163E+02  0.1384E+01E
 ACTION:UPD 12-06-08 11:37 OP:RALL STATUS:               ID:20090615122111     I
 2009-06-15-1221-02S.PLUR1_003                                                 6
 STAT SP IPHASW D HRMM SECON CODA AMPLIT PERI AZIMU VELO AIN AR TRES W  DIS CAZ7
 LA4  SZ E        1221 15.19                  246.1 18.1      0        21.3  66 
 LA4  SN IP       1221 15.24                             112    0.0010 21.3  66 
 LA4  SE IS       1221 18.13                             112    0.0010 21.3  66 
 LA4  SZ  AML     1221 18.92        11.1 0.60                          21.3  66 
                                                                                
