 2009  615 1216 59.7 L  21.509 -99.335 10.0  RAL  1 0.1 0.2LRAL                1
 GAP=360        0.38       9.8    10.1  0.0 -0.9804E+02 -0.2163E+02  0.1384E+01E
 ACTION:UPD 12-06-08 11:37 OP:RALL STATUS:               ID:20090615121659     I
 2009-06-15-1216-48S.PLUR1_003                                                 6
 STAT SP IPHASW D HRMM SECON CODA AMPLIT PERI AZIMU VELO AIN AR TRES W  DIS CAZ7
 LA4  SZ E        1217  1.80                  316.2 12.3      0        3.83 136 
 LA4  SN IP       1217  1.84                             160    0.1610 3.83 136 
 LA4  SE IS       1217  2.95                             160   -0.1610 3.83 136 
 LA4  SZ  AML     1217  3.06         8.1 0.22                          3.83 136 
                                                                                
