 2009  616 0308 38.2 L  21.311 -99.264 10.0  RAL  1 0.1 1.5LRAL                1
 GAP=360        0.38      21.5     6.6  0.0 -0.1420E+03 -0.2163E+02  0.1384E+01E
 ACTION:UPD 12-06-08 11:37 OP:RALL STATUS:               ID:20090616030838     I
 2009-06-16-0308-31S.PLUR1_003                                                 6
 STAT SP IPHASW D HRMM SECON CODA AMPLIT PERI AZIMU VELO AIN AR TRES W  DIS CAZ7
 LZ4  SZ E         3 8 40.19                  164.0  7.9      0        2.24 344 
 LZ4  SN IP        3 8 40.22                             168    0.1610 2.24 344 
 LZ4  SE IS        3 8 41.26                             168   -0.1610 2.24 344 
 LZ4  SZ  AML      3 8 41.76       186.9 0.40                          2.24 344 
                                                                                
