 2009  616 0152 46.9 L  21.636 -99.343 10.0  RAL  1 0.0 0.4LRAL                1
 GAP=360        0.30       4.1     1.0  0.0 -0.3822E+01 -0.2163E+02  0.1384E+01E
 ACTION:UPD 12-06-08 11:37 OP:RALL STATUS:               ID:20090616015246     I
 2009-06-16-0152-38S.PLUR1_003                                                 6
 STAT SP IPHASW D HRMM SECON CODA AMPLIT PERI AZIMU VELO AIN AR TRES W  DIS CAZ7
 LA4  SZ E         152 50.25                  348.1 10.4      0        17.2 168 
 LA4  SN IP        152 50.30                             118    0.0310 17.2 168 
 LA4  SE IS        152 52.72                             118   -0.0310 17.2 168 
 LA4  SZ  AML      152 54.75         7.2 0.42                          17.2 168 
                                                                                
