 2009  616 1721  3.5 L  21.509 -99.328 10.0  RAL  1 0.1 0.2LRAL                1
 GAP=360        0.43      14.0    10.7  0.0 -0.1501E+03 -0.2163E+02  0.1384E+01E
 ACTION:UPD 12-06-08 11:37 OP:RALL STATUS:               ID:20090616172103     I
 2009-06-16-1720-52S.PLUR1_003                                                 6
 STAT SP IPHASW D HRMM SECON CODA AMPLIT PERI AZIMU VELO AIN AR TRES W  DIS CAZ7
 LA4  SZ E        1721  5.62                  324.7  9.2      0        3.38 145 
 LA4  SN IP       1721  5.66                             162    0.2110 3.38 145 
 LA4  SE IS       1721  6.65                             162   -0.2110 3.38 145 
 LA4  SZ  AML     1721  8.02         8.5 0.38                          3.38 145 
                                                                                
