 2009  616 1828 42.4 L  21.506 -99.436 10.0  RAL  1 0.0 2.4LRAL                1
 GAP=360        0.30       2.9     2.8  0.0 -0.7730E+01 -0.2163E+02  0.1384E+01E
 ACTION:UPD 12-06-08 11:37 OP:RALL STATUS:               ID:20090616182842     I
 2009-06-16-1828-37S.PLUR1_003                                                 6
 STAT SP IPHASW D HRMM SECON CODA AMPLIT PERI AZIMU VELO AIN AR TRES W  DIS CAZ7
 LZ4  SZ E        1828 46.91                  318.4 15.0      0        25.9 138 
 LZ4  SN IP       1828 47.00                             107    0.0010 25.9 138 
 LZ4  SE IS       1828 50.38                             107    0.0010 25.9 138 
 LZ4  SZ  AML     1828 52.74       528.4 0.42                          25.9 138 
                                                                                
