 2009  616 2124 42.9 L  21.431 -99.441 10.0  RAL  1 0.0 0.5LRAL                1
 GAP=360        0.30       2.2     3.6  0.0 -0.7542E+01 -0.2163E+02  0.1384E+01E
 ACTION:UPD 12-06-08 11:37 OP:RALL STATUS:               ID:20090616212442     I
 2009-06-16-2124-40S.PLUR1_003                                                 6
 STAT SP IPHASW D HRMM SECON CODA AMPLIT PERI AZIMU VELO AIN AR TRES W  DIS CAZ7
 LZ4  SN IP       2124 46.76                             112    0.0010 20.9 122 
 LZ4  SZ E        2124 46.78                  302.0 24.5      0        20.9 122 
 LZ4  SE IS       2124 49.60                             112    0.0010 20.9 122 
 LZ4  SZ  AML     2124 49.96         7.6 0.26                          20.9 122 
                                                                                
