 2009  616 2129 24.8 L  21.134 -99.181 64.3  RAL  2 1.5 2.0LRAL                1
 GAP=329       15.84      22.2    54.8189.7  0.7440E+03 -0.2651E+02  0.1824E+02E
 ACTION:UPD 12-06-08 11:37 OP:RALL STATUS:               ID:20090616212924     I
 2009-06-16-2129-20S.PLUR1_006                                                 6
 STAT SP IPHASW D HRMM SECON CODA AMPLIT PERI AZIMU VELO AIN AR TRES W  DIS CAZ7
 LO8  SZ E        2129 37.16                  128.6  6.6     -1        4.36 311 
 LO8  SN IP       2129 37.30                             179    3.3710 4.36 311 
 LO8  SE IS       2129 42.90                             179    2.3310 4.36 311 
 LO8  SZ  AML     2129 43.98        16.4 0.32                          4.36 311 
 LA4  SN IP       2129 34.79                             157   -0.6610 40.9 341 
 LA4  SZ E        2129 34.83                  231.4 14.1     70        40.9 341 
 LA4  SE IS       2129 38.17                             157   -5.0410 40.9 341 
 LA4  SZ  AML     2129 38.97       440.2 0.46                          40.9 341 
                                                                                
