 2009  617 0139 22.1 L  21.332 -99.281 10.0  RAL  1 0.1 0.1LRAL                1
 GAP=360        0.96     999.9   229.5  0.0  0.2460E+06 -0.2651E+02  0.1824E+02E
 ACTION:UPD 12-06-08 11:37 OP:RALL STATUS:               ID:20090617013922     I
 2009-06-17-0139-15S.PLUR1_003                                                 6
 STAT SP IPHASW D HRMM SECON CODA AMPLIT PERI AZIMU VELO AIN AR TRES W  DIS CAZ7
 LZ4  SZ E         139 24.00                  280.1 21.9      4        1.23  96 
 LZ4  SN IP        139 24.08                             173    0.1810 1.23  96 
 LZ4  SE IS        139 25.06                             173   -0.1810 1.23  96 
 LZ4  SZ  AML      139 26.45         7.8 0.52                          1.23  96 
                                                                                
