 2009  617 0246 14.4 L  21.249 -99.145 10.0  RAL  1 0.0                        1
 GAP=360        0.30       2.5     3.8  0.0 -0.9150E+01 -0.2651E+02  0.1824E+02E
 ACTION:UPD 12-06-08 11:37 OP:RALL STATUS:               ID:20090617024614     I
 2009-06-17-0246-10S.PLUR1_003                                                 6
 STAT SP IPHASW D HRMM SECON CODA AMPLIT PERI AZIMU VELO AIN AR TRES W  DIS CAZ7
 LZ4  SZ E         246 17.55                  125.1 16.1      0        15.8 305 
 LZ4  SN IP        246 17.56                             120    0.0110 15.8 305 
 LZ4  SE IS        246 19.87                             120   -0.0110 15.8 305 
                                                                                
