 2009  617 0418 15.8 L  21.723 -99.865 10.0  RAL  1 0.0 1.6LRAL                1
 GAP=360        0.30       2.7     3.5  0.0 -0.5036E+01 -0.2651E+02  0.1824E+02E
 ACTION:UPD 12-06-08 11:37 OP:RALL STATUS:               ID:20090617041815     I
 2009-06-17-0418-20S.PLUR1_003                                                 6
 STAT SP IPHASW D HRMM SECON CODA AMPLIT PERI AZIMU VELO AIN AR TRES W  DIS CAZ7
 LZ4  SZ E         418 27.81                  305.2 10.6      0        75.5 125 
 LZ4  SN IP        418 28.00                              94    0.0110 75.5 125 
 LZ4  SE IS        418 36.91                              94   -0.0110 75.5 125 
 LZ4  SZ  AML      418 40.71        32.8 0.24                          75.5 125 
                                                                                
