 2009  617 0719 53.4 L  21.981 -99.524 10.0  RAL  1 0.0 1.7LRAL                1
 GAP=360        0.30       3.5     2.1  0.0 -0.4307E+01 -0.2651E+02  0.1824E+02E
 ACTION:UPD 12-06-08 11:37 OP:RALL STATUS:               ID:20090617071953     I
 2009-06-17-0719-50S.PLUR1_003                                                 6
 STAT SP IPHASW D HRMM SECON CODA AMPLIT PERI AZIMU VELO AIN AR TRES W  DIS CAZ7
 LA4  SN IP        720  3.16                              96    0.0110 59.4 158 
 LA4  SZ E         720  3.17                  338.0 11.1      0        59.4 158 
 LA4  SE IS        720 10.26                              96   -0.0110 59.4 158 
 LA4  SZ  AML      720 14.66        46.3 0.44                          59.4 158 
                                                                                
