 2009  617 0305 13.1 L  21.326 -99.105 10.0  RAL  1 0.0 0.8LRAL                1
 GAP=360        0.30       0.5     4.5  0.0 -0.5738E+00 -0.2651E+02  0.1824E+02E
 ACTION:UPD 12-06-08 11:37 OP:RALL STATUS:               ID:20090617030513     I
 2009-06-17-0305-09S.PLUR1_003                                                 6
 STAT SP IPHASW D HRMM SECON CODA AMPLIT PERI AZIMU VELO AIN AR TRES W  DIS CAZ7
 LZ4  SN IP        3 5 16.50                             118    0.0210 17.0 272 
 LZ4  SZ E         3 5 16.55                   91.7 25.4      0        17.0 272 
 LZ4  SE IS        3 5 18.91                             118   -0.0210 17.0 272 
 LZ4  SZ  AML      3 5 19.28        17.1 0.88                          17.0 272 
                                                                                
