 2009  617 1447 52.1 L  21.304 -99.252 10.0  RAL  1 0.1 0.0LRAL                1
 GAP=360        0.37      12.3     7.7  0.0 -0.9443E+02 -0.2651E+02  0.1824E+02E
 ACTION:UPD 12-06-08 11:37 OP:RALL STATUS:               ID:20090617144752     I
 2009-06-17-1447-45S.PLUR1_003                                                 6
 STAT SP IPHASW D HRMM SECON CODA AMPLIT PERI AZIMU VELO AIN AR TRES W  DIS CAZ7
 LZ4  SZ E        1447 54.11                  149.6 47.0      0        3.49 330 
 LZ4  SN IP       1447 54.19                             161    0.1510 3.49 330 
 LZ4  SE IS       1447 55.30                             161   -0.1510 3.49 330 
 LZ4  SZ  AML     1447 55.43         5.1 0.10                          3.49 330 
                                                                                
