 2009  618 0822 30.9 L  21.252 -99.234 10.0  RAL  1 0.1 0.5LRAL                1
 GAP=360        0.48      16.3    13.1  0.0 -0.2141E+03 -0.2651E+02  0.1824E+02E
 ACTION:UPD 12-06-08 11:37 OP:RALL STATUS:               ID:20090618082230     I
 2009-06-18-0822-23S.PLUR1_003                                                 6
 STAT SP IPHASW D HRMM SECON CODA AMPLIT PERI AZIMU VELO AIN AR TRES W  DIS CAZ7
 LG3  SZ E         822 33.06                  143.2 10.8      0        3.21 323 
 LG3  SN IP        822 33.08                             163    0.2610 3.21 323 
 LG3  SE IS        822 33.97                             163   -0.2610 3.21 323 
 LG3  SZ  AML      822 34.26        17.8 0.24                          3.21 323 
                                                                                
