 2009  618 0625 29.3 L  21.825 -99.429 10.0  RAL  1 0.0 1.3LRAL                1
 GAP=360        0.30       3.6     1.9  0.0 -0.3465E+01 -0.2651E+02  0.1824E+02E
 ACTION:UPD 12-06-08 11:37 OP:RALL STATUS:               ID:20090618062529     I
 2009-06-18-0625-31S.PLUR1_003                                                 6
 STAT SP IPHASW D HRMM SECON CODA AMPLIT PERI AZIMU VELO AIN AR TRES W  DIS CAZ7
 LZ4  SN IP        625 38.75                              96    0.0110 57.2 163 
 LZ4  SZ E         625 38.83                  343.3  9.7      0        57.2 163 
 LZ4  SE IS        625 45.60                              96   -0.0110 57.2 163 
 LZ4  SZ  AML      625 47.16        22.7 0.20                          57.2 163 
                                                                                
