 2009  618 0518 42.2 L  21.334 -99.177 10.0  RAL  1 0.0 0.8LRAL                1
 GAP=360        0.30       0.3     5.7  0.0  0.1184E+01 -0.2651E+02  0.1824E+02E
 ACTION:UPD 12-06-08 11:37 OP:RALL STATUS:               ID:20090618051842     I
 2009-06-18-0518-35S.PLUR1_003                                                 6
 STAT SP IPHASW D HRMM SECON CODA AMPLIT PERI AZIMU VELO AIN AR TRES W  DIS CAZ7
 LZ4  SZ E         518 44.65                   87.7 19.2      0        9.65 268 
 LZ4  SN IP        518 44.65                             136    0.0010 9.65 268 
 LZ4  SE IS        518 46.42                             136    0.0010 9.65 268 
 LZ4  SZ  AML      518 46.98        24.1 0.20                          9.65 268 
                                                                                
