 2009  618 1058 56.6 L  21.547 -98.716 10.0  RAL  1 0.0 1.2LRAL                1
 GAP=360        0.30       2.1     3.7  0.0  0.4271E+01 -0.2651E+02  0.1824E+02E
 ACTION:UPD 12-06-08 11:37 OP:RALL STATUS:               ID:20090618105856     I
 2009-06-18-1058-57S.PLUR1_003                                                 6
 STAT SP IPHASW D HRMM SECON CODA AMPLIT PERI AZIMU VELO AIN AR TRES W  DIS CAZ7
 LZ4  SN IP       1059  6.78                              96    0.0110 62.2 247 
 LZ4  SZ E        1059  6.82                   67.3 14.0      0        62.2 247 
 LZ4  SE IS       1059 14.19                              96   -0.0110 62.2 247 
 LZ4  SZ  AML     1059 16.93        16.5 0.20                          62.2 247 
                                                                                
