 2009  618 1548 25.2 L  21.518 -99.330 10.0  RAL  1 0.0 0.1LRAL                1
 GAP=360        0.35       9.7     5.9  0.0 -0.5689E+02 -0.2651E+02  0.1824E+02E
 ACTION:UPD 12-06-08 11:37 OP:RALL STATUS:               ID:20090618154825     I
 2009-06-18-1548-13S.PLUR1_003                                                 6
 STAT SP IPHASW D HRMM SECON CODA AMPLIT PERI AZIMU VELO AIN AR TRES W  DIS CAZ7
 LA4  SZ E        1548 27.29                  330.4 12.8      0        4.39 150 
 LA4  SN IP       1548 27.34                             157    0.1210 4.39 150 
 LA4  SZ  AML     1548 28.12         6.0 0.90                          4.39 150 
 LA4  SE IS       1548 28.54                             157   -0.1210 4.39 150 
                                                                                
