 2009  619 1855 29.7 L  21.476 -99.415 10.0  RAL  1 0.0 0.2LRAL                1
 GAP=360        0.30       0.5     5.3  0.0  0.2026E+01 -0.2651E+02  0.1824E+02E
 ACTION:UPD 12-06-08 11:37 OP:RALL STATUS:               ID:20090619185529     I
 2009-06-19-1855-20S.PLUR1_003                                                 6
 STAT SP IPHASW D HRMM SECON CODA AMPLIT PERI AZIMU VELO AIN AR TRES W  DIS CAZ7
 LA4  SZ E        1855 32.20                  265.6 14.7      0        11.0  86 
 LA4  SN IP       1855 32.31                             132    0.0010 11.0  86 
 LA4  SE IS       1855 34.20                             132    0.0010 11.0  86 
 LA4  SZ  AML     1855 34.55         6.0 0.26                          11.0  86 
                                                                                
