 2009  619 1539  9.9 L  21.475 -99.426 10.0  RAL  1 0.0 1.4LRAL                1
 GAP=360        0.30       0.5     5.1  0.0  0.1887E+01 -0.2651E+02  0.1824E+02E
 ACTION:UPD 12-06-08 11:37 OP:RALL STATUS:               ID:20090619153909     I
 2009-06-19-1538-57S.PLUR1_003                                                 6
 STAT SP IPHASW D HRMM SECON CODA AMPLIT PERI AZIMU VELO AIN AR TRES W  DIS CAZ7
 LA4  SZ E        1539 12.37                  265.5 12.9      0        12.1  85 
 LA4  SN IP       1539 12.62                             129    0.0010 12.1  85 
 LA4  SE IS       1539 14.61                             129    0.0010 12.1  85 
 LA4  SZ  AML     1539 15.87        85.1 0.48                          12.1  85 
                                                                                
