 2009  619 1232 37.1 L  21.238 -99.546 10.0  RAL  1 0.0 1.4LRAL                1
 GAP=360        0.30       1.5     3.9  0.0  0.4770E+01 -0.2651E+02  0.1824E+02E
 ACTION:UPD 12-06-08 11:37 OP:RALL STATUS:               ID:20090619123237     I
 2009-06-19-1232-33S.PLUR1_003                                                 6
 STAT SP IPHASW D HRMM SECON CODA AMPLIT PERI AZIMU VELO AIN AR TRES W  DIS CAZ7
 LZ4  SN EP       1232 42.41                             104    0.0210 30.5  70 
 LZ4  SZ E        1232 42.46                  250.3 13.5      0        30.5  70 
 LZ4  SE IS       1232 46.26                             104   -0.0210 30.5  70 
 LZ4  SZ  AML     1232 46.94        50.3 0.38                          30.5  70 
                                                                                
