 2009  620 0142 38.4 L  21.654 -99.310 10.0  RAL  1 0.0 0.2LRAL                1
 GAP=360        0.30       4.1     0.5  0.0 -0.9376E-01 -0.2651E+02  0.1824E+02E
 ACTION:UPD 12-06-08 11:37 OP:RALL STATUS:               ID:20090620014238     I
 2009-06-20-0142-31S.PLUR1_003                                                 6
 STAT SP IPHASW D HRMM SECON CODA AMPLIT PERI AZIMU VELO AIN AR TRES W  DIS CAZ7
 LA4  SZ E         142 41.82                  359.7  9.4      0        18.9 180 
 LA4  SN IP        142 41.99                             115    0.0210 18.9 180 
 LA4  SE IS        142 44.60                             115   -0.0210 18.9 180 
 LA4  SZ  AML      142 45.25         4.9 0.32                          18.9 180 
                                                                                
