 2009  620 0149 41.0 L  21.264 -99.240 10.0  RAL  1 0.0 1.4LRAL                1
 GAP=360        0.30       5.5     2.4  0.0 -0.1320E+02 -0.2651E+02  0.1824E+02E
 ACTION:UPD 12-06-08 11:37 OP:RALL STATUS:               ID:20090620014941     I
 2009-06-20-0149-33S.PLUR1_003                                                 6
 STAT SP IPHASW D HRMM SECON CODA AMPLIT PERI AZIMU VELO AIN AR TRES W  DIS CAZ7
 LZ4  SZ E         149 43.27                  157.8 12.4      0        8.01 338 
 LZ4  SN IP        149 43.29                             141    0.0110 8.01 338 
 LZ4  SE IS        149 44.91                             141   -0.0110 8.01 338 
 LZ4  SZ  AML      149 45.00       113.8 0.10                          8.01 338 
                                                                                
