 2009  620 0917  3.1 L  21.333 -99.289 10.0  RAL  1 0.1 0.7LRAL                1
 GAP=360        0.36     999.9   367.0  0.0  0.1005E+07 -0.2651E+02  0.1824E+02E
 ACTION:UPD 12-06-08 11:37 OP:RALL STATUS:               ID:20090620091703     I
 2009-06-20-0916-55S.PLUR1_003                                                 6
 STAT SP IPHASW D HRMM SECON CODA AMPLIT PERI AZIMU VELO AIN AR TRES W  DIS CAZ7
 LZ4  SN IP        917  5.07                             169    0.1410 2.08  97 
 LZ4  SZ E         917  5.08                  276.9 32.5      0        2.08  97 
 LZ4  SE IS        917  6.15                             169   -0.1410 2.08  97 
 LZ4  SZ  AML      917  6.59        26.2 0.24                          2.08  97 
                                                                                
