 2009  620 1449 40.1 L  21.251 -99.333 10.0  RAL  1 0.0 0.7LRAL                1
 GAP=360        0.30       3.9     0.8  0.0  0.1518E+01 -0.2651E+02  0.1824E+02E
 ACTION:UPD 12-06-08 11:37 OP:RALL STATUS:               ID:20090620144940     I
 2009-06-20-1449-30S.PLUR1_003                                                 6
 STAT SP IPHASW D HRMM SECON CODA AMPLIT PERI AZIMU VELO AIN AR TRES W  DIS CAZ7
 LA4  SZ E        1449 44.75                  185.6 13.5      0        25.9   6 
 LA4  SN IP       1449 44.77                             107    0.0110 25.9   6 
 LA4  SE IS       1449 48.13                             107   -0.0110 25.9   6 
 LA4  SZ  AML     1449 48.59        10.1 0.58                          25.9   6 
                                                                                
