 2009  620 1225 21.9 L  21.183 -99.300 10.0  RAL  1 0.0 0.3LRAL                1
 GAP=360        0.30       4.4     2.3  0.0  0.1003E+02 -0.2651E+02  0.1824E+02E
 ACTION:UPD 12-06-08 11:37 OP:RALL STATUS:               ID:20090620122521     I
 2009-06-20-1225-17S.PLUR1_003                                                 6
 STAT SP IPHASW D HRMM SECON CODA AMPLIT PERI AZIMU VELO AIN AR TRES W  DIS CAZ7
 LG3  SN IP       1225 24.56                             131    0.0210 11.3  26 
 LG3  SZ E        1225 24.64                  205.7 12.7      0        11.3  26 
 LG3  SE IS       1225 26.45                             131   -0.0210 11.3  26 
 LG3  SZ  AML     1225 27.25         7.8 0.50                          11.3  26 
                                                                                
