 2009  620 2241 53.8 L  21.623 -99.288 10.0  RAL  1 0.0 1.2LRAL                1
 GAP=360        0.30       3.8     0.9  0.0 -0.8733E+00 -0.2651E+02  0.1824E+02E
 ACTION:UPD 12-06-08 11:37 OP:RALL STATUS:               ID:20090620224153     I
 2009-06-20-2241-50S.PLUR1_003                                                 6
 STAT SP IPHASW D HRMM SECON CODA AMPLIT PERI AZIMU VELO AIN AR TRES W  DIS CAZ7
 LZ4  SN IP       2241 59.44                             103    0.0110 32.4 177 
 LZ4  SZ E        2241 59.46                  356.6  9.6      0        32.4 177 
 LZ4  SE IS       2242  3.52                             103   -0.0110 32.4 177 
 LZ4  SZ  AML     2242  4.63        27.1 0.22                          32.4 177 
                                                                                
