 2009  621 0333  4.6 L  21.406 -99.284 10.0  RAL  1 0.0-0.1LRAL                1
 GAP=360        0.30       5.3     1.7  0.0 -0.8963E+01 -0.2651E+02  0.1824E+02E
 ACTION:UPD 12-06-08 11:37 OP:RALL STATUS:               ID:20090621033304     I
 2009-06-21-0332-54S.PLUR1_003                                                 6
 STAT SP IPHASW D HRMM SECON CODA AMPLIT PERI AZIMU VELO AIN AR TRES W  DIS CAZ7
 LA4  SN IP        333  7.01                             138    0.0210 9.00 344 
 LA4  SZ E         333  7.04                  163.5 10.6      0        9.00 344 
 LA4  SE IS        333  8.71                             138   -0.0210 9.00 344 
 LA4  SZ  AML      333  9.20         3.8 0.12                          9.00 344 
                                                                                
