 2009  621 0242 36.1 L  21.337 -99.284 10.0  RAL  1 0.1 0.7LRAL                1
 GAP=360        0.60      20.1    48.1  0.0 -0.9659E+03 -0.2651E+02  0.1824E+02E
 ACTION:UPD 12-06-08 11:37 OP:RALL STATUS:               ID:20090621024236     I
 2009-06-21-0242-29S.PLUR1_003                                                 6
 STAT SP IPHASW D HRMM SECON CODA AMPLIT PERI AZIMU VELO AIN AR TRES W  DIS CAZ7
 LZ4  SZ E         242 38.19                  293.8 13.6      0        1.60 114 
 LZ4  SN IP        242 38.25                             171    0.3510 1.60 114 
 LZ4  SE IS        242 38.90                             171   -0.3510 1.60 114 
 LZ4  SZ  AML      242 38.96        29.8 0.16                          1.60 114 
                                                                                
