 2009  622 0129 56.9 L  21.313 -99.255 10.0  RAL  1 0.2 0.7LRAL                1
 GAP=360        0.85      35.3    28.9  0.0 -0.1020E+04 -0.2651E+02  0.1824E+02E
 ACTION:UPD 12-06-08 11:37 OP:RALL STATUS:               ID:20090622012956     I
 2009-06-22-0129-49S.PLUR1_003                                                 6
 STAT SP IPHASW D HRMM SECON CODA AMPLIT PERI AZIMU VELO AIN AR TRES W  DIS CAZ7
 LZ4  SZ E         129 59.32                  142.7 15.9      0        2.52 323 
 LZ4  SN IP        129 59.33                             166    0.5410 2.52 323 
 LZ4  SE IS        129 59.63                             166   -0.5410 2.52 323 
 LZ4  SZ  AML      129 59.65        30.4 0.14                          2.52 323 
                                                                                
