 2009  622 0657 16.9 L  21.726 -99.247 10.0  RAL  1 0.0 2.8LRAL                1
 GAP=360        0.30       3.7     1.2  0.0  0.7167E+00 -0.2651E+02  0.1824E+02E
 ACTION:UPD 12-06-08 11:37 OP:RALL STATUS:               ID:20090622065716     I
 2009-06-22-0657-14S.PLUR1_003                                                 6
 STAT SP IPHASW D HRMM SECON CODA AMPLIT PERI AZIMU VELO AIN AR TRES W  DIS CAZ7
 LZ4  SN IP        657 24.21                              99    0.0110 43.8 183 
 LZ4  SZ E         657 24.22                    3.0 10.7      0        43.8 183 
 LZ4  SE IS        657 29.56                              99   -0.0110 43.8 183 
 LZ4  SZ  AML      657 30.74       777.2 0.32                          43.8 183 
                                                                                
