 2009  622 0826 35.5 L  21.717 -99.358 10.0  RAL  1 0.0 0.9LRAL                1
 GAP=360        0.30       3.7     1.5  0.0 -0.2813E+01 -0.2651E+02  0.1824E+02E
 ACTION:UPD 12-06-08 11:37 OP:RALL STATUS:               ID:20090622082635     I
 2009-06-22-0826-39S.PLUR1_003                                                 6
 STAT SP IPHASW D HRMM SECON CODA AMPLIT PERI AZIMU VELO AIN AR TRES W  DIS CAZ7
 LZ4  SN IP        826 42.85                              99    0.0110 43.7 168 
 LZ4  SZ E         826 42.92                  347.9 17.9      0        43.7 168 
 LZ4  SZ  AML      826 47.91        10.9 0.76                          43.7 168 
 LZ4  SE IS        826 48.19                              99   -0.0110 43.7 168 
                                                                                
