 2009  622 1006 15.7 L  21.693 -99.401 10.0  RAL  1 0.0 1.3LRAL                1
 GAP=360        0.30       3.6     1.7  0.0 -0.4205E+01 -0.2651E+02  0.1824E+02E
 ACTION:UPD 12-06-08 11:37 OP:RALL STATUS:               ID:20090622100615     I
 2009-06-22-1006-14S.PLUR1_003                                                 6
 STAT SP IPHASW D HRMM SECON CODA AMPLIT PERI AZIMU VELO AIN AR TRES W  DIS CAZ7
 LZ4  SN IP       10 6 22.86                              99    0.0110 42.4 161 
 LZ4  SZ E        10 6 22.98                  341.3 10.1      0        42.4 161 
 LZ4  SE IS       10 6 28.04                              99   -0.0110 42.4 161 
 LZ4  SZ  AML     10 6 30.93        30.7 0.30                          42.4 161 
                                                                                
