 2009  622 1459 14.2 L  21.665 -99.274 10.0  RAL  1 0.0 0.5LRAL                1
 GAP=360        0.30       4.0     0.9  0.0  0.2979E+01 -0.2651E+02  0.1824E+02E
 ACTION:UPD 12-06-08 11:37 OP:RALL STATUS:               ID:20090622145914     I
 2009-06-22-1459-06S.PLUR1_003                                                 6
 STAT SP IPHASW D HRMM SECON CODA AMPLIT PERI AZIMU VELO AIN AR TRES W  DIS CAZ7
 LA4  SZ E        1459 18.08                   10.1 11.5      0        20.4 190 
 LA4  SN IP       1459 18.08                             113    0.0210 20.4 190 
 LA4  SE IS       1459 20.84                             113   -0.0210 20.4 190 
 LA4  SZ  AML     1459 25.02         8.9 0.34                          20.4 190 
                                                                                
