 2009  622 1610 59.5 L  21.329 -99.256 10.0  RAL  1 0.0 1.0LRAL                1
 GAP=360        0.31     999.9   463.7  0.0  0.1690E+07 -0.2651E+02  0.1824E+02E
 ACTION:UPD 12-06-08 11:37 OP:RALL STATUS:               ID:20090622161059     I
 2009-06-22-1610-52S.PLUR1_003                                                 6
 STAT SP IPHASW D HRMM SECON CODA AMPLIT PERI AZIMU VELO AIN AR TRES W  DIS CAZ7
 LZ4  SN IP       1611  1.39                             172    0.0710 1.40 276 
 LZ4  SZ E        1611  1.44                   96.3 15.5      0        1.40 276 
 LZ4  SE IS       1611  2.60                             172   -0.0710 1.40 276 
 LZ4  SZ  AML     1611  3.64        50.0 0.22                          1.40 276 
                                                                                
