 2009  622 1313 57.5 L  21.376 -99.437 10.0  RAL  1 0.0 0.9LRAL                1
 GAP=360        0.30       1.2     4.2  0.0 -0.4802E+01 -0.2651E+02  0.1824E+02E
 ACTION:UPD 12-06-08 11:37 OP:RALL STATUS:               ID:20090622131357     I
 2009-06-22-1313-52S.PLUR1_003                                                 6
 STAT SP IPHASW D HRMM SECON CODA AMPLIT PERI AZIMU VELO AIN AR TRES W  DIS CAZ7
 LZ4  SZ E        1314  1.01                  286.2 13.3      0        18.1 106 
 LZ4  SN IP       1314  1.04                             116    0.0010 18.1 106 
 LZ4  SE IS       1314  3.59                             116    0.0010 18.1 106 
 LZ4  SZ  AML     1314  3.96        24.2 0.28                          18.1 106 
                                                                                
