 2009  622 1629  2.8 L  21.321 -99.256 10.0  RAL  1 0.2 0.5LRAL                1
 GAP=360        0.92      39.7    56.3  0.0 -0.2239E+04 -0.2651E+02  0.1824E+02E
 ACTION:UPD 12-06-08 11:37 OP:RALL STATUS:               ID:20090622162902     I
 2009-06-22-1628-55S.PLUR1_003                                                 6
 STAT SP IPHASW D HRMM SECON CODA AMPLIT PERI AZIMU VELO AIN AR TRES W  DIS CAZ7
 LZ4  SZ E        1629  5.18                  127.1 12.9      0        1.82 307 
 LZ4  SN IP       1629  5.20                             170    0.5910 1.82 307 
 LZ4  SE IS       1629  5.38                             170   -0.5910 1.82 307 
 LZ4  SZ  AML     1629  5.50        17.2 0.50                          1.82 307 
                                                                                
