 2009  622 1924  3.5 L  21.268 -99.235 10.0  RAL  1 0.2 1.5LRAL                1
 GAP=360        0.78      21.6    50.4  0.0 -0.1092E+04 -0.2651E+02  0.1824E+02E
 ACTION:UPD 12-06-08 11:37 OP:RALL STATUS:               ID:20090622192403     I
 2009-06-22-1923-56S.PLUR1_003                                                 6
 STAT SP IPHASW D HRMM SECON CODA AMPLIT PERI AZIMU VELO AIN AR TRES W  DIS CAZ7
 LG3  SZ E        1924  5.82                  114.7 28.7      0        1.99 295 
 LG3  SN IP       1924  5.83                             169    0.4910 1.99 295 
 LG3  SE IS       1924  6.23                             169   -0.4910 1.99 295 
 LG3  SZ  AML     1924  6.89       176.8 0.16                          1.99 295 
                                                                                
