 2009  623 1509 12.2 L  21.332 -99.438 10.0  RAL  1 0.0 0.5LRAL                1
 GAP=360        0.30       0.5     4.5  0.0 -0.8030E-01 -0.2651E+02  0.1824E+02E
 ACTION:UPD 12-06-08 11:37 OP:RALL STATUS:               ID:20090623150912     I
 2009-06-23-1509-08S.PLUR1_003                                                 6
 STAT SP IPHASW D HRMM SECON CODA AMPLIT PERI AZIMU VELO AIN AR TRES W  DIS CAZ7
 LZ4  SZ E        15 9 15.64                  270.3 20.3      0        17.5  90 
 LZ4  SN IP       15 9 15.68                             117    0.0210 17.5  90 
 LZ4  SE IS       15 9 18.14                             117   -0.0210 17.5  90 
 LZ4  SZ  AML     15 9 18.71         8.5 0.18                          17.5  90 
                                                                                
