 2009  624 0449  3.9 L  21.395 -99.481 10.0  RAL  1 0.0 0.7LRAL                1
 GAP=360        0.30       1.3     4.0  0.0 -0.4801E+01 -0.2651E+02  0.1824E+02E
 ACTION:UPD 12-06-08 11:37 OP:RALL STATUS:               ID:20090624044903     I
 2009-06-24-0449-02S.PLUR1_003                                                 6
 STAT SP IPHASW D HRMM SECON CODA AMPLIT PERI AZIMU VELO AIN AR TRES W  DIS CAZ7
 LZ4  SZ E         449  8.07                  288.0 29.5      0        23.0 108 
 LZ4  SN IP        449  8.08                             110    0.0210 23.0 108 
 LZ4  SE IS        449 11.11                             110   -0.0210 23.0 108 
 LZ4  SZ  AML      449 12.59        11.5 0.72                          23.0 108 
                                                                                
