 2009  624 1034 27.7 L  21.247 -99.240 10.0  RAL  1 0.0 0.8LRAL                1
 GAP=360        0.30       5.0     1.8  0.0 -0.8880E+01 -0.2651E+02  0.1824E+02E
 ACTION:UPD 12-06-08 11:37 OP:RALL STATUS:               ID:20090624103427     I
 2009-06-24-1034-22S.PLUR1_003                                                 6
 STAT SP IPHASW D HRMM SECON CODA AMPLIT PERI AZIMU VELO AIN AR TRES W  DIS CAZ7
 LZ4  SZ E        1034 30.07                  161.7 14.1      0        9.73 342 
 LZ4  SN IP       1034 30.12                             135    0.0110 9.73 342 
 LZ4  SE IS       1034 31.87                             135   -0.0110 9.73 342 
 LZ4  SZ  AML     1034 33.37        24.3 0.52                          9.73 342 
                                                                                
