 2009  624 1456 46.7 L  22.004 -99.236 10.0  RAL  1 0.0 0.7LRAL                1
 GAP=360        0.30       3.7     1.7  0.0  0.1620E+01 -0.2651E+02  0.1824E+02E
 ACTION:UPD 12-06-08 11:37 OP:RALL STATUS:               ID:20090624145646     I
 2009-06-24-1456-49S.PLUR1_003                                                 6
 STAT SP IPHASW D HRMM SECON CODA AMPLIT PERI AZIMU VELO AIN AR TRES W  DIS CAZ7
 LA4  SN IP       1456 56.25                              96    0.0110 58.1 188 
 LA4  SZ E        1456 56.45                    7.5 21.2      0        58.1 188 
 LA4  SE IS       1457  3.21                              96   -0.0110 58.1 188 
 LA4  SZ  AML     1457  7.78         5.6 0.58                          58.1 188 
                                                                                
