 2009  625 0722 46.6 L  21.150 -99.206 10.0  RAL  1 0.0 0.6LRAL                1
 GAP=360        0.30       3.8     1.5  0.0 -0.5058E+01 -0.2651E+02  0.1824E+02E
 ACTION:UPD 12-06-08 11:37 OP:RALL STATUS:               ID:20090625072246     I
 2009-06-25-0722-44S.PLUR1_003                                                 6
 STAT SP IPHASW D HRMM SECON CODA AMPLIT PERI AZIMU VELO AIN AR TRES W  DIS CAZ7
 LZ4  SZ E         722 50.56                  161.7 21.5      0        21.1 342 
 LZ4  SN IP        722 50.57                             112    0.0210 21.1 342 
 LZ4  SE IS        722 53.39                             112   -0.0210 21.1 342 
 LZ4  SZ  AML      722 54.77         9.8 0.78                          21.1 342 
                                                                                
