 2009  625 0352 54.0 L  21.646 -99.464 10.0  RAL  1 0.0 0.9LRAL                1
 GAP=360        0.30       3.3     2.2  0.0 -0.6071E+01 -0.2651E+02  0.1824E+02E
 ACTION:UPD 12-06-08 11:37 OP:RALL STATUS:               ID:20090625035254     I
 2009-06-25-0352-56S.PLUR1_003                                                 6
 STAT SP IPHASW D HRMM SECON CODA AMPLIT PERI AZIMU VELO AIN AR TRES W  DIS CAZ7
 LZ4  SN IP        353  0.83                             100    0.0210 40.3 150 
 LZ4  SZ E         353  0.92                  330.1 36.1      0        40.3 150 
 LZ4  SE IS        353  5.77                             100   -0.0210 40.3 150 
 LZ4  SZ  AML      353  6.64        12.6 0.60                          40.3 150 
                                                                                
