 2009  625 1734 36.9 L  21.726 -99.202 10.0  RAL  1 0.0 1.6LRAL                1
 GAP=360        0.30       3.7     1.4  0.0  0.2136E+01 -0.2651E+02  0.1824E+02E
 ACTION:UPD 12-06-08 11:37 OP:RALL STATUS:               ID:20090625173436     I
 2009-06-25-1734-35S.PLUR1_003                                                 6
 STAT SP IPHASW D HRMM SECON CODA AMPLIT PERI AZIMU VELO AIN AR TRES W  DIS CAZ7
 LZ4  SZ E        1734 44.32                    9.1 12.8      0        44.3 189 
 LZ4  SN IP       1734 44.37                              99    0.0110 44.3 189 
 LZ4  SE IS       1734 49.77                              99   -0.0110 44.3 189 
 LZ4  SZ  AML     1734 50.76        47.9 0.58                          44.3 189 
                                                                                
