 2009  625 1759 21.4 L  21.771 -99.217 10.0  RAL  1 0.0 1.6LRAL                1
 GAP=360        0.30       3.7     1.4  0.0  0.1449E+01 -0.2651E+02  0.1824E+02E
 ACTION:UPD 12-06-08 11:37 OP:RALL STATUS:               ID:20090625175921     I
 2009-06-25-1759-20S.PLUR1_003                                                 6
 STAT SP IPHASW D HRMM SECON CODA AMPLIT PERI AZIMU VELO AIN AR TRES W  DIS CAZ7
 LZ4  SN IP       1759 29.54                              98    0.0110 49.1 186 
 LZ4  SZ E        1759 29.79                    6.3 11.7      0        49.1 186 
 LZ4  SE IS       1759 35.48                              98   -0.0110 49.1 186 
 LZ4  SZ  AML     1759 36.22        53.5 0.52                          49.1 186 
                                                                                
