 2009  625 1152  3.9 L  21.342 -99.390 10.0  RAL  1 0.0 0.7LRAL                1
 GAP=360        0.30       0.6     5.0  0.0 -0.2260E+01 -0.2651E+02  0.1824E+02E
 ACTION:UPD 12-06-08 11:37 OP:RALL STATUS:               ID:20090625115203     I
 2009-06-25-1151-59S.PLUR1_003                                                 6
 STAT SP IPHASW D HRMM SECON CODA AMPLIT PERI AZIMU VELO AIN AR TRES W  DIS CAZ7
 LZ4  SZ E        1152  6.61                  275.7 16.3      0        12.6  96 
 LZ4  SN IP       1152  6.64                             127    0.0010 12.6  96 
 LZ4  SE IS       1152  8.66                             127    0.0010 12.6  96 
 LZ4  SZ  AML     1152  9.05        18.6 0.40                          12.6  96 
                                                                                
