 2009  625 1818 58.9 L  21.753 -99.050 10.0  RAL  1 0.0 0.4LRAL                1
 GAP=360        0.30       2.9     2.8  0.0  0.7007E+01 -0.2651E+02  0.1824E+02E
 ACTION:UPD 12-06-08 11:37 OP:RALL STATUS:               ID:20090625181858     I
 2009-06-25-1818-56S.PLUR1_003                                                 6
 STAT SP IPHASW D HRMM SECON CODA AMPLIT PERI AZIMU VELO AIN AR TRES W  DIS CAZ7
 LA4  SZ E        1819  5.67                   41.9 24.5      0        40.0 222 
 LA4  SN IP       1819  5.74                             100    0.0210 40.0 222 
 LA4  SE IS       1819 10.65                             100   -0.0210 40.0 222 
 LA4  SZ  AML     1819 11.62         3.7 0.28                          40.0 222 
                                                                                
