 2009  625 1005 12.6 R  22.089-100.442 10.0  RAL  1 0.0 1.7LRAL                1
 GAP=360        0.30       4.2     4.8  0.0 -0.3424E+01 -0.2651E+02  0.1824E+02E
 ACTION:UPD 12-06-08 11:37 OP:RALL STATUS:               ID:20090625100512     I
 2009-06-25-1005-28S.PLUR1_003                                                 6
 STAT SP IPHASW D HRMM SECON CODA AMPLIT PERI AZIMU VELO AIN AR TRES W  DIS CAZ7
 LG3  SZ E        10 5 35.66                  306.4 23.1      0         153 126 
 LG3  SN IP       10 5 35.94                              52    0.0110  153 126 
 LG3  SE IS       10 5 52.98                              52   -0.0110  153 126 
 LG3  SZ  AML     10 5 55.11        17.2 0.28                           153 126 
                                                                                
