 2009  626 0303 15.0 L  21.345 -99.295 10.0  RAL  1 0.1 0.6LRAL                1
 GAP=360        0.45       9.9    18.2  0.0 -0.1796E+03 -0.2651E+02  0.1824E+02E
 ACTION:UPD 12-06-08 11:37 OP:RALL STATUS:               ID:20090626030315     I
 2009-06-26-0303-08S.PLUR1_003                                                 6
 STAT SP IPHASW D HRMM SECON CODA AMPLIT PERI AZIMU VELO AIN AR TRES W  DIS CAZ7
 LZ4  SZ E         3 3 17.13                  300.2 26.5      0        3.07 120 
 LZ4  SN IP        3 3 17.15                             163    0.2310 3.07 120 
 LZ4  SE IS        3 3 18.08                             163   -0.2310 3.07 120 
 LZ4  SZ  AML      3 3 19.38        20.1 0.68                          3.07 120 
                                                                                
