 2009  626 1643 46.8 L  20.948 -99.142 10.0  RAL  1 0.0 1.3LRAL                1
 GAP=360        0.30       3.6     1.7  0.0 -0.3849E+01 -0.2651E+02  0.1824E+02E
 ACTION:UPD 12-06-08 11:37 OP:RALL STATUS:               ID:20090626164346     I
 2009-06-26-1643-49S.PLUR1_003                                                 6
 STAT SP IPHASW D HRMM SECON CODA AMPLIT PERI AZIMU VELO AIN AR TRES W  DIS CAZ7
 LZ4  SN IP       1643 54.22                              99    0.0110 44.4 343 
 LZ4  SZ E        1643 54.27                  162.7 16.5      0        44.4 343 
 LZ4  SE IS       1643 59.63                              99   -0.0110 44.4 343 
 LZ4  SZ  AML     1643 59.94        25.3 0.24                          44.4 343 
                                                                                
