 2009  626 1301  4.9 R  21.699 -99.711 10.0  RAL  1 0.0 1.6LRAL                1
 GAP=360        0.30       2.7     3.2  0.0 -0.6053E+01 -0.2651E+02  0.1824E+02E
 ACTION:UPD 12-06-08 11:37 OP:RALL STATUS:               ID:20090626130104     I
 2009-06-26-1301-07S.PLUR1_003                                                 6
 STAT SP IPHASW D HRMM SECON CODA AMPLIT PERI AZIMU VELO AIN AR TRES W  DIS CAZ7
 LZ4  SN IP       13 1 14.99                              96    0.0110 61.2 132 
 LZ4  SZ E        13 1 15.07                  311.8 12.7      0        61.2 132 
 LZ4  SE IS       13 1 22.29                              96   -0.0110 61.2 132 
 LZ4  SZ  AML     13 1 23.14        38.9 0.34                          61.2 132 
                                                                                
