 2009  626 2303 42.3 L  22.052 -99.256 10.0  RAL  1 0.0 1.4LRAL                1
 GAP=360        0.30       3.7     2.2  0.0  0.1793E+00 -0.2651E+02  0.1824E+02E
 ACTION:UPD 12-06-08 11:37 OP:RALL STATUS:               ID:20090626230342     I
 2009-06-26-2303-47S.PLUR1_003                                                 6
 STAT SP IPHASW D HRMM SECON CODA AMPLIT PERI AZIMU VELO AIN AR TRES W  DIS CAZ7
 LZ4  SN IP       23 3 55.20                              94    0.0110 79.8 181 
 LZ4  SZ E        23 3 55.27                    1.0 12.2      0        79.8 181 
 LZ4  SE IS       23 4  4.61                              94   -0.0110 79.8 181 
 LZ4  SZ  AML     23 4  6.53        16.9 0.84                          79.8 181 
                                                                                
