 2009  626 2122 33.1 L  21.229 -99.252 10.0  RAL  1 0.0 0.5LRAL                1
 GAP=360        0.30       4.8     0.9  0.0 -0.3897E+01 -0.2651E+02  0.1824E+02E
 ACTION:UPD 12-06-08 11:37 OP:RALL STATUS:               ID:20090626212233     I
 2009-06-26-2122-27S.PLUR1_003                                                 6
 STAT SP IPHASW D HRMM SECON CODA AMPLIT PERI AZIMU VELO AIN AR TRES W  DIS CAZ7
 LZ4  SN IP       2122 35.69                             131    0.0010 11.4 351 
 LZ4  SZ E        2122 35.70                  171.0 15.9      0        11.4 351 
 LZ4  SE IS       2122 37.60                             131    0.0010 11.4 351 
 LZ4  SZ  AML     2122 38.07        12.0 0.10                          11.4 351 
                                                                                
