 2009  627 0625 13.1 L  21.335 -99.293 10.0  RAL  1 0.0 0.2LRAL                1
 GAP=360        0.31       2.8    17.8  0.0 -0.5039E+02 -0.2651E+02  0.1824E+02E
 ACTION:UPD 12-06-08 11:37 OP:RALL STATUS:               ID:20090627062513     I
 2009-06-27-0625-07S.PLUR1_003                                                 6
 STAT SP IPHASW D HRMM SECON CODA AMPLIT PERI AZIMU VELO AIN AR TRES W  DIS CAZ7
 LZ4  SZ E         625 14.94                  279.7 47.1      0        2.43 100 
 LZ4  SN IP        625 15.01                             167    0.0610 2.43 100 
 LZ4  SE IS        625 16.26                             167   -0.0610 2.43 100 
 LZ4  SZ  AML      625 17.62         8.9 0.54                          2.43 100 
                                                                                
