 2009  627 0947 51.7 L  21.230 -99.265 10.0  RAL  1 0.0-0.2LRAL                1
 GAP=360        0.30       8.0     2.2  0.0  0.1770E+02 -0.2651E+02  0.1824E+02E
 ACTION:UPD 12-06-08 11:37 OP:RALL STATUS:               ID:20090627094751     I
 2009-06-27-0947-45S.PLUR1_003                                                 6
 STAT SP IPHASW D HRMM SECON CODA AMPLIT PERI AZIMU VELO AIN AR TRES W  DIS CAZ7
 LG3  SZ E         947 53.71                  194.4 12.4      0        5.20  14 
 LG3  SN IP        947 53.73                             153    0.0310 5.20  14 
 LG3  SE IS        947 55.17                             153   -0.0310 5.20  14 
 LG3  SZ  AML      947 55.85         3.4 0.48                          5.20  14 
                                                                                
