 2009  627 1254 35.9 L  21.319 -99.268 10.0  RAL  1 0.3 1.2LRAL                1
 GAP=360        3.50     999.9   999.9  0.0  0.3284E+09 -0.2651E+02  0.1824E+02E
 ACTION:UPD 12-06-08 11:37 OP:RALL STATUS:               ID:20090627125435     I
 2009-06-27-1254-28S.PLUR1_003                                                 6
 STAT SP IPHASW D HRMM SECON CODA AMPLIT PERI AZIMU VELO AIN AR TRES W  DIS CAZ7
 LZ4  SN IP       1254 38.26                             173    0.5410 1.32 355 
 LZ4  SZ E        1254 38.26                  191.6 15.4     16        1.32 355 
 LZ4  SE IS       1254 38.53                             173   -0.5410 1.32 355 
 LZ4  SZ  AML     1254 38.76        96.2 0.16                          1.32 355 
                                                                                
