 2009  628 0329 22.6 L  21.340 -99.295 10.0  RAL  1 0.1 0.5LRAL                1
 GAP=360        0.37       6.4    17.4  0.0 -0.1111E+03 -0.2651E+02  0.1824E+02E
 ACTION:UPD 12-06-08 11:37 OP:RALL STATUS:               ID:20090628032922     I
 2009-06-28-0329-16S.PLUR1_003                                                 6
 STAT SP IPHASW D HRMM SECON CODA AMPLIT PERI AZIMU VELO AIN AR TRES W  DIS CAZ7
 LZ4  SZ E         329 24.53                  291.5 20.6      0        2.83 111 
 LZ4  SN IP        329 24.60                             165    0.1510 2.83 111 
 LZ4  SE IS        329 25.68                             165   -0.1510 2.83 111 
 LZ4  SZ  AML      329 26.71        18.2 0.82                          2.83 111 
                                                                                
