 2009  628 0605 22.6 L  21.284 -99.234 10.0  RAL  1 0.2 0.5LRAL                1
 GAP=360        0.77      19.9    46.9  0.0  0.9345E+03 -0.2651E+02  0.1824E+02E
 ACTION:UPD 12-06-08 11:37 OP:RALL STATUS:               ID:20090628060522     I
 2009-06-28-0605-15S.PLUR1_003                                                 6
 STAT SP IPHASW D HRMM SECON CODA AMPLIT PERI AZIMU VELO AIN AR TRES W  DIS CAZ7
 LG3  SZ E         6 5 24.96                   65.5 33.2      0        2.12 245 
 LG3  SN IP        6 5 25.00                             169    0.4810 2.12 245 
 LG3  SE IS        6 5 25.42                             169   -0.4810 2.12 245 
 LG3  SZ  AML      6 5 26.04        18.1 0.18                          2.12 245 
                                                                                
