 2009  628 1024 57.4 L  21.152 -99.275 10.0  RAL  1 0.0 1.4LRAL                1
 GAP=360        0.30       4.0     0.6  0.0  0.4824E+00 -0.2651E+02  0.1824E+02E
 ACTION:UPD 12-06-08 11:37 OP:RALL STATUS:               ID:20090628102457     I
 2009-06-28-1024-51S.PLUR1_003                                                 6
 STAT SP IPHASW D HRMM SECON CODA AMPLIT PERI AZIMU VELO AIN AR TRES W  DIS CAZ7
 LZ4  SZ E        1025  1.17                  181.6 14.6      0        19.8   2 
 LZ4  SN IP       1025  1.18                             114    0.0210 19.8   2 
 LZ4  SE IS       1025  3.88                             114   -0.0210 19.8   2 
 LZ4  SZ  AML     1025  4.14        62.8 0.32                          19.8   2 
                                                                                
