 2009  628 1350  1.8 L  21.179 -99.161 10.0  RAL  1 0.0 1.0LRAL                1
 GAP=360        0.30       3.3     3.2  0.0 -0.1045E+02 -0.2651E+02  0.1824E+02E
 ACTION:UPD 12-06-08 11:37 OP:RALL STATUS:               ID:20090628135001     I
 2009-06-28-1349-55S.PLUR1_003                                                 6
 STAT SP IPHASW D HRMM SECON CODA AMPLIT PERI AZIMU VELO AIN AR TRES W  DIS CAZ7
 LG3  SZ E        1350  4.80                  138.5 10.7      0        14.3 319 
 LG3  SN IP       1350  4.83                             124    0.0210 14.3 319 
 LG3  SE IS       1350  6.99                             124   -0.0210 14.3 319 
 LG3  SZ  AML     1350  7.16        32.7 0.28                          14.3 319 
                                                                                
