 2009  628 1505 59.3 L  21.344 -99.283 10.0  RAL  1 0.2                        1
 GAP=360        0.91     999.9   999.9  0.0  0.1483E+07 -0.2651E+02  0.1824E+02E
 ACTION:UPD 12-06-08 11:37 OP:RALL STATUS:               ID:20090628150559     I
 2009-06-28-1505-52S.PLUR1_003                                                 6
 STAT SP IPHASW D HRMM SECON CODA AMPLIT PERI AZIMU VELO AIN AR TRES W  DIS CAZ7
 LZ4  SZ E        15 6  1.77                  317.5 15.5      0        2.04 137 
 LZ4  SN IP       15 6  1.78                             169    0.5810 2.04 137 
 LZ4  SE IS       15 6  1.98                             169   -0.5810 2.04 137 
                                                                                
