 2009  628 2043 12.1 L  21.547 -99.424 10.0  RAL  1 0.0 0.8LRAL                1
 GAP=360        0.30       3.2     2.4  0.0 -0.7107E+01 -0.2651E+02  0.1824E+02E
 ACTION:UPD 12-06-08 11:37 OP:RALL STATUS:               ID:20090628204312     I
 2009-06-28-2043-12S.PLUR1_003                                                 6
 STAT SP IPHASW D HRMM SECON CODA AMPLIT PERI AZIMU VELO AIN AR TRES W  DIS CAZ7
 LZ4  SN IP       2043 17.18                             105    0.0210 28.7 146 
 LZ4  SZ E        2043 17.18                  326.2 19.6      0        28.7 146 
 LZ4  SE IS       2043 20.82                             105   -0.0210 28.7 146 
 LZ4  SZ  AML     2043 21.50        12.5 0.70                          28.7 146 
                                                                                
