 2009  628 2048 50.7 L  21.277 -99.376 10.0  RAL  1 0.0 0.5LRAL                1
 GAP=360        0.30       2.2     4.4  0.0  0.9667E+01 -0.2651E+02  0.1824E+02E
 ACTION:UPD 12-06-08 11:37 OP:RALL STATUS:               ID:20090628204850     I
 2009-06-28-2048-46S.PLUR1_003                                                 6
 STAT SP IPHASW D HRMM SECON CODA AMPLIT PERI AZIMU VELO AIN AR TRES W  DIS CAZ7
 LZ4  SZ E        2048 53.48                  241.8 16.3      0        12.5  62 
 LZ4  SN IP       2048 53.49                             127    0.0110 12.5  62 
 LZ4  SE IS       2048 55.48                             127   -0.0110 12.5  62 
 LZ4  SZ  AML     2048 57.28        10.8 0.68                          12.5  62 
                                                                                
