 2009  628 2153 48.4 L  21.310 -99.286 10.0  RAL  1 0.2 0.6LRAL                1
 GAP=360        0.68      25.2    20.6  0.0  0.5197E+03 -0.2651E+02  0.1824E+02E
 ACTION:UPD 12-06-08 11:37 OP:RALL STATUS:               ID:20090628215348     I
 2009-06-28-2153-41S.PLUR1_003                                                 6
 STAT SP IPHASW D HRMM SECON CODA AMPLIT PERI AZIMU VELO AIN AR TRES W  DIS CAZ7
 LZ4  SN IP       2153 50.68                             165    0.4110 2.84  37 
 LZ4  SZ E        2153 50.68                  217.4 21.1      0        2.84  37 
 LZ4  SE IS       2153 51.24                             165   -0.4110 2.84  37 
 LZ4  SZ  AML     2153 52.19        20.9 0.62                          2.84  37 
                                                                                
