 2009  629 0221 27.9 L  21.365 -99.309 10.0  RAL  1 0.0 0.5LRAL                1
 GAP=360        0.31       5.6     6.5  0.0 -0.3629E+02 -0.2651E+02  0.1824E+02E
 ACTION:UPD 12-06-08 11:37 OP:RALL STATUS:               ID:20090629022127     I
 2009-06-29-0221-22S.PLUR1_003                                                 6
 STAT SP IPHASW D HRMM SECON CODA AMPLIT PERI AZIMU VELO AIN AR TRES W  DIS CAZ7
 LZ4  SZ E         221 30.02                  312.8 12.2      0        5.53 133 
 LZ4  SN IP        221 30.05                             152    0.0710 5.53 133 
 LZ4  SE IS        221 31.40                             152   -0.0710 5.53 133 
 LZ4  SZ  AML      221 31.64        17.2 0.80                          5.53 133 
                                                                                
