 2009  629 0540 51.6 L  21.364 -99.402 10.0  RAL  1 0.0 0.2LRAL                1
 GAP=360        0.30       2.2     3.7  0.0 -0.8101E+01 -0.2651E+02  0.1824E+02E
 ACTION:UPD 12-06-08 11:37 OP:RALL STATUS:               ID:20090629054051     I
 2009-06-29-0540-48S.PLUR1_003                                                 6
 STAT SP IPHASW D HRMM SECON CODA AMPLIT PERI AZIMU VELO AIN AR TRES W  DIS CAZ7
 LG3  SZ E         540 55.13                  302.4 19.2      0        18.3 122 
 LG3  SN IP        540 55.16                             116    0.0110 18.3 122 
 LG3  SE IS        540 57.74                             116   -0.0110 18.3 122 
 LG3  SZ  AML      540 59.89         4.9 0.38                          18.3 122 
                                                                                
