 2009  630 0126 17.8 L  21.314 -99.275 10.0  RAL  1 0.3 0.3LRAL                1
 GAP=360        3.64     127.5   451.4  0.0  0.5736E+05 -0.2651E+02  0.1824E+02E
 ACTION:UPD 12-06-08 11:37 OP:RALL STATUS:               ID:20090630012617     I
 2009-06-30-0126-11S.PLUR1_003                                                 6
 STAT SP IPHASW D HRMM SECON CODA AMPLIT PERI AZIMU VELO AIN AR TRES W  DIS CAZ7
 LZ4  SZ E         126 19.63                  179.9 22.0    -16        1.94  17 
 LZ4  SN IP        126 19.71                             169    0.0810 1.94  17 
 LZ4  SE IS        126 20.90                             169   -0.0810 1.94  17 
 LZ4  SZ  AML      126 21.74        11.4 0.88                          1.94  17 
                                                                                
