 2009  630 0259 25.9 L  21.723 -99.309 10.0  RAL  1 0.0 2.7LRAL                1
 GAP=360        0.30       3.9     0.7  0.0  0.2737E-01 -0.2651E+02  0.1824E+02E
 ACTION:UPD 12-06-08 11:37 OP:RALL STATUS:               ID:20090630025925     I
 2009-06-30-0259-15S.PLUR1_003                                                 6
 STAT SP IPHASW D HRMM SECON CODA AMPLIT PERI AZIMU VELO AIN AR TRES W  DIS CAZ7
 LA4  SZ E         259 30.61                    0.1  8.5      0        26.5 180 
 LA4  SN IP        259 30.66                             107    0.0110 26.5 180 
 LA4  SE IS        259 34.09                             107   -0.0110 26.5 180 
 LA4  SZ  AML      259 35.03       973.4 0.30                          26.5 180 
                                                                                
