 2009  630 0348 29.8 L  21.336 -99.262 10.0  RAL  1 0.5 1.7LRAL                1
 GAP=360        5.95     999.9   207.2  0.0 -0.3423E+06 -0.2651E+02  0.1824E+02E
 ACTION:UPD 12-06-08 11:37 OP:RALL STATUS:               ID:20090630034829     I
 2009-06-30-0348-22S.PLUR1_003                                                 6
 STAT SP IPHASW D HRMM SECON CODA AMPLIT PERI AZIMU VELO AIN AR TRES W  DIS CAZ7
 LZ4  SZ E         348 32.14                   84.0 13.7     28        1.00 236 
 LZ4  SN IP        348 32.17                             174    0.5810 1.00 236 
 LZ4  SE IS        348 32.35                             174   -0.5810 1.00 236 
 LZ4  SZ  AML      348 32.53       292.1 0.18                          1.00 236 
                                                                                
