 2009  630 2331  7.3 L                       RAL  1                            1
 ACTION:UPD 12-06-08 11:37 OP:RALL STATUS:               ID:20090630233107     I
 2009-06-30-2331-07S.PLUR1_003                                                 6
 STAT SP IPHASW D HRMM SECON CODA AMPLIT PERI AZIMU VELO AIN AR TRES W  DIS CAZ7
 LZ4  SN IP       2331 16.49                                                    
 LZ4  SE IS       2331 22.73                                                    
 LZ4  SZ  AML     2331 23.95       389.5 0.56                                   
                                                                                
