 2009  6 9  8 3 39.0 L                       RAL                               1
 2009-06-09-0803-39S.PLUR1_003                                                 6
 STAT SP IPHASW D HRMM SECON CODA AMPLIT PERI AZIMU VELO AIN AR TRES W  DIS CAZ7
                                                                                
