 2008  2 3 0509 15.3 L  21.346 -99.584 10.0  RAL  3 1.2 1.5LRAL                1
 GAP=278       20.08      32.3    42.2316.1  0.3654E+03  0.2082E+04  0.3595E+04E
 ACTION:UPD 12-06-08 11:37 OP:RALL STATUS:               ID:20080203050915     I
 2008-02-03-0509-10S.PLUR1_009                                                 6
 STAT SP IPHASW D HRMM SECON CODA AMPLIT PERI AZIMU VELO AIN AR TRES W  DIS CAZ7
 LD3  SN IP        5 9 20.65                             116    1.7510 18.4  47 
 LD3  SZ E         5 9 20.65                  228.0 15.8      1        18.4  47 
 LD3  SE IS        5 9 21.55                             116    0.0610 18.4  47 
 LD3  SZ  AML      5 9 21.80       183.8 0.32                          18.4  47 
 LD2  SZ E         5 9 21.95                  230.3 12.6    -78        31.4 130 
 LD2  SN IP        5 9 22.01                             103    1.2010 31.4 130 
 LD2  SE IS        5 9 24.29                             103   -0.5110 31.4 130 
 LD2  SZ  AML      5 9 24.43        27.2 0.64                          31.4 130 
 LD5  SZ E         5 9 21.14                   25.9  8.7     83        32.6 123 
 LD5  SN IP        5 9 21.15                             103    0.1710 32.6 123 
 LD5  SE IS        5 9 22.42                             103   -2.6710 32.6 123 
 LD5  SZ  AML      5 9 22.79        62.6 0.42                          32.6 123 
                                                                                
