 2008  2 3 0318 17.3 L  21.432 -99.810 10.0  RAL  3 1.6 1.1LRAL                1
 GAP=324       26.44      68.5   187.5999.9 -0.4047E+04  0.2776E+06 -0.4896E+04E
 ACTION:UPD 12-06-08 11:37 OP:RALL STATUS:               ID:20080203031817     I
 2008-02-03-0318-16S.PLUR1_009                                                 6
 STAT SP IPHASW D HRMM SECON CODA AMPLIT PERI AZIMU VELO AIN AR TRES W  DIS CAZ7
 LD3  SZ E         318 26.20                  344.3 14.7     79        37.0  85 
 LD3  SN IP        318 26.23                              95    2.5710 37.0  85 
 LD3  SE IS        318 27.60                              95   -0.6710 37.0  85 
 LD3  SZ  AML      318 28.56        35.1 0.10                          37.0  85 
 LD2  SN IP        318 28.38                              93    1.8010 56.0 122 
 LD2  SZ E         318 28.40                  200.6  9.9    -99        56.0 122 
 LD2  SZ  AML      318 32.03        11.5 0.32                          56.0 122 
 LD2  SE IS        318 32.47                              93   -0.8610 56.0 122 
 LD5  SN IP        318 27.60                              93    0.7810 57.6 118 
 LD5  SZ E         318 27.62                   17.2 10.3     79        57.6 118 
 LD5  SE IS        318 30.12                              93   -3.6110 57.6 118 
 LD5  SZ  AML      318 30.71        11.1 0.16                          57.6 118 
                                                                                
