 2008  2 5 1747 15.1 L  21.065 -99.642  5.4  RAL  3 0.9 1.2LRAL                1
 GAP=314       10.46      29.2    46.5 79.2  0.8483E+03  0.1211E+04 -0.1639E+02E
 ACTION:UPD 12-06-08 11:37 OP:RALL STATUS:               ID:20080205174715     I
 2008-02-05-1746-53S.PLUR1_009                                                 6
 STAT SP IPHASW D HRMM SECON CODA AMPLIT PERI AZIMU VELO AIN AR TRES W  DIS CAZ7
 LD2  SN IP       1747 23.06                              93    2.4710 32.3  70 
 LD2  SZ E        1747 23.11                  207.8 10.8    -41        32.3  70 
 LD2  SE IS       1747 23.80                              93   -0.8110 32.3  70 
 LD2  SZ  AML     1747 24.30        36.8 0.32                          32.3  70 
 LD5  SZ E        1747 22.71                  280.5 11.1     32        36.1  68 
 LD5  SN IP       1747 22.73                              93    1.5710 36.1  68 
 LD5  SE IS       1747 23.22                              93   -2.3910 36.1  68 
 LD5  SZ  AML     1747 23.33        78.0 0.16                          36.1  68 
 LD3  SZ E        1747 24.42                  221.0 10.1     17        47.8  24 
 LD3  SN IP       1747 24.44                              63    1.4410 47.8  24 
 LD3  SE IS       1747 26.50                              63   -2.2810 47.8  24 
 LD3  SZ  AML     1747 27.11         5.9 0.18                          47.8  24 
                                                                                
