 2008  211 1716 12.7 L  20.829 -99.190 10.0  RAL  1 0.0 1.0LRAL                1
 GAP=360        0.30       3.5     1.9  0.0 -0.5171E+01  0.1211E+04 -0.1639E+02E
 ACTION:UPD 12-06-08 11:37 OP:RALL STATUS:               ID:20080211171612     I
 2008-02-11-1716-11S.PLUR1_009                                                 6
 STAT SP IPHASW D HRMM SECON CODA AMPLIT PERI AZIMU VELO AIN AR TRES W  DIS CAZ7
 LD2  SZ E        1716 19.54                  155.9  8.0      0        40.8 336 
 LD2  SN IP       1716 19.60                             100    0.0110 40.8 336 
 LD2  SE IS       1716 24.61                             100   -0.0110 40.8 336 
 LD2  SZ  AML     1716 26.45        14.7 0.40                          40.8 336 
                                                                                
