 2008  223 0518 16.4 L  21.185 -99.316 10.0  RAL  2 0.8 0.0LRAL                1
 GAP=319        5.41       6.5    15.6 29.2  0.9682E+02 -0.2420E+00 -0.3420E+01E
 ACTION:UPD 12-06-08 11:37 OP:RALL STATUS:               ID:20080223051816     I
 2008-02-23-0518-11S.PLUR1_006                                                 6
 STAT SP IPHASW D HRMM SECON CODA AMPLIT PERI AZIMU VELO AIN AR TRES W  DIS CAZ7
 LD5  SZ E         518 20.09                  105.6  9.8     -7        0.46 294 
 LD5  SN IP        518 20.09                             177    1.9010 0.46 294 
 LD5  SE IS        518 21.15                             177    1.6310 0.46 294 
 LD5  SZ  AML      518 21.95         2.7 0.40                          0.46 294 
 LD3  SZ E         518 21.32                  171.3 13.8     17        33.6 335 
 LD3  SN IP        518 21.33                             102   -0.8210 33.6 335 
 LD3  SE IS        518 23.68                             102   -2.7110 33.6 335 
 LD3  SZ  AML      518 23.75         3.0 0.18                          33.6 335 
                                                                                
