 2008  224 1501 22.4 L  21.386-100.226  5.0  RAL  3 1.5 1.3LRAL                1
 GAP=339       25.68     127.0   722.2999.9 -0.4648E+05 -0.9308E+06  0.8587E+05E
 ACTION:UPD 12-06-08 11:37 OP:RALL STATUS:               ID:20080224150122     I
 2008-02-24-1501-29S.PLUR1_009                                                 6
 STAT SP IPHASW D HRMM SECON CODA AMPLIT PERI AZIMU VELO AIN AR TRES W  DIS CAZ7
 LD3  SZ E        15 1 37.55                  328.7 14.9     64        80.4  84 
 LD3  SN IP       15 1 37.99                              63    2.9110 80.4  84 
 LD3  SE IS       15 1 43.72                              63   -0.5910 80.4  84 
 LD3  SZ  AML     15 1 47.74        14.5 0.18                          80.4  84 
 LD2  SN IP       15 1 38.31                              63    1.1210 94.1 105 
 LD2  SZ E        15 1 38.79                  164.6  7.8    -99        94.1 105 
 LD2  SE IS       15 1 46.51                              63   -1.4610 94.1 105 
 LD2  SZ  AML     15 1 47.95        13.7 0.64                          94.1 105 
 LD5  SZ E        15 1 38.50                  336.1 13.2     53        96.5 103 
 LD5  SN IP       15 1 38.56                              63    0.9910 96.5 103 
 LD5  SE IS       15 1 45.65                              63   -2.9710 96.5 103 
 LD5  SZ  AML     15 1 48.30        12.2 0.38                          96.5 103 
                                                                                
