 2008  226 1219 48.1 L  21.043 -99.255 25.7  RAL  3 1.2 1.0LRAL                1
 GAP=347       15.95     124.8    62.7135.9 -0.7114E+04  0.4444E+03 -0.9805E+03E
 ACTION:UPD 12-06-08 11:37 OP:RALL STATUS:               ID:20080226121948     I
 2008-02-26-1219-45S.PLUR1_009                                                 6
 STAT SP IPHASW D HRMM SECON CODA AMPLIT PERI AZIMU VELO AIN AR TRES W  DIS CAZ7
 LD2  SZ E        1219 55.03                  177.5 14.1     34        16.9 324 
 LD2  SN IP       1219 55.89                             140    2.7610 16.9 324 
 LD2  SN  AML     1219 57.19        28.5 0.40                          16.9 324 
 LD2  SZ  AML     1219 57.59        18.5 0.56                          16.9 324 
 LD2  SE IS       1219 57.59                             140    0.8110 16.9 324 
 LD5  SN IP       1219 54.91                             138    1.7710 17.3 337 
 LD5  SZ E        1219 54.93                  107.8  8.3    -48        17.3 337 
 LD5  SE IS       1219 55.63                             138   -1.1810 17.3 337 
 LD5  SZ  AML     1219 56.33        31.4 0.40                          17.3 337 
 LD3  SZ E        1219 56.59                  221.3 11.0     65        50.5 336 
 LD3  SN IP       1219 56.61                             105   -0.4910 50.5 336 
 LD3  SZ  AML     1219 59.35         3.2 0.20                          50.5 336 
 LD3  SE IS       1219 59.98                             105   -3.6810 50.5 336 
                                                                                
