 2008  229 0456 49.2 L  21.616 -98.991  5.0  RAL  3 1.7 0.9LRAL                1
 GAP=326       28.38     189.3   239.3655.7  0.3876E+05  0.1217E+06  0.9444E+05E
 ACTION:UPD 12-06-08 11:37 OP:RALL STATUS:               ID:20080229045649     I
 2008-02-29-0456-49S.PLUR1_009                                                 6
 STAT SP IPHASW D HRMM SECON CODA AMPLIT PERI AZIMU VELO AIN AR TRES W  DIS CAZ7
 LD3  SZ E         456 58.85                  334.9 22.8     95        51.0 250 
 LD3  SN IP        456 58.87                              63    1.6310 51.0 250 
 LD3  SE IS        457  0.34                              63   -2.8010 51.0 250 
 LD3  SZ  AML      457  2.00        31.2 0.42                          51.0 250 
 LD5  SZ E         457  0.42                   18.8  8.3    -16        58.6 216 
 LD5  SN IP        457  0.43                              63    2.0310 58.6 216 
 LD5  SE IS        457  3.72                              63   -1.4310 58.6 216 
 LD5  SZ  AML      457  4.00         5.9 0.62                          58.6 216 
 LD2  SN IP        457  1.13                              63    2.1510 62.3 217 
 LD2  SZ E         457  1.39                  167.0  8.8    130        62.3 217 
 LD2  SE IS        457  4.57                              63   -1.5910 62.3 217 
 LD2  SZ  AML      457  6.38         2.8 0.32                          62.3 217 
                                                                                
