 2010 12 8 0140 25.9 L  21.494 -99.384 10.0  RAL  1 0.0 0.3LRAL                1
 GAP=360        0.30       4.1     2.4  0.0 -0.9683E+01  0.5903E+01 -0.6551E+01E
 ACTION:UPD 12-06-08 11:37 OP:RALL STATUS:               ID:20101208014025     I
 2010-12-08-0140-20S.PLUR1_003                                                 6
 STAT SP IPHASW D HRMM SECON CODA AMPLIT PERI AZIMU VELO AIN AR TRES W  DIS CAZ7
 LT9  SZ E         140 28.59                  331.2  7.3      0        12.4 151 
 LT9  SN IP        140 28.60                             127    0.0210 12.4 151 
 LT9  SE IS        140 30.55                             127   -0.0210 12.4 151 
 LT9  SZ  AML      140 30.90         7.6 0.22                          12.4 151 
                                                                                
