 2010 12 8 1328 26.1 L  21.441 -99.353 10.0  RAL  1 0.0-0.2LRAL                1
 GAP=360        0.30       6.6     3.9  0.0 -0.2565E+02  0.5903E+01 -0.6551E+01E
 ACTION:UPD 12-06-08 11:37 OP:RALL STATUS:               ID:20101208132826     I
 2010-12-08-1328-19S.PLUR1_003                                                 6
 STAT SP IPHASW D HRMM SECON CODA AMPLIT PERI AZIMU VELO AIN AR TRES W  DIS CAZ7
 LT9  SZ E        1328 28.14                  331.2  7.9      0        5.72 151 
 LT9  SN IP       1328 28.16                             150    0.0410 5.72 151 
 LT9  SE IS       1328 29.55                             150   -0.0410 5.72 151 
 LT9  SZ  AML     1328 30.79         2.8 0.74                          5.72 151 
                                                                                
