 2010 12 9  815 23.4 L                       RAL  1                            1
 ACTION:UPD 12-06-08 11:37 OP:RALL STATUS:               ID:20101209081523     I
 2010-12-09-0815-23S.PLUR1_003                                                 6
 STAT SP IPHASW D HRMM SECON CODA AMPLIT PERI AZIMU VELO AIN AR TRES W  DIS CAZ7
 LT9  SN IP        815 30.19                                                    
 LT9  SZ E         815 30.20                  148.8  8.1                        
 LT9  SZ  AML      815 33.10         0.9 0.12                                   
                                                                                
