 2010 12 9 1752  5.4 L  20.762 -99.518 10.0  RAL  1 0.0 0.9LRAL                1
 GAP=360        0.30       3.6     2.2  0.0  0.2868E+01  0.5903E+01 -0.6551E+01E
 ACTION:UPD 12-06-08 11:37 OP:RALL STATUS:               ID:20101209175205     I
 2010-12-09-1752-15S.PLUR1_003                                                 6
 STAT SP IPHASW D HRMM SECON CODA AMPLIT PERI AZIMU VELO AIN AR TRES W  DIS CAZ7
 LT9  SZ E        1752 17.25                  195.9  8.6      0        72.8  16 
 LT9  SN IP       1752 17.25                              95    0.0110 72.8  16 
 LT9  SE IS       1752 25.85                              95   -0.0110 72.8  16 
 LT9  SZ  AML     1752 27.25         7.1 0.44                          72.8  16 
                                                                                
