 2010 12 9 1228 47.7 L  20.845 -99.675 10.0  RAL  1 0.0 0.9LRAL                1
 GAP=360        0.30       3.3     2.6  0.0  0.4893E+01  0.5903E+01 -0.6551E+01E
 ACTION:UPD 12-06-08 11:37 OP:RALL STATUS:               ID:20101209122847     I
 2010-12-09-1228-57S.PLUR1_003                                                 6
 STAT SP IPHASW D HRMM SECON CODA AMPLIT PERI AZIMU VELO AIN AR TRES W  DIS CAZ7
 LT9  SN IP       1228 59.19                              95    0.0110 70.8  31 
 LT9  SZ E        1228 59.47                  210.8 12.6      0        70.8  31 
 LT9  SE IS       1229  7.56                              95   -0.0110 70.8  31 
 LT9  SZ  AML     1229  8.99         7.0 0.52                          70.8  31 
                                                                                
