 2010 12 9 1940  8.1 L  20.808 -99.565 10.0  RAL  1 0.0 0.8LRAL                1
 GAP=360        0.30       3.5     2.3  0.0  0.3746E+01  0.5903E+01 -0.6551E+01E
 ACTION:UPD 12-06-08 11:37 OP:RALL STATUS:               ID:20101209194008     I
 2010-12-09-1940-17S.PLUR1_003                                                 6
 STAT SP IPHASW D HRMM SECON CODA AMPLIT PERI AZIMU VELO AIN AR TRES W  DIS CAZ7
 LT9  SZ E        1940 19.29                  200.9 10.2      0        69.6  21 
 LT9  SN IP       1940 19.39                              95    0.0110 69.6  21 
 LT9  SE IS       1940 27.62                              95   -0.0110 69.6  21 
 LT9  SZ  AML     1940 29.26         5.9 0.40                          69.6  21 
                                                                                
