 2010 12 9 2248 18.9 L  21.259 -99.221 10.0  RAL  1 0.0 0.1LRAL                1
 GAP=360        0.30       3.3     2.6  0.0 -0.8305E+01  0.5903E+01 -0.6551E+01E
 ACTION:UPD 12-06-08 11:37 OP:RALL STATUS:               ID:20101209224818     I
 2010-12-09-2248-15S.PLUR1_003                                                 6
 STAT SP IPHASW D HRMM SECON CODA AMPLIT PERI AZIMU VELO AIN AR TRES W  DIS CAZ7
 LT9  SZ E        2248 22.45                  144.1  9.8      0        18.7 324 
 LT9  SN IP       2248 22.46                             115    0.0110 18.7 324 
 LT9  SE IS       2248 25.04                             115   -0.0110 18.7 324 
 LT9  SZ  AML     2248 25.88         3.5 0.32                          18.7 324 
                                                                                
