 2010 1210 0144 10.9 L  21.627 -99.385 10.0  RAL  1 0.0 1.2LRAL                1
 GAP=360        0.30       3.7     2.0  0.0 -0.7292E+01  0.5903E+01 -0.6551E+01E
 ACTION:UPD 12-06-08 11:37 OP:RALL STATUS:               ID:20101210014410     I
 2010-12-10-0144-05S.PLUR1_003                                                 6
 STAT SP IPHASW D HRMM SECON CODA AMPLIT PERI AZIMU VELO AIN AR TRES W  DIS CAZ7
 LA4  SZ E         144 14.33                  333.6  8.2      0        17.7 154 
 LA4  SN IP        144 14.40                             117    0.0010 17.7 154 
 LA4  SE IS        144 16.91                             117    0.0010 17.7 154 
 LA4  SZ  AML      144 18.61        48.8 0.38                          17.7 154 
                                                                                
