 2010 1211 0932 40.4 L  21.379 -99.317 10.0  RAL  1 0.2-0.3LRAL                1
 GAP=360        0.80      42.9    24.6  0.0 -0.1056E+04  0.5903E+01 -0.6551E+01E
 ACTION:UPD 12-06-08 11:37 OP:RALL STATUS:               ID:20101211093240     I
 2010-12-11-0932-33S.PLUR1_003                                                 6
 STAT SP IPHASW D HRMM SECON CODA AMPLIT PERI AZIMU VELO AIN AR TRES W  DIS CAZ7
 LT9  SZ E         932 42.67                  151.9 11.5      0        2.09 332 
 LT9  SN IP        932 42.68                             168    0.5010 2.09 332 
 LT9  SE IS        932 43.00                             168   -0.5010 2.09 332 
 LT9  SZ  AML      932 43.12         2.8 0.52                          2.09 332 
                                                                                
