 2010 1211 1701 54.4 R  23.102-100.084 10.0  RAL  1 0.0                        1
 GAP=360        0.30       4.8     5.4  0.0  0.1418E+01  0.5903E+01 -0.6551E+01E
 ACTION:UPD 12-06-08 11:37 OP:RALL STATUS:               ID:20101211170154     I
 2010-12-11-1702-16S.PLUR1_003                                                 6
 STAT SP IPHASW D HRMM SECON CODA AMPLIT PERI AZIMU VELO AIN AR TRES W  DIS CAZ7
 LA4  SN IP       17 2 23.12                              52    0.0110  196 156 
 LA4  SZ E        17 2 23.14                  336.1 10.8      0         196 156 
 LA4  SE IS       17 2 44.04                              52   -0.0110  196 156 
                                                                                
