 2010 1212 0642 16.4 L  21.301 -99.356 15.4  RAL  2 0.0 0.6LRAL                1
 GAP=357        0.39       4.3     1.3  4.6  0.5549E+01  0.2450E+01  0.8120E+01E
 ACTION:UPD 12-06-08 11:37 OP:RALL STATUS:               ID:20101212064216     I
 2010-12-12-0642-11S.PLUR1_006                                                 6
 STAT SP IPHASW D HRMM SECON CODA AMPLIT PERI AZIMU VELO AIN AR TRES W  DIS CAZ7
 LT9  SZ E         642 19.55                  195.7 16.9      0        10.9  16 
 LT9  SN IP        642 19.60                             145    0.0410 10.9  16 
 LT9  SE IS        642 21.88                             145    0.0210 10.9  16 
 LT9  SZ  AML      642 22.60         4.5 0.54                          10.9  16 
 LA4  SZ E         642 20.67                  194.6 12.0      1        20.8  13 
 LA4  SN IP        642 20.71                             126    0.0010 20.8  13 
 LA4  SE IS        642 23.80                             126   -0.0610 20.8  13 
 LA4  SZ  AML      642 24.44        23.0 0.30                          20.8  13 
                                                                                
