 2010 1212 1106 50.7 L  21.349 -99.289 10.0  RAL  1 0.2 0.4LRAL                1
 GAP=360        0.75      24.3    27.1  0.0 -0.6580E+03  0.2450E+01  0.8120E+01E
 ACTION:UPD 12-06-08 11:37 OP:RALL STATUS:               ID:20101212110650     I
 2010-12-12-1106-44S.PLUR1_003                                                 6
 STAT SP IPHASW D HRMM SECON CODA AMPLIT PERI AZIMU VELO AIN AR TRES W  DIS CAZ7
 LZ4  SZ E        11 6 53.00                  313.9 16.7      0        2.85 134 
 LZ4  SN IP       11 6 53.03                             165    0.4610 2.85 134 
 LZ4  SE IS       11 6 53.48                             165   -0.4610 2.85 134 
 LZ4  SZ  AML     11 6 53.58        14.7 0.24                          2.85 134 
                                                                                
