 2010 1212 1444 15.5 L  21.499 -99.362 10.0  RAL  1 0.0 1.5LRAL                1
 GAP=360        0.30       3.6     2.0  0.0 -0.6841E+01  0.2450E+01  0.8120E+01E
 ACTION:UPD 12-06-08 11:37 OP:RALL STATUS:               ID:20101212144415     I
 2010-12-12-1444-10S.PLUR1_003                                                 6
 STAT SP IPHASW D HRMM SECON CODA AMPLIT PERI AZIMU VELO AIN AR TRES W  DIS CAZ7
 LZ4  SZ E        1444 19.43                  332.8 16.9      0        20.9 153 
 LZ4  SN IP       1444 19.45                             112    0.0010 20.9 153 
 LZ4  SE IS       1444 22.29                             112    0.0010 20.9 153 
 LZ4  SZ  AML     1444 24.48        72.3 0.40                          20.9 153 
                                                                                
