 2010 1212 1558 18.4 L  21.406 -99.339 10.0  RAL  1 0.0 0.2LRAL                1
 GAP=360        0.30       3.7     3.5  0.0 -0.1297E+02  0.2450E+01  0.8120E+01E
 ACTION:UPD 12-06-08 11:37 OP:RALL STATUS:               ID:20101212155818     I
 2010-12-12-1558-13S.PLUR1_003                                                 6
 STAT SP IPHASW D HRMM SECON CODA AMPLIT PERI AZIMU VELO AIN AR TRES W  DIS CAZ7
 LZ4  SZ E        1558 20.77                  318.8 97.0      0        11.0 139 
 LZ4  SN IP       1558 21.01                             132    0.0110 11.0 139 
 LZ4  SE IS       1558 22.87                             132   -0.0110 11.0 139 
 LZ4  SZ  AML     1558 23.28         5.9 0.26                          11.0 139 
                                                                                
