 2010 1212 1333 45.8 L  21.382 -99.321 10.0  RAL  1 0.2-0.3LRAL                1
 GAP=360        0.86     999.9   999.9  0.0  0.3321E+07  0.2450E+01  0.8120E+01E
 ACTION:UPD 12-06-08 11:37 OP:RALL STATUS:               ID:20101212133345     I
 2010-12-12-1333-38S.PLUR1_003                                                 6
 STAT SP IPHASW D HRMM SECON CODA AMPLIT PERI AZIMU VELO AIN AR TRES W  DIS CAZ7
 LT9  SZ E        1333 48.10                  160.0 12.7      0        1.53 340 
 LT9  SN IP       1333 48.12                             171    0.5410 1.53 340 
 LT9  SE IS       1333 48.34                             171   -0.5410 1.53 340 
 LT9  SZ  AML     1333 48.42         3.1 0.10                          1.53 340 
                                                                                
