 2010 1212 1739 10.0 L  21.371 -99.404 10.0  RAL  1 0.0                        1
 GAP=360        0.30       1.4     4.5  0.0 -0.5933E+01  0.2450E+01  0.8120E+01E
 ACTION:UPD 12-06-08 11:37 OP:RALL STATUS:               ID:20101212173910     I
 2010-12-12-1739-05S.PLUR1_003                                                 6
 STAT SP IPHASW D HRMM SECON CODA AMPLIT PERI AZIMU VELO AIN AR TRES W  DIS CAZ7
 LZ4  SZ E        1739 12.89                  287.8 30.4      0        14.7 108 
 LZ4  SN IP       1739 13.06                             122    0.0010 14.7 108 
 LZ4  SE IS       1739 15.27                             122    0.0010 14.7 108 
                                                                                
