 2010 1212 1614 46.0 L  21.481 -99.417 10.0  RAL  1 0.0 1.3LRAL                1
 GAP=360        0.30       2.9     2.9  0.0 -0.8118E+01  0.2450E+01  0.8120E+01E
 ACTION:UPD 12-06-08 11:37 OP:RALL STATUS:               ID:20101212161446     I
 2010-12-12-1614-40S.PLUR1_003                                                 6
 STAT SP IPHASW D HRMM SECON CODA AMPLIT PERI AZIMU VELO AIN AR TRES W  DIS CAZ7
 LZ4  SN IP       1614 50.18                             110    0.0010 22.6 137 
 LZ4  SZ E        1614 50.22                  317.5 13.7      0        22.6 137 
 LZ4  SE IS       1614 53.20                             110    0.0010 22.6 137 
 LZ4  SZ  AML     1614 55.44        50.5 0.22                          22.6 137 
                                                                                
