 2010 1212 2012 55.0 L  21.350 -99.293 10.0  RAL  1 0.1 0.3LRAL                1
 GAP=360        0.48      12.7    15.9  0.0 -0.2029E+03  0.2450E+01  0.8120E+01E
 ACTION:UPD 12-06-08 11:37 OP:RALL STATUS:               ID:20101212201255     I
 2010-12-12-2012-48S.PLUR1_003                                                 6
 STAT SP IPHASW D HRMM SECON CODA AMPLIT PERI AZIMU VELO AIN AR TRES W  DIS CAZ7
 LZ4  SZ E        2012 57.19                  310.6 33.7      0        3.28 131 
 LZ4  SN IP       2012 57.20                             162    0.2510 3.28 131 
 LZ4  SE IS       2012 58.09                             162   -0.2510 3.28 131 
 LZ4  SZ  AML     2012 58.95        10.5 0.18                          3.28 131 
                                                                                
