 2010 1212 2021 59.8 L  21.313 -99.293 10.0  RAL  1 0.2 0.8LRAL                1
 GAP=360        0.66      17.5    23.6  0.0  0.4131E+03  0.2450E+01  0.8120E+01E
 ACTION:UPD 12-06-08 11:37 OP:RALL STATUS:               ID:20101212202159     I
 2010-12-12-2021-52S.PLUR1_003                                                 6
 STAT SP IPHASW D HRMM SECON CODA AMPLIT PERI AZIMU VELO AIN AR TRES W  DIS CAZ7
 LZ4  SZ E        2022  1.99                  231.4 23.6      0        3.16  51 
 LZ4  SN IP       2022  2.07                             163    0.4010 3.16  51 
 LZ4  SE IS       2022  2.66                             163   -0.4010 3.16  51 
 LZ4  SZ  AML     2022  3.16        36.5 0.14                          3.16  51 
                                                                                
