 2010 1213 0946 24.8 L  21.321 -99.268 10.0  RAL  1 0.1 1.1LRAL                1
 GAP=360        0.60     136.8   999.9  0.0  0.2476E+06  0.2450E+01  0.8120E+01E
 ACTION:UPD 12-06-08 11:37 OP:RALL STATUS:               ID:20101213094624     I
 2010-12-13-0946-17S.PLUR1_003                                                 6
 STAT SP IPHASW D HRMM SECON CODA AMPLIT PERI AZIMU VELO AIN AR TRES W  DIS CAZ7
 LZ4  SZ E         946 26.75                  175.2 23.4      2        1.12 353 
 LZ4  SN IP        946 26.76                             174    0.1710 1.12 353 
 LZ4  SE IS        946 27.77                             174   -0.1710 1.12 353 
 LZ4  SZ  AML      946 27.86        63.3 0.18                          1.12 353 
                                                                                
