 2010 1213 0230  7.9 L  21.327 -99.282 10.0  RAL  1 0.1 0.3LRAL                1
 GAP=360        0.97     999.9   454.5  0.0 -0.7348E+06  0.2450E+01  0.8120E+01E
 ACTION:UPD 12-06-08 11:37 OP:RALL STATUS:               ID:20101213023007     I
 2010-12-13-0230-01S.PLUR1_003                                                 6
 STAT SP IPHASW D HRMM SECON CODA AMPLIT PERI AZIMU VELO AIN AR TRES W  DIS CAZ7
 LZ4  SZ E         230  9.96                  255.9 29.4      4        1.35  72 
 LZ4  SN IP        230 10.04                             173    0.3210 1.35  72 
 LZ4  SE IS        230 10.75                             173   -0.3210 1.35  72 
 LZ4  SZ  AML      230 11.59        11.0 0.22                          1.35  72 
                                                                                
