 2010 1213 0015 26.3 L  21.302 -99.233 10.0  RAL  1 0.0-0.5LRAL                1
 GAP=360        0.30       3.2     3.2  0.0 -0.1033E+02  0.2450E+01  0.8120E+01E
 ACTION:UPD 12-06-08 11:37 OP:RALL STATUS:               ID:20101213001526     I
 2010-12-13-0015-21S.PLUR1_003                                                 6
 STAT SP IPHASW D HRMM SECON CODA AMPLIT PERI AZIMU VELO AIN AR TRES W  DIS CAZ7
 LT9  SZ E         015 29.19                  136.8 10.8      0        14.1 317 
 LT9  SN IP        015 29.20                             123    0.0210 14.1 317 
 LT9  SE IS        015 31.31                             123   -0.0210 14.1 317 
 LT9  SZ  AML      015 31.62         1.1 0.32                          14.1 317 
                                                                                
