 2010 1213 1023 19.2 L  21.450 -99.450 10.0  RAL  1 0.0 1.0LRAL                1
 GAP=360        0.30       2.3     3.5  0.0 -0.7626E+01  0.2450E+01  0.8120E+01E
 ACTION:UPD 12-06-08 11:37 OP:RALL STATUS:               ID:20101213102319     I
 2010-12-13-1023-15S.PLUR1_003                                                 6
 STAT SP IPHASW D HRMM SECON CODA AMPLIT PERI AZIMU VELO AIN AR TRES W  DIS CAZ7
 LZ4  SZ E        1023 23.30                  305.1 19.1      0        22.9 125 
 LZ4  SN IP       1023 23.43                             110    0.0010 22.9 125 
 LZ4  SE IS       1023 26.48                             110    0.0010 22.9 125 
 LZ4  SZ  AML     1023 26.81        22.5 0.46                          22.9 125 
                                                                                
