 2010 1213 2059 13.6 L  21.295 -99.324 10.0  RAL  1 0.0-0.2LRAL                1
 GAP=360        0.30       4.9     0.3  0.0 -0.4841E+00  0.2450E+01  0.8120E+01E
 ACTION:UPD 12-06-08 11:37 OP:RALL STATUS:               ID:20101213205913     I
 2010-12-13-2059-08S.PLUR1_003                                                 6
 STAT SP IPHASW D HRMM SECON CODA AMPLIT PERI AZIMU VELO AIN AR TRES W  DIS CAZ7
 LT9  SN IP       2059 16.12                             130    0.0010 11.1 359 
 LT9  SZ E        2059 16.13                  178.9  7.5      0        11.1 359 
 LT9  SE IS       2059 17.98                             130    0.0010 11.1 359 
 LT9  SZ  AML     2059 18.19         2.6 0.38                          11.1 359 
                                                                                
