 2010 1214 0551 50.4 L  21.327 -99.277 10.0  RAL  1 0.2 0.3LRAL                1
 GAP=360        1.23     999.9   999.9  0.0 -0.3881E+07  0.2450E+01  0.8120E+01E
 ACTION:UPD 12-06-08 11:37 OP:RALL STATUS:               ID:20101214055150     I
 2010-12-14-0551-42S.PLUR1_003                                                 6
 STAT SP IPHASW D HRMM SECON CODA AMPLIT PERI AZIMU VELO AIN AR TRES W  DIS CAZ7
 LZ4  SZ E         551 52.41                  249.3 72.6      5        0.86  64 
 LZ4  SN IP        551 52.54                             175    0.3310 0.86  64 
 LZ4  SE IS        551 53.23                             175   -0.3310 0.86  64 
 LZ4  SZ  AML      551 53.46        12.4 0.28                          0.86  64 
                                                                                
