 2010 1214 0919 49.5 L  21.352 -99.296 10.0  RAL  1 0.1 0.3LRAL                1
 GAP=360        0.44      10.6    13.4  0.0 -0.1428E+03  0.2450E+01  0.8120E+01E
 ACTION:UPD 12-06-08 11:37 OP:RALL STATUS:               ID:20101214091949     I
 2010-12-14-0919-43S.PLUR1_003                                                 6
 STAT SP IPHASW D HRMM SECON CODA AMPLIT PERI AZIMU VELO AIN AR TRES W  DIS CAZ7
 LZ4  SN IP        919 51.63                             161    0.2210 3.62 130 
 LZ4  SZ E         919 51.65                  310.4 19.9      0        3.62 130 
 LZ4  SE IS        919 52.60                             161   -0.2210 3.62 130 
 LZ4  SZ  AML      919 52.96        11.5 0.10                          3.62 130 
                                                                                
