 2010 1214 0845 56.6 L  21.297 -99.312 10.0  RAL  1 0.0 0.4LRAL                1
 GAP=360        0.30       4.0     0.6  0.0  0.2966E+00  0.2450E+01  0.8120E+01E
 ACTION:UPD 12-06-08 11:37 OP:RALL STATUS:               ID:20101214084556     I
 2010-12-14-0845-53S.PLUR1_003                                                 6
 STAT SP IPHASW D HRMM SECON CODA AMPLIT PERI AZIMU VELO AIN AR TRES W  DIS CAZ7
 LA4  SN IP        846  0.48                             113    0.0110 20.7   1 
 LA4  SZ E         846  0.58                  181.0 13.8      0        20.7   1 
 LA4  SE IS        846  3.28                             113   -0.0110 20.7   1 
 LA4  SZ  AML      846  3.79         6.9 0.42                          20.7   1 
                                                                                
