 2010 1214 0414 31.1 L  21.288 -99.257 10.0  RAL  1 0.0 1.3LRAL                1
 GAP=360        0.30       8.3     2.4  0.0 -0.1981E+02  0.2450E+01  0.8120E+01E
 ACTION:UPD 12-06-08 11:37 OP:RALL STATUS:               ID:20101214041431     I
 2010-12-14-0414-24S.PLUR1_003                                                 6
 STAT SP IPHASW D HRMM SECON CODA AMPLIT PERI AZIMU VELO AIN AR TRES W  DIS CAZ7
 LZ4  SZ E         414 33.07                  165.1 12.7      0        4.88 345 
 LZ4  SN IP        414 33.08                             154    0.0210 4.88 345 
 LZ4  SE IS        414 34.50                             154   -0.0210 4.88 345 
 LZ4  SZ  AML      414 35.12       104.5 0.22                          4.88 345 
                                                                                
