 2010 1214 1236 28.0 L  21.309 -99.278 10.0  RAL  1 0.1 0.5LRAL                1
 GAP=360        0.37      17.9     6.6  0.0  0.1174E+03  0.2450E+01  0.8120E+01E
 ACTION:UPD 12-06-08 11:37 OP:RALL STATUS:               ID:20101214123628     I
 2010-12-14-1236-22S.PLUR1_003                                                 6
 STAT SP IPHASW D HRMM SECON CODA AMPLIT PERI AZIMU VELO AIN AR TRES W  DIS CAZ7
 LZ4  SZ E        1236 30.05                  198.9 41.1      0        2.61  19 
 LZ4  SN IP       1236 30.08                             166    0.1510 2.61  19 
 LZ4  SE IS       1236 31.15                             166   -0.1510 2.61  19 
 LZ4  SZ  AML     1236 32.39        16.0 0.22                          2.61  19 
                                                                                
