 2010 1214 1321  2.7 L  20.981 -98.950 10.0  RAL  1 0.0 1.0LRAL                1
 GAP=360        0.30       3.0     2.8  0.0 -0.6449E+01  0.2450E+01  0.8120E+01E
 ACTION:UPD 12-06-08 11:37 OP:RALL STATUS:               ID:20101214132102     I
 2010-12-14-1321-08S.PLUR1_003                                                 6
 STAT SP IPHASW D HRMM SECON CODA AMPLIT PERI AZIMU VELO AIN AR TRES W  DIS CAZ7
 LZ4  SZ E        1321 11.14                  139.4 21.1      0        51.0 319 
 LZ4  SN IP       1321 11.18                              97    0.0110 51.0 319 
 LZ4  SE IS       1321 17.32                              97   -0.0110 51.0 319 
 LZ4  SZ  AML     1321 17.95        12.7 0.36                          51.0 319 
                                                                                
