 2010 1214 1847 13.1 L  21.237 -99.267 10.0  RAL  1 0.0 0.1LRAL                1
 GAP=360        0.30       3.8     1.5  0.0 -0.5456E+01  0.2450E+01  0.8120E+01E
 ACTION:UPD 12-06-08 11:37 OP:RALL STATUS:               ID:20101214184713     I
 2010-12-14-1847-09S.PLUR1_003                                                 6
 STAT SP IPHASW D HRMM SECON CODA AMPLIT PERI AZIMU VELO AIN AR TRES W  DIS CAZ7
 LT9  SN IP       1847 16.60                             115    0.0010 18.6 341 
 LT9  SZ E        1847 16.65                  160.7  9.7      0        18.6 341 
 LT9  SE IS       1847 19.18                             115    0.0010 18.6 341 
 LT9  SZ  AML     1847 19.30         3.9 0.30                          18.6 341 
                                                                                
