 2010 1214 1144  7.7 L  21.077 -99.309 10.0  RAL  1 0.0 1.6LRAL                1
 GAP=360        0.30       3.8     1.0  0.0  0.2193E+01  0.2450E+01  0.8120E+01E
 ACTION:UPD 12-06-08 11:37 OP:RALL STATUS:               ID:20101214114407     I
 2010-12-14-1144-03S.PLUR1_003                                                 6
 STAT SP IPHASW D HRMM SECON CODA AMPLIT PERI AZIMU VELO AIN AR TRES W  DIS CAZ7
 LZ4  SZ E        1144 12.72                  188.4 16.7      0        28.4   8 
 LZ4  SN IP       1144 12.75                             105    0.0110 28.4   8 
 LZ4  SE IS       1144 16.38                             105   -0.0110 28.4   8 
 LZ4  SZ  AML     1144 18.91        77.0 0.36                          28.4   8 
                                                                                
