 2010 1215 0705 30.0 L  21.700 -99.346 10.0  RAL  1 0.0 1.4LRAL                1
 GAP=360        0.30       3.7     1.4  0.0 -0.2603E+01  0.2450E+01  0.8120E+01E
 ACTION:UPD 12-06-08 11:37 OP:RALL STATUS:               ID:20101215070530     I
 2010-12-15-0705-27S.PLUR1_003                                                 6
 STAT SP IPHASW D HRMM SECON CODA AMPLIT PERI AZIMU VELO AIN AR TRES W  DIS CAZ7
 LZ4  SZ E         7 5 37.01                  349.0  7.9      0        41.7 169 
 LZ4  SN IP        7 5 37.02                              99    0.0110 41.7 169 
 LZ4  SE IS        7 5 42.13                              99   -0.0110 41.7 169 
 LZ4  SZ  AML      7 5 42.97        31.6 0.36                          41.7 169 
                                                                                
