 2010 1215 0918 56.7 L  21.032 -99.124 10.0  RAL  1 0.0 0.7LRAL                1
 GAP=360        0.30       3.5     1.9  0.0 -0.5398E+01  0.2450E+01  0.8120E+01E
 ACTION:UPD 12-06-08 11:37 OP:RALL STATUS:               ID:20101215091856     I
 2010-12-15-0918-58S.PLUR1_003                                                 6
 STAT SP IPHASW D HRMM SECON CODA AMPLIT PERI AZIMU VELO AIN AR TRES W  DIS CAZ7
 LZ4  SZ E         919  2.83                  155.5 11.3      0        36.3 336 
 LZ4  SN IP        919  2.89                             101    0.0110 36.3 336 
 LZ4  SE IS        919  7.39                             101   -0.0110 36.3 336 
 LZ4  SZ  AML      919  8.51         8.7 0.24                          36.3 336 
                                                                                
