 2010 1215 1123  5.0 L  21.204 -99.152 10.0  RAL  1 0.0 0.7LRAL                1
 GAP=360        0.30       3.1     2.9  0.0 -0.8755E+01  0.2450E+01  0.8120E+01E
 ACTION:UPD 12-06-08 11:37 OP:RALL STATUS:               ID:20101215112305     I
 2010-12-15-1123-01S.PLUR1_003                                                 6
 STAT SP IPHASW D HRMM SECON CODA AMPLIT PERI AZIMU VELO AIN AR TRES W  DIS CAZ7
 LZ4  SZ E        1123  8.46                  139.0 52.7      0        18.7 319 
 LZ4  SN IP       1123  8.54                             115    0.0110 18.7 319 
 LZ4  SE IS       1123 11.14                             115   -0.0110 18.7 319 
 LZ4  SZ  AML     1123 13.07        13.7 0.44                          18.7 319 
                                                                                
