 2010 1215 1204 52.3 L  21.169 -99.269 10.0  RAL  1 0.0 1.1LRAL                1
 GAP=360        0.30       4.1     0.5  0.0 -0.6272E-01  0.2450E+01  0.8120E+01E
 ACTION:UPD 12-06-08 11:37 OP:RALL STATUS:               ID:20101215120452     I
 2010-12-15-1204-46S.PLUR1_003                                                 6
 STAT SP IPHASW D HRMM SECON CODA AMPLIT PERI AZIMU VELO AIN AR TRES W  DIS CAZ7
 LZ4  SZ E        12 4 55.68                  179.8 25.5      0        17.9 360 
 LZ4  SN IP       12 4 55.75                             117    0.0210 17.9 360 
 LZ4  SE IS       12 4 58.25                             117   -0.0210 17.9 360 
 LZ4  SZ  AML     12 4 59.41        34.6 0.22                          17.9 360 
                                                                                
