 2010 1215 1209 27.5 L  21.335 -99.272 10.0  RAL  1 0.3 1.0LRAL                1
 GAP=360        2.79     725.2   999.9  0.0  0.2325E+07  0.2450E+01  0.8120E+01E
 ACTION:UPD 12-06-08 11:37 OP:RALL STATUS:               ID:20101215120927     I
 2010-12-15-1209-20S.PLUR1_003                                                 6
 STAT SP IPHASW D HRMM SECON CODA AMPLIT PERI AZIMU VELO AIN AR TRES W  DIS CAZ7
 LZ4  SZ E        12 9 29.82                  346.0 12.2     13        0.51 153 
 LZ4  SN IP       12 9 29.82                             177    0.4810 0.51 153 
 LZ4  SE IS       12 9 30.20                             177   -0.4810 0.51 153 
 LZ4  SZ  AML     12 9 30.26        52.0 0.16                          0.51 153 
                                                                                
