 2010 1215 2140 29.7 L  21.763 -99.443  5.4  RAL  2 0.3 0.8LRAL                1
 GAP=352        4.25     141.2    59.8300.9 -0.8286E+04 -0.1721E+05  0.4122E+05E
 ACTION:UPD 12-06-08 11:37 OP:RALL STATUS:               ID:20101215214029     I
 2010-12-15-2140-26S.PLUR1_006                                                 6
 STAT SP IPHASW D HRMM SECON CODA AMPLIT PERI AZIMU VELO AIN AR TRES W  DIS CAZ7
 LA4  SZ E        2140 35.56                  348.0  9.2     12        33.9 156 
 LA4  SN IP       2140 35.59                              63    0.1310 33.9 156 
 LA4  SE IS       2140 38.67                              63   -0.9910 33.9 156 
 LA4  SZ  AML     2140 39.56        60.4 0.24                          33.9 156 
 LT9  SZ E        2140 37.42                  327.8 12.3    -15        42.4 163 
 LT9  SN IP       2140 37.45                              63    0.7010 42.4 163 
 LT9  SE IS       2140 42.06                              63    0.1610 42.4 163 
 LT9  SZ  AML     2140 42.71         1.5 0.60                          42.4 163 
                                                                                
