 2010 1216 0649 45.5 L  21.328 -99.279 10.0  RAL  1 0.1 0.7LRAL                1
 GAP=360        1.10     999.9   524.0  0.0 -0.1117E+07 -0.1721E+05  0.4122E+05E
 ACTION:UPD 12-06-08 11:37 OP:RALL STATUS:               ID:20101216064945     I
 2010-12-16-0649-37S.PLUR1_003                                                 6
 STAT SP IPHASW D HRMM SECON CODA AMPLIT PERI AZIMU VELO AIN AR TRES W  DIS CAZ7
 LZ4  SZ E         649 47.40                  258.3 28.5      5        1.02  73 
 LZ4  SN IP        649 47.51                             174    0.2010 1.02  73 
 LZ4  SE IS        649 48.45                             174   -0.2010 1.02  73 
 LZ4  SZ  AML      649 49.11        25.2 0.20                          1.02  73 
                                                                                
