 2010 1216 2334 27.6 L  21.351 -99.282 10.0  RAL  1 0.2 0.8LRAL                1
 GAP=360        0.77      35.0    21.2  0.0 -0.7425E+03 -0.1721E+05  0.4122E+05E
 ACTION:UPD 12-06-08 11:37 OP:RALL STATUS:               ID:20101216233427     I
 2010-12-16-2334-20S.PLUR1_003                                                 6
 STAT SP IPHASW D HRMM SECON CODA AMPLIT PERI AZIMU VELO AIN AR TRES W  DIS CAZ7
 LZ4  SZ E        2334 29.89                  330.5  9.1      0        2.54 150 
 LZ4  SN IP       2334 29.91                             166    0.4810 2.54 150 
 LZ4  SE IS       2334 30.32                             166   -0.4810 2.54 150 
 LZ4  SZ  AML     2334 30.42        33.1 0.22                          2.54 150 
                                                                                
