 2010 1216 2354 14.6 L  21.313 -99.258 10.0  RAL  1 0.2 0.4LRAL                1
 GAP=360        0.71      33.9    21.7  0.0 -0.7363E+03 -0.1721E+05  0.4122E+05E
 ACTION:UPD 12-06-08 11:37 OP:RALL STATUS:               ID:20101216235414     I
 2010-12-16-2354-07S.PLUR1_003                                                 6
 STAT SP IPHASW D HRMM SECON CODA AMPLIT PERI AZIMU VELO AIN AR TRES W  DIS CAZ7
 LZ4  SZ E        2354 16.88                  149.2 35.8      0        2.36 329 
 LZ4  SN IP       2354 16.89                             167    0.4310 2.36 329 
 LZ4  SE IS       2354 17.39                             167   -0.4310 2.36 329 
 LZ4  SZ  AML     2354 18.04        15.2 0.18                          2.36 329 
                                                                                
