 2010 1217 0820 17.6 L  21.230 -99.252  0.1  RAL  2 0.3 1.2LRAL                1
 GAP=349        3.19      47.0    18.2999.9 -0.8193E+03 -0.2130E+05  0.5698E+05E
 ACTION:UPD 12-06-08 11:37 OP:RALL STATUS:               ID:20101217082017     I
 2010-12-17-0820-11S.PLUR1_006                                                 6
 STAT SP IPHASW D HRMM SECON CODA AMPLIT PERI AZIMU VELO AIN AR TRES W  DIS CAZ7
 LT9  SZ E         820 21.70                  164.9  7.3      8        19.8 337 
 LT9  SN IP        820 21.71                              92    0.6010 19.8 337 
 LT9  SE IS        820 22.85                              92   -0.8010 19.8 337 
 LT9  SZ  AML      820 22.97        24.3 0.28                          19.8 337 
 LA4  SZ E         820 23.29                  156.2  6.3    -11        28.7 348 
 LA4  SN IP        820 23.29                              92    0.6310 28.7 348 
 LA4  SE IS        820 25.89                              92   -0.4310 28.7 348 
 LA4  SZ  AML      820 26.26        57.7 0.24                          28.7 348 
                                                                                
