 2010 1217 0944  1.3 L  21.229 -99.283 10.0  RAL  1 0.0-0.1LRAL                1
 GAP=360        0.30       4.0     1.2  0.0 -0.4045E+01 -0.2130E+05  0.5698E+05E
 ACTION:UPD 12-06-08 11:37 OP:RALL STATUS:               ID:20101217094401     I
 2010-12-17-0943-57S.PLUR1_003                                                 6
 STAT SP IPHASW D HRMM SECON CODA AMPLIT PERI AZIMU VELO AIN AR TRES W  DIS CAZ7
 LT9  SN IP        944  4.96                             114    0.0210 19.0 346 
 LT9  SZ E         944  5.01                  166.3  9.6      0        19.0 346 
 LT9  SE IS        944  7.54                             114   -0.0210 19.0 346 
 LT9  SZ  AML      944  7.63         2.4 0.30                          19.0 346 
                                                                                
