 2010 1217 1653 57.1 L  21.305 -99.257 10.0  RAL  1 0.1 0.8LRAL                1
 GAP=360        0.42      16.8     7.9  0.0 -0.1334E+03 -0.2130E+05  0.5698E+05E
 ACTION:UPD 12-06-08 11:37 OP:RALL STATUS:               ID:20101217165357     I
 2010-12-17-1653-50S.PLUR1_003                                                 6
 STAT SP IPHASW D HRMM SECON CODA AMPLIT PERI AZIMU VELO AIN AR TRES W  DIS CAZ7
 LZ4  SN IP       1653 59.25                             163    0.2010 3.09 336 
 LZ4  SZ E        1653 59.26                  156.2 12.4      0        3.09 336 
 LZ4  SE IS       1654  0.23                             163   -0.2010 3.09 336 
 LZ4  SZ  AML     1654  0.50        35.1 0.20                          3.09 336 
                                                                                
