 2010 1217 1425 19.5 L  21.352 -99.297 10.0  RAL  1 0.1 0.9LRAL                1
 GAP=360        0.44      10.4    13.6  0.0 -0.1408E+03 -0.2130E+05  0.5698E+05E
 ACTION:UPD 12-06-08 11:37 OP:RALL STATUS:               ID:20101217142519     I
 2010-12-17-1425-12S.PLUR1_003                                                 6
 STAT SP IPHASW D HRMM SECON CODA AMPLIT PERI AZIMU VELO AIN AR TRES W  DIS CAZ7
 LZ4  SZ E        1425 21.66                  309.3 22.6      0        3.64 129 
 LZ4  SN IP       1425 21.69                             160    0.2210 3.64 129 
 LZ4  SE IS       1425 22.66                             160   -0.2210 3.64 129 
 LZ4  SZ  AML     1425 22.93        40.1 0.12                          3.64 129 
                                                                                
