 2010 1217 1614 49.1 L  21.351 -99.287 10.0  RAL  1 0.1 0.4LRAL                1
 GAP=360        0.63      22.3    20.3  0.0 -0.4532E+03 -0.2130E+05  0.5698E+05E
 ACTION:UPD 12-06-08 11:37 OP:RALL STATUS:               ID:20101217161449     I
 2010-12-17-1614-42S.PLUR1_003                                                 6
 STAT SP IPHASW D HRMM SECON CODA AMPLIT PERI AZIMU VELO AIN AR TRES W  DIS CAZ7
 LZ4  SN IP       1614 51.35                             164    0.3810 2.87 140 
 LZ4  SZ E        1614 51.36                  319.6 12.5      0        2.87 140 
 LZ4  SE IS       1614 51.98                             164   -0.3810 2.87 140 
 LZ4  SZ  AML     1614 52.43        12.3 0.42                          2.87 140 
                                                                                
