 2010 1217 1742 17.1 L  21.347 -99.291 10.0  RAL  1 0.1 2.3LRAL                1
 GAP=360        0.53      15.8    20.2  0.0 -0.3198E+03 -0.2130E+05  0.5698E+05E
 ACTION:UPD 12-06-08 11:37 OP:RALL STATUS:               ID:20101217174217     I
 2010-12-17-1742-09S.PLUR1_003                                                 6
 STAT SP IPHASW D HRMM SECON CODA AMPLIT PERI AZIMU VELO AIN AR TRES W  DIS CAZ7
 LZ4  SZ E        1742 19.29                  310.0 19.2      0        2.86 130 
 LZ4  SN IP       1742 19.30                             164    0.3010 2.86 130 
 LZ4  SE IS       1742 20.09                             164   -0.3010 2.86 130 
 LZ4  SZ  AML     1742 20.49      1104.9 0.46                          2.86 130 
                                                                                
