 2010 1217 1558 41.5 L  21.339 -99.293 10.0  RAL  1 0.1 0.3LRAL                1
 GAP=360        0.42     678.6   298.4  0.0  0.2025E+06 -0.2130E+05  0.5698E+05E
 ACTION:UPD 12-06-08 11:37 OP:RALL STATUS:               ID:20101217155841     I
 2010-12-17-1558-34S.PLUR1_003                                                 6
 STAT SP IPHASW D HRMM SECON CODA AMPLIT PERI AZIMU VELO AIN AR TRES W  DIS CAZ7
 LZ4  SZ E        1558 43.55                  290.7 23.7      0        2.61 111 
 LZ4  SN IP       1558 43.56                             166    0.2010 2.61 111 
 LZ4  SE IS       1558 44.54                             166   -0.2010 2.61 111 
 LZ4  SZ  AML     1558 44.70        10.9 0.10                          2.61 111 
                                                                                
