 2010 1218 0838 32.2 L  21.304 -99.251 10.0  RAL  1 0.1 1.5LRAL                1
 GAP=360        0.42      13.4     9.5  0.0 -0.1273E+03 -0.2130E+05  0.5698E+05E
 ACTION:UPD 12-06-08 11:37 OP:RALL STATUS:               ID:20101218083832     I
 2010-12-18-0838-24S.PLUR1_003                                                 6
 STAT SP IPHASW D HRMM SECON CODA AMPLIT PERI AZIMU VELO AIN AR TRES W  DIS CAZ7
 LZ4  SZ E         838 34.33                  146.5 13.4      0        3.55 327 
 LZ4  SN IP        838 34.35                             161    0.2010 3.55 327 
 LZ4  SE IS        838 35.35                             161   -0.2010 3.55 327 
 LZ4  SZ  AML      838 35.73       180.9 0.24                          3.55 327 
                                                                                
