 2010 1218 0844 58.2 L  21.345 -99.265 10.0  RAL  1 0.1 0.2LRAL                1
 GAP=360        0.59     630.2   999.9  0.0 -0.1713E+07 -0.2130E+05  0.5698E+05E
 ACTION:UPD 12-06-08 11:37 OP:RALL STATUS:               ID:20101218084458     I
 2010-12-18-0844-51S.PLUR1_003                                                 6
 STAT SP IPHASW D HRMM SECON CODA AMPLIT PERI AZIMU VELO AIN AR TRES W  DIS CAZ7
 LZ4  SZ E         845  0.18                   15.2 89.7      0        1.62 195 
 LZ4  SN IP        845  0.37                             171    0.3510 1.62 195 
 LZ4  SE IS        845  1.03                             171   -0.3510 1.62 195 
 LZ4  SZ  AML      845  1.19         7.9 0.16                          1.62 195 
                                                                                
