 2010 1218 0911 52.5 L  21.170 -99.231 10.0  RAL  1 0.0 1.5LRAL                1
 GAP=360        0.30       4.0     1.1  0.0 -0.3926E+01 -0.2130E+05  0.5698E+05E
 ACTION:UPD 12-06-08 11:37 OP:RALL STATUS:               ID:20101218091152     I
 2010-12-18-0911-46S.PLUR1_003                                                 6
 STAT SP IPHASW D HRMM SECON CODA AMPLIT PERI AZIMU VELO AIN AR TRES W  DIS CAZ7
 LZ4  SZ E         911 56.02                  167.2 29.3      0        18.2 347 
 LZ4  SN IP        911 56.09                             116    0.0210 18.2 347 
 LZ4  SE IS        911 58.61                             116   -0.0210 18.2 347 
 LZ4  SZ  AML      911 59.12        83.0 0.54                          18.2 347 
                                                                                
