 2010 1218 1133 34.0 L  21.591 -99.351 10.0  RAL  1 0.0 0.4LRAL                1
 GAP=360        0.30       4.4     1.8  0.0 -0.7529E+01 -0.2130E+05  0.5698E+05E
 ACTION:UPD 12-06-08 11:37 OP:RALL STATUS:               ID:20101218113334     I
 2010-12-18-1133-29S.PLUR1_003                                                 6
 STAT SP IPHASW D HRMM SECON CODA AMPLIT PERI AZIMU VELO AIN AR TRES W  DIS CAZ7
 LA4  SN IP       1133 36.78                             127    0.0110 12.6 160 
 LA4  SZ E        1133 36.86                  339.7  7.4      0        12.6 160 
 LA4  SE IS       1133 38.80                             127   -0.0110 12.6 160 
 LA4  SZ  AML     1133 39.32         8.1 0.14                          12.6 160 
                                                                                
