 2010 1218 1818 16.4 L  21.127 -99.162 10.0  RAL  1 0.0 0.7LRAL                1
 GAP=360        0.30       3.5     2.0  0.0 -0.6343E+01 -0.2130E+05  0.5698E+05E
 ACTION:UPD 12-06-08 11:37 OP:RALL STATUS:               ID:20101218181816     I
 2010-12-18-1818-14S.PLUR1_003                                                 6
 STAT SP IPHASW D HRMM SECON CODA AMPLIT PERI AZIMU VELO AIN AR TRES W  DIS CAZ7
 LZ4  SZ E        1818 20.95                  153.6 32.2      0        25.2 334 
 LZ4  SN IP       1818 20.96                             108    0.0310 25.2 334 
 LZ4  SE IS       1818 24.21                             108   -0.0310 25.2 334 
 LZ4  SZ  AML     1818 25.14        12.0 0.40                          25.2 334 
                                                                                
