 2010 1218 1838  4.3 L  21.428 -99.353 10.0  RAL  1 0.0 0.6LRAL                1
 GAP=360        0.30       3.5     3.1  0.0 -0.1054E+02 -0.2130E+05  0.5698E+05E
 ACTION:UPD 12-06-08 11:37 OP:RALL STATUS:               ID:20101218183804     I
 2010-12-18-1837-59S.PLUR1_003                                                 6
 STAT SP IPHASW D HRMM SECON CODA AMPLIT PERI AZIMU VELO AIN AR TRES W  DIS CAZ7
 LZ4  SZ E        1838  7.22                  321.0 17.4      0        13.8 141 
 LZ4  SN IP       1838  7.22                             124    0.0210 13.8 141 
 LZ4  SE IS       1838  9.32                             124   -0.0210 13.8 141 
 LZ4  SZ  AML     1838 10.19        12.9 0.74                          13.8 141 
                                                                                
