 2010 1218 1434 35.2 L  21.335 -99.290 10.0  RAL  1 0.2 0.8LRAL                1
 GAP=360        0.73     147.8    84.7  0.0  0.1252E+05 -0.2130E+05  0.5698E+05E
 ACTION:UPD 12-06-08 11:37 OP:RALL STATUS:               ID:20101218143435     I
 2010-12-18-1434-28S.PLUR1_003                                                 6
 STAT SP IPHASW D HRMM SECON CODA AMPLIT PERI AZIMU VELO AIN AR TRES W  DIS CAZ7
 LZ4  SZ E        1434 37.46                  283.1 41.6      0        2.20 103 
 LZ4  SN IP       1434 37.51                             168    0.4510 2.20 103 
 LZ4  SE IS       1434 37.97                             168   -0.4510 2.20 103 
 LZ4  SZ  AML     1434 38.32        31.1 0.16                          2.20 103 
                                                                                
