 2010 1218 1326 34.6 L  21.504 -99.339 10.0  RAL  1 0.1 0.2LRAL                1
 GAP=360        0.37       7.8    11.4  0.0 -0.8813E+02 -0.2130E+05  0.5698E+05E
 ACTION:UPD 12-06-08 11:37 OP:RALL STATUS:               ID:20101218132634     I
 2010-12-18-1326-28S.PLUR1_003                                                 6
 STAT SP IPHASW D HRMM SECON CODA AMPLIT PERI AZIMU VELO AIN AR TRES W  DIS CAZ7
 LA4  SZ E        1326 36.68                  306.3 10.9      0        3.86 126 
 LA4  SN IP       1326 36.68                             159    0.1510 3.86 126 
 LA4  SE IS       1326 37.81                             159   -0.1510 3.86 126 
 LA4  SZ  AML     1326 38.07         7.5 0.24                          3.86 126 
                                                                                
