 2010 1218 2353 20.2 L  21.216 -99.288 10.0  RAL  1 0.0 0.1LRAL                1
 GAP=360        0.30       3.9     1.0  0.0 -0.3297E+01 -0.2130E+05  0.5698E+05E
 ACTION:UPD 12-06-08 11:37 OP:RALL STATUS:               ID:20101218235320     I
 2010-12-18-2353-17S.PLUR1_003                                                 6
 STAT SP IPHASW D HRMM SECON CODA AMPLIT PERI AZIMU VELO AIN AR TRES W  DIS CAZ7
 LT9  SZ E        2353 24.01                  168.6  8.7      0        20.3 349 
 LT9  SN IP       2353 24.02                             112    0.0210 20.3 349 
 LT9  SE IS       2353 26.74                             112   -0.0210 20.3 349 
 LT9  SZ  AML     2353 27.09         3.4 0.34                          20.3 349 
                                                                                
