 2010 1219 0939 13.3 L  21.349 -99.290 10.0  RAL  1 0.2 0.6LRAL                1
 GAP=360        0.66      20.7    23.6  0.0 -0.4877E+03 -0.2130E+05  0.5698E+05E
 ACTION:UPD 12-06-08 11:37 OP:RALL STATUS:               ID:20101219093913     I
 2010-12-19-0939-05S.PLUR1_003                                                 6
 STAT SP IPHASW D HRMM SECON CODA AMPLIT PERI AZIMU VELO AIN AR TRES W  DIS CAZ7
 LZ4  SZ E         939 15.56                  313.3 11.2      0        2.94 133 
 LZ4  SN IP        939 15.56                             164    0.4010 2.94 133 
 LZ4  SZ  AML      939 16.10        23.1 0.20                          2.94 133 
 LZ4  SE IS        939 16.14                             164   -0.4010 2.94 133 
                                                                                
