 2010 1219 0953 22.7 L  21.293 -99.243 10.0  RAL  1 0.0 0.4LRAL                1
 GAP=360        0.32       7.4     5.3  0.0 -0.3944E+02 -0.2130E+05  0.5698E+05E
 ACTION:UPD 12-06-08 11:37 OP:RALL STATUS:               ID:20101219095322     I
 2010-12-19-0953-16S.PLUR1_003                                                 6
 STAT SP IPHASW D HRMM SECON CODA AMPLIT PERI AZIMU VELO AIN AR TRES W  DIS CAZ7
 LZ4  SN IP        953 24.78                             154    0.0710 5.02 326 
 LZ4  SZ E         953 24.79                  146.4 14.2      0        5.02 326 
 LZ4  SE IS        953 26.10                             154   -0.0710 5.02 326 
 LZ4  SZ  AML      953 26.69        13.8 0.10                          5.02 326 
                                                                                
