 2010 1219 0805  3.6 L  21.344 -99.282 10.0  RAL  1 0.2 1.4LRAL                1
 GAP=360        0.87      45.0    42.4  0.0 -0.1909E+04 -0.2130E+05  0.5698E+05E
 ACTION:UPD 12-06-08 11:37 OP:RALL STATUS:               ID:20101219080503     I
 2010-12-19-0804-56S.PLUR1_003                                                 6
 STAT SP IPHASW D HRMM SECON CODA AMPLIT PERI AZIMU VELO AIN AR TRES W  DIS CAZ7
 LZ4  SZ E         8 5  5.96                  318.7 13.0      0        1.90 139 
 LZ4  SN IP        8 5  5.98                             170    0.5510 1.90 139 
 LZ4  SE IS        8 5  6.23                             170   -0.5510 1.90 139 
 LZ4  SZ  AML      8 5  6.32       126.2 0.16                          1.90 139 
                                                                                
