 2010 1219 0519 21.8 L  21.531 -99.504 10.0  RAL  1 0.0 1.2LRAL                1
 GAP=360        0.30       2.6     3.1  0.0 -0.7379E+01 -0.2130E+05  0.5698E+05E
 ACTION:UPD 12-06-08 11:37 OP:RALL STATUS:               ID:20101219051921     I
 2010-12-19-0519-18S.PLUR1_003                                                 6
 STAT SP IPHASW D HRMM SECON CODA AMPLIT PERI AZIMU VELO AIN AR TRES W  DIS CAZ7
 LZ4  SZ E         519 27.45                  312.5 17.6      0        32.9 132 
 LZ4  SN IP        519 27.47                             103    0.0210 32.9 132 
 LZ4  SE IS        519 31.57                             103   -0.0210 32.9 132 
 LZ4  SZ  AML      519 31.85        26.6 0.36                          32.9 132 
                                                                                
