 2010 1219 0402 24.7 L  21.341 -99.288 10.0  RAL  1 0.2 1.3LRAL                1
 GAP=360        0.79     999.9   834.7  0.0  0.1027E+07 -0.2130E+05  0.5698E+05E
 ACTION:UPD 12-06-08 11:37 OP:RALL STATUS:               ID:20101219040224     I
 2010-12-19-0402-17S.PLUR1_003                                                 6
 STAT SP IPHASW D HRMM SECON CODA AMPLIT PERI AZIMU VELO AIN AR TRES W  DIS CAZ7
 LZ4  SZ E         4 2 27.03                  300.5 18.1      0        2.28 121 
 LZ4  SN IP        4 2 27.06                             168    0.5010 2.28 121 
 LZ4  SE IS        4 2 27.43                             168   -0.5010 2.28 121 
 LZ4  SZ  AML      4 2 27.51       104.6 0.16                          2.28 121 
                                                                                
