 2010 1219 1507 51.4 L  21.333 -99.392 10.0  RAL  1 0.0 0.7LRAL                1
 GAP=360        0.30       0.3     5.0  0.0 -0.4217E+00 -0.2130E+05  0.5698E+05E
 ACTION:UPD 12-06-08 11:37 OP:RALL STATUS:               ID:20101219150751     I
 2010-12-19-1507-47S.PLUR1_003                                                 6
 STAT SP IPHASW D HRMM SECON CODA AMPLIT PERI AZIMU VELO AIN AR TRES W  DIS CAZ7
 LZ4  SZ E        15 7 54.10                  271.1 17.6      0        12.7  91 
 LZ4  SN IP       15 7 54.18                             127    0.0010 12.7  91 
 LZ4  SE IS       15 7 56.21                             127    0.0010 12.7  91 
 LZ4  SZ  AML     15 7 57.01        18.2 0.62                          12.7  91 
                                                                                
