 2010 1219 1349 17.4 L  21.307 -99.249 10.0  RAL  1 0.1 0.8LRAL                1
 GAP=360        0.41      12.9    10.8  0.0 -0.1397E+03 -0.2130E+05  0.5698E+05E
 ACTION:UPD 12-06-08 11:37 OP:RALL STATUS:               ID:20101219134917     I
 2010-12-19-1349-10S.PLUR1_003                                                 6
 STAT SP IPHASW D HRMM SECON CODA AMPLIT PERI AZIMU VELO AIN AR TRES W  DIS CAZ7
 LZ4  SZ E        1349 19.53                  142.0 14.3      0        3.40 322 
 LZ4  SN IP       1349 19.53                             162    0.1910 3.40 322 
 LZ4  SE IS       1349 20.54                             162   -0.1910 3.40 322 
 LZ4  SZ  AML     1349 21.17        37.7 0.20                          3.40 322 
                                                                                
