 2010 1219 1833 26.1 L  21.323 -99.430 10.0  RAL  1 0.0 0.8LRAL                1
 GAP=360        0.30       0.5     4.5  0.0  0.1045E+01 -0.2130E+05  0.5698E+05E
 ACTION:UPD 12-06-08 11:37 OP:RALL STATUS:               ID:20101219183326     I
 2010-12-19-1833-20S.PLUR1_003                                                 6
 STAT SP IPHASW D HRMM SECON CODA AMPLIT PERI AZIMU VELO AIN AR TRES W  DIS CAZ7
 LZ4  SZ E        1833 29.37                  266.9 18.8      0        16.7  87 
 LZ4  SN IP       1833 29.46                             119    0.0210 16.7  87 
 LZ4  SE IS       1833 31.83                             119   -0.0210 16.7  87 
 LZ4  SZ  AML     1833 33.68        19.9 0.28                          16.7  87 
                                                                                
