 2010 1219 1210 14.0 L  21.314 -99.270 10.0  RAL  1 0.1 0.3LRAL                1
 GAP=360        0.63      67.4   608.9  0.0 -0.3412E+05 -0.2130E+05  0.5698E+05E
 ACTION:UPD 12-06-08 11:37 OP:RALL STATUS:               ID:20101219121014     I
 2010-12-19-1210-07S.PLUR1_003                                                 6
 STAT SP IPHASW D HRMM SECON CODA AMPLIT PERI AZIMU VELO AIN AR TRES W  DIS CAZ7
 LZ4  SZ E        1210 16.22                  183.1 35.6      0        1.85   3 
 LZ4  SN IP       1210 16.26                             170    0.3810 1.85   3 
 LZ4  SE IS       1210 16.86                             170   -0.3810 1.85   3 
 LZ4  SZ  AML     1210 17.38        12.0 0.22                          1.85   3 
                                                                                
