 2010 1220 0632 39.8 L  20.977 -99.049 10.0  RAL  1 0.0 1.2LRAL                1
 GAP=360        0.30       3.3     2.3  0.0 -0.5897E+01 -0.2130E+05  0.5698E+05E
 ACTION:UPD 12-06-08 11:37 OP:RALL STATUS:               ID:20101220063239     I
 2010-12-20-0632-38S.PLUR1_003                                                 6
 STAT SP IPHASW D HRMM SECON CODA AMPLIT PERI AZIMU VELO AIN AR TRES W  DIS CAZ7
 LZ4  SZ E         632 47.33                  149.6  6.3      0        45.4 330 
 LZ4  SN IP        632 47.41                              98    0.0110 45.4 330 
 LZ4  SE IS        632 52.92                              98   -0.0110 45.4 330 
 LZ4  SZ  AML      632 54.74        18.7 0.26                          45.4 330 
                                                                                
