 2010 1220 1251  8.8 L  21.834 -99.559  5.1  RAL  2 0.2 1.3LRAL                1
 GAP=353        3.22     139.7    89.3317.7 -0.1235E+05 -0.2777E+05  0.4369E+05E
 ACTION:UPD 12-06-08 11:37 OP:RALL STATUS:               ID:20101220125108     I
 2010-12-20-1251-07S.PLUR1_006                                                 6
 STAT SP IPHASW D HRMM SECON CODA AMPLIT PERI AZIMU VELO AIN AR TRES W  DIS CAZ7
 LA4  SZ E        1251 15.89                  336.0  8.7     10        46.7 146 
 LA4  SN IP       1251 15.97                              63   -0.2110 46.7 146 
 LA4  SE IS       1251 21.05                              63   -0.5310 46.7 146 
 LA4  SZ  AML     1251 23.11       101.1 0.34                          46.7 146 
 LT9  SN IP       1251 17.82                              63    0.4910 54.3 154 
 LT9  SZ E        1251 17.85                  321.9 10.1    -11        54.3 154 
 LT9  SE IS       1251 23.81                              63    0.2510 54.3 154 
 LT9  SZ  AML     1251 25.32         5.1 0.66                          54.3 154 
                                                                                
