 2010 1220 1421 22.1 L  21.607 -99.456 10.0  RAL  1 0.0 1.1LRAL                1
 GAP=360        0.30       3.2     2.3  0.0 -0.6524E+01 -0.2777E+05  0.4369E+05E
 ACTION:UPD 12-06-08 11:37 OP:RALL STATUS:               ID:20101220142122     I
 2010-12-20-1421-23S.PLUR1_003                                                 6
 STAT SP IPHASW D HRMM SECON CODA AMPLIT PERI AZIMU VELO AIN AR TRES W  DIS CAZ7
 LZ4  SN IP       1421 28.33                             101    0.0210 36.1 148 
 LZ4  SZ E        1421 28.39                  327.7 12.7      0        36.1 148 
 LZ4  SE IS       1421 32.80                             101   -0.0210 36.1 148 
 LZ4  SZ  AML     1421 33.38        20.9 0.42                          36.1 148 
                                                                                
