 2010 1220 1627  2.1 L  21.333 -99.279 10.0  RAL  1 0.1 0.8LRAL                1
 GAP=360        0.78     999.9   484.3  0.0  0.5647E+06 -0.2777E+05  0.4369E+05E
 ACTION:UPD 12-06-08 11:37 OP:RALL STATUS:               ID:20101220162702     I
 2010-12-20-1626-54S.PLUR1_003                                                 6
 STAT SP IPHASW D HRMM SECON CODA AMPLIT PERI AZIMU VELO AIN AR TRES W  DIS CAZ7
 LZ4  SZ E        1627  4.16                  289.3 36.6      3        0.99 106 
 LZ4  SN IP       1627  4.21                             175    0.2910 0.99 106 
 LZ4  SE IS       1627  4.98                             175   -0.2910 0.99 106 
 LZ4  SZ  AML     1627  6.14        33.5 0.18                          0.99 106 
                                                                                
