 2010 1220 1155  6.9 L  21.313 -99.261 10.0  RAL  1 0.1 0.3LRAL                1
 GAP=360        0.56      31.3    15.7  0.0 -0.4901E+03 -0.2130E+05  0.5698E+05E
 ACTION:UPD 12-06-08 11:37 OP:RALL STATUS:               ID:20101220115506     I
 2010-12-20-1155-00S.PLUR1_003                                                 6
 STAT SP IPHASW D HRMM SECON CODA AMPLIT PERI AZIMU VELO AIN AR TRES W  DIS CAZ7
 LZ4  SZ E        1155  9.07                  154.5 14.3      0        2.14 335 
 LZ4  SN IP       1155  9.07                             168    0.3210 2.14 335 
 LZ4  SE IS       1155  9.80                             168   -0.3210 2.14 335 
 LZ4  SZ  AML     1155  9.92        11.5 0.22                          2.14 335 
                                                                                
