 2010 1221 0634 29.0 L  21.523 -99.322 10.0  RAL  1 0.0 0.4LRAL                1
 GAP=360        0.30       8.8     2.9  0.0 -0.2513E+02 -0.8659E+04  0.7246E+04E
 ACTION:UPD 12-06-08 11:37 OP:RALL STATUS:               ID:20101221063429     I
 2010-12-21-0634-22S.PLUR1_003                                                 6
 STAT SP IPHASW D HRMM SECON CODA AMPLIT PERI AZIMU VELO AIN AR TRES W  DIS CAZ7
 LA4  SN IP        634 31.00                             156    0.0310 4.58 163 
 LA4  SZ E         634 31.02                  343.2  7.7      0        4.58 163 
 LA4  SE IS        634 32.40                             156   -0.0310 4.58 163 
 LA4  SZ  AML      634 33.30        11.6 0.14                          4.58 163 
                                                                                
