 2010 1221 0151 47.3 L  21.296 -99.164  6.5  RAL  2 0.4 0.7LRAL                1
 GAP=339        3.05      15.2    18.5737.5 -0.2613E+03 -0.8659E+04  0.7246E+04E
 ACTION:UPD 12-06-08 11:37 OP:RALL STATUS:               ID:20101221015147     I
 2010-12-21-0151-42S.PLUR1_006                                                 6
 STAT SP IPHASW D HRMM SECON CODA AMPLIT PERI AZIMU VELO AIN AR TRES W  DIS CAZ7
 LT9  SZ E         151 52.04                  130.2 49.3      7        20.1 303 
 LT9  SN IP        151 52.13                              92    1.1910 20.1 303 
 LT9  SE IS        151 53.70                              92    0.1210 20.1 303 
 LT9  SZ  AML      151 53.96         3.3 0.34                          20.1 303 
 LA4  SZ E         151 51.97                  135.1  9.2     -8        25.7 324 
 LA4  SN IP        151 51.99                              93    0.1610 25.7 324 
 LA4  SE IS        151 53.64                              93   -1.4710 25.7 324 
 LA4  SZ  AML      151 53.95        51.9 0.20                          25.7 324 
                                                                                
