 2010 1221 0834  5.6 L  21.317 -99.233 10.0  RAL  1 0.0 0.3LRAL                1
 GAP=360        0.31       4.0    10.6  0.0 -0.4223E+02 -0.8659E+04  0.7246E+04E
 ACTION:UPD 12-06-08 11:37 OP:RALL STATUS:               ID:20101221083405     I
 2010-12-21-0833-58S.PLUR1_003                                                 6
 STAT SP IPHASW D HRMM SECON CODA AMPLIT PERI AZIMU VELO AIN AR TRES W  DIS CAZ7
 LZ4  SZ E         834  7.60                  111.8 30.8      0        4.05 292 
 LZ4  SN IP        834  7.65                             158    0.0710 4.05 292 
 LZ4  SE IS        834  8.93                             158   -0.0710 4.05 292 
 LZ4  SZ  AML      834 10.04        11.5 0.12                          4.05 292 
                                                                                
