 2010 1221 1204 26.8 L  21.348 -99.292 10.0  RAL  1 0.1 0.1LRAL                1
 GAP=360        0.50      13.8    18.3  0.0 -0.2525E+03 -0.8659E+04  0.7246E+04E
 ACTION:UPD 12-06-08 11:37 OP:RALL STATUS:               ID:20101221120426     I
 2010-12-21-1204-20S.PLUR1_003                                                 6
 STAT SP IPHASW D HRMM SECON CODA AMPLIT PERI AZIMU VELO AIN AR TRES W  DIS CAZ7
 LZ4  SZ E        12 4 28.94                  308.9 20.7      0        3.06 129 
 LZ4  SN IP       12 4 29.01                             163    0.2710 3.06 129 
 LZ4  SE IS       12 4 29.85                             163   -0.2710 3.06 129 
 LZ4  SZ  AML     12 4 31.26         7.0 0.32                          3.06 129 
                                                                                
