 2010 1221 1654 39.9 L  21.327 -99.278 10.0  RAL  1 0.1 0.3LRAL                1
 GAP=360        1.05     999.9   999.9  0.0 -0.4083E+07 -0.8659E+04  0.7246E+04E
 ACTION:UPD 12-06-08 11:37 OP:RALL STATUS:               ID:20101221165439     I
 2010-12-21-1654-33S.PLUR1_003                                                 6
 STAT SP IPHASW D HRMM SECON CODA AMPLIT PERI AZIMU VELO AIN AR TRES W  DIS CAZ7
 LZ4  SZ E        1654 41.93                  249.3 35.2      4        0.98  65 
 LZ4  SN IP       1654 42.04                             175    0.3210 0.98  65 
 LZ4  SE IS       1654 42.74                             175   -0.3210 0.98  65 
 LZ4  SZ  AML     1654 42.91        10.5 0.22                          0.98  65 
                                                                                
