 2010 1221 1640  7.1 L  21.318 -99.268 10.0  RAL  1 0.1 1.3LRAL                1
 GAP=360        0.56     116.6   999.9  0.0  0.1686E+06 -0.8659E+04  0.7246E+04E
 ACTION:UPD 12-06-08 11:37 OP:RALL STATUS:               ID:20101221164007     I
 2010-12-21-1639-59S.PLUR1_003                                                 6
 STAT SP IPHASW D HRMM SECON CODA AMPLIT PERI AZIMU VELO AIN AR TRES W  DIS CAZ7
 LZ4  SZ E        1640  9.05                  174.9 20.6      2        1.45 353 
 LZ4  SN IP       1640  9.06                             172    0.1610 1.45 353 
 LZ4  SE IS       1640 10.09                             172   -0.1610 1.45 353 
 LZ4  SZ  AML     1640 10.21       101.5 0.16                          1.45 353 
                                                                                
