 2010 1221 1106  2.5 L  21.420 -99.259 10.0  RAL  1 0.0 1.3LRAL                1
 GAP=360        0.30       5.2     0.7  0.0  0.3121E+01 -0.8659E+04  0.7246E+04E
 ACTION:UPD 12-06-08 11:37 OP:RALL STATUS:               ID:20101221110602     I
 2010-12-21-1105-55S.PLUR1_003                                                 6
 STAT SP IPHASW D HRMM SECON CODA AMPLIT PERI AZIMU VELO AIN AR TRES W  DIS CAZ7
 LZ4  SZ E        11 6  4.94                    6.2 11.5      0        9.93 186 
 LZ4  SN IP       11 6  4.95                             135    0.0010 9.93 186 
 LZ4  SE IS       11 6  6.74                             135    0.0010 9.93 186 
 LZ4  SZ  AML     11 6  6.83        81.3 0.20                          9.93 186 
                                                                                
