 2010 1221 1455 43.3 L  21.344 -99.295 10.0  RAL  1 0.1 0.1LRAL                1
 GAP=360        0.48      10.1    19.8  0.0 -0.2007E+03 -0.8659E+04  0.7246E+04E
 ACTION:UPD 12-06-08 11:37 OP:RALL STATUS:               ID:20101221145543     I
 2010-12-21-1455-36S.PLUR1_003                                                 6
 STAT SP IPHASW D HRMM SECON CODA AMPLIT PERI AZIMU VELO AIN AR TRES W  DIS CAZ7
 LZ4  SZ E        1455 45.41                  298.7 20.9      0        3.03 119 
 LZ4  SN IP       1455 45.47                             164    0.2510 3.03 119 
 LZ4  SE IS       1455 46.35                             164   -0.2510 3.03 119 
 LZ4  SZ  AML     1455 46.64         7.6 0.16                          3.03 119 
                                                                                
