 2010 1222 0651 59.7 L  21.491 -99.334 10.0  RAL  1 0.0 0.0LRAL                1
 GAP=360        0.33       5.0    16.5  0.0 -0.8229E+02 -0.8659E+04  0.7246E+04E
 ACTION:UPD 12-06-08 11:37 OP:RALL STATUS:               ID:20101222065159     I
 2010-12-22-0651-53S.PLUR1_003                                                 6
 STAT SP IPHASW D HRMM SECON CODA AMPLIT PERI AZIMU VELO AIN AR TRES W  DIS CAZ7
 LA4  SZ E         652  1.19                  288.0 10.8      0        2.74 108 
 LA4  SN IP        652  1.69                             165    0.1010 2.74 108 
 LA4  SE IS        652  2.88                             165   -0.1010 2.74 108 
 LA4  SZ  AML      652  2.96         5.7 0.22                          2.74 108 
                                                                                
