 2010 1222 1719 53.2 L  21.231 -99.217  0.0  RAL  2 0.3 0.2LRAL                1
 GAP=347        2.94      33.6    18.9999.9 -0.6070E+03 -0.1776E+05  0.3259E+05E
 ACTION:UPD 12-06-08 11:37 OP:RALL STATUS:               ID:20101222171953     I
 2010-12-22-1719-49S.PLUR1_006                                                 6
 STAT SP IPHASW D HRMM SECON CODA AMPLIT PERI AZIMU VELO AIN AR TRES W  DIS CAZ7
 LT9  SZ E        1719 57.32                  155.8  8.2      8        21.4 328 
 LT9  SZ IPg      1719 57.33                              92    0.3510 21.4 328 
 LT9  SN IP       1719 57.34                              92    0.3610 21.4 328 
 LT9  SE IS       1719 58.76                              92   -0.9610 21.4 328 
 LT9  SZ  AML     1719 59.17         1.6 0.28                          21.4 328 
 LA4  SZ E        1719 59.13                  150.0  6.2    -10        29.6 341 
 LA4  SN IP       1719 59.13                              92    0.7210 29.6 341 
 LA4  SE IS       1720  1.72                              92   -0.4610 29.6 341 
 LA4  SZ  AML     1720  2.27         7.9 0.12                          29.6 341 
                                                                                
