 2010 1222 1055 15.7 L  21.323 -99.270 10.0  RAL  1 0.1 0.3LRAL                1
 GAP=360        1.29     219.0   353.5  0.0 -0.7739E+05 -0.8659E+04  0.7246E+04E
 ACTION:UPD 12-06-08 11:37 OP:RALL STATUS:               ID:20101222105515     I
 2010-12-22-1055-08S.PLUR1_003                                                 6
 STAT SP IPHASW D HRMM SECON CODA AMPLIT PERI AZIMU VELO AIN AR TRES W  DIS CAZ7
 LZ4  SZ E        1055 17.74                  180.1 20.8     -5        0.91   6 
 LZ4  SN IP       1055 17.74                             175    0.1710 0.91   6 
 LZ4  SE IS       1055 18.75                             175   -0.1710 0.91   6 
 LZ4  SZ  AML     1055 18.96        12.1 0.20                          0.91   6 
                                                                                
