 2010 1223 0708 23.9 L  21.609 -99.329 10.0  RAL  1 0.0 0.8LRAL                1
 GAP=360        0.30       4.4     0.8  0.0 -0.3109E+01 -0.1776E+05  0.3259E+05E
 ACTION:UPD 12-06-08 11:37 OP:RALL STATUS:               ID:20101223070823     I
 2010-12-23-0708-17S.PLUR1_003                                                 6
 STAT SP IPHASW D HRMM SECON CODA AMPLIT PERI AZIMU VELO AIN AR TRES W  DIS CAZ7
 LA4  SZ E         7 8 26.80                  351.5  6.6      0        14.0 171 
 LA4  SN IP        7 8 26.82                             124    0.0010 14.0 171 
 LA4  SE IS        7 8 28.98                             124    0.0010 14.0 171 
 LA4  SZ  AML      7 8 29.13        23.2 0.12                          14.0 171 
                                                                                
