 2010 1223 0250 56.1 L  21.335 -99.312 10.0  RAL  1 0.1 0.9LRAL                1
 GAP=360        0.54       2.0    18.2  0.0 -0.3538E+02 -0.1776E+05  0.3259E+05E
 ACTION:UPD 12-06-08 11:37 OP:RALL STATUS:               ID:20101223025056     I
 2010-12-23-0250-49S.PLUR1_003                                                 6
 STAT SP IPHASW D HRMM SECON CODA AMPLIT PERI AZIMU VELO AIN AR TRES W  DIS CAZ7
 LZ4  SZ E         250 58.18                  275.2 33.4      0        4.45  97 
 LZ4  SN IP        250 58.31                             157    0.2410 4.45  97 
 LZ4  SE IS        250 59.27                             157   -0.2410 4.45  97 
 LZ4  SZ  AML      250 59.62        39.6 0.30                          4.45  97 
                                                                                
