 2010 1223 0225 30.3 L  21.327 -99.281 10.0  RAL  1 0.2 0.7LRAL                1
 GAP=360        0.74     999.9   999.9  0.0 -0.4107E+07 -0.1776E+05  0.3259E+05E
 ACTION:UPD 12-06-08 11:37 OP:RALL STATUS:               ID:20101223022530     I
 2010-12-23-0225-23S.PLUR1_003                                                 6
 STAT SP IPHASW D HRMM SECON CODA AMPLIT PERI AZIMU VELO AIN AR TRES W  DIS CAZ7
 LZ4  SN IP        225 32.59                             173    0.4610 1.27  71 
 LZ4  SZ E         225 32.60                  251.0 17.2      0        1.27  71 
 LZ4  SE IS        225 33.02                             173   -0.4610 1.27  71 
 LZ4  SZ  AML      225 33.20        31.0 0.24                          1.27  71 
                                                                                
