 2010 1223 0330 22.4 L  21.311 -99.410 10.0  RAL  1 0.0 2.1LRAL                1
 GAP=360        0.30       0.8     4.6  0.0  0.3064E+01 -0.1776E+05  0.3259E+05E
 ACTION:UPD 12-06-08 11:37 OP:RALL STATUS:               ID:20101223033022     I
 2010-12-23-0330-16S.PLUR1_003                                                 6
 STAT SP IPHASW D HRMM SECON CODA AMPLIT PERI AZIMU VELO AIN AR TRES W  DIS CAZ7
 LZ4  SZ E         330 25.30                  261.3 30.2      0        14.7  81 
 LZ4  SN IP        330 25.44                             122    0.0010 14.7  81 
 LZ4  SE IS        330 27.66                             122    0.0010 14.7  81 
 LZ4  SZ  AML      330 28.73       423.6 0.42                          14.7  81 
                                                                                
