 2010 1223 1821 39.8 L  21.044 -99.100 30.2  RAL  3 1.1 1.4LRAL                1
 GAP=342        8.11      32.6    57.2999.9 -0.1381E+04 -0.5104E+05  0.1915E+05E
 ACTION:UPD 12-06-08 11:37 OP:RALL STATUS:               ID:20101223182139     I
 2010-12-23-1821-38S.PLUR1_009                                                 6
 STAT SP IPHASW D HRMM SECON CODA AMPLIT PERI AZIMU VELO AIN AR TRES W  DIS CAZ7
 LO8  SN IP       1821 49.09                              92    3.7110 17.4 318 
 LO8  SZ E        1821 49.14                  132.6  6.2     -4        17.4 318 
 LO8  SE IS       1821 52.66                              92    3.1810 17.4 318 
 LO8  SZ  AML     1821 53.51        19.5 0.60                          17.4 318 
 LT9  SZ E        1821 47.85                  161.8  8.9     13        45.5 329 
 LT9  SN IP       1821 47.86                              91   -0.4010 45.5 329 
 LT9  SE IS       1821 50.32                              91   -4.1510 45.5 329 
 LT9  SZ  AML     1821 51.42        23.8 0.68                          45.5 329 
 LA4  SZ E        1821 49.49                  184.2  8.8     28        53.3 336 
 LA4  SN IP       1821 49.54                              91    0.2810 53.3 336 
 LA4  SE IS       1821 53.59                              91   -2.6210 53.3 336 
 LA4  SZ  AML     1821 54.36        81.1 0.32                          53.3 336 
                                                                                
