 2010 1224 0449  7.6 L  21.320 -99.264 10.0  RAL  1 0.2 1.0LRAL                1
 GAP=360        1.23     999.9   999.9  0.0  0.8211E+07 -0.5104E+05  0.1915E+05E
 ACTION:UPD 12-06-08 11:37 OP:RALL STATUS:               ID:20101224044907     I
 2010-12-24-0449-00S.PLUR1_003                                                 6
 STAT SP IPHASW D HRMM SECON CODA AMPLIT PERI AZIMU VELO AIN AR TRES W  DIS CAZ7
 LZ4  SN IP        449  9.84                             173    0.4010 1.34 335 
 LZ4  SZ E         449  9.85                  160.2 19.1      5        1.34 335 
 LZ4  SE IS        449 10.39                             173   -0.4010 1.34 335 
 LZ4  SZ  AML      449 11.14        50.6 0.18                          1.34 335 
                                                                                
