 2010 1224 1409 21.6 L  21.337 -99.379 10.0  RAL  1 0.0-0.4LRAL                1
 GAP=360        0.30       4.3     3.9  0.0  0.1682E+02 -0.5104E+05  0.1915E+05E
 ACTION:UPD 12-06-08 11:37 OP:RALL STATUS:               ID:20101224140921     I
 2010-12-24-1409-15S.PLUR1_003                                                 6
 STAT SP IPHASW D HRMM SECON CODA AMPLIT PERI AZIMU VELO AIN AR TRES W  DIS CAZ7
 LT9  SZ E        14 9 23.90                  219.8 31.8      0        8.46  40 
 LT9  SN IP       14 9 23.92                             139    0.0210 8.46  40 
 LT9  SE IS       14 9 25.53                             139   -0.0210 8.46  40 
 LT9  SZ  AML     14 9 26.14         1.7 0.66                          8.46  40 
                                                                                
