 2010 1224 1726  9.5 L  21.326 -99.249 10.0  RAL  1 0.1 0.5LRAL                1
 GAP=360        0.64       9.5    39.9  0.0 -0.3795E+03 -0.5104E+05  0.1915E+05E
 ACTION:UPD 12-06-08 11:37 OP:RALL STATUS:               ID:20101224172609     I
 2010-12-24-1726-02S.PLUR1_003                                                 6
 STAT SP IPHASW D HRMM SECON CODA AMPLIT PERI AZIMU VELO AIN AR TRES W  DIS CAZ7
 LZ4  SZ E        1726 11.37                  101.7 23.5     -2        2.19 284 
 LZ4  SN IP       1726 11.49                             168    0.0910 2.19 284 
 LZ4  SE IS       1726 12.67                             168   -0.0910 2.19 284 
 LZ4  SZ  AML     1726 13.30        19.1 0.16                          2.19 284 
                                                                                
