 2010 1225 0433 16.8 L  21.345 -99.312 10.0  RAL  1 0.0-0.7LRAL                1
 GAP=360        0.30       7.1     2.1  0.0 -0.1442E+02 -0.5104E+05  0.1915E+05E
 ACTION:UPD 12-06-08 11:37 OP:RALL STATUS:               ID:20101225043316     I
 2010-12-25-0433-10S.PLUR1_003                                                 6
 STAT SP IPHASW D HRMM SECON CODA AMPLIT PERI AZIMU VELO AIN AR TRES W  DIS CAZ7
 LT9  SN IP        433 18.81                             150    0.0210 5.82 345 
 LT9  SZ E         433 18.85                  164.9  8.6      0        5.82 345 
 LT9  SE IS        433 20.25                             150   -0.0210 5.82 345 
 LT9  SZ  AML      433 20.32         0.9 0.36                          5.82 345 
                                                                                
