 2010 1225 1101 37.0 L  21.323 -99.297 10.0  RAL  1 0.0-0.4LRAL                1
 GAP=360        0.30       5.2     2.2  0.0 -0.1123E+02 -0.5104E+05  0.1915E+05E
 ACTION:UPD 12-06-08 11:37 OP:RALL STATUS:               ID:20101225110137     I
 2010-12-25-1101-31S.PLUR1_003                                                 6
 STAT SP IPHASW D HRMM SECON CODA AMPLIT PERI AZIMU VELO AIN AR TRES W  DIS CAZ7
 LT9  SN IP       11 1 39.29                             138    0.0210 8.60 339 
 LT9  SZ E        11 1 39.37                  159.1  8.9      0        8.60 339 
 LT9  SE IS       11 1 40.90                             138   -0.0210 8.60 339 
 LT9  SZ  AML     11 1 41.03         1.6 0.20                          8.60 339 
                                                                                
