 2010 1226 0504 38.1 L  21.298 -99.235 10.0  RAL  1 0.0 0.4LRAL                1
 GAP=360        0.32       6.5     6.7  0.0 -0.4342E+02 -0.5104E+05  0.1915E+05E
 ACTION:UPD 12-06-08 11:37 OP:RALL STATUS:               ID:20101226050438     I
 2010-12-26-0504-32S.PLUR1_003                                                 6
 STAT SP IPHASW D HRMM SECON CODA AMPLIT PERI AZIMU VELO AIN AR TRES W  DIS CAZ7
 LZ4  SZ E         5 4 40.18                  136.2 15.4      0        5.10 316 
 LZ4  SN IP        5 4 40.18                             153    0.0910 5.10 316 
 LZ4  SE IS        5 4 41.48                             153   -0.0910 5.10 316 
 LZ4  SZ  AML      5 4 41.72        12.9 0.52                          5.10 316 
                                                                                
