 2010 1226 1736 40.2 L  21.499 -99.337 10.0  RAL  1 0.1 0.6LRAL                1
 GAP=360        0.37       7.8    13.9  0.0 -0.1083E+03 -0.5104E+05  0.1915E+05E
 ACTION:UPD 12-06-08 11:37 OP:RALL STATUS:               ID:20101226173640     I
 2010-12-26-1736-34S.PLUR1_003                                                 6
 STAT SP IPHASW D HRMM SECON CODA AMPLIT PERI AZIMU VELO AIN AR TRES W  DIS CAZ7
 LA4  SZ E        1736 42.27                  300.9 13.3      0        3.35 121 
 LA4  SN IP       1736 42.31                             162    0.1510 3.35 121 
 LA4  SE IS       1736 43.41                             162   -0.1510 3.35 121 
 LA4  SZ  AML     1736 43.55        21.2 0.24                          3.35 121 
                                                                                
