 2010 1226 1028 27.7 L  21.277 -99.370 10.0  RAL  1 0.0 0.0LRAL                1
 GAP=360        0.30       4.2     1.6  0.0  0.6499E+01 -0.5104E+05  0.1915E+05E
 ACTION:UPD 12-06-08 11:37 OP:RALL STATUS:               ID:20101226102827     I
 2010-12-26-1028-22S.PLUR1_003                                                 6
 STAT SP IPHASW D HRMM SECON CODA AMPLIT PERI AZIMU VELO AIN AR TRES W  DIS CAZ7
 LT9  SZ E        1028 30.64                  199.2 11.3      0        13.8  19 
 LT9  SN IP       1028 30.64                             124    0.0110 13.8  19 
 LT9  SE IS       1028 32.74                             124   -0.0110 13.8  19 
 LT9  SZ  AML     1028 33.62         3.4 0.40                          13.8  19 
                                                                                
