 2010 1227 0721  9.2 L  21.349 -99.280 10.0  RAL  1 0.2 1.1LRAL                1
 GAP=360        0.81      39.9    23.3  0.0 -0.9308E+03 -0.5104E+05  0.1915E+05E
 ACTION:UPD 12-06-08 11:37 OP:RALL STATUS:               ID:20101227072109     I
 2010-12-27-0721-02S.PLUR1_003                                                 6
 STAT SP IPHASW D HRMM SECON CODA AMPLIT PERI AZIMU VELO AIN AR TRES W  DIS CAZ7
 LZ4  SZ E         721 11.55                  331.4 12.5      0        2.35 151 
 LZ4  SN IP        721 11.58                             167    0.5110 2.35 151 
 LZ4  SE IS        721 11.93                             167   -0.5110 2.35 151 
 LZ4  SZ  AML      721 12.03        63.1 0.16                          2.35 151 
                                                                                
