 2010 1227 0616 40.2 L  21.554 -99.531 10.0  RAL  1 0.0 1.1LRAL                1
 GAP=360        0.30       2.6     3.1  0.0 -0.7171E+01 -0.5104E+05  0.1915E+05E
 ACTION:UPD 12-06-08 11:37 OP:RALL STATUS:               ID:20101227061640     I
 2010-12-27-0616-41S.PLUR1_003                                                 6
 STAT SP IPHASW D HRMM SECON CODA AMPLIT PERI AZIMU VELO AIN AR TRES W  DIS CAZ7
 LZ4  SZ E         616 46.44                  312.4 11.0      0        36.6 132 
 LZ4  SN IP        616 46.45                             101    0.0210 36.6 132 
 LZ4  SE IS        616 50.97                             101   -0.0210 36.6 132 
 LZ4  SZ  AML      616 51.49        18.8 0.38                          36.6 132 
                                                                                
