 2010 1227 0810 47.1 L  21.099 -99.232  5.1  RAL  2 0.2 1.7LRAL                1
 GAP=354        3.03      58.3    16.4999.9 -0.8479E+03 -0.3174E+05  0.1260E+06E
 ACTION:UPD 12-06-08 11:37 OP:RALL STATUS:               ID:20101227081047     I
 2010-12-27-0810-42S.PLUR1_009                                                 6
 STAT SP IPHASW D HRMM SECON CODA AMPLIT PERI AZIMU VELO AIN AR TRES W  DIS CAZ7
 LT9  SZ E         810 52.63                  173.4  9.9     10        34.3 343 
 LT9  SN IP        810 52.65                              91    0.0910 34.3 343 
 LT9  SE IS        810 55.93                              91   -0.6010 34.3 343 
 LT9  SZ  AML      810 56.21        30.4 0.14                          34.3 343 
 LA4  SZ E         810 54.24                  159.1  8.4     -9        43.4 349 
 LA4  SN IP        810 54.34                              92    0.3310 43.4 349 
 LA4  SE IS        810 59.21                              92    0.1810 43.4 349 
 LA4  SZ  AML      811  1.75       162.2 0.18                          43.4 349 
                                                                                
