 2010 1227 0547 30.5 L  21.404 -99.330 10.0  RAL  1 0.0 1.0LRAL                1
 GAP=360        0.30       4.1     3.4  0.0 -0.1371E+02 -0.5104E+05  0.1915E+05E
 ACTION:UPD 12-06-08 11:37 OP:RALL STATUS:               ID:20101227054730     I
 2010-12-27-0547-25S.PLUR1_003                                                 6
 STAT SP IPHASW D HRMM SECON CODA AMPLIT PERI AZIMU VELO AIN AR TRES W  DIS CAZ7
 LZ4  SN IP        547 32.98                             134    0.0110 10.2 142 
 LZ4  SZ E         547 33.01                  322.0 11.2      0        10.2 142 
 LZ4  SE IS        547 34.77                             134   -0.0110 10.2 142 
 LZ4  SZ  AML      547 35.07        39.9 0.10                          10.2 142 
                                                                                
