 2010 1227 2047 23.5 L  21.378 -99.334 10.0  RAL  1 0.1-0.1LRAL                1
 GAP=360        0.52      29.7    14.3  0.0  0.4258E+03 -0.3174E+05  0.1260E+06E
 ACTION:UPD 12-06-08 11:37 OP:RALL STATUS:               ID:20101227204723     I
 2010-12-27-2047-16S.PLUR1_003                                                 6
 STAT SP IPHASW D HRMM SECON CODA AMPLIT PERI AZIMU VELO AIN AR TRES W  DIS CAZ7
 LT9  SN IP       2047 25.59                             168    0.2910 2.04  24 
 LT9  SZ E        2047 25.60                  204.2 15.5      0        2.04  24 
 LT9  SE IS       2047 26.33                             168   -0.2910 2.04  24 
 LT9  SZ  AML     2047 26.42         4.5 0.14                          2.04  24 
                                                                                
