 2010 1228 0302 35.9 L  21.335 -99.288 10.0  RAL  1 0.1 0.2LRAL                1
 GAP=360        0.82      12.5    56.3  0.0 -0.7054E+03 -0.3174E+05  0.1260E+06E
 ACTION:UPD 12-06-08 11:37 OP:RALL STATUS:               ID:20101228030235     I
 2010-12-28-0302-29S.PLUR1_003                                                 6
 STAT SP IPHASW D HRMM SECON CODA AMPLIT PERI AZIMU VELO AIN AR TRES W  DIS CAZ7
 LZ4  SN IP        3 2 38.03                             169    0.2710 2.00 103 
 LZ4  SZ E         3 2 38.04                  280.3 19.7     -2        2.00 103 
 LZ4  SE IS        3 2 38.85                             169   -0.2710 2.00 103 
 LZ4  SZ  AML      3 2 39.33         8.9 0.22                          2.00 103 
                                                                                
