 2010 1228 0441 20.3 L  21.220 -99.191 10.0  RAL  1 0.0 1.3LRAL                1
 GAP=360        0.30       3.7     2.6  0.0 -0.9376E+01  0.2122E+06  0.1467E+06E
 ACTION:UPD 12-06-08 11:37 OP:RALL STATUS:               ID:20101228044120     I
 2010-12-28-0441-14S.PLUR1_003                                                 6
 STAT SP IPHASW D HRMM SECON CODA AMPLIT PERI AZIMU VELO AIN AR TRES W  DIS CAZ7
 LZ4  SZ E         441 23.29                  146.6 14.7      0        14.7 327 
 LZ4  SN IP        441 23.33                             122    0.0110 14.7 327 
 LZ4  SE IS        441 25.53                             122   -0.0110 14.7 327 
 LZ4  SZ  AML      441 26.83        69.9 0.14                          14.7 327 
                                                                                
