 2010 1228 0359  1.5 L  20.970 -99.655 10.0  RAL  3 1.7 1.6LRAL                1
 GAP=327       21.01     125.1   158.5999.9  0.1603E+05  0.2122E+06  0.1467E+06E
 ACTION:UPD 12-06-08 11:37 OP:RALL STATUS:               ID:20101228035901     I
 2010-12-28-0359-01S.PLUR1_012                                                 6
 STAT SP IPHASW D HRMM SECON CODA AMPLIT PERI AZIMU VELO AIN AR TRES W  DIS CAZ7
 LO8  SZ E         359 14.39                  136.7  6.4    -99        50.5  65 
 LO8  SN IP        359 14.44                              97    4.5510 50.5  65 
 LO8  SE IS        359 19.08                              97    3.0610 50.5  65 
 LO8  SZ  AML      359 20.04        10.3 0.72                          50.5  65 
 LT9  SZ E         359 11.42                  186.0 11.5    -29        58.1  36 
 LT9  SN IP        359 11.46                              96    0.4510 58.1  36 
 LT9  SZ  AML      359 13.64        35.5 0.64                          58.1  36 
 LT9  SE IS        359 13.66                              96   -4.3110 58.1  36 
 LA4  SZ E         359 12.81                  194.1 10.2    -17        67.2  32 
 LA4  SN IP        359 12.86                              95    0.4110 67.2  32 
 LA4  SE IS        359 16.30                              95   -4.1610 67.2  32 
 LA4  SZ  AML      359 16.95       129.8 0.34                          67.2  32 
                                                                                
