 2010 1228 0754 50.8 L  21.491 -99.486 10.0  RAL  1 0.0-0.2LRAL                1
 GAP=360        0.30       2.2     3.6  0.0 -0.7761E+01  0.2122E+06  0.1467E+06E
 ACTION:UPD 12-06-08 11:37 OP:RALL STATUS:               ID:20101228075450     I
 2010-12-28-0754-48S.PLUR1_003                                                 6
 STAT SP IPHASW D HRMM SECON CODA AMPLIT PERI AZIMU VELO AIN AR TRES W  DIS CAZ7
 LT9  SZ E         754 54.49                  302.7 14.4      0        19.7 123 
 LT9  SN IP        754 54.51                             113    0.0010 19.7 123 
 LT9  SE IS        754 57.20                             113    0.0010 19.7 123 
 LT9  SZ  AML      754 58.53         1.8 0.52                          19.7 123 
                                                                                
