 2010 1228 0316 59.3 L  21.516 -99.317 10.0  RAL  1 0.0 0.3LRAL                1
 GAP=360        0.31      11.2     2.9  0.0 -0.3204E+02 -0.3174E+05  0.1260E+06E
 ACTION:UPD 12-06-08 11:37 OP:RALL STATUS:               ID:20101228031659     I
 2010-12-28-0316-53S.PLUR1_003                                                 6
 STAT SP IPHASW D HRMM SECON CODA AMPLIT PERI AZIMU VELO AIN AR TRES W  DIS CAZ7
 LA4  SZ E         317  1.33                  346.7  8.0      0        3.63 167 
 LA4  SN IP        317  1.34                             161    0.0510 3.63 167 
 LA4  SE IS        317  2.65                             161   -0.0510 3.63 167 
 LA4  SZ  AML      317  2.75        11.1 0.10                          3.63 167 
                                                                                
