 2010 1228 0636 38.9 L  21.223 -99.186 10.0  RAL  1 0.0 1.3LRAL                1
 GAP=360        0.30       3.6     2.8  0.0 -0.9687E+01  0.2122E+06  0.1467E+06E
 ACTION:UPD 12-06-08 11:37 OP:RALL STATUS:               ID:20101228063638     I
 2010-12-28-0636-32S.PLUR1_003                                                 6
 STAT SP IPHASW D HRMM SECON CODA AMPLIT PERI AZIMU VELO AIN AR TRES W  DIS CAZ7
 LZ4  SZ E         636 41.93                  144.1 13.5      0        14.8 324 
 LZ4  SN IP        636 41.94                             122    0.0110 14.8 324 
 LZ4  SE IS        636 44.14                             122   -0.0110 14.8 324 
 LZ4  SZ  AML      636 45.16        67.8 0.64                          14.8 324 
                                                                                
