 2010 1228 2138 41.3 L  21.156 -99.209 10.4  RAL  2 0.6-0.2LRAL                1
 GAP=342        5.63      35.5    21.8 48.3 -0.5096E+03  0.6024E+03 -0.1251E+04E
 ACTION:UPD 12-06-08 11:37 OP:RALL STATUS:               ID:20101228213841     I
 2010-12-28-2138-36S.PLUR1_006                                                 6
 STAT SP IPHASW D HRMM SECON CODA AMPLIT PERI AZIMU VELO AIN AR TRES W  DIS CAZ7
 LO8  SN IP       2138 44.23                             178    0.9410 0.61 318 
 LO8  SZ E        2138 44.29                  116.6  8.6    -20        0.61 318 
 LO8  SE IS       2138 46.32                             178    1.6010 0.61 318 
 LO8  SZ  AML     2138 46.49         3.0 0.20                          0.61 318 
 LT9  SZ E        2138 45.56                  167.0 10.5     12        29.2 335 
 LT9  SN IP       2138 45.59                             106   -0.8510 29.2 335 
 LT9  SE IS       2138 48.47                             106   -1.7010 29.2 335 
 LT9  SZ  AML     2138 49.03         1.7 0.16                          29.2 335 
                                                                                
