 2010 1229 0811 30.1 L  21.204 -99.273 10.0  RAL  1 0.0 0.0LRAL                1
 GAP=360        0.30       3.8     1.2  0.0 -0.4027E+01  0.6024E+03 -0.1251E+04E
 ACTION:UPD 12-06-08 11:37 OP:RALL STATUS:               ID:20101229081130     I
 2010-12-29-0811-27S.PLUR1_003                                                 6
 STAT SP IPHASW D HRMM SECON CODA AMPLIT PERI AZIMU VELO AIN AR TRES W  DIS CAZ7
 LT9  SN IP        811 34.16                             111    0.0210 21.9 345 
 LT9  SZ E         811 34.17                  165.4  8.7      0        21.9 345 
 LT9  SE IS        811 37.05                             111   -0.0210 21.9 345 
 LT9  SZ  AML      811 37.30         2.3 0.12                          21.9 345 
                                                                                
