 2010 1229 1138 47.6 L  21.614 -99.425 36.6  RAL  2 0.0 0.7LRAL                1
 GAP=343        0.37       2.7     2.0  5.4 -0.5335E+01  0.4099E+01 -0.5582E+01E
 ACTION:UPD 12-06-08 11:37 OP:RALL STATUS:               ID:20101229113847     I
 2010-12-29-1138-44S.PLUR1_006                                                 6
 STAT SP IPHASW D HRMM SECON CODA AMPLIT PERI AZIMU VELO AIN AR TRES W  DIS CAZ7
 LA4  SZ E        1138 54.04                  320.6 11.9      0        18.8 140 
 LA4  SN IP       1138 54.10                             147    0.1610 18.8 140 
 LA4  SE IS       1138 58.57                             147    0.0210 18.8 140 
 LA4  SZ  AML     1139  1.98        23.0 0.44                          18.8 140 
 LT9  SZ E        1138 54.27                  337.0  8.2      0        26.3 157 
 LT9  SN IP       1138 54.33                             136   -0.1110 26.3 157 
 LT9  SE IS       1138 59.35                             136   -0.0710 26.3 157 
 LT9  SZ  AML     1139  1.43         1.9 0.42                          26.3 157 
                                                                                
