 2010 1230 0917  2.7 R  22.756 -99.667 10.0  RAL  1 0.0 1.6LRAL                1
 GAP=360        0.30       4.7     4.4  0.0 -0.1504E+01  0.4099E+01 -0.5582E+01E
 ACTION:UPD 12-06-08 11:37 OP:RALL STATUS:               ID:20101230091702     I
 2010-12-30-0917-18S.PLUR1_003                                                 6
 STAT SP IPHASW D HRMM SECON CODA AMPLIT PERI AZIMU VELO AIN AR TRES W  DIS CAZ7
 LT9  SN IP        917 26.32                              52    0.0110  155 167 
 LT9  SZ E         917 26.37                  346.9  8.4      0         155 167 
 LT9  SE IS        917 43.51                              52   -0.0110  155 167 
 LT9  SZ  AML      917 45.16        12.7 0.32                           155 167 
                                                                                
