 2010 1230 0751 59.3 L  21.315 -99.313 10.0  RAL  1 0.0-0.6LRAL                1
 GAP=360        0.30       5.4     0.9  0.0 -0.4654E+01  0.4099E+01 -0.5582E+01E
 ACTION:UPD 12-06-08 11:37 OP:RALL STATUS:               ID:20101230075159     I
 2010-12-30-0751-53S.PLUR1_003                                                 6
 STAT SP IPHASW D HRMM SECON CODA AMPLIT PERI AZIMU VELO AIN AR TRES W  DIS CAZ7
 LT9  SZ E         752  1.64                  171.4  8.1      0        9.00 351 
 LT9  SN IP        752  1.66                             137    0.0010 9.00 351 
 LT9  SE IS        752  3.34                             137    0.0010 9.00 351 
 LT9  SZ  AML      752  3.41         1.0 0.34                          9.00 351 
                                                                                
