 2010 1231 0746 54.1 L  21.324 -99.272 10.0  RAL  1 0.5 0.4LRAL                1
 GAP=360        5.49     167.1   999.9  0.0  0.3496E+06  0.4099E+01 -0.5582E+01E
 ACTION:UPD 12-06-08 11:37 OP:RALL STATUS:               ID:20101231074654     I
 2010-12-31-0746-47S.PLUR1_003                                                 6
 STAT SP IPHASW D HRMM SECON CODA AMPLIT PERI AZIMU VELO AIN AR TRES W  DIS CAZ7
 LZ4  SZ E         746 56.45                  174.6 46.5    -25        0.84  21 
 LZ4  SN IP        746 56.49                             175    0.5410 0.84  21 
 LZ4  SE IS        746 56.74                             175   -0.5410 0.84  21 
 LZ4  SZ  AML      746 56.89        15.0 0.22                          0.84  21 
                                                                                
