 2010 1231 0954 41.2 L  21.248 -99.339 10.0  RAL  1 0.0 0.1LRAL                1
 GAP=360        0.30       4.2     0.6  0.0  0.1548E+01  0.4099E+01 -0.5582E+01E
 ACTION:UPD 12-06-08 11:37 OP:RALL STATUS:               ID:20101231095441     I
 2010-12-31-0954-37S.PLUR1_003                                                 6
 STAT SP IPHASW D HRMM SECON CODA AMPLIT PERI AZIMU VELO AIN AR TRES W  DIS CAZ7
 LT9  SZ E         954 44.47                  184.7 11.2      0        16.4   5 
 LT9  SN IP        954 44.48                             118    0.0210 16.4   5 
 LT9  SE IS        954 46.80                             118   -0.0210 16.4   5 
 LT9  SZ  AML      954 48.44         3.7 0.18                          16.4   5 
                                                                                
