 2010 1231 0245 14.2 L  21.321 -99.265 10.0  RAL  1 0.1 0.9LRAL                1
 GAP=360        0.64     722.0   999.9  0.0  0.1454E+07  0.4099E+01 -0.5582E+01E
 ACTION:UPD 12-06-08 11:37 OP:RALL STATUS:               ID:20101231024514     I
 2010-12-31-0245-07S.PLUR1_003                                                 6
 STAT SP IPHASW D HRMM SECON CODA AMPLIT PERI AZIMU VELO AIN AR TRES W  DIS CAZ7
 LZ4  SZ E         245 16.41                  158.0 11.9      1        1.14 337 
 LZ4  SN IP        245 16.42                             174    0.3510 1.14 337 
 LZ4  SE IS        245 17.06                             174   -0.3510 1.14 337 
 LZ4  SZ  AML      245 17.62        45.5 0.20                          1.14 337 
                                                                                
