 2010 1231 0855 33.5 L  21.345 -99.291 10.0  RAL  1 0.2 1.0LRAL                1
 GAP=360        0.81      22.7    34.7  0.0 -0.7876E+03  0.4099E+01 -0.5582E+01E
 ACTION:UPD 12-06-08 11:37 OP:RALL STATUS:               ID:20101231085533     I
 2010-12-31-0855-26S.PLUR1_003                                                 6
 STAT SP IPHASW D HRMM SECON CODA AMPLIT PERI AZIMU VELO AIN AR TRES W  DIS CAZ7
 LZ4  SZ E         855 35.82                  305.0 13.6      0        2.72 125 
 LZ4  SN IP        855 35.85                             165    0.5110 2.72 125 
 LZ4  SE IS        855 36.21                             165   -0.5110 2.72 125 
 LZ4  SZ  AML      855 37.04        51.7 0.18                          2.72 125 
                                                                                
