 2010 1231 0621 13.4 L  21.364 -99.304 10.0  RAL  1 0.0-0.4LRAL                1
 GAP=360        0.34       9.1     6.4  0.0 -0.5838E+02  0.4099E+01 -0.5582E+01E
 ACTION:UPD 12-06-08 11:37 OP:RALL STATUS:               ID:20101231062113     I
 2010-12-31-0621-06S.PLUR1_003                                                 6
 STAT SP IPHASW D HRMM SECON CODA AMPLIT PERI AZIMU VELO AIN AR TRES W  DIS CAZ7
 LT9  SZ E         621 15.43                  146.6  9.0      0        4.19 327 
 LT9  SN IP        621 15.44                             157    0.1110 4.19 327 
 LT9  SE IS        621 16.61                             157   -0.1110 4.19 327 
 LT9  SZ  AML      621 17.47         2.3 0.24                          4.19 327 
                                                                                
