 2010 1231 1452  7.4 L  21.388 -99.327 10.0  RAL  1 0.3-0.1LRAL                1
 GAP=360        3.87     449.6   999.9  0.0  0.1012E+07  0.4099E+01 -0.5582E+01E
 ACTION:UPD 12-06-08 11:37 OP:RALL STATUS:               ID:20101231145207     I
 2010-12-31-1451-59S.PLUR1_003                                                 6
 STAT SP IPHASW D HRMM SECON CODA AMPLIT PERI AZIMU VELO AIN AR TRES W  DIS CAZ7
 LT9  SZ E        1452  9.67                  166.9  8.1    -17        0.77   5 
 LT9  SN IP       1452  9.68                             176    0.4510 0.77   5 
 LT9  SE IS       1452 10.07                             176   -0.4510 0.77   5 
 LT9  SZ  AML     1452 10.21         4.2 0.38                          0.77   5 
                                                                                
