 2009  9 3 0109  7.1 L  21.297 -99.248 10.0  RAL  1 0.1-0.3LRAL                1
 GAP=360        0.37      20.5     4.6  0.0  0.9470E+02  0.1205E+03  0.2149E+03E
 ACTION:UPD 12-06-08 11:37 OP:RALL STATUS:               ID:20090903010908d    I
 2009-09-03-0109-01S.PLUR1_003                                                 6
 STAT SP IPHASW D HRMM SECON CODA AMPLIT PERI AZIMU VELO AIN AR TRES W  DIS CAZ7
 LG3  SN IP        1 9  9.16                             167    0.1510 2.36 192 
 LG3  SZ E         1 9  9.18                   11.9  4.8      0        2.36 192 
 LG3  SE IS        1 9 10.24                             167   -0.1510 2.36 192 
 LG3  SZ  AML      1 9 11.66         2.6 0.52                          2.36 192 
                                                                                
