 2009  9 3 0109  7.2 L  21.287 -99.254 10.0  RAL  1 0.2-0.3LRAL                1
 GAP=360        2.71     999.9   999.9  0.0  0.1765E+09  0.1205E+03  0.2149E+03E
 ACTION:UPD 12-06-08 11:37 OP:RALL STATUS:               ID:20090903010907     I
 2009-09-03-0109-01S.PLUR1_003                                                 6
 STAT SP IPHASW D HRMM SECON CODA AMPLIT PERI AZIMU VELO AIN AR TRES W  DIS CAZ7
 LG3  SN IP        1 9  9.20                             173    0.1710 1.26 174 
 LG3  SZ E         1 9  9.25                    7.0  4.8     13        1.26 174 
 LG3  SE IS        1 9 10.22                             173   -0.1710 1.26 174 
 LG3  SZ  AML      1 9 11.66         2.7 0.52                          1.26 174 
                                                                                
