 2009  9 3 0115  7.6 L  21.252 -99.268 10.0  RAL  1 0.1-0.2LRAL                1
 GAP=360        0.50      18.5    12.0  0.0  0.2221E+03  0.1205E+03  0.2149E+03E
 ACTION:UPD 12-06-08 11:37 OP:RALL STATUS:               ID:20090903011507     I
 2009-09-03-0115-01S.PLUR1_003                                                 6
 STAT SP IPHASW D HRMM SECON CODA AMPLIT PERI AZIMU VELO AIN AR TRES W  DIS CAZ7
 LG3  SN IP        115  9.84                             163    0.2710 3.12  31 
 LG3  SZ E         115  9.91                  211.1 11.3      0        3.12  31 
 LG3  SE IS        115 10.70                             163   -0.2710 3.12  31 
 LG3  SZ  AML      115 11.73         3.3 0.12                          3.12  31 
                                                                                
