 2009  9 3 1711 19.3 L  21.258 -99.266 10.0  RAL  1 0.2 0.4LRAL                1
 GAP=360        0.83      37.4    29.7  0.0  0.1111E+04  0.1205E+03  0.2149E+03E
 2009-09-03-1711-12S.PLUR1_003                                                 6
 ACTION:UPD 12-06-08 11:37 OP:RALL STATUS:               ID:20090903171119     I
 STAT SP IPHASW D HRMM SECON CODA AMPLIT PERI AZIMU VELO AIN AR TRES W  DIS CAZ7
 LG3  SZ E        1711 21.69                  216.5 13.3      0        2.37  36 
 LG3  SN IP       1711 21.70                             167    0.5210 2.37  36 
 LG3  SE IS       1711 22.04                             167   -0.5210 2.37  36 
 LG3  SZ  AML     1711 22.22        14.5 0.28                          2.37  36 
                                                                                
