 2009  9 3 1753 50.5 L  21.294 -99.230 10.0  RAL  1 0.2 0.5LRAL                1
 GAP=360        0.66      19.5    23.3  0.0  0.4549E+03  0.1205E+03  0.2149E+03E
 ACTION:UPD 12-06-08 11:37 OP:RALL STATUS:               ID:20090903175350     I
 2009-09-03-1753-44S.PLUR1_003                                                 6
 STAT SP IPHASW D HRMM SECON CODA AMPLIT PERI AZIMU VELO AIN AR TRES W  DIS CAZ7
 LG3  SZ E        1753 52.77                   48.1 28.7      0        3.07 228 
 LG3  SN IP       1753 52.78                             164    0.4010 3.07 228 
 LG3  SE IS       1753 53.38                             164   -0.4010 3.07 228 
 LG3  SZ  AML     1753 53.47        17.8 0.24                          3.07 228 
                                                                                
