 2009  9 4 0649 32.4 L  21.288 -99.248 10.0  RAL  1 0.1 0.3LRAL                1
 GAP=360        0.65     166.7   760.9  0.0 -0.1268E+06  0.1205E+03  0.2149E+03E
 ACTION:UPD 12-06-08 11:37 OP:RALL STATUS:               ID:20090904064932     I
 2009-09-04-0649-25S.PLUR1_003                                                 6
 STAT SP IPHASW D HRMM SECON CODA AMPLIT PERI AZIMU VELO AIN AR TRES W  DIS CAZ7
 LG3  SZ E         649 34.62                   16.6 22.8      0        1.41 198 
 LG3  SN IP        649 34.63                             172    0.3410 1.41 198 
 LG3  SE IS        649 35.31                             172   -0.3410 1.41 198 
 LG3  SZ  AML      649 35.49        10.3 0.18                          1.41 198 
                                                                                
