 2009  9 4 0643  5.7 L  21.235 -99.212 10.0  RAL  1 0.0 0.1LRAL                1
 GAP=360        0.31       5.4     5.4  0.0 -0.2914E+02  0.1205E+03  0.2149E+03E
 ACTION:UPD 12-06-08 11:37 OP:RALL STATUS:               ID:20090904064305     I
 2009-09-04-0642-59S.PLUR1_003                                                 6
 STAT SP IPHASW D HRMM SECON CODA AMPLIT PERI AZIMU VELO AIN AR TRES W  DIS CAZ7
 LG3  SN IP        643  7.82                             149    0.0510 6.20 317 
 LG3  SZ E         643  7.90                  137.2 11.9      0        6.20 317 
 LG3  SE IS        643  9.26                             149   -0.0510 6.20 317 
 LG3  SZ  AML      643 11.32         6.8 0.16                          6.20 317 
                                                                                
