 2009  9 5 0250 59.6 L  21.288 -99.252 10.0  RAL  1 0.2 0.1LRAL                1
 GAP=360        1.34     117.8   469.5  0.0  0.5529E+05  0.1205E+03  0.2149E+03E
 ACTION:UPD 12-06-08 11:37 OP:RALL STATUS:               ID:20090905025059     I
 2009-09-05-0250-52S.PLUR1_003                                                 6
 STAT SP IPHASW D HRMM SECON CODA AMPLIT PERI AZIMU VELO AIN AR TRES W  DIS CAZ7
 LG3  SZ E         251  1.77                    6.8  5.2      6        1.39 181 
 LG3  SN IP        251  1.81                             172    0.3610 1.39 181 
 LG3  SE IS        251  2.45                             172   -0.3610 1.39 181 
 LG3  SZ  AML      251  2.60         7.6 0.22                          1.39 181 
                                                                                
