 2009  9 5 0621 21.7 L  21.247 -99.234 10.0  RAL  1 0.1 0.1LRAL                1
 GAP=360        0.36      11.3     7.0  0.0 -0.7971E+02  0.1205E+03  0.2149E+03E
 ACTION:UPD 12-06-08 11:37 OP:RALL STATUS:               ID:20090905062121     I
 2009-09-05-0621-15S.PLUR1_003                                                 6
 STAT SP IPHASW D HRMM SECON CODA AMPLIT PERI AZIMU VELO AIN AR TRES W  DIS CAZ7
 LG3  SZ E         621 23.76                  149.9 12.6      0        3.73 330 
 LG3  SN IP        621 23.78                             160    0.1310 3.73 330 
 LG3  SE IS        621 24.94                             160   -0.1310 3.73 330 
 LG3  SZ  AML      621 26.20         6.4 0.50                          3.73 330 
                                                                                
