 2009  9 6 0823 38.6 L  21.259 -99.255 10.0  RAL  1 0.1 0.4LRAL                1
 GAP=360        0.76     219.9   999.9  0.0 -0.2761E+06  0.1205E+03  0.2149E+03E
 ACTION:UPD 12-06-08 11:37 OP:RALL STATUS:               ID:20090906082338     I
 2009-09-06-0823-32S.PLUR1_003                                                 6
 STAT SP IPHASW D HRMM SECON CODA AMPLIT PERI AZIMU VELO AIN AR TRES W  DIS CAZ7
 LG3  SZ E         823 40.68                  191.1 13.8      3        1.82   8 
 LG3  SN IP        823 40.69                             170    0.1710 1.82   8 
 LG3  SE IS        823 41.71                             170   -0.1710 1.82   8 
 LG3  SZ  AML      823 41.81        14.3 0.20                          1.82   8 
                                                                                
