 2009  9 7 0243 42.9 L  21.275 -99.262 10.0  RAL  1 0.2 1.1LRAL                1
 GAP=360        0.86      92.1   137.1  0.0 -0.1262E+05  0.1205E+03  0.2149E+03E
 ACTION:UPD 12-06-08 11:37 OP:RALL STATUS:               ID:20090907024342     I
 2009-09-07-0243-35S.PLUR1_003                                                 6
 STAT SP IPHASW D HRMM SECON CODA AMPLIT PERI AZIMU VELO AIN AR TRES W  DIS CAZ7
 LG3  SZ E         243 45.31                  263.5 17.1      0        0.96  84 
 LG3  SN IP        243 45.32                             175    0.5410 0.96  84 
 LG3  SE IS        243 45.59                             175   -0.5410 0.96  84 
 LG3  SZ  AML      243 45.73        67.6 0.28                          0.96  84 
                                                                                
