 2009  9 7 1735 33.7 L  21.259 -99.230 10.0  RAL  1 0.1 0.3LRAL                1
 GAP=360        0.50      14.3    18.9  0.0 -0.2705E+03  0.1205E+03  0.2149E+03E
 ACTION:UPD 12-06-08 11:37 OP:RALL STATUS:               ID:20090907173533     I
 2009-09-07-1735-26S.PLUR1_003                                                 6
 STAT SP IPHASW D HRMM SECON CODA AMPLIT PERI AZIMU VELO AIN AR TRES W  DIS CAZ7
 LG3  SZ E        1735 35.89                  129.1 11.1      0        2.99 309 
 LG3  SN IP       1735 35.92                             164    0.2710 2.99 309 
 LG3  SE IS       1735 36.77                             164   -0.2710 2.99 309 
 LG3  SZ  AML     1735 37.01        11.7 0.18                          2.99 309 
                                                                                
