 2009  910 0223  4.2 R  20.654 -99.669 10.0  RAL  1 0.0 2.0LRAL                1
 GAP=360        0.30       3.3     2.8  0.0  0.4487E+01  0.1205E+03  0.2149E+03E
 ACTION:UPD 12-06-08 11:37 OP:RALL STATUS:               ID:20090910022304     I
 2009-09-10-0223-07S.PLUR1_003                                                 6
 STAT SP IPHASW D HRMM SECON CODA AMPLIT PERI AZIMU VELO AIN AR TRES W  DIS CAZ7
 LG3  SZ E         223 17.21                  212.2 14.8      0        81.3  32 
 LG3  SN IP        223 17.37                              94    0.0110 81.3  32 
 LG3  SE IS        223 26.95                              94   -0.0110 81.3  32 
 LG3  SZ  AML      223 31.70        79.9 0.26                          81.3  32 
                                                                                
