 2009  910 0059 39.0 L  21.246 -99.271 10.0  RAL  1 0.1-0.2LRAL                1
 GAP=360        0.38      11.7     7.4  0.0  0.8633E+02  0.1205E+03  0.2149E+03E
 ACTION:UPD 12-06-08 11:37 OP:RALL STATUS:               ID:20090910005939     I
 2009-09-10-0059-33S.PLUR1_003                                                 6
 STAT SP IPHASW D HRMM SECON CODA AMPLIT PERI AZIMU VELO AIN AR TRES W  DIS CAZ7
 LG3  SZ E         059 41.04                  210.5  9.5      0        3.85  30 
 LG3  SN IP        059 41.11                             160    0.1610 3.85  30 
 LG3  SE IS        059 42.22                             160   -0.1610 3.85  30 
 LG3  SZ  AML      059 43.50         3.0 0.18                          3.85  30 
                                                                                
