 2009  911 0637 32.4 L  21.246 -99.242 10.0  RAL  1 0.1-0.1LRAL                1
 GAP=360        0.37      13.9     5.0  0.0 -0.6988E+02  0.1205E+03  0.2149E+03E
 ACTION:UPD 12-06-08 11:37 OP:RALL STATUS:               ID:20090911063732     I
 2009-09-11-0637-26S.PLUR1_003                                                 6
 STAT SP IPHASW D HRMM SECON CODA AMPLIT PERI AZIMU VELO AIN AR TRES W  DIS CAZ7
 LG3  SN IP        637 34.52                             162    0.1510 3.45 341 
 LG3  SZ E         637 34.52                  161.5  8.9      0        3.45 341 
 LG3  SE IS        637 35.63                             162   -0.1510 3.45 341 
 LG3  SZ  AML      637 35.76         4.6 0.44                          3.45 341 
                                                                                
