 2009  911 0034 47.5 L  21.249 -99.285 10.0  RAL  1 0.1-0.1LRAL                1
 GAP=360        0.37       7.7     9.5  0.0  0.7268E+02  0.1205E+03  0.2149E+03E
 ACTION:UPD 12-06-08 11:37 OP:RALL STATUS:               ID:20090911003447     I
 2009-09-11-0034-41S.PLUR1_003                                                 6
 STAT SP IPHASW D HRMM SECON CODA AMPLIT PERI AZIMU VELO AIN AR TRES W  DIS CAZ7
 LG3  SN IP        034 49.66                             157    0.1510 4.49  49 
 LG3  SZ E         034 49.66                  228.9 17.3      0        4.49  49 
 LG3  SE IS        034 50.81                             157   -0.1510 4.49  49 
 LG3  SZ  AML      034 50.98         4.5 0.18                          4.49  49 
                                                                                
