 2009  911 0148 57.7 L  21.253 -99.237 10.0  RAL  1 0.1 0.0LRAL                1
 GAP=360        0.48      18.7    13.0  0.0 -0.2429E+03  0.1205E+03  0.2149E+03E
 ACTION:UPD 12-06-08 11:37 OP:RALL STATUS:               ID:20090911014857     I
 2009-09-11-0148-51S.PLUR1_003                                                 6
 STAT SP IPHASW D HRMM SECON CODA AMPLIT PERI AZIMU VELO AIN AR TRES W  DIS CAZ7
 LG3  SN IP        148 59.87                             164    0.2610 2.93 327 
 LG3  SZ E         148 59.89                  147.0 16.0      0        2.93 327 
 LG3  SE IS        149  0.75                             164   -0.2610 2.93 327 
 LG3  SZ  AML      149  0.80         5.0 0.10                          2.93 327 
                                                                                
