 2009  911 1913  3.4 L  21.362 -99.307 10.0  RAL  1 0.0-0.2LRAL                1
 GAP=360        0.33       9.2     5.2  0.0 -0.4806E+02  0.1205E+03  0.2149E+03E
 ACTION:UPD 12-06-08 11:37 OP:RALL STATUS:               ID:20090911191303     I
 2009-09-11-1913-01S.PLUR1_003                                                 6
 STAT SP IPHASW D HRMM SECON CODA AMPLIT PERI AZIMU VELO AIN AR TRES W  DIS CAZ7
 LT7  SZ E        1913  5.34                  151.9  8.8      0        4.23 332 
 LT7  SN IP       1913  5.35                             157    0.0910 4.23 332 
 LT7  SE IS       1913  6.56                             157   -0.0910 4.23 332 
 LT7  SZ  AML     1913  6.64         3.5 0.16                          4.23 332 
                                                                                
