 2009  911 1706 49.4 L  21.239 -99.285 10.0  RAL  1 0.0 1.0LRAL                1
 GAP=360        0.32       6.7     5.8  0.0  0.3889E+02  0.1205E+03  0.2149E+03E
 ACTION:UPD 12-06-08 11:37 OP:RALL STATUS:               ID:20090911170649     I
 2009-09-11-1706-43S.PLUR1_003                                                 6
 STAT SP IPHASW D HRMM SECON CODA AMPLIT PERI AZIMU VELO AIN AR TRES W  DIS CAZ7
 LG3  SZ E        17 6 51.54                  219.3 16.8      0        5.30  39 
 LG3  SN IP       17 6 51.55                             153    0.0710 5.30  39 
 LG3  SE IS       17 6 52.90                             153   -0.0710 5.30  39 
 LG3  SZ  AML     17 6 53.47        56.3 0.18                          5.30  39 
                                                                                
