 2009  911 2206 25.6 L  21.316 -99.298 10.0  RAL  1 0.0 0.1LRAL                1
 GAP=360        0.30       5.1     1.9  0.0 -0.9269E+01  0.1205E+03  0.2149E+03E
 ACTION:UPD 12-06-08 11:37 OP:RALL STATUS:               ID:20090911220625     I
 2009-09-11-2206-24S.PLUR1_003                                                 6
 STAT SP IPHASW D HRMM SECON CODA AMPLIT PERI AZIMU VELO AIN AR TRES W  DIS CAZ7
 LT7  SN IP       22 6 27.96                             136    0.0210 9.29 341 
 LT7  SZ E        22 6 27.98                  161.3  7.2      0        9.29 341 
 LT7  SE IS       22 6 29.64                             136   -0.0210 9.29 341 
 LT7  SZ  AML     22 6 30.21         5.2 0.28                          9.29 341 
                                                                                
