 2009  912 0029 27.9 L  21.298 -99.232 10.0  RAL  1 0.1 0.5LRAL                1
 GAP=360        0.58      18.0    16.6  0.0  0.2990E+03  0.1205E+03  0.2149E+03E
 ACTION:UPD 12-06-08 11:37 OP:RALL STATUS:               ID:20090912002927     I
 2009-09-12-0029-21S.PLUR1_003                                                 6
 STAT SP IPHASW D HRMM SECON CODA AMPLIT PERI AZIMU VELO AIN AR TRES W  DIS CAZ7
 LG3  SZ E         029 30.18                   40.8 34.8      0        3.31 221 
 LG3  SN IP        029 30.19                             162    0.3310 3.31 221 
 LG3  SE IS        029 30.93                             162   -0.3310 3.31 221 
 LG3  SZ  AML      029 31.04        17.4 0.18                          3.31 221 
                                                                                
