 2009  912 1433 30.7 L  21.305 -99.357 10.0  RAL  1 0.0 0.2LRAL                1
 GAP=360        0.30       4.8     1.7  0.0  0.7764E+01  0.1205E+03  0.2149E+03E
 ACTION:UPD 12-06-08 11:37 OP:RALL STATUS:               ID:20090912143330     I
 2009-09-12-1433-30S.PLUR1_003                                                 6
 STAT SP IPHASW D HRMM SECON CODA AMPLIT PERI AZIMU VELO AIN AR TRES W  DIS CAZ7
 LT7  SZ E        1433 33.21                  197.8 11.5      0        10.5  18 
 LT7  SN IP       1433 33.22                             132    0.0110 10.5  18 
 LT7  SE IS       1433 35.01                             132   -0.0110 10.5  18 
 LT7  SZ  AML     1433 35.13         5.7 0.34                          10.5  18 
                                                                                
