 2009  913 0029 11.7 L  21.387 -99.309 10.0  RAL  1 0.1-0.4LRAL                1
 GAP=360        0.65      18.8    39.9  0.0 -0.7489E+03  0.1205E+03  0.2149E+03E
 ACTION:UPD 12-06-08 11:37 OP:RALL STATUS:               ID:20090913002911     I
 2009-09-13-0029-09S.PLUR1_003                                                 6
 STAT SP IPHASW D HRMM SECON CODA AMPLIT PERI AZIMU VELO AIN AR TRES W  DIS CAZ7
 LT7  SN IP        029 13.94                             169    0.3910 1.99 297 
 LT7  SZ E         029 14.00                  116.8 11.7      0        1.99 297 
 LT7  SE IS        029 14.48                             169   -0.3910 1.99 297 
 LT7  SZ  AML      029 14.84         2.2 0.28                          1.99 297 
                                                                                
