 2009  915 0237 52.7 L  21.297 -99.240 10.0  RAL  1 0.1-0.1LRAL                1
 GAP=360        0.58      26.0    15.3  0.0  0.3985E+03  0.1205E+03  0.2149E+03E
 ACTION:UPD 12-06-08 11:37 OP:RALL STATUS:               ID:20090915023752     I
 2009-09-15-0237-45S.PLUR1_003                                                 6
 STAT SP IPHASW D HRMM SECON CODA AMPLIT PERI AZIMU VELO AIN AR TRES W  DIS CAZ7
 LG3  SZ E         237 54.89                   28.7 35.6      0        2.63 209 
 LG3  SN IP        237 54.90                             166    0.3410 2.63 209 
 LG3  SE IS        237 55.61                             166   -0.3410 2.63 209 
 LG3  SZ  AML      237 55.94         4.2 0.42                          2.63 209 
                                                                                
