 2009  917 1113 34.8 L  21.244 -99.276 10.0  RAL  1 0.0-0.1LRAL                1
 GAP=360        0.35       9.5     7.1  0.0  0.6735E+02  0.1205E+03  0.2149E+03E
 ACTION:UPD 12-06-08 11:37 OP:RALL STATUS:               ID:20090917111334     I
 2009-09-17-1113-27S.PLUR1_003                                                 6
 STAT SP IPHASW D HRMM SECON CODA AMPLIT PERI AZIMU VELO AIN AR TRES W  DIS CAZ7
 LG3  SZ E        1113 36.84                  214.8 11.4      0        4.24  35 
 LG3  SN IP       1113 36.89                             158    0.1310 4.24  35 
 LG3  SE IS       1113 38.08                             158   -0.1310 4.24  35 
 LG3  SZ  AML     1113 38.75         4.1 0.18                          4.24  35 
                                                                                
