 2009  918 0235 56.0 L  21.254 -99.229 10.0  RAL  1 0.1 0.5LRAL                1
 GAP=360        0.48      13.2    14.6  0.0 -0.1925E+03  0.1205E+03  0.2149E+03E
 ACTION:UPD 12-06-08 11:37 OP:RALL STATUS:               ID:20090918023556     I
 2009-09-18-0235-49S.PLUR1_003                                                 6
 STAT SP IPHASW D HRMM SECON CODA AMPLIT PERI AZIMU VELO AIN AR TRES W  DIS CAZ7
 LG3  SN IP        235 58.18                             162    0.2510 3.43 314 
 LG3  SZ E         235 58.21                  134.2 12.9      0        3.43 314 
 LG3  SE IS        235 59.09                             162   -0.2510 3.43 314 
 LG3  SZ  AML      235 59.29        18.1 0.22                          3.43 314 
                                                                                
