 2009  919 0502 36.6 L  21.249 -99.101 10.0  RAL  1 0.0 0.1LRAL                1
 GAP=360        0.30       0.9     4.5  0.0 -0.3494E+01  0.1205E+03  0.2149E+03E
 ACTION:UPD 12-06-08 11:37 OP:RALL STATUS:               ID:20090919050236     I
 2009-09-19-0502-32S.PLUR1_003                                                 6
 STAT SP IPHASW D HRMM SECON CODA AMPLIT PERI AZIMU VELO AIN AR TRES W  DIS CAZ7
 LG3  SN IP        5 2 39.78                             120    0.0010 16.0 281 
 LG3  SZ E         5 2 39.86                  100.5 11.2      0        16.0 281 
 LG3  SE IS        5 2 42.13                             120    0.0010 16.0 281 
 LG3  SZ  AML      5 2 42.28         4.3 0.22                          16.0 281 
                                                                                
