 2009  919 1043 51.8 L  21.254 -99.246 10.0  RAL  1 0.0-0.1LRAL                1
 GAP=360        0.33      16.9     4.8  0.0 -0.8108E+02  0.1205E+03  0.2149E+03E
 ACTION:UPD 12-06-08 11:37 OP:RALL STATUS:               ID:20090919104351     I
 2009-09-19-1043-45S.PLUR1_003                                                 6
 STAT SP IPHASW D HRMM SECON CODA AMPLIT PERI AZIMU VELO AIN AR TRES W  DIS CAZ7
 LG3  SN IP       1043 53.79                             166    0.1010 2.52 345 
 LG3  SZ E        1043 53.81                  165.2 15.9      0        2.52 345 
 LG3  SE IS       1043 54.98                             166   -0.1010 2.52 345 
 LG3  SZ  AML     1043 56.25         4.5 0.48                          2.52 345 
                                                                                
