 2009  921 0944 43.6 L  21.275 -99.259 10.0  RAL  1 0.2 0.1LRAL                1
 GAP=360        1.65     999.9     7.5  0.0 -0.5719E+05  0.1205E+03  0.2149E+03E
 ACTION:UPD 12-06-08 11:37 OP:RALL STATUS:               ID:20090921094443     I
 2009-09-21-0944-36S.PLUR1_003                                                 6
 STAT SP IPHASW D HRMM SECON CODA AMPLIT PERI AZIMU VELO AIN AR TRES W  DIS CAZ7
 LG3  SZ E         944 45.64                  260.1 12.2     -7        0.67  88 
 LG3  SN IP        944 45.70                             176    0.2710 0.67  88 
 LG3  SE IS        944 46.51                             176   -0.2710 0.67  88 
 LG3  SZ  AML      944 47.35         6.8 0.26                          0.67  88 
                                                                                
