 2009  921 1102 49.7 L  21.173 -98.911 10.0  RAL  1 0.0 0.8LRAL                1
 GAP=360        0.30       1.5     3.9  0.0 -0.4167E+01  0.1205E+03  0.2149E+03E
 ACTION:UPD 12-06-08 11:37 OP:RALL STATUS:               ID:20090921110249     I
 2009-09-21-1102-46S.PLUR1_003                                                 6
 STAT SP IPHASW D HRMM SECON CODA AMPLIT PERI AZIMU VELO AIN AR TRES W  DIS CAZ7
 LG3  SZ E        11 2 56.00                  107.8 14.1      0        37.2 288 
 LG3  SN IP       11 2 56.02                             101    0.0110 37.2 288 
 LG3  SE IS       11 3  0.63                             101   -0.0110 37.2 288 
 LG3  SZ  AML     11 3  1.52        10.2 0.10                          37.2 288 
                                                                                
