 2009  923 0537 32.5 L  21.092 -99.379 10.0  RAL  1 0.0 1.0LRAL                1
 GAP=360        0.30       3.3     2.3  0.0  0.7248E+01  0.1205E+03  0.2149E+03E
 ACTION:UPD 12-06-08 11:37 OP:RALL STATUS:               ID:20090923053732     I
 2009-09-23-0537-27S.PLUR1_003                                                 6
 STAT SP IPHASW D HRMM SECON CODA AMPLIT PERI AZIMU VELO AIN AR TRES W  DIS CAZ7
 LG3  SZ E         537 36.81                  212.9  8.6      0        24.2  33 
 LG3  SN IP        537 36.92                             109    0.0010 24.2  33 
 LG3  SE IS        537 40.12                             109    0.0010 24.2  33 
 LG3  SZ  AML      537 41.41        21.0 0.20                          24.2  33 
                                                                                
