 2009  925 0827 56.6 L  21.201 -99.447 10.0  RAL  1 0.0 0.6LRAL                1
 GAP=360        0.30       1.6     3.9  0.0  0.5817E+01  0.1205E+03  0.2149E+03E
 ACTION:UPD 12-06-08 11:37 OP:RALL STATUS:               ID:20090925082756     I
 2009-09-25-0827-51S.PLUR1_003                                                 6
 STAT SP IPHASW D HRMM SECON CODA AMPLIT PERI AZIMU VELO AIN AR TRES W  DIS CAZ7
 LG3  SN IP        828  0.67                             111    0.0010 21.8  68 
 LG3  SZ E         828  0.70                  247.7 24.9      0        21.8  68 
 LG3  SE IS        828  3.62                             111    0.0010 21.8  68 
 LG3  SZ  AML      828  3.75        10.9 0.18                          21.8  68 
                                                                                
