 2009  927 0904 22.0 L  21.186 -99.316 10.0  RAL  1 0.3 0.5LRAL                1
 GAP=360        3.03     999.9   999.9  0.0  0.3544E+07 -0.9450E-01 -0.3681E-01E
 ACTION:UPD 12-06-08 11:37 OP:RALL STATUS:               ID:20090927090422     I
 2009-09-27-0904-05S.PLUR1_006                                                 6
 STAT SP IPHASW D HRMM SECON CODA AMPLIT PERI AZIMU VELO AIN AR TRES W  DIS CAZ7
 LD5  SZ E         9 4 23.76                  108.3 12.0     14        0.44 274 
 LD5  SN IP        9 4 24.13                             178    0.2910 0.44 274 
 LD5  SE IS        9 4 24.88                             178   -0.2910 0.44 274 
 LD5  SZ  AML      9 4 26.76        17.6 0.40                          0.44 274 
                                                                                
