 2009  927 0859 57.6 L  21.274 -99.241 10.0  RAL  1 0.1-0.1LRAL                1
 GAP=360        0.55     999.9   267.1  0.0  0.3119E+06 -0.9450E-01 -0.3681E-01E
 ACTION:UPD 12-06-08 11:37 OP:RALL STATUS:               ID:20090927085957     I
 2009-09-27-0859-50S.PLUR1_003                                                 6
 STAT SP IPHASW D HRMM SECON CODA AMPLIT PERI AZIMU VELO AIN AR TRES W  DIS CAZ7
 LG3  SZ E         859 59.69                  101.0 20.2      2        1.23 279 
 LG3  SN IP        859 59.70                             173    0.1910 1.23 279 
 LG3  SE IS        9 0  0.68                             173   -0.1910 1.23 279 
 LG3  SZ  AML      9 0  1.07         4.7 0.36                          1.23 279 
                                                                                
