 2009  927 0854 56.6 L  20.929 -98.481  1.8  RAL  2 1.0 2.0LRAL                1
 GAP=353        4.98     162.0    38.8  0.0  0.5787E+03 -0.9450E-01 -0.3681E-01E
 ACTION:UPD 12-06-08 11:37 OP:RALL STATUS:               ID:20090927085456     I
 2009-09-27-0855-06S.PLUR1_006                                                 6
 STAT SP IPHASW D HRMM SECON CODA AMPLIT PERI AZIMU VELO AIN AR TRES W  DIS CAZ7
 LG3  SZ E         855 15.73                  117.9 14.1      2        88.9 296 
 LG3  SN IP        855 15.74                              63    4.57 0 88.9 296 
 LG3  SE IS        855 18.20                              63   -3.6010 88.9 296 
 LG3  SZ  AML      855 18.65       102.9 0.40                          88.9 296 
 LD5  SZ E         855 24.63                  110.4  9.7      2        91.8 288 
 LD5  SN IP        855 24.69                              63   13.08 0 91.8 288 
 LD5  SE IS        855 26.15                              63    3.6010 91.8 288 
 LD5  SZ  AML      855 27.92        42.2 0.44                          91.8 288 
                                                                                
