 2009  927 1917 51.6 L  21.239 -99.280 10.0  RAL  1 0.0 0.5LRAL                1
 GAP=360        0.32       7.5     5.7  0.0  0.4239E+02 -0.9450E-01 -0.3681E-01E
 ACTION:UPD 12-06-08 11:37 OP:RALL STATUS:               ID:20090927191751     I
 2009-09-27-1917-45S.PLUR1_003                                                 6
 STAT SP IPHASW D HRMM SECON CODA AMPLIT PERI AZIMU VELO AIN AR TRES W  DIS CAZ7
 LG3  SZ E        1917 53.63                  215.1 15.7      0        4.97  35 
 LG3  SN IP       1917 53.67                             154    0.0810 4.97  35 
 LG3  SE IS       1917 54.99                             154   -0.0810 4.97  35 
 LG3  SZ  AML     1917 55.90        18.0 0.42                          4.97  35 
                                                                                
