 2009  927 2210 37.6 L  21.290 -99.232 10.0  RAL  1 0.2 0.1LRAL                1
 GAP=360        0.66      20.1    28.0  0.0  0.5624E+03 -0.9450E-01 -0.3681E-01E
 ACTION:UPD 12-06-08 11:37 OP:RALL STATUS:               ID:20090927221037     I
 2009-09-27-2210-30S.PLUR1_003                                                 6
 STAT SP IPHASW D HRMM SECON CODA AMPLIT PERI AZIMU VELO AIN AR TRES W  DIS CAZ7
 LG3  SN IP       2210 39.89                             166    0.3910 2.66 233 
 LG3  SZ E        2210 39.89                   52.5 26.9      0        2.66 233 
 LG3  SE IS       2210 40.49                             166   -0.3910 2.66 233 
 LG3  SZ  AML     2210 40.59         6.2 0.10                          2.66 233 
                                                                                
