 2009  928 0337 25.0 L  21.279 -99.239 10.0  RAL  1 0.1 0.2LRAL                1
 GAP=360        0.57     999.9   852.2  0.0 -0.2591E+07 -0.9450E-01 -0.3681E-01E
 ACTION:UPD 12-06-08 11:37 OP:RALL STATUS:               ID:20090928033725     I
 2009-09-28-0337-17S.PLUR1_003                                                 6
 STAT SP IPHASW D HRMM SECON CODA AMPLIT PERI AZIMU VELO AIN AR TRES W  DIS CAZ7
 LG3  SZ E         337 27.15                   76.3 21.6      0        1.40 256 
 LG3  SN IP        337 27.16                             172    0.3310 1.40 256 
 LG3  SE IS        337 27.87                             172   -0.3310 1.40 256 
 LG3  SZ  AML      337 27.97         8.4 0.40                          1.40 256 
                                                                                
