 2009  928 1016 42.5 L  21.260 -99.251 10.0  RAL  1 0.2 0.1LRAL                1
 GAP=360        1.51     117.5    10.0  0.0 -0.1180E+04 -0.9450E-01 -0.3681E-01E
 ACTION:UPD 12-06-08 11:37 OP:RALL STATUS:               ID:20090928101642     I
 2009-09-28-1016-35S.PLUR1_003                                                 6
 STAT SP IPHASW D HRMM SECON CODA AMPLIT PERI AZIMU VELO AIN AR TRES W  DIS CAZ7
 LG3  SN IP       1016 44.68                             171    0.3010 1.69 355 
 LG3  SZ E        1016 44.69                  182.2 17.1      7        1.69 355 
 LG3  SE IS       1016 45.44                             171   -0.3010 1.69 355 
 LG3  SZ  AML     1016 45.56         6.3 0.10                          1.69 355 
                                                                                
