 2009  928 1432 20.1 L  20.976 -98.873 10.0  RAL  1 0.0 0.5LRAL                1
 GAP=360        0.30       2.1     3.5  0.0 -0.6039E+01 -0.9450E-01 -0.3681E-01E
 ACTION:UPD 12-06-08 11:37 OP:RALL STATUS:               ID:20090928143220     I
 2009-09-28-1432-22S.PLUR1_006                                                 6
 STAT SP IPHASW D HRMM SECON CODA AMPLIT PERI AZIMU VELO AIN AR TRES W  DIS CAZ7
 LO8  SZ E        1432 26.85                  119.9  6.5      0        40.7 300 
 LO8  SN IP       1432 27.06                             100    0.0210 40.7 300 
 LO8  SE IS       1432 32.07                             100   -0.0210 40.7 300 
 LO8  SZ  AML     1432 32.35         4.4 0.30                          40.7 300 
                                                                                
