 2009  930 0801 32.9 L  21.270 -99.242 10.0  RAL  1 0.2                        1
 GAP=360        1.33     999.9   999.9  0.0  0.9571E+07 -0.9450E-01 -0.3681E-01E
 ACTION:UPD 12-06-08 11:37 OP:RALL STATUS:               ID:20090930080132     I
 2009-09-30-0801-26S.PLUR1_003                                                 6
 STAT SP IPHASW D HRMM SECON CODA AMPLIT PERI AZIMU VELO AIN AR TRES W  DIS CAZ7
 LG3  SN IP        8 1 35.08                             173    0.3110 1.28 299 
 LG3  SZ E         8 1 35.09                  113.6 29.5     -5        1.28 299 
 LG3  SE IS        8 1 35.82                             173   -0.3110 1.28 299 
                                                                                
