 2009  930 1134 21.9 L  21.276 -99.263 10.0  RAL  1 0.2 0.1LRAL                1
 GAP=360        0.72     999.9   999.9  0.0  0.3057E+08 -0.9450E-01 -0.3681E-01E
 ACTION:UPD 12-06-08 11:37 OP:RALL STATUS:               ID:20090930113421     I
 2009-09-30-1134-14S.PLUR1_003                                                 6
 STAT SP IPHASW D HRMM SECON CODA AMPLIT PERI AZIMU VELO AIN AR TRES W  DIS CAZ7
 LG3  SN IP       1134 24.20                             174    0.4410 1.14  93 
 LG3  SZ E        1134 24.24                  272.5 22.2      0        1.14  93 
 LG3  SE IS       1134 24.67                             174   -0.4410 1.14  93 
 LG3  SZ  AML     1134 25.10         6.7 0.26                          1.14  93 
                                                                                
