 2009  930 2149 37.2 L  21.098 -99.195 34.6  RAL  2 1.3 0.4LRAL                1
 GAP=353        7.45      21.5    66.3999.9 -0.7391E+03 -0.3726E+05  0.4074E+04E
 ACTION:UPD 12-06-08 11:37 OP:RALL STATUS:               ID:20090930214937     I
 2009-09-30-2149-39S.PLUR1_006                                                 6
 STAT SP IPHASW D HRMM SECON CODA AMPLIT PERI AZIMU VELO AIN AR TRES W  DIS CAZ7
 LO8  SN IP       2149 46.12                              94    3.4010 7.06 344 
 LO8  SZ E        2149 46.14                  147.5  6.8    -16        7.06 344 
 LO8  SE IS       2149 49.08                              94    2.3110 7.06 344 
 LO8  SZ  AML     2149 49.33         1.2 0.10                          7.06 344 
 LT7  SN IP       2149 43.90                              92   -0.8110 35.6 337 
 LT7  SZ E        2149 43.92                  155.0  8.0     -1        35.6 337 
 LT7  SE IS       2149 45.31                              92   -4.9110 35.6 337 
 LT7  SZ  AML     2149 45.46         8.8 0.18                          35.6 337 
                                                                                
