 2011  6 2 1955 58.7 L                                                         1
 ACTION:REG 12-04-07 10:26 OP:RALL STATUS:               ID:20110602195558     I
 2011-06-02-1955-58S.PLUR1_003                                                 6
 STAT SP IPHASW D HRMM SECON CODA AMPLIT PERI AZIMU VELO AIN AR TRES W  DIS CAZ7
 LZ4  SZ E        1956  7.60                  151.9 18.6                        
 LZ4  SZ  AML     1956  9.01        90.7 0.24                                   
 LZ4  SN IP       1956  7.61                                                    
 LZ4  SE IS       1956  8.72                                                    
                                                                                
