 2011  620  410  3.6 L                                                         1
 ACTION:REG 12-04-07 10:26 OP:RALL STATUS:               ID:20110620041003     I
 2011-06-20-0410-03S.PLUR1_003                                                 6
 STAT SP IPHASW D HRMM SECON CODA AMPLIT PERI AZIMU VELO AIN AR TRES W  DIS CAZ7
 LZ4  SZ E         410 13.17                  297.2 14.7                        
 LZ4  SZ  AML      410 14.04        58.8 0.14                                   
 LZ4  SN IP        410 13.19                                                    
 LZ4  SE IS        410 13.62                                                    
                                                                                
