 2011  620 1247 58.4 L                                                         1
 ACTION:REG 12-04-07 10:27 OP:RALL STATUS:               ID:20110620124758     I
 2011-06-20-1247-58S.PLUR1_003                                                 6
 STAT SP IPHASW D HRMM SECON CODA AMPLIT PERI AZIMU VELO AIN AR TRES W  DIS CAZ7
 LZ4  SZ E        1248  7.45                  159.8 15.6                        
 LZ4  SZ  AML     1248  8.88      1218.7 0.22                                   
 LZ4  SN IP       1248  7.44                                                    
 LZ4  SE IS       1248  8.44                                                    
                                                                                
