 2011  620 1251 25.7 L                                                         1
 ACTION:REG 12-04-07 10:27 OP:RALL STATUS:               ID:20110620125125     I
 2011-06-20-1251-25S.PLUR1_003                                                 6
 STAT SP IPHASW D HRMM SECON CODA AMPLIT PERI AZIMU VELO AIN AR TRES W  DIS CAZ7
 LZ4  SZ E        1251 34.70                  137.4 17.5                        
 LZ4  SZ  AML     1251 36.11        83.2 0.22                                   
 LZ4  SN IP       1251 34.71                                                    
 LZ4  SE IS       1251 35.70                                                    
                                                                                
