 2011  621  129 35.0 L                                                         1
 ACTION:REG 12-04-07 10:28 OP:RALL STATUS:               ID:20110621012934     I
 2011-06-21-0129-34S.PLUR1_003                                                 6
 STAT SP IPHASW D HRMM SECON CODA AMPLIT PERI AZIMU VELO AIN AR TRES W  DIS CAZ7
 LZ4  SZ E         129 44.63                  318.4 17.9                        
 LZ4  SZ  AML      129 46.41        27.7 0.86                                   
 LZ4  SN IP        129 44.68                                                    
 LZ4  SE IS        129 45.95                                                    
                                                                                
