 2011  621 19 1 15.6 L                                                         1
 ACTION:REG 12-04-07 12:21 OP:RALL STATUS:               ID:20110621190115     I
 2011-06-21-1901-15S.PLUR1_003                                                 6
 STAT SP IPHASW D HRMM SECON CODA AMPLIT PERI AZIMU VELO AIN AR TRES W  DIS CAZ7
 LZ4  SZ E        19 1 24.46                  319.2 26.5                        
 LZ4  SZ  AML     19 1 26.05        48.1 0.26                                   
 LZ4  SN IP       19 1 24.57                                                    
 LZ4  SE IS       19 1 25.60                                                    
                                                                                
