 2011  621 1522 19.4 L                                                         1
 ACTION:REG 12-04-07 12:21 OP:RALL STATUS:               ID:20110621152219     I
 2011-06-21-1522-19S.PLUR1_003                                                 6
 STAT SP IPHASW D HRMM SECON CODA AMPLIT PERI AZIMU VELO AIN AR TRES W  DIS CAZ7
 LZ4  SZ E        1522 28.86                  290.0 17.9                        
 LZ4  SZ  AML     1522 29.37        52.1 0.14                                   
 LZ4  SN IP       1522 28.89                                                    
 LZ4  SE IS       1522 29.29                                                    
                                                                                
