 2011  621 14 4 54.5 L                                                         1
 ACTION:REG 12-04-07 10:28 OP:RALL STATUS:               ID:20110621140454     I
 2011-06-21-1404-54S.PLUR1_003                                                 6
 STAT SP IPHASW D HRMM SECON CODA AMPLIT PERI AZIMU VELO AIN AR TRES W  DIS CAZ7
 LZ4  SZ E        14 5  3.43                   79.9 20.2                        
 LZ4  SZ  AML     14 5  4.74        27.5 0.22                                   
 LZ4  SN IP       14 5  3.42                                                    
 LZ4  SE IS       14 5  4.26                                                    
                                                                                
