 2011  622  628 46.6 L                                                         1
 ACTION:REG 12-04-07 12:22 OP:RALL STATUS:               ID:20110622062846     I
 2011-06-22-0628-46S.PLUR1_003                                                 6
 STAT SP IPHASW D HRMM SECON CODA AMPLIT PERI AZIMU VELO AIN AR TRES W  DIS CAZ7
 LZ4  SN IP        628 55.73                                                    
 LZ4  SE IS        628 58.15                                                    
 LZ4  SZ E         628 55.56                  255.5 12.4                        
 LZ4  SZ  AML      628 59.64        32.9 0.26                                   
                                                                                
