 2011  622  214 45.0 L                                                         1
 ACTION:REG 12-04-07 12:21 OP:RALL STATUS:               ID:20110622021445     I
 2011-06-22-0214-45S.PLUR1_003                                                 6
 STAT SP IPHASW D HRMM SECON CODA AMPLIT PERI AZIMU VELO AIN AR TRES W  DIS CAZ7
 LZ4  SZ E         214 54.11                  261.3 12.5                        
 LZ4  SZ  AML      214 59.01       301.5 0.44                                   
 LZ4  SN IP        214 54.13                                                    
 LZ4  SE IS        214 56.88                                                    
                                                                                
