 2011  622  849 36.7 L                                                         1
 ACTION:REG 12-04-07 12:22 OP:RALL STATUS:               ID:20110622084936     I
 2011-06-22-0849-36S.PLUR1_003                                                 6
 STAT SP IPHASW D HRMM SECON CODA AMPLIT PERI AZIMU VELO AIN AR TRES W  DIS CAZ7
 LZ4  SN IP        849 43.54                                                    
 LZ4  SE IS        849 46.04                                                    
 LZ4  SZ E         849 43.52                  234.7 17.5                        
 LZ4  SZ  AML      849 48.80        12.4 0.68                                   
                                                                                
