 2011  622  728 35.8 L                                                         1
 ACTION:REG 12-04-07 12:22 OP:RALL STATUS:               ID:20110622072835     I
 2011-06-22-0728-35S.PLUR1_003                                                 6
 STAT SP IPHASW D HRMM SECON CODA AMPLIT PERI AZIMU VELO AIN AR TRES W  DIS CAZ7
 LZ4  SN IP        728 45.31                                                    
 LZ4  SE IS        728 51.58                                                    
 LZ4  SZ E         728 45.21                  280.7 16.4                        
 LZ4  SZ  AML      728 54.52       108.0 0.24                                   
                                                                                
