 2011  622  032 46.1 L                                                         1
 ACTION:REG 12-04-07 12:21 OP:RALL STATUS:               ID:20110622003246     I
 2011-06-22-0032-46S.PLUR1_003                                                 6
 STAT SP IPHASW D HRMM SECON CODA AMPLIT PERI AZIMU VELO AIN AR TRES W  DIS CAZ7
 LZ4  SZ E         032 55.68                  298.8 25.8                        
 LZ4  SZ  AML      032 56.40       160.1 0.16                                   
 LZ4  SN IP        032 55.70                                                    
 LZ4  SE IS        032 56.29                                                    
                                                                                
