 2011  622 1357 23.9 L                                                         1
 ACTION:REG 12-04-07 12:23 OP:RALL STATUS:               ID:20110622135723     I
 2011-06-22-1357-23S.PLUR1_003                                                 6
 STAT SP IPHASW D HRMM SECON CODA AMPLIT PERI AZIMU VELO AIN AR TRES W  DIS CAZ7
 LZ4  SN IP       1357 31.82                                                    
 LZ4  SE IS       1357 32.88                                                    
 LZ4  SZ IP       1357 31.83                                                    
 LZ4  SZ E        1357 31.84                  159.0 29.8                        
                                                                                
