 2011  622 1441 55.5 L                                                         1
 ACTION:REG 12-04-07 12:23 OP:RALL STATUS:               ID:20110622144155     I
 2011-06-22-1441-55S.PLUR1_003                                                 6
 STAT SP IPHASW D HRMM SECON CODA AMPLIT PERI AZIMU VELO AIN AR TRES W  DIS CAZ7
 LZ4  SZ E        1442  5.11                  333.0  7.3                        
 LZ4  SZ  AML     1442  6.97        37.5 0.30                                   
 LZ4  SN IP       1442  5.09                                                    
 LZ4  SE IS       1442  6.46                                                    
                                                                                
