 2011  622 1450  7.8 L                                                         1
 ACTION:REG 12-04-07 12:23 OP:RALL STATUS:               ID:20110622145007     I
 2011-06-22-1450-07S.PLUR1_003                                                 6
 STAT SP IPHASW D HRMM SECON CODA AMPLIT PERI AZIMU VELO AIN AR TRES W  DIS CAZ7
 LZ4  SZ E        1450 17.64                  285.6 24.2                        
 LZ4  SZ  AML     1450 21.91       108.1 0.44                                   
 LZ4  SN IP       1450 17.67                                                    
 LZ4  SE IS       1450 20.22                                                    
                                                                                
