 2011  622 18 1 42.5 L                                                         1
 ACTION:REG 12-04-07 12:23 OP:RALL STATUS:               ID:20110622180142     I
 2011-06-22-1801-42S.PLUR1_003                                                 6
 STAT SP IPHASW D HRMM SECON CODA AMPLIT PERI AZIMU VELO AIN AR TRES W  DIS CAZ7
 LZ4  SZ E        18 1 51.76                  264.4 53.6                        
 LZ4  SZ  AML     18 1 56.10        55.0 0.36                                   
 LZ4  SN IP       18 1 51.91                                                    
 LZ4  SE IS       18 1 54.41                                                    
                                                                                
