 2011  622 1023 12.7 L                                                         1
 ACTION:REG 12-04-07 12:22 OP:RALL STATUS:               ID:20110622102312     I
 2011-06-22-1023-12S.PLUR1_003                                                 6
 STAT SP IPHASW D HRMM SECON CODA AMPLIT PERI AZIMU VELO AIN AR TRES W  DIS CAZ7
 LZ4  SZ E        1023 18.95                  301.5 13.6                        
 LZ4  SZ  AML     1023 22.85        13.9 0.48                                   
 LZ4  SN IP       1023 18.90                                                    
 LZ4  SE IS       1023 21.95                                                    
                                                                                
