 2011  622 16 3  5.0 L                                                         1
 ACTION:REG 12-04-07 12:23 OP:RALL STATUS:               ID:20110622160304     I
 2011-06-22-1603-04S.PLUR1_003                                                 6
 STAT SP IPHASW D HRMM SECON CODA AMPLIT PERI AZIMU VELO AIN AR TRES W  DIS CAZ7
 LZ4  SN IP       16 3 14.37                                                    
 LZ4  SE IS       16 3 17.00                                                    
 LZ4  SZ E        16 3 14.37                  266.5 16.1                        
 LZ4  SZ  AML     16 3 17.96        33.0 0.45                                   
                                                                                
