 2011  622 1255 41.6 L                                                         1
 ACTION:REG 12-04-07 12:23 OP:RALL STATUS:               ID:20110622125541     I
 2011-06-22-1255-41S.PLUR1_003                                                 6
 STAT SP IPHASW D HRMM SECON CODA AMPLIT PERI AZIMU VELO AIN AR TRES W  DIS CAZ7
 LT9  SZ E        1255 48.66                  179.1  8.1                        
 LT9  SZ  AML     1255 51.51         3.9 0.24                                   
 LT9  SN IP       1255 48.63                                                    
 LT9  SE IS       1255 51.03                                                    
                                                                                
