 2011  623  554  7.3 L                                                         1
 ACTION:REG 12-04-07 12:24 OP:RALL STATUS:               ID:20110623055407     I
 2011-06-23-0554-07S.PLUR1_003                                                 6
 STAT SP IPHASW D HRMM SECON CODA AMPLIT PERI AZIMU VELO AIN AR TRES W  DIS CAZ7
 LZ4  SZ E         554 16.69                  166.7 10.6                        
 LZ4  SZ  AML      554 18.48        14.6 0.22                                   
 LZ4  SN IP        554 16.69                                                    
 LZ4  SE IS        554 18.15                                                    
                                                                                
