 2011  623  241 42.0 L                                                         1
 ACTION:REG 12-04-07 12:24 OP:RALL STATUS:               ID:20110623024142     I
 2011-06-23-0241-42S.PLUR1_003                                                 6
 STAT SP IPHASW D HRMM SECON CODA AMPLIT PERI AZIMU VELO AIN AR TRES W  DIS CAZ7
 LZ4  SZ E         241 50.38                  355.2 35.3                        
 LZ4  SZ  AML      241 54.59        20.9 0.24                                   
 LZ4  SN IP        241 50.42                                                    
 LZ4  SE IS        241 52.96                                                    
                                                                                
