 2011  623  148 35.8 L                                                         1
 ACTION:REG 12-04-07 12:24 OP:RALL STATUS:               ID:20110623014835     I
 2011-06-23-0148-35S.PLUR1_003                                                 6
 STAT SP IPHASW D HRMM SECON CODA AMPLIT PERI AZIMU VELO AIN AR TRES W  DIS CAZ7
 LZ4  SZ E         148 44.96                  283.2 28.4                        
 LZ4  SZ  AML      148 48.07        35.9 0.50                                   
 LZ4  SN IP        148 45.05                                                    
 LZ4  SE IS        148 47.41                                                    
                                                                                
