 2011  623  2 0 24.1 L                                                         1
 ACTION:REG 12-04-07 12:24 OP:RALL STATUS:               ID:20110623020024     I
 2011-06-23-0200-24S.PLUR1_003                                                 6
 STAT SP IPHASW D HRMM SECON CODA AMPLIT PERI AZIMU VELO AIN AR TRES W  DIS CAZ7
 LZ4  SZ E         2 0 33.38                  253.0 38.4                        
 LZ4  SZ  AML      2 0 38.52      3224.6 0.45                                   
 LZ4  SN IP        2 0 33.46                                                    
 LZ4  SE IS        2 0 36.01                                                    
                                                                                
