 2011  623 1521  8.4 L                                                         1
 ACTION:REG 12-04-07 12:25 OP:RALL STATUS:               ID:20110623152108     I
 2011-06-23-1521-08S.PLUR1_003                                                 6
 STAT SP IPHASW D HRMM SECON CODA AMPLIT PERI AZIMU VELO AIN AR TRES W  DIS CAZ7
 LZ4  SZ E        1521 17.40                  269.4 13.1                        
 LZ4  SZ  AML     1521 20.95        92.4 0.36                                   
 LZ4  SN IP       1521 17.52                                                    
 LZ4  SE IS       1521 20.18                                                    
                                                                                
