 2011  623 2255 36.5 L                                                         1
 ACTION:REG 12-04-07 12:26 OP:RALL STATUS:               ID:20110623225536     I
 2011-06-23-2255-36S.PLUR1_009                                                 6
 STAT SP IPHASW D HRMM SECON CODA AMPLIT PERI AZIMU VELO AIN AR TRES W  DIS CAZ7
 LA4  SZ E        2255 48.10                  167.1  9.1                        
 LA4  SZ  AML     2255 53.19      1811.7 0.34                                   
 LA4  SN IP       2255 48.03                                                    
 LA4  SE IS       2255 52.07                                                    
 LO8  SZ E        2255 47.60                  116.4  6.7                        
 LO8  SZ  AML     2255 52.61       115.6 0.64                                   
 LO8  SN IP       2255 47.65                                                    
 LO8  SE IS       2255 51.97                                                    
 LT9  SZ E        2255 46.51                  189.8  7.8                        
 LT9  SZ  AML     2255 49.36       363.6 0.26                                   
 LT9  SN IP       2255 46.47                                                    
 LT9  SE IS       2255 48.90                                                    
                                                                                
