 2011  623 2318 45.7 L                                                         1
 ACTION:REG 12-04-07 12:26 OP:RALL STATUS:               ID:20110623231845     I
 2011-06-23-2318-45S.PLUR1_003                                                 6
 STAT SP IPHASW D HRMM SECON CODA AMPLIT PERI AZIMU VELO AIN AR TRES W  DIS CAZ7
 LT9  SZ  AML     2318 56.37         3.0 0.36                                   
 LT9  SZ E        2318 52.35                  172.3  7.6                        
 LT9  SN IP       2318 52.31                                                    
 LT9  SE IS       2318 54.76                                                    
                                                                                
