 2011  624  418 25.3 L                                                         1
 ACTION:REG 12-04-07 12:26 OP:RALL STATUS:               ID:20110624041825     I
 2011-06-24-0418-25S.PLUR1_003                                                 6
 STAT SP IPHASW D HRMM SECON CODA AMPLIT PERI AZIMU VELO AIN AR TRES W  DIS CAZ7
 LZ4  SN IP        418 32.08                                                    
 LZ4  SE IS        418 34.63                                                    
 LZ4  SZ E         418 32.07                  244.8 33.1                        
 LZ4  SZ  AML      418 35.78        12.3 0.24                                   
                                                                                
