 2011  624  833 12.2 L                                                         1
 ACTION:REG 12-04-07 12:26 OP:RALL STATUS:               ID:20110624083312     I
 2011-06-24-0833-12S.PLUR1_003                                                 6
 STAT SP IPHASW D HRMM SECON CODA AMPLIT PERI AZIMU VELO AIN AR TRES W  DIS CAZ7
 LZ4  SN IP        833 21.41                                                    
 LZ4  SE IS        833 22.54                                                    
 LZ4  SZ E         833 21.46                  262.4 25.7                        
 LZ4  SZ  AML      833 23.06        33.8 0.46                                   
                                                                                
