 2011  624  653 32.3 L                                                         1
 ACTION:REG 12-04-07 12:26 OP:RALL STATUS:               ID:20110624065332     I
 2011-06-24-0653-32S.PLUR1_003                                                 6
 STAT SP IPHASW D HRMM SECON CODA AMPLIT PERI AZIMU VELO AIN AR TRES W  DIS CAZ7
 LZ4  SZ E         653 39.20                  302.5 71.6                        
 LZ4  SZ  AML      653 43.64        12.7 0.38                                   
 LZ4  SN IP        653 39.23                                                    
 LZ4  SE IS        653 41.88                                                    
                                                                                
