 2011  624 1048 32.2 L                                                         1
 ACTION:REG 12-04-07 12:26 OP:RALL STATUS:               ID:20110624104832     I
 2011-06-24-1048-32S.PLUR1_003                                                 6
 STAT SP IPHASW D HRMM SECON CODA AMPLIT PERI AZIMU VELO AIN AR TRES W  DIS CAZ7
 LT9  SN IP       1048 40.36                                                    
 LT9  SE IS       1048 41.97                                                    
 LT9  SZ E        1048 40.37                  173.8  6.5                        
 LT9  SZ  AML     1048 42.40         1.9 0.18                                   
                                                                                
