 2011  624 1352 16.4 L                                                         1
 ACTION:REG 12-04-07 12:26 OP:RALL STATUS:               ID:20110624135216     I
 2011-06-24-1352-16S.PLUR1_003                                                 6
 STAT SP IPHASW D HRMM SECON CODA AMPLIT PERI AZIMU VELO AIN AR TRES W  DIS CAZ7
 LZ4  SZ E        1352 25.50                  306.4 26.1                        
 LZ4  SZ  AML     1352 27.10        88.8 0.14                                   
 LZ4  SN IP       1352 25.53                                                    
 LZ4  SE IS       1352 26.63                                                    
                                                                                
