 2011  624 1617 26.3 L                                                         1
 ACTION:REG 12-04-07 12:27 OP:RALL STATUS:               ID:20110624161726     I
 2011-06-24-1617-26S.PLUR1_003                                                 6
 STAT SP IPHASW D HRMM SECON CODA AMPLIT PERI AZIMU VELO AIN AR TRES W  DIS CAZ7
 LZ4  SZ E        1617 35.61                  283.4 17.9                        
 LZ4  SZ  AML     1617 37.30        19.9 0.88                                   
 LZ4  SN IP       1617 35.63                                                    
 LZ4  SE IS       1617 36.53                                                    
                                                                                
