 2011  624 2111 50.8 L                                                         1
 ACTION:REG 12-04-07 12:27 OP:RALL STATUS:               ID:20110624211150     I
 2011-06-24-2111-50S.PLUR1_003                                                 6
 STAT SP IPHASW D HRMM SECON CODA AMPLIT PERI AZIMU VELO AIN AR TRES W  DIS CAZ7
 LZ4  SZ E        2112  0.69                  185.7 18.3                        
 LZ4  SZ  AML     2112  2.49        87.0 0.20                                   
 LZ4  SN IP       2112  0.69                                                    
 LZ4  SE IS       2112  1.91                                                    
                                                                                
