 2011  624 2119 43.0 L                                                         1
 ACTION:REG 12-04-07 12:27 OP:RALL STATUS:               ID:20110624211943     I
 2011-06-24-2119-43S.PLUR1_003                                                 6
 STAT SP IPHASW D HRMM SECON CODA AMPLIT PERI AZIMU VELO AIN AR TRES W  DIS CAZ7
 LZ4  SZ E        2119 51.63                  266.6 26.6                        
 LZ4  SZ  AML     2119 55.44        21.9 0.28                                   
 LZ4  SN IP       2119 51.73                                                    
 LZ4  SE IS       2119 54.18                                                    
                                                                                
