 2011  625  436 14.6 L                                                         1
 ACTION:REG 12-04-07 12:29 OP:RALL STATUS:               ID:20110625043614     I
 2011-06-25-0436-14S.PLUR1_009                                                 6
 STAT SP IPHASW D HRMM SECON CODA AMPLIT PERI AZIMU VELO AIN AR TRES W  DIS CAZ7
                                                                                
