 2011  625  248 59.0 L                                                         1
 ACTION:REG 12-04-07 12:29 OP:RALL STATUS:               ID:20110625024858     I
 2011-06-25-0248-58S.PLUR1_003                                                 6
 STAT SP IPHASW D HRMM SECON CODA AMPLIT PERI AZIMU VELO AIN AR TRES W  DIS CAZ7
 LT9  SZ E         249  6.26                  182.0  8.1                        
 LT9  SZ  AML      249  9.62         2.7 0.62                                   
 LT9  SN IP        249  6.34                                                    
 LT9  SE IS        249  8.52                                                    
                                                                                
