 2011  625  534  5.9 L                                                         1
 ACTION:REG 12-04-07 12:30 OP:RALL STATUS:               ID:20110625053405     I
 2011-06-25-0534-05S.PLUR1_018                                                 6
 STAT SP IPHASW D HRMM SECON CODA AMPLIT PERI AZIMU VELO AIN AR TRES W  DIS CAZ7
                                                                                
