 2011  625  359 52.6 L                                                         1
 ACTION:REG 12-04-07 12:29 OP:RALL STATUS:               ID:20110625035952     I
 2011-06-25-0359-52S.PLUR1_003                                                 6
 STAT SP IPHASW D HRMM SECON CODA AMPLIT PERI AZIMU VELO AIN AR TRES W  DIS CAZ7
 LZ4  SZ E         4 0  1.85                  317.3 16.0                        
 LZ4  SZ  AML      4 0  4.97        35.6 0.70                                   
 LZ4  SN IP        4 0  1.89                                                    
 LZ4  SE IS        4 0  4.35                                                    
                                                                                
