 2011  625  528 33.4 L                                                         1
 ACTION:REG 12-04-07 12:30 OP:RALL STATUS:               ID:20110625052833     I
 2011-06-25-0528-33S.PLUR1_015                                                 6
 STAT SP IPHASW D HRMM SECON CODA AMPLIT PERI AZIMU VELO AIN AR TRES W  DIS CAZ7
                                                                                
