 2011  625  555 21.2 L                                                         1
 ACTION:REG 12-04-07 12:30 OP:RALL STATUS:               ID:20110625055521     I
 2011-06-25-0555-21S.PLUR1_003                                                 6
 STAT SP IPHASW D HRMM SECON CODA AMPLIT PERI AZIMU VELO AIN AR TRES W  DIS CAZ7
                                                                                
