 2011  625  415 13.3 L                                                         1
 ACTION:REG 12-04-07 12:29 OP:RALL STATUS:               ID:20110625041513     I
 2011-06-25-0415-13S.PLUR1_003                                                 6
 STAT SP IPHASW D HRMM SECON CODA AMPLIT PERI AZIMU VELO AIN AR TRES W  DIS CAZ7
 LZ4  SZ E         415 22.48                  269.4 19.4                        
 LZ4  SZ  AML      415 26.49      2049.5 0.74                                   
 LZ4  SN IP        415 22.61                                                    
 LZ4  SE IS        415 25.22                                                    
                                                                                
