 2011  625  231 16.2 L                                                         1
 ACTION:REG 12-04-07 12:28 OP:RALL STATUS:               ID:20110625023116     I
 2011-06-25-0231-16S.PLUR1_003                                                 6
 STAT SP IPHASW D HRMM SECON CODA AMPLIT PERI AZIMU VELO AIN AR TRES W  DIS CAZ7
 LZ4  SZ E         231 23.08                  295.2 15.1                        
 LZ4  SZ  AML      231 25.89        13.6 0.66                                   
 LZ4  SN IP        231 23.08                                                    
 LZ4  SE IS        231 25.22                                                    
                                                                                
