 2011  625  152 48.5 L                                                         1
 ACTION:REG 12-04-07 12:28 OP:RALL STATUS:               ID:20110625015248     I
 2011-06-25-0152-48S.PLUR1_003                                                 6
 STAT SP IPHASW D HRMM SECON CODA AMPLIT PERI AZIMU VELO AIN AR TRES W  DIS CAZ7
 LT9  SZ E         152 54.91                  183.8 11.7                        
 LT9  SZ  AML      152 58.23         2.4 0.62                                   
 LT9  SN IP        152 54.80                                                    
 LT9  SE IS        152 57.24                                                    
                                                                                
