 2011  625  112 29.8 L                                                         1
 ACTION:REG 12-04-07 12:28 OP:RALL STATUS:               ID:20110625011229     I
 2011-06-25-0112-29S.PLUR1_015                                                 6
 STAT SP IPHASW D HRMM SECON CODA AMPLIT PERI AZIMU VELO AIN AR TRES W  DIS CAZ7
 LA4  SZ E         112 41.15                  167.5 10.9                        
 LA4  SZ  AML      112 45.78       558.9 0.28                                   
 LA4  SN IP        112 41.17                                                    
 LA4  SE IS        112 45.33                                                    
                                                                                
