 2011  625  123 12.2 L                                                         1
 ACTION:REG 12-04-07 12:28 OP:RALL STATUS:               ID:20110625012312     I
 2011-06-25-0123-12S.PLUR1_003                                                 6
 STAT SP IPHASW D HRMM SECON CODA AMPLIT PERI AZIMU VELO AIN AR TRES W  DIS CAZ7
 LT9  SZ E         123 19.46                  180.7  7.0                        
 LT9  SZ  AML      123 23.37         5.8 0.36                                   
 LT9  SN IP        123 19.49                                                    
 LT9  SE IS        123 22.31                                                    
                                                                                
