 2011  625  356  3.2 L                                                         1
 ACTION:REG 12-04-07 12:29 OP:RALL STATUS:               ID:20110625035603     I
 2011-06-25-0356-03S.PLUR1_003                                                 6
 STAT SP IPHASW D HRMM SECON CODA AMPLIT PERI AZIMU VELO AIN AR TRES W  DIS CAZ7
 LZ4  SZ E         356 12.63                  265.1 18.8                        
 LZ4  SZ  AML      356 15.89       138.2 0.50                                   
 LZ4  SN IP        356 12.81                                                    
 LZ4  SE IS        356 15.27                                                    
                                                                                
