 2011  625  138 27.0 L                                                         1
 ACTION:REG 12-04-07 12:28 OP:RALL STATUS:               ID:20110625013826     I
 2011-06-25-0138-26S.PLUR1_003                                                 6
 STAT SP IPHASW D HRMM SECON CODA AMPLIT PERI AZIMU VELO AIN AR TRES W  DIS CAZ7
 LT9  SZ E         138 33.03                  176.8  9.4                        
 LT9  SZ  AML      138 36.39         1.6 0.36                                   
 LT9  SN IP        138 33.03                                                    
 LT9  SE IS        138 35.57                                                    
                                                                                
