 2011  625  332  5.7 L                                                         1
 ACTION:REG 12-04-07 12:29 OP:RALL STATUS:               ID:20110625033205     I
 2011-06-25-0332-05S.PLUR1_003                                                 6
 STAT SP IPHASW D HRMM SECON CODA AMPLIT PERI AZIMU VELO AIN AR TRES W  DIS CAZ7
 LT9  SZ E         332 12.17                  190.7  8.8                        
 LT9  SZ  AML      332 15.54         2.4 0.28                                   
 LT9  SN IP        332 12.24                                                    
 LT9  SE IS        332 14.59                                                    
                                                                                
