 2011  625  119  2.4 L                                                         1
 ACTION:REG 12-04-07 12:28 OP:RALL STATUS:               ID:20110625011902     I
 2011-06-25-0119-02S.PLUR1_003                                                 6
 STAT SP IPHASW D HRMM SECON CODA AMPLIT PERI AZIMU VELO AIN AR TRES W  DIS CAZ7
 LT9  SN IP        119  9.57                                                    
 LT9  SE IS        119 12.42                                                    
 LT9  SZ E         119  9.52                  162.5  7.9                        
 LT9  SZ  AML      119 12.76         4.4 0.74                                   
                                                                                
