 2011  625  447 12.9 L                                                         1
 ACTION:REG 12-04-07 12:29 OP:RALL STATUS:               ID:20110625044712     I
 2011-06-25-0447-12S.PLUR1_021                                                 6
 STAT SP IPHASW D HRMM SECON CODA AMPLIT PERI AZIMU VELO AIN AR TRES W  DIS CAZ7
                                                                                
