 2011  625  539 54.1 L                                                         1
 ACTION:REG 12-04-07 12:30 OP:RALL STATUS:               ID:20110625053954     I
 2011-06-25-0539-54S.PLUR1_003                                                 6
 STAT SP IPHASW D HRMM SECON CODA AMPLIT PERI AZIMU VELO AIN AR TRES W  DIS CAZ7
                                                                                
