 2011  627  841 53.3 L                                                         1
 ACTION:REG 11-10-23 12:34 OP:RALL STATUS:               ID:20110627084153     I
 2011-06-27-0841-53S.PLUR1_003                                                 6
 STAT SP IPHASW D HRMM SECON CODA AMPLIT PERI AZIMU VELO AIN AR TRES W  DIS CAZ7
                                                                                
