 2008 10 1 0333 33.5 L  21.340 -99.258 10.0  RAL  1 0.0 0.7LRAL                1
 GAP=360        0.30       4.0     1.5  0.0 -0.5635E+01 -0.2830E+01 -0.7664E+01E
 ACTION:UPD 12-06-08 11:37 OP:RALL STATUS:               ID:20081001033333     I
 2008-10-01-0333-24S.PLUR1_003                                                 6
 STAT SP IPHASW D HRMM SECON CODA AMPLIT PERI AZIMU VELO AIN AR TRES W  DIS CAZ7
 LA4  SN IP        333 36.84                             119    0.0010 16.7 342 
 LA4  SZ E         333 37.00                  161.6 10.2      0        16.7 342 
 LA4  SE IS        333 39.26                             119    0.0010 16.7 342 
 LA4  SZ  AML      333 40.16        14.7 0.32                          16.7 342 
                                                                                
