 2008 10 1 0306 36.7 L  21.316 -99.284 10.0  RAL  1 0.2 0.6LRAL                1
 GAP=360        1.46      65.3    61.4  0.0  0.4011E+04 -0.2830E+01 -0.7664E+01E
 ACTION:UPD 12-06-08 11:37 OP:RALL STATUS:               ID:20081001030636     I
 2008-10-01-0306-24S.PLUR1_003                                                 6
 STAT SP IPHASW D HRMM SECON CODA AMPLIT PERI AZIMU VELO AIN AR TRES W  DIS CAZ7
 LZ4  SZ E         3 6 38.87                  215.9 61.9     -4        2.21  41 
 LZ4  SN IP        3 6 39.18                             168    0.6010 2.21  41 
 LZ4  SE IS        3 6 39.34                             168   -0.6010 2.21  41 
 LZ4  SZ  AML      3 6 40.34        22.0 0.40                          2.21  41 
                                                                                
