 2008 10 1 0647 37.8 L  21.407 -99.271 11.4  RAL  2 0.1 0.3LRAL                1
 GAP=204        0.88       1.9     0.7  9.4 -0.7963E+00  0.2418E-01 -0.2671E+00E
 ACTION:UPD 12-06-08 11:37 OP:RALL STATUS:               ID:20081001064737     I
 2008-10-01-0647-27S.PLUR1_006                                                 6
 STAT SP IPHASW D HRMM SECON CODA AMPLIT PERI AZIMU VELO AIN AR TRES W  DIS CAZ7
 LZ4  SN IP        647 39.68                             146   -0.5810 8.38 179 
 LZ4  SZ E         647 40.30                  357.8 12.1      0        8.38 179 
 LZ4  SE IS        647 42.18                             146    0.1210 8.38 179 
 LZ4  SZ  AML      647 42.38        12.6 0.56                          8.38 179 
 LA4  SZ E         647 40.49                  153.8 20.2      0        9.41 335 
 LA4  SN IP        647 40.79                             145    0.4210 9.41 335 
 LA4  SE IS        647 42.28                             145    0.0310 9.41 335 
 LA4  SZ  AML      647 42.34         5.2 0.16                          9.41 335 
                                                                                
