 2008 10 1 0422 46.3 L  21.344 -99.295 10.0  RAL  1 0.1 0.8LRAL                1
 GAP=360        0.44       9.5    18.0  0.0 -0.1705E+03 -0.2830E+01 -0.7664E+01E
 ACTION:UPD 12-06-08 11:37 OP:RALL STATUS:               ID:20081001042246     I
 2008-10-01-0422-34S.PLUR1_003                                                 6
 STAT SP IPHASW D HRMM SECON CODA AMPLIT PERI AZIMU VELO AIN AR TRES W  DIS CAZ7
 LZ4  SZ E         422 48.36                  299.5  9.3      0        3.05 119 
 LZ4  SN IP        422 48.42                             164    0.2210 3.05 119 
 LZ4  SE IS        422 49.37                             164   -0.2210 3.05 119 
 LZ4  SZ  AML      422 49.52        34.3 0.12                          3.05 119 
                                                                                
