 2008 10 1 0145 54.3 L  21.244 -99.255  6.3  RAL  3 0.2 1.0LRAL                1
 GAP=235        1.96       2.1     1.5 17.1  0.1074E+01 -0.2830E+01 -0.7664E+01E
 ACTION:UPD 12-06-08 11:37 OP:RALL STATUS:               ID:20081001014554     I
 2008-10-01-0145-41S.PLUR1_009                                                 6
 STAT SP IPHASW D HRMM SECON CODA AMPLIT PERI AZIMU VELO AIN AR TRES W  DIS CAZ7
 LZ4  SE IS        145 57.45                             119   -0.4910 9.78 351 
 LA4  SZ E         145 58.91                  178.3  9.7     10        27.2 348 
 LA4  SZ  AML      146  3.62        22.8 0.32                          27.2 348 
 LA4  SN IP        145 58.89                              95   -0.1410 27.2 348 
 LA4  SE IS        146  2.70                              95    0.2210 27.2 348 
 LD5  SZ E         145 56.59                   47.5 11.0      1        9.22 227 
 LD5  SZ  AML      145 59.04        21.0 0.52                          9.22 227 
 LD5  SN IP        145 56.60                             121    0.2710 9.22 227 
 LD5  SE IS        145 58.25                             121    0.4410 9.22 227 
 LZ4  SZ E         145 56.10                  168.7  8.1     -2        9.78 351 
 LZ4  SZ  AML      145 58.09       140.6 0.36                          9.78 351 
 LZ4  SN IP        145 56.11                             119   -0.3010 9.78 351 
                                                                                
