 2008 10 1 0734 56.0 L  21.351 -99.297 10.0  RAL  1 0.1 0.2LRAL                1
 GAP=360        0.39       9.1    12.4  0.0 -0.1124E+03  0.2418E-01 -0.2671E+00E
 ACTION:UPD 12-06-08 11:37 OP:RALL STATUS:               ID:20081001073456     I
 2008-10-01-0734-44S.PLUR1_003                                                 6
 STAT SP IPHASW D HRMM SECON CODA AMPLIT PERI AZIMU VELO AIN AR TRES W  DIS CAZ7
 LZ4  SZ E         734 58.02                  308.1 11.4      0        3.62 128 
 LZ4  SN IP        734 58.07                             161    0.1710 3.62 128 
 LZ4  SE IS        734 59.13                             161   -0.1710 3.62 128 
 LZ4  SZ  AML      734 59.18         8.1 0.16                          3.62 128 
                                                                                
