 2008 10 1 0724 47.9 L  21.194 -99.298 10.0  RAL  1 0.1-0.6LRAL                1
 GAP=360        0.41       7.3    22.1  0.0  0.1605E+03  0.2418E-01 -0.2671E+00E
 ACTION:UPD 12-06-08 11:37 OP:RALL STATUS:               ID:20081001072447     I
 2008-10-01-0724-36S.PLUR1_003                                                 6
 STAT SP IPHASW D HRMM SECON CODA AMPLIT PERI AZIMU VELO AIN AR TRES W  DIS CAZ7
 LD5  SN IP        724 49.99                             167    0.1910 2.46 251 
 LD5  SZ E         724 50.33                   70.6 10.6      0        2.46 251 
 LD5  SE IS        724 50.98                             167   -0.1910 2.46 251 
 LD5  SZ  AML      724 51.06         1.3 0.24                          2.46 251 
                                                                                
