 2008 10 1 0711 57.6 L  21.333 -99.271 10.0  RAL  1 0.9 0.4LRAL                1
 GAP=360       12.09     999.9   999.9  0.0  0.2088E+08  0.2418E-01 -0.2671E+00E
 ACTION:UPD 12-06-08 11:37 OP:RALL STATUS:               ID:20081001071157     I
 2008-10-01-0711-46S.PLUR1_003                                                 6
 STAT SP IPHASW D HRMM SECON CODA AMPLIT PERI AZIMU VELO AIN AR TRES W  DIS CAZ7
 LZ4  SZ E         711 59.48                  267.6 11.1    -57        0.34 145 
 LZ4  SN IP        711 59.48                             178    0.0810 0.34 145 
 LZ4  SE IS        712  0.65                             178   -0.0810 0.34 145 
 LZ4  SN  AML      712  0.82        15.0 0.40                          0.34 145 
                                                                                
