 2008 10 1 0343 51.6 L  21.336 -99.288 10.0  RAL  1 0.1 0.7LRAL                1
 GAP=360        0.42       8.5    28.1  0.0 -0.2379E+03 -0.2830E+01 -0.7664E+01E
 ACTION:UPD 12-06-08 11:37 OP:RALL STATUS:               ID:20081001034351     I
 2008-10-01-0343-38S.PLUR1_003                                                 6
 STAT SP IPHASW D HRMM SECON CODA AMPLIT PERI AZIMU VELO AIN AR TRES W  DIS CAZ7
 LZ4  SZ E         343 53.69                  287.9  8.6      0        2.01 108 
 LZ4  SN IP        343 53.70                             169    0.2010 2.01 108 
 LZ4  SE IS        343 54.65                             169   -0.2010 2.01 108 
 LZ4  SZ  AML      343 54.73        27.2 0.16                          2.01 108 
                                                                                
