 2008 10 1 0844 17.5 L  21.341 -99.301 10.0  RAL  1 0.0 0.3LRAL                1
 GAP=360        0.32       4.0    12.5  0.0 -0.4926E+02  0.2418E-01 -0.2671E+00E
 ACTION:UPD 12-06-08 11:37 OP:RALL STATUS:               ID:20081001084417     I
 2008-10-01-0844-06S.PLUR1_003                                                 6
 STAT SP IPHASW D HRMM SECON CODA AMPLIT PERI AZIMU VELO AIN AR TRES W  DIS CAZ7
 LZ4  SN IP        844 19.52                             161    0.0810 3.49 109 
 LZ4  SZ E         844 19.67                  288.8  7.0      0        3.49 109 
 LZ4  SE IS        844 20.77                             161   -0.0810 3.49 109 
 LZ4  SZ  AML      844 20.91        10.5 0.52                          3.49 109 
                                                                                
