 2008 10 1 0116 33.8 L  21.638 -99.298 10.0  RAL  1 0.0 0.7LRAL                1
 GAP=360        0.30       4.2     0.6  0.0  0.1217E+01 -0.2399E+01  0.1686E+02E
 ACTION:UPD 12-06-08 11:37 OP:RALL STATUS:               ID:20081001011633     I
 2008-10-01-0116-25S.PLUR1_003                                                 6
 STAT SP IPHASW D HRMM SECON CODA AMPLIT PERI AZIMU VELO AIN AR TRES W  DIS CAZ7
 LA4  SZ E         116 37.11                    3.7  8.5      0        17.1 184 
 LA4  SN IP        116 37.15                             118    0.0210 17.1 184 
 LA4  SE IS        116 39.57                             118   -0.0210 17.1 184 
 LA4  SZ  AML      116 41.19        13.5 0.24                          17.1 184 
                                                                                
