 2008 10 1 1208 39.2 L  21.334 -99.281 10.0  RAL  1 0.2 0.2LRAL                1
 GAP=360        0.98     999.9   999.9  0.0  0.5219E+07  0.2121E+01 -0.1577E+01E
 ACTION:UPD 12-06-08 11:37 OP:RALL STATUS:               ID:20081001120839     I
 2008-10-01-1208-27S.PLUR1_003                                                 6
 STAT SP IPHASW D HRMM SECON CODA AMPLIT PERI AZIMU VELO AIN AR TRES W  DIS CAZ7
 LZ4  SZ E        12 8 41.17                  288.8  8.3      0        1.26 109 
 LZ4  SZ  AML     12 8 41.59         8.2 0.56                          1.26 109 
 LZ4  SN IP       12 8 41.71                             173    0.6310 1.26 109 
 LZ4  SE IS       12 8 41.79                             173   -0.6310 1.26 109 
                                                                                
