 2008 10 1 1426 11.1 L  21.311 -99.270 10.0  RAL  1 0.2 0.3LRAL                1
 GAP=360        2.52     154.6   642.5  0.0 -0.9933E+05  0.2121E+01 -0.1577E+01E
 ACTION:UPD 12-06-08 11:37 OP:RALL STATUS:               ID:20081001142611     I
 2008-10-01-1425-59S.PLUR1_003                                                 6
 STAT SP IPHASW D HRMM SECON CODA AMPLIT PERI AZIMU VELO AIN AR TRES W  DIS CAZ7
 LZ4  SZ E        1426 13.02                  168.5 40.0    -11        2.15   0 
 LZ4  SN IP       1426 13.43                             168    0.4210 2.15   0 
 LZ4  SE IS       1426 13.96                             168   -0.4210 2.15   0 
 LZ4  SZ  AML     1426 14.50        11.0 0.36                          2.15   0 
                                                                                
