 2008 10 1 1356 39.0 L  21.347 -99.282 10.0  RAL  1 0.2 0.3LRAL                1
 GAP=360        0.80     792.8   999.9  0.0  0.1048E+07  0.2121E+01 -0.1577E+01E
 ACTION:UPD 12-06-08 11:37 OP:RALL STATUS:               ID:20081001135639     I
 2008-10-01-1356-26S.PLUR1_003                                                 6
 STAT SP IPHASW D HRMM SECON CODA AMPLIT PERI AZIMU VELO AIN AR TRES W  DIS CAZ7
 LZ4  SZ E        1356 41.10                  325.4 10.8      0        2.22 145 
 LZ4  SN IP       1356 41.35                             168    0.5010 2.22 145 
 LZ4  SE IS       1356 41.71                             168   -0.5010 2.22 145 
 LZ4  SZ  AML     1356 42.12        12.0 0.32                          2.22 145 
                                                                                
