 2008 10 1 1041 58.4 L  21.337 -99.269 10.0  RAL  1 0.2 0.5LRAL                1
 GAP=360        1.70     333.0   643.1  0.0 -0.2141E+06  0.2418E-01 -0.2671E+00E
 ACTION:UPD 12-06-08 11:37 OP:RALL STATUS:               ID:20081001104158     I
 2008-10-01-1041-46S.PLUR1_003                                                 6
 STAT SP IPHASW D HRMM SECON CODA AMPLIT PERI AZIMU VELO AIN AR TRES W  DIS CAZ7
 LZ4  SZ E        1042  0.34                  355.7 43.8      8        0.74 183 
 LZ4  SN IP       1042  0.52                             176    0.3110 0.74 183 
 LZ4  SZ  AML     1042  1.02        16.4 0.76                          0.74 183 
 LZ4  SE IS       1042  1.24                             176   -0.3110 0.74 183 
                                                                                
