 2008 10 1 1109 20.8 L  21.325 -99.279 10.0  RAL  1 0.4 0.4LRAL                1
 GAP=360        4.81     999.9   999.9  0.0 -0.1346E+09  0.2418E-01 -0.2671E+00E
 ACTION:UPD 12-06-08 11:37 OP:RALL STATUS:               ID:20081001110920     I
 2008-10-01-1109-09S.PLUR1_003                                                 6
 STAT SP IPHASW D HRMM SECON CODA AMPLIT PERI AZIMU VELO AIN AR TRES W  DIS CAZ7
 LZ4  SN IP       11 9 22.86                             173    0.1810 1.20  59 
 LZ4  SZ E        11 9 22.95                  262.2 18.1     23        1.20  59 
 LZ4  SE IS       11 9 23.84                             173   -0.1810 1.20  59 
 LZ4  SZ  AML     11 9 23.94        13.5 0.20                          1.20  59 
                                                                                
