 2008 10 1 1147 47.1 L  21.367 -99.313  4.0  RAL  2 0.2 0.9LRAL                1
 GAP=310        0.87       1.5     1.6  7.9 -0.2053E+01  0.2121E+01 -0.1577E+01E
 ACTION:UPD 12-06-08 11:37 OP:RALL STATUS:               ID:20081001114747     I
 2008-10-01-1147-34S.PLUR1_006                                                 6
 STAT SP IPHASW D HRMM SECON CODA AMPLIT PERI AZIMU VELO AIN AR TRES W  DIS CAZ7
 LZ4  SZ E        1147 48.46                  312.3 10.5      0        6.05 132 
 LZ4  SN IP       1147 49.14                             130    0.6910 6.05 132 
 LZ4  SE IS       1147 49.17                             130   -0.2810 6.05 132 
 LZ4  SZ  AML     1147 49.31       338.0 0.16                          6.05 132 
 LD5  SZ E        1147 50.44                    1.8 10.6      0        20.0 182 
 LD5  SN IP       1147 50.47                             104   -0.2110 20.0 182 
 LD5  SE IS       1147 53.12                             104   -0.2010 20.0 182 
 LD5  SZ  AML     1147 54.20         3.7 0.24                          20.0 182 
                                                                                
