 2008 10 1 2130 46.4 L  21.345 -99.292 10.0  RAL  1 0.1 0.7LRAL                1
 GAP=360        0.58      15.7    24.7  0.0 -0.3882E+03  0.2121E+01 -0.1577E+01E
 ACTION:UPD 12-06-08 11:37 OP:RALL STATUS:               ID:20081001213046     I
 2008-10-01-2130-34S.PLUR1_003                                                 6
 STAT SP IPHASW D HRMM SECON CODA AMPLIT PERI AZIMU VELO AIN AR TRES W  DIS CAZ7
 LZ4  SZ E        2130 48.62                  304.4  8.4      0        2.78 124 
 LZ4  SN IP       2130 48.64                             165    0.3410 2.78 124 
 LZ4  SE IS       2130 49.34                             165   -0.3410 2.78 124 
 LZ4  SZ  AML     2130 49.48        26.7 0.16                          2.78 124 
                                                                                
