 2008 10 1 2319 53.1 L  21.538 -99.316 10.0  RAL  1 0.0 0.4LRAL                1
 GAP=360        0.30       7.2     0.9  0.0 -0.6564E+01  0.2121E+01 -0.1577E+01E
 ACTION:UPD 12-06-08 11:37 OP:RALL STATUS:               ID:20081001231953     I
 2008-10-01-2319-42S.PLUR1_003                                                 6
 STAT SP IPHASW D HRMM SECON CODA AMPLIT PERI AZIMU VELO AIN AR TRES W  DIS CAZ7
 LA4  SN IP       2319 55.19                             149    0.0110 6.06 173 
 LA4  SZ E        2319 55.31                  353.3  8.0      0        6.06 173 
 LA4  SE IS       2319 56.70                             149   -0.0110 6.06 173 
 LA4  SZ  AML     2319 58.14        11.3 0.24                          6.06 173 
                                                                                
