 2008 10 2 0312 42.4 L  21.014 -99.288 10.0  RAL  1 0.0 0.8LRAL                1
 GAP=360        0.30       3.8     1.0  0.0  0.7752E+00  0.9922E+01 -0.4175E+02E
 ACTION:UPD 12-06-08 11:37 OP:RALL STATUS:               ID:20081002031242     I
 2008-10-02-0312-38S.PLUR1_003                                                 6
 STAT SP IPHASW D HRMM SECON CODA AMPLIT PERI AZIMU VELO AIN AR TRES W  DIS CAZ7
 LZ4  SZ E         312 47.41                  183.1 99.9      0        35.1   3 
 LZ4  SN IP        312 48.43                             102    0.0110 35.1   3 
 LZ4  SE IS        312 52.81                             102   -0.0110 35.1   3 
 LZ4  SZ  AML      312 52.97        10.6 0.16                          35.1   3 
                                                                                
