 2008 10 2 0548 38.7 L  21.267 -99.274  9.1  RAL  2 0.1 0.2LRAL                1
 GAP=205        0.88       1.8     0.6 10.3  0.6135E+00  0.6963E+00  0.3381E+01E
 ACTION:UPD 12-06-08 11:37 OP:RALL STATUS:               ID:20081002054838     I
 2008-10-02-0548-27S.PLUR1_006                                                 6
 STAT SP IPHASW D HRMM SECON CODA AMPLIT PERI AZIMU VELO AIN AR TRES W  DIS CAZ7
 LZ4  SZ E         548 40.97                  182.1 14.6      0        7.09   3 
 LZ4  SN IP        548 41.10                             142    0.3310 7.09   3 
 LZ4  SE IS        548 42.55                             142    0.2810 7.09   3 
 LZ4  SZ  AML      548 43.83        15.3 0.40                          7.09   3 
 LD5  SZ E         548 40.96                   26.6  8.7     -1        10.1 209 
 LD5  SN IP        548 40.99                             131   -0.1110 10.1 209 
 LD5  SE IS        548 42.33                             131   -0.5010 10.1 209 
 LD5  SZ  AML      548 42.54         3.7 0.42                          10.1 209 
                                                                                
