 2008 10 2 0950 42.4 L  21.345 -99.284 15.4  RAL  3 0.4 1.4LRAL                1
 GAP=158        5.81       6.0     6.1 42.9 -0.3516E+02  0.4220E+01 -0.3747E+01E
 ACTION:UPD 12-06-08 11:37 OP:RALL STATUS:               ID:20081002095042     I
 2008-10-02-0950-31S.PLUR1_009                                                 6
 STAT SP IPHASW D HRMM SECON CODA AMPLIT PERI AZIMU VELO AIN AR TRES W  DIS CAZ7
 LZ4  SN IP        950 45.46                             172    0.3210 2.18 136 
 LZ4  SZ E         950 45.47                  309.4  7.1     -5        2.18 136 
 LZ4  SE IS        950 47.42                             172    0.3110 2.18 136 
 LZ4  SZ  AML      950 48.57       173.8 0.52                          2.18 136 
 LD5  SE IS        950 50.03                             130    0.7610 17.9 192 
 LA4  SZ E         950 45.74                  143.0 11.1    -26        15.6 350 
 LA4  SZ  AML      950 49.43       300.1 0.56                          15.6 350 
 LA4  SN IP        950 45.93                             135   -0.2010 15.6 350 
 LA4  SE IS        950 47.65                             135   -1.1710 15.6 350 
 LD5  SZ E         950 46.43                  355.4 12.2     17        17.9 192 
 LD5  SZ  AML      950 53.12         6.6 0.40                          17.9 192 
 LD5  SN IP        950 46.39                             130    0.0010 17.9 192 
                                                                                
