 2008 10 2 0228 21.4 L  21.326 -99.280 10.0  RAL  1 0.2 0.8LRAL                1
 GAP=360        0.93     999.9   999.9  0.0 -0.5535E+07  0.2121E+01 -0.1577E+01E
 ACTION:UPD 12-06-08 11:37 OP:RALL STATUS:               ID:20081002022821     I
 2008-10-02-0228-09S.PLUR1_003                                                 6
 STAT SP IPHASW D HRMM SECON CODA AMPLIT PERI AZIMU VELO AIN AR TRES W  DIS CAZ7
 LZ4  SZ E         228 23.66                  248.2 11.7      3        1.22  65 
 LZ4  SN IP        228 23.66                             173    0.3810 1.22  65 
 LZ4  SE IS        228 24.25                             173   -0.3810 1.22  65 
 LZ4  SZ  AML      228 24.44        36.5 0.28                          1.22  65 
                                                                                
