 2008 10 2 0712 51.6 L  21.498 -99.324 10.0  RAL  1 0.3 0.8LRAL                1
 GAP=360        1.05      43.8    46.8  0.0 -0.2049E+04  0.6963E+00  0.3381E+01E
 ACTION:UPD 12-06-08 11:37 OP:RALL STATUS:               ID:20081002071251     I
 2008-10-02-0712-40S.PLUR1_003                                                 6
 STAT SP IPHASW D HRMM SECON CODA AMPLIT PERI AZIMU VELO AIN AR TRES W  DIS CAZ7
 LA4  SZ E         712 53.70                  315.3 18.0      0        2.25 135 
 LA4  SN IP        712 54.13                             168    0.6810 2.25 135 
 LA4  SE IS        712 54.15                             168   -0.6810 2.25 135 
 LA4  SZ  AML      712 54.33        34.9 0.32                          2.25 135 
                                                                                
