 2008 10 2 0000 59.6 L  21.314 -99.291 10.0  RAL  1 0.2 0.9LRAL                1
 GAP=360        0.68      19.8    25.3  0.0  0.4999E+03  0.2121E+01 -0.1577E+01E
 ACTION:UPD 12-06-08 11:37 OP:RALL STATUS:               ID:20081002000059     I
 2008-10-02-0000-47S.PLUR1_003                                                 6
 STAT SP IPHASW D HRMM SECON CODA AMPLIT PERI AZIMU VELO AIN AR TRES W  DIS CAZ7
 LZ4  SZ E         0 1  1.86                  230.0 13.6      0        2.94  50 
 LZ4  SN IP        0 1  1.91                             164    0.4110 2.94  50 
 LZ4  SE IS        0 1  2.47                             164   -0.4110 2.94  50 
 LZ4  SZ  AML      0 1  2.65        41.1 0.32                          2.94  50 
                                                                                
