 2008 10 2 0530 44.7 L  21.501 -99.331 10.0  RAL  1 0.1 0.0LRAL                1
 GAP=360        0.44      12.7    16.3  0.0 -0.2070E+03  0.9922E+01 -0.4175E+02E
 ACTION:UPD 12-06-08 11:37 OP:RALL STATUS:               ID:20081002053044     I
 2008-10-02-0530-34S.PLUR1_003                                                 6
 STAT SP IPHASW D HRMM SECON CODA AMPLIT PERI AZIMU VELO AIN AR TRES W  DIS CAZ7
 LA4  SZ E         530 46.81                  309.8 12.0      0        2.97 130 
 LA4  SN IP        530 46.86                             164    0.2210 2.97 130 
 LA4  SE IS        530 47.82                             164   -0.2210 2.97 130 
 LA4  SZ  AML      530 48.21         4.9 0.24                          2.97 130 
                                                                                
