 2008 10 2 0323 44.5 L  21.352 -99.254 10.0  RAL  1 0.1 0.6LRAL                1
 GAP=360        0.50      18.9    14.3  0.0  0.2708E+03  0.9922E+01 -0.4175E+02E
 ACTION:UPD 12-06-08 11:37 OP:RALL STATUS:               ID:20081002032344     I
 2008-10-02-0323-32S.PLUR1_003                                                 6
 STAT SP IPHASW D HRMM SECON CODA AMPLIT PERI AZIMU VELO AIN AR TRES W  DIS CAZ7
 LZ4  SZ E         323 44.70                   35.1 99.9      0        2.86 215 
 LZ4  SN IP        323 46.70                             164    0.2710 2.86 215 
 LZ4  SE IS        323 47.54                             164   -0.2710 2.86 215 
 LZ4  SZ  AML      323 48.59        20.8 0.76                          2.86 215 
                                                                                
