 2008 10 2 0234 48.9 L  21.344 -99.274 10.0  RAL  2 0.2 1.3LRAL                1
 GAP=187        1.91       6.2     3.1 15.6 -0.7091E+01  0.9922E+01 -0.4175E+02E
 ACTION:UPD 12-06-08 11:37 OP:RALL STATUS:               ID:20081002023448     I
 2008-10-02-0234-35S.PLUR1_006                                                 6
 STAT SP IPHASW D HRMM SECON CODA AMPLIT PERI AZIMU VELO AIN AR TRES W  DIS CAZ7
 LZ4  SN IP        234 50.08                             172   -0.6310 1.50 160 
 LZ4  SZ E         234 50.21                  336.7 17.3     -2        1.50 160 
 LZ4  SE IS        234 51.48                             172   -0.5810 1.50 160 
 LZ4  SZ  AML      234 51.57       213.3 0.12                          1.50 160 
 LA4  SZ E         234 52.57                  160.9  8.7     -5        15.9 347 
 LA4  SN IP        234 52.58                             120    0.5010 15.9 347 
 LA4  SE IS        234 55.14                             120    0.7210 15.9 347 
 LA4  SZ  AML      234 56.65        29.9 0.20                          15.9 347 
                                                                                
