 2008 10 2 0238  6.6 L  21.305 -99.245 10.0  RAL  1 0.1 0.5LRAL                1
 GAP=360        0.42      11.0    10.5  0.0 -0.1154E+03  0.9922E+01 -0.4175E+02E
 ACTION:UPD 12-06-08 11:37 OP:RALL STATUS:               ID:20081002023806     I
 2008-10-02-0237-55S.PLUR1_003                                                 6
 STAT SP IPHASW D HRMM SECON CODA AMPLIT PERI AZIMU VELO AIN AR TRES W  DIS CAZ7
 LZ4  SZ E         238  8.67                  138.2  9.6      0        3.87 318 
 LZ4  SN IP     D  238  8.73                             159    0.2010 3.87 318 
 LZ4  SE IS        238  9.75                             159   -0.2010 3.87 318 
 LZ4  SZ  AML      238 10.07        18.6 0.48                          3.87 318 
                                                                                
