 2008 10 2 0938 12.2 L  21.245 -99.230  2.7  RAL  2 0.0 0.1LRAL                1
 GAP=259        0.36       0.4     0.3  8.7 -0.3811E-02 -0.1370E+00  0.2598E+00E
 ACTION:UPD 12-06-08 11:37 OP:RALL STATUS:               ID:20081002093812     I
 2008-10-02-0938-00S.PLUR1_006                                                 6
 STAT SP IPHASW D HRMM SECON CODA AMPLIT PERI AZIMU VELO AIN AR TRES W  DIS CAZ7
 LZ4  SZ E         938 13.55                  156.8 39.7      0        10.3 337 
 LZ4  SN IP        938 14.02                             110   -0.0710 10.3 337 
 LZ4  SE IS        938 15.37                             110   -0.1110 10.3 337 
 LZ4  SZ  AML      938 16.15        19.5 0.48                          10.3 337 
 LD5  SZ E         938 14.30                   55.4  9.9      0        11.4 235 
 LD5  SN IP        938 14.30                             108    0.0310 11.4 235 
 LD5  SE IS        938 15.95                             108    0.1510 11.4 235 
 LD5  SZ  AML      938 16.04         2.0 0.10                          11.4 235 
                                                                                
