 2008 10 2 1115 30.4 L  21.431 -99.288 10.0  RAL  2 0.6 0.8LRAL                1
 GAP=191        8.74      29.5    12.4 86.4 -0.3439E+03 -0.2749E+03  0.6871E+03E
 ACTION:UPD 12-06-08 11:37 OP:RALL STATUS:               ID:20081002111530     I
 2008-10-02-1115-19S.PLUR1_006                                                 6
 STAT SP IPHASW D HRMM SECON CODA AMPLIT PERI AZIMU VELO AIN AR TRES W  DIS CAZ7
 LA4  SZ E        1115 32.44                  141.7 26.5    -16        6.20 339 
 LA4  SN IP       1115 33.33                             160    0.7810 6.20 339 
 LA4  SE IS       1115 34.86                             160    0.7710 6.20 339 
 LZ4  SZ E        1115 32.21                  312.1 10.5    -37        11.3 170 
 LZ4  SN IP       1115 32.23                             137   -0.8210 11.3 170 
 LZ4  SE IS       1115 34.23                             137   -0.7310 11.3 170 
 LZ4  SZ  AML     1115 35.34        23.6 0.52                          11.3 170 
                                                                                
