 2008 10 2 1115 29.5 L  21.339 -99.278 14.2  RAL  2 0.3 0.7LRAL                1
 GAP=211        4.52       2.2     6.8 37.6  0.6911E+01  0.4279E+01 -0.1999E+01E
 ACTION:UPD 12-06-08 11:37 OP:RALL STATUS:               ID:20081002111529     I
 2008-10-02-1115-19S.PLUR1_006                                                 6
 STAT SP IPHASW D HRMM SECON CODA AMPLIT PERI AZIMU VELO AIN AR TRES W  DIS CAZ7
 LZ4  SZ E        1115 32.08                  315.9  9.0      0        1.26 137 
 LZ4  SN IP       1115 32.24                             175    0.2110 1.26 137 
 LZ4  SE IS       1115 34.21                             175    0.3710 1.26 137 
 LZ4  SZ  AML     1115 35.33        23.6 0.52                          1.26 137 
 LA4  SZ E        1115 32.48                  146.9 15.7    -21        16.3 349 
 LA4  SN IP       1115 33.34                             131    0.1610 16.3 349 
 LA4  SE IS       1115 35.10                             131   -0.7410 16.3 349 
 LA4  SZ  AML     1115 35.95        14.3 0.64                          16.3 349 
                                                                                
