 2008 10 2 1230 14.5 L  21.696 -99.532  5.1  RAL  2 0.3 1.7LRAL                1
 GAP=349        3.34      28.6    28.1999.9 -0.7325E+03  0.9132E+05 -0.9107E+05E
 ACTION:UPD 12-06-08 11:37 OP:RALL STATUS:               ID:20081002123014     I
 2008-10-02-1230-05S.PLUR1_006                                                 6
 STAT SP IPHASW D HRMM SECON CODA AMPLIT PERI AZIMU VELO AIN AR TRES W  DIS CAZ7
 LA4  SZ E        1230 20.08                  322.9  7.7      7        32.9 135 
 LA4  SN IP       1230 20.10                              90    0.0310 32.9 135 
 LA4  SE IS       1230 23.18                              90   -0.9810 32.9 135 
 LA4  SZ  AML     1230 25.25       125.5 0.84                          32.9 135 
 LZ4  SZ E        1230 23.07                  312.9 13.9    -12        48.7 146 
 LZ4  SN IP       1230 23.20                              90    0.6910 48.7 146 
 LZ4  SE IS       1230 28.65                              90    0.2610 48.7 146 
 LZ4  SZ  AML     1230 32.27        36.6 0.40                          48.7 146 
                                                                                
