 2008 10 2 1146 40.2 L  21.312 -99.282 10.0  RAL  1 0.1 0.3LRAL                1
 GAP=360        0.60      27.8    17.7  0.0  0.4921E+03 -0.2749E+03  0.6871E+03E
 ACTION:UPD 12-06-08 11:37 OP:RALL STATUS:               ID:20081002114640     I
 2008-10-02-1146-28S.PLUR1_003                                                 6
 STAT SP IPHASW D HRMM SECON CODA AMPLIT PERI AZIMU VELO AIN AR TRES W  DIS CAZ7
 LZ4  SZ E        1146 41.23                  210.7 50.5      0        2.47  31 
 LZ4  SN IP       1146 42.42                             167    0.3510 2.47  31 
 LZ4  SE IS       1146 43.08                             167   -0.3510 2.47  31 
 LZ4  SZ  AML     1146 43.24        10.6 0.44                          2.47  31 
                                                                                
