 2008 10 2 1248 23.4 L  21.364 -99.309 14.9  RAL  2 0.1 0.8LRAL                1
 GAP=228        0.82       1.0     1.0  7.9 -0.8378E+00  0.7813E+00 -0.7889E+00E
 ACTION:UPD 12-06-08 11:37 OP:RALL STATUS:               ID:20081002124823     I
 2008-10-02-1248-13S.PLUR1_006                                                 6
 STAT SP IPHASW D HRMM SECON CODA AMPLIT PERI AZIMU VELO AIN AR TRES W  DIS CAZ7
 LZ4  SZ E        1248 26.48                  311.4  7.5      0        5.45 132 
 LZ4  SN EP       1248 26.48                             161    0.3610 5.45 132 
 LZ4  SE IS       1248 28.37                             161    0.2510 5.45 132 
 LZ4  SZ  AML     1248 28.52        16.4 0.20                          5.45 132 
 LA4  SN IP       1248 26.71                             138   -0.0610 13.3 360 
 LA4  SZ E        1248 26.81                  178.5  5.6      0        13.3 360 
 LA4  SE IS       1248 28.69                             138   -0.5510 13.3 360 
 LA4  SZ  AML     1248 30.42        23.0 0.56                          13.3 360 
                                                                                
