 2008 10 2 1439 30.7 L  21.712 -99.284  0.0  RAL  3 0.6 1.4LRAL                1
 GAP=352       10.56      67.4    20.8 74.3  0.3041E+03 -0.1703E+01 -0.2910E+03E
 ACTION:UPD 12-06-08 11:37 OP:RALL STATUS:               ID:20081002143930     I
 2008-10-02-1439-20S.PLUR1_009                                                 6
 STAT SP IPHASW D HRMM SECON CODA AMPLIT PERI AZIMU VELO AIN AR TRES W  DIS CAZ7
 LA4  SN IP       1439 34.44                              93   -0.7310 25.4 186 
 LA4  SZ E        1439 34.47                    4.5  8.0      0        25.4 186 
 LA4  SE IS       1439 38.76                              93    0.3410 25.4 186 
 LA4  SZ  AML     1439 42.20        97.1 0.36                          25.4 186 
 LZ4  SZ E        1439 37.30                  322.2  8.0    -35        42.2 178 
 LZ4  SN IP       1439 37.33                              91   -0.7810 42.2 178 
 LZ4  SE IS       1439 43.70                              91    0.2010 42.2 178 
 LZ4  SZ  AML     1439 45.84       112.1 1.00                          42.2 178 
 LD5  SZ E        1439 40.06                   52.6 15.9     49        58.3 184 
 LD5  SN EP       1439 41.12                              63    0.4510 58.3 184 
 LD5  SE IS       1439 48.45                              63    0.5310 58.3 184 
 LD5  SZ  AML     1439 50.72         5.9 0.32                          58.3 184 
                                                                                
