 2008 10 2 1236  3.1 L  21.682 -99.427 10.0  RAL  1 0.0 1.1LRAL                1
 GAP=360        0.30       3.4     2.1  0.0 -0.6702E+01  0.9132E+05 -0.9107E+05E
 ACTION:UPD 12-06-08 11:37 OP:RALL STATUS:               ID:20081002123603     I
 2008-10-02-1235-53S.PLUR1_003                                                 6
 STAT SP IPHASW D HRMM SECON CODA AMPLIT PERI AZIMU VELO AIN AR TRES W  DIS CAZ7
 LA4  SN EP       1236  7.62                             108    0.0010 25.1 151 
 LA4  SZ E        1236  7.79                  330.9  9.4      0        25.1 151 
 LA4  SE IS       1236 10.92                             108    0.0010 25.1 151 
 LA4  SZ  AML     1236 11.57        27.0 0.24                          25.1 151 
                                                                                
