 2008 10 2 1305  8.6 L  21.414 -99.344 10.0  RAL  1 0.0 0.8LRAL                1
 GAP=360        0.30       3.7     3.3  0.0 -0.1203E+02  0.7813E+00 -0.7889E+00E
 ACTION:UPD 12-06-08 11:37 OP:RALL STATUS:               ID:20081002130508     I
 2008-10-02-1304-58S.PLUR1_003                                                 6
 STAT SP IPHASW D HRMM SECON CODA AMPLIT PERI AZIMU VELO AIN AR TRES W  DIS CAZ7
 LZ4  SZ E        13 5 11.29                  319.9  8.2      0        12.0 140 
 LZ4  SN IP       13 5 11.33                             129    0.0210 12.0 140 
 LZ4  SE IS       13 5 13.25                             129   -0.0210 12.0 140 
 LZ4  SZ  AML     13 5 13.26        24.4 0.20                          12.0 140 
                                                                                
