 2008 10 2 1312 31.9 L  21.328 -99.280 10.0  RAL  2 0.9 0.5LRAL                1
 GAP=277       14.40       6.6    23.5 98.3  0.9284E+02  0.5072E+02 -0.1556E+02E
 ACTION:UPD 12-06-08 11:37 OP:RALL STATUS:               ID:20081002131231     I
 2008-10-02-1312-18S.PLUR1_006                                                 6
 STAT SP IPHASW D HRMM SECON CODA AMPLIT PERI AZIMU VELO AIN AR TRES W  DIS CAZ7
 LZ4  SZ E        1312 32.93                  261.2  9.1      8        1.14  74 
 LZ4  SN IP       1312 33.12                             177   -0.6310 1.14  74 
 LZ4  SE IS     D 1312 34.09                             177   -1.0010 1.14  74 
 LZ4  SZ  AML     1312 36.00        28.6 0.32                          1.14  74 
 LA4  SN IP       1312 35.67                             116    0.3310 17.5 350 
 LA4  SZ E        1312 35.84                  100.6 19.2    -69        17.5 350 
 LA4  SE IS       1312 39.13                             116    1.2910 17.5 350 
 LA4  SZ  AML     1312 39.23         6.3 0.24                          17.5 350 
                                                                                
