 2008 10 2 2310 46.8 L  21.699 -99.431  0.0  RAL  2 0.2 1.3LRAL                1
 GAP=354        2.88      27.1    15.7643.3 -0.3803E+03  0.6448E+04 -0.1167E+05E
 ACTION:UPD 12-06-08 11:37 OP:RALL STATUS:               ID:20081002231046     I
 2008-10-02-2310-37S.PLUR1_006                                                 6
 STAT SP IPHASW D HRMM SECON CODA AMPLIT PERI AZIMU VELO AIN AR TRES W  DIS CAZ7
 LA4  SZ E        2310 51.42                  339.0  6.9      7        27.0 152 
 LA4  SN EP       2310 51.46                              92   -0.0610 27.0 152 
 LA4  SE IS       2310 54.36                              92   -0.6110 27.0 152 
 LA4  SZ  AML     2310 55.13        47.9 0.60                          27.0 152 
 LZ4  SN IP       2310 55.01                              91    0.5010 44.0 158 
 LZ4  SZ E        2310 55.04                  326.2  9.4    -11        44.0 158 
 LZ4  SE IS       2311  0.29                              91    0.1610 44.0 158 
 LZ4  SZ  AML     2311  4.70        26.6 0.64                          44.0 158 
                                                                                
