 2008 10 3 0844 24.0 L  21.351 -99.289 15.7  RAL  2 0.2 0.5LRAL                1
 GAP=214        2.12       1.1     3.1 18.6  0.1223E+01  0.9927E+00 -0.3936E+00E
 ACTION:UPD 12-06-08 11:37 OP:RALL STATUS:               ID:20081003084424     I
 2008-10-03-0844-14S.PLUR1_006                                                 6
 STAT SP IPHASW D HRMM SECON CODA AMPLIT PERI AZIMU VELO AIN AR TRES W  DIS CAZ7
 LZ4  SZ E         844 27.21                  316.5  6.5     -1        3.07 138 
 LZ4  SN EP        844 27.21                             174    0.4510 3.07 138 
 LZ4  SE IS        844 28.93                             174    0.1610 3.07 138 
 LZ4  SZ  AML      844 29.07        13.1 0.24                          3.07 138 
 LA4  SN IP        844 27.53                             136   -0.1010 14.8 352 
 LA4  SZ E         844 27.55                  162.5 11.0     -9        14.8 352 
 LA4  SE IS        844 29.77                             136   -0.5110 14.8 352 
 LA4  SZ  AML      844 30.98         7.7 0.28                          14.8 352 
                                                                                
