 2008 10 3 0413 44.1 L  21.625 -99.382 10.0  RAL  1 0.0 0.6LRAL                1
 GAP=360        0.30       3.8     2.0  0.0 -0.7242E+01  0.6448E+04 -0.1167E+05E
 ACTION:UPD 12-06-08 11:37 OP:RALL STATUS:               ID:20081003041344     I
 2008-10-03-0413-35S.PLUR1_003                                                 6
 STAT SP IPHASW D HRMM SECON CODA AMPLIT PERI AZIMU VELO AIN AR TRES W  DIS CAZ7
 LA4  SZ E         413 47.53                  334.2  9.0      0        17.4 154 
 LA4  SN IP        413 47.53                             118    0.0010 17.4 154 
 LA4  SZ  AML      413 50.00        12.7 0.24                          17.4 154 
 LA4  SE IS        413 50.01                             118    0.0010 17.4 154 
                                                                                
