 2008 10 3 0848 57.1 L  21.396 -99.299 10.0  RAL  2 0.2 0.6LRAL                1
 GAP=197        3.04       6.5     3.2 32.1 -0.1793E+02  0.1558E+02 -0.3448E+02E
 ACTION:UPD 12-06-08 11:37 OP:RALL STATUS:               ID:20081003084857     I
 2008-10-03-0848-46S.PLUR1_006                                                 6
 STAT SP IPHASW D HRMM SECON CODA AMPLIT PERI AZIMU VELO AIN AR TRES W  DIS CAZ7
 LZ4  SZ E         848 59.44                  325.6  7.9    -11        7.87 157 
 LZ4  SN IP        848 59.45                             150    0.1410 7.87 157 
 LZ4  SE IS        849  1.43                             150    0.4810 7.87 157 
 LZ4  SZ  AML      849  3.41        16.7 0.44                          7.87 157 
 LA4  SZ E         848 59.22                  165.2 10.9     -8        9.73 354 
 LA4  SN IP        848 59.28                             137   -0.2410 9.73 354 
 LA4  SE IS        849  0.93                             137   -0.3710 9.73 354 
 LA4  SZ  AML      849  1.03        20.8 0.20                          9.73 354 
                                                                                
