 2008 10 3 0949  4.9 L  21.333 -99.273 10.0  RAL  1 0.4 0.7LRAL                1
 GAP=360        4.91     999.9   999.9  0.0  0.4185E+08  0.1558E+02 -0.3448E+02E
 ACTION:UPD 12-06-08 11:37 OP:RALL STATUS:               ID:20081003094904     I
 2008-10-03-0948-52S.PLUR1_003                                                 6
 STAT SP IPHASW D HRMM SECON CODA AMPLIT PERI AZIMU VELO AIN AR TRES W  DIS CAZ7
 LZ4  SZ E         949  6.95                  278.9 11.5    -22        0.41 122 
 LZ4  SN IP        949  6.99                             178    0.3110 0.41 122 
 LZ4  SE IS        949  7.71                             178   -0.3110 0.41 122 
 LZ4  SZ  AML      949  9.68        29.7 0.24                          0.41 122 
                                                                                
