 2008 10 3 0230 23.0 L  21.332 -99.274 10.0  RAL  1 0.1 0.6LRAL                1
 GAP=360        0.43       2.5     0.1643.3 -0.2689E+02  0.6448E+04 -0.1167E+05E
 ACTION:UPD 12-06-08 11:37 OP:RALL STATUS:               ID:20081003023023     I
 2008-10-03-0230-11S.PLUR1_003                                                 6
 STAT SP IPHASW D HRMM SECON CODA AMPLIT PERI AZIMU VELO AIN AR TRES W  DIS CAZ7
 LZ4  SZ E         230 24.98                  282.9 12.1      0        0.44 104 
 LZ4  SN IP        230 25.04                             178    0.2310 0.44 104 
 LZ4  SE IS        230 25.92                             178   -0.2310 0.44 104 
 LZ4  SZ  AML      230 27.51        20.4 0.52                          0.44 104 
                                                                                
