 2008 10 3 0833 57.4 L  21.345 -99.292 10.0  RAL  1 0.1 0.4LRAL                1
 GAP=360        0.56      14.7    24.0  0.0 -0.3534E+03  0.6448E+04 -0.1167E+05E
 ACTION:UPD 12-06-08 11:37 OP:RALL STATUS:               ID:20081003083357     I
 2008-10-03-0833-45S.PLUR1_003                                                 6
 STAT SP IPHASW D HRMM SECON CODA AMPLIT PERI AZIMU VELO AIN AR TRES W  DIS CAZ7
 LZ4  SZ E         833 59.58                  303.3  7.6      0        2.80 123 
 LZ4  SN IP        833 59.61                             165    0.3210 2.80 123 
 LZ4  SE IS        834  0.34                             165   -0.3210 2.80 123 
 LZ4  SZ  AML      834  0.65        14.7 0.28                          2.80 123 
                                                                                
