 2008 10 3 0753 31.3 L  21.786 -99.415 10.0  RAL  1 0.0 1.2LRAL                1
 GAP=360        0.30       3.6     1.6  0.0 -0.4283E+01  0.6448E+04 -0.1167E+05E
 ACTION:UPD 12-06-08 11:37 OP:RALL STATUS:               ID:20081003075331     I
 2008-10-03-0753-26S.PLUR1_003                                                 6
 STAT SP IPHASW D HRMM SECON CODA AMPLIT PERI AZIMU VELO AIN AR TRES W  DIS CAZ7
 LA4  SN IP        753 37.34                             102    0.0110 35.3 162 
 LA4  SZ E         753 37.75                  341.9 10.2      0        35.3 162 
 LA4  SE IS        753 41.73                             102   -0.0110 35.3 162 
 LA4  SZ  AML      753 43.77        25.3 0.40                          35.3 162 
                                                                                
