 2008 10 3 1859  1.1 L  21.684 -99.368 10.0  RAL  1 0.0 0.6LRAL                1
 GAP=360        0.30       3.8     1.3  0.0 -0.4181E+01  0.1878E+05 -0.4441E+05E
 ACTION:UPD 12-06-08 11:37 OP:RALL STATUS:               ID:20081003185901     I
 2008-10-03-1858-54S.PLUR1_003                                                 6
 STAT SP IPHASW D HRMM SECON CODA AMPLIT PERI AZIMU VELO AIN AR TRES W  DIS CAZ7
 LA4  SN IP       1859  5.32                             110    0.0210 23.0 165 
 LA4  SZ E        1859  5.47                  344.7  9.3      0        23.0 165 
 LA4  SE IS       1859  8.36                             110   -0.0210 23.0 165 
 LA4  SZ  AML     1859  9.00         9.8 0.24                          23.0 165 
                                                                                
