 2008 10 3 1931 47.2 L  21.539 -99.374 10.0  RAL  1 0.0 0.7LRAL                1
 GAP=360        0.30       3.7     4.4  0.0 -0.1633E+02  0.2786E+02 -0.3975E+02E
 ACTION:UPD 12-06-08 11:37 OP:RALL STATUS:               ID:20081003193147     I
 2008-10-03-1931-36S.PLUR1_003                                                 6
 STAT SP IPHASW D HRMM SECON CODA AMPLIT PERI AZIMU VELO AIN AR TRES W  DIS CAZ7
 LA4  SN IP       1931 49.65                             138    0.0210 9.10 132 
 LA4  SZ E        1931 49.67                  312.2 11.5      0        9.10 132 
 LA4  SE IS       1931 51.34                             138   -0.0210 9.10 132 
 LA4  SZ  AML     1931 52.88        20.5 0.44                          9.10 132 
                                                                                
