 2008 10 3 1302 38.7 L  21.352 -99.296 10.0  RAL  1 0.1 0.5LRAL                1
 GAP=360        0.46      11.0    14.3  0.0 -0.1577E+03 -0.2854E+00  0.8683E+01E
 ACTION:UPD 12-06-08 11:37 OP:RALL STATUS:               ID:20081003130238     I
 2008-10-03-1302-26S.PLUR1_003                                                 6
 STAT SP IPHASW D HRMM SECON CODA AMPLIT PERI AZIMU VELO AIN AR TRES W  DIS CAZ7
 LZ4  SZ E        13 2 40.85                  309.6  7.4      0        3.61 130 
 LZ4  SN IP       13 2 40.90                             161    0.2410 3.61 130 
 LZ4  SE IS       13 2 41.83                             161   -0.2410 3.61 130 
 LZ4  SZ  AML     13 2 44.00        18.2 0.28                          3.61 130 
                                                                                
