 2008 10 3 1438 59.2 L  21.343 -99.291 10.0  RAL  1 0.1 1.2LRAL                1
 GAP=360        0.59      15.1    27.4  0.0 -0.4150E+03 -0.2098E+02  0.2323E+03E
 ACTION:UPD 12-06-08 11:37 OP:RALL STATUS:               ID:20081003143859     I
 2008-10-03-1438-46S.PLUR1_003                                                 6
 STAT SP IPHASW D HRMM SECON CODA AMPLIT PERI AZIMU VELO AIN AR TRES W  DIS CAZ7
 LZ4  SZ E        1439  1.35                  300.6  8.2      0        2.65 121 
 LZ4  SN IP       1439  1.39                             166    0.3510 2.65 121 
 LZ4  SE IS     D 1439  2.07                             166   -0.3510 2.65 121 
 LZ4  SZ  AML     1439  2.17        91.9 0.12                          2.65 121 
                                                                                
