 2008 10 3 1406  9.1 L  21.326 -99.290 10.0  RAL  1 0.1 0.6LRAL                1
 GAP=360        1.24      19.3    78.3  0.0  0.1507E+04 -0.2098E+02  0.2323E+03E
 ACTION:UPD 12-06-08 11:37 OP:RALL STATUS:               ID:20081003140609     I
 2008-10-03-1405-57S.PLUR1_003                                                 6
 STAT SP IPHASW D HRMM SECON CODA AMPLIT PERI AZIMU VELO AIN AR TRES W  DIS CAZ7
 LZ4  SZ E        14 6 10.74                  260.9 10.2      6        2.16  75 
 LZ4  SN IP       14 6 11.07                             168    0.1210 2.16  75 
 LZ4  SE IS       14 6 12.20                             168   -0.1210 2.16  75 
 LZ4  SZ  AML     14 6 12.39        22.3 0.24                          2.16  75 
                                                                                
