 2008 10 3 1844 50.4 R  21.816 -99.451  5.9  RAL  2 0.2 1.3LRAL                1
 GAP=358        3.71      45.1    21.6999.9 -0.8047E+03  0.1878E+05 -0.4441E+05E
 ACTION:UPD 12-06-08 11:37 OP:RALL STATUS:               ID:20081003184450     I
 2008-10-03-1844-47S.PLUR1_006                                                 6
 STAT SP IPHASW D HRMM SECON CODA AMPLIT PERI AZIMU VELO AIN AR TRES W  DIS CAZ7
 LA4  SN IP       1844 56.83                              92   -0.2310 39.6 158 
 LA4  SZ E        1844 57.00                  348.7  8.3     10        39.6 158 
 LA4  SE IS       1845  1.61                              92   -0.3110 39.6 158 
 LA4  SZ  AML     1845  4.35        33.7 0.36                          39.6 158 
 LZ4  SZ E        1845  0.11                  326.2  7.1    -14        56.9 161 
 LZ4  SN IP       1845  0.14                              91    0.4010 56.9 161 
 LZ4  SE IS       1845  6.69                              91    0.1410 56.9 161 
 LZ4  SZ  AML     1845  8.63        20.6 0.36                          56.9 161 
                                                                                
