 2008 10 3 1518 50.1 L  21.310 -99.360 10.0  RAL  1 0.0 0.5LRAL                1
 GAP=360        0.30       1.3     5.5  0.0  0.6867E+01 -0.2098E+02  0.2323E+03E
 ACTION:UPD 12-06-08 11:37 OP:RALL STATUS:               ID:20081003151850     I
 2008-10-03-1518-38S.PLUR1_003                                                 6
 STAT SP IPHASW D HRMM SECON CODA AMPLIT PERI AZIMU VELO AIN AR TRES W  DIS CAZ7
 LZ4  SZ E        1518 52.53                  256.3 12.2      0        9.71  76 
 LZ4  SN IP       1518 52.58                             135    0.0110 9.71  76 
 LZ4  SZ  AML     1518 54.09        12.3 0.24                          9.71  76 
 LZ4  SE IS       1518 54.34                             135   -0.0110 9.71  76 
                                                                                
