 2008 10 3 1321 28.8 L  21.832 -99.324  0.0  RAL  3 0.4 1.7LRAL                1
 GAP=355        7.00      47.3    19.2 47.9 -0.1090E+03 -0.2098E+02  0.2323E+03E
 ACTION:UPD 12-06-08 11:37 OP:RALL STATUS:               ID:20081003132128     I
 2008-10-03-1321-21S.PLUR1_009                                                 6
 STAT SP IPHASW D HRMM SECON CODA AMPLIT PERI AZIMU VELO AIN AR TRES W  DIS CAZ7
 LA4  SN IP       1321 35.09                              92   -0.5010 38.6 178 
 LA4  SZ E        1321 35.16                  351.5  8.5     -5        38.6 178 
 LA4  SE IS       1321 39.54                              92   -0.9810 38.6 178 
 LA4  SZ  AML     1321 41.03       200.0 0.32                          38.6 178 
 LZ4  SZ E        1321 38.07                  336.0  7.8    -17        55.8 174 
 LZ4  SN EP       1321 38.17                              63   -0.2110 55.8 174 
 LZ4  SE IS       1321 45.97                              63    0.6110 55.8 174 
 LZ4  SZ  AML     1321 47.20       134.2 0.40                          55.8 174 
 LD5  SZ E        1321 40.90                   34.3 11.0     35        71.5 180 
 LD5  SN EP       1321 40.93                              63    0.1110 71.5 180 
 LD5  SE IS       1321 50.54                              63    0.9710 71.5 180 
 LD5  SZ  AML     1321 53.58         6.9 0.48                          71.5 180 
                                                                                
