 2008 10 3 1859 57.6 L  21.158 -99.214 23.7  RAL  4 0.6 1.2LRAL                1
 GAP=270        7.13       8.4    13.2 42.9 -0.5958E+02  0.2786E+02 -0.3975E+02E
 ACTION:UPD 12-06-08 11:37 OP:RALL STATUS:               ID:20081003185957     I
 2008-10-03-1859-47S.PLUR1_012                                                 6
 STAT SP IPHASW D HRMM SECON CODA AMPLIT PERI AZIMU VELO AIN AR TRES W  DIS CAZ7
 LO8  SN IP       19 0  3.06                             180    1.5110 0.24  16 
 LO8  SZ E        19 0  3.29                  201.1  8.0      5        0.24  16 
 LO8  SE IS       19 0  6.06                             180    1.6010 0.24  16 
 LO8  SZ  AML     19 0  7.03         9.1 0.48                          0.24  16 
 LD5  SN IP       19 0  2.60                             153    0.7010 11.5 286 
 LD5  SZ E        19 0  2.63                   63.9 10.5    -41        11.5 286 
 LD5  SE IS       19 0  4.16                             153   -0.9010 11.5 286 
 LD5  SZ  AML     19 0  5.26        15.9 0.18                          11.5 286 
 LZ4  SN IP       19 0  2.27                             137   -0.3410 20.0 343 
 LZ4  SZ E        19 0  2.29                  159.7  7.7     -2        20.0 343 
 LZ4  SE IS       19 0  3.69                             137   -2.6110 20.0 343 
 LZ4  SZ  AML     19 0  3.99       262.8 0.28                          20.0 343 
 LA4  SZ E        19 0  5.37                  165.7  9.2      1        37.4 345 
 LA4  SN IP       19 0  5.47                             117    0.8010 37.4 345 
 LA4  SE IS       19 0  9.10                             117   -0.7510 37.4 345 
 LA4  SZ  AML     19 0 10.02        27.2 0.56                          37.4 345 
                                                                                
