 2008 10 3 1033 54.3 L  21.294 -99.266 13.6  RAL  2 0.3 0.3LRAL                1
 GAP=210        1.56       3.4     0.6 14.5 -0.4472E+00 -0.2854E+00  0.8683E+01E
 ACTION:UPD 12-06-08 11:37 OP:RALL STATUS:               ID:20081003103354     I
 2008-10-03-1033-43S.PLUR1_006                                                 6
 STAT SP IPHASW D HRMM SECON CODA AMPLIT PERI AZIMU VELO AIN AR TRES W  DIS CAZ7
 LZ4  SN IP       1033 57.53                             163    0.7210 4.14 355 
 LZ4  SZ E        1033 57.56                  174.4 12.5      0        4.14 355 
 LZ4  SE IS       1033 59.04                             163    0.4210 4.14 355 
 LZ4  SZ  AML     1033 59.40        17.8 0.40                          4.14 355 
 LD5  SZ E        1033 57.47                   22.4 11.1     -2        13.1 205 
 LD5  SN EP       1033 57.48                             136   -0.0510 13.1 205 
 LD5  SE IS       1033 58.78                             136   -1.0910 13.1 205 
 LD5  SZ  AML     1033 59.44         3.1 0.54                          13.1 205 
                                                                                
