 2008 10 3 2257 53.7 L  21.496 -99.314 10.0  RAL  1 0.2 0.2LRAL                1
 GAP=360        0.80      69.0    26.8  0.0 -0.1854E+04  0.2786E+02 -0.3975E+02E
 ACTION:UPD 12-06-08 11:37 OP:RALL STATUS:               ID:20081003225753     I
 2008-10-03-2257-42S.PLUR1_003                                                 6
 STAT SP IPHASW D HRMM SECON CODA AMPLIT PERI AZIMU VELO AIN AR TRES W  DIS CAZ7
 LA4  SZ E        2257 56.02                  340.1 25.4      0        1.43 160 
 LA4  SN IP       2257 56.06                             172    0.5010 1.43 160 
 LA4  SE IS       2257 56.41                             172   -0.5010 1.43 160 
 LA4  SZ  AML     2257 56.53         8.6 0.48                          1.43 160 
                                                                                
