 2008 10 4 0606 11.7 L  21.341 -99.291 10.0  RAL  1 0.1 0.9LRAL                1
 GAP=360        0.50     693.2   409.2  0.0  0.2836E+06 -0.1886E+02 -0.6246E+03E
 ACTION:UPD 12-06-08 11:37 OP:RALL STATUS:               ID:20081004060611     I
 2008-10-04-0605-59S.PLUR1_003                                                 6
 STAT SP IPHASW D HRMM SECON CODA AMPLIT PERI AZIMU VELO AIN AR TRES W  DIS CAZ7
 LZ4  SZ E         6 6 13.82                  297.0 11.8      0        2.48 117 
 LZ4  SN IP        6 6 13.84                             166    0.2710 2.48 117 
 LZ4  SE IS        6 6 14.67                             166   -0.2710 2.48 117 
 LZ4  SZ  AML      6 6 14.81        46.6 0.20                          2.48 117 
                                                                                
