 2008 10 4 0252 40.1 L  21.347 -99.284 16.3  RAL  2 0.2 0.9LRAL                1
 GAP=209        2.89       5.8     5.0 25.8 -0.2856E+02  0.1957E+02 -0.2321E+02E
 ACTION:UPD 12-06-08 11:37 OP:RALL STATUS:               ID:20081004025240     I
 2008-10-04-0252-29S.PLUR1_006                                                 6
 STAT SP IPHASW D HRMM SECON CODA AMPLIT PERI AZIMU VELO AIN AR TRES W  DIS CAZ7
 LZ4  SN IP        252 43.47                             172    0.5110 2.32 141 
 LZ4  SZ E         252 43.52                  316.7  7.5     -3        2.32 141 
 LZ4  SZ  AML      252 45.19        32.1 0.20                          2.32 141 
 LZ4  SE IS        252 45.24                             172    0.2110 2.32 141 
 LA4  SZ E         252 43.83                  157.4  9.6    -12        15.3 350 
 LA4  SN IP        252 43.86                             137   -0.0310 15.3 350 
 LA4  SE IS        252 45.94                             137   -0.6910 15.3 350 
 LA4  SZ  AML      252 47.43        17.8 0.96                          15.3 350 
                                                                                
