 2008 10 4 0800 12.1 R  22.056 -99.510 10.0  RAL  1 0.0 1.8LRAL                1
 GAP=360        0.30       3.6     2.5  0.0 -0.2758E+01 -0.1886E+02 -0.6246E+03E
 ACTION:UPD 12-06-08 11:37 OP:RALL STATUS:               ID:20081004080012     I
 2008-10-04-0800-12S.PLUR1_003                                                 6
 STAT SP IPHASW D HRMM SECON CODA AMPLIT PERI AZIMU VELO AIN AR TRES W  DIS CAZ7
 LZ4  SZ E         8 0 25.57                  342.8  8.9      0        84.1 163 
 LZ4  SN IP        8 0 25.66                              94    0.0110 84.1 163 
 LZ4  SE IS        8 0 35.55                              94   -0.0110 84.1 163 
 LZ4  SZ  AML      8 0 40.48        42.9 0.60                          84.1 163 
                                                                                
