 2008 10 4 0349 19.3 L  21.589 -99.304  3.3  RAL  2 0.2 1.5LRAL                1
 GAP=350        1.88      14.5     1.7101.7  0.4752E+01 -0.1886E+02 -0.6246E+03E
 ACTION:UPD 12-06-08 11:37 OP:RALL STATUS:               ID:20081004034919     I
 2008-10-04-0349-06S.PLUR1_006                                                 6
 STAT SP IPHASW D HRMM SECON CODA AMPLIT PERI AZIMU VELO AIN AR TRES W  DIS CAZ7
 LA4  SN IP        349 21.34                              96   -0.1810 11.7 183 
 LA4  SZ E         349 21.35                    4.9  8.6      2        11.7 183 
 LA4  SE IS        349 22.76                              96   -0.3610 11.7 183 
 LA4  SZ  AML      349 23.41       110.9 0.36                          11.7 183 
 LZ4  SN IP        349 24.31                              92   -0.1210 28.8 173 
 LZ4  SZ E         349 24.41                  345.0  7.6     -7        28.8 173 
 LZ4  SE IS        349 28.81                              92    0.6610 28.8 173 
 LZ4  SZ  AML      349 28.83        70.1 0.16                          28.8 173 
                                                                                
