 2008 10 4 0931  7.8 L  21.680 -99.320 10.0  RAL  1 0.0 0.7LRAL                1
 GAP=360        0.30       4.0     0.6  0.0 -0.8743E+00 -0.1886E+02 -0.6246E+03E
 ACTION:UPD 12-06-08 11:37 OP:RALL STATUS:               ID:20081004093107     I
 2008-10-04-0931-01S.PLUR1_003                                                 6
 STAT SP IPHASW D HRMM SECON CODA AMPLIT PERI AZIMU VELO AIN AR TRES W  DIS CAZ7
 LA4  SN IP        931 11.88                             111    0.0110 21.7 177 
 LA4  SZ E         931 11.96                  357.0  6.9      0        21.7 177 
 LA4  SE IS        931 14.79                             111   -0.0110 21.7 177 
 LA4  SZ  AML      931 15.37        13.8 0.28                          21.7 177 
                                                                                
