 2008 10 4 0027 29.5 L  21.301 -99.269 10.0  RAL  1 0.0 0.6LRAL                1
 GAP=360        0.30       3.9     1.0  0.0 -0.3366E+01  0.2786E+02 -0.3975E+02E
 ACTION:UPD 12-06-08 11:37 OP:RALL STATUS:               ID:20081004002729     I
 2008-10-04-0027-16S.PLUR1_006                                                 6
 STAT SP IPHASW D HRMM SECON CODA AMPLIT PERI AZIMU VELO AIN AR TRES W  DIS CAZ7
 LA4  SZ E         027 32.92                  168.4 11.2      0        20.7 348 
 LA4  SN IP        027 33.43                             113    0.0210 20.7 348 
 LA4  SE IS        027 36.22                             113   -0.0210 20.7 348 
 LA4  SZ  AML      027 36.84        10.5 0.32                          20.7 348 
                                                                                
