 2008 10 4 1921 39.2 L  21.327 -99.281 10.0  RAL  1 0.3 0.7LRAL                1
 GAP=360        3.92     524.9   633.3  0.0 -0.3324E+06  0.1626E+03 -0.2713E+03E
 ACTION:UPD 12-06-08 11:37 OP:RALL STATUS:               ID:20081004192139     I
 2008-10-04-1921-26S.PLUR1_003                                                 6
 STAT SP IPHASW D HRMM SECON CODA AMPLIT PERI AZIMU VELO AIN AR TRES W  DIS CAZ7
 LZ4  SZ E        1921 41.34                  269.8 13.6     19        1.31  71 
 LZ4  SN EP       1921 41.36                             173    0.2810 1.31  71 
 LZ4  SE IS       1921 42.14                             173   -0.2810 1.31  71 
 LZ4  SZ  AML     1921 43.25        25.0 0.32                          1.31  71 
                                                                                
