 2008 10 4 1744  0.5 L  21.651 -99.447 10.0  RAL  1 0.0 1.7LRAL                1
 GAP=360        0.30       3.4     2.1  0.0 -0.5735E+01  0.1626E+03 -0.2713E+03E
 ACTION:UPD 12-06-08 11:37 OP:RALL STATUS:               ID:20081004174400     I
 2008-10-04-1743-52S.PLUR1_003                                                 6
 STAT SP IPHASW D HRMM SECON CODA AMPLIT PERI AZIMU VELO AIN AR TRES W  DIS CAZ7
 LZ4  SN IP       1744  7.31                             100    0.0110 39.9 153 
 LZ4  SZ E        1744  7.43                  332.7  6.8      0        39.9 153 
 LZ4  SE IS       1744 12.21                             100   -0.0110 39.9 153 
 LZ4  SZ  AML     1744 16.34        82.1 0.32                          39.9 153 
                                                                                
