 2008 10 4 1615 35.7 L  21.685 -99.433  0.0  RAL  2 0.0 2.4LRAL                1
 GAP=353        0.47       4.2     2.6 97.4 -0.1011E+02  0.1626E+03 -0.2713E+03E
 ACTION:UPD 12-06-08 11:37 OP:RALL STATUS:               ID:20081004161535     I
 2008-10-04-1615-25S.PLUR1_012                                                 6
 STAT SP IPHASW D HRMM SECON CODA AMPLIT PERI AZIMU VELO AIN AR TRES W  DIS CAZ7
 LA4  SN IP       1615 40.29                              92    0.1210 25.8 150 
 LA4  SZ E        1615 40.39                  330.8  8.9      1        25.8 150 
 LA4  SE IS       1615 43.34                              92   -0.1310 25.8 150 
 LA4  SZ  AML     1615 43.53       848.3 0.24                          25.8 150 
 LZ4  SN IP       1615 43.09                              91   -0.0510 42.7 157 
 LZ4  SZ E        1615 43.32                  335.3  6.9      0        42.7 157 
 LZ4  SE IS       1615 48.66                              91    0.0610 42.7 157 
 LZ4  SZ  AML     1615 52.45       193.6 0.36                          42.7 157 
                                                                                
