 2008 10 4 1335 35.5 L  21.301 -99.324 10.0  RAL  1 0.0 0.4LRAL                1
 GAP=360        0.30       3.5     6.4  0.0  0.2216E+02  0.9155E+01 -0.2407E+01E
 ACTION:UPD 12-06-08 11:37 OP:RALL STATUS:               ID:20081004133535     I
 2008-10-04-1335-24S.PLUR1_003                                                 6
 STAT SP IPHASW D HRMM SECON CODA AMPLIT PERI AZIMU VELO AIN AR TRES W  DIS CAZ7
 LZ4  SZ E        1335 37.55                  239.9 19.2      0        6.53  60 
 LZ4  SN IP       1335 37.61                             147    0.0310 6.53  60 
 LZ4  SE IS       1335 39.10                             147   -0.0310 6.53  60 
 LZ4  SZ  AML     1335 39.74        11.1 0.52                          6.53  60 
                                                                                
