 2008 10 4 1010 31.8 L  21.348 -99.394 18.6  RAL  2 0.3 0.4LRAL                1
 GAP=302        1.65       2.1     3.6 18.7 -0.3573E+01  0.9155E+01 -0.2407E+01E
 ACTION:UPD 12-06-08 11:37 OP:RALL STATUS:               ID:20081004101031     I
 2008-10-04-1010-23S.PLUR1_006                                                 6
 STAT SP IPHASW D HRMM SECON CODA AMPLIT PERI AZIMU VELO AIN AR TRES W  DIS CAZ7
 LZ4  SN IP       1010 36.39                             144    0.7510 13.1  98 
 LZ4  SZ E        1010 36.39                  279.4 17.0      1        13.1  98 
 LZ4  SE IS       1010 39.05                             144    0.6410 13.1  98 
 LZ4  SZ  AML     1010 40.58        15.6 0.32                          13.1  98 
 LD5  SZ E        1010 36.06                  337.0 16.1      0        19.4 157 
 LD5  SN IP       1010 36.11                             132   -0.1810 19.4 157 
 LD5  SE IS       1010 38.32                             132   -1.2110 19.4 157 
 LD5  SZ  AML     1010 39.17         2.5 0.36                          19.4 157 
                                                                                
