 2008 10 4 1632 42.7 L  21.655 -99.310 10.0  RAL  1 0.0 0.6LRAL                1
 GAP=360        0.30       4.1     0.5  0.0 -0.9305E-01  0.1626E+03 -0.2713E+03E
 ACTION:UPD 12-06-08 11:37 OP:RALL STATUS:               ID:20081004163242     I
 2008-10-04-1632-34S.PLUR1_003                                                 6
 STAT SP IPHASW D HRMM SECON CODA AMPLIT PERI AZIMU VELO AIN AR TRES W  DIS CAZ7
 LA4  SN IP       1632 46.40                             115    0.0210 19.0 180 
 LA4  SZ E        1632 46.65                  359.7 14.6      0        19.0 180 
 LA4  SE IS       1632 49.02                             115   -0.0210 19.0 180 
 LA4  SZ  AML     1632 50.43        11.9 0.28                          19.0 180 
                                                                                
