 2008 10 4 2359 15.6 L  21.351 -99.285 16.4  RAL  2 0.2 0.5LRAL                1
 GAP=205        1.90       1.0     2.7 16.8  0.9223E+00  0.7249E+00 -0.3653E+00E
 ACTION:UPD 12-06-08 11:37 OP:RALL STATUS:               ID:20081004235915     I
 2008-10-04-2359-06S.PLUR1_006                                                 6
 STAT SP IPHASW D HRMM SECON CODA AMPLIT PERI AZIMU VELO AIN AR TRES W  DIS CAZ7
 LZ4  SZ E        2359 18.99                  323.7 13.4     -1        2.73 145 
 LZ4  SN IP       2359 18.99                             172    0.4810 2.73 145 
 LZ4  SE IS       2359 20.90                             172    0.3110 2.73 145 
 LZ4  SZ  AML     2359 22.72        19.2 0.64                          2.73 145 
 LA4  SZ E        2359 19.19                  162.6  9.2     -7        14.9 350 
 LA4  SN IP       2359 19.40                             137    0.0310 14.9 350 
 LA4  SE IS       2359 21.27                             137   -0.8210 14.9 350 
 LA4  SZ  AML     2359 22.84         5.9 0.48                          14.9 350 
                                                                                
