 2008 10 4 2240 37.4 L  21.480 -99.315 10.0  RAL  1 0.4 0.3LRAL                1
 GAP=360        4.98     471.0   794.6  0.0  0.3742E+06  0.1626E+03 -0.2713E+03E
 ACTION:UPD 12-06-08 11:37 OP:RALL STATUS:               ID:20081004224037     I
 2008-10-04-2240-25S.PLUR1_003                                                 6
 STAT SP IPHASW D HRMM SECON CODA AMPLIT PERI AZIMU VELO AIN AR TRES W  DIS CAZ7
 LA4  SZ E        2240 39.60                  261.1 16.9     24        0.73  58 
 LA4  SN IP       2240 39.60                             176    0.3810 0.73  58 
 LA4  SE IS       2240 40.19                             176   -0.3810 0.73  58 
 LA4  SZ  AML     2240 40.89        10.1 0.48                          0.73  58 
                                                                                
