 2008 10 5 0851 14.5 L  21.340 -99.289 10.0  RAL  1 0.1 0.2LRAL                1
 GAP=360        0.56      14.6    30.8  0.0 -0.4502E+03  0.4972E+01 -0.5420E+01E
 ACTION:UPD 12-06-08 11:37 OP:RALL STATUS:               ID:20081005085114     I
 2008-10-05-0851-02S.PLUR1_003                                                 6
 STAT SP IPHASW D HRMM SECON CODA AMPLIT PERI AZIMU VELO AIN AR TRES W  DIS CAZ7
 LZ4  SZ E         851 16.68                  296.9  8.1      0        2.29 117 
 LZ4  SN IP        851 16.73                             167    0.3210 2.29 117 
 LZ4  SE IS        851 17.45                             167   -0.3210 2.29 117 
 LZ4  SZ  AML      851 17.52         9.3 0.16                          2.29 117 
                                                                                
