 2008 10 5 0246 51.1 L  21.370 -99.325 11.7  RAL  3 0.2 1.2LRAL                1
 GAP=189        2.74       2.5     2.6 21.8 -0.3949E+01  0.9558E+00  0.1663E+01E
 ACTION:UPD 12-06-08 11:37 OP:RALL STATUS:               ID:20081005024651     I
 2008-10-05-0246-38S.PLUR1_009                                                 6
 STAT SP IPHASW D HRMM SECON CODA AMPLIT PERI AZIMU VELO AIN AR TRES W  DIS CAZ7
 LZ4  SN IP        246 53.45                             152   -0.0910 7.25 127 
 LZ4  SZ E         246 53.49                  305.9  6.1      0        7.25 127 
 LZ4  SE IS        246 55.91                             152    0.6110 7.25 127 
 LZ4  SZ  AML      246 57.53       244.2 0.24                          7.25 127 
 LA4  SN IP        246 53.54                             136   -0.5510 12.7   8 
 LA4  SZ E         246 53.59                  179.0  9.6     -8        12.7   8 
 LA4  SE IS        246 55.58                             136   -0.6710 12.7   8 
 LA4  SZ  AML      246 57.15       117.7 0.84                          12.7   8 
 LD5  SN IP        246 55.26                             122    0.2010 20.3 178 
 LD5  SZ E         246 55.27                  346.8 10.1    -11        20.3 178 
 LD5  SE IS        246 58.43                             122    0.5010 20.3 178 
 LD5  SZ  AML      246 59.95         6.1 0.38                          20.3 178 
                                                                                
