 2008 10 5 0553 21.0 L  21.402 -99.306 10.0  RAL  2 0.2 0.5LRAL                1
 GAP=203        2.46       5.1     2.0 29.1 -0.6804E+01  0.8492E+00 -0.1736E+01E
 ACTION:UPD 12-06-08 11:37 OP:RALL STATUS:               ID:20081005055321     I
 2008-10-05-0553-09S.PLUR1_006                                                 6
 STAT SP IPHASW D HRMM SECON CODA AMPLIT PERI AZIMU VELO AIN AR TRES W  DIS CAZ7
 LZ4  SZ E         553 23.20                  341.0  6.7      6        8.75 155 
 LZ4  SN IP        553 23.24                             139   -0.0610 8.75 155 
 LZ4  SE IS        553 24.66                             139   -0.3410 8.75 155 
 LZ4  SZ  AML      553 24.67        12.3 0.16                          8.75 155 
 LA4  SZ E         553 23.49                  187.7  8.7     10        9.02 358 
 LA4  SN IP        553 23.56                             138    0.2210 9.02 358 
 LA4  SE IS        553 25.25                             138    0.1810 9.02 358 
 LA4  SZ  AML      553 26.59        13.9 0.68                          9.02 358 
                                                                                
