 2008 10 5 0828  1.8 L  21.350 -99.287 17.4  RAL  2 0.2 0.5LRAL                1
 GAP=213        1.73       3.0     2.8 15.6 -0.8181E+01  0.4972E+01 -0.5420E+01E
 ACTION:UPD 12-06-08 11:37 OP:RALL STATUS:               ID:20081005082801     I
 2008-10-05-0827-52S.PLUR1_006                                                 6
 STAT SP IPHASW D HRMM SECON CODA AMPLIT PERI AZIMU VELO AIN AR TRES W  DIS CAZ7
 LZ4  SN IP        828  5.37                             171    0.5510 2.78 138 
 LZ4  SZ E         828  5.54                  316.0 17.8     -1        2.78 138 
 LZ4  SE IS        828  7.26                             171    0.2410 2.78 138 
 LZ4  SZ  AML      828  7.47        10.8 0.60                          2.78 138 
 LA4  SN IP        828  5.57                             139   -0.0910 15.0 351 
 LA4  SZ E         828  5.58                  164.8 11.4     -6        15.0 351 
 LA4  SE IS        828  7.78                             139   -0.6910 15.0 351 
 LA4  SZ  AML      828  8.97         6.5 0.24                          15.0 351 
                                                                                
