 2008 10 5 0016 59.2 L  21.564 -99.225 10.0  RAL  1 0.0 0.3LRAL                1
 GAP=360        0.30       3.4     3.5  0.0  0.1187E+02  0.7249E+00 -0.3653E+00E
 ACTION:UPD 12-06-08 11:37 OP:RALL STATUS:               ID:20081005001659     I
 2008-10-05-0016-49S.PLUR1_003                                                 6
 STAT SP IPHASW D HRMM SECON CODA AMPLIT PERI AZIMU VELO AIN AR TRES W  DIS CAZ7
 LA4  SZ E         017  1.88                   44.2 10.5      0        12.4 224 
 LA4  SN IP        017  1.95                             128    0.0210 12.4 224 
 LA4  SE IS        017  3.92                             128   -0.0210 12.4 224 
 LA4  SZ  AML      017  4.28         6.5 0.56                          12.4 224 
                                                                                
