 2008 10 5 0222  5.8 L  21.351 -99.284 17.2  RAL  2 0.2 0.7LRAL                1
 GAP=206        1.22       2.8     2.1 11.1 -0.5645E+01  0.3365E+01 -0.4497E+01E
 ACTION:UPD 12-06-08 11:37 OP:RALL STATUS:               ID:20081005022205     I
 2008-10-05-0221-56S.PLUR1_006                                                 6
 STAT SP IPHASW D HRMM SECON CODA AMPLIT PERI AZIMU VELO AIN AR TRES W  DIS CAZ7
 LZ4  SN IP        222  9.25                             171    0.5010 2.68 145 
 LZ4  SZ E         222  9.42                  324.2  7.8      0        2.68 145 
 LZ4  SE IS        222 11.28                             171    0.3510 2.68 145 
 LZ4  SZ  AML      222 11.57        24.1 0.44                          2.68 145 
 LA4  SZ E         222  9.47                  167.7  9.7     -1        14.9 350 
 LA4  SN IP        222  9.61                             139    0.0110 14.9 350 
 LA4  SE IS     D  222 11.53                             139   -0.8610 14.9 350 
 LA4  SZ  AML      222 11.75        11.4 0.28                          14.9 350 
                                                                                
