 2008 10 5 0229 30.4 L  21.385 -99.298 10.0  RAL  1 0.0 0.9LRAL                1
 GAP=360        0.30       4.9     0.6  0.0 -0.2811E+01  0.3365E+01 -0.4497E+01E
 ACTION:UPD 12-06-08 11:37 OP:RALL STATUS:               ID:20081005022930     I
 2008-10-05-0229-19S.PLUR1_003                                                 6
 STAT SP IPHASW D HRMM SECON CODA AMPLIT PERI AZIMU VELO AIN AR TRES W  DIS CAZ7
 LA4  SZ E         229 32.95                  173.8 10.3      0        11.0 354 
 LA4  SN IP        229 32.95                             132    0.0010 11.0 354 
 LA4  SE IS        229 34.84                             132    0.0010 11.0 354 
 LA4  SZ  AML      229 35.24        31.1 0.20                          11.0 354 
                                                                                
