 2008 10 5 1349 47.6 R                       RAL  1                            1
 ACTION:UPD 12-06-08 11:37 OP:RALL STATUS:               ID:20081005134947     I
 2008-10-05-1349-47S.PLUR1_003                                                 6
 STAT SP IPHASW D HRMM SECON CODA AMPLIT PERI AZIMU VELO AIN AR TRES W  DIS CAZ7
 LZ4  SZ E        1349 59.61                  339.4  8.7                        
 LZ4  SN IP       1349 59.88                                                    
 LZ4  SZ  AML     1350 19.84        35.3 0.40                                   
                                                                                
