 2008 10 5 1715  8.1 L  22.020 -99.507 10.0  RAL  1 0.0 1.3LRAL                1
 GAP=360        0.30       3.6     2.1  0.0 -0.3719E+01  0.4972E+01 -0.5420E+01E
 ACTION:UPD 12-06-08 11:37 OP:RALL STATUS:               ID:20081005171508     I
 2008-10-05-1715-09S.PLUR1_003                                                 6
 STAT SP IPHASW D HRMM SECON CODA AMPLIT PERI AZIMU VELO AIN AR TRES W  DIS CAZ7
 LA4  SZ E        1715 18.11                  341.0 10.6      0        62.8 161 
 LA4  SN IP       1715 18.35                              96    0.0110 62.8 161 
 LA4  SE IS       1715 25.84                              96   -0.0110 62.8 161 
 LA4  SZ  AML     1715 28.86        18.2 0.32                          62.8 161 
                                                                                
