 2008 10 6 0931 31.8 L  21.314 -99.295 10.0  RAL  1 0.1 0.3LRAL                1
 GAP=360        0.48      11.2    17.1  0.0  0.1926E+03  0.1361E+04 -0.2242E+04E
 ACTION:UPD 12-06-08 11:37 OP:RALL STATUS:               ID:20081006093131     I
 2008-10-06-0931-19S.PLUR1_003                                                 6
 STAT SP IPHASW D HRMM SECON CODA AMPLIT PERI AZIMU VELO AIN AR TRES W  DIS CAZ7
 LZ4  SN IP        931 33.94                             162    0.2510 3.28  55 
 LZ4  SZ E         931 33.99                  234.9 15.8      0        3.28  55 
 LZ4  SE IS        931 34.83                             162   -0.2510 3.28  55 
 LZ4  SZ  AML      931 35.81         9.6 0.28                          3.28  55 
                                                                                
