 2008 10 6 0719 41.9 L  21.673 -99.427  0.0  RAL  2 0.2 1.1LRAL                1
 GAP=353        1.44      12.7     7.9274.8 -0.9246E+02  0.1361E+04 -0.2242E+04E
 ACTION:UPD 12-06-08 11:37 OP:RALL STATUS:               ID:20081006071941     I
 2008-10-06-0719-32S.PLUR1_006                                                 6
 STAT SP IPHASW D HRMM SECON CODA AMPLIT PERI AZIMU VELO AIN AR TRES W  DIS CAZ7
 LA4  SN IP        719 46.11                              93   -0.0710 24.3 150 
 LA4  SZ E         719 46.20                  332.4  8.7      3        24.3 150 
 LA4  SE IS        719 48.66                              93   -0.6210 24.3 150 
 LA4  SZ  AML      719 51.27        47.3 0.32                          24.3 150 
 LZ4  SN IP        719 49.46                              91    0.3110 41.2 157 
 LZ4  SZ E         719 50.51                  331.7  9.9     -4        41.2 157 
 LZ4  SE IS        719 54.79                              91    0.3810 41.2 157 
 LZ4  SZ  AML      719 57.72        12.9 0.28                          41.2 157 
                                                                                
