 2008 10 6 0056 18.4 L  21.639 -99.336 10.0  RAL  1 0.0 0.6LRAL                1
 GAP=360        0.30       4.1     0.9  0.0 -0.2987E+01  0.4972E+01 -0.5420E+01E
 ACTION:UPD 12-06-08 11:37 OP:RALL STATUS:               ID:20081006005618     I
 2008-10-06-0056-10S.PLUR1_003                                                 6
 STAT SP IPHASW D HRMM SECON CODA AMPLIT PERI AZIMU VELO AIN AR TRES W  DIS CAZ7
 LA4  SZ E         056 21.82                  350.7  9.7      0        17.4 171 
 LA4  SN IP        056 21.85                             117    0.0210 17.4 171 
 LA4  SE IS        056 24.30                             117   -0.0210 17.4 171 
 LA4  SZ  AML      056 24.33        12.6 0.28                          17.4 171 
                                                                                
