 2008 10 6 0456 14.9 L  21.344 -99.290 17.5  RAL  2 0.2 0.6LRAL                1
 GAP=229        1.96       2.0     3.1 17.6 -0.5968E+01  0.4383E+01 -0.2815E+01E
 ACTION:UPD 12-06-08 11:37 OP:RALL STATUS:               ID:20081006045614     I
 2008-10-06-0456-05S.PLUR1_006                                                 6
 STAT SP IPHASW D HRMM SECON CODA AMPLIT PERI AZIMU VELO AIN AR TRES W  DIS CAZ7
 LZ4  SN IP        456 18.50                             172    0.6010 2.58 124 
 LZ4  SZ E         456 18.62                  302.1  6.4     -1        2.58 124 
 LZ4  SE IS        456 20.42                             172    0.3010 2.58 124 
 LZ4  SZ  AML      456 20.84        13.3 0.44                          2.58 124 
 LA4  SZ E         456 18.54                  165.4 19.0     -6        15.6 353 
 LA4  SN IP        456 18.82                             138    0.0210 15.6 353 
 LA4  SE IS        456 20.75                             138   -0.9210 15.6 353 
 LA4  SZ  AML      456 21.99        11.5 0.24                          15.6 353 
                                                                                
