 2008 10 6 1124 43.9 L  21.623 -99.348 10.0  RAL  1 0.0 0.4LRAL                1
 GAP=360        0.30       4.1     1.2  0.0 -0.4782E+01  0.1361E+04 -0.2242E+04E
 ACTION:UPD 12-06-08 11:37 OP:RALL STATUS:               ID:20081006112443     I
 2008-10-06-1124-36S.PLUR1_003                                                 6
 STAT SP IPHASW D HRMM SECON CODA AMPLIT PERI AZIMU VELO AIN AR TRES W  DIS CAZ7
 LA4  SN IP       1124 47.07                             120    0.0010 15.9 165 
 LA4  SZ E        1124 47.14                  345.3 11.3      0        15.9 165 
 LA4  SE IS       1124 49.41                             120    0.0010 15.9 165 
 LA4  SZ  AML     1124 51.51         7.0 0.64                          15.9 165 
                                                                                
