 2008 10 6 1905  6.3 L  21.689 -99.361 10.0  RAL  1 0.0 1.1LRAL                1
 GAP=360        0.30       3.8     1.2  0.0 -0.3628E+01  0.1361E+04 -0.2242E+04E
 ACTION:UPD 12-06-08 11:37 OP:RALL STATUS:               ID:20081006190506     I
 2008-10-06-1904-59S.PLUR1_003                                                 6
 STAT SP IPHASW D HRMM SECON CODA AMPLIT PERI AZIMU VELO AIN AR TRES W  DIS CAZ7
 LA4  SZ E        19 5 10.51                  346.8  8.2      0        23.4 167 
 LA4  SN IP       19 5 10.54                             110    0.0210 23.4 167 
 LA4  SE IS       19 5 13.62                             110   -0.0210 23.4 167 
 LA4  SZ  AML     19 5 14.43        28.7 0.32                          23.4 167 
                                                                                
