 2008 10 6 1518 22.4 L  21.610 -99.309 10.0  RAL  1 0.0 0.6LRAL                1
 GAP=360        0.30       4.5     0.4  0.0  0.3726E-01  0.1361E+04 -0.2242E+04E
 ACTION:UPD 12-06-08 11:37 OP:RALL STATUS:               ID:20081006151822     I
 2008-10-06-1518-13S.PLUR1_003                                                 6
 STAT SP IPHASW D HRMM SECON CODA AMPLIT PERI AZIMU VELO AIN AR TRES W  DIS CAZ7
 LA4  SN IP       1518 25.40                             124    0.0010 14.0 180 
 LA4  SZ E        1518 25.49                    0.1  8.7      0        14.0 180 
 LA4  SE IS       1518 27.56                             124    0.0010 14.0 180 
 LA4  SZ  AML     1518 28.60        12.8 0.32                          14.0 180 
                                                                                
