 2008 10 6 1743 20.4 L  21.331 -99.277 10.0  RAL  1 0.3 0.5LRAL                1
 GAP=360        4.21     999.9   999.9  0.0 -0.1050E+11  0.1361E+04 -0.2242E+04E
 ACTION:UPD 12-06-08 11:37 OP:RALL STATUS:               ID:20081006174320     I
 2008-10-06-1743-08S.PLUR1_003                                                 6
 STAT SP IPHASW D HRMM SECON CODA AMPLIT PERI AZIMU VELO AIN AR TRES W  DIS CAZ7
 LZ4  SN IP       1743 22.52                             176    0.2710 0.80  89 
 LZ4  SZ E        1743 22.52                  289.4  9.8     20        0.80  89 
 LZ4  SE IS       1743 23.31                             176   -0.2710 0.80  89 
 LZ4  SZ  AML     1743 23.44        18.0 0.56                          0.80  89 
                                                                                
