 2008 10 6 1116 31.1 L  21.315 -99.277 10.0  RAL  1 0.2 0.6LRAL                1
 GAP=360        1.56     260.7   317.1  0.0 -0.8268E+05  0.1361E+04 -0.2242E+04E
 ACTION:UPD 12-06-08 11:37 OP:RALL STATUS:               ID:20081006111631     I
 2008-10-06-1116-19S.PLUR1_003                                                 6
 STAT SP IPHASW D HRMM SECON CODA AMPLIT PERI AZIMU VELO AIN AR TRES W  DIS CAZ7
 LZ4  SZ E        1116 33.42                  199.2 11.5     -5        1.90  26 
 LZ4  SN IP       1116 33.44                             170    0.5110 1.90  26 
 LZ4  SE IS       1116 33.78                             170   -0.5110 1.90  26 
 LZ4  SZ  AML     1116 33.95        20.1 0.28                          1.90  26 
                                                                                
