 2008 10 6 2239 39.9 L  21.526 -99.370 10.0  RAL  1 0.0 0.3LRAL                1
 GAP=360        0.30       3.6     5.2  0.0 -0.1866E+02  0.1495E+00  0.1050E+00E
 ACTION:UPD 12-06-08 11:37 OP:RALL STATUS:               ID:20081006223939     I
 2008-10-06-2239-29S.PLUR1_003                                                 6
 STAT SP IPHASW D HRMM SECON CODA AMPLIT PERI AZIMU VELO AIN AR TRES W  DIS CAZ7
 LA4  SN IP       2239 42.19                             142    0.0210 7.87 126 
 LA4  SZ E        2239 42.22                  306.2 10.7      0        7.87 126 
 LA4  SE IS       2239 43.80                             142   -0.0210 7.87 126 
 LA4  SZ  AML     2239 45.04         9.4 0.84                          7.87 126 
                                                                                
