 2008 10 6 2027 26.8 L  21.423 -99.373 26.3  RAL  2 0.1 0.7LRAL                1
 GAP=271        0.58       0.6     0.7  6.0  0.1703E+00  0.1495E+00  0.1050E+00E
 ACTION:UPD 12-06-08 11:37 OP:RALL STATUS:               ID:20081006202726     I
 2008-10-06-2027-20S.PLUR1_006                                                 6
 STAT SP IPHASW D HRMM SECON CODA AMPLIT PERI AZIMU VELO AIN AR TRES W  DIS CAZ7
 LA4  SZ E        2027 31.11                  224.3 11.1      0        9.43  45 
 LA4  SN IP       2027 31.29                             159   -0.1110 9.43  45 
 LA4  SE IS       2027 34.46                             159   -0.2710 9.43  45 
 LA4  SZ  AML     2027 36.04         7.3 0.64                          9.43  45 
 LZ4  SN IP       2027 31.76                             149    0.0310 14.8 134 
 LZ4  SZ E        2027 31.81                  313.1  7.9      0        14.8 134 
 LZ4  SE IS       2027 35.66                             149    0.3610 14.8 134 
 LZ4  SZ  AML     2027 35.76        14.7 0.24                          14.8 134 
                                                                                
