 2008 10 6 2010 10.6 L  21.310 -99.250 10.0  RAL  1 0.1 0.5LRAL                1
 GAP=360        0.52      17.1    15.7  0.0 -0.2685E+03  0.1361E+04 -0.2242E+04E
 ACTION:UPD 12-06-08 11:37 OP:RALL STATUS:               ID:20081006201010     I
 2008-10-06-2009-59S.PLUR1_003                                                 6
 STAT SP IPHASW D HRMM SECON CODA AMPLIT PERI AZIMU VELO AIN AR TRES W  DIS CAZ7
 LZ4  SZ E        2010 12.76                  139.5 10.1      0        3.10 320 
 LZ4  SN IP       2010 12.82                             163    0.2910 3.10 320 
 LZ4  SE IS       2010 13.63                             163   -0.2910 3.10 320 
 LZ4  SZ  AML     2010 14.58        17.8 0.20                          3.10 320 
                                                                                
