 2008 10 7 0024 49.3 L  21.331 -99.279 10.0  RAL  1 0.2 0.6LRAL                1
 GAP=360        2.43      54.6   349.3  0.0 -0.1891E+05  0.1495E+00  0.1050E+00E
 ACTION:UPD 12-06-08 11:37 OP:RALL STATUS:               ID:20081007002449     I
 2008-10-07-0024-36S.PLUR1_003                                                 6
 STAT SP IPHASW D HRMM SECON CODA AMPLIT PERI AZIMU VELO AIN AR TRES W  DIS CAZ7
 LZ4  SZ E         024 51.35                  279.6  9.6     11        0.97  88 
 LZ4  SN IP        024 51.39                             175    0.2810 0.97  88 
 LZ4  SE IS        024 52.17                             175   -0.2810 0.97  88 
 LZ4  SZ  AML      024 52.34        23.4 0.16                          0.97  88 
                                                                                
