 2008 10 7 0105  2.5 L  21.965 -98.945 10.0  RAL  1 0.0 1.0LRAL                1
 GAP=360        0.30       3.2     2.7  0.0  0.5572E+01  0.1495E+00  0.1050E+00E
 ACTION:UPD 12-06-08 11:37 OP:RALL STATUS:               ID:20081007010502     I
 2008-10-07-0105-08S.PLUR1_003                                                 6
 STAT SP IPHASW D HRMM SECON CODA AMPLIT PERI AZIMU VELO AIN AR TRES W  DIS CAZ7
 LA4  SN IP        1 5 13.22                              95    0.0110 65.2 215 
 LA4  SZ E         1 5 13.48                   35.2 20.3      0        65.2 215 
 LA4  SE IS        1 5 20.98                              95   -0.0110 65.2 215 
 LA4  SZ  AML      1 5 24.44         8.8 0.64                          65.2 215 
                                                                                
