 2008 10 7 0333 17.6 L  21.616 -99.352 10.0  RAL  1 0.0 0.8LRAL                1
 GAP=360        0.30       4.1     1.4  0.0 -0.5495E+01  0.1150E+01  0.5633E+00E
 ACTION:UPD 12-06-08 11:37 OP:RALL STATUS:               ID:20081007033317     I
 2008-10-07-0333-08S.PLUR1_003                                                 6
 STAT SP IPHASW D HRMM SECON CODA AMPLIT PERI AZIMU VELO AIN AR TRES W  DIS CAZ7
 LA4  SN IP        333 20.74                             121    0.0010 15.3 163 
 LA4  SZ E         333 20.91                  343.3  7.9      0        15.3 163 
 LA4  SE IS        333 23.02                             121    0.0010 15.3 163 
 LA4  SZ  AML      333 23.82        22.6 0.28                          15.3 163 
                                                                                
