 2008 10 7 0143  4.2 L  21.636 -99.683 10.0  RAL  1 0.0 1.2LRAL                1
 GAP=360        0.30       2.6     3.3  0.0 -0.6219E+01  0.1495E+00  0.1050E+00E
 ACTION:UPD 12-06-08 11:37 OP:RALL STATUS:               ID:20081007014304     I
 2008-10-07-0143-05S.PLUR1_003                                                 6
 STAT SP IPHASW D HRMM SECON CODA AMPLIT PERI AZIMU VELO AIN AR TRES W  DIS CAZ7
 LZ4  SZ E         143 13.14                  308.3 17.6      0        54.5 128 
 LZ4  SZ IP        143 13.17                              97    0.0110 54.5 128 
 LZ4  SN IP        143 13.31                                           54.5 128 
 LZ4  SE IS        143 19.71                              97   -0.0110 54.5 128 
 LZ4  SN  AML      143 20.04        18.5 0.20                          54.5 128 
                                                                                
