 2008 10 7 0245 45.0 L  21.325 -99.277 10.0  RAL  2 0.2 0.4LRAL                1
 GAP=216        2.48       1.3     3.6 18.0 -0.3092E+01  0.1150E+01  0.5633E+00E
 ACTION:UPD 12-06-08 11:37 OP:RALL STATUS:               ID:20081007024545     I
 2008-10-07-0245-32S.PLUR1_006                                                 6
 STAT SP IPHASW D HRMM SECON CODA AMPLIT PERI AZIMU VELO AIN AR TRES W  DIS CAZ7
 LZ4  SZ E         245 47.15                  242.9 10.6     11        0.96  52 
 LZ4  SN IP        245 47.17                             176    0.3810 0.96  52 
 LZ4  SE IS        245 48.27                             176    0.1410 0.96  52 
 LZ4  SZ  AML      245 48.77        35.9 0.48                          0.96  52 
 LD5  SN IP        245 48.11                             120   -0.0610 16.0 196 
 LD5  SZ E         245 48.13                   20.2 10.1      4        16.0 196 
 LD5  SE IS        245 50.05                             120   -0.4710 16.0 196 
 LD5  SZ  AML      245 51.05         2.6 0.28                          16.0 196 
                                                                                
