 2008 10 7 1827 33.7 L  21.756 -99.275 10.0  RAL  1 0.0 0.9LRAL                1
 GAP=360        0.30       3.8     1.0  0.0  0.1741E+01  0.1150E+01  0.5633E+00E
 ACTION:UPD 12-06-08 11:37 OP:RALL STATUS:               ID:20081007182733     I
 2008-10-07-1827-29S.PLUR1_003                                                 6
 STAT SP IPHASW D HRMM SECON CODA AMPLIT PERI AZIMU VELO AIN AR TRES W  DIS CAZ7
 LA4  SZ E        1827 38.93                    6.7  8.4      0        30.3 187 
 LA4  SN IP       1827 38.96                             104    0.0110 30.3 187 
 LA4  SE IS       1827 42.81                             104   -0.0110 30.3 187 
 LA4  SZ  AML     1827 45.92        13.8 0.40                          30.3 187 
                                                                                
