 2008 10 7 1719 55.8 L  21.504 -99.372 10.0  RAL  1 0.0 0.6LRAL                1
 GAP=360        0.30       2.2     6.7  0.0 -0.1467E+02  0.1150E+01  0.5633E+00E
 ACTION:UPD 12-06-08 11:37 OP:RALL STATUS:               ID:20081007171955     I
 2008-10-07-1719-46S.PLUR1_003                                                 6
 STAT SP IPHASW D HRMM SECON CODA AMPLIT PERI AZIMU VELO AIN AR TRES W  DIS CAZ7
 LA4  SN IP       1719 58.00                             146    0.0210 6.90 109 
 LA4  SZ E        1719 58.01                  289.4 17.1      0        6.90 109 
 LA4  SE IS       1719 59.55                             146   -0.0210 6.90 109 
 LA4  SZ  AML     1720  1.42        18.7 0.52                          6.90 109 
                                                                                
