 2008 10 7 1225 12.0 L  21.338 -99.285 10.0  RAL  1 0.1 0.5LRAL                1
 GAP=360        0.61      18.6    42.6  0.0 -0.7933E+03  0.1150E+01  0.5633E+00E
 ACTION:UPD 12-06-08 11:37 OP:RALL STATUS:               ID:20081007122512     I
 2008-10-07-1225-00S.PLUR1_003                                                 6
 STAT SP IPHASW D HRMM SECON CODA AMPLIT PERI AZIMU VELO AIN AR TRES W  DIS CAZ7
 LZ4  SZ E        1225 14.17                  295.2 20.5      0        1.83 115 
 LZ4  SN IP       1225 14.26                             170    0.3610 1.83 115 
 LZ4  SE IS       1225 14.89                             170   -0.3610 1.83 115 
 LZ4  SZ  AML     1225 15.02        19.6 0.56                          1.83 115 
                                                                                
