 2008 10 7 1102 47.8 L  21.337 -99.286 10.0  RAL  1 0.1 0.4LRAL                1
 GAP=360        0.48      12.7    34.9  0.0 -0.4421E+03  0.1150E+01  0.5633E+00E
 ACTION:UPD 12-06-08 11:37 OP:RALL STATUS:               ID:20081007110247     I
 2008-10-07-1102-36S.PLUR1_003                                                 6
 STAT SP IPHASW D HRMM SECON CODA AMPLIT PERI AZIMU VELO AIN AR TRES W  DIS CAZ7
 LZ4  SZ E        11 2 49.82                  291.3 14.9      0        1.80 111 
 LZ4  SN IP       11 2 49.95                             170    0.2610 1.80 111 
 LZ4  SE IS       11 2 50.79                             170   -0.2610 1.80 111 
 LZ4  SZ  AML     11 2 52.66        14.1 0.24                          1.80 111 
                                                                                
