 2008 10 7 1620  4.8 L  21.775 -99.349 10.0  RAL  1 0.0 0.8LRAL                1
 GAP=360        0.30       3.8     1.0  0.0 -0.1862E+01  0.1150E+01  0.5633E+00E
 ACTION:UPD 12-06-08 11:37 OP:RALL STATUS:               ID:20081007162004     I
 2008-10-07-1620-00S.PLUR1_003                                                 6
 STAT SP IPHASW D HRMM SECON CODA AMPLIT PERI AZIMU VELO AIN AR TRES W  DIS CAZ7
 LA4  SN IP       1620 10.41                             103    0.0110 32.5 173 
 LA4  SZ E        1620 11.51                  352.7  9.4      0        32.5 173 
 LA4  SE IS       1620 14.50                             103   -0.0110 32.5 173 
 LA4  SZ  AML     1620 14.68        10.4 0.24                          32.5 173 
                                                                                
