 2008 10 7 2119  8.6 L  21.781 -99.857 10.0  RAL  1 0.0 1.6LRAL                1
 GAP=360        0.30       2.8     3.4  0.0 -0.5075E+01  0.1150E+01  0.5633E+00E
 ACTION:UPD 12-06-08 11:37 OP:RALL STATUS:               ID:20081007211908     I
 2008-10-07-2119-09S.PLUR1_003                                                 6
 STAT SP IPHASW D HRMM SECON CODA AMPLIT PERI AZIMU VELO AIN AR TRES W  DIS CAZ7
 LZ4  SN IP       2119 21.31                              94    0.0110 78.6 129 
 LZ4  SZ E        2119 21.45                  309.4 13.5      0        78.6 129 
 LZ4  SE IS       2119 30.58                              94   -0.0110 78.6 129 
 LZ4  SZ  AML     2119 33.21        26.7 0.32                          78.6 129 
                                                                                
