 2008 10 8 0317 10.1 L  21.322 -99.303 10.0  RAL  1 0.0 0.6LRAL                1
 GAP=360        0.31       3.3    12.0  0.0  0.3998E+02  0.1150E+01  0.5633E+00E
 ACTION:UPD 12-06-08 11:37 OP:RALL STATUS:               ID:20081008031710     I
 2008-10-08-0316-58S.PLUR1_003                                                 6
 STAT SP IPHASW D HRMM SECON CODA AMPLIT PERI AZIMU VELO AIN AR TRES W  DIS CAZ7
 LZ4  SZ E         317 11.51                  253.4 75.3      0        3.58  73 
 LZ4  SN IP        317 12.11                             161    0.0610 3.58  73 
 LZ4  SE IS        317 13.40                             161   -0.0610 3.58  73 
 LZ4  SZ  AML      317 14.95        21.6 0.76                          3.58  73 
                                                                                
