 2008 10 8 0233 44.1 L  21.283 -99.246 10.0  RAL  1 0.0 0.5LRAL                1
 GAP=360        0.30       6.8     3.4  0.0 -0.2300E+02  0.1150E+01  0.5633E+00E
 ACTION:UPD 12-06-08 11:37 OP:RALL STATUS:               ID:20081008023344     I
 2008-10-08-0233-33S.PLUR1_003                                                 6
 STAT SP IPHASW D HRMM SECON CODA AMPLIT PERI AZIMU VELO AIN AR TRES W  DIS CAZ7
 LZ4  SN IP        233 46.19                             150    0.0310 5.82 335 
 LZ4  SZ E         233 46.34                  155.4 15.8      0        5.82 335 
 LZ4  SE IS        233 47.64                             150   -0.0310 5.82 335 
 LZ4  SZ  AML      233 49.53        13.9 0.32                          5.82 335 
                                                                                
