 2008 10 8 0559 58.2 L  21.417 -99.393 26.8  RAL  3 0.4 0.7LRAL                1
 GAP=246        6.54       6.8     8.2 55.8  0.1291E+02  0.3198E+02  0.2577E+02E
 ACTION:UPD 12-06-08 11:37 OP:RALL STATUS:               ID:20081008055958     I
 2008-10-08-0559-49S.PLUR1_009                                                 6
 STAT SP IPHASW D HRMM SECON CODA AMPLIT PERI AZIMU VELO AIN AR TRES W  DIS CAZ7
 LA4  SN IP        6 0  3.08                             156    0.1510 11.4  50 
 LA4  SZ E         6 0  3.12                  221.3 12.9     -7        11.4  50 
 LA4  SE IS        6 0  6.21                             156   -0.1810 11.4  50 
 LA4  SZ  AML      6 0  6.45        13.4 0.40                          11.4  50 
 LZ4  SN IP        6 0  3.27                             148    0.0410 15.9 127 
 LZ4  SZ E         6 0  3.29                  325.1  8.4     18        15.9 127 
 LZ4  SE IS        6 0  7.09                             148    0.1810 15.9 127 
 LZ4  SZ  AML      6 0  9.78        30.3 0.36                          15.9 127 
 LD5  SN IP        6 0  4.09                             132   -0.1410 26.6 164 
 LD5  SZ E         6 0  4.12                  311.7 16.2    -31        26.6 164 
 LD5  SE IS        6 0  8.59                             132   -0.0510 26.6 164 
 LD5  SZ  AML      6 0 11.33         2.1 0.42                          26.6 164 
                                                                                
