 2008 10 8 0731  1.1 L  21.500 -99.328 10.0  RAL  1 0.2 0.1LRAL                1
 GAP=360        0.74      24.6    28.6  0.0 -0.7039E+03  0.3198E+02  0.2577E+02E
 ACTION:UPD 12-06-08 11:37 OP:RALL STATUS:               ID:20081008073101     I
 2008-10-08-0730-50S.PLUR1_003                                                 6
 STAT SP IPHASW D HRMM SECON CODA AMPLIT PERI AZIMU VELO AIN AR TRES W  DIS CAZ7
 LA4  SZ E         731  3.49                  312.8 13.0      0        2.73 133 
 LA4  SN IP        731  3.49                             165    0.4610 2.73 133 
 LA4  SE IS        731  3.96                             165   -0.4610 2.73 133 
 LA4  SZ  AML      731  4.18         7.6 0.28                          2.73 133 
                                                                                
