 2008 10 8 0239 29.1 L  21.333 -99.278 10.0  RAL  1 0.1 0.3LRAL                1
 GAP=360        0.85     999.9   551.5  0.0  0.7090E+06  0.1150E+01  0.5633E+00E
 ACTION:UPD 12-06-08 11:37 OP:RALL STATUS:               ID:20081008023929     I
 2008-10-08-0239-17S.PLUR1_003                                                 6
 STAT SP IPHASW D HRMM SECON CODA AMPLIT PERI AZIMU VELO AIN AR TRES W  DIS CAZ7
 LZ4  SZ E         239 31.05                  289.9  9.3      3        0.91 107 
 LZ4  SN IP        239 31.24                             175    0.3110 0.91 107 
 LZ4  SE IS        239 31.96                             175   -0.3110 0.91 107 
 LZ4  SZ  AML      239 33.20        12.2 0.52                          0.91 107 
                                                                                
