 2008 10 8 1607  5.9 L  21.255 -99.262  1.8  RAL  3 0.2 0.5LRAL                1
 GAP=224        2.84       3.4     1.8 35.3  0.1635E+01 -0.3897E+01 -0.1660E+02E
 ACTION:UPD 12-06-08 11:37 OP:RALL STATUS:               ID:20081008160705     I
 2008-10-08-1606-52S.PLUR1_009                                                 6
 STAT SP IPHASW D HRMM SECON CODA AMPLIT PERI AZIMU VELO AIN AR TRES W  DIS CAZ7
 LZ4  SN IP       16 7  7.18                             113   -0.2710 8.47 355 
 LZ4  SZ E        16 7  7.21                  179.5 17.7      5        8.47 355 
 LZ4  SE IS       16 7  8.55                             113   -0.0510 8.47 355 
 LZ4  SZ  AML     16 7 11.34        62.2 0.32                          8.47 355 
 LD5  SZ E        16 7  7.41                   38.3 10.8      0        9.64 219 
 LD5  SN IP       16 7  7.45                             111   -0.2010 9.64 219 
 LD5  SE IS       16 7  9.08                             111    0.1510 9.64 219 
 LD5  SZ  AML     16 7  9.29         7.7 0.16                          9.64 219 
 LA4  SN IP       16 7  9.86                              98   -0.5710 25.8 349 
 LA4  SZ E        16 7  9.86                  154.6  8.0    -14        25.8 349 
 LA4  SE IS       16 7 14.70                              98    0.9510 25.8 349 
 LA4  SZ  AML     16 7 15.25         6.8 0.56                          25.8 349 
                                                                                
