 2008 10 8 1112  9.5 L  21.357 -99.317 10.0  RAL  1 0.0 0.2LRAL                1
 GAP=360        0.30       4.5     0.5  0.0  0.1294E+01  0.3198E+02  0.2577E+02E
 ACTION:UPD 12-06-08 11:37 OP:RALL STATUS:               ID:20081008111209     I
 2008-10-08-1111-59S.PLUR1_006                                                 6
 STAT SP IPHASW D HRMM SECON CODA AMPLIT PERI AZIMU VELO AIN AR TRES W  DIS CAZ7
 LA4  SZ E        1112 12.48                  183.5 13.2      0        14.0   3 
 LA4  SN IP       1112 12.50                             124    0.0010 14.0   3 
 LA4  SE IS       1112 14.66                             124    0.0010 14.0   3 
 LA4  SZ  AML     1112 15.57         5.6 0.28                          14.0   3 
                                                                                
