 2008 10 8 1204 49.8 L  21.339 -99.309 10.0  RAL  1 0.0 0.3LRAL                1
 GAP=360        0.30       2.2    10.2  0.0 -0.2211E+02  0.3198E+02  0.2577E+02E
 ACTION:UPD 12-06-08 11:37 OP:RALL STATUS:               ID:20081008120449     I
 2008-10-08-1204-38S.PLUR1_003                                                 6
 STAT SP IPHASW D HRMM SECON CODA AMPLIT PERI AZIMU VELO AIN AR TRES W  DIS CAZ7
 LZ4  SN IP       12 4 51.75                             158    0.0210 4.23 103 
 LZ4  SZ E        12 4 51.86                  282.9 10.0      0        4.23 103 
 LZ4  SE IS       12 4 53.14                             158   -0.0210 4.23 103 
 LZ4  SZ  AML     12 4 54.16        11.6 0.44                          4.23 103 
                                                                                
