 2008 10 8 1743  2.3 L  21.603 -99.492 10.0  RAL  1 0.0 0.9LRAL                1
 GAP=360        0.30       2.3     3.5  0.0 -0.7598E+01 -0.3897E+01 -0.1660E+02E
 ACTION:UPD 12-06-08 11:37 OP:RALL STATUS:               ID:20081008174302     I
 2008-10-08-1742-55S.PLUR1_003                                                 6
 STAT SP IPHASW D HRMM SECON CODA AMPLIT PERI AZIMU VELO AIN AR TRES W  DIS CAZ7
 LA4  SN IP       1743  6.55                             110    0.0010 23.1 125 
 LA4  SZ E        1743  6.56                  304.9  7.9      0        23.1 125 
 LA4  SE IS       1743  9.63                             110    0.0010 23.1 125 
 LA4  SZ  AML     1743 11.49        20.4 0.56                          23.1 125 
                                                                                
