 2008 10 8 1306 33.1 L  21.732 -99.357 10.0  RAL  1 0.0 0.8LRAL                1
 GAP=360        0.30       3.8     1.1  0.0 -0.2706E+01  0.3198E+02  0.2577E+02E
 ACTION:UPD 12-06-08 11:37 OP:RALL STATUS:               ID:20081008130633     I
 2008-10-08-1306-26S.PLUR1_003                                                 6
 STAT SP IPHASW D HRMM SECON CODA AMPLIT PERI AZIMU VELO AIN AR TRES W  DIS CAZ7
 LA4  SZ E        13 6 38.00                  349.7  7.9      0        27.9 170 
 LA4  SN IP       13 6 38.09                             106    0.0110 27.9 170 
 LA4  SE IS       13 6 41.67                             106   -0.0110 27.9 170 
 LA4  SZ  AML     13 6 43.15        12.4 0.76                          27.9 170 
                                                                                
