 2008 10 8 1842  0.5 L  20.533 -98.511 10.0  RAL  1 0.0 2.1LRAL                1
 GAP=360        0.30       3.4     3.6  0.0 -0.2296E+01 -0.3897E+01 -0.1660E+02E
 ACTION:UPD 12-06-08 11:37 OP:RALL STATUS:               ID:20081008184200     I
 2008-10-08-1842-07S.PLUR1_009                                                 6
 STAT SP IPHASW D HRMM SECON CODA AMPLIT PERI AZIMU VELO AIN AR TRES W  DIS CAZ7
 LZ4  SN IP       1842 19.38                              93    0.0010  118 318 
 LZ4  SZ E        1842 19.98                  138.1 20.8      0         118 318 
 LZ4  SE IS       1842 33.17                              93    0.0010  118 318 
 LZ4  SZ  AML     1842 37.88        58.4 0.52                           118 318 
                                                                                
