 2008 10 8 1848  1.6 L  21.639 -99.304 10.0  RAL  1 0.0 0.2LRAL                1
 GAP=360        0.30       4.2     0.5  0.0  0.5255E+00 -0.3897E+01 -0.1660E+02E
 ACTION:UPD 12-06-08 11:37 OP:RALL STATUS:               ID:20081008184801     I
 2008-10-08-1847-53S.PLUR1_003                                                 6
 STAT SP IPHASW D HRMM SECON CODA AMPLIT PERI AZIMU VELO AIN AR TRES W  DIS CAZ7
 LA4  SN IP       1848  5.01                             118    0.0210 17.2 182 
 LA4  SZ E        1848  5.16                    1.6 13.4      0        17.2 182 
 LA4  SE IS       1848  7.44                             118   -0.0210 17.2 182 
 LA4  SZ  AML     1848  9.27         4.6 0.48                          17.2 182 
                                                                                
