 2008 10 8 2145 27.6 L  21.348 -99.292 18.0  RAL  2 0.2 1.0LRAL                1
 GAP=225        1.25       1.5     1.9 11.3 -0.2736E+01  0.1746E+01 -0.1338E+01E
 ACTION:UPD 12-06-08 11:37 OP:RALL STATUS:               ID:20081008214527     I
 2008-10-08-2145-17S.PLUR1_006                                                 6
 STAT SP IPHASW D HRMM SECON CODA AMPLIT PERI AZIMU VELO AIN AR TRES W  DIS CAZ7
 LZ4  SN IP       2145 31.41                             171    0.6610 3.05 129 
 LZ4  SZ E        2145 31.46                  308.3  6.9      0        3.05 129 
 LZ4  SE IS       2145 33.38                             171    0.3610 3.05 129 
 LZ4  SZ  AML     2145 33.79        29.9 0.12                          3.05 129 
 LA4  SN IP       2145 31.40                             140   -0.1710 15.1 353 
 LA4  SZ E        2145 31.45                  172.1 10.8      0        15.1 353 
 LA4  SE IS       2145 33.58                             140   -0.8610 15.1 353 
 LA4  SZ  AML     2145 33.74        32.3 0.20                          15.1 353 
                                                                                
