 2008 10 8 2222 36.8 L  21.339 -99.287 10.0  RAL  1 0.1 0.6LRAL                1
 GAP=360        0.59     981.1   589.4  0.0  0.5782E+06  0.1905E-01  0.3228E+01E
 ACTION:UPD 12-06-08 11:37 OP:RALL STATUS:               ID:20081008222236     I
 2008-10-08-2222-24S.PLUR1_003                                                 6
 STAT SP IPHASW D HRMM SECON CODA AMPLIT PERI AZIMU VELO AIN AR TRES W  DIS CAZ7
 LZ4  SZ E        2222 38.98                  297.4  8.8      0        2.07 117 
 LZ4  SN IP       2222 39.01                             169    0.3410 2.07 117 
 LZ4  SE IS       2222 39.68                             169   -0.3410 2.07 117 
 LZ4  SZ  AML     2222 39.80        20.3 0.16                          2.07 117 
                                                                                
