 2008 10 8 2350  8.7 L  21.729 -99.427  0.1  RAL  2 0.1 1.2LRAL                1
 GAP=356        1.65      12.3     6.6 13.1 -0.6310E+02  0.2411E+01 -0.1129E+01E
 ACTION:UPD 12-06-08 11:37 OP:RALL STATUS:               ID:20081008235008     I
 2008-10-08-2349-59S.PLUR1_006                                                 6
 STAT SP IPHASW D HRMM SECON CODA AMPLIT PERI AZIMU VELO AIN AR TRES W  DIS CAZ7
 LA4  SZ E        2350 13.86                  339.9  8.1      4        29.8 156 
 LA4  SN IP       2350 13.87                              92   -0.0410 29.8 156 
 LA4  SE IS       2350 17.48                              92   -0.2410 29.8 156 
 LA4  SZ  AML     2350 18.47        31.1 0.32                          29.8 156 
 LZ4  SZ E        2350 16.97                  333.1  7.9     -6        47.0 160 
 LZ4  SN IP       2350 17.03                              63    0.1510 47.0 160 
 LZ4  SE IS       2350 22.99                              63    0.1310 47.0 160 
 LZ4  SZ  AML     2350 23.41        17.2 0.36                          47.0 160 
                                                                                
