 2008 10 8 2202 43.0 L  21.273 -99.262 10.0  RAL  2 0.2 0.4LRAL                1
 GAP=219        1.22       2.1     0.6 12.2  0.6991E-02  0.1905E-01  0.3228E+01E
 ACTION:UPD 12-06-08 11:37 OP:RALL STATUS:               ID:20081008220243     I
 2008-10-08-2202-32S.PLUR1_006                                                 6
 STAT SP IPHASW D HRMM SECON CODA AMPLIT PERI AZIMU VELO AIN AR TRES W  DIS CAZ7
 LZ4  SN IP       22 2 45.52                             156    0.3910 6.45 353 
 LZ4  SZ E        22 2 45.57                  173.0 12.4      0        6.45 353 
 LZ4  SE IS       22 2 47.18                             156    0.5110 6.45 353 
 LZ4  SZ  AML     22 2 47.29        28.5 0.28                          6.45 353 
 LD5  SN IP       22 2 45.31                             138   -0.3210 11.3 212 
 LD5  SZ E        22 2 45.49                   28.6 10.0     -3        11.3 212 
 LD5  SE IS       22 2 46.95                             138   -0.5910 11.3 212 
 LD5  SZ  AML     22 2 47.37         4.5 0.32                          11.3 212 
                                                                                
