 2008 10 9 0725 20.7 L  21.511 -99.383 10.0  RAL  1 0.0 1.0LRAL                1
 GAP=360        0.30       3.4     2.2  0.0 -0.7071E+01  0.2411E+01 -0.1129E+01E
 ACTION:UPD 12-06-08 11:37 OP:RALL STATUS:               ID:20081009072520     I
 2008-10-09-0725-13S.PLUR1_003                                                 6
 STAT SP IPHASW D HRMM SECON CODA AMPLIT PERI AZIMU VELO AIN AR TRES W  DIS CAZ7
 LZ4  SZ E         725 24.82                  329.5 15.8      0        23.2 149 
 LZ4  SN IP        725 24.90                             110    0.0010 23.2 149 
 LZ4  SE IS        725 27.98                             110    0.0010 23.2 149 
 LZ4  SZ  AML      725 30.68        23.8 0.72                          23.2 149 
                                                                                
