 2008 10 9 0019 47.6 L  21.354 -99.294 10.0  RAL  1 0.1 0.6LRAL                1
 GAP=360        0.44      11.8    12.7  0.0 -0.1503E+03  0.2411E+01 -0.1129E+01E
 ACTION:UPD 12-06-08 11:37 OP:RALL STATUS:               ID:20081009001947     I
 2008-10-09-0019-35S.PLUR1_003                                                 6
 STAT SP IPHASW D HRMM SECON CODA AMPLIT PERI AZIMU VELO AIN AR TRES W  DIS CAZ7
 LZ4  SN IP        019 49.76                             161    0.2210 3.59 135 
 LZ4  SZ E         019 49.77                  314.9  8.2      0        3.59 135 
 LZ4  SE IS        019 50.72                             161   -0.2210 3.59 135 
 LZ4  SZ  AML      019 50.81        19.6 0.24                          3.59 135 
                                                                                
