 2008 10 9 1331 53.1 L  21.342 -99.292 10.0  RAL  1 0.1 0.5LRAL                1
 GAP=360        0.51      11.9    23.9  0.0 -0.2838E+03  0.2411E+01 -0.1129E+01E
 ACTION:UPD 12-06-08 11:37 OP:RALL STATUS:               ID:20081009133153     I
 2008-10-09-1331-40S.PLUR1_003                                                 6
 STAT SP IPHASW D HRMM SECON CODA AMPLIT PERI AZIMU VELO AIN AR TRES W  DIS CAZ7
 LZ4  SZ E        1331 55.20                  298.0 11.4      0        2.70 118 
 LZ4  SN IP       1331 55.24                             165    0.2810 2.70 118 
 LZ4  SE IS       1331 56.05                             165   -0.2810 2.70 118 
 LZ4  SZ  AML     1331 56.21        16.9 0.16                          2.70 118 
                                                                                
