 2008 10 9 1653 42.4 L  21.677 -99.417  0.0  RAL  2 0.2 1.1LRAL                1
 GAP=354        3.38      30.7    17.5627.1 -0.4864E+03  0.6761E+04 -0.1239E+05E
 ACTION:UPD 12-06-08 11:37 OP:RALL STATUS:               ID:20081009165342     I
 2008-10-09-1653-33S.PLUR1_006                                                 6
 STAT SP IPHASW D HRMM SECON CODA AMPLIT PERI AZIMU VELO AIN AR TRES W  DIS CAZ7
 LA4  SZ E        1653 46.46                  340.2 11.6      8        24.1 152 
 LA4  SN IP       1653 46.77                              93    0.1110 24.1 152 
 LA4  SE IS       1653 49.02                              93   -0.7210 24.1 152 
 LA4  SZ  AML     1653 49.18        33.1 0.24                          24.1 152 
 LZ4  SZ E        1653 49.88                  324.4 19.0    -13        41.2 158 
 LZ4  SN IP       1653 50.05                              91    0.4110 41.2 158 
 LZ4  SE IS       1653 55.11                              91    0.2010 41.2 158 
 LZ4  SZ  AML     1653 57.12        14.7 0.52                          41.2 158 
                                                                                
