 2008 10 9 1629  8.7 L  21.332 -99.280 10.0  RAL  1 0.1 0.3LRAL                1
 GAP=360        0.55     999.9   255.8  0.0  0.3014E+06 -0.5692E+00 -0.5356E+00E
 ACTION:UPD 12-06-08 11:37 OP:RALL STATUS:               ID:20081009162908     I
 2008-10-09-1628-56S.PLUR1_003                                                 6
 STAT SP IPHASW D HRMM SECON CODA AMPLIT PERI AZIMU VELO AIN AR TRES W  DIS CAZ7
 LZ4  SZ E        1629 10.68                  276.5 10.9     -1        1.14  98 
 LZ4  SN IP       1629 10.72                             174    0.1510 1.14  98 
 LZ4  SE IS       1629 11.77                             174   -0.1510 1.14  98 
 LZ4  SZ  AML     1629 13.13        11.1 0.24                          1.14  98 
                                                                                
