 2008 10 9 1450 48.9 L  21.677 -99.429  0.0  RAL  3 0.2 2.1LRAL                1
 GAP=342        1.70       9.3     5.7 12.0 -0.4156E+02  0.1037E+02 -0.1007E+02E
 ACTION:UPD 12-06-08 11:37 OP:RALL STATUS:               ID:20081009145048     I
 2008-10-09-1450-39S.PLUR1_009                                                 6
 STAT SP IPHASW D HRMM SECON CODA AMPLIT PERI AZIMU VELO AIN AR TRES W  DIS CAZ7
 LA4  SZ E        1450 53.12                  331.4  8.7      2        24.7 150 
 LA4  SN IP       1450 53.14                              93   -0.0710 24.7 150 
 LA4  SE IS       1450 55.74                              93   -0.6310 24.7 150 
 LA4  SZ  AML     1450 55.92      1180.8 0.24                          24.7 150 
 LZ4  SN IP       1450 55.92                              91   -0.2510 41.7 157 
 LZ4  SZ E        1450 55.99                  329.8  7.1     -6        41.7 157 
 LZ4  SE IS       1451  2.00                              91    0.5010 41.7 157 
 LZ4  SZ  AML     1451  6.23       317.7 0.36                          41.7 157 
 LD5  SZ E        1450 58.22                  353.0 12.8      5        55.4 168 
 LD5  SN IP       1450 58.40                              63    0.0310 55.4 168 
 LD5  SE IS       1451  5.71                              63    0.4110 55.4 168 
 LD5  SZ  AML     1451 12.24        20.0 0.46                          55.4 168 
                                                                                
