 2008 10 9 1514  4.4 L  21.221 -99.268 10.6  RAL  2 0.1 0.4LRAL                1
 GAP=235        0.63       0.6     0.7  6.6  0.2937E+00 -0.5692E+00 -0.5356E+00E
 ACTION:UPD 12-06-08 11:37 OP:RALL STATUS:               ID:20081009151404     I
 2008-10-09-1513-53S.PLUR1_006                                                 6
 STAT SP IPHASW D HRMM SECON CODA AMPLIT PERI AZIMU VELO AIN AR TRES W  DIS CAZ7
 LD5  SN IP       1514  6.86                             148    0.2210 6.63 235 
 LD5  SZ E        1514  7.11                   55.1 12.4      0        6.63 235 
 LD5  SE IS       1514  8.43                             148    0.1810 6.63 235 
 LD5  SZ  AML     1514  8.86         4.1 0.36                          6.63 235 
 LZ4  SZ E        1514  6.94                  179.9 13.9      1        12.1 359 
 LZ4  SN IP       1514  7.23                             130    0.0310 12.1 359 
 LZ4  SE IS       1514  8.79                             130   -0.4410 12.1 359 
 LZ4  SZ  AML     1514  8.95        26.0 0.48                          12.1 359 
                                                                                
