 2008 10 9 2204  9.1 L  21.234 -99.275  8.9  RAL  2 0.1 0.3LRAL                1
 GAP=218        0.72       1.0     0.7  8.4  0.5232E+00 -0.9077E+00 -0.1390E+01E
 ACTION:UPD 12-06-08 11:37 OP:RALL STATUS:               ID:20081009220409     I
 2008-10-09-2203-57S.PLUR1_006                                                 6
 STAT SP IPHASW D HRMM SECON CODA AMPLIT PERI AZIMU VELO AIN AR TRES W  DIS CAZ7
 LD5  SZ E        22 4 11.35                   42.2  8.8      1        7.05 221 
 LD5  SN IP       22 4 11.57                             141    0.4110 7.05 221 
 LD5  SE IS       22 4 12.77                             141    0.1310 7.05 221 
 LD5  SZ  AML     22 4 13.24         4.4 0.20                          7.05 221 
 LZ4  SN IP       22 4 11.39                             128   -0.1710 10.7   3 
 LZ4  SZ E        22 4 11.43                  184.2  8.8      1        10.7   3 
 LZ4  SE IS       22 4 12.97                             128   -0.3710 10.7   3 
 LZ4  SZ  AML     22 4 13.71        22.8 0.60                          10.7   3 
                                                                                
