 2008 1010 0330 26.6 L  21.701 -99.741  5.1  RAL  2 1.3 1.2LRAL                1
 GAP=348       21.41     190.4   322.6999.9 -0.5490E+05  0.3695E+08 -0.2038E+08E
 ACTION:UPD 12-06-08 11:37 OP:RALL STATUS:               ID:20081010033026     I
 2008-10-10-0330-25S.PLUR1_006                                                 6
 STAT SP IPHASW D HRMM SECON CODA AMPLIT PERI AZIMU VELO AIN AR TRES W  DIS CAZ7
 LA4  SN IP        330 35.12                              90    0.1010 50.8 118 
 LA4  SZ E         330 35.13                    2.4 10.6     64        50.8 118 
 LA4  SE IS        330 39.40                              90   -1.7310 50.8 118 
 LA4  SZ  AML      330 40.46        12.9 0.24                          50.8 118 
 LZ4  SZ E         330 38.11                  227.9 80.0    -81        63.7 130 
 LZ4  SN IP        330 38.57                              90    1.5510 63.7 130 
 LZ4  SE IS        330 44.69                              90    0.0910 63.7 130 
 LZ4  SZ  AML      330 48.51        17.6 0.72                          63.7 130 
                                                                                
