 2008 1010 0041 29.0 L  21.631 -99.384 10.0  RAL  1 0.0 0.7LRAL                1
 GAP=360        0.30       3.7     2.0  0.0 -0.7033E+01 -0.9077E+00 -0.1390E+01E
 ACTION:UPD 12-06-08 11:37 OP:RALL STATUS:               ID:20081010004129     I
 2008-10-10-0041-21S.PLUR1_003                                                 6
 STAT SP IPHASW D HRMM SECON CODA AMPLIT PERI AZIMU VELO AIN AR TRES W  DIS CAZ7
 LA4  SZ E         041 32.34                  334.5  8.1      0        18.0 154 
 LA4  SN IP        041 32.51                             116    0.0010 18.0 154 
 LA4  SE IS        041 35.06                             116    0.0010 18.0 154 
 LA4  SZ  AML      041 35.76        15.8 0.32                          18.0 154 
                                                                                
