 2008 1010 0728 15.7 L  21.263 -99.212 10.6  RAL  2 0.2 0.3LRAL                1
 GAP=272        1.22       1.3     1.3 14.9 -0.6381E+00 -0.1431E+01  0.2215E+01E
 ACTION:UPD 12-06-08 11:37 OP:RALL STATUS:               ID:20081010072815     I
 2008-10-10-0728-05S.PLUR1_006                                                 6
 STAT SP IPHASW D HRMM SECON CODA AMPLIT PERI AZIMU VELO AIN AR TRES W  DIS CAZ7
 LZ4  SZ E         728 18.78                  140.3 25.0      0        9.58 321 
 LZ4  SN IP        728 18.83                             138    0.5910 9.58 321 
 LZ4  SE IS        728 20.45                             138    0.3910 9.58 321 
 LZ4  SZ  AML      728 20.78        27.4 0.40                          9.58 321 
 LD5  SZ E         728 18.66                   52.1  8.6      0        14.1 233 
 LD5  SN IP        728 18.67                             125   -0.1010 14.1 233 
 LD5  SE IS        728 20.09                             125   -0.8810 14.1 233 
 LD5  SZ  AML      728 20.35         1.9 0.20                          14.1 233 
                                                                                
