 2008 1010 0149 30.5 L  21.319 -99.299 10.0  RAL  1 0.0 0.5LRAL                1
 GAP=360        0.34       5.4    13.4  0.0  0.7155E+02  0.1076E+01 -0.3832E+00E
 ACTION:UPD 12-06-08 11:37 OP:RALL STATUS:               ID:20081010014930     I
 2008-10-10-0149-19S.PLUR1_003                                                 6
 STAT SP IPHASW D HRMM SECON CODA AMPLIT PERI AZIMU VELO AIN AR TRES W  DIS CAZ7
 LZ4  SN IP        149 32.50                             162    0.1110 3.35  67 
 LZ4  SZ E         149 32.57                  246.8 19.4      0        3.35  67 
 LZ4  SE IS        149 33.68                             162   -0.1110 3.35  67 
 LZ4  SZ  AML      149 33.85        16.3 0.16                          3.35  67 
                                                                                
