 2008 1010 0759 41.4 L  21.286 -99.216 10.0  RAL  1 0.0 0.4LRAL                1
 GAP=360        0.30       4.2     5.0  0.0 -0.2113E+02 -0.1431E+01  0.2215E+01E
 ACTION:UPD 12-06-08 11:37 OP:RALL STATUS:               ID:20081010075941     I
 2008-10-10-0759-30S.PLUR1_003                                                 6
 STAT SP IPHASW D HRMM SECON CODA AMPLIT PERI AZIMU VELO AIN AR TRES W  DIS CAZ7
 LZ4  SZ E         759 43.49                  131.7 23.4      0        7.41 312 
 LZ4  SN IP        759 43.63                             144    0.0310 7.41 312 
 LZ4  SE IS        759 45.18                             144   -0.0310 7.41 312 
 LZ4  SZ  AML      759 46.87        11.7 0.60                          7.41 312 
                                                                                
