 2008 1010 0123 53.8 L  21.346 -99.286 18.0  RAL  2 0.2 0.6LRAL                1
 GAP=217        2.31       1.2     3.4 20.6  0.1437E+01  0.1076E+01 -0.3832E+00E
 ACTION:UPD 12-06-08 11:37 OP:RALL STATUS:               ID:20081010012353     I
 2008-10-10-0123-45S.PLUR1_006                                                 6
 STAT SP IPHASW D HRMM SECON CODA AMPLIT PERI AZIMU VELO AIN AR TRES W  DIS CAZ7
 LZ4  SZ E         123 57.55                  310.4 18.5     -2        2.39 134 
 LZ4  SN IP        123 57.60                             175    0.6710 2.39 134 
 LZ4  SE IS        123 59.52                             175    0.3310 2.39 134 
 LZ4  SZ  AML      123 59.57        21.8 0.72                          2.39 134 
 LA4  SN IP        123 57.62                             139   -0.1810 15.4 351 
 LA4  SZ E         123 57.69                  162.1  8.8     -8        15.4 351 
 LA4  SE IS        123 59.87                             139   -0.8210 15.4 351 
 LA4  SZ  AML      123 59.89         5.1 0.20                          15.4 351 
                                                                                
