 2008 1010 0302 25.8 L  21.700 -99.422  0.0  RAL  2 0.2 1.2LRAL                1
 GAP=355        2.96      28.2    15.3649.1 -0.3843E+03  0.6260E+04 -0.1224E+05E
 ACTION:UPD 12-06-08 11:37 OP:RALL STATUS:               ID:20081010030225     I
 2008-10-10-0302-16S.PLUR1_006                                                 6
 STAT SP IPHASW D HRMM SECON CODA AMPLIT PERI AZIMU VELO AIN AR TRES W  DIS CAZ7
 LA4  SN IP        3 2 30.69                              92    0.1910 26.6 154 
 LA4  SZ E         3 2 30.70                  341.2  8.2      7        26.6 154 
 LA4  SE IS        3 2 33.29                              92   -0.6110 26.6 154 
 LA4  SZ  AML      3 2 33.94        58.5 0.32                          26.6 154 
 LZ4  SN IP        3 2 33.71                              91    0.2110 43.8 159 
 LZ4  SZ E         3 2 35.06                  326.9  7.9    -11        43.8 159 
 LZ4  SE IS        3 2 39.29                              91    0.2010 43.8 159 
 LZ4  SZ  AML      3 2 40.34        15.8 0.28                          43.8 159 
                                                                                
