 2008 1010 1535 50.1 L  21.349 -99.294 10.0  RAL  1 0.1 0.4LRAL                1
 GAP=360        0.48      12.6    16.4  0.0 -0.2057E+03  0.8996E+01 -0.1678E+02E
 ACTION:UPD 12-06-08 11:37 OP:RALL STATUS:               ID:20081010153550     I
 2008-10-10-1535-38S.PLUR1_003                                                 6
 STAT SP IPHASW D HRMM SECON CODA AMPLIT PERI AZIMU VELO AIN AR TRES W  DIS CAZ7
 LZ4  SN IP       1535 52.28                             163    0.2510 3.23 129 
 LZ4  SZ E        1535 52.32                  309.4  6.8      0        3.23 129 
 LZ4  SE IS       1535 53.17                             163   -0.2510 3.23 129 
 LZ4  SZ  AML     1535 53.24        13.6 0.16                          3.23 129 
                                                                                
