 2008 1010 1503 54.0 L  21.480 -99.324 10.0  RAL  1 0.1 0.3LRAL                1
 GAP=360        0.51      10.7    43.0  0.0  0.4625E+03  0.8506E+01  0.1318E+01E
 ACTION:UPD 12-06-08 11:37 OP:RALL STATUS:               ID:20081010150354     I
 2008-10-10-1503-42S.PLUR1_003                                                 6
 STAT SP IPHASW D HRMM SECON CODA AMPLIT PERI AZIMU VELO AIN AR TRES W  DIS CAZ7
 LA4  SZ E        15 3 56.10                  255.1 12.3      0        1.62  75 
 LA4  SN IP       15 3 56.14                             171    0.2810 1.62  75 
 LA4  SE IS       15 3 56.94                             171   -0.2810 1.62  75 
 LA4  SZ  AML     15 3 57.70        10.4 0.32                          1.62  75 
                                                                                
