 2008 1010 1356 58.9 L  21.328 -99.275 10.0  RAL  3 0.4 0.4LRAL                1
 GAP=152        5.07       2.2     5.9 31.4  0.6444E+01  0.8506E+01  0.1318E+01E
 ACTION:UPD 12-06-08 11:37 OP:RALL STATUS:               ID:20081010135658     I
 2008-10-10-1356-46S.PLUR1_009                                                 6
 STAT SP IPHASW D HRMM SECON CODA AMPLIT PERI AZIMU VELO AIN AR TRES W  DIS CAZ7
 LZ4  SZ E        1357  0.55                  264.4  8.7     25        0.64  60 
 LZ4  SN IP       1357  0.58                             177   -0.1510 0.64  60 
 LZ4  SE IS       1357  1.76                             177   -0.3110 0.64  60 
 LZ4  SZ  AML     1357  3.28        50.5 0.44                          0.64  60 
 LD5  SZ E        1357  1.69                   27.1  9.9     10        16.3 197 
 LD5  SN IP       1357  1.71                             119   -0.4510 16.3 197 
 LD5  SE IS       1357  3.84                             119   -0.7010 16.3 197 
 LD5  SZ  AML     1357  4.66         2.0 0.26                          16.3 197 
 LA4  SN IP       1357  2.80                             117    0.4610 17.6 348 
 LA4  SZ E        1357  3.05                  160.0 10.8     -7        17.6 348 
 LA4  SE IS       1357  6.01                             117    1.1610 17.6 348 
 LA4  SZ  AML     1357  6.76         6.7 0.24                          17.6 348 
                                                                                
