 2008 1010 1135  8.5 L  21.189 -99.319 10.0  RAL  1 0.5-0.5LRAL                1
 GAP=360        6.22     999.9   999.9  0.0 -0.5108E+07 -0.1431E+01  0.2215E+01E
 ACTION:UPD 12-06-08 11:37 OP:RALL STATUS:               ID:20081010113508     I
 2008-10-10-1134-56S.PLUR1_003                                                 6
 STAT SP IPHASW D HRMM SECON CODA AMPLIT PERI AZIMU VELO AIN AR TRES W  DIS CAZ7
 LD5  SZ E        1135 10.57                  353.0  9.3     30        0.31 203 
 LD5  SN IP       1135 10.59                             178    0.2510 0.31 203 
 LD5  SE IS       1135 11.42                             178   -0.2510 0.31 203 
 LD5  SZ  AML     1135 11.81         1.7 0.32                          0.31 203 
                                                                                
