 2008 1010 1924 21.7 L  21.337 -99.293  7.2  RAL  3 0.3 0.5LRAL                1
 GAP=165        2.20       0.8     2.4 12.3 -0.1512E+01  0.3210E+01 -0.8439E+00E
 ACTION:UPD 12-06-08 11:37 OP:RALL STATUS:               ID:20081010192421     I
 2008-10-10-1924-09S.PLUR1_009                                                 6
 STAT SP IPHASW D HRMM SECON CODA AMPLIT PERI AZIMU VELO AIN AR TRES W  DIS CAZ7
 LZ4  SZ E        1924 22.92                  286.3  9.3      1        2.55 105 
 LZ4  SN IP       1924 23.05                             161   -0.1010 2.55 105 
 LZ4  SE IS       1924 24.12                             161   -0.0910 2.55 105 
 LZ4  SZ  AML     1924 24.32       164.6 0.40                          2.55 105 
 LA4  SZ E        1924 25.04                  168.8 10.0     -4        16.3 354 
 LA4  SN IP       1924 25.04                             108    0.2610 16.3 354 
 LA4  SE IS       1924 28.53                             108    1.4910 16.3 354 
 LA4  SZ  AML     1924 29.18         7.3 0.48                          16.3 354 
 LD5  SZ E        1924 24.15                    3.2 14.9     -5        16.9 190 
 LD5  SN IP       1924 24.17                             107   -0.6810 16.9 190 
 LD5  SE IS       1924 26.29                             107   -0.8710 16.9 190 
 LD5  SZ  AML     1924 26.53         2.4 0.16                          16.9 190 
                                                                                
