 2008 1010 1418 13.1 L  21.722 -99.355 10.0  RAL  1 0.0 0.9LRAL                1
 GAP=360        0.30       3.8     1.0  0.0 -0.2687E+01  0.8506E+01  0.1318E+01E
 ACTION:UPD 12-06-08 11:37 OP:RALL STATUS:               ID:20081010141813     I
 2008-10-10-1418-07S.PLUR1_003                                                 6
 STAT SP IPHASW D HRMM SECON CODA AMPLIT PERI AZIMU VELO AIN AR TRES W  DIS CAZ7
 LA4  SN IP       1418 17.91                             106    0.0110 26.8 170 
 LA4  SZ E        1418 17.95                  349.9  8.4      0        26.8 170 
 LA4  SE IS       1418 21.37                             106   -0.0110 26.8 170 
 LA4  SZ  AML     1418 21.96        17.6 0.28                          26.8 170 
                                                                                
