 2008 1010 1220 20.8 L  21.252 -99.288 10.0  RAL  1 0.0 0.4LRAL                1
 GAP=360        0.30       5.4     1.3  0.0  0.6996E+01 -0.1431E+01  0.2215E+01E
 ACTION:UPD 12-06-08 11:37 OP:RALL STATUS:               ID:20081010122020     I
 2008-10-10-1220-09S.PLUR1_003                                                 6
 STAT SP IPHASW D HRMM SECON CODA AMPLIT PERI AZIMU VELO AIN AR TRES W  DIS CAZ7
 LZ4  SZ E        1220 23.14                  192.7 10.7      0        8.97  13 
 LZ4  SN IP       1220 23.17                             138    0.0110 8.97  13 
 LZ4  SE IS       1220 24.87                             138   -0.0110 8.97  13 
 LZ4  SZ  AML     1220 25.75        11.2 0.76                          8.97  13 
                                                                                
