 2008 1010 1527 49.5 L  21.686 -99.393  1.1  RAL  2 0.2 1.0LRAL                1
 GAP=357        2.60      19.8     9.2 18.9 -0.1472E+03  0.8996E+01 -0.1678E+02E
 ACTION:UPD 12-06-08 11:37 OP:RALL STATUS:               ID:20081010152749     I
 2008-10-10-1527-42S.PLUR1_006                                                 6
 STAT SP IPHASW D HRMM SECON CODA AMPLIT PERI AZIMU VELO AIN AR TRES W  DIS CAZ7
 LA4  SN IP       1527 53.76                              95   -0.0110 24.1 159 
 LA4  SZ E        1527 53.79                  345.2  9.2      6        24.1 159 
 LA4  SZ  AML     1527 56.64        21.1 0.28                          24.1 159 
 LA4  SE IS       1527 56.76                              95   -0.0910 24.1 159 
 LZ4  SZ E        1527 56.98                  331.2 11.6    -10        41.4 162 
 LZ4  SN IP       1527 57.04                              63    0.2710 41.4 162 
 LZ4  SE IS       1528  1.87                              63   -0.1810 41.4 162 
 LZ4  SZ  AML     1528  5.10        16.0 0.84                          41.4 162 
                                                                                
