 2008 1010 2010  3.8 L  21.676 -99.331 10.0  RAL  1 0.0 0.7LRAL                1
 GAP=360        0.30       4.0     0.8  0.0 -0.1810E+01  0.3210E+01 -0.8439E+00E
 ACTION:UPD 12-06-08 11:37 OP:RALL STATUS:               ID:20081010201003     I
 2008-10-10-2009-57S.PLUR1_003                                                 6
 STAT SP IPHASW D HRMM SECON CODA AMPLIT PERI AZIMU VELO AIN AR TRES W  DIS CAZ7
 LA4  SZ E        2010  7.77                  353.8  7.8      0        21.4 174 
 LA4  SN IP       2010  7.77                             112    0.0210 21.4 174 
 LA4  SE IS       2010 10.64                             112   -0.0210 21.4 174 
 LA4  SZ  AML     2010 14.31        12.3 0.32                          21.4 174 
                                                                                
