 2008 1010 2057  4.4 L  21.316 -99.354 10.0  RAL  1 0.0 1.0LRAL                1
 GAP=360        0.30       1.0     5.9  0.0  0.5865E+01  0.3210E+01 -0.8439E+00E
 ACTION:UPD 12-06-08 11:37 OP:RALL STATUS:               ID:20081010205704     I
 2008-10-10-2056-52S.PLUR1_003                                                 6
 STAT SP IPHASW D HRMM SECON CODA AMPLIT PERI AZIMU VELO AIN AR TRES W  DIS CAZ7
 LZ4  SN IP       2057  6.80                             138    0.0110 8.90  80 
 LZ4  SZ E        2057  7.31                  259.6 12.4      0        8.90  80 
 LZ4  SE IS       2057  8.50                             138   -0.0110 8.90  80 
 LZ4  SZ  AML     2057  8.64        40.5 0.40                          8.90  80 
                                                                                
