 2008 1010 2033 53.1 L  21.486 -99.318 10.0  RAL  1 0.4 0.1LRAL                1
 GAP=360        4.89     999.9   999.9  0.0  0.4005E+07  0.3210E+01 -0.8439E+00E
 ACTION:UPD 12-06-08 11:37 OP:RALL STATUS:               ID:20081010203353     I
 2008-10-10-2033-42S.PLUR1_003                                                 6
 STAT SP IPHASW D HRMM SECON CODA AMPLIT PERI AZIMU VELO AIN AR TRES W  DIS CAZ7
 LA4  SZ E        2033 54.99                  259.9 23.4    -22        0.99 103 
 LA4  SN IP       2033 55.26                             175    0.3310 0.99 103 
 LA4  SE IS       2033 55.95                             175   -0.3310 0.99 103 
 LA4  SZ  AML     2033 56.08         6.3 0.36                          0.99 103 
                                                                                
