 2008 1010 2335 20.1 L  21.332 -99.273 10.0  RAL  1 0.1 0.6LRAL                1
 GAP=360        0.48       2.7     0.1 12.3 -0.2515E+02  0.3210E+01 -0.8439E+00E
 ACTION:UPD 12-06-08 11:37 OP:RALL STATUS:               ID:20081010233520     I
 2008-10-10-2335-08S.PLUR1_003                                                 6
 STAT SP IPHASW D HRMM SECON CODA AMPLIT PERI AZIMU VELO AIN AR TRES W  DIS CAZ7
 LZ4  SZ E        2335 22.17                  287.3 12.2      0        0.41 109 
 LZ4  SN IP       2335 22.20                             178    0.2910 0.41 109 
 LZ4  SE IS       2335 22.95                             178   -0.2910 0.41 109 
 LZ4  SZ  AML     2335 23.08        22.8 0.12                          0.41 109 
                                                                                
