 2008 1011 0151 51.3 L  21.332 -99.272 10.0  RAL  3 0.4 0.4LRAL                1
 GAP=150        5.26       2.3     6.1 31.9  0.7432E+01  0.9305E+01  0.1669E+01E
 ACTION:UPD 12-06-08 11:37 OP:RALL STATUS:               ID:20081011015151     I
 2008-10-11-0151-38S.PLUR1_009                                                 6
 STAT SP IPHASW D HRMM SECON CODA AMPLIT PERI AZIMU VELO AIN AR TRES W  DIS CAZ7
 LZ4  SZ E         151 52.83                  266.8  9.6    -18        0.31 105 
 LZ4  SN IP        151 53.07                             178   -0.1110 0.31 105 
 LZ4  SZ  AML      151 53.97        57.3 0.32                          0.31 105 
 LZ4  SE IS        151 54.04                             178   -0.4810 0.31 105 
 LD5  SN IP        151 53.96                             116   -0.7110 16.8 197 
 LD5  SZ E         151 54.05                   35.7 20.2     19        16.8 197 
 LD5  SE IS        151 55.91                             116   -1.1910 16.8 197 
 LD5  SZ  AML      151 56.96         2.2 0.24                          16.8 197 
 LA4  SZ E         151 55.16                  157.5  9.9     -9        17.2 347 
 LA4  SN IP        151 56.13                             117    1.3910 17.2 347 
 LA4  SE IS        151 58.32                             117    1.1010 17.2 347 
 LA4  SZ  AML      151 59.08         8.5 0.24                          17.2 347 
                                                                                
