 2008 1011 0930 45.4 L  21.228 -99.281 10.0  RAL  1 0.0-0.2LRAL                1
 GAP=360        0.31       5.5     5.2  0.0  0.2847E+02  0.9305E+01  0.1669E+01E
 ACTION:UPD 12-06-08 11:37 OP:RALL STATUS:               ID:20081011093045     I
 2008-10-11-0930-34S.PLUR1_003                                                 6
 STAT SP IPHASW D HRMM SECON CODA AMPLIT PERI AZIMU VELO AIN AR TRES W  DIS CAZ7
 LD5  SZ E         930 47.50                   41.4 10.3      0        6.19 221 
 LD5  SN IP        930 47.50                             149    0.0510 6.19 221 
 LD5  SE IS        930 48.93                             149   -0.0510 6.19 221 
 LD5  SZ  AML      930 49.37         2.8 0.30                          6.19 221 
                                                                                
