 2008 1011 0034  8.7 L  21.294 -99.263 10.0  RAL  1 0.0 0.4LRAL                1
 GAP=360        0.30       9.8     1.6  0.0 -0.1587E+02  0.3210E+01 -0.8439E+00E
 ACTION:UPD 12-06-08 11:37 OP:RALL STATUS:               ID:20081011003408     I
 2008-10-11-0033-58S.PLUR1_003                                                 6
 STAT SP IPHASW D HRMM SECON CODA AMPLIT PERI AZIMU VELO AIN AR TRES W  DIS CAZ7
 LZ4  SZ E         034 10.64                  171.3 15.5      0        4.12 351 
 LZ4  SN IP        034 10.66                             158    0.0210 4.12 351 
 LZ4  SE IS        034 12.05                             158   -0.0210 4.12 351 
 LZ4  SZ  AML      034 14.03        13.1 0.32                          4.12 351 
                                                                                
