 2008 1011 0722 33.1 L  21.345 -99.275 10.0  RAL  1 0.1 0.7LRAL                1
 GAP=360        0.48     446.0   999.9  0.0  0.6529E+06  0.9305E+01  0.1669E+01E
 ACTION:UPD 12-06-08 11:37 OP:RALL STATUS:               ID:20081011072233     I
 2008-10-11-0722-21S.PLUR1_003                                                 6
 STAT SP IPHASW D HRMM SECON CODA AMPLIT PERI AZIMU VELO AIN AR TRES W  DIS CAZ7
 LZ4  SZ E         722 34.71                  341.0 99.9      1        1.65 160 
 LZ4  SN IP        722 35.23                             171    0.2510 1.65 160 
 LZ4  SE IS        722 36.09                             171   -0.2510 1.65 160 
 LZ4  SZ  AML      722 36.53        30.3 0.52                          1.65 160 
                                                                                
