 2008 1011 1624 22.5 L  21.225 -99.266 10.0  RAL  2 0.1 0.0LRAL                1
 GAP=235        0.73       0.7     0.8  7.6  0.4035E+00 -0.5979E+00 -0.5752E+00E
 ACTION:UPD 12-06-08 11:37 OP:RALL STATUS:               ID:20081011162422     I
 2008-10-11-1624-12S.PLUR1_006                                                 6
 STAT SP IPHASW D HRMM SECON CODA AMPLIT PERI AZIMU VELO AIN AR TRES W  DIS CAZ7
 LD5  SN IP       1624 24.72                             151    0.0910 7.05 233 
 LD5  SZ E        1624 25.08                   54.1 12.0      1        7.05 233 
 LD5  SE IS       1624 26.55                             151    0.3310 7.05 233 
 LD5  SZ  AML     1624 26.94         1.6 0.48                          7.05 233 
 LZ4  SN IP       1624 25.11                             134   -0.0210 11.8 358 
 LZ4  SZ E        1624 25.22                  179.9 14.4      2        11.8 358 
 LZ4  SE IS       1624 26.69                             134   -0.4010 11.8 358 
 LZ4  SZ  AML     1624 27.36        13.5 0.36                          11.8 358 
                                                                                
