 2008 1011 1039 12.5 L  21.562 -99.306  2.3  RAL  2 0.2 1.0LRAL                1
 GAP=349        2.01      13.9     1.4 70.0  0.7034E+01 -0.1464E+02 -0.3434E+03E
 ACTION:UPD 12-06-08 11:37 OP:RALL STATUS:               ID:20081011103912     I
 2008-10-11-1039-00S.PLUR1_006                                                 6
 STAT SP IPHASW D HRMM SECON CODA AMPLIT PERI AZIMU VELO AIN AR TRES W  DIS CAZ7
 LA4  SZ E        1039 13.64                    5.5  9.1      3        8.66 182 
 LA4  SN IP       1039 13.65                              99   -0.4910 8.66 182 
 LA4  SE IS       1039 15.20                              99   -0.1210 8.66 182 
 LA4  SZ  AML     1039 15.44        60.3 0.28                          8.66 182 
 LZ4  SN IP       1039 16.92                              93   -0.1510 25.8 172 
 LZ4  SZ E        1039 17.44                  343.7  8.0     -7        25.8 172 
 LZ4  SE IS       1039 21.15                              93    0.7610 25.8 172 
 LZ4  SZ  AML     1039 21.26        19.1 0.20                          25.8 172 
                                                                                
