 2008 1011 1012 33.1 L  21.555 -99.288 10.0  RAL  1 0.0 0.2LRAL                1
 GAP=360        0.30       5.7     1.7  0.0  0.9383E+01  0.9305E+01  0.1669E+01E
 ACTION:UPD 12-06-08 11:37 OP:RALL STATUS:               ID:20081011101233     I
 2008-10-11-1012-23S.PLUR1_003                                                 6
 STAT SP IPHASW D HRMM SECON CODA AMPLIT PERI AZIMU VELO AIN AR TRES W  DIS CAZ7
 LA4  SZ E        1012 35.42                   15.3  9.4      0        8.24 195 
 LA4  SN IP       1012 35.45                             141    0.0210 8.24 195 
 LA4  SE IS       1012 37.09                             141   -0.0210 8.24 195 
 LA4  SZ  AML     1012 37.25         6.5 0.28                          8.24 195 
                                                                                
