 2008 1011 1125 52.2 L  21.699 -99.329 10.0  RAL  1 0.0 0.9LRAL                1
 GAP=360        0.30       3.9     0.8  0.0 -0.1373E+01 -0.1464E+02 -0.3434E+03E
 ACTION:UPD 12-06-08 11:37 OP:RALL STATUS:               ID:20081011112552     I
 2008-10-11-1125-45S.PLUR1_003                                                 6
 STAT SP IPHASW D HRMM SECON CODA AMPLIT PERI AZIMU VELO AIN AR TRES W  DIS CAZ7
 LA4  SZ E        1125 56.54                  355.1  8.6      0        23.9 175 
 LA4  SN IP       1125 56.57                             109    0.0110 23.9 175 
 LA4  SE IS       1125 59.72                             109   -0.0110 23.9 175 
 LA4  SZ  AML     1126  2.75        19.6 0.44                          23.9 175 
                                                                                
