 2008 1011 1418  8.9 L  21.322 -99.288 10.0  RAL  1 0.3                        1
 GAP=360        2.73      77.6   161.8  0.0  0.1255E+05 -0.1464E+02 -0.3434E+03E
 ACTION:UPD 12-06-08 11:37 OP:RALL STATUS:               ID:20081011141808     I
 2008-10-11-1417-57S.PLUR1_003                                                 6
 STAT SP IPHASW D HRMM SECON CODA AMPLIT PERI AZIMU VELO AIN AR TRES W  DIS CAZ7
 LZ4  SZ E        1418 11.39                  230.6 10.0    -11        2.12  63 
 LZ4  SN IP       1418 11.39                             168    0.6310 2.12  63 
 LZ4  SE IS       1418 11.49                             168   -0.6310 2.12  63 
                                                                                
