 2008 1011 1329 55.8 L  21.314 -99.312 10.0  RAL  1 0.0 0.6LRAL                1
 GAP=360        0.30       3.6     8.8  0.0  0.3125E+02 -0.1464E+02 -0.3434E+03E
 ACTION:UPD 12-06-08 11:37 OP:RALL STATUS:               ID:20081011132955     I
 2008-10-11-1329-44S.PLUR1_003                                                 6
 STAT SP IPHASW D HRMM SECON CODA AMPLIT PERI AZIMU VELO AIN AR TRES W  DIS CAZ7
 LZ4  SZ E        1329 57.79                  246.6 14.9      0        4.81  67 
 LZ4  SN IP       1329 57.83                             155    0.0510 4.81  67 
 LZ4  SE IS       1329 59.19                             155   -0.0510 4.81  67 
 LZ4  SZ  AML     1329 59.98        19.1 0.28                          4.81  67 
                                                                                
