 2008 1011 2129  2.3 L  21.265 -99.267  9.1  RAL  2 0.1 0.4LRAL                1
 GAP=215        0.83       1.3     0.5  9.7  0.2182E+00  0.2463E+00  0.1913E+01E
 ACTION:UPD 12-06-08 11:37 OP:RALL STATUS:               ID:20081011212902     I
 2008-10-11-2128-50S.PLUR1_006                                                 6
 STAT SP IPHASW D HRMM SECON CODA AMPLIT PERI AZIMU VELO AIN AR TRES W  DIS CAZ7
 LZ4  SN IP       2129  4.69                             142    0.3010 7.30 358 
 LZ4  SZ E        2129  4.70                  176.3 11.9      0        7.30 358 
 LZ4  SE IS       2129  6.19                             142    0.2910 7.30 358 
 LZ4  SZ  AML     2129  7.57        21.0 0.52                          7.30 358 
 LD5  SZ E        2129  4.63                   31.3  9.8      0        10.3 213 
 LD5  SN IP       2129  4.63                             131   -0.0810 10.3 213 
 LD5  SE IS       2129  5.96                             131   -0.5110 10.3 213 
 LD5  SZ  AML     2129  6.42         5.5 0.24                          10.3 213 
                                                                                
