 2008 1011 2051  4.3 L  21.672 -99.460  0.1  RAL  2 0.2 1.8LRAL                1
 GAP=351        2.38      19.9    15.5476.6 -0.2828E+03  0.4800E+04 -0.6205E+04E
 ACTION:UPD 12-06-08 11:37 OP:RALL STATUS:               ID:20081011205104     I
 2008-10-11-2050-34S.PLUR1_006                                                 6
 STAT SP IPHASW D HRMM SECON CODA AMPLIT PERI AZIMU VELO AIN AR TRES W  DIS CAZ7
 LA4  SN IP       2051  9.22                              93    0.3810 26.0 143 
 LA4  SZ E        2051  9.27                  328.6  9.2      6        26.0 143 
 LA4  SE IS       2051 11.54                              93   -0.6310 26.0 143 
 LA4  SZ  AML     2051 13.04       260.7 0.36                          26.0 143 
 LZ4  SZ E        2051 11.96                  323.0  7.7     -8        42.6 152 
 LZ4  SN IP       2051 11.98                              91    0.2510 42.6 152 
 LZ4  SE IS       2051 17.16                              91   -0.0110 42.6 152 
 LZ4  SZ  AML     2051 19.52        61.4 0.32                          42.6 152 
                                                                                
