 2008 1011 2031 17.7 L  21.334 -99.279 10.0  RAL  1 0.2 0.3LRAL                1
 GAP=360        2.94     636.1   631.4  0.0  0.4016E+06 -0.5979E+00 -0.5752E+00E
 ACTION:UPD 12-06-08 11:37 OP:RALL STATUS:               ID:20081011203117     I
 2008-10-11-2031-05S.PLUR1_003                                                 6
 STAT SP IPHASW D HRMM SECON CODA AMPLIT PERI AZIMU VELO AIN AR TRES W  DIS CAZ7
 LZ4  SZ E        2031 19.77                  274.0 16.3    -13        1.04 108 
 LZ4  SN IP       2031 19.82                             174    0.2710 1.04 108 
 LZ4  SE IS       2031 20.63                             174   -0.2710 1.04 108 
 LZ4  SZ  AML     2031 21.79        11.4 0.20                          1.04 108 
                                                                                
