 2008 1011 2152 31.9 L  21.689 -99.362 10.0  RAL  1 0.0 1.2LRAL                1
 GAP=360        0.30       3.8     1.2  0.0 -0.3730E+01  0.2463E+00  0.1913E+01E
 ACTION:UPD 12-06-08 11:37 OP:RALL STATUS:               ID:20081011215231     I
 2008-10-11-2152-23S.PLUR1_003                                                 6
 STAT SP IPHASW D HRMM SECON CODA AMPLIT PERI AZIMU VELO AIN AR TRES W  DIS CAZ7
 LA4  SN IP       2152 36.14                             110    0.0210 23.4 166 
 LA4  SZ E        2152 36.54                  346.4  8.4      0        23.4 166 
 LA4  SE IS       2152 39.22                             110   -0.0210 23.4 166 
 LA4  SZ  AML     2152 40.73        39.4 0.68                          23.4 166 
                                                                                
