 2008 1012 0056  4.4 L  21.674 -99.383 10.0  RAL  1 0.0 0.7LRAL                1
 GAP=360        0.30       3.7     1.6  0.0 -0.5340E+01  0.2463E+00  0.1913E+01E
 ACTION:UPD 12-06-08 11:37 OP:RALL STATUS:               ID:20081012005604     I
 2008-10-12-0055-56S.PLUR1_003                                                 6
 STAT SP IPHASW D HRMM SECON CODA AMPLIT PERI AZIMU VELO AIN AR TRES W  DIS CAZ7
 LA4  SN IP        056  8.58                             111    0.0210 22.4 160 
 LA4  SZ E         056  8.68                  340.1  9.6      0        22.4 160 
 LA4  SE IS        056 11.54                             111   -0.0210 22.4 160 
 LA4  SZ  AML      056 12.30        13.5 0.24                          22.4 160 
                                                                                
