 2008 1012 0300 31.9 L  21.343 -99.296  2.8  RAL  2 0.1 0.6LRAL                1
 GAP=239        0.68       0.5     1.0  5.1 -0.4811E+00  0.1948E+01 -0.9698E+00E
 ACTION:UPD 12-06-08 11:37 OP:RALL STATUS:               ID:20081012030031     I
 2008-10-12-0300-17S.PLUR1_006                                                 6
 STAT SP IPHASW D HRMM SECON CODA AMPLIT PERI AZIMU VELO AIN AR TRES W  DIS CAZ7
 LZ4  SZ E         3 0 32.41                  296.3 10.5      0        3.04 116 
 LZ4  SN IP        3 0 32.47                             140   -0.2610 3.04 116 
 LZ4  SE IS        3 0 33.41                             140    0.0510 3.04 116 
 LZ4  SZ  AML      3 0 33.50       105.5 0.16                          3.04 116 
 LA4  SN IP     C  3 0 34.45                             104   -0.2510 15.6 355 
 LA4  SZ E         3 0 34.58                  175.8  9.4      1        15.6 355 
 LA4  SE IS        3 0 37.21                             104    0.4510 15.6 355 
 LA4  SZ  AML      3 0 39.16         8.1 0.40                          15.6 355 
                                                                                
