 2008 1012 0301 47.7 L  21.337 -99.291 10.0  RAL  1 0.1 0.6LRAL                1
 GAP=360        0.41     864.8   312.9  0.0  0.2706E+06  0.1948E+01 -0.9698E+00E
 ACTION:UPD 12-06-08 11:37 OP:RALL STATUS:               ID:20081012030147     I
 2008-10-12-0301-35S.PLUR1_003                                                 6
 STAT SP IPHASW D HRMM SECON CODA AMPLIT PERI AZIMU VELO AIN AR TRES W  DIS CAZ7
 LZ4  SZ E         3 1 49.71                  287.2  8.4      0        2.30 107 
 LZ4  SN IP        3 1 49.79                             167    0.1910 2.30 107 
 LZ4  SE IS        3 1 50.78                             167   -0.1910 2.30 107 
 LZ4  SZ  AML      3 1 50.90        23.9 0.36                          2.30 107 
                                                                                
