 2008 1012 0620 25.6 L  21.665 -99.544  4.6  RAL  2 0.2 1.5LRAL                1
 GAP=346        1.61      36.9    25.3 87.7 -0.9012E+03 -0.2069E+04  0.3067E+04E
 ACTION:UPD 12-06-08 11:37 OP:RALL STATUS:               ID:20081012062025     I
 2008-10-12-0620-19S.PLUR1_006                                                 6
 STAT SP IPHASW D HRMM SECON CODA AMPLIT PERI AZIMU VELO AIN AR TRES W  DIS CAZ7
 LZ4  SN IP        620 33.29                              63   -0.0510 46.7 142 
 LZ4  SZ E         620 33.43                  325.6  7.1      3        46.7 142 
 LZ4  SE IS        620 38.23                              63   -0.7710 46.7 142 
 LZ4  SZ  AML      620 38.88       120.5 0.24                          46.7 142 
 LD5  SN IP        620 35.50                              63    0.4310 57.8 156 
 LD5  SZ E         620 35.72                  331.2 12.3     -4        57.8 156 
 LD5  SE IS        620 42.39                              63    0.3910 57.8 156 
 LD5  SZ  AML      620 44.04        10.0 0.46                          57.8 156 
                                                                                
