 2008 1012 0600 52.9 L  21.333 -99.270 10.0  RAL  1 1.0 1.5LRAL                1
 GAP=360       12.36     999.9   999.9  0.0  0.1933E+09  0.1948E+01 -0.9698E+00E
 ACTION:UPD 12-06-08 11:37 OP:RALL STATUS:               ID:20081012060052     I
 2008-10-12-0600-40S.PLUR1_003                                                 6
 STAT SP IPHASW D HRMM SECON CODA AMPLIT PERI AZIMU VELO AIN AR TRES W  DIS CAZ7
 LZ4  SZ E         6 0 55.01                  276.2 18.6    -58        0.24 155 
 LZ4  SN IP        6 0 55.05                             179    0.3110 0.24 155 
 LZ4  SE IS        6 0 55.77                             179   -0.3110 0.24 155 
 LZ4  SZ  AML      6 0 55.96       171.4 0.20                          0.24 155 
                                                                                
