 2008 1012 0728 47.7 L  21.304 -99.269 10.0  RAL  1 0.0 0.3LRAL                1
 GAP=360        0.30      13.3     0.2  0.0 -0.2930E+01 -0.2069E+04  0.3067E+04E
 ACTION:UPD 12-06-08 11:37 OP:RALL STATUS:               ID:20081012072847     I
 2008-10-12-0728-36S.PLUR1_003                                                 6
 STAT SP IPHASW D HRMM SECON CODA AMPLIT PERI AZIMU VELO AIN AR TRES W  DIS CAZ7
 LZ4  SZ E         728 49.55                  179.1 15.5      0        2.98 359 
 LZ4  SN IP        728 49.57                             164    0.0210 2.98 359 
 LZ4  SE IS        728 50.92                             164   -0.0210 2.98 359 
 LZ4  SZ  AML      728 53.95        10.5 0.56                          2.98 359 
                                                                                
