 2008 1012 1621 48.2 L  21.710 -99.547 10.0  RAL  1 0.0 1.1LRAL                1
 GAP=360        0.30       3.2     2.6  0.0 -0.6118E+01 -0.2069E+04  0.3067E+04E
 ACTION:UPD 12-06-08 11:37 OP:RALL STATUS:               ID:20081012162148     I
 2008-10-12-1621-48S.PLUR1_003                                                 6
 STAT SP IPHASW D HRMM SECON CODA AMPLIT PERI AZIMU VELO AIN AR TRES W  DIS CAZ7
 LZ4  SN IP       1621 56.63                              97    0.0110 50.9 146 
 LZ4  SZ E        1621 56.63                  325.7 22.4      0        50.9 146 
 LZ4  SE IS       1622  2.76                              97   -0.0110 50.9 146 
 LZ4  SZ  AML     1622  7.75        16.1 0.72                          50.9 146 
                                                                                
