 2008 1012 1755 12.2 L  21.679 -99.368  0.0  RAL  2 0.2 1.4LRAL                1
 GAP=359        3.37      32.9    11.5572.1 -0.3151E+03  0.3592E+04 -0.1188E+05E
 ACTION:UPD 12-06-08 11:37 OP:RALL STATUS:               ID:20081012175512     I
 2008-10-12-1755-02S.PLUR1_006                                                 6
 STAT SP IPHASW D HRMM SECON CODA AMPLIT PERI AZIMU VELO AIN AR TRES W  DIS CAZ7
 LA4  SZ E        1755 16.13                  352.3  9.3      8        22.4 164 
 LA4  SN IP       1755 16.13                              93   -0.0110 22.4 164 
 LA4  SE IS       1755 18.91                              93   -0.1010 22.4 164 
 LA4  SZ  AML     1755 21.09        73.8 0.36                          22.4 164 
 LZ4  SN IP       1755 19.30                              91    0.1210 39.8 165 
 LZ4  SZ E        1755 19.37                  330.9 10.1    -13        39.8 165 
 LZ4  SE IS       1755 24.25                              91   -0.0210 39.8 165 
 LZ4  SZ  AML     1755 27.11        37.2 0.52                          39.8 165 
                                                                                
