 2008 1012 1246 23.7 L  21.334 -99.285 10.0  RAL  1 0.1 0.4LRAL                1
 GAP=360        0.38       6.1    31.2  0.0 -0.1902E+03 -0.2069E+04  0.3067E+04E
 ACTION:UPD 12-06-08 11:37 OP:RALL STATUS:               ID:20081012124623     I
 2008-10-12-1246-12S.PLUR1_003                                                 6
 STAT SP IPHASW D HRMM SECON CODA AMPLIT PERI AZIMU VELO AIN AR TRES W  DIS CAZ7
 LZ4  SZ E        1246 25.66                  281.6  9.2      0        1.68 102 
 LZ4  SN IP       1246 25.76                             171    0.1610 1.68 102 
 LZ4  SE IS       1246 26.79                             171   -0.1610 1.68 102 
 LZ4  SZ  AML     1246 27.72        15.1 0.28                          1.68 102 
                                                                                
