 2008 1013 0856 17.2 R  22.271 -99.673 10.0  RAL  1 0.0 1.8LRAL                1
 GAP=360        0.30       3.6     3.3  0.0 -0.1984E+01  0.3592E+04 -0.1188E+05E
 ACTION:UPD 12-06-08 11:37 OP:RALL STATUS:               ID:20081013085617     I
 2008-10-13-0856-25S.PLUR1_003                                                 6
 STAT SP IPHASW D HRMM SECON CODA AMPLIT PERI AZIMU VELO AIN AR TRES W  DIS CAZ7
 LZ4  SZ E         856 35.11                  338.2 10.4      0         112 158 
 LZ4  SN IP        856 35.12                              93    0.0010  112 158 
 LZ4  SE IS        856 48.20                              93    0.0010  112 158 
 LZ4  SZ  AML      856 55.62        35.4 0.96                           112 158 
                                                                                
