 2008 1013 0517 25.4 L  21.191 -99.322 10.0  RAL  1 0.2 0.4LRAL                1
 GAP=360        1.25     814.9   999.9  0.0  0.2502E+07  0.3592E+04 -0.1188E+05E
 ACTION:UPD 12-06-08 11:37 OP:RALL STATUS:               ID:20081013051725     I
 2008-10-13-0517-12S.PLUR1_006                                                 6
 STAT SP IPHASW D HRMM SECON CODA AMPLIT PERI AZIMU VELO AIN AR TRES W  DIS CAZ7
 LD5  SZ E         517 27.73                  343.5  8.3      5        0.58 159 
 LD5  SN IP        517 27.73                             177    0.4710 0.58 159 
 LD5  SE IS        517 28.12                             177   -0.4710 0.58 159 
 LD5  SZ  AML      517 28.20        14.6 0.18                          0.58 159 
                                                                                
