 2008 1013 0643 24.0 L  21.310 -99.216 10.0  RAL  1 0.0 0.6LRAL                1
 GAP=360        0.30       3.6     2.0  0.0 -0.6670E+01  0.3592E+04 -0.1188E+05E
 ACTION:UPD 12-06-08 11:37 OP:RALL STATUS:               ID:20081013064324     I
 2008-10-13-0643-16S.PLUR1_003                                                 6
 STAT SP IPHASW D HRMM SECON CODA AMPLIT PERI AZIMU VELO AIN AR TRES W  DIS CAZ7
 LA4  SN IP        643 28.01                             112    0.0010 21.5 333 
 LA4  SZ E         643 28.06                  153.3 10.8      0        21.5 333 
 LA4  SE IS        643 30.92                             112    0.0010 21.5 333 
 LA4  SZ  AML      643 32.33         9.5 0.52                          21.5 333 
                                                                                
