 2008 1013 0956 57.4 L  21.268 -99.239  9.4  RAL  2 0.1 0.5LRAL                1
 GAP=247        0.86       1.0     0.6  9.9 -0.1999E+00 -0.3245E+00  0.1441E+01E
 ACTION:UPD 12-06-08 11:37 OP:RALL STATUS:               ID:20081013095657     I
 2008-10-13-0956-45S.PLUR1_006                                                 6
 STAT SP IPHASW D HRMM SECON CODA AMPLIT PERI AZIMU VELO AIN AR TRES W  DIS CAZ7
 LZ4  SZ E         956 59.95                  155.2  8.0      0        7.63 336 
 LZ4  SN IP        956 59.95                             140    0.4210 7.63 336 
 LZ4  SE IS        957  1.32                             140    0.2210 7.63 336 
 LZ4  SZ  AML      957  4.79        35.6 0.36                          7.63 336 
 LD5  SZ E         957  0.02                   42.1 11.3      0        12.3 223 
 LD5  SN IP        957  0.03                             125   -0.0310 12.3 223 
 LD5  SE IS        957  1.42                             125   -0.6010 12.3 223 
 LD5  SZ  AML      957  2.63         4.5 0.52                          12.3 223 
                                                                                
