 2008 1013 0230 39.9 L  21.214 -99.460 10.0  RAL  1 0.0 1.0LRAL                1
 GAP=360        0.30       2.2     3.5  0.0  0.7345E+01  0.3592E+04 -0.1188E+05E
 ACTION:UPD 12-06-08 11:37 OP:RALL STATUS:               ID:20081013023039     I
 2008-10-13-0230-31S.PLUR1_003                                                 6
 STAT SP IPHASW D HRMM SECON CODA AMPLIT PERI AZIMU VELO AIN AR TRES W  DIS CAZ7
 LZ4  SN IP        230 44.21                             109    0.0010 23.6  57 
 LZ4  SZ E         230 46.21                  236.8 12.5      0        23.6  57 
 LZ4  SE IS        230 47.34                             109    0.0010 23.6  57 
 LZ4  SZ  AML      230 49.29        24.5 0.20                          23.6  57 
                                                                                
