 2008 1013 1252 22.1 L  21.565 -99.452 10.0  RAL  1 0.0 1.0LRAL                1
 GAP=360        0.30       3.1     2.5  0.0 -0.7091E+01 -0.3245E+00  0.1441E+01E
 ACTION:UPD 12-06-08 11:37 OP:RALL STATUS:               ID:20081013125222     I
 2008-10-13-1252-16S.PLUR1_003                                                 6
 STAT SP IPHASW D HRMM SECON CODA AMPLIT PERI AZIMU VELO AIN AR TRES W  DIS CAZ7
 LZ4  SZ E        1252 27.67                  324.0  7.9      0        32.1 144 
 LZ4  SN IP       1252 27.72                             103    0.0210 32.1 144 
 LZ4  SE IS       1252 31.73                             103   -0.0210 32.1 144 
 LZ4  SZ  AML     1252 33.65        17.4 0.64                          32.1 144 
                                                                                
