 2008 1013 1451 37.8 L  21.332 -99.292 10.0  RAL  1 0.1 0.7LRAL                1
 GAP=360        0.67     999.9   588.7  0.0  0.8298E+07 -0.3245E+00  0.1441E+01E
 ACTION:UPD 12-06-08 11:37 OP:RALL STATUS:               ID:20081013145137     I
 2008-10-13-1451-25S.PLUR1_003                                                 6
 STAT SP IPHASW D HRMM SECON CODA AMPLIT PERI AZIMU VELO AIN AR TRES W  DIS CAZ7
 LZ4  SN IP       1451 39.85                             167    0.1310 2.37  92 
 LZ4  SZ E        1451 39.86                  274.8 10.9      3        2.37  92 
 LZ4  SE IS       1451 40.95                             167   -0.1310 2.37  92 
 LZ4  SZ  AML     1451 41.84        29.6 0.16                          2.37  92 
                                                                                
