 2008 1013 1547 10.5 L  21.333 -99.197 10.0  RAL  1 0.0 0.8LRAL                1
 GAP=360        0.30       3.3     2.5  0.0 -0.7986E+01 -0.3245E+00  0.1441E+01E
 ACTION:UPD 12-06-08 11:37 OP:RALL STATUS:               ID:20081013154710     I
 2008-10-13-1547-02S.PLUR1_003                                                 6
 STAT SP IPHASW D HRMM SECON CODA AMPLIT PERI AZIMU VELO AIN AR TRES W  DIS CAZ7
 LA4  SZ E        1547 14.31                  145.2  9.7      0        20.3 325 
 LA4  SN IP       1547 14.36                             113    0.0010 20.3 325 
 LA4  SE IS       1547 17.14                             113    0.0010 20.3 325 
 LA4  SZ  AML     1547 19.01        17.8 0.32                          20.3 325 
                                                                                
