 2008 1013 1908 38.5 L  21.512 -99.468 10.0  RAL  1 0.0 1.0LRAL                1
 GAP=360        0.30       2.7     3.0  0.0 -0.7562E+01 -0.3245E+00  0.1441E+01E
 ACTION:UPD 12-06-08 11:37 OP:RALL STATUS:               ID:20081013190838     I
 2008-10-13-1908-32S.PLUR1_003                                                 6
 STAT SP IPHASW D HRMM SECON CODA AMPLIT PERI AZIMU VELO AIN AR TRES W  DIS CAZ7
 LZ4  SN IP       19 8 43.58                             105    0.0010 28.7 134 
 LZ4  SZ E        19 8 43.60                  314.3  8.5      0        28.7 134 
 LZ4  SE IS       19 8 47.26                             105    0.0010 28.7 134 
 LZ4  SZ  AML     19 8 49.12        20.5 0.28                          28.7 134 
                                                                                
