 2008 1013 1653 21.8 L  21.604 -99.331 10.0  RAL  1 0.0 1.0LRAL                1
 GAP=360        0.30       4.5     0.9  0.0 -0.3711E+01 -0.3245E+00  0.1441E+01E
 ACTION:UPD 12-06-08 11:37 OP:RALL STATUS:               ID:20081013165321     I
 2008-10-13-1653-11S.PLUR1_003                                                 6
 STAT SP IPHASW D HRMM SECON CODA AMPLIT PERI AZIMU VELO AIN AR TRES W  DIS CAZ7
 LA4  SZ E        1653 24.71                  350.1  9.6      0        13.5 170 
 LA4  SN IP       1653 24.72                             125    0.0010 13.5 170 
 LA4  SE IS       1653 26.83                             125    0.0010 13.5 170 
 LA4  SZ  AML     1653 27.08        37.2 0.24                          13.5 170 
                                                                                
