 2008 1013 1355 29.6 L  21.353 -99.296 10.0  RAL  1 0.1 0.4LRAL                1
 GAP=360        0.44      10.8    13.2  0.0 -0.1420E+03 -0.3245E+00  0.1441E+01E
 ACTION:UPD 12-06-08 11:37 OP:RALL STATUS:               ID:20081013135529     I
 2008-10-13-1355-17S.PLUR1_003                                                 6
 STAT SP IPHASW D HRMM SECON CODA AMPLIT PERI AZIMU VELO AIN AR TRES W  DIS CAZ7
 LZ4  SZ E        1355 31.73                  311.2 12.4      0        3.65 131 
 LZ4  SN IP       1355 31.76                             160    0.2210 3.65 131 
 LZ4  SE IS       1355 32.73                             160   -0.2210 3.65 131 
 LZ4  SZ  AML     1355 32.87        14.4 0.52                          3.65 131 
                                                                                
