 2008 1013 1556 55.3 L  21.610 -99.332 10.0  RAL  1 0.0 0.6LRAL                1
 GAP=360        0.30       4.4     0.9  0.0 -0.3526E+01 -0.3245E+00  0.1441E+01E
 ACTION:UPD 12-06-08 11:37 OP:RALL STATUS:               ID:20081013155655     I
 2008-10-13-1556-46S.PLUR1_003                                                 6
 STAT SP IPHASW D HRMM SECON CODA AMPLIT PERI AZIMU VELO AIN AR TRES W  DIS CAZ7
 LA4  SZ E        1556 58.26                  350.2  9.0      0        14.2 170 
 LA4  SN IP       1556 58.28                             124    0.0010 14.2 170 
 LA4  SE IS       1557  0.46                             124    0.0010 14.2 170 
 LA4  SZ  AML     1557  0.63        14.1 0.24                          14.2 170 
                                                                                
