 2008 1013 2100 46.5 L  21.650 -99.369 10.0  RAL  1 0.0 0.8LRAL                1
 GAP=360        0.30       3.8     1.5  0.0 -0.5268E+01  0.4352E+01 -0.1175E+01E
 ACTION:UPD 12-06-08 11:37 OP:RALL STATUS:               ID:20081013210046     I
 2008-10-13-2100-38S.PLUR1_003                                                 6
 STAT SP IPHASW D HRMM SECON CODA AMPLIT PERI AZIMU VELO AIN AR TRES W  DIS CAZ7
 LA4  SZ E        21 0 50.22                  341.4  8.5      0        19.5 161 
 LA4  SN IP       21 0 50.25                             114    0.0010 19.5 161 
 LA4  SE IS       21 0 52.95                             114    0.0010 19.5 161 
 LA4  SZ  AML     21 0 54.35        18.9 0.32                          19.5 161 
                                                                                
