 2008 1013 2021 51.0 L  21.333 -99.276 10.0  RAL  2 0.3 0.8LRAL                1
 GAP=236        3.76       1.7     5.9 26.5  0.5252E+01  0.4352E+01 -0.1175E+01E
 ACTION:UPD 12-06-08 11:37 OP:RALL STATUS:               ID:20081013202151     I
 2008-10-13-2021-38S.PLUR1_006                                                 6
 STAT SP IPHASW D HRMM SECON CODA AMPLIT PERI AZIMU VELO AIN AR TRES W  DIS CAZ7
 LZ4  SZ E        2021 52.62                  284.0  6.5     -7        0.78 112 
 LZ4  SN IP       2021 52.64                             176   -0.2310 0.78 112 
 LZ4  SE IS       2021 53.29                             176   -0.9210 0.78 112 
 LZ4  SZ  AML     2021 54.12        45.0 0.20                          0.78 112 
 LA4  SN IP       2021 54.86                             118    0.4710 17.0 349 
 LA4  SZ E        2021 54.90                  153.3  9.5    -14        17.0 349 
 LA4  SE IS       2021 57.51                             118    0.6710 17.0 349 
 LA4  SZ  AML     2021 57.98        12.5 0.24                          17.0 349 
                                                                                
