 2008 1013 2350 45.3 L  21.258 -99.268 10.0  RAL  1 0.0 0.4LRAL                1
 GAP=360        0.30       5.9     0.3  0.0 -0.9019E+00  0.4352E+01 -0.1175E+01E
 ACTION:UPD 12-06-08 11:37 OP:RALL STATUS:               ID:20081013235045     I
 2008-10-13-2350-35S.PLUR1_003                                                 6
 STAT SP IPHASW D HRMM SECON CODA AMPLIT PERI AZIMU VELO AIN AR TRES W  DIS CAZ7
 LZ4  SZ E        2350 47.50                  178.6  9.4      0        8.08 359 
 LZ4  SN IP       2350 47.52                             141    0.0010 8.08 359 
 LZ4  SE IS       2350 49.17                             141    0.0010 8.08 359 
 LZ4  SZ  AML     2350 51.08        12.0 0.28                          8.08 359 
                                                                                
