 2008 1014 0920 43.7 L  21.333 -99.282 10.0  RAL  1 0.1 0.7LRAL                1
 GAP=360        0.73     935.1   271.9  0.0  0.2542E+06  0.4352E+01 -0.1175E+01E
 ACTION:UPD 12-06-08 11:37 OP:RALL STATUS:               ID:20081014092043     I
 2008-10-14-0920-31S.PLUR1_003                                                 6
 STAT SP IPHASW D HRMM SECON CODA AMPLIT PERI AZIMU VELO AIN AR TRES W  DIS CAZ7
 LZ4  SZ E         920 45.66                  283.7  8.5      3        1.30 101 
 LZ4  SN IP        920 45.79                             173    0.2010 1.30 101 
 LZ4  SE IS        920 46.73                             173   -0.2010 1.30 101 
 LZ4  SZ  AML      920 47.35        26.4 0.36                          1.30 101 
                                                                                
