 2008 1014 0151 38.2 L  21.462 -99.133 10.0  RAL  1 0.0 0.6LRAL                1
 GAP=360        0.30       0.7     4.4  0.0 -0.2300E+01  0.4352E+01 -0.1175E+01E
 ACTION:UPD 12-06-08 11:37 OP:RALL STATUS:               ID:20081014015138     I
 2008-10-14-0151-29S.PLUR1_003                                                 6
 STAT SP IPHASW D HRMM SECON CODA AMPLIT PERI AZIMU VELO AIN AR TRES W  DIS CAZ7
 LA4  SN IP        151 41.75                             116    0.0210 18.4 277 
 LA4  SZ E         151 41.91                   97.3 17.5      0        18.4 277 
 LA4  SE IS        151 44.30                             116   -0.0210 18.4 277 
 LA4  SZ  AML      151 44.98        11.7 0.24                          18.4 277 
                                                                                
