 2008 1014 1843 43.9 L  21.336 -99.280 10.0  RAL  1 0.3 0.6LRAL                1
 GAP=360        3.35     999.9   999.9  0.0  0.3386E+07  0.4352E+01 -0.1175E+01E
 ACTION:UPD 12-06-08 11:37 OP:RALL STATUS:               ID:20081014184343     I
 2008-10-14-1843-31S.PLUR1_003                                                 6
 STAT SP IPHASW D HRMM SECON CODA AMPLIT PERI AZIMU VELO AIN AR TRES W  DIS CAZ7
 LZ4  SZ E        1843 46.00                  281.0  9.1    -15        1.24 117 
 LZ4  SN IP       1843 46.08                             173    0.3810 1.24 117 
 LZ4  SE IS       1843 46.66                             173   -0.3810 1.24 117 
 LZ4  SZ  AML     1843 46.75        21.7 0.12                          1.24 117 
                                                                                
