 2008 1014 1205 40.0 L  21.337 -99.288 10.0  RAL  1 0.1 0.4LRAL                1
 GAP=360        0.45       9.2    29.8  0.0 -0.2752E+03  0.4352E+01 -0.1175E+01E
 ACTION:UPD 12-06-08 11:37 OP:RALL STATUS:               ID:20081014120540     I
 2008-10-14-1205-28S.PLUR1_003                                                 6
 STAT SP IPHASW D HRMM SECON CODA AMPLIT PERI AZIMU VELO AIN AR TRES W  DIS CAZ7
 LZ4  SZ E        12 5 42.04                  288.7  7.8      0        2.01 108 
 LZ4  SN IP       12 5 42.09                             169    0.2210 2.01 108 
 LZ4  SE IS       12 5 43.00                             169   -0.2210 2.01 108 
 LZ4  SZ  AML     12 5 43.16        14.0 0.36                          2.01 108 
                                                                                
