 2008 1014 2227 37.2 L  21.337 -99.291 10.0  RAL  1 0.1 0.5LRAL                1
 GAP=360        0.36       5.7    21.3  0.0 -0.1210E+03  0.4352E+01 -0.1175E+01E
 ACTION:UPD 12-06-08 11:37 OP:RALL STATUS:               ID:20081014222737     I
 2008-10-14-2227-25S.PLUR1_003                                                 6
 STAT SP IPHASW D HRMM SECON CODA AMPLIT PERI AZIMU VELO AIN AR TRES W  DIS CAZ7
 LZ4  SZ E        2227 39.09                  286.0  9.9      0        2.30 106 
 LZ4  SN IP       2227 39.16                             167    0.1410 2.30 106 
 LZ4  SE IS       2227 40.25                             167   -0.1410 2.30 106 
 LZ4  SZ  AML     2227 41.26        19.2 0.24                          2.30 106 
                                                                                
