 2008 1015 0822 41.9 L  21.399 -99.315 10.0  RAL  2 0.1 0.0LRAL                1
 GAP=216        1.32       2.0     1.1 15.1 -0.1351E+01  0.8858E+00 -0.1897E+01E
 ACTION:UPD 12-06-08 11:37 OP:RALL STATUS:               ID:20081015082241     I
 2008-10-15-0822-31S.PLUR1_006                                                 6
 STAT SP IPHASW D HRMM SECON CODA AMPLIT PERI AZIMU VELO AIN AR TRES W  DIS CAZ7
 LZ4  SN IP        822 44.29                             142    0.0910 8.87 148 
 LZ4  SZ E         822 44.40                  323.7  7.2     -3        8.87 148 
 LZ4  SE IS        822 46.19                             142    0.2810 8.87 148 
 LZ4  SZ  AML      822 47.34         4.9 0.24                          8.87 148 
 LA4  SN IP        822 44.10                             137   -0.1710 9.43   4 
 LA4  SZ E         822 44.11                  179.5 16.5     -3        9.43   4 
 LA4  SE IS        822 45.83                             137   -0.2010 9.43   4 
 LA4  SZ  AML      822 46.29         4.3 0.24                          9.43   4 
                                                                                
