 2008 1015 0625 53.6 L  21.624 -99.311 10.0  RAL  1 0.0 0.6LRAL                1
 GAP=360        0.30       4.3     0.4  0.0 -0.2459E+00  0.3188E+00  0.1123E+00E
 ACTION:UPD 12-06-08 11:37 OP:RALL STATUS:               ID:20081015062553     I
 2008-10-15-0625-44S.PLUR1_003                                                 6
 STAT SP IPHASW D HRMM SECON CODA AMPLIT PERI AZIMU VELO AIN AR TRES W  DIS CAZ7
 LA4  SZ E         625 56.48                  359.3  9.7      0        15.5 179 
 LA4  SN IP        625 56.78                             121    0.0210 15.5 179 
 LA4  SE IS        625 59.04                             121   -0.0210 15.5 179 
 LA4  SZ  AML      625 59.42        13.2 0.56                          15.5 179 
                                                                                
