 2008 1015 0332 52.6 L  21.416 -99.404 27.3  RAL  2 0.1 0.8LRAL                1
 GAP=289        0.84       1.0     1.4  9.0  0.3991E+00  0.8378E+00  0.3095E+00E
 ACTION:UPD 12-06-08 11:37 OP:RALL STATUS:               ID:20081015033252     I
 2008-10-15-0332-46S.PLUR1_006                                                 6
 STAT SP IPHASW D HRMM SECON CODA AMPLIT PERI AZIMU VELO AIN AR TRES W  DIS CAZ7
 LA4  SZ E         332 57.14                  231.9  9.6      0        12.4  53 
 LA4  SN IP        332 57.18                             154   -0.2410 12.4  53 
 LA4  SE IS        333  0.52                             154   -0.4610 12.4  53 
 LA4  SZ  AML      333  1.98         8.1 0.32                          12.4  53 
 LZ4  SZ E         332 57.90                  303.5  6.5      0        16.8 124 
 LZ4  SN IP        332 57.93                             146    0.2010 16.8 124 
 LZ4  SE IS        333  2.00                             146    0.5010 16.8 124 
 LZ4  SZ  AML      333  2.19        16.1 0.20                          16.8 124 
                                                                                
