 2008 1015 0520 30.8 L  21.396 -99.369 25.1  RAL  2 0.2 0.6LRAL                1
 GAP=268        0.95       1.0     1.0  9.9  0.4805E-01  0.3188E+00  0.1123E+00E
 ACTION:UPD 12-06-08 11:37 OP:RALL STATUS:               ID:20081015052030     I
 2008-10-15-0520-24S.PLUR1_006                                                 6
 STAT SP IPHASW D HRMM SECON CODA AMPLIT PERI AZIMU VELO AIN AR TRES W  DIS CAZ7
 LA4  SZ E         520 34.95                  211.6 13.2      0        11.5  32 
 LA4  SN IP        520 35.04                             155   -0.2510 11.5  32 
 LA4  SE IS        520 38.09                             155   -0.5110 11.5  32 
 LA4  SZ  AML      520 39.48         6.9 0.48                          11.5  32 
 LZ4  SZ E         520 35.17                  304.5  9.2      0        12.5 125 
 LZ4  SN IP        520 35.47                             153    0.1210 12.5 125 
 LZ4  SE IS        520 39.33                             153    0.6410 12.5 125 
 LZ4  SZ  AML      520 39.52        10.3 0.44                          12.5 125 
                                                                                
