 2008 1015 0946 23.5 L  21.339 -99.287 10.0  RAL  1 0.1 0.2LRAL                1
 GAP=360        0.62      17.4    37.2  0.0 -0.6472E+03  0.8858E+00 -0.1897E+01E
 ACTION:UPD 12-06-08 11:37 OP:RALL STATUS:               ID:20081015094623     I
 2008-10-15-0946-11S.PLUR1_003                                                 6
 STAT SP IPHASW D HRMM SECON CODA AMPLIT PERI AZIMU VELO AIN AR TRES W  DIS CAZ7
 LZ4  SZ E         946 25.70                  296.7  8.3      0        2.09 117 
 LZ4  SN IP        946 25.74                             169    0.3610 2.09 117 
 LZ4  SE IS        946 26.37                             169   -0.3610 2.09 117 
 LZ4  SZ  AML      946 26.52         8.6 0.60                          2.09 117 
                                                                                
