 2008 1015 1552 23.7 L  21.331 -99.281 10.0  RAL  1 0.0 1.1LRAL                1
 GAP=360        0.33     510.2    37.5  0.0 -0.1169E+05  0.8858E+00 -0.1897E+01E
 ACTION:UPD 12-06-08 11:37 OP:RALL STATUS:               ID:20081015155223     I
 2008-10-15-1552-11S.PLUR1_006                                                 6
 STAT SP IPHASW D HRMM SECON CODA AMPLIT PERI AZIMU VELO AIN AR TRES W  DIS CAZ7
 LZ4  SZ E        1552 25.58                  270.2 11.2      0        1.16  90 
 LZ4  SN IP       1552 25.68                             174    0.0910 1.16  90 
 LZ4  SE IS       1552 26.84                             174   -0.0910 1.16  90 
 LZ4  SZ  AML     1552 28.40        64.8 0.48                          1.16  90 
                                                                                
