 2008 1015 1714 44.5 L  21.332 -99.277 10.0  RAL  1 0.1 0.4LRAL                1
 GAP=360        1.33     999.9   586.5  0.0  0.8719E+06  0.8858E+00 -0.1897E+01E
 ACTION:UPD 12-06-08 11:37 OP:RALL STATUS:               ID:20081015171444     I
 2008-10-15-1714-32S.PLUR1_003                                                 6
 STAT SP IPHASW D HRMM SECON CODA AMPLIT PERI AZIMU VELO AIN AR TRES W  DIS CAZ7
 LZ4  SZ E        1714 46.53                  288.2  9.2      6        0.79 102 
 LZ4  SN IP       1714 46.57                             176    0.2710 0.79 102 
 LZ4  SE IS       1714 47.36                             176   -0.2710 0.79 102 
 LZ4  SZ  AML     1714 47.50        15.2 0.16                          0.79 102 
                                                                                
