 2008 1015 1752 26.5 L  21.526 -99.310 10.0  RAL  1 0.0 0.8LRAL                1
 GAP=360        0.30       9.0     0.3  0.0 -0.2437E+01  0.8858E+00 -0.1897E+01E
 ACTION:UPD 12-06-08 11:37 OP:RALL STATUS:               ID:20081015175226     I
 2008-10-15-1752-15S.PLUR1_003                                                 6
 STAT SP IPHASW D HRMM SECON CODA AMPLIT PERI AZIMU VELO AIN AR TRES W  DIS CAZ7
 LA4  SZ E        1752 28.49                  358.4  8.6      0        4.64 178 
 LA4  SN IP       1752 28.55                             156    0.0110 4.64 178 
 LA4  SE IS       1752 29.99                             156   -0.0110 4.64 178 
 LA4  SZ  AML     1752 30.19        34.7 0.28                          4.64 178 
                                                                                
