 2008 1015 1251 12.6 L  21.634 -99.244 10.0  RAL  1 0.0 0.8LRAL                1
 GAP=360        0.30       3.8     1.0  0.0  0.1143E+01  0.8858E+00 -0.1897E+01E
 ACTION:UPD 12-06-08 11:37 OP:RALL STATUS:               ID:20081015125112     I
 2008-10-15-1251-08S.PLUR1_003                                                 6
 STAT SP IPHASW D HRMM SECON CODA AMPLIT PERI AZIMU VELO AIN AR TRES W  DIS CAZ7
 LZ4  SZ E        1251 17.49                    4.5 17.3      0        33.7 185 
 LZ4  SN IP       1251 18.40                             102    0.0110 33.7 185 
 LZ4  SE IS       1251 22.62                             102   -0.0110 33.7 185 
 LZ4  SZ  AML     1251 24.78         9.8 0.40                          33.7 185 
                                                                                
