 2008 1015 1444  6.7 L  21.337 -99.291 10.0  RAL  1 0.2 1.0LRAL                1
 GAP=360        1.44      24.3    82.5  0.0 -0.2006E+04  0.8858E+00 -0.1897E+01E
 ACTION:UPD 12-06-08 11:37 OP:RALL STATUS:               ID:20081015144406     I
 2008-10-15-1443-54S.PLUR1_003                                                 6
 STAT SP IPHASW D HRMM SECON CODA AMPLIT PERI AZIMU VELO AIN AR TRES W  DIS CAZ7
 LZ4  SZ E        1444  8.85                  281.2  9.2     -5        2.35 108 
 LZ4  SN IP       1444  8.89                             167    0.3110 2.35 108 
 LZ4  SE IS       1444  9.63                             167   -0.3110 2.35 108 
 LZ4  SZ  AML     1444  9.79        57.8 0.24                          2.35 108 
                                                                                
