 2008 1015 1608  5.3 L  21.296 -99.258 10.0  RAL  1 0.0 0.3LRAL                1
 GAP=360        0.30       9.9     3.3  0.0 -0.3289E+02  0.8858E+00 -0.1897E+01E
 ACTION:UPD 12-06-08 11:37 OP:RALL STATUS:               ID:20081015160805     I
 2008-10-15-1607-53S.PLUR1_003                                                 6
 STAT SP IPHASW D HRMM SECON CODA AMPLIT PERI AZIMU VELO AIN AR TRES W  DIS CAZ7
 LZ4  SN IP       16 8  7.28                             158    0.0510 4.04 342 
 LZ4  SZ E        16 8  7.33                  162.5 20.2      0        4.04 342 
 LZ4  SE IS       16 8  8.61                             158   -0.0510 4.04 342 
 LZ4  SZ  AML     16 8  8.76        10.7 0.40                          4.04 342 
                                                                                
