 2008 1015 1420 47.9 L  21.266 -99.250 10.0  RAL  1 0.0 0.3LRAL                1
 GAP=360        0.30       6.0     1.8  0.0 -0.1101E+02  0.8858E+00 -0.1897E+01E
 ACTION:UPD 12-06-08 11:37 OP:RALL STATUS:               ID:20081015142047     I
 2008-10-15-1420-37S.PLUR1_003                                                 6
 STAT SP IPHASW D HRMM SECON CODA AMPLIT PERI AZIMU VELO AIN AR TRES W  DIS CAZ7
 LZ4  SN IP       1420 50.14                             144    0.0210 7.41 344 
 LZ4  SZ E        1420 50.20                  164.3  9.9      0        7.41 344 
 LZ4  SE IS       1420 51.70                             144   -0.0210 7.41 344 
 LZ4  SZ  AML     1420 52.23         9.5 0.68                          7.41 344 
                                                                                
