 2008 1015 1643  8.2 L  21.336 -99.303 10.0  RAL  1 0.0 0.4LRAL                1
 GAP=360        0.30       4.3     0.5  0.0 -0.7102E+00  0.8858E+00 -0.1897E+01E
 ACTION:UPD 12-06-08 11:37 OP:RALL STATUS:               ID:20081015164308     I
 2008-10-15-1642-56S.PLUR1_006                                                 6
 STAT SP IPHASW D HRMM SECON CODA AMPLIT PERI AZIMU VELO AIN AR TRES W  DIS CAZ7
 LA4  SZ E        1643 10.69                  177.9 11.7      0        16.3 358 
 LA4  SN IP       1643 11.44                             119    0.0210 16.3 358 
 LA4  SE IS       1643 13.78                             119   -0.0210 16.3 358 
 LA4  SZ  AML     1643 16.17         7.4 0.36                          16.3 358 
                                                                                
