 2008 1015 2114 44.2 L  21.346 -99.297 10.0  RAL  1 0.1 0.2LRAL                1
 GAP=360        0.48       9.8    18.1  0.0 -0.1776E+03  0.8858E+00 -0.1897E+01E
 ACTION:UPD 12-06-08 11:37 OP:RALL STATUS:               ID:20081015211444     I
 2008-10-15-2114-32S.PLUR1_003                                                 6
 STAT SP IPHASW D HRMM SECON CODA AMPLIT PERI AZIMU VELO AIN AR TRES W  DIS CAZ7
 LZ4  SZ E        2114 46.30                  300.3  7.9      0        3.34 120 
 LZ4  SN IP       2114 46.40                             162    0.2610 3.34 120 
 LZ4  SE IS       2114 47.28                             162   -0.2610 3.34 120 
 LZ4  SZ  AML     2114 47.39         7.6 0.12                          3.34 120 
                                                                                
