 2008 1016 0633 10.6 L  21.276 -99.267 10.0  RAL  1 0.0 0.3LRAL                1
 GAP=360        0.30       3.9     1.0  0.0 -0.2986E+01 -0.2309E+01  0.2008E+02E
 ACTION:UPD 12-06-08 11:37 OP:RALL STATUS:               ID:20081016063310     I
 2008-10-16-0633-05S.PLUR1_003                                                 6
 STAT SP IPHASW D HRMM SECON CODA AMPLIT PERI AZIMU VELO AIN AR TRES W  DIS CAZ7
 LA4  SZ E         633 14.45                  169.2 15.2      0        23.3 349 
 LA4  SN IP        633 14.88                             110    0.0210 23.3 349 
 LA4  SE IS        633 17.96                             110   -0.0210 23.3 349 
 LA4  SZ  AML      633 19.18         4.5 0.56                          23.3 349 
                                                                                
