 2008 1016 0520 57.9 L  21.265 -99.313 10.0  RAL  1 0.0 0.6LRAL                1
 GAP=360        0.30       4.9     3.2  0.0  0.1574E+02  0.8858E+00 -0.1897E+01E
 ACTION:UPD 12-06-08 11:37 OP:RALL STATUS:               ID:20081016052057     I
 2008-10-16-0520-47S.PLUR1_003                                                 6
 STAT SP IPHASW D HRMM SECON CODA AMPLIT PERI AZIMU VELO AIN AR TRES W  DIS CAZ7
 LZ4  SN IP        521  0.19                             140    0.0210 8.52  32 
 LZ4  SZ E         521  0.19                  211.8  8.8      0        8.52  32 
 LZ4  SE IS        521  1.83                             140   -0.0210 8.52  32 
 LZ4  SZ  AML      521  3.52        16.6 0.48                          8.52  32 
                                                                                
