 2008 1016 0524 32.1 L  21.342 -99.294 10.0  RAL  1 0.1 0.3LRAL                1
 GAP=360        0.45       9.1    20.4  0.0 -0.1849E+03  0.8858E+00 -0.1897E+01E
 ACTION:UPD 12-06-08 11:37 OP:RALL STATUS:               ID:20081016052432     I
 2008-10-16-0524-19S.PLUR1_003                                                 6
 STAT SP IPHASW D HRMM SECON CODA AMPLIT PERI AZIMU VELO AIN AR TRES W  DIS CAZ7
 LZ4  SZ E         524 34.16                  295.5  8.0      0        2.85 115 
 LZ4  SN IP        524 34.18                             165    0.2310 2.85 115 
 LZ4  SE IS        524 35.10                             165   -0.2310 2.85 115 
 LZ4  SZ  AML      524 35.61        10.8 0.44                          2.85 115 
                                                                                
