 2008 1016 0249 26.1 L  21.339 -99.292 10.0  RAL  1 0.1 0.4LRAL                1
 GAP=360        0.43       7.9    23.1  0.0 -0.1827E+03  0.8858E+00 -0.1897E+01E
 ACTION:UPD 12-06-08 11:37 OP:RALL STATUS:               ID:20081016024926     I
 2008-10-16-0249-14S.PLUR1_003                                                 6
 STAT SP IPHASW D HRMM SECON CODA AMPLIT PERI AZIMU VELO AIN AR TRES W  DIS CAZ7
 LZ4  SZ E         249 28.16                  290.1  7.2      0        2.47 110 
 LZ4  SN IP        249 28.17                             167    0.2110 2.47 110 
 LZ4  SE IS        249 29.12                             167   -0.2110 2.47 110 
 LZ4  SZ  AML      249 29.45        15.2 0.44                          2.47 110 
                                                                                
