 2008 1016 0201 35.1 L  21.549 -99.308 10.0  RAL  1 0.0 0.4LRAL                1
 GAP=360        0.30       6.4     0.2  0.0  0.8357E+00  0.8858E+00 -0.1897E+01E
 ACTION:UPD 12-06-08 11:37 OP:RALL STATUS:               ID:20081016020135     I
 2008-10-16-0201-25S.PLUR1_003                                                 6
 STAT SP IPHASW D HRMM SECON CODA AMPLIT PERI AZIMU VELO AIN AR TRES W  DIS CAZ7
 LA4  SZ E         2 1 36.44                    1.1 10.7      0        7.24 181 
 LA4  SN IP        2 1 37.33                             145    0.0010 7.24 181 
 LA4  SE IS        2 1 38.93                             145    0.0010 7.24 181 
 LA4  SZ  AML      2 1 39.93        11.1 0.28                          7.24 181 
                                                                                
