 2008 1016 0224  8.0 L  21.336 -99.283 10.0  RAL  1 0.2 0.1LRAL                1
 GAP=360        2.52     896.8   622.2  0.0  0.5580E+06  0.8858E+00 -0.1897E+01E
 ACTION:UPD 12-06-08 11:37 OP:RALL STATUS:               ID:20081016022408     I
 2008-10-16-0223-57S.PLUR1_003                                                 6
 STAT SP IPHASW D HRMM SECON CODA AMPLIT PERI AZIMU VELO AIN AR TRES W  DIS CAZ7
 LZ4  SZ E         224  9.94                  279.2 11.3    -11        1.48 111 
 LZ4  SN IP        224 10.10                             172    0.2910 1.48 111 
 LZ4  SE IS        224 10.87                             172   -0.2910 1.48 111 
 LZ4  SZ  AML      224 11.16         7.1 0.40                          1.48 111 
                                                                                
