 2008 1016 0631 12.8 L  21.337 -99.276 12.1  RAL  2 0.2 0.4LRAL                1
 GAP=207        2.02       5.4     2.3 24.2 -0.1824E+01 -0.2309E+01  0.2008E+02E
 ACTION:UPD 12-06-08 11:37 OP:RALL STATUS:               ID:20081016063112     I
 2008-10-16-0631-04S.PLUR1_006                                                 6
 STAT SP IPHASW D HRMM SECON CODA AMPLIT PERI AZIMU VELO AIN AR TRES W  DIS CAZ7
 LA4  SN IP        631 16.12                             140   -0.1210 16.6 348 
 LA4  SZ E         631 16.13                  160.5  7.6     -7        16.6 348 
 LA4  SE IS        631 19.29                             140    0.5210 16.6 348 
 LA4  SZ  AML      631 20.55        15.3 0.52                          16.6 348 
 LD5  SZ E         631 15.99                   10.1  9.0     -4        17.2 195 
 LD5  SN IP        631 16.03                             134   -0.2810 17.2 195 
 LD5  SE IS        631 18.79                             134   -0.1110 17.2 195 
 LD5  SZ  AML      631 19.90         2.9 0.20                          17.2 195 
                                                                                
