 2008 1016 0503 24.9 L  21.742 -99.335 10.0  RAL  1 0.0 1.1LRAL                1
 GAP=360        0.30       3.8     0.9  0.0 -0.1428E+01  0.8858E+00 -0.1897E+01E
 ACTION:UPD 12-06-08 11:37 OP:RALL STATUS:               ID:20081016050324     I
 2008-10-16-0503-19S.PLUR1_003                                                 6
 STAT SP IPHASW D HRMM SECON CODA AMPLIT PERI AZIMU VELO AIN AR TRES W  DIS CAZ7
 LA4  SN IP        5 3 29.94                             105    0.0110 28.7 175 
 LA4  SZ E         5 3 30.08                  354.6  8.7      0        28.7 175 
 LA4  SE IS        5 3 33.61                             105   -0.0110 28.7 175 
 LA4  SZ  AML      5 3 34.76        27.7 0.60                          28.7 175 
                                                                                
