 2008 1016 0814  7.8 L  20.992 -99.335  1.8  RAL  2 0.3 0.2LRAL                1
 GAP=354        4.52      35.9     8.8 30.8  0.1289E+03 -0.1729E+01  0.7786E+02E
 ACTION:UPD 12-06-08 11:37 OP:RALL STATUS:               ID:20081016081407     I
 2008-10-16-0813-59S.PLUR1_006                                                 6
 STAT SP IPHASW D HRMM SECON CODA AMPLIT PERI AZIMU VELO AIN AR TRES W  DIS CAZ7
 LD5  SZ E         814 11.66                  195.8 17.5     12        21.6   4 
 LD5  SN IP        814 11.78                              97    0.2010 21.6   4 
 LD5  SE IS        814 13.97                              97   -0.3910 21.6   4 
 LD5  SZ  AML      814 16.05         1.8 0.56                          21.6   4 
 LZ4  SN E         814 14.47                  171.7 11.3    -18        38.1  10 
 LZ4  SZ IP        814 14.55                              63    0.1210 38.1  10 
 LZ4  SE IS        814 19.38                              63    0.0810 38.1  10 
 LZ4  SN  AML      814 21.98         6.7 0.32                          38.1  10 
                                                                                
