 2008 1016 0653 47.6 L  21.342 -99.296 10.0  RAL  1 0.1 0.2LRAL                1
 GAP=360        0.44       8.5    19.2  0.0 -0.1629E+03 -0.2309E+01  0.2008E+02E
 ACTION:UPD 12-06-08 11:37 OP:RALL STATUS:               ID:20081016065347     I
 2008-10-16-0653-35S.PLUR1_003                                                 6
 STAT SP IPHASW D HRMM SECON CODA AMPLIT PERI AZIMU VELO AIN AR TRES W  DIS CAZ7
 LZ4  SZ E         653 49.68                  295.4  9.7      0        2.99 115 
 LZ4  SN IP        653 49.70                             164    0.2210 2.99 115 
 LZ4  SE IS        653 50.64                             164   -0.2210 2.99 115 
 LZ4  SZ  AML      653 50.96         9.3 0.40                          2.99 115 
                                                                                
