 2008 1016 1241 31.2 L  21.727 -99.347 10.0  RAL  1 0.0 1.2LRAL                1
 GAP=360        0.30       3.7     1.4  0.0 -0.2426E+01 -0.1729E+01  0.7786E+02E
 ACTION:UPD 12-06-08 11:37 OP:RALL STATUS:               ID:20081016124131     I
 2008-10-16-1241-24S.PLUR1_003                                                 6
 STAT SP IPHASW D HRMM SECON CODA AMPLIT PERI AZIMU VELO AIN AR TRES W  DIS CAZ7
 LZ4  SN IP       1241 38.68                              98    0.0110 44.5 170 
 LZ4  SZ E        1241 39.20                  349.6  6.9      0        44.5 170 
 LZ4  SE IS       1241 44.11                              98   -0.0110 44.5 170 
 LZ4  SZ  AML     1241 45.88        21.9 0.36                          44.5 170 
                                                                                
