 2008 1016 1245 18.7 L  21.663 -99.522 10.0  RAL  1 0.0 1.3LRAL                1
 GAP=360        0.30       3.1     2.6  0.0 -0.6437E+01 -0.1729E+01  0.7786E+02E
 ACTION:UPD 12-06-08 11:37 OP:RALL STATUS:               ID:20081016124518     I
 2008-10-16-1245-12S.PLUR1_003                                                 6
 STAT SP IPHASW D HRMM SECON CODA AMPLIT PERI AZIMU VELO AIN AR TRES W  DIS CAZ7
 LZ4  SZ E        1245 26.18                  324.6  7.4      0        45.1 145 
 LZ4  SN IP       1245 26.24                              98    0.0210 45.1 145 
 LZ4  SE IS       1245 31.72                              98   -0.0210 45.1 145 
 LZ4  SZ  AML     1245 33.82        28.0 0.28                          45.1 145 
                                                                                
