 2008 1016 1252 43.3 L  21.585 -99.530 10.0  RAL  1 0.0 0.8LRAL                1
 GAP=360        0.30       2.8     2.9  0.0 -0.7083E+01 -0.1729E+01  0.7786E+02E
 ACTION:UPD 12-06-08 11:37 OP:RALL STATUS:               ID:20081016125243     I
 2008-10-16-1252-41S.PLUR1_003                                                 6
 STAT SP IPHASW D HRMM SECON CODA AMPLIT PERI AZIMU VELO AIN AR TRES W  DIS CAZ7
 LZ4  SZ E        1252 49.53                  316.2 12.4      0        38.9 136 
 LZ4  SN IP       1252 49.90                             100    0.0210 38.9 136 
 LZ4  SE IS       1252 54.68                             100   -0.0210 38.9 136 
 LZ4  SZ  AML     1252 55.61         8.5 0.48                          38.9 136 
                                                                                
