 2008 1016 1409 31.9 L  21.693 -99.451 10.0  RAL  1 0.0 0.7LRAL                1
 GAP=360        0.30       3.4     2.0  0.0 -0.5262E+01 -0.1729E+01  0.7786E+02E
 ACTION:UPD 12-06-08 11:37 OP:RALL STATUS:               ID:20081016140931     I
 2008-10-16-1409-30S.PLUR1_003                                                 6
 STAT SP IPHASW D HRMM SECON CODA AMPLIT PERI AZIMU VELO AIN AR TRES W  DIS CAZ7
 LZ4  SZ E        14 9 39.21                  334.9  7.3      0        44.3 155 
 LZ4  SN IP       14 9 39.34                              99    0.0110 44.3 155 
 LZ4  SE IS       14 9 44.73                              99   -0.0110 44.3 155 
 LZ4  SZ  AML     14 9 47.06         6.1 0.40                          44.3 155 
                                                                                
