 2008 1016 2334  2.8 L  21.427 -99.340 10.0  RAL  1 0.0 0.3LRAL                1
 GAP=360        0.30       3.8     2.8  0.0 -0.1056E+02 -0.1729E+01  0.7786E+02E
 ACTION:UPD 12-06-08 11:37 OP:RALL STATUS:               ID:20081016233402     I
 2008-10-16-2333-53S.PLUR1_003                                                 6
 STAT SP IPHASW D HRMM SECON CODA AMPLIT PERI AZIMU VELO AIN AR TRES W  DIS CAZ7
 LZ4  SZ E        2334  5.63                  325.7  7.4      0        12.9 146 
 LZ4  SN IP       2334  5.65                             126    0.0210 12.9 146 
 LZ4  SE IS       2334  7.67                             126   -0.0210 12.9 146 
 LZ4  SZ  AML     2334  8.64         6.7 0.24                          12.9 146 
                                                                                
