 2008 1017 0106 34.8 L  21.329 -99.293 10.0  RAL  1 0.0-0.1LRAL                1
 GAP=360        0.30     999.9   261.2  0.0 -0.6384E+06 -0.1729E+01  0.7786E+02E
 ACTION:UPD 12-06-08 11:37 OP:RALL STATUS:               ID:20081017010634     I
 2008-10-17-0106-25S.PLUR1_003                                                 6
 STAT SP IPHASW D HRMM SECON CODA AMPLIT PERI AZIMU VELO AIN AR TRES W  DIS CAZ7
 LZ4  SN IP        1 6 36.69                             167    0.0310 2.41  85 
 LZ4  SZ E         1 6 36.94                  264.7 12.6      0        2.41  85 
 LZ4  SE IS        1 6 38.00                             167   -0.0310 2.41  85 
 LZ4  SZ  AML      1 6 39.61         3.9 0.28                          2.41  85 
                                                                                
