 2008 1017 0707 38.5 L  21.327 -99.277 10.0  RAL  1 0.4 0.6LRAL                1
 GAP=360        5.44     999.9   157.9  0.0 -0.2890E+06 -0.1729E+01  0.7786E+02E
 ACTION:UPD 12-06-08 11:37 OP:RALL STATUS:               ID:20081017070738     I
 2008-10-17-0707-27S.PLUR1_003                                                 6
 STAT SP IPHASW D HRMM SECON CODA AMPLIT PERI AZIMU VELO AIN AR TRES W  DIS CAZ7
 LZ4  SZ E         7 7 40.56                  266.3 11.9     26        0.89  60 
 LZ4  SN IP        7 7 40.60                             175    0.3110 0.89  60 
 LZ4  SE IS        7 7 41.32                             175   -0.3110 0.89  60 
 LZ4  SZ  AML      7 7 41.48        20.1 0.28                          0.89  60 
                                                                                
