 2008 1017 0759 57.6 L  21.256 -99.287 10.0  RAL  1 0.0 0.5LRAL                1
 GAP=360        0.30       5.6     1.4  0.0  0.7447E+01 -0.1729E+01  0.7786E+02E
 ACTION:UPD 12-06-08 11:37 OP:RALL STATUS:               ID:20081017075957     I
 2008-10-17-0759-47S.PLUR1_003                                                 6
 STAT SP IPHASW D HRMM SECON CODA AMPLIT PERI AZIMU VELO AIN AR TRES W  DIS CAZ7
 LZ4  SZ E         759 59.96                  192.6 19.8      0        8.48  13 
 LZ4  SN IP        759 59.96                             140    0.0110 8.48  13 
 LZ4  SE IS        8 0  1.62                             140   -0.0110 8.48  13 
 LZ4  SZ  AML      8 0  1.76        14.2 0.40                          8.48  13 
                                                                                
