 2008 1017 0803  4.0 L  21.269 -99.273 10.0  RAL  1 0.0 0.4LRAL                1
 GAP=360        0.30       6.6     0.5  0.0  0.2769E+01 -0.1729E+01  0.7786E+02E
 ACTION:UPD 12-06-08 11:37 OP:RALL STATUS:               ID:20081017080304     I
 2008-10-17-0802-53S.PLUR1_003                                                 6
 STAT SP IPHASW D HRMM SECON CODA AMPLIT PERI AZIMU VELO AIN AR TRES W  DIS CAZ7
 LZ4  SN E         8 3  6.08                  183.4 14.9      0        6.82   3 
 LZ4  SZ IP        8 3  6.11                             146    0.0010 6.82   3 
 LZ4  SE IS        8 3  7.67                             146    0.0010 6.82   3 
 LZ4  SN  AML      8 3  7.92        10.9 0.32                          6.82   3 
                                                                                
