 2008 1017 1621 54.3 L  21.901 -99.376  0.0  RAL  2 0.4 1.5LRAL                1
 GAP=359        6.78     999.9   330.1999.9 -0.6332E+06 -0.1240E+07  0.7243E+07E
 ACTION:UPD 12-06-08 11:37 OP:RALL STATUS:               ID:20081017162154     I
 2008-10-17-1621-52S.PLUR1_006                                                 6
 STAT SP IPHASW D HRMM SECON CODA AMPLIT PERI AZIMU VELO AIN AR TRES W  DIS CAZ7
 LA4  SZ E        1622  2.24                   11.1  8.3     20        46.7 171 
 LA4  SN IP       1622  2.25                              63   -0.1810 46.7 171 
 LA4  SE IS       1622  7.84                              63   -0.5410 46.7 171 
 LA4  SZ  AML     1622 11.53        29.6 0.68                          46.7 171 
 LZ4  SZ E        1622  5.08                  323.7  9.2    -25        64.1 170 
 LZ4  SN IP       1622  5.21                              63    0.0910 64.1 170 
 LZ4  SE IS       1622 13.65                              63    0.6210 64.1 170 
 LZ4  SZ  AML     1622 16.25        40.8 0.56                          64.1 170 
                                                                                
