 2008 1017 1720  8.1 L  21.787 -99.528 10.0  RAL  1 0.0 1.3LRAL                1
 GAP=360        0.30       3.2     2.5  0.0 -0.6511E+01 -0.1240E+07  0.7243E+07E
 ACTION:UPD 12-06-08 11:37 OP:RALL STATUS:               ID:20081017172008     I
 2008-10-17-1720-06S.PLUR1_003                                                 6
 STAT SP IPHASW D HRMM SECON CODA AMPLIT PERI AZIMU VELO AIN AR TRES W  DIS CAZ7
 LA4  SZ E        1720 14.97                  326.0  8.1      0        40.5 146 
 LA4  SN IP       1720 14.98                             100    0.0210 40.5 146 
 LA4  SE IS       1720 19.95                             100   -0.0210 40.5 146 
 LA4  SZ  AML     1720 22.06        26.8 0.32                          40.5 146 
                                                                                
