 2008 1017 1250 23.9 L  21.334 -99.278 10.0  RAL  1 0.1 0.3LRAL                1
 GAP=360        0.70     999.9   615.9  0.0  0.8622E+06 -0.1729E+01  0.7786E+02E
 ACTION:UPD 12-06-08 11:37 OP:RALL STATUS:               ID:20081017125023     I
 2008-10-17-1250-12S.PLUR1_003                                                 6
 STAT SP IPHASW D HRMM SECON CODA AMPLIT PERI AZIMU VELO AIN AR TRES W  DIS CAZ7
 LZ4  SZ E        1250 26.00                  290.5  9.6      2        0.97 109 
 LZ4  SN IP       1250 26.08                             175    0.3510 0.97 109 
 LZ4  SE IS       1250 26.72                             175   -0.3510 0.97 109 
 LZ4  SZ  AML     1250 28.19        11.9 0.56                          0.97 109 
                                                                                
