 2008 1017 1420 28.6 L  21.275 -99.262 10.0  RAL  1 0.0 0.4LRAL                1
 GAP=360        0.30       7.0     1.0  0.0 -0.6645E+01 -0.1729E+01  0.7786E+02E
 ACTION:UPD 12-06-08 11:37 OP:RALL STATUS:               ID:20081017142028     I
 2008-10-17-1420-18S.PLUR1_003                                                 6
 STAT SP IPHASW D HRMM SECON CODA AMPLIT PERI AZIMU VELO AIN AR TRES W  DIS CAZ7
 LZ4  SZ E        1420 30.72                  172.8  9.2      0        6.25 353 
 LZ4  SN IP       1420 30.74                             148    0.0110 6.25 353 
 LZ4  SZ  AML     1420 32.19        12.6 0.48                          6.25 353 
 LZ4  SE IS       1420 32.25                             148   -0.0110 6.25 353 
                                                                                
