 2008 1017 1752 30.8 L  21.313 -99.302 10.0  RAL  1 0.1 0.5LRAL                1
 GAP=360        0.37       6.6    11.9  0.0  0.7874E+02 -0.1240E+07  0.7243E+07E
 ACTION:UPD 12-06-08 11:37 OP:RALL STATUS:               ID:20081017175230     I
 2008-10-17-1752-19S.PLUR1_003                                                 6
 STAT SP IPHASW D HRMM SECON CODA AMPLIT PERI AZIMU VELO AIN AR TRES W  DIS CAZ7
 LZ4  SZ E        1752 32.84                  239.4 12.7      0        3.97  59 
 LZ4  SN IP       1752 32.88                             159    0.1510 3.97  59 
 LZ4  SE IS       1752 33.99                             159   -0.1510 3.97  59 
 LZ4  SZ  AML     1752 34.72        16.7 0.20                          3.97  59 
                                                                                
