 2008 1017 1020 47.2 L  21.329 -99.273 10.0  RAL  1 0.3 0.0LRAL                1
 GAP=360        2.13     107.6   999.9  0.0 -0.1091E+06 -0.1729E+01  0.7786E+02E
 ACTION:UPD 12-06-08 11:37 OP:RALL STATUS:               ID:20081017102047     I
 2008-10-17-1020-35S.PLUR1_003                                                 6
 STAT SP IPHASW D HRMM SECON CODA AMPLIT PERI AZIMU VELO AIN AR TRES W  DIS CAZ7
 LZ4  SZ E        1020 49.62                  240.7 12.5      9        0.40  52 
 LZ4  SN IP       1020 49.64                             178    0.6410 0.40  52 
 LZ4  SE IS       1020 49.69                             178   -0.6410 0.40  52 
 LZ4  SZ  AML     1020 50.41         6.2 0.20                          0.40  52 
                                                                                
