 2008 1017 2223 30.1 R  22.416 -99.985 10.0  RAL  1 0.0 1.7LRAL                1
 GAP=360        0.30       4.4     4.3  0.0 -0.4315E+01  0.4001E+04 -0.1116E+05E
 ACTION:UPD 12-06-08 11:37 OP:RALL STATUS:               ID:20081017222330     I
 2008-10-17-2223-38S.PLUR1_003                                                 6
 STAT SP IPHASW D HRMM SECON CODA AMPLIT PERI AZIMU VELO AIN AR TRES W  DIS CAZ7
 LZ4  SN IP       2223 52.09                              52    0.0110  141 148 
 LZ4  SZ E        2223 52.24                  328.5  9.2      0         141 148 
 LZ4  SE IS       2224  8.10                              52   -0.0110  141 148 
 LZ4  SZ  AML     2224 13.15        21.2 0.28                           141 148 
                                                                                
