 2008 1017 2128 45.1 L  21.630 -99.362  0.0  RAL  2 0.3 1.0LRAL                1
 GAP=357        4.39      39.6    15.3498.5 -0.5446E+03  0.4001E+04 -0.1116E+05E
 ACTION:UPD 12-06-08 11:37 OP:RALL STATUS:               ID:20081017212845     I
 2008-10-17-2128-34S.PLUR1_006                                                 6
 STAT SP IPHASW D HRMM SECON CODA AMPLIT PERI AZIMU VELO AIN AR TRES W  DIS CAZ7
 LA4  SN IP       2128 48.17                              94    0.0910 17.1 161 
 LA4  SZ E        2128 48.22                  350.8  8.1     10        17.1 161 
 LA4  SE IS       2128 49.88                              94   -0.3810 17.1 161 
 LA4  SZ  AML     2128 50.21        43.7 0.36                          17.1 161 
 LZ4  SN IP       2128 51.43                              92    0.3210 34.4 164 
 LZ4  SZ E        2128 51.76                  324.8 10.0    -18        34.4 164 
 LZ4  SE IS       2128 55.48                              92   -0.0310 34.4 164 
 LZ4  SZ  AML     2128 57.24        15.6 0.60                          34.4 164 
                                                                                
