 2008 1017 2328 13.2 R  22.412 -99.612 10.0  RAL  1 0.0 1.7LRAL                1
 GAP=360        0.30       3.7     3.6  0.0 -0.9824E+00  0.4001E+04 -0.1116E+05E
 ACTION:UPD 12-06-08 11:37 OP:RALL STATUS:               ID:20081017232813     I
 2008-10-17-2328-18S.PLUR1_003                                                 6
 STAT SP IPHASW D HRMM SECON CODA AMPLIT PERI AZIMU VELO AIN AR TRES W  DIS CAZ7
 LZ4  SZ E        2328 32.85                  343.6  9.0      0         125 163 
 LZ4  SN IP       2328 33.03                              93   -0.0210  125 163 
 LZ4  SE IS       2328 47.59                              93    0.0210  125 163 
 LZ4  SZ  AML     2328 53.76        21.9 0.68                           125 163 
                                                                                
