 2008 1018 0319 39.8 L  21.347 -99.293 10.0  RAL  1 0.1 0.3LRAL                1
 GAP=360        0.49      13.0    19.0  0.0 -0.2469E+03  0.4001E+04 -0.1116E+05E
 ACTION:UPD 12-06-08 11:37 OP:RALL STATUS:               ID:20081018031939     I
 2008-10-18-0319-28S.PLUR1_003                                                 6
 STAT SP IPHASW D HRMM SECON CODA AMPLIT PERI AZIMU VELO AIN AR TRES W  DIS CAZ7
 LZ4  SN E         319 41.93                  306.3 10.3      0        3.01 126 
 LZ4  SZ IP        319 41.95                             164    0.2710 3.01 126 
 LZ4  SE IS        319 42.80                             164   -0.2710 3.01 126 
 LZ4  SN  AML      319 42.95        10.9 0.24                          3.01 126 
                                                                                
