 2008 1018 0729 28.5 L  21.664 -99.444 10.0  RAL  1 0.0 1.3LRAL                1
 GAP=360        0.30       3.4     2.1  0.0 -0.5505E+01  0.4001E+04 -0.1116E+05E
 ACTION:UPD 12-06-08 11:37 OP:RALL STATUS:               ID:20081018072928     I
 2008-10-18-0729-21S.PLUR1_003                                                 6
 STAT SP IPHASW D HRMM SECON CODA AMPLIT PERI AZIMU VELO AIN AR TRES W  DIS CAZ7
 LZ4  SN IP        729 35.48                              99    0.0110 41.1 154 
 LZ4  SZ E         729 35.62                  334.0  7.8      0        41.1 154 
 LZ4  SE IS        729 40.51                              99   -0.0110 41.1 154 
 LZ4  SZ  AML      729 41.68        29.3 0.28                          41.1 154 
                                                                                
