 2008 1018 0721 10.5 L  21.700 -99.442 10.0  RAL  1 0.0 1.6LRAL                1
 GAP=360        0.30       3.5     2.0  0.0 -0.5014E+01  0.4001E+04 -0.1116E+05E
 ACTION:UPD 12-06-08 11:37 OP:RALL STATUS:               ID:20081018072110     I
 2008-10-18-0721-03S.PLUR1_003                                                 6
 STAT SP IPHASW D HRMM SECON CODA AMPLIT PERI AZIMU VELO AIN AR TRES W  DIS CAZ7
 LZ4  SN IP        721 17.94                              98    0.0110 44.6 156 
 LZ4  SZ E         721 18.00                  336.4  8.6      0        44.6 156 
 LZ4  SE IS        721 23.37                              98   -0.0110 44.6 156 
 LZ4  SZ  AML      721 24.99        57.3 0.36                          44.6 156 
                                                                                
