 2008 1018 0903 32.5 L  21.331 -99.283 10.0  RAL  1 0.1 0.2LRAL                1
 GAP=360        0.97     998.9   145.9  0.0  0.1457E+06  0.4001E+04 -0.1116E+05E
 ACTION:UPD 12-06-08 11:37 OP:RALL STATUS:               ID:20081018090332     I
 2008-10-18-0903-21S.PLUR1_003                                                 6
 STAT SP IPHASW D HRMM SECON CODA AMPLIT PERI AZIMU VELO AIN AR TRES W  DIS CAZ7
 LZ4  SZ E         9 3 34.40                  276.9 11.9      4        1.41  93 
 LZ4  SN IP        9 3 34.53                             172    0.1610 1.41  93 
 LZ4  SE IS        9 3 35.55                             172   -0.1610 1.41  93 
 LZ4  SZ  AML      9 3 35.73         8.7 0.68                          1.41  93 
                                                                                
