 2008 1018 1639 21.7 L  21.348 -99.293 10.0  RAL  1 0.1 0.2LRAL                1
 GAP=360        0.64      16.7    23.7  0.0 -0.3948E+03  0.4001E+04 -0.1116E+05E
 ACTION:UPD 12-06-08 11:37 OP:RALL STATUS:               ID:20081018163921     I
 2008-10-18-1639-10S.PLUR1_003                                                 6
 STAT SP IPHASW D HRMM SECON CODA AMPLIT PERI AZIMU VELO AIN AR TRES W  DIS CAZ7
 LZ4  SZ E        1639 23.07                  307.1 80.9      0        3.11 127 
 LZ4  SN IP       1639 24.01                             163    0.3810 3.11 127 
 LZ4  SE IS       1639 24.63                             163   -0.3810 3.11 127 
 LZ4  SZ  AML     1639 24.86         7.9 0.20                          3.11 127 
                                                                                
