 2008 1018 1700 13.4 L  21.600 -99.360 10.0  RAL  1 0.0 0.5LRAL                1
 GAP=360        0.30       4.1     1.9  0.0 -0.7482E+01  0.4001E+04 -0.1116E+05E
 ACTION:UPD 12-06-08 11:37 OP:RALL STATUS:               ID:20081018170013     I
 2008-10-18-1700-04S.PLUR1_003                                                 6
 STAT SP IPHASW D HRMM SECON CODA AMPLIT PERI AZIMU VELO AIN AR TRES W  DIS CAZ7
 LA4  SZ E        17 0 16.17                  337.8  9.1      0        13.9 158 
 LA4  SN IP       17 0 16.39                             124    0.0110 13.9 158 
 LA4  SE IS       17 0 18.53                             124   -0.0110 13.9 158 
 LA4  SZ  AML     17 0 18.94        10.1 0.28                          13.9 158 
                                                                                
