 2008 1018 1948 51.8 L  21.278 -99.268 10.0  RAL  1 0.0 0.4LRAL                1
 GAP=360        0.30       7.4     0.3  0.0 -0.1543E+01  0.2518E+05 -0.1552E+06E
 ACTION:UPD 12-06-08 11:37 OP:RALL STATUS:               ID:20081018194851     I
 2008-10-18-1948-41S.PLUR1_003                                                 6
 STAT SP IPHASW D HRMM SECON CODA AMPLIT PERI AZIMU VELO AIN AR TRES W  DIS CAZ7
 LZ4  SZ E        1948 53.77                  178.5 11.2      0        5.84 359 
 LZ4  SN IP       1948 53.84                             150    0.0110 5.84 359 
 LZ4  SE IS       1948 55.34                             150   -0.0110 5.84 359 
 LZ4  SZ  AML     1948 56.44        11.6 0.68                          5.84 359 
                                                                                
