 2008 1018 1410 13.3 L  21.338 -99.286 10.0  RAL  1 0.2 0.7LRAL                1
 GAP=360        0.65      19.4    44.6  0.0 -0.8638E+03  0.4001E+04 -0.1116E+05E
 ACTION:UPD 12-06-08 11:37 OP:RALL STATUS:               ID:20081018141013     I
 2008-10-18-1410-01S.PLUR1_003                                                 6
 STAT SP IPHASW D HRMM SECON CODA AMPLIT PERI AZIMU VELO AIN AR TRES W  DIS CAZ7
 LZ4  SZ E        1410 15.51                  295.0  7.4      0        1.86 115 
 LZ4  SN IP       1410 15.55                             170    0.3910 1.86 115 
 LZ4  SE IS       1410 16.12                             170   -0.3910 1.86 115 
 LZ4  SZ  AML     1410 16.69        27.1 0.32                          1.86 115 
                                                                                
