 2008 1018 1512 38.8 L  21.312 -99.298 10.0  RAL  1 0.1 0.5LRAL                1
 GAP=360        0.39       8.3    12.9  0.0  0.1075E+03  0.4001E+04 -0.1116E+05E
 ACTION:UPD 12-06-08 11:37 OP:RALL STATUS:               ID:20081018151238     I
 2008-10-18-1512-27S.PLUR1_003                                                 6
 STAT SP IPHASW D HRMM SECON CODA AMPLIT PERI AZIMU VELO AIN AR TRES W  DIS CAZ7
 LZ4  SZ E        1512 40.70                  235.3 26.9      0        3.64  55 
 LZ4  SN IP       1512 40.86                             160    0.1710 3.64  55 
 LZ4  SE IS       1512 41.92                             160   -0.1710 3.64  55 
 LZ4  SZ  AML     1512 42.11        17.3 0.44                          3.64  55 
                                                                                
