 2008 1018 1132 16.8 L  21.304 -99.299 10.0  RAL  1 0.1 0.5LRAL                1
 GAP=360        0.35       8.0     8.7  0.0  0.6982E+02  0.4001E+04 -0.1116E+05E
 ACTION:UPD 12-06-08 11:37 OP:RALL STATUS:               ID:20081018113216     I
 2008-10-18-1132-05S.PLUR1_003                                                 6
 STAT SP IPHASW D HRMM SECON CODA AMPLIT PERI AZIMU VELO AIN AR TRES W  DIS CAZ7
 LZ4  SZ E        1132 18.91                  225.6 15.3      0        4.32  46 
 LZ4  SN IP       1132 18.94                             157    0.1310 4.32  46 
 LZ4  SE IS       1132 20.11                             157   -0.1310 4.32  46 
 LZ4  SZ  AML     1132 20.30        15.7 0.40                          4.32  46 
                                                                                
