 2008 1018 1715  2.2 R  22.440 -99.462 10.0  RAL  2 0.2 1.9LRAL                1
 GAP=359        3.21      90.7    28.4999.9 -0.1251E+04  0.2518E+05 -0.1552E+06E
 ACTION:UPD 12-06-08 11:37 OP:RALL STATUS:               ID:20081018171502     I
 2008-10-18-1715-07S.PLUR1_006                                                 6
 STAT SP IPHASW D HRMM SECON CODA AMPLIT PERI AZIMU VELO AIN AR TRES W  DIS CAZ7
 LA4  SZ E        1715 19.28                    1.7 13.6     10         107 171 
 LA4  SN IP       1715 19.41                              93    0.0310  107 171 
 LA4  SE IS       1715 32.07                              93    0.1810  107 171 
 LA4  SZ  AML     1715 41.55        40.7 0.44                           107 171 
 LZ4  SZ E        1715 21.80                  339.0  8.9    -11         124 171 
 LZ4  SN IP       1715 22.02                              93   -0.0410  124 171 
 LZ4  SE IS       1715 36.35                              93   -0.1810  124 171 
 LZ4  SZ  AML     1715 37.25        44.1 0.28                           124 171 
                                                                                
