 2008 1018 2017 46.9 L  21.670 -99.306  2.5  RAL  2 0.3 1.2LRAL                1
 GAP=353        4.48      39.6     5.7 77.5  0.1359E+02 -0.2105E+02 -0.9515E+03E
 ACTION:UPD 12-06-08 11:37 OP:RALL STATUS:               ID:20081018201746     I
 2008-10-18-2017-35S.PLUR1_006                                                 6
 STAT SP IPHASW D HRMM SECON CODA AMPLIT PERI AZIMU VELO AIN AR TRES W  DIS CAZ7
 LA4  SZ E        2017 50.17                   11.2  7.9     10        20.6 181 
 LA4  SN IP       2017 50.24                             111   -0.3510 20.6 181 
 LA4  SE IS       2017 53.08                             111   -0.1910 20.6 181 
 LA4  SZ  AML     2017 53.91        75.1 0.24                          20.6 181 
 LZ4  SN IP       2017 53.32                              96   -0.1610 37.7 174 
 LZ4  SZ E        2017 53.36                  335.4  9.7    -18        37.7 174 
 LZ4  SE IS       2017 58.95                              96    0.7010 37.7 174 
 LZ4  SZ  AML     2018  0.48        18.3 0.56                          37.7 174 
                                                                                
