 2008 1018 2235 57.0 L  21.653 -99.375  0.0  RAL  2 0.1 0.8LRAL                1
 GAP=357        1.68      15.5     6.4233.5 -0.8874E+02  0.8362E+03 -0.2183E+04E
 ACTION:UPD 12-06-08 11:37 OP:RALL STATUS:               ID:20081018223557     I
 2008-10-18-2235-48S.PLUR1_006                                                 6
 STAT SP IPHASW D HRMM SECON CODA AMPLIT PERI AZIMU VELO AIN AR TRES W  DIS CAZ7
 LA4  SZ E        2236  0.39                  343.9  8.0      4        19.9 160 
 LA4  SN IP       2236  0.80                              93    0.2710 19.9 160 
 LA4  SE IS       2236  2.93                              93   -0.1510 19.9 160 
 LA4  SZ  AML     2236  3.24        27.1 0.60                          19.9 160 
 LZ4  SN E        2236  3.39                  336.1 14.0     -6        37.3 163 
 LZ4  SZ IP       2236  3.44                              92   -0.1210 37.3 163 
 LZ4  SE IS       2236  8.31                              92   -0.0110 37.3 163 
 LZ4  SN  AML     2236  9.86         7.3 0.28                          37.3 163 
                                                                                
