 2008 1018 2307  8.0 L  21.272 -99.272 10.0  RAL  1 0.0 0.5LRAL                1
 GAP=360        0.30       6.8     0.4  0.0  0.2190E+01  0.8362E+03 -0.2183E+04E
 ACTION:UPD 12-06-08 11:37 OP:RALL STATUS:               ID:20081018230708     I
 2008-10-18-2306-57S.PLUR1_003                                                 6
 STAT SP IPHASW D HRMM SECON CODA AMPLIT PERI AZIMU VELO AIN AR TRES W  DIS CAZ7
 LZ4  SZ E        23 7 10.07                  182.5 11.8      0        6.50   3 
 LZ4  SN IP       23 7 10.13                             147    0.0010 6.50   3 
 LZ4  SE IS       23 7 11.67                             147    0.0010 6.50   3 
 LZ4  SZ  AML     23 7 12.19        14.4 0.68                          6.50   3 
                                                                                
