 2008 1018 2126 16.9 L  21.680 -99.433  4.5  RAL  2 0.3 1.3LRAL                1
 GAP=353        3.32     103.2    61.4234.1 -0.6287E+04 -0.1389E+05  0.2342E+05E
 ACTION:UPD 12-06-08 11:37 OP:RALL STATUS:               ID:20081018212616     I
 2008-10-18-2126-07S.PLUR1_006                                                 6
 STAT SP IPHASW D HRMM SECON CODA AMPLIT PERI AZIMU VELO AIN AR TRES W  DIS CAZ7
 LA4  SZ E        2126 21.51                  336.8  8.8      7        25.2 149 
 LA4  SN IP       2126 21.54                              63    0.1510 25.2 149 
 LA4  SE IS       2126 23.79                              63   -0.8510 25.2 149 
 LA4  SZ  AML     2126 24.03        71.8 0.24                          25.2 149 
 LZ4  SN IP       2126 24.29                              63    0.2710 42.2 156 
 LZ4  SZ E        2126 24.36                  322.8 12.2    -12        42.2 156 
 LZ4  SE IS       2126 29.62                              63    0.4310 42.2 156 
 LZ4  SZ  AML     2126 31.55        17.1 0.36                          42.2 156 
                                                                                
