 2008 1018 2354 51.6 L  21.292 -99.261 10.0  RAL  1 0.0 0.4LRAL                1
 GAP=360        0.30       9.3     1.9  0.0 -0.1777E+02  0.8362E+03 -0.2183E+04E
 ACTION:UPD 12-06-08 11:37 OP:RALL STATUS:               ID:20081018235451     I
 2008-10-18-2354-40S.PLUR1_003                                                 6
 STAT SP IPHASW D HRMM SECON CODA AMPLIT PERI AZIMU VELO AIN AR TRES W  DIS CAZ7
 LZ4  SN IP       2354 53.55                             157    0.0210 4.39 349 
 LZ4  SZ E        2354 53.67                  169.1 14.2      0        4.39 349 
 LZ4  SE IS       2354 54.94                             157   -0.0210 4.39 349 
 LZ4  SZ  AML     2354 56.94        14.1 0.64                          4.39 349 
                                                                                
