 2008 1019 0644  2.3 R  21.816 -99.920 10.0  RAL  1 0.0 1.3LRAL                1
 GAP=360        0.30       2.9     3.5  0.0 -0.4606E+01 -0.2122E+02 -0.3091E+03E
 ACTION:UPD 12-06-08 11:37 OP:RALL STATUS:               ID:20081019064402     I
 2008-10-19-0644-12S.PLUR1_003                                                 6
 STAT SP IPHASW D HRMM SECON CODA AMPLIT PERI AZIMU VELO AIN AR TRES W  DIS CAZ7
 LZ4  SZ IP        644 16.19                              94    0.0110 86.1 128 
 LZ4  SN E         644 16.20                  308.7  7.0      0        86.1 128 
 LZ4  SE IS        644 26.31                              94   -0.0110 86.1 128 
 LZ4  SN  AML      644 26.72        15.1 0.20                          86.1 128 
                                                                                
