 2008 1019 0102 51.7 L  21.605 -99.349 10.0  RAL  1 0.0 0.8LRAL                1
 GAP=360        0.30       4.3     1.5  0.0 -0.5960E+01  0.8362E+03 -0.2183E+04E
 ACTION:UPD 12-06-08 11:37 OP:RALL STATUS:               ID:20081019010251     I
 2008-10-19-0102-42S.PLUR1_003                                                 6
 STAT SP IPHASW D HRMM SECON CODA AMPLIT PERI AZIMU VELO AIN AR TRES W  DIS CAZ7
 LA4  SZ E         1 2 54.60                  342.9  9.5      0        14.1 163 
 LA4  SN IP        1 2 54.63                             124    0.0010 14.1 163 
 LA4  SE IS        1 2 56.79                             124    0.0010 14.1 163 
 LA4  SZ  AML      1 2 56.89        22.0 0.32                          14.1 163 
                                                                                
