 2008 1019 0619 55.2 L  21.583 -99.301  1.1  RAL  2 0.1 1.2LRAL                1
 GAP=349        1.29       9.7     1.3 75.2  0.5524E+01 -0.2122E+02 -0.3091E+03E
 ACTION:UPD 12-06-08 11:37 OP:RALL STATUS:               ID:20081019061955     I
 2008-10-19-0619-42S.PLUR1_006                                                 6
 STAT SP IPHASW D HRMM SECON CODA AMPLIT PERI AZIMU VELO AIN AR TRES W  DIS CAZ7
 LA4  SN IP        619 57.04                              96   -0.1010 11.0 184 
 LA4  SZ E         619 57.07                    6.1  7.6      2        11.0 184 
 LA4  SE IS        619 58.39                              96   -0.1810 11.0 184 
 LA4  SZ  AML      619 59.16       127.9 0.44                          11.0 184 
 LZ4  SZ E         619 59.85                  348.1  9.8     -4        28.1 173 
 LZ4  SN IP        619 59.91                              92   -0.1910 28.1 173 
 LZ4  SE IS        620  4.16                              92    0.4710 28.1 173 
 LZ4  SZ  AML      620  8.35        26.5 0.28                          28.1 173 
                                                                                
