 2008 1019 0538 32.6 L  21.335 -99.279 10.0  RAL  1 0.3 0.1LRAL                1
 GAP=360        3.21     999.9   999.9  0.0  0.8021E+08  0.1250E+02 -0.6976E+01E
 ACTION:UPD 12-06-08 11:37 OP:RALL STATUS:               ID:20081019053832     I
 2008-10-19-0538-21S.PLUR1_003                                                 6
 STAT SP IPHASW D HRMM SECON CODA AMPLIT PERI AZIMU VELO AIN AR TRES W  DIS CAZ7
 LZ4  SZ IP        538 34.69                             174    0.2510 1.10 116 
 LZ4  SN E         538 34.89                  280.7 15.7    -14        1.10 116 
 LZ4  SE IS        538 35.54                             174   -0.2510 1.10 116 
 LZ4  SN  AML      538 35.61         6.5 0.20                          1.10 116 
                                                                                
