 2008 1019 0621 35.6 L  21.554 -99.308 10.0  RAL  1 0.0 0.1LRAL                1
 GAP=360        0.30       6.0     0.3  0.0  0.7535E+00 -0.2122E+02 -0.3091E+03E
 ACTION:UPD 12-06-08 11:37 OP:RALL STATUS:               ID:20081019062135     I
 2008-10-19-0621-25S.PLUR1_003                                                 6
 STAT SP IPHASW D HRMM SECON CODA AMPLIT PERI AZIMU VELO AIN AR TRES W  DIS CAZ7
 LA4  SZ E         621 37.85                    1.1 10.2      0        7.81 181 
 LA4  SN IP        621 37.87                             142    0.0010 7.81 181 
 LA4  SE IS        621 39.51                             142    0.0010 7.81 181 
 LA4  SZ  AML      621 39.80         6.0 0.28                          7.81 181 
                                                                                
