 2008 1019 0144 30.0 L  21.468 -99.111 10.0  RAL  1 0.0 0.7LRAL                1
 GAP=360        0.30       0.6     4.3  0.0 -0.1473E+01  0.1068E+01 -0.5848E+00E
 ACTION:UPD 12-06-08 11:37 OP:RALL STATUS:               ID:20081019014430     I
 2008-10-19-0144-22S.PLUR1_003                                                 6
 STAT SP IPHASW D HRMM SECON CODA AMPLIT PERI AZIMU VELO AIN AR TRES W  DIS CAZ7
 LA4  SZ E         144 33.83                   94.9 18.6      0        20.6 275 
 LA4  SN IP        144 33.88                             113    0.0210 20.6 275 
 LA4  SE IS        144 36.67                             113   -0.0210 20.6 275 
 LA4  SZ  AML      144 37.44        11.9 0.32                          20.6 275 
                                                                                
