 2008 1019 0904  3.2 L  21.591 -99.530 10.0  RAL  1 0.0 1.0LRAL                1
 GAP=360        0.30       2.8     2.9  0.0 -0.7051E+01 -0.2122E+02 -0.3091E+03E
 ACTION:UPD 12-06-08 11:37 OP:RALL STATUS:               ID:20081019090403     I
 2008-10-19-0904-00S.PLUR1_003                                                 6
 STAT SP IPHASW D HRMM SECON CODA AMPLIT PERI AZIMU VELO AIN AR TRES W  DIS CAZ7
 LZ4  SZ IP        9 4  9.88                             100    0.0210 39.5 137 
 LZ4  SN E         9 4  9.99                  316.8 20.6      0        39.5 137 
 LZ4  SE IS        9 4 14.72                             100   -0.0210 39.5 137 
 LZ4  SN  AML      9 4 15.98        16.2 0.24                          39.5 137 
                                                                                
