 2008 1019 0501 51.7 L  21.711 -99.454  0.5  RAL  2 0.2 1.2LRAL                1
 GAP=354        2.72      19.2    12.6 21.0 -0.1982E+03  0.1250E+02 -0.6976E+01E
 ACTION:UPD 12-06-08 11:37 OP:RALL STATUS:               ID:20081019050151     I
 2008-10-19-0501-44S.PLUR1_006                                                 6
 STAT SP IPHASW D HRMM SECON CODA AMPLIT PERI AZIMU VELO AIN AR TRES W  DIS CAZ7
 LA4  SZ E         5 1 56.89                  336.1  8.4      7        29.3 149 
 LA4  SN IP        5 1 56.89                              93    0.1010 29.3 149 
 LA4  SE IS        5 2  0.30                              93   -0.2410 29.3 149 
 LA4  SZ  AML      5 2  1.64        38.2 0.32                          29.3 149 
 LZ4  SN IP        5 2  0.07                              63    0.3810 46.2 156 
 LZ4  SZ E         5 2  0.16                  324.6  9.5    -10        46.2 156 
 LZ4  SE IS        5 2  5.30                              63   -0.2410 46.2 156 
 LZ4  SZ  AML      5 2  6.56        19.2 0.36                          46.2 156 
                                                                                
