 2008 1019 0148 55.7 L  21.332 -99.273  3.8  RAL  3 0.1 0.5LRAL                1
 GAP=151        0.95       0.4     1.1  4.3 -0.2897E+00  0.4055E+00 -0.1045E+00E
 ACTION:UPD 12-06-08 11:37 OP:RALL STATUS:               ID:20081019014855     I
 2008-10-19-0148-42S.PLUR1_009                                                 6
 STAT SP IPHASW D HRMM SECON CODA AMPLIT PERI AZIMU VELO AIN AR TRES W  DIS CAZ7
 LZ4  SZ E         148 56.42                  292.1  7.4      0        0.43 112 
 LZ4  SN IP        148 56.50                             175   -0.0810 0.43 112 
 LZ4  SE IS        148 57.15                             175   -0.0410 0.43 112 
 LZ4  SZ  AML      148 57.27       172.9 0.16                          0.43 112 
 LD5  SN IP        148 58.68                             106   -0.1210 16.8 197 
 LD5  SZ E         148 58.71                   19.3 10.5      3        16.8 197 
 LD5  SE IS        149  1.51                             106    0.4710 16.8 197 
 LD5  SZ  AML      149  2.21         1.8 0.18                          16.8 197 
 LA4  SN IP        148 58.53                             106   -0.3210 17.2 348 
 LA4  SZ E         148 58.55                  171.1  9.6      4        17.2 348 
 LA4  SE IS        149  1.22                             106    0.0910 17.2 348 
 LA4  SZ  AML      149  1.55        20.7 0.32                          17.2 348 
                                                                                
