 2008 1019 0120 25.2 L  21.339 -99.287 10.0  RAL  1 0.1 0.8LRAL                1
 GAP=360        0.56      15.9    34.8  0.0 -0.5530E+03  0.7776E+01  0.9899E+01E
 ACTION:UPD 12-06-08 11:37 OP:RALL STATUS:               ID:20081019012025     I
 2008-10-19-0120-13S.PLUR1_003                                                 6
 STAT SP IPHASW D HRMM SECON CODA AMPLIT PERI AZIMU VELO AIN AR TRES W  DIS CAZ7
 LZ4  SZ E         120 27.32                  296.1  8.2      0        2.05 116 
 LZ4  SN IP        120 27.34                             169    0.3210 2.05 116 
 LZ4  SE IS        120 28.05                             169   -0.3210 2.05 116 
 LZ4  SZ  AML      120 28.13        33.7 0.16                          2.05 116 
                                                                                
