 2008 1019 0759 26.2 L  21.626 -99.436 10.0  RAL  1 0.0 1.2LRAL                1
 GAP=360        0.30       3.4     2.1  0.0 -0.5918E+01 -0.2122E+02 -0.3091E+03E
 ACTION:UPD 12-06-08 11:37 OP:RALL STATUS:               ID:20081019075926     I
 2008-10-19-0759-22S.PLUR1_003                                                 6
 STAT SP IPHASW D HRMM SECON CODA AMPLIT PERI AZIMU VELO AIN AR TRES W  DIS CAZ7
 LZ4  SZ E         759 32.19                  332.2 12.3      0        37.0 152 
 LZ4  SN IP        759 32.57                             101    0.0210 37.0 152 
 LZ4  SE IS        759 37.14                             101   -0.0210 37.0 152 
 LZ4  SZ  AML      759 39.00        26.1 0.28                          37.0 152 
                                                                                
