 2008 1019 0141 52.1 L  21.343 -99.292  3.1  RAL  3 0.1 0.6LRAL                1
 GAP=164        0.98       0.6     1.0  5.4 -0.5733E+00  0.1068E+01 -0.5848E+00E
 ACTION:UPD 12-06-08 11:37 OP:RALL STATUS:               ID:20081019014152     I
 2008-10-19-0141-38S.PLUR1_009                                                 6
 STAT SP IPHASW D HRMM SECON CODA AMPLIT PERI AZIMU VELO AIN AR TRES W  DIS CAZ7
 LZ4  SZ E         141 52.71                  300.3  7.9      0        2.65 120 
 LZ4  SN IP        141 53.33                             147    0.3410 2.65 120 
 LZ4  SE IS        141 53.38                             147   -0.2410 2.65 120 
 LZ4  SZ  AML      141 53.51       164.1 0.16                          2.65 120 
 LA4  SZ E         141 54.75                  170.8  9.8     -2        15.7 353 
 LA4  SN IP        141 54.76                             105   -0.2210 15.7 353 
 LA4  SE IS        141 57.47                             105    0.4210 15.7 353 
 LA4  SZ  AML      141 57.65        19.8 0.20                          15.7 353 
 LD5  SN IP        141 54.92                             103   -0.3710 17.6 190 
 LD5  SZ E         141 54.92                    6.6 15.2     -2        17.6 190 
 LD5  SE IS        141 57.66                             103    0.0710 17.6 190 
 LD5  SZ  AML      141 58.15         2.7 0.22                          17.6 190 
                                                                                
