 2008 1019 0113 28.1 L  21.291 -99.300  2.0  RAL  3 0.2 0.6LRAL                1
 GAP=167        2.64       3.3     2.5 19.5  0.7033E+01  0.7776E+01  0.9899E+01E
 ACTION:UPD 12-06-08 11:37 OP:RALL STATUS:               ID:20081019011328     I
 2008-10-19-0113-14S.PLUR1_009                                                 6
 STAT SP IPHASW D HRMM SECON CODA AMPLIT PERI AZIMU VELO AIN AR TRES W  DIS CAZ7
 LZ4  SZ E         113 28.93                  220.1 11.0      4        5.46  36 
 LZ4  SN IP        113 28.96                             133   -0.2110 5.46  36 
 LZ4  SE IS        113 30.14                             133    0.1810 5.46  36 
 LZ4  SZ  AML      113 30.52       185.7 0.44                          5.46  36 
 LD5  SZ E         113 29.70                   14.3  8.2      4        11.7 190 
 LD5  SN IP        113 29.71                             110   -0.4810 11.7 190 
 LD5  SE IS        113 31.61                             110   -0.1310 11.7 190 
 LD5  SZ  AML      113 31.93         5.4 0.22                          11.7 190 
 LA4  SZ E         113 31.51                  164.8  9.7    -12        21.4 358 
 LA4  SN IP        113 31.57                             102   -0.2810 21.4 358 
 LA4  SE IS        113 35.53                             102    0.9210 21.4 358 
 LA4  SZ  AML      113 37.94         9.5 0.60                          21.4 358 
                                                                                
