 2008 1019 0609 53.6 L  21.657 -99.362  0.0  RAL  2 0.3 1.3LRAL                1
 GAP=359        5.83      55.3    19.3810.9 -0.9111E+03  0.8347E+04 -0.2718E+05E
 ACTION:UPD 12-06-08 11:37 OP:RALL STATUS:               ID:20081019060953     I
 2008-10-19-0609-43S.PLUR1_006                                                 6
 STAT SP IPHASW D HRMM SECON CODA AMPLIT PERI AZIMU VELO AIN AR TRES W  DIS CAZ7
 LA4  SN IP        6 9 57.18                              93    0.1010 20.0 164 
 LA4  SZ E         6 9 57.21                  357.6  7.8     14        20.0 164 
 LA4  SE IS        6 9 59.23                              93   -0.4110 20.0 164 
 LA4  SZ  AML      6 9 59.51       115.6 0.28                          20.0 164 
 LZ4  SN IP        610  0.21                              92    0.0910 37.4 165 
 LZ4  SZ E         610  0.65                  320.2  7.3    -24        37.4 165 
 LZ4  SZ  AML      610  5.04        19.7 0.48                          37.4 165 
 LZ4  SE IS        610  5.13                              92    0.2310 37.4 165 
                                                                                
