 2008 1019 0145 25.8 L  21.338 -99.282 10.0  RAL  2 0.3 0.9LRAL                1
 GAP=226        3.31       1.5     4.9 22.6  0.3897E+01  0.3187E+01 -0.1089E+01E
 ACTION:UPD 12-06-08 11:37 OP:RALL STATUS:               ID:20081019014525     I
 2008-10-19-0145-12S.PLUR1_006                                                 6
 STAT SP IPHASW D HRMM SECON CODA AMPLIT PERI AZIMU VELO AIN AR TRES W  DIS CAZ7
 LZ4  SZ E         145 27.44                  298.3  8.7     -4        1.50 124 
 LZ4  SN IP        145 27.50                             172   -0.1910 1.50 124 
 LZ4  SE IS        145 28.17                             172   -0.8710 1.50 124 
 LZ4  SZ  AML      145 28.53       100.1 0.28                          1.50 124 
 LA4  SZ E         145 29.49                  155.9 10.2    -13        16.3 350 
 LA4  SN IP        145 29.50                             116    0.3910 16.3 350 
 LA4  SE IS        145 32.18                             116    0.6810 16.3 350 
 LA4  SZ  AML      145 32.51        12.1 0.36                          16.3 350 
                                                                                
