 2008 1019 0232  0.8 L  21.477 -99.435  4.3  RAL  2 0.1 0.4LRAL                1
 GAP=313        0.42       0.6     4.5  2.6  0.1214E+01  0.6936E+01  0.6015E+00E
 ACTION:UPD 12-06-08 11:37 OP:RALL STATUS:               ID:20081019023200     I
 2008-10-19-0231-50S.PLUR1_006                                                 6
 STAT SP IPHASW D HRMM SECON CODA AMPLIT PERI AZIMU VELO AIN AR TRES W  DIS CAZ7
 LA4  SZ E         232  2.79                  266.6 12.0      0        13.1  87 
 LA4  SN IP        232  3.46                             112    0.1610 13.1  87 
 LA4  SE IS        232  5.02                             112   -0.0910 13.1  87 
 LA4  SZ  AML      232  5.68        11.3 0.56                          13.1  87 
 LZ4  SZ IP        232  4.87                              63   -0.1610 23.6 133 
 LZ4  SN E         232  4.90                                           23.6 133 
 LZ4  SE IS        232  8.19                              63    0.0910 23.6 133 
 LZ4  SN  AML      232  9.04         5.3 0.32                          23.6 133 
                                                                                
