 2008 1019 1842 47.1 L  21.340 -99.288  7.1  RAL  2 0.1 0.6LRAL                1
 GAP=234        0.66       0.6     1.1  4.2 -0.5711E+00  0.1195E+01 -0.6141E+00E
 ACTION:UPD 12-06-08 11:37 OP:RALL STATUS:               ID:20081019184247     I
 2008-10-19-1842-33S.PLUR1_006                                                 6
 STAT SP IPHASW D HRMM SECON CODA AMPLIT PERI AZIMU VELO AIN AR TRES W  DIS CAZ7
 LZ4  SZ E        1842 48.09                  297.9  8.1      0        2.11 118 
 LZ4  SN IP       1842 48.10                             164   -0.4710 2.11 118 
 LZ4  SE IS       1842 49.77                             164    0.1710 2.11 118 
 LZ4  SZ  AML     1842 50.88        31.0 0.16                          2.11 118 
 LA4  SZ E        1842 50.19                  172.5  8.6      0        16.1 352 
 LA4  SN IP       1842 50.21                             107    0.0110 16.1 352 
 LA4  SE IS       1842 52.71                             107    0.2910 16.1 352 
 LA4  SZ  AML     1842 53.10        10.3 0.40                          16.1 352 
                                                                                
