 2008 1019 1657 57.2 L  21.239 -99.276 10.0  RAL  2 0.1 0.2LRAL                1
 GAP=214        1.76       2.5     1.8 20.0  0.3380E+01 -0.5208E+01 -0.8163E+01E
 ACTION:UPD 12-06-08 11:37 OP:RALL STATUS:               ID:20081019165757     I
 2008-10-19-1657-46S.PLUR1_006                                                 6
 STAT SP IPHASW D HRMM SECON CODA AMPLIT PERI AZIMU VELO AIN AR TRES W  DIS CAZ7
 LD5  SZ E        1657 59.46                   43.7 11.4      6        7.45 218 
 LD5  SN IP       1657 59.69                             143    0.3210 7.45 218 
 LD5  SE IS       1658  1.04                             143    0.0610 7.45 218 
 LD5  SZ  AML     1658  1.84         2.5 0.48                          7.45 218 
 LZ4  SN IP       1657 59.64                             130    0.0010 10.1   4 
 LZ4  SZ E        1657 59.71                  189.6  8.4      6        10.1   4 
 LZ4  SE IS       1658  1.07                             130   -0.3810 10.1   4 
 LZ4  SZ  AML     1658  1.25        17.2 0.24                          10.1   4 
                                                                                
