 2008 1019 1828  6.5 L  21.328 -99.285 10.0  RAL  1 0.1 0.7LRAL                1
 GAP=360        0.96     999.9   166.6  0.0 -0.1940E+06  0.8506E+03 -0.3293E+04E
 ACTION:UPD 12-06-08 11:37 OP:RALL STATUS:               ID:20081019182806     I
 2008-10-19-1827-54S.PLUR1_003                                                 6
 STAT SP IPHASW D HRMM SECON CODA AMPLIT PERI AZIMU VELO AIN AR TRES W  DIS CAZ7
 LZ4  SZ E        1828  8.39                  262.9 10.7      4        1.61  79 
 LZ4  SN IP       1828  8.42                             171    0.1010 1.61  79 
 LZ4  SE IS       1828  9.56                             171   -0.1010 1.61  79 
 LZ4  SZ  AML     1828  9.89        28.8 0.56                          1.61  79 
                                                                                
