 2008 1019 1211 40.8 L  21.567 -99.383 29.6  RAL  2 0.4 1.3LRAL                1
 GAP=345        5.86      12.4     9.9 68.1 -0.1151E+03  0.2159E+02 -0.2833E+02E
 ACTION:UPD 12-06-08 11:37 OP:RALL STATUS:               ID:20081019121140     I
 2008-10-19-1211-31S.PLUR1_006                                                 6
 STAT SP IPHASW D HRMM SECON CODA AMPLIT PERI AZIMU VELO AIN AR TRES W  DIS CAZ7
 LZ4  SN IP       1211 46.37                             174   -0.9710 28.7 156 
 LZ4  SZ E        1211 46.57                  320.2  7.2    -15        28.7 156 
 LZ4  SE IS       1211 52.57                             174    0.4510 28.7 156 
 LZ4  SZ  AML     1211 54.34       111.9 0.48                          28.7 156 
 LD5  SZ E        1211 48.67                   14.5 16.1     23        42.7 171 
 LD5  SN IP       1211 48.93                             158   -0.0410 42.7 171 
 LD5  SE IS       1211 55.51                             158    0.5710 42.7 171 
 LD5  SZ  AML     1211 57.12         5.6 0.46                          42.7 171 
                                                                                
