 2008 1019 1703 22.1 L  21.631 -99.347  0.0  RAL  2 0.1 1.1LRAL                1
 GAP=360        2.39      22.1     6.6264.8 -0.1231E+03  0.8506E+03 -0.3293E+04E
 ACTION:UPD 12-06-08 11:37 OP:RALL STATUS:               ID:20081019170322     I
 2008-10-19-1703-11S.PLUR1_006                                                 6
 STAT SP IPHASW D HRMM SECON CODA AMPLIT PERI AZIMU VELO AIN AR TRES W  DIS CAZ7
 LA4  SN IP       17 3 25.11                              94    0.0810 16.7 166 
 LA4  SZ E        17 3 25.13                  341.4  9.4     -4        16.7 166 
 LA4  SE IS       17 3 26.91                              94   -0.2610 16.7 166 
 LA4  SZ  AML     17 3 27.00        56.7 0.24                          16.7 166 
 LZ4  SN IP       17 3 27.99                              92   -0.0810 34.1 166 
 LZ4  SZ E        17 3 28.15                  356.7 30.6     10        34.1 166 
 LZ4  SZ  AML     17 3 32.47        16.7 0.24                          34.1 166 
 LZ4  SE IS       17 3 32.68                              92    0.2510 34.1 166 
                                                                                
