 2008 1019 1330 27.3 L  21.334 -99.286 10.0  RAL  1 0.1 0.9LRAL                1
 GAP=360        1.21     124.8    77.2  0.0 -0.9621E+04  0.2159E+02 -0.2833E+02E
 ACTION:UPD 12-06-08 11:37 OP:RALL STATUS:               ID:20081019133027     I
 2008-10-19-1330-14S.PLUR1_003                                                 6
 STAT SP IPHASW D HRMM SECON CODA AMPLIT PERI AZIMU VELO AIN AR TRES W  DIS CAZ7
 LZ4  SZ E        1330 29.42                  285.5  7.8      5        1.70 100 
 LZ4  SN IP       1330 29.45                             171    0.3110 1.70 100 
 LZ4  SE IS       1330 30.18                             171   -0.3110 1.70 100 
 LZ4  SZ  AML     1330 30.50        43.8 0.32                          1.70 100 
                                                                                
