 2008 1019 1816 29.6 L  21.333 -99.283 10.0  RAL  1 0.3 1.0LRAL                1
 GAP=360        3.83     865.0   582.3  0.0  0.5035E+06  0.8506E+03 -0.3293E+04E
 ACTION:UPD 12-06-08 11:37 OP:RALL STATUS:               ID:20081019181629     I
 2008-10-19-1816-17S.PLUR1_003                                                 6
 STAT SP IPHASW D HRMM SECON CODA AMPLIT PERI AZIMU VELO AIN AR TRES W  DIS CAZ7
 LZ4  SZ E        1816 31.85                  263.4 10.8    -17        1.38 101 
 LZ4  SN IP       1816 31.88                             172    0.4310 1.38 101 
 LZ4  SE IS       1816 32.36                             172   -0.4310 1.38 101 
 LZ4  SZ  AML     1816 32.46        51.1 0.52                          1.38 101 
                                                                                
