 2008 1019 1847  0.5 L  21.333 -99.277 10.0  RAL  1 0.1 0.5LRAL                1
 GAP=360        0.93     999.9   597.7  0.0  0.8000E+06  0.1195E+01 -0.6141E+00E
 ACTION:UPD 12-06-08 11:37 OP:RALL STATUS:               ID:20081019184700     I
 2008-10-19-1846-48S.PLUR1_003                                                 6
 STAT SP IPHASW D HRMM SECON CODA AMPLIT PERI AZIMU VELO AIN AR TRES W  DIS CAZ7
 LZ4  SZ E        1847  2.59                  290.6  9.3      4        0.85 107 
 LZ4  SN IP       1847  2.61                             175    0.3110 0.85 107 
 LZ4  SZ  AML     1847  3.03        18.8 0.92                          0.85 107 
 LZ4  SE IS       1847  3.33                             175   -0.3110 0.85 107 
                                                                                
