 2008 1019 1002  2.8 L  21.270 -99.260 10.0  RAL  1 0.0 0.8LRAL                1
 GAP=360        0.30       6.5     1.0  0.0 -0.6494E+01 -0.2122E+02 -0.3091E+03E
 ACTION:UPD 12-06-08 11:37 OP:RALL STATUS:               ID:20081019100202     I
 2008-10-19-1001-51S.PLUR1_003                                                 6
 STAT SP IPHASW D HRMM SECON CODA AMPLIT PERI AZIMU VELO AIN AR TRES W  DIS CAZ7
 LZ4  SN IP       10 2  4.98                             146    0.0110 6.86 352 
 LZ4  SZ E        10 2  5.00                  171.9 11.8      0        6.86 352 
 LZ4  SE IS       10 2  6.53                             146   -0.0110 6.86 352 
 LZ4  SZ  AML     10 2  7.03        29.5 0.52                          6.86 352 
                                                                                
