 2008 1019 1505 42.6 L                       RAL  1                            1
 ACTION:UPD 12-06-08 11:37 OP:RALL STATUS:               ID:20081019150542     I
 2008-10-19-1505-31S.PLUR1_003                                                 6
 STAT SP IPHASW D HRMM SECON CODA AMPLIT PERI AZIMU VELO AIN AR TRES W  DIS CAZ7
 LZ4  SZ IP       15 5 44.69                             150                    
 LZ4  SE IP       15 5 44.70                             150                    
 LZ4  SN E        15 5 44.71                  287.1 11.7                        
 LZ4  SN  AML     15 5 45.55         5.9 0.28                                   
                                                                                
