 2008 1019 1413 54.4 L  21.247 -99.274 10.6  RAL  2 0.1 0.3LRAL                1
 GAP=213        0.66       1.1     0.6  7.5  0.4141E+00 -0.1692E+00 -0.3185E+00E
 ACTION:UPD 12-06-08 11:37 OP:RALL STATUS:               ID:20081019141354     I
 2008-10-19-1413-43S.PLUR1_006                                                 6
 STAT SP IPHASW D HRMM SECON CODA AMPLIT PERI AZIMU VELO AIN AR TRES W  DIS CAZ7
 LD5  SZ E        1413 56.71                   35.0 11.5      0        8.25 216 
 LD5  SN IP       1413 56.84                             142    0.1010 8.25 216 
 LD5  SE IS       1413 58.11                             142   -0.3510 8.25 216 
 LD5  SZ  AML     1413 58.53         2.8 0.26                          8.25 216 
 LZ4  SZ E        1413 56.68                  182.1  9.8      0        9.29   3 
 LZ4  SN IP       1413 56.70                             139   -0.1410 9.29   3 
 LZ4  SE IS       1413 59.02                             139    0.3810 9.29   3 
 LZ4  SZ  AML     1414  0.26        27.0 0.32                          9.29   3 
                                                                                
