 2008 1019 1120  9.4 L  21.303 -99.287 10.0  RAL  1 0.1 0.5LRAL                1
 GAP=360        0.39      12.8     7.9  0.0  0.1014E+03 -0.2122E+02 -0.3091E+03E
 ACTION:UPD 12-06-08 11:37 OP:RALL STATUS:               ID:20081019112009     I
 2008-10-19-1119-58S.PLUR1_003                                                 6
 STAT SP IPHASW D HRMM SECON CODA AMPLIT PERI AZIMU VELO AIN AR TRES W  DIS CAZ7
 LZ4  SZ E        1120 11.17                  209.9 39.4      0        3.59  30 
 LZ4  SN IP       1120 11.54                             161    0.1710 3.59  30 
 LZ4  SE IS       1120 12.60                             161   -0.1710 3.59  30 
 LZ4  SZ  AML     1120 14.09        18.4 0.84                          3.59  30 
                                                                                
