 2008 1019 2101 11.2 L  21.339 -99.287 10.0  RAL  1 0.1 0.6LRAL                1
 GAP=360        0.60      17.3    37.8  0.0 -0.6537E+03  0.1195E+01 -0.6141E+00E
 ACTION:UPD 12-06-08 11:37 OP:RALL STATUS:               ID:20081019210111     I
 2008-10-19-2100-59S.PLUR1_003                                                 6
 STAT SP IPHASW D HRMM SECON CODA AMPLIT PERI AZIMU VELO AIN AR TRES W  DIS CAZ7
 LZ4  SZ E        21 1 13.40                  295.5 10.2      0        2.01 116 
 LZ4  SN IP       21 1 13.42                             169    0.3410 2.01 116 
 LZ4  SE IS       21 1 14.10                             169   -0.3410 2.01 116 
 LZ4  SZ  AML     21 1 14.24        20.0 0.20                          2.01 116 
                                                                                
