 2008 1019 2351 46.1 L  21.427 -99.360 10.0  RAL  1 0.0 0.5LRAL                1
 GAP=360        0.30       3.3     3.2  0.0 -0.1045E+02  0.1195E+01 -0.6141E+00E
 ACTION:UPD 12-06-08 11:37 OP:RALL STATUS:               ID:20081019235146     I
 2008-10-19-2351-37S.PLUR1_003                                                 6
 STAT SP IPHASW D HRMM SECON CODA AMPLIT PERI AZIMU VELO AIN AR TRES W  DIS CAZ7
 LZ4  SZ E        2351 48.92                  318.7  7.0      0        14.2 139 
 LZ4  SN IP       2351 49.07                             124    0.0210 14.2 139 
 LZ4  SE IS       2351 51.21                             124   -0.0210 14.2 139 
 LZ4  SZ  AML     2351 52.38        11.8 0.48                          14.2 139 
                                                                                
