 2008 1019 2246 32.4 L  21.337 -99.287 10.0  RAL  1 0.2 0.0LRAL                1
 GAP=360        2.28     954.2   221.3  0.0  0.2111E+06  0.1195E+01 -0.6141E+00E
 ACTION:UPD 12-06-08 11:37 OP:RALL STATUS:               ID:20081019224632     I
 2008-10-19-2246-21S.PLUR1_003                                                 6
 STAT SP IPHASW D HRMM SECON CODA AMPLIT PERI AZIMU VELO AIN AR TRES W  DIS CAZ7
 LZ4  SZ E        2246 34.51                  280.7 14.5    -10        1.95 111 
 LZ4  SN IP       2246 34.61                             169    0.3310 1.95 111 
 LZ4  SE IS       2246 35.30                             169   -0.3310 1.95 111 
 LZ4  SZ  AML     2246 36.87         5.7 0.68                          1.95 111 
                                                                                
