 2008 1019 2106 41.2 L  21.529 -99.347 10.0  RAL  1 0.0 0.6LRAL                1
 GAP=360        0.30       5.6     4.7  0.0 -0.2625E+02  0.1195E+01 -0.6141E+00E
 ACTION:UPD 12-06-08 11:37 OP:RALL STATUS:               ID:20081019210641     I
 2008-10-19-2106-30S.PLUR1_003                                                 6
 STAT SP IPHASW D HRMM SECON CODA AMPLIT PERI AZIMU VELO AIN AR TRES W  DIS CAZ7
 LA4  SZ E        21 6 43.37                  322.4  9.1      0        6.39 142 
 LA4  SN IP       21 6 43.40                             148    0.0410 6.39 142 
 LA4  SE IS       21 6 44.87                             148   -0.0410 6.39 142 
 LA4  SZ  AML     21 6 45.10        19.1 0.24                          6.39 142 
                                                                                
