 2008 1020 0544 28.6 L  21.575 -99.402  1.7  RAL  2 0.3 0.7LRAL                1
 GAP=343        4.66      10.1    12.8 29.9 -0.1267E+03 -0.2555E+02  0.2202E+02E
 ACTION:UPD 12-06-08 11:37 OP:RALL STATUS:               ID:20081020054428     I
 2008-10-20-0544-17S.PLUR1_006                                                 6
 STAT SP IPHASW D HRMM SECON CODA AMPLIT PERI AZIMU VELO AIN AR TRES W  DIS CAZ7
 LA4  SZ E         544 30.79                  306.3  8.9     -9        13.9 136 
 LA4  SN IP        544 30.82                             145   -0.2210 13.9 136 
 LA4  SE IS        544 32.80                             145   -0.0510 13.9 136 
 LA4  SZ  AML      544 34.42        32.4 0.28                          13.9 136 
 LZ4  SZ E         544 33.30                  353.3 26.1     20        30.3 153 
 LZ4  SN IP        544 33.64                             105   -0.2310 30.3 153 
 LZ4  SE IS        544 38.25                             105    0.5010 30.3 153 
 LZ4  SZ  AML      544 38.54         7.6 0.60                          30.3 153 
                                                                                
