 2008 1020 0641 58.2 L  21.334 -99.279 10.0  RAL  1 0.3 0.5LRAL                1
 GAP=360        3.68     581.0   741.8  0.0  0.4309E+06 -0.2555E+02  0.2202E+02E
 ACTION:UPD 12-06-08 11:37 OP:RALL STATUS:               ID:20081020064158     I
 2008-10-20-0641-45S.PLUR1_003                                                 6
 STAT SP IPHASW D HRMM SECON CODA AMPLIT PERI AZIMU VELO AIN AR TRES W  DIS CAZ7
 LZ4  SZ E         642  0.22                  273.7 10.4    -16        1.10 111 
 LZ4  SN IP        642  0.27                             174    0.2510 1.10 111 
 LZ4  SE IS        642  1.11                             174   -0.2510 1.10 111 
 LZ4  SZ  AML      642  1.28        19.9 0.20                          1.10 111 
                                                                                
