 2008 1020 0903 34.3 L  21.365 -99.297 15.0  RAL  2 0.1 0.5LRAL                1
 GAP=212        0.80       1.5     1.1  7.5 -0.1549E+01  0.1114E+01 -0.1491E+01E
 ACTION:UPD 12-06-08 11:37 OP:RALL STATUS:               ID:20081020090334     I
 2008-10-20-0903-24S.PLUR1_006                                                 6
 STAT SP IPHASW D HRMM SECON CODA AMPLIT PERI AZIMU VELO AIN AR TRES W  DIS CAZ7
 LZ4  SZ E         9 3 37.15                  322.0 17.9      0        4.75 143 
 LZ4  SN IP        9 3 37.25                             165    0.2410 4.75 143 
 LZ4  SE IS        9 3 39.22                             165    0.2210 4.75 143 
 LZ4  SZ  AML      9 3 40.37        12.9 0.68                          4.75 143 
 LA4  SN IP        9 3 37.63                             139   -0.0510 13.2 355 
 LA4  SZ E         9 3 37.66                  172.3 10.3     -1        13.2 355 
 LA4  SE IS        9 3 39.73                             139   -0.4210 13.2 355 
 LA4  SZ  AML      9 3 40.01         7.5 0.20                          13.2 355 
                                                                                
