 2008 1020 0400 51.4 L  21.372 -99.316 13.1  RAL  2 0.0 0.5LRAL                1
 GAP=229        0.36       0.4     0.4  3.6 -0.1245E+00  0.1365E+00 -0.1641E+00E
 ACTION:UPD 12-06-08 11:37 OP:RALL STATUS:               ID:20081020040051     I
 2008-10-20-0400-41S.PLUR1_006                                                 6
 STAT SP IPHASW D HRMM SECON CODA AMPLIT PERI AZIMU VELO AIN AR TRES W  DIS CAZ7
 LZ4  SN IP        4 0 54.12                             153    0.1310 6.63 134 
 LZ4  SZ E         4 0 54.13                  313.8 12.8      0        6.63 134 
 LZ4  SZ  AML      4 0 55.69        15.2 0.48                          6.63 134 
 LZ4  SE IS        4 0 55.90                             153    0.0510 6.63 134 
 LA4  SZ E         4 0 54.40                  182.9 11.4      0        12.3   3 
 LA4  SN IP        4 0 54.45                             137   -0.0610 12.3   3 
 LA4  SE IS        4 0 56.63                             137   -0.1210 12.3   3 
 LA4  SZ  AML      4 0 57.57         9.1 0.24                          12.3   3 
                                                                                
