 2008 1020 0337 57.4 L  21.731 -99.368  4.3  RAL  2 0.4 1.2LRAL                1
 GAP=360        6.26     999.9   999.9999.9 -0.4572E+07 -0.9062E+07  0.3721E+08E
 ACTION:UPD 12-06-08 11:37 OP:RALL STATUS:               ID:20081020033757     I
 2008-10-20-0337-51S.PLUR1_006                                                 6
 STAT SP IPHASW D HRMM SECON CODA AMPLIT PERI AZIMU VELO AIN AR TRES W  DIS CAZ7
 LA4  SZ E         338  1.73                    3.2 10.1     16        28.0 167 
 LA4  SN IP        338  1.77                              63   -0.5010 28.0 167 
 LA4  SE IS        338  5.21                              63   -0.6310 28.0 167 
 LZ4  SN E         338  5.01                  321.4 30.2    -25        45.4 167 
 LZ4  SZ IP        338  5.45                              63    0.4910 45.4 167 
 LZ4  SE IS        338 11.15                              63    0.6410 45.4 167 
 LZ4  SN  AML      338 13.01        19.2 0.28                          45.4 167 
                                                                                
