 2008 1020 0723 48.8 L  21.360 -99.272 10.0  RAL  1 0.0-0.1LRAL                1
 GAP=360        0.30       4.3     1.3  0.0 -0.5419E+01 -0.2555E+02  0.2202E+02E
 ACTION:UPD 12-06-08 11:37 OP:RALL STATUS:               ID:20081020072348     I
 2008-10-20-0723-39S.PLUR1_003                                                 6
 STAT SP IPHASW D HRMM SECON CODA AMPLIT PERI AZIMU VELO AIN AR TRES W  DIS CAZ7
 LA4  SZ E         723 51.67                  164.4  9.1      0        14.3 344 
 LA4  SN IP        723 51.78                             124    0.0010 14.3 344 
 LA4  SE IS        723 53.96                             124    0.0010 14.3 344 
 LA4  SZ  AML      723 54.98         2.9 0.48                          14.3 344 
                                                                                
