 2008 1020 0811 33.1 L  21.669 -99.417 10.0  RAL  1 0.0 0.4LRAL                1
 GAP=360        0.30       3.5     2.1  0.0 -0.6777E+01 -0.2555E+02  0.2202E+02E
 ACTION:UPD 12-06-08 11:37 OP:RALL STATUS:               ID:20081020081133     I
 2008-10-20-0811-26S.PLUR1_003                                                 6
 STAT SP IPHASW D HRMM SECON CODA AMPLIT PERI AZIMU VELO AIN AR TRES W  DIS CAZ7
 LA4  SN IP        811 37.34                             110    0.0010 23.4 151 
 LA4  SZ E         811 37.35                  331.5 16.3      0        23.4 151 
 LA4  SE IS        811 40.45                             110    0.0010 23.4 151 
 LA4  SZ  AML      811 42.46         6.0 0.28                          23.4 151 
                                                                                
