 2008 1020 0454 58.1 L  21.232 -99.269  9.4  RAL  2 0.1 0.2LRAL                1
 GAP=227        0.64       0.8     0.6  7.4  0.3252E+00 -0.5361E+00 -0.7303E+00E
 ACTION:UPD 12-06-08 11:37 OP:RALL STATUS:               ID:20081020045458     I
 2008-10-20-0454-47S.PLUR1_006                                                 6
 STAT SP IPHASW D HRMM SECON CODA AMPLIT PERI AZIMU VELO AIN AR TRES W  DIS CAZ7
 LD5  SZ E         455  0.45                   47.1 14.5      1        7.35 227 
 LD5  SN IP        455  0.53                             143    0.2710 7.35 227 
 LD5  SE IS        455  2.02                             143    0.2110 7.35 227 
 LD5  SZ  AML      455  2.60         2.0 0.48                          7.35 227 
 LZ4  SN IP        455  0.57                             130   -0.0810 10.9 360 
 LZ4  SZ E         455  0.60                  180.4 10.9      1        10.9 360 
 LZ4  SE IS        455  2.09                             130   -0.3910 10.9 360 
 LZ4  SZ  AML      455  3.26        25.1 0.52                          10.9 360 
                                                                                
