 2008 1020 0838 20.6 L  21.244 -99.264  5.2  RAL  2 0.0 0.3LRAL                1
 GAP=227        0.31       0.4     0.2  7.0  0.4720E-01 -0.2393E+00 -0.4602E+00E
 ACTION:UPD 12-06-08 11:37 OP:RALL STATUS:               ID:20081020083820     I
 2008-10-20-0838-08S.PLUR1_006                                                 6
 STAT SP IPHASW D HRMM SECON CODA AMPLIT PERI AZIMU VELO AIN AR TRES W  DIS CAZ7
 LD5  SZ E         838 22.38                   42.7 11.2      0        8.64 223 
 LD5  SN IP        838 22.41                             114   -0.0110 8.64 223 
 LD5  SE IS        838 23.72                             114   -0.0510 8.64 223 
 LD5  SZ  AML      838 24.26         4.2 0.20                          8.64 223 
 LZ4  SZ E         838 22.51                  176.2 10.9      0        9.67 356 
 LZ4  SN IP        838 22.55                             109   -0.0210 9.67 356 
 LZ4  SE IS        838 24.11                             109    0.0810 9.67 356 
 LZ4  SZ  AML      838 24.80        28.1 0.32                          9.67 356 
                                                                                
