 2008 1020 0320 14.7 L  21.631 -99.373 10.0  RAL  1 0.0 0.6LRAL                1
 GAP=360        0.30       3.9     1.7  0.0 -0.6385E+01  0.6776E+02 -0.1882E+03E
 ACTION:UPD 12-06-08 11:37 OP:RALL STATUS:               ID:20081020032014     I
 2008-10-20-0320-06S.PLUR1_003                                                 6
 STAT SP IPHASW D HRMM SECON CODA AMPLIT PERI AZIMU VELO AIN AR TRES W  DIS CAZ7
 LA4  SZ E         320 17.88                  337.9  8.1      0        17.6 158 
 LA4  SN IP        320 18.11                             117    0.0010 17.6 158 
 LA4  SE IS        320 20.62                             117    0.0010 17.6 158 
 LA4  SZ  AML      320 20.78        12.9 0.24                          17.6 158 
                                                                                
