 2008 1020 0501 51.5 R  20.542 -99.684100.0  RAL  2 0.3 3.1LRAL                1
 SPEC LA4 S  N MO 13.7 ST0.051 OM  1.7 f0 1.37 R1.6753 AL 3.88 WI  8.7 MW  3.1 3
 SPEC LA4 S  N T 5 2 6 K 0.000 GD  149 VP 6.20 DE 3.00 Q0440.0 QA 0.70 VS 3.60 3
 GAP=354        2.68     117.5    59.0158.4  0.6519E+04  0.8524E+04  0.1767E+05E
 ACTION:UPD 12-06-08 11:37 OP:RALL STATUS:               ID:20081020050151     I
 2008-10-20-0501-56S.PLUR1_006                                                 6
 STAT SP IPHASW D HRMM SECON CODA AMPLIT PERI AZIMU VELO AIN AR TRES W  DIS CAZ7
 LZ4  SZ E         5 2  8.99                  212.4 20.7      6        97.4  26 
 LZ4  SN IP        5 2 10.21                             131    0.3910 97.4  26 
 LZ4  SE IS        5 2 24.41                             131    1.2010 97.4  26 
 LZ4  SZ  AML      5 2 31.31       920.5 0.64                          97.4  26 
 LA4  SE IS        5 2 24.53                             127   -0.9010  111  20 
 LA4  SZ E         5 2 10.31                  192.7 10.2     -7         111  20 
 LA4  SZ  AML      5 2 30.40       283.0 0.76                           111  20 
 LA4  SN IP        5 2 10.41                             127   -0.6910  111  20 
                                                                                
