 2008 1020 0949 12.7 L  21.328 -99.282 10.0  RAL  1 0.3 0.6LRAL                1
 GAP=360        3.00     374.4   434.9  0.0 -0.1628E+06  0.1114E+01 -0.1491E+01E
 ACTION:UPD 12-06-08 11:37 OP:RALL STATUS:               ID:20081020094912     I
 2008-10-20-0949-00S.PLUR1_003                                                 6
 STAT SP IPHASW D HRMM SECON CODA AMPLIT PERI AZIMU VELO AIN AR TRES W  DIS CAZ7
 LZ4  SZ E         949 14.78                  270.1 11.1     14        1.28  76 
 LZ4  SN IP        949 14.87                             173    0.3410 1.28  76 
 LZ4  SZ  AML      949 15.37        20.4 0.56                          1.28  76 
 LZ4  SE IS        949 15.53                             173   -0.3410 1.28  76 
                                                                                
