 2008 1020 1415  9.1 L  21.939 -99.368  2.1  RAL  2 0.6 1.6LRAL                1
 GAP=358        9.33     999.9   332.7999.9 -0.7641E+06 -0.1490E+07  0.1041E+08E
 ACTION:UPD 12-06-08 11:37 OP:RALL STATUS:               ID:20081020141509     I
 2008-10-20-1415-05S.PLUR1_006                                                 6
 STAT SP IPHASW D HRMM SECON CODA AMPLIT PERI AZIMU VELO AIN AR TRES W  DIS CAZ7
 LA4  SZ E        1415 17.09                   20.4 11.3     27        50.8 173 
 LA4  SN IP       1415 17.66                              63   -0.1010 50.8 173 
 LA4  SE IS       1415 23.22                              63   -0.8310 50.8 173 
 LA4  SZ  AML     1415 25.53        39.2 0.36                          50.8 173 
 LZ4  SN IP       1415 20.50                              63    0.0610 68.2 171 
 LZ4  SZ E        1415 21.06                  315.3  7.9    -35        68.2 171 
 LZ4  SE IS       1415 29.56                              63    0.8710 68.2 171 
 LZ4  SZ  AML     1415 31.06        37.0 0.36                          68.2 171 
                                                                                
