 2008 1020 1350 34.6 L  21.656 -99.337 10.0  RAL  1 0.0 0.5LRAL                1
 GAP=360        0.30       4.0     0.9  0.0 -0.2645E+01  0.1114E+01 -0.1491E+01E
 ACTION:UPD 12-06-08 11:37 OP:RALL STATUS:               ID:20081020135034     I
 2008-10-20-1350-26S.PLUR1_003                                                 6
 STAT SP IPHASW D HRMM SECON CODA AMPLIT PERI AZIMU VELO AIN AR TRES W  DIS CAZ7
 LA4  SZ E        1350 38.20                  351.3  9.5      0        19.3 171 
 LA4  SN IP       1350 38.26                             115    0.0210 19.3 171 
 LA4  SE IS       1350 40.91                             115   -0.0210 19.3 171 
 LA4  SZ  AML     1350 41.66         8.0 0.28                          19.3 171 
                                                                                
