 2008 1020 1818 37.2 L  21.712 -99.309 10.0  RAL  1 0.0 1.4LRAL                1
 GAP=360        0.30       3.9     0.7  0.0  0.2758E-01  0.2094E+02  0.6110E+01E
 ACTION:UPD 12-06-08 11:37 OP:RALL STATUS:               ID:20081020181837     I
 2008-10-20-1818-30S.PLUR1_003                                                 6
 STAT SP IPHASW D HRMM SECON CODA AMPLIT PERI AZIMU VELO AIN AR TRES W  DIS CAZ7
 LA4  SZ E        1818 41.75                    0.1  7.9      0        25.3 180 
 LA4  SN IP       1818 41.76                             108    0.0110 25.3 180 
 LA4  SE IS       1818 45.06                             108   -0.0110 25.3 180 
 LA4  SZ  AML     1818 45.71        49.7 0.28                          25.3 180 
                                                                                
