 2008 1020 1520 44.8 L  21.367 -99.386 23.8  RAL  3 0.4 1.1LRAL                1
 GAP=230        5.99       6.0     7.3 53.6 -0.4707E+01  0.2094E+02  0.6110E+01E
 ACTION:UPD 12-06-08 11:37 OP:RALL STATUS:               ID:20081020152044     I
 2008-10-20-1520-35S.PLUR1_009                                                 6
 STAT SP IPHASW D HRMM SECON CODA AMPLIT PERI AZIMU VELO AIN AR TRES W  DIS CAZ7
 LZ4  SZ E        1520 49.10                  299.4  6.8     11        12.7 108 
 LZ4  SN IP       1520 49.11                             153   -0.0710 12.7 108 
 LZ4  SE IS       1520 52.87                             153    0.4610 12.7 108 
 LZ4  SZ  AML     1520 52.97        88.1 0.24                          12.7 108 
 LA4  SZ E        1520 48.64                  193.9 10.4    -17        15.2  32 
 LA4  SN IP       1520 48.75                             148   -0.6410 15.2  32 
 LA4  SE IS       1520 52.06                             148   -0.7010 15.2  32 
 LA4  SZ  AML     1520 53.73        57.2 0.60                          15.2  32 
 LD5  SZ E        1520 49.72                  314.4 17.0    -26        21.1 161 
 LD5  SN IP       1520 50.22                             138    0.3010 21.1 161 
 LD5  SE IS       1520 54.34                             138    0.6510 21.1 161 
 LD5  SZ  AML     1520 56.27         2.8 0.30                          21.1 161 
                                                                                
