 2008 1020 1933 18.6 L  21.359 -99.245 10.0  RAL  1 0.0 0.7LRAL                1
 GAP=360        0.30       3.9     2.0  0.0 -0.7794E+01  0.2094E+02  0.6110E+01E
 ACTION:UPD 12-06-08 11:37 OP:RALL STATUS:               ID:20081020193318     I
 2008-10-20-1933-09S.PLUR1_003                                                 6
 STAT SP IPHASW D HRMM SECON CODA AMPLIT PERI AZIMU VELO AIN AR TRES W  DIS CAZ7
 LA4  SN IP       1933 21.76                             121    0.0110 15.3 334 
 LA4  SZ E        1933 21.82                  154.3 10.2      0        15.3 334 
 LA4  SZ  AML     1933 23.82        15.9 0.48                          15.3 334 
 LA4  SE IS       1933 24.03                             121   -0.0110 15.3 334 
                                                                                
