 2008 1020 1048 44.6 L  21.598 -99.370 10.0  RAL  1 0.0 0.4LRAL                1
 GAP=360        0.30       4.0     2.2  0.0 -0.8433E+01  0.1114E+01 -0.1491E+01E
 ACTION:UPD 12-06-08 11:37 OP:RALL STATUS:               ID:20081020104844     I
 2008-10-20-1048-35S.PLUR1_003                                                 6
 STAT SP IPHASW D HRMM SECON CODA AMPLIT PERI AZIMU VELO AIN AR TRES W  DIS CAZ7
 LA4  SZ E        1048 47.43                  333.5  8.9      0        14.2 153 
 LA4  SN IP       1048 47.62                             124    0.0110 14.2 153 
 LA4  SZ  AML     1048 49.73         8.1 0.20                          14.2 153 
 LA4  SE IS       1048 49.78                             124   -0.0110 14.2 153 
                                                                                
