 2008 1020 1230 47.0 L  21.773 -99.474 10.0  RAL  1 0.0 1.0LRAL                1
 GAP=360        0.30       3.4     2.1  0.0 -0.5981E+01  0.1114E+01 -0.1491E+01E
 ACTION:UPD 12-06-08 11:37 OP:RALL STATUS:               ID:20081020123047     I
 2008-10-20-1230-44S.PLUR1_003                                                 6
 STAT SP IPHASW D HRMM SECON CODA AMPLIT PERI AZIMU VELO AIN AR TRES W  DIS CAZ7
 LA4  SZ E        1230 52.90                  332.0 13.3      0        36.3 152 
 LA4  SN IP       1230 53.20                             101    0.0210 36.3 152 
 LA4  SE IS       1230 57.70                             101   -0.0210 36.3 152 
 LA4  SZ  AML     1231  0.20        17.2 0.32                          36.3 152 
                                                                                
