 2008 1020 1337 26.9 L                       RAL  1                            1
 ACTION:UPD 12-06-08 11:37 OP:RALL STATUS:               ID:20081020133726     I
 2008-10-20-1337-26S.PLUR1_003                                                 6
 STAT SP IPHASW D HRMM SECON CODA AMPLIT PERI AZIMU VELO AIN AR TRES W  DIS CAZ7
 LZ4  SZ E        1337 40.55                                                    
 LZ4  SN IP       1337 40.61                                                    
 LZ4  SE IS       1337 41.38                                                    
 LZ4  SZ  AML     1337 41.60        12.1 0.72                                   
                                                                                
