 2008 1020 1446 33.5 L  22.329 -99.449 10.0  RAL  1 0.0 1.8LRAL                1
 GAP=360        0.30       3.7     3.2  0.0 -0.9408E+00 -0.1490E+07  0.1041E+08E
 ACTION:UPD 12-06-08 11:37 OP:RALL STATUS:               ID:20081020144633     I
 2008-10-20-1446-39S.PLUR1_003                                                 6
 STAT SP IPHASW D HRMM SECON CODA AMPLIT PERI AZIMU VELO AIN AR TRES W  DIS CAZ7
 LZ4  SZ E        1446 51.19                  350.5 14.9      0         112 170 
 LZ4  SN IP       1446 51.44                              93    0.0010  112 170 
 LZ4  SE IS       1447  4.51                              93    0.0010  112 170 
 LZ4  SZ  AML     1447  7.32        32.7 0.44                           112 170 
                                                                                
