 2008 1020 2302 18.6 L  21.345 -99.296 10.0  RAL  1 0.1 0.9LRAL                1
 GAP=360        0.43       9.1    17.3  0.0 -0.1574E+03  0.2094E+02  0.6110E+01E
 ACTION:UPD 12-06-08 11:37 OP:RALL STATUS:               ID:20081020230218     I
 2008-10-20-2302-06S.PLUR1_003                                                 6
 STAT SP IPHASW D HRMM SECON CODA AMPLIT PERI AZIMU VELO AIN AR TRES W  DIS CAZ7
 LZ4  SZ E        23 2 20.70                  299.4  8.0      0        3.15 119 
 LZ4  SN IP       23 2 20.76                             163    0.2110 3.15 119 
 LZ4  SE IS       23 2 21.72                             163   -0.2110 3.15 119 
 LZ4  SZ  AML     23 2 22.73        47.1 0.16                          3.15 119 
                                                                                
