 2008 1020 2057 15.1 L  21.805 -99.353 10.0  RAL  1 0.0 1.0LRAL                1
 GAP=360        0.30       3.7     1.1  0.0 -0.1818E+01  0.2094E+02  0.6110E+01E
 ACTION:UPD 12-06-08 11:37 OP:RALL STATUS:               ID:20081020205715     I
 2008-10-20-2057-11S.PLUR1_003                                                 6
 STAT SP IPHASW D HRMM SECON CODA AMPLIT PERI AZIMU VELO AIN AR TRES W  DIS CAZ7
 LA4  SZ E        2057 21.26                  352.7  8.8      0        35.9 173 
 LA4  SN IP       2057 21.27                             101    0.0110 35.9 173 
 LA4  SE IS       2057 25.74                             101   -0.0110 35.9 173 
 LA4  SZ  AML     2057 26.89        14.4 0.32                          35.9 173 
                                                                                
