 2008 1021 0305 33.1 L  21.482 -99.319 10.0  RAL  1 0.1 0.6LRAL                1
 GAP=360        0.49     999.9   999.9  0.0 -0.1158E+09  0.1444E+00  0.6042E-01E
 ACTION:UPD 12-06-08 11:37 OP:RALL STATUS:               ID:20081021030533     I
 2008-10-21-0305-21S.PLUR1_003                                                 6
 STAT SP IPHASW D HRMM SECON CODA AMPLIT PERI AZIMU VELO AIN AR TRES W  DIS CAZ7
 LA4  SZ E         3 5 35.17                  258.3 14.2      0        1.10  78 
 LA4  SN IP        3 5 35.20                             174    0.2610 1.10  78 
 LA4  SE IS        3 5 36.04                             174   -0.2610 1.10  78 
 LA4  SZ  AML      3 5 36.14        23.5 0.32                          1.10  78 
                                                                                
