 2008 1021 0327 21.5 L  21.772 -99.271 10.0  RAL  1 0.0 1.0LRAL                1
 GAP=360        0.30       3.8     1.0  0.0  0.1816E+01  0.1444E+00  0.6042E-01E
 ACTION:UPD 12-06-08 11:37 OP:RALL STATUS:               ID:20081021032721     I
 2008-10-21-0327-17S.PLUR1_003                                                 6
 STAT SP IPHASW D HRMM SECON CODA AMPLIT PERI AZIMU VELO AIN AR TRES W  DIS CAZ7
 LA4  SN IP        327 27.10                             103    0.0110 32.1 187 
 LA4  SZ E         327 27.14                    7.1  7.9      0        32.1 187 
 LA4  SE IS        327 31.15                             103   -0.0110 32.1 187 
 LA4  SZ  AML      327 32.29        18.1 0.40                          32.1 187 
                                                                                
