 2008 1021 0126 15.7 L  21.280 -99.283 10.0  RAL  1 0.0 0.9LRAL                1
 GAP=360        0.30       7.2     1.9  0.0  0.1393E+02  0.1538E+01 -0.6181E+00E
 ACTION:UPD 12-06-08 11:37 OP:RALL STATUS:               ID:20081021012615     I
 2008-10-21-0126-04S.PLUR1_003                                                 6
 STAT SP IPHASW D HRMM SECON CODA AMPLIT PERI AZIMU VELO AIN AR TRES W  DIS CAZ7
 LZ4  SZ E         126 17.47                  193.9 10.3      0        5.82  14 
 LZ4  SN IP        126 17.75                             150    0.0110 5.82  14 
 LZ4  SE IS        126 19.23                             150   -0.0110 5.82  14 
 LZ4  SZ  AML      126 19.66        40.7 0.88                          5.82  14 
                                                                                
