 2008 1021 0651 39.7 L  21.310 -99.292  3.9  RAL  3 0.3 0.3LRAL                1
 GAP=163        2.92       3.0     3.1 14.5  0.8696E+01  0.8359E+01  0.8019E+01E
 ACTION:UPD 12-06-08 11:37 OP:RALL STATUS:               ID:20081021065139     I
 2008-10-21-0651-26S.PLUR1_009                                                 6
 STAT SP IPHASW D HRMM SECON CODA AMPLIT PERI AZIMU VELO AIN AR TRES W  DIS CAZ7
 LZ4  SZ E         651 40.70                  227.2 11.5      2        3.33  45 
 LZ4  SN IP        651 40.73                             148   -0.0410 3.33  45 
 LZ4  SE IS        651 41.88                             148    0.3510 3.33  45 
 LD5  SN IP        651 41.64                              95   -0.6710 13.9 192 
 LD5  SZ E         651 41.64                   24.9  8.9     13        13.9 192 
 LD5  SE IS        651 43.52                              95   -0.6810 13.9 192 
 LD5  SZ  AML      651 44.23         3.1 0.30                          13.9 192 
 LA4  SZ E         651 43.19                  182.9  9.1      8        19.3 355 
 LA4  SN IP        651 43.32                              92    0.1010 19.3 355 
 LA4  SE IS        651 46.71                              92    0.9410 19.3 355 
 LA4  SZ  AML      651 48.44        15.0 0.76                          19.3 355 
                                                                                
