 2008 1021 0145  3.6 L  21.419 -99.314 56.0  RAL  2 1.0 1.6LRAL                1
 GAP=210        5.14      11.1     3.3 58.8 -0.1217E+02  0.5600E+00 -0.1316E+01E
 ACTION:UPD 12-06-08 11:37 OP:RALL STATUS:               ID:20081021014503     I
 2008-10-21-0144-55S.PLUR1_006                                                 6
 STAT SP IPHASW D HRMM SECON CODA AMPLIT PERI AZIMU VELO AIN AR TRES W  DIS CAZ7
 LA4  SZ E         145  9.23                  182.4 15.0     -1        7.22   4 
 LA4  SN IP        145  9.55                             172   -2.1610 7.22   4 
 LA4  SE IS        145 14.84                             172   -2.7710 7.22   4 
 LA4  SZ  AML      145 15.37        68.6 0.32                          7.22   4 
 LZ4  SZ E         145 13.62                  331.4 10.6     -2        10.8 154 
 LZ4  SN IP        145 13.82                             168    2.0510 10.8 154 
 LZ4  SE IS        145 20.59                             168    2.8710 10.8 154 
 LZ4  SZ  AML      145 21.41        30.9 0.36                          10.8 154 
                                                                                
