 2008 1021 0250 20.8 L  21.401 -99.375 29.2  RAL  2 0.1 1.3LRAL                1
 GAP=271        0.61       0.7     0.7  6.3  0.7417E-01  0.1444E+00  0.6042E-01E
 ACTION:UPD 12-06-08 11:37 OP:RALL STATUS:               ID:20081021025020     I
 2008-10-21-0250-12S.PLUR1_006                                                 6
 STAT SP IPHASW D HRMM SECON CODA AMPLIT PERI AZIMU VELO AIN AR TRES W  DIS CAZ7
 LA4  SZ E         250 25.55                  216.6 14.4      0        11.4  37 
 LA4  SN IP        250 25.67                             158   -0.2010 11.4  37 
 LA4  SE IS        250 29.26                             158   -0.3010 11.4  37 
 LA4  SZ  AML      250 30.21        36.3 0.76                          11.4  37 
 LZ4  SN IP        250 26.14                             154    0.1610 13.4 126 
 LZ4  SZ E         250 26.20                  305.4 13.0      0        13.4 126 
 LZ4  SE IS        250 30.09                             154    0.3410 13.4 126 
 LZ4  SZ  AML      250 30.79        36.0 0.32                          13.4 126 
                                                                                
