 2008 1021 0251 45.7 L  21.632 -99.370 10.0  RAL  1 0.0 0.9LRAL                1
 GAP=360        0.30       3.9     1.7  0.0 -0.6108E+01  0.1444E+00  0.6042E-01E
 ACTION:UPD 12-06-08 11:37 OP:RALL STATUS:               ID:20081021025145     I
 2008-10-21-0251-37S.PLUR1_003                                                 6
 STAT SP IPHASW D HRMM SECON CODA AMPLIT PERI AZIMU VELO AIN AR TRES W  DIS CAZ7
 LA4  SZ E         251 49.08                  339.1 10.3      0        17.6 159 
 LA4  SN IP        251 49.15                             117    0.0010 17.6 159 
 LA4  SE IS        251 51.66                             117    0.0010 17.6 159 
 LA4  SZ  AML      251 53.58        20.7 0.24                          17.6 159 
                                                                                
