 2008 1021 0034 55.5 L  22.194 -99.270 10.0  RAL  1 0.0 0.8LRAL                1
 GAP=360        0.30       3.7     2.2  0.0  0.5263E+00  0.1538E+01 -0.6181E+00E
 ACTION:UPD 12-06-08 11:37 OP:RALL STATUS:               ID:20081021003455     I
 2008-10-21-0035-03S.PLUR1_003                                                 6
 STAT SP IPHASW D HRMM SECON CODA AMPLIT PERI AZIMU VELO AIN AR TRES W  DIS CAZ7
 LA4  SZ E         035  8.17                    2.9  8.4      0        78.7 183 
 LA4  SN IP        035  8.21                              94    0.0110 78.7 183 
 LA4  SE IS        035 17.50                              94   -0.0110 78.7 183 
 LA4  SZ  AML      035 17.75         4.5 0.28                          78.7 183 
                                                                                
