 2008 1021 0642 27.4 L  21.755 -99.253 10.0  RAL  1 0.0 0.7LRAL                1
 GAP=360        0.30       3.7     1.1  0.0  0.2785E+01 -0.1417E+02 -0.5535E+02E
 ACTION:UPD 12-06-08 11:37 OP:RALL STATUS:               ID:20081021064227     I
 2008-10-21-0642-23S.PLUR1_003                                                 6
 STAT SP IPHASW D HRMM SECON CODA AMPLIT PERI AZIMU VELO AIN AR TRES W  DIS CAZ7
 LA4  SN IP        642 32.75                             104    0.0110 30.6 191 
 LA4  SZ E         642 33.38                   10.9  9.9      0        30.6 191 
 LA4  SE IS        642 36.63                             104   -0.0110 30.6 191 
 LA4  SZ  AML      642 37.75        10.4 0.40                          30.6 191 
                                                                                
