 2008 1021 0110 52.3 L  21.345 -99.293 10.0  RAL  1 0.1 1.0LRAL                1
 GAP=360        0.54      13.2    21.9  0.0 -0.2894E+03  0.1538E+01 -0.6181E+00E
 ACTION:UPD 12-06-08 11:37 OP:RALL STATUS:               ID:20081021011052     I
 2008-10-21-0110-40S.PLUR1_003                                                 6
 STAT SP IPHASW D HRMM SECON CODA AMPLIT PERI AZIMU VELO AIN AR TRES W  DIS CAZ7
 LZ4  SZ E         110 54.43                  303.0  8.1      0        2.95 123 
 LZ4  SN IP        110 54.45                             164    0.3010 2.95 123 
 LZ4  SE IS        110 55.23                             164   -0.3010 2.95 123 
 LZ4  SZ  AML      110 55.38        50.1 0.16                          2.95 123 
                                                                                
