 2008 1021 0505 18.9 L  21.624 -99.236 10.0  RAL  1 0.0 0.7LRAL                1
 GAP=360        0.30       3.7     1.5  0.0  0.2311E+01  0.5089E+03 -0.2857E+04E
 ACTION:UPD 12-06-08 11:37 OP:RALL STATUS:               ID:20081021050518     I
 2008-10-21-0505-18S.PLUR1_003                                                 6
 STAT SP IPHASW D HRMM SECON CODA AMPLIT PERI AZIMU VELO AIN AR TRES W  DIS CAZ7
 LD5  SZ E         5 5 25.98                   10.2 19.3      0        49.2 190 
 LD5  SN IP        5 5 27.06                              97    0.0110 49.2 190 
 LD5  SE IS        5 5 33.01                              97   -0.0110 49.2 190 
 LD5  SZ  AML      5 5 34.01         5.8 0.32                          49.2 190 
                                                                                
