 2008 1021 0241 38.1 L  21.366 -99.458 29.3  RAL  3 0.4 1.4LRAL                1
 GAP=266        4.65       5.9     9.3 45.1 -0.1410E+01  0.5037E+02  0.2984E+01E
 ACTION:UPD 12-06-08 11:37 OP:RALL STATUS:               ID:20081021024138     I
 2008-10-21-0241-29S.PLUR1_009                                                 6
 STAT SP IPHASW D HRMM SECON CODA AMPLIT PERI AZIMU VELO AIN AR TRES W  DIS CAZ7
 LZ4  SZ E         241 43.60                  295.5  6.9     14        20.0 101 
 LZ4  SN IP        241 43.69                             144   -0.0210 20.0 101 
 LZ4  SE IS        241 47.90                             144    0.0510 20.0 101 
 LZ4  SZ  AML      241 50.41       116.7 0.32                          20.0 101 
 LA4  SZ E         241 43.13                  217.2 13.2    -12        20.3  50 
 LA4  SN IP        241 43.20                             144   -0.5510 20.3  50 
 LA4  SE IS        241 46.80                             144   -1.1210 20.3  50 
 LA4  SZ  AML      241 47.53        78.5 0.44                          20.3  50 
 LD5  SZ E         241 44.24                  307.8 19.3    -15        24.5 144 
 LD5  SN E         241 44.42                                           24.5 144 
 LD5  SN IP        241 44.42                             138    0.2910 24.5 144 
 LD5  SE IS        241 49.91                             138    1.3510 24.5 144 
 LD5  SZ  AML      241 51.30         7.4 0.62                          24.5 144 
                                                                                
