 2008 1021 0504 53.3 L  21.695 -99.345  0.0  RAL  2 0.1 1.6LRAL                1
 GAP=358        1.54      15.6     4.1282.7 -0.4267E+02  0.5089E+03 -0.2857E+04E
 ACTION:UPD 12-06-08 11:37 OP:RALL STATUS:               ID:20081021050453     I
 2008-10-21-0504-43S.PLUR1_006                                                 6
 STAT SP IPHASW D HRMM SECON CODA AMPLIT PERI AZIMU VELO AIN AR TRES W  DIS CAZ7
 LA4  SN IP        5 4 57.22                              93   -0.2610 23.7 171 
 LA4  SZ E         5 4 57.40                  354.6  8.1      4        23.7 171 
 LA4  SE IS        5 5  0.47                              93   -0.0410 23.7 171 
 LA4  SZ  AML      5 5  2.30       110.2 0.28                          23.7 171 
 LZ4  SZ E         5 5  0.69                  342.8  6.9     -5        41.1 169 
 LZ4  SN IP        5 5  0.71                              91    0.2010 41.1 169 
 LZ4  SE IS        5 5  5.87                              91    0.1110 41.1 169 
 LZ4  SZ  AML      5 5  7.41        63.2 0.28                          41.1 169 
                                                                                
