 2008 1021 0533 36.4 L  21.332 -99.276 10.0  RAL  1 0.2 0.4LRAL                1
 GAP=360        1.46     999.9   786.6  0.0  0.1440E+07  0.5089E+03 -0.2857E+04E
 ACTION:UPD 12-06-08 11:37 OP:RALL STATUS:               ID:20081021053336     I
 2008-10-21-0533-24S.PLUR1_003                                                 6
 STAT SP IPHASW D HRMM SECON CODA AMPLIT PERI AZIMU VELO AIN AR TRES W  DIS CAZ7
 LZ4  SZ E         533 38.21                  289.8 11.1      6        0.65 103 
 LZ4  SN IP        533 38.57                             176    0.3410 0.65 103 
 LZ4  SE IS        533 39.23                             176   -0.3410 0.65 103 
 LZ4  SZ  AML      533 39.97        12.7 0.56                          0.65 103 
                                                                                
