 2008 1021 0514 49.8 L  21.357 -99.280 10.0  RAL  1 0.0 1.1LRAL                1
 GAP=360        0.30       4.3     1.1  0.0 -0.4336E+01  0.5089E+03 -0.2857E+04E
 ACTION:UPD 12-06-08 11:37 OP:RALL STATUS:               ID:20081021051449     I
 2008-10-21-0514-40S.PLUR1_003                                                 6
 STAT SP IPHASW D HRMM SECON CODA AMPLIT PERI AZIMU VELO AIN AR TRES W  DIS CAZ7
 LA4  SZ E         514 52.83                  167.7  9.8      0        14.3 348 
 LA4  SN IP        514 52.83                             123    0.0010 14.3 348 
 LA4  SE IS        514 55.02                             123    0.0010 14.3 348 
 LA4  SZ  AML      514 55.99        40.1 0.28                          14.3 348 
                                                                                
