 2008 1021 0543 56.6 L  21.256 -99.273  0.5  RAL  3 0.2 0.7LRAL                1
 GAP=210        3.05       4.0     2.0 78.9  0.3628E+01 -0.1417E+02 -0.5535E+02E
 ACTION:UPD 12-06-08 11:37 OP:RALL STATUS:               ID:20081021054356     I
 2008-10-21-0543-43S.PLUR1_009                                                 6
 STAT SP IPHASW D HRMM SECON CODA AMPLIT PERI AZIMU VELO AIN AR TRES W  DIS CAZ7
 LZ4  SZ E         543 57.93                  173.6 12.1     -8        8.25   2 
 LZ4  SN IP        543 57.93                             101   -0.1510 8.25   2 
 LZ4  SE IS        543 59.39                             101    0.2410 8.25   2 
 LZ4  SZ  AML      544  0.08        59.2 0.48                          8.25   2 
 LD5  SN IP        543 57.81                             100   -0.4210 9.16 212 
 LD5  SZ E         543 57.81                   26.8  8.3     -5        9.16 212 
 LD5  SE IS        543 59.16                             100   -0.2610 9.16 212 
 LD5  SZ  AML      543 59.60        15.5 0.36                          9.16 212 
 LA4  SN IP        544  0.85                              94   -0.2210 25.4 352 
 LA4  SZ E         544  0.87                  184.7 11.1     13        25.4 352 
 LA4  SE IS        544  5.13                              94    0.8110 25.4 352 
 LA4  SZ  AML      544  6.17        12.1 0.44                          25.4 352 
                                                                                
