 2008 1021 0021 43.4 L  21.345 -99.287 19.7  RAL  2 0.3 0.7LRAL                1
 GAP=219        2.95       1.6     4.5 26.4  0.2136E+01  0.1538E+01 -0.6181E+00E
 ACTION:UPD 12-06-08 11:37 OP:RALL STATUS:               ID:20081021002143     I
 2008-10-21-0021-34S.PLUR1_006                                                 6
 STAT SP IPHASW D HRMM SECON CODA AMPLIT PERI AZIMU VELO AIN AR TRES W  DIS CAZ7
 LZ4  SZ E         021 46.88                  309.9 25.0     -1        2.42 132 
 LZ4  SN IP        021 47.52                             176    0.7910 2.42 132 
 LZ4  SE IS        021 49.63                             176    0.4510 2.42 132 
 LZ4  SZ  AML      021 50.44        26.4 0.60                          2.42 132 
 LA4  SN IP        021 47.36                             140   -0.1910 15.5 351 
 LA4  SZ E         021 47.47                  159.1 13.8    -11        15.5 351 
 LA4  SE IS        021 49.53                             140   -1.0610 15.5 351 
 LA4  SZ  AML      021 50.16         7.9 0.64                          15.5 351 
                                                                                
