 2008 1021 0636 31.2 L  21.476 -99.311 10.0  RAL  1 0.2 0.3LRAL                1
 GAP=360        0.92     443.2   999.9  0.0 -0.6249E+06 -0.1417E+02 -0.5535E+02E
 ACTION:UPD 12-06-08 11:37 OP:RALL STATUS:               ID:20081021063631     I
 2008-10-21-0636-19S.PLUR1_003                                                 6
 STAT SP IPHASW D HRMM SECON CODA AMPLIT PERI AZIMU VELO AIN AR TRES W  DIS CAZ7
 LA4  SZ E         636 33.06                  189.7 10.5     -2        0.82  13 
 LA4  SN IP        636 33.50                             176    0.4310 0.82  13 
 LA4  SE IS        636 33.99                             176   -0.4310 0.82  13 
 LA4  SZ  AML      636 34.19        11.6 0.32                          0.82  13 
                                                                                
