 2008 1021 1546 18.3 L  21.681 -99.350  0.0  RAL  2 0.1 1.1LRAL                1
 GAP=359        0.61       6.0     1.7101.9 -0.7529E+01  0.8212E+02 -0.3875E+03E
 ACTION:UPD 12-06-08 11:37 OP:RALL STATUS:               ID:20081021154618     I
 2008-10-21-1546-08S.PLUR1_006                                                 6
 STAT SP IPHASW D HRMM SECON CODA AMPLIT PERI AZIMU VELO AIN AR TRES W  DIS CAZ7
 LA4  SZ E        1546 22.20                  349.7  7.7      1        22.2 169 
 LA4  SN IP       1546 22.21                              93   -0.0310 22.2 169 
 LA4  SE IS       1546 24.77                              93   -0.3110 22.2 169 
 LA4  SZ  AML     1546 27.14        38.2 0.32                          22.2 169 
 LZ4  SN IP       1546 25.30                              91    0.0210 39.6 168 
 LZ4  SZ E        1546 25.80                  346.7  9.1      0        39.6 168 
 LZ4  SE IS       1546 30.66                              91    0.3210 39.6 168 
 LZ4  SZ  AML     1546 34.34        16.5 0.44                          39.6 168 
                                                                                
