 2008 1021 1048 20.9 L  21.311 -99.313 10.0  RAL  1 0.0 1.2LRAL                1
 GAP=360        0.31       3.8     8.5  0.0  0.3251E+02  0.8359E+01  0.8019E+01E
 ACTION:UPD 12-06-08 11:37 OP:RALL STATUS:               ID:20081021104820     I
 2008-10-21-1048-09S.PLUR1_003                                                 6
 STAT SP IPHASW D HRMM SECON CODA AMPLIT PERI AZIMU VELO AIN AR TRES W  DIS CAZ7
 LZ4  SN IP       1048 23.00                             154    0.0610 4.97  64 
 LZ4  SZ E        1048 23.04                  244.2 12.7      0        4.97  64 
 LZ4  SE IS       1048 24.35                             154   -0.0610 4.97  64 
 LZ4  SZ  AML     1048 24.87        85.8 0.48                          4.97  64 
                                                                                
