 2008 1021 1315 55.1 L  21.722 -99.340 10.0  RAL  1 0.0 1.1LRAL                1
 GAP=360        0.30       3.8     0.9  0.0 -0.1860E+01  0.9401E+00 -0.1333E+00E
 ACTION:UPD 12-06-08 11:37 OP:RALL STATUS:               ID:20081021131555     I
 2008-10-21-1315-48S.PLUR1_003                                                 6
 STAT SP IPHASW D HRMM SECON CODA AMPLIT PERI AZIMU VELO AIN AR TRES W  DIS CAZ7
 LA4  SN IP       1315 59.90                             107    0.0110 26.6 173 
 LA4  SZ E        1316  0.17                  353.1  8.3      0        26.6 173 
 LA4  SE IS       1316  3.34                             107   -0.0110 26.6 173 
 LA4  SZ  AML     1316  3.85        28.8 0.32                          26.6 173 
                                                                                
