 2008 1021 1223 18.1 L  21.495 -99.344  4.5  RAL  2 0.3 0.9LRAL                1
 GAP=312        1.38       1.2     3.2  8.9 -0.3478E+01  0.9401E+00 -0.1333E+00E
 ACTION:UPD 12-06-08 11:37 OP:RALL STATUS:               ID:20081021122318     I
 2008-10-21-1223-05S.PLUR1_006                                                 6
 STAT SP IPHASW D HRMM SECON CODA AMPLIT PERI AZIMU VELO AIN AR TRES W  DIS CAZ7
 LA4  SN IP       1223 18.66                             146   -0.5810 3.82 109 
 LA4  SZ E        1223 18.70                  289.1 10.8      0        3.82 109 
 LA4  SE IS       1223 20.25                             146    0.1410 3.82 109 
 LZ4  SN IP       1223 21.07                             106   -0.5710 19.7 157 
 LZ4  SZ E        1223 21.61                  338.2  7.3      1        19.7 157 
 LZ4  SE IS       1223 25.26                             106    1.0010 19.7 157 
 LZ4  SZ  AML     1223 26.16        21.4 0.32                          19.7 157 
                                                                                
