 2008 1021 1425 28.6 L  21.699 -99.365 10.0  RAL  1 0.0 0.9LRAL                1
 GAP=360        0.30       3.8     1.2  0.0 -0.3668E+01  0.9401E+00 -0.1333E+00E
 ACTION:UPD 12-06-08 11:37 OP:RALL STATUS:               ID:20081021142528     I
 2008-10-21-1425-21S.PLUR1_003                                                 6
 STAT SP IPHASW D HRMM SECON CODA AMPLIT PERI AZIMU VELO AIN AR TRES W  DIS CAZ7
 LA4  SN IP       1425 33.02                             109    0.0210 24.5 166 
 LA4  SZ E        1425 33.35                  346.4  7.2      0        24.5 166 
 LA4  SE IS       1425 36.22                             109   -0.0210 24.5 166 
 LA4  SZ  AML     1425 36.49        16.7 0.32                          24.5 166 
                                                                                
