 2008 1021 1823 34.6 L  21.860 -99.407 10.0  RAL  1 0.0 1.2LRAL                1
 GAP=360        0.30       3.6     1.5  0.0 -0.3179E+01  0.8212E+02 -0.3875E+03E
 ACTION:UPD 12-06-08 11:37 OP:RALL STATUS:               ID:20081021182334     I
 2008-10-21-1823-30S.PLUR1_003                                                 6
 STAT SP IPHASW D HRMM SECON CODA AMPLIT PERI AZIMU VELO AIN AR TRES W  DIS CAZ7
 LA4  SN IP       1823 41.83                              99    0.0110 42.9 166 
 LA4  SZ E        1823 41.85                  346.3 14.9      0        42.9 166 
 LA4  SE IS       1823 47.08                              99   -0.0110 42.9 166 
 LA4  SZ  AML     1823 49.08        21.1 0.24                          42.9 166 
                                                                                
