 2008 1021 1130 33.5 L  21.328 -99.276 10.0  RAL  1 0.3 0.6LRAL                1
 GAP=360        3.14     999.9   999.9  0.0 -0.1642E+09  0.8359E+01  0.8019E+01E
 ACTION:UPD 12-06-08 11:37 OP:RALL STATUS:               ID:20081021113033     I
 2008-10-21-1130-21S.PLUR1_003                                                 6
 STAT SP IPHASW D HRMM SECON CODA AMPLIT PERI AZIMU VELO AIN AR TRES W  DIS CAZ7
 LZ4  SN IP       1130 35.55                             176    0.2210 0.73  62 
 LZ4  SZ E        1130 35.56                  256.8  9.9     15        0.73  62 
 LZ4  SE IS       1130 36.44                             176   -0.2210 0.73  62 
 LZ4  SZ  AML     1130 37.53        20.9 0.36                          0.73  62 
                                                                                
