 2008 1021 1142 48.3 L  21.312 -99.236 10.0  RAL  1 0.0 0.4LRAL                1
 GAP=360        0.35       6.1    10.9  0.0 -0.6633E+02  0.8359E+01  0.8019E+01E
 ACTION:UPD 12-06-08 11:37 OP:RALL STATUS:               ID:20081021114248     I
 2008-10-21-1142-36S.PLUR1_003                                                 6
 STAT SP IPHASW D HRMM SECON CODA AMPLIT PERI AZIMU VELO AIN AR TRES W  DIS CAZ7
 LZ4  SN IP       1142 50.35                             159    0.1210 4.02 301 
 LZ4  SZ E        1142 50.38                  121.1 14.3      0        4.02 301 
 LZ4  SE IS       1142 51.53                             159   -0.1210 4.02 301 
 LZ4  SZ  AML     1142 51.83        11.8 0.44                          4.02 301 
                                                                                
