 2008 1021 1900 28.3 L  21.279 -99.265  3.4  RAL  3 0.1 0.9LRAL                1
 GAP=214        1.18       1.7     0.6  9.0 -0.7333E-02  0.4048E-01  0.5396E+00E
 ACTION:UPD 12-06-08 11:37 OP:RALL STATUS:               ID:20081021190028     I
 2008-10-21-1900-15S.PLUR1_012                                                 6
 STAT SP IPHASW D HRMM SECON CODA AMPLIT PERI AZIMU VELO AIN AR TRES W  DIS CAZ7
 LZ4  SZ E        19 0 29.46                  175.2  9.5      0        5.78 355 
 LZ4  SN IP       19 0 29.50                             132   -0.0910 5.78 355 
 LZ4  SE IS       19 0 30.74                             132    0.2110 5.78 355 
 LZ4  SZ  AML     19 0 33.43       120.2 0.24                          5.78 355 
 LD5  SZ E        19 0 29.97                   26.8  9.3     -2        11.7 209 
 LD5  SN IP       19 0 30.06                             114   -0.4510 11.7 209 
 LD5  SE IS       19 0 31.96                             114   -0.1510 11.7 209 
 LD5  SZ  AML     19 0 32.14        28.5 0.18                          11.7 209 
 LA4  SZ E        19 0 32.19                  164.4  8.1     -3        23.1 349 
 LA4  SN IP       19 0 32.23                             103   -0.2110 23.1 349 
 LA4  SE IS       19 0 36.15                             103    0.7010 23.1 349 
 LA4  SZ  AML     19 0 38.94        16.8 0.28                          23.1 349 
                                                                                
