 2008 1021 2246 18.6 L  21.828 -99.253 10.0  RAL  1 0.0 0.9LRAL                1
 GAP=360        0.30       3.7     1.2  0.0  0.2096E+01  0.5748E+00  0.2585E+00E
 ACTION:UPD 12-06-08 11:37 OP:RALL STATUS:               ID:20081021224618     I
 2008-10-21-2246-15S.PLUR1_003                                                 6
 STAT SP IPHASW D HRMM SECON CODA AMPLIT PERI AZIMU VELO AIN AR TRES W  DIS CAZ7
 LA4  SZ E        2246 25.04                    8.6 29.1      0        38.6 189 
 LA4  SN IP       2246 25.21                             100    0.0110 38.6 189 
 LA4  SE IS       2246 29.98                             100   -0.0110 38.6 189 
 LA4  SZ  AML     2246 30.98        12.0 0.24                          38.6 189 
                                                                                
