 2008 1021 2052 24.9 L  21.423 -99.384 36.6  RAL  2 0.2 1.0LRAL                1
 GAP=279        1.06       1.2     1.4 12.9  0.6160E+00  0.5748E+00  0.2585E+00E
 ACTION:UPD 12-06-08 11:37 OP:RALL STATUS:               ID:20081021205224     I
 2008-10-21-2052-20S.PLUR1_006                                                 6
 STAT SP IPHASW D HRMM SECON CODA AMPLIT PERI AZIMU VELO AIN AR TRES W  DIS CAZ7
 LA4  SZ E        2052 30.32                  228.0 16.9      0        10.3  49 
 LA4  SN IP       2052 30.38                             162   -0.4010 10.3  49 
 LA4  SE IS       2052 34.59                             162   -0.4710 10.3  49 
 LA4  SZ  AML     2052 37.16        19.8 0.68                          10.3  49 
 LZ4  SZ E        2052 31.15                  309.6  7.5      0        15.7 130 
 LZ4  SN IP       2052 31.18                             154    0.1610 15.7 130 
 LZ4  SE IS       2052 36.19                             154    0.7110 15.7 130 
 LZ4  SZ  AML     2052 36.58        11.1 0.16                          15.7 130 
                                                                                
