 2008 1021 2305 46.1 L  21.504 -99.328 10.0  RAL  1 0.2 0.4LRAL                1
 GAP=360        0.68      23.0    22.3  0.0 -0.5140E+03  0.5748E+00  0.2585E+00E
 ACTION:UPD 12-06-08 11:37 OP:RALL STATUS:               ID:20081021230546     I
 2008-10-21-2305-34S.PLUR1_003                                                 6
 STAT SP IPHASW D HRMM SECON CODA AMPLIT PERI AZIMU VELO AIN AR TRES W  DIS CAZ7
 LA4  SZ E        23 5 48.45                  317.9 10.1      0        2.97 138 
 LA4  SN IP       23 5 48.45                             164    0.4210 2.97 138 
 LA4  SE IS       23 5 49.01                             164   -0.4210 2.97 138 
 LA4  SZ  AML     23 5 49.24        14.7 0.32                          2.97 138 
                                                                                
