 2008 1022 0347  7.0 L  21.360 -99.337 10.0  RAL  1 0.0 0.9LRAL                1
 GAP=360        0.30       2.5     6.0  0.0 -0.1491E+02  0.9825E+03 -0.4459E+04E
 ACTION:UPD 12-06-08 11:37 OP:RALL STATUS:               ID:20081022034707     I
 2008-10-22-0346-54S.PLUR1_003                                                 6
 STAT SP IPHASW D HRMM SECON CODA AMPLIT PERI AZIMU VELO AIN AR TRES W  DIS CAZ7
 LZ4  SZ E         347  9.23                  294.3  6.9      0        7.72 114 
 LZ4  SN IP        347  9.30                             142    0.0210 7.72 114 
 LZ4  SE IS        347 10.89                             142   -0.0210 7.72 114 
 LZ4  SZ  AML      347 11.85        39.3 0.36                          7.72 114 
                                                                                
