 2008 1022 0611 49.7 L  21.336 -99.290 10.0  RAL  1 0.1 0.1LRAL                1
 GAP=360        0.38       6.2    23.0  0.0 -0.1435E+03  0.9825E+03 -0.4459E+04E
 ACTION:UPD 12-06-08 11:37 OP:RALL STATUS:               ID:20081022061149     I
 2008-10-22-0611-38S.PLUR1_003                                                 6
 STAT SP IPHASW D HRMM SECON CODA AMPLIT PERI AZIMU VELO AIN AR TRES W  DIS CAZ7
 LZ4  SZ E         611 51.67                  286.2  8.4      0        2.24 106 
 LZ4  SN IP        611 51.73                             168    0.1610 2.24 106 
 LZ4  SE IS        611 52.77                             168   -0.1610 2.24 106 
 LZ4  SZ  AML      611 53.86         6.6 0.28                          2.24 106 
                                                                                
