 2008 1022 0749 28.8 L  21.538 -99.474 10.0  RAL  1 0.0 1.0LRAL                1
 GAP=360        0.30       2.9     2.9  0.0 -0.7495E+01  0.9825E+03 -0.4459E+04E
 ACTION:UPD 12-06-08 11:37 OP:RALL STATUS:               ID:20081022074928     I
 2008-10-22-0749-24S.PLUR1_003                                                 6
 STAT SP IPHASW D HRMM SECON CODA AMPLIT PERI AZIMU VELO AIN AR TRES W  DIS CAZ7
 LZ4  SZ E         749 34.20                  317.3  8.4      0        31.2 137 
 LZ4  SN IP        749 34.25                             103    0.0210 31.2 137 
 LZ4  SE IS        749 38.16                             103   -0.0210 31.2 137 
 LZ4  SZ  AML      749 41.83        19.6 0.56                          31.2 137 
                                                                                
