 2008 1022 0556 57.2 L  21.303 -99.293 10.0  RAL  1 0.1 0.4LRAL                1
 GAP=360        0.37      10.0     8.5  0.0  0.8542E+02  0.9825E+03 -0.4459E+04E
 ACTION:UPD 12-06-08 11:37 OP:RALL STATUS:               ID:20081022055657     I
 2008-10-22-0556-45S.PLUR1_003                                                 6
 STAT SP IPHASW D HRMM SECON CODA AMPLIT PERI AZIMU VELO AIN AR TRES W  DIS CAZ7
 LZ4  SZ E         556 59.31                  218.3 12.1      0        3.96  38 
 LZ4  SN IP        556 59.33                             159    0.1510 3.96  38 
 LZ4  SE IS        557  0.45                             159   -0.1510 3.96  38 
 LZ4  SZ  AML      557  1.53        14.1 0.20                          3.96  38 
                                                                                
