 2008 1022 0531 38.5 L  21.651 -98.660 10.0  RAL  1 0.0 1.1LRAL                1
 GAP=360        0.30       2.4     3.6  0.0  0.4704E+01  0.9825E+03 -0.4459E+04E
 ACTION:UPD 12-06-08 11:37 OP:RALL STATUS:               ID:20081022053138     I
 2008-10-22-0531-40S.PLUR1_003                                                 6
 STAT SP IPHASW D HRMM SECON CODA AMPLIT PERI AZIMU VELO AIN AR TRES W  DIS CAZ7
 LZ4  SZ E         531 50.25                   60.6 99.9      0        72.4 241 
 LZ4  SN IP        531 50.32                              95    0.0110 72.4 241 
 LZ4  SE IS        531 58.89                              95   -0.0110 72.4 241 
 LZ4  SZ  AML      532  1.46         9.3 0.28                          72.4 241 
                                                                                
