 2008 1022 0338 39.4 L  21.646 -99.344  0.0  RAL  2 0.1 0.9LRAL                1
 GAP=359        2.54      24.1     6.5316.2 -0.1252E+03  0.9825E+03 -0.4459E+04E
 ACTION:UPD 12-06-08 11:37 OP:RALL STATUS:               ID:20081022033839     I
 2008-10-22-0338-30S.PLUR1_006                                                 6
 STAT SP IPHASW D HRMM SECON CODA AMPLIT PERI AZIMU VELO AIN AR TRES W  DIS CAZ7
 LA4  SZ E         338 42.48                  354.2  8.0      6        18.4 169 
 LA4  SN IP        338 42.48                              94   -0.1410 18.4 169 
 LA4  SE IS        338 44.89                              94   -0.0810 18.4 169 
 LA4  SZ  AML      338 46.58        19.3 0.24                          18.4 169 
 LZ4  SZ E         338 45.56                  336.6 96.5    -10        35.8 167 
 LZ4  SN IP        338 45.71                              92    0.0510 35.8 167 
 LZ4  SE IS        338 50.40                              92    0.1710 35.8 167 
 LZ4  SZ  AML      338 53.72        20.0 0.56                          35.8 167 
                                                                                
