 2008 1022 0702 40.4 L  21.647 -99.372 10.0  RAL  1 0.0 0.7LRAL                1
 GAP=360        0.30       3.8     1.6  0.0 -0.5616E+01  0.9825E+03 -0.4459E+04E
 ACTION:UPD 12-06-08 11:37 OP:RALL STATUS:               ID:20081022070240     I
 2008-10-22-0702-31S.PLUR1_003                                                 6
 STAT SP IPHASW D HRMM SECON CODA AMPLIT PERI AZIMU VELO AIN AR TRES W  DIS CAZ7
 LA4  SN IP        7 2 44.04                             115    0.0010 19.2 160 
 LA4  SZ E         7 2 44.05                  340.1  8.5      0        19.2 160 
 LA4  SE IS        7 2 46.71                             115    0.0010 19.2 160 
 LA4  SZ  AML      7 2 48.14        12.8 0.28                          19.2 160 
                                                                                
