 2008 1022 0112 36.5 L  21.341 -99.292  3.9  RAL  2 0.1 0.9LRAL                1
 GAP=237        0.48       0.4     0.7  3.2 -0.2627E+00  0.7516E+00 -0.3667E+00E
 ACTION:UPD 12-06-08 11:37 OP:RALL STATUS:               ID:20081022011236     I
 2008-10-22-0112-23S.PLUR1_006                                                 6
 STAT SP IPHASW D HRMM SECON CODA AMPLIT PERI AZIMU VELO AIN AR TRES W  DIS CAZ7
 LZ4  SN IP        112 37.37                             153   -0.1310 2.57 116 
 LZ4  SZ E         112 37.39                  296.7  7.3      0        2.57 116 
 LZ4  SE IS        112 38.28                             153    0.0710 2.57 116 
 LZ4  SZ  AML      112 38.40       120.8 0.40                          2.57 116 
 LA4  SN IP        112 39.24                             109   -0.2010 15.9 354 
 LA4  SZ E         112 39.30                  174.1 10.4      1        15.9 354 
 LA4  SE IS        112 41.82                             109    0.2610 15.9 354 
 LA4  SZ  AML      112 43.38        21.0 0.24                          15.9 354 
                                                                                
