 2008 1022 1348  4.1 L  21.337 -99.284 10.0  RAL  1 0.1 0.6LRAL                1
 GAP=360        0.54      17.9    43.4  0.0 -0.7775E+03  0.9825E+03 -0.4459E+04E
 ACTION:UPD 12-06-08 11:37 OP:RALL STATUS:               ID:20081022134804     I
 2008-10-22-1347-52S.PLUR1_003                                                 6
 STAT SP IPHASW D HRMM SECON CODA AMPLIT PERI AZIMU VELO AIN AR TRES W  DIS CAZ7
 LZ4  SZ E        1348  6.18                  294.0 10.4      0        1.59 114 
 LZ4  SN IP       1348  6.23                             171    0.3010 1.59 114 
 LZ4  SE IS       1348  6.97                             171   -0.3010 1.59 114 
 LZ4  SZ  AML     1348  7.67        19.9 0.56                          1.59 114 
                                                                                
