 2008 1022 1532 40.3 L  21.238 -99.270  7.5  RAL  2 0.0 0.6LRAL                1
 GAP=222        0.38       0.5     0.3  5.0  0.1073E+00 -0.2223E+00 -0.3677E+00E
 ACTION:UPD 12-06-08 11:37 OP:RALL STATUS:               ID:20081022153240     I
 2008-10-22-1532-28S.PLUR1_006                                                 6
 STAT SP IPHASW D HRMM SECON CODA AMPLIT PERI AZIMU VELO AIN AR TRES W  DIS CAZ7
 LD5  SZ E        1532 42.31                   42.4 10.0      0        7.74 222 
 LD5  SN IP       1532 42.31                             133    0.1010 7.74 222 
 LD5  SE IS       1532 43.72                             133    0.0910 7.74 222 
 LD5  SZ  AML     1532 44.86         8.0 0.28                          7.74 222 
 LZ4  SZ E        1532 42.48                  180.8  8.9      0        10.2   0 
 LZ4  SN E        1532 42.49                                           10.2   0 
 LZ4  SN IP       1532 42.49                             124   -0.0210 10.2   0 
 LZ4  SE IS       1532 43.99                             124   -0.1710 10.2   0 
 LZ4  SZ  AML     1532 44.50        48.4 0.36                          10.2   0 
                                                                                
