 2008 1022 1455  0.5 L  21.589 -99.388 10.0  RAL  1 0.0 0.6LRAL                1
 GAP=360        0.30       3.6     2.8  0.0 -0.9921E+01  0.9825E+03 -0.4459E+04E
 ACTION:UPD 12-06-08 11:37 OP:RALL STATUS:               ID:20081022145500     I
 2008-10-22-1454-51S.PLUR1_003                                                 6
 STAT SP IPHASW D HRMM SECON CODA AMPLIT PERI AZIMU VELO AIN AR TRES W  DIS CAZ7
 LA4  SZ E        1455  3.43                  324.8 10.2      0        14.3 145 
 LA4  SN IP       1455  3.49                             124    0.0110 14.3 145 
 LA4  SE IS       1455  5.65                             124   -0.0110 14.3 145 
 LA4  SZ  AML     1455  5.87        13.8 0.24                          14.3 145 
                                                                                
