 2008 1022 1254  0.7 L  21.345 -99.293 10.0  RAL  1 0.1 0.2LRAL                1
 GAP=360        0.58      14.8    24.1  0.0 -0.3564E+03  0.9825E+03 -0.4459E+04E
 ACTION:UPD 12-06-08 11:37 OP:RALL STATUS:               ID:20081022125400     I
 2008-10-22-1253-49S.PLUR1_003                                                 6
 STAT SP IPHASW D HRMM SECON CODA AMPLIT PERI AZIMU VELO AIN AR TRES W  DIS CAZ7
 LZ4  SZ E        1254  2.89                  303.3 10.3      0        2.90 123 
 LZ4  SN IP       1254  2.94                             164    0.3410 2.90 123 
 LZ4  SZ  AML     1254  3.54         8.3 0.40                          2.90 123 
 LZ4  SE IS       1254  3.64                             164   -0.3410 2.90 123 
                                                                                
