 2008 1022 1511 35.2 L  21.708 -99.502 10.0  RAL  1 0.0 0.6LRAL                1
 GAP=360        0.30       3.0     2.7  0.0 -0.7306E+01  0.9825E+03 -0.4459E+04E
 ACTION:UPD 12-06-08 11:37 OP:RALL STATUS:               ID:20081022151135     I
 2008-10-22-1511-31S.PLUR1_003                                                 6
 STAT SP IPHASW D HRMM SECON CODA AMPLIT PERI AZIMU VELO AIN AR TRES W  DIS CAZ7
 LA4  SZ E        1511 40.71                  321.3 14.4      0        31.9 141 
 LA4  SN IP       1511 40.76                             103    0.0210 31.9 141 
 LA4  SE IS       1511 44.75                             103   -0.0210 31.9 141 
 LA4  SZ  AML     1511 46.47         8.0 0.52                          31.9 141 
                                                                                
