 2008 1022 1042  2.9 L  21.337 -99.287 10.0  RAL  1 0.1 0.4LRAL                1
 GAP=360        0.47     972.8   440.8  0.0  0.4289E+06  0.9825E+03 -0.4459E+04E
 ACTION:UPD 12-06-08 11:37 OP:RALL STATUS:               ID:20081022104202     I
 2008-10-22-1041-51S.PLUR1_003                                                 6
 STAT SP IPHASW D HRMM SECON CODA AMPLIT PERI AZIMU VELO AIN AR TRES W  DIS CAZ7
 LZ4  SZ E        1042  4.94                  291.2  8.3      0        1.91 111 
 LZ4  SN IP       1042  4.99                             170    0.2510 1.91 111 
 LZ4  SE IS       1042  5.85                             170   -0.2510 1.91 111 
 LZ4  SZ  AML     1042  6.07        13.6 0.28                          1.91 111 
                                                                                
