 2008 1022 1535 40.9 L  21.334 -99.281 10.0  RAL  1 0.2 0.3LRAL                1
 GAP=360        2.28     629.5   500.8  0.0  0.3153E+06 -0.2223E+00 -0.3677E+00E
 ACTION:UPD 12-06-08 11:37 OP:RALL STATUS:               ID:20081022153540     I
 2008-10-22-1535-29S.PLUR1_003                                                 6
 STAT SP IPHASW D HRMM SECON CODA AMPLIT PERI AZIMU VELO AIN AR TRES W  DIS CAZ7
 LZ4  SZ E        1535 42.72                  278.3 11.2    -10        1.24 109 
 LZ4  SN IP       1535 43.03                             173    0.2510 1.24 109 
 LZ4  SE IS       1535 43.87                             173   -0.2510 1.24 109 
 LZ4  SZ  AML     1535 44.03        12.3 0.44                          1.24 109 
                                                                                
