 2008 1022 1800 54.5 L  21.520 -99.309 10.0  RAL  1 0.0 0.7LRAL                1
 GAP=360        0.30      10.2     0.2  0.0 -0.1148E+01 -0.2632E+01 -0.1084E+01E
 ACTION:UPD 12-06-08 11:37 OP:RALL STATUS:               ID:20081022180054     I
 2008-10-22-1800-43S.PLUR1_003                                                 6
 STAT SP IPHASW D HRMM SECON CODA AMPLIT PERI AZIMU VELO AIN AR TRES W  DIS CAZ7
 LA4  SZ E        18 0 56.44                  359.4  8.1      0        4.04 179 
 LA4  SN IP       18 0 56.46                             159    0.0110 4.04 179 
 LA4  SE IS       18 0 57.87                             159   -0.0110 4.04 179 
 LA4  SZ  AML     18 0 58.29        26.6 0.24                          4.04 179 
                                                                                
