 2008 1022 1209 37.7 L  21.399 -99.679 10.0  RAL  1 0.0 0.8LRAL                1
 GAP=360        0.30       1.3     4.0  0.0 -0.2361E+01  0.9825E+03 -0.4459E+04E
 ACTION:UPD 12-06-08 11:37 OP:RALL STATUS:               ID:20081022120937     I
 2008-10-22-1209-38S.PLUR1_003                                                 6
 STAT SP IPHASW D HRMM SECON CODA AMPLIT PERI AZIMU VELO AIN AR TRES W  DIS CAZ7
 LZ4  SN IP       12 9 44.97                              99    0.0110 43.1 100 
 LZ4  SZ E        12 9 46.45                  280.2 56.1      0        43.1 100 
 LZ4  SE IS       12 9 50.24                              99   -0.0110 43.1 100 
 LZ4  SZ  AML     12 9 51.71         9.1 0.60                          43.1 100 
                                                                                
