 2008 1022 1540 33.4 L  21.313 -99.301 10.0  RAL  1 0.1 0.6LRAL                1
 GAP=360        0.36       6.6    11.8  0.0  0.7793E+02 -0.2223E+00 -0.3677E+00E
 ACTION:UPD 12-06-08 11:37 OP:RALL STATUS:               ID:20081022154033     I
 2008-10-22-1540-21S.PLUR1_003                                                 6
 STAT SP IPHASW D HRMM SECON CODA AMPLIT PERI AZIMU VELO AIN AR TRES W  DIS CAZ7
 LZ4  SZ E        1540 35.40                  239.1 16.3      0        3.82  59 
 LZ4  SN IP       1540 35.47                             160    0.1410 3.82  59 
 LZ4  SE IS       1540 36.61                             160   -0.1410 3.82  59 
 LZ4  SZ  AML     1540 37.28        19.7 0.36                          3.82  59 
                                                                                
