 2008 1022 1110 24.3 L  21.254 -99.296 10.0  RAL  1 0.0 0.5LRAL                1
 GAP=360        0.30       5.3     1.9  0.0  0.9770E+01  0.9825E+03 -0.4459E+04E
 ACTION:UPD 12-06-08 11:37 OP:RALL STATUS:               ID:20081022111024     I
 2008-10-22-1110-14S.PLUR1_003                                                 6
 STAT SP IPHASW D HRMM SECON CODA AMPLIT PERI AZIMU VELO AIN AR TRES W  DIS CAZ7
 LZ4  SN IP       1110 26.68                             138    0.0210 8.96  18 
 LZ4  SZ E        1110 26.74                  198.2 16.2      0        8.96  18 
 LZ4  SE IS       1110 28.36                             138   -0.0210 8.96  18 
 LZ4  SZ  AML     1110 28.57        14.9 0.24                          8.96  18 
                                                                                
