 2008 1022 1718 15.8 L  21.199 -99.281 13.5  RAL  2 0.3 0.7LRAL                1
 GAP=246        1.45       0.9     2.0 13.1  0.1300E+01 -0.2632E+01 -0.1084E+01E
 ACTION:UPD 12-06-08 11:37 OP:RALL STATUS:               ID:20081022171815     I
 2008-10-22-1718-04S.PLUR1_006                                                 6
 STAT SP IPHASW D HRMM SECON CODA AMPLIT PERI AZIMU VELO AIN AR TRES W  DIS CAZ7
 LD5  SZ E        1718 19.11                   71.5 11.4      1        4.33 251 
 LD5  SN IP       1718 19.12                             162    0.8310 4.33 251 
 LD5  SE IS       1718 20.37                             162    0.2810 4.33 251 
 LD5  SZ  AML     1718 21.42         5.7 0.16                          4.33 251 
 LZ4  SZ E        1718 19.10                  185.6  9.4      1        14.6   5 
 LZ4  SN IP       1718 19.11                             132   -0.0610 14.6   5 
 LZ4  SE IS       1718 20.57                             132   -1.0510 14.6   5 
 LZ4  SZ  AML     1718 22.65        43.3 0.60                          14.6   5 
                                                                                
