 2008 1022 2346 30.7 L  21.687 -99.415  2.2  RAL  2 0.1 1.1LRAL                1
 GAP=355        1.69      12.5     6.9 11.5 -0.7175E+02  0.6227E+01 -0.9300E+01E
 ACTION:UPD 12-06-08 11:37 OP:RALL STATUS:               ID:20081022234630     I
 2008-10-22-2346-21S.PLUR1_006                                                 6
 STAT SP IPHASW D HRMM SECON CODA AMPLIT PERI AZIMU VELO AIN AR TRES W  DIS CAZ7
 LA4  SZ E        2346 34.92                  338.0  8.4      4        25.1 154 
 LA4  SN IP       2346 34.96                              98   -0.1310 25.1 154 
 LA4  SE IS       2346 38.31                              98   -0.0110 25.1 154 
 LA4  SZ  AML     2346 38.46        43.5 0.28                          25.1 154 
 LZ4  SN IP       2346 38.33                              63    0.3910 42.2 159 
 LZ4  SZ E        2346 38.65                  332.4 13.1     -6        42.2 159 
 LZ4  SE IS       2346 42.99                              63   -0.2510 42.2 159 
 LZ4  SZ  AML     2346 44.58        14.3 0.36                          42.2 159 
                                                                                
