 2008 1022 2012 36.8 L  21.483 -99.314 10.0  RAL  1 0.1 0.6LRAL                1
 GAP=360        1.71     999.9   236.3  0.0 -0.6723E+06 -0.2632E+01 -0.1084E+01E
 ACTION:UPD 12-06-08 11:37 OP:RALL STATUS:               ID:20081022201236     I
 2008-10-22-2012-25S.PLUR1_003                                                 6
 STAT SP IPHASW D HRMM SECON CODA AMPLIT PERI AZIMU VELO AIN AR TRES W  DIS CAZ7
 LA4  SZ E        2012 38.66                  265.8 12.5      8        0.57  78 
 LA4  SN IP       2012 38.78                             177    0.1010 0.57  78 
 LA4  SE IS       2012 39.93                             177   -0.1010 0.57  78 
 LA4  SZ  AML     2012 40.37        20.0 0.28                          0.57  78 
                                                                                
