 2008 1022 2328 58.2 L  21.302 -99.289 10.0  RAL  1 0.1 0.6LRAL                1
 GAP=360        0.36      10.6     7.3  0.0  0.7759E+02 -0.2632E+01 -0.1084E+01E
 ACTION:UPD 12-06-08 11:37 OP:RALL STATUS:               ID:20081022232858     I
 2008-10-22-2328-45S.PLUR1_003                                                 6
 STAT SP IPHASW D HRMM SECON CODA AMPLIT PERI AZIMU VELO AIN AR TRES W  DIS CAZ7
 LZ4  SZ E        2329  0.16                  212.6 17.2      0        3.84  33 
 LZ4  SN IP       2329  0.24                             159    0.1310 3.84  33 
 LZ4  SE IS       2329  1.39                             159   -0.1310 3.84  33 
 LZ4  SZ  AML     2329  1.55        19.1 0.16                          3.84  33 
                                                                                
