 2008 1023 0623 31.7 L  21.249 -99.260  6.3  RAL  2 0.0 0.3LRAL                1
 GAP=228        0.39       0.5     0.3  6.6  0.5326E-01 -0.1773E-01  0.8072E-01E
 ACTION:UPD 12-06-08 11:37 OP:RALL STATUS:               ID:20081023062331     I
 2008-10-23-0623-20S.PLUR1_006                                                 6
 STAT SP IPHASW D HRMM SECON CODA AMPLIT PERI AZIMU VELO AIN AR TRES W  DIS CAZ7
 LZ4  SN IP        623 33.80                             122    0.0710 9.10 354 
 LZ4  SZ E         623 33.82                  173.3  9.9      0        9.10 354 
 LZ4  SE IS        623 35.34                             122    0.1510 9.10 354 
 LZ4  SZ  AML      623 35.57        31.3 0.24                          9.10 354 
 LD5  SZ E         623 33.69                   41.7 11.6      0        9.34 222 
 LD5  SN IP        623 33.71                             121   -0.0510 9.34 222 
 LD5  SE IS        623 35.09                             121   -0.1610 9.34 222 
 LD5  SZ  AML      623 35.76         3.2 0.14                          9.34 222 
                                                                                
