 2008 1023 0216 26.6 L  21.314 -99.257 10.0  RAL  1 0.2 0.4LRAL                1
 GAP=360        0.79     755.6   999.9  0.0  0.9630E+06  0.6227E+01 -0.9300E+01E
 ACTION:UPD 12-06-08 11:37 OP:RALL STATUS:               ID:20081023021626     I
 2008-10-23-0216-14S.PLUR1_003                                                 6
 STAT SP IPHASW D HRMM SECON CODA AMPLIT PERI AZIMU VELO AIN AR TRES W  DIS CAZ7
 LZ4  SZ E         216 28.48                  145.7 69.8      0        2.29 326 
 LZ4  SN IP        216 28.98                             168    0.5010 2.29 326 
 LZ4  SE IS        216 29.35                             168   -0.5010 2.29 326 
 LZ4  SZ  AML      216 29.51        13.6 0.20                          2.29 326 
                                                                                
