 2008 1023 0551 16.6 L  21.301 -99.276 10.0  RAL  1 0.0 0.6LRAL                1
 GAP=360        0.30      12.0     2.4  0.0  0.2929E+02  0.6227E+01 -0.9300E+01E
 ACTION:UPD 12-06-08 11:37 OP:RALL STATUS:               ID:20081023055116     I
 2008-10-23-0551-05S.PLUR1_003                                                 6
 STAT SP IPHASW D HRMM SECON CODA AMPLIT PERI AZIMU VELO AIN AR TRES W  DIS CAZ7
 LZ4  SN IP        551 18.57                             162    0.0510 3.36  11 
 LZ4  SZ E         551 18.66                  190.7  9.4      0        3.36  11 
 LZ4  SE IS        551 19.87                             162   -0.0510 3.36  11 
 LZ4  SZ  AML      551 20.22        23.2 0.36                          3.36  11 
                                                                                
