 2008 1023 0603  7.2 L  21.338 -99.285 10.0  RAL  1 0.1 0.4LRAL                1
 GAP=360        0.56      16.9    39.3  0.0 -0.6627E+03  0.6227E+01 -0.9300E+01E
 ACTION:UPD 12-06-08 11:37 OP:RALL STATUS:               ID:20081023060307     I
 2008-10-23-0602-54S.PLUR1_003                                                 6
 STAT SP IPHASW D HRMM SECON CODA AMPLIT PERI AZIMU VELO AIN AR TRES W  DIS CAZ7
 LZ4  SZ E         6 3  9.26                  294.8  9.7      0        1.82 115 
 LZ4  SN IP        6 3  9.36                             170    0.3210 1.82 115 
 LZ4  SE IS        6 3 10.07                             170   -0.3210 1.82 115 
 LZ4  SZ  AML      6 3 10.18        12.7 0.16                          1.82 115 
                                                                                
