 2008 1023 0946 26.2 L  21.292 -99.268 10.0  RAL  1 0.0                        1
 GAP=360        0.30       9.7     0.3  0.0 -0.2808E+01  0.6472E+04 -0.2191E+05E
 ACTION:UPD 12-06-08 11:37 OP:RALL STATUS:               ID:20081023094626     I
 2008-10-23-0946-14S.PLUR1_003                                                 6
 STAT SP IPHASW D HRMM SECON CODA AMPLIT PERI AZIMU VELO AIN AR TRES W  DIS CAZ7
 LZ4  SZ E         946 28.12                  178.4 12.9      0        4.26 358 
 LZ4  SN IP        946 28.14                             157    0.0110 4.26 358 
 LZ4  SE IS        946 29.55                             157   -0.0110 4.26 358 
                                                                                
