 2008 1023 0003  3.1 L  21.612 -99.367 10.0  RAL  1 0.0 1.1LRAL                1
 GAP=360        0.30       4.0     1.8  0.0 -0.7122E+01  0.6227E+01 -0.9300E+01E
 ACTION:UPD 12-06-08 11:37 OP:RALL STATUS:               ID:20081023000303     I
 2008-10-23-0002-53S.PLUR1_003                                                 6
 STAT SP IPHASW D HRMM SECON CODA AMPLIT PERI AZIMU VELO AIN AR TRES W  DIS CAZ7
 LA4  SN IP        0 3  6.20                             121    0.0110 15.4 157 
 LA4  SZ E         0 3  6.22                  337.2  7.8      0        15.4 157 
 LA4  SE IS        0 3  8.48                             121   -0.0110 15.4 157 
 LA4  SZ  AML      0 3  8.71        40.3 0.24                          15.4 157 
                                                                                
