 2008 1023 0650  3.6 L  21.646 -99.320 10.0  RAL  1 0.0 0.7LRAL                1
 GAP=360        0.30       4.1     0.6  0.0 -0.1119E+01  0.6472E+04 -0.2191E+05E
 ACTION:UPD 12-06-08 11:37 OP:RALL STATUS:               ID:20081023065003     I
 2008-10-23-0649-55S.PLUR1_003                                                 6
 STAT SP IPHASW D HRMM SECON CODA AMPLIT PERI AZIMU VELO AIN AR TRES W  DIS CAZ7
 LA4  SN IP        650  7.12                             117    0.0210 17.9 176 
 LA4  SZ E         650  7.15                  356.5 12.3      0        17.9 176 
 LA4  SE IS        650  9.63                             117   -0.0210 17.9 176 
 LA4  SZ  AML      650 11.00        14.6 0.24                          17.9 176 
                                                                                
