 2008 1023 0627 56.9 L  21.695 -99.371  0.0  RAL  2 0.2 1.7LRAL                1
 GAP=359        4.20      41.9    14.7803.6 -0.4994E+03  0.6472E+04 -0.2191E+05E
 ACTION:UPD 12-06-08 11:37 OP:RALL STATUS:               ID:20081023062756     I
 2008-10-23-0627-47S.PLUR1_006                                                 6
 STAT SP IPHASW D HRMM SECON CODA AMPLIT PERI AZIMU VELO AIN AR TRES W  DIS CAZ7
 LA4  SN IP        628  1.17                              93    0.0210 24.3 165 
 LA4  SZ E         628  1.20                  355.0  8.9     10        24.3 165 
 LA4  SE IS        628  4.12                              93   -0.1410 24.3 165 
 LA4  SZ  AML      628  5.44       194.5 0.32                          24.3 165 
 LZ4  SZ E         628  4.25                  327.7  6.7    -17        41.7 165 
 LZ4  SN IP        628  4.28                              91    0.0910 41.7 165 
 LZ4  SE IS        628  9.55                              91    0.0310 41.7 165 
 LZ4  SZ  AML      628 11.57        38.7 0.44                          41.7 165 
                                                                                
