 2008 1023 0242 19.4 L  21.660 -99.643 10.0  RAL  1 0.0 1.1LRAL                1
 GAP=360        0.30       2.7     3.1  0.0 -0.6449E+01  0.6227E+01 -0.9300E+01E
 ACTION:UPD 12-06-08 11:37 OP:RALL STATUS:               ID:20081023024219     I
 2008-10-23-0242-20S.PLUR1_003                                                 6
 STAT SP IPHASW D HRMM SECON CODA AMPLIT PERI AZIMU VELO AIN AR TRES W  DIS CAZ7
 LZ4  SN IP        242 28.16                              97    0.0110 53.2 133 
 LZ4  SZ E         242 28.44                  313.3 16.0      0        53.2 133 
 LZ4  SE IS        242 34.55                              97   -0.0110 53.2 133 
 LZ4  SZ  AML      242 35.70        15.6 0.68                          53.2 133 
                                                                                
