 2008 1023 0630 30.9 L  21.614 -99.422 10.0  RAL  1 0.0 0.5LRAL                1
 GAP=360        0.30       3.2     2.8  0.0 -0.8709E+01  0.6472E+04 -0.2191E+05E
 ACTION:UPD 12-06-08 11:37 OP:RALL STATUS:               ID:20081023063030     I
 2008-10-23-0630-22S.PLUR1_003                                                 6
 STAT SP IPHASW D HRMM SECON CODA AMPLIT PERI AZIMU VELO AIN AR TRES W  DIS CAZ7
 LA4  SZ E         630 34.01                  321.1  9.2      0        18.6 141 
 LA4  SN IP        630 34.53                             116    0.0110 18.6 141 
 LA4  SZ  AML      630 36.88         9.7 0.24                          18.6 141 
 LA4  SE IS        630 37.13                             116   -0.0110 18.6 141 
                                                                                
