 2008 1023 0109 45.7 L  21.642 -99.327 10.0  RAL  1 0.0 0.9LRAL                1
 GAP=360        0.30       4.2     0.7  0.0 -0.1996E+01  0.6227E+01 -0.9300E+01E
 ACTION:UPD 12-06-08 11:37 OP:RALL STATUS:               ID:20081023010945     I
 2008-10-23-0109-37S.PLUR1_003                                                 6
 STAT SP IPHASW D HRMM SECON CODA AMPLIT PERI AZIMU VELO AIN AR TRES W  DIS CAZ7
 LA4  SN IP        1 9 49.12                             117    0.0210 17.6 174 
 LA4  SZ E         1 9 49.17                  353.8 11.5      0        17.6 174 
 LA4  SE IS        1 9 51.59                             117   -0.0210 17.6 174 
 LA4  SZ  AML      1 9 52.18        23.0 0.24                          17.6 174 
                                                                                
