 2008 1023 0926 48.9 L  21.306 -99.277 10.0  RAL  1 0.1 0.6LRAL                1
 GAP=360        0.36      16.5     5.0  0.0  0.8186E+02  0.6472E+04 -0.2191E+05E
 ACTION:UPD 12-06-08 11:37 OP:RALL STATUS:               ID:20081023092648     I
 2008-10-23-0926-37S.PLUR1_003                                                 6
 STAT SP IPHASW D HRMM SECON CODA AMPLIT PERI AZIMU VELO AIN AR TRES W  DIS CAZ7
 LZ4  SZ E         926 50.85                  195.7 35.3      0        2.81  16 
 LZ4  SN IP        926 50.88                             165    0.1410 2.81  16 
 LZ4  SE IS        926 51.98                             165   -0.1410 2.81  16 
 LZ4  SZ  AML      926 52.10        21.9 0.16                          2.81  16 
                                                                                
