 2008 1023 1705  3.0 L  21.941 -99.500  0.0  RAL  3 0.4 1.6LRAL                1
 GAP=351        4.88     266.2    99.9547.0 -0.2613E+05 -0.5345E+05  0.1444E+06E
 ACTION:UPD 12-06-08 11:37 OP:RALL STATUS:               ID:20081023170503     I
 2008-10-23-1704-59S.PLUR1_009                                                 6
 STAT SP IPHASW D HRMM SECON CODA AMPLIT PERI AZIMU VELO AIN AR TRES W  DIS CAZ7
 LA4  SN IP       17 5 11.47                              63   -0.8810 54.3 159 
 LA4  SZ E        17 5 11.52                  347.9 10.7      9        54.3 159 
 LA4  SE IS       17 5 18.30                              63   -0.8610 54.3 159 
 LA4  SZ  AML     17 5 23.02       103.5 0.44                          54.3 159 
 LZ4  SN IP       17 5 14.64                              63   -0.3910 71.6 161 
 LZ4  SZ E        17 5 14.71                  318.6  8.5    -21        71.6 161 
 LZ4  SE IS       17 5 24.78                              63    0.9810 71.6 161 
 LZ4  SZ  AML     17 5 32.06        90.5 0.48                          71.6 161 
 LD5  SZ E        17 5 17.96                  358.6 18.6     11        85.6 167 
 LD5  SN IP       17 5 18.40                              63    1.2010 85.6 167 
 LD5  SE IS       17 5 27.50                              63   -0.0410 85.6 167 
 LD5  SZ  AML     17 5 31.66         5.1 0.38                          85.6 167 
                                                                                
