 2008 1023 1930  7.0 L  21.998 -99.481 10.0  RAL  1 0.0 1.3LRAL                1
 GAP=360        0.30       3.6     2.0  0.0 -0.3515E+01 -0.7545E+05  0.3625E+06E
 ACTION:UPD 12-06-08 11:37 OP:RALL STATUS:               ID:20081023193007     I
 2008-10-23-1930-10S.PLUR1_003                                                 6
 STAT SP IPHASW D HRMM SECON CODA AMPLIT PERI AZIMU VELO AIN AR TRES W  DIS CAZ7
 LA4  SZ E        1930 16.75                  342.7 13.0      0        59.6 163 
 LA4  SN IP       1930 16.82                              96    0.0110 59.6 163 
 LA4  SN EP       1930 18.36                              98           59.6 163 
 LA4  SE IS       1930 23.95                              96   -0.0110 59.6 163 
 LA4  SZ  AML     1930 27.04        19.5 0.60                          59.6 163 
                                                                                
