 2008 1023 1147 46.6 L  21.708 -99.329 10.0  RAL  1 0.0 1.1LRAL                1
 GAP=360        0.30       3.9     0.8  0.0 -0.1299E+01  0.6472E+04 -0.2191E+05E
 ACTION:UPD 12-06-08 11:37 OP:RALL STATUS:               ID:20081023114746     I
 2008-10-23-1147-39S.PLUR1_003                                                 6
 STAT SP IPHASW D HRMM SECON CODA AMPLIT PERI AZIMU VELO AIN AR TRES W  DIS CAZ7
 LA4  SN IP       1147 51.14                             108    0.0110 24.9 175 
 LA4  SZ E        1147 51.28                  355.3 11.9      0        24.9 175 
 LA4  SE IS       1147 54.40                             108   -0.0110 24.9 175 
 LA4  SZ  AML     1147 54.61        26.3 0.24                          24.9 175 
                                                                                
