 2008 1023 1235 52.7 L  21.668 -99.398  0.0  RAL  2 0.3 1.0LRAL                1
 GAP=355        4.75      43.6    21.9792.7 -0.8598E+03  0.1030E+05 -0.2166E+05E
 ACTION:UPD 12-06-08 11:37 OP:RALL STATUS:               ID:20081023123552     I
 2008-10-23-1235-44S.PLUR1_006                                                 6
 STAT SP IPHASW D HRMM SECON CODA AMPLIT PERI AZIMU VELO AIN AR TRES W  DIS CAZ7
 LA4  SZ E        1235 56.87                  346.6  8.8     11        22.4 156 
 LA4  SN IP       1235 56.97                              93    0.3310 22.4 156 
 LA4  SE IS       1235 59.06                              93   -0.4410 22.4 156 
 LA4  SZ  AML     1235 59.63        28.5 0.24                          22.4 156 
 LZ4  SN IP       1235 59.87                              92    0.2210 39.6 160 
 LZ4  SZ E        1236  1.32                  320.1 16.3    -19        39.6 160 
 LZ4  SE IS       1236  4.59                              92   -0.1210 39.6 160 
 LZ4  SZ  AML     1236  6.59        14.6 0.96                          39.6 160 
                                                                                
