 2008 1023 1709 30.9 L  21.960 -99.416  3.0  RAL  3 0.4 1.9LRAL                1
 GAP=354        4.93     429.3    91.0847.2 -0.3831E+05 -0.7545E+05  0.3625E+06E
 ACTION:UPD 12-06-08 11:37 OP:RALL STATUS:               ID:20081023170930     I
 2008-10-23-1709-25S.PLUR1_012                                                 6
 STAT SP IPHASW D HRMM SECON CODA AMPLIT PERI AZIMU VELO AIN AR TRES W  DIS CAZ7
 LA4  SZ E        17 9 39.19                    1.0  7.4     13        53.9 168 
 LA4  SN IP       17 9 39.24                              63   -0.7010 53.9 168 
 LA4  SE IS       17 9 45.48                              63   -1.0410 53.9 168 
 LA4  SZ  AML     17 9 50.68       206.8 0.40                          53.9 168 
 LZ4  SN IP       17 9 42.24                              63   -0.3910 71.3 168 
 LZ4  SZ E        17 9 42.24                  324.9  7.1    -22        71.3 168 
 LZ4  SE IS       17 9 51.45                              63    0.2710 71.3 168 
 LZ4  SZ  AML     17 9 53.19       150.9 0.28                          71.3 168 
 LD5  SZ E        17 9 45.22                  359.2 13.1      6        86.2 173 
 LD5  SN IP       17 9 46.03                              63    1.0810 86.2 173 
 LD5  SE IS       17 9 55.98                              63    0.7910 86.2 173 
 LD5  SZ  AML     17 9 59.34        11.0 0.36                          86.2 173 
                                                                                
