 2008 1023 1330 24.9 L  21.958 -99.759 10.0  RAL  1 0.0 1.5LRAL                1
 GAP=360        0.30       3.3     3.0  0.0 -0.4519E+01  0.2172E+03 -0.9724E+03E
 ACTION:UPD 12-06-08 11:37 OP:RALL STATUS:               ID:20081023133024     I
 2008-10-23-1330-26S.PLUR1_003                                                 6
 STAT SP IPHASW D HRMM SECON CODA AMPLIT PERI AZIMU VELO AIN AR TRES W  DIS CAZ7
 LZ4  SZ E        1330 38.76                  324.0  9.4      0        86.0 144 
 LZ4  SN IP       1330 38.78                              94    0.0110 86.0 144 
 LZ4  SE IS       1330 48.88                              94   -0.0110 86.0 144 
 LZ4  SZ  AML     1330 53.39        21.6 0.96                          86.0 144 
                                                                                
