 2008 1023 1733 13.8 L  21.330 -99.278 10.0  RAL  1 0.1 0.8LRAL                1
 GAP=360        1.64     999.9    28.4  0.0 -0.4809E+05 -0.7545E+05  0.3625E+06E
 ACTION:UPD 12-06-08 11:37 OP:RALL STATUS:               ID:20081023173313     I
 2008-10-23-1733-01S.PLUR1_003                                                 6
 STAT SP IPHASW D HRMM SECON CODA AMPLIT PERI AZIMU VELO AIN AR TRES W  DIS CAZ7
 LZ4  SZ E        1733 15.79                  269.1 11.1      8        0.91  81 
 LZ4  SN IP       1733 15.83                             175    0.1710 0.91  81 
 LZ4  SE IS       1733 16.84                             175   -0.1710 0.91  81 
 LZ4  SZ  AML     1733 17.05        32.3 0.40                          0.91  81 
                                                                                
