 2008 1023 1043 19.4 L  21.515 -99.367 10.0  RAL  1 0.0 0.7LRAL                1
 GAP=360        0.30       3.5     2.0  0.0 -0.6480E+01  0.6472E+04 -0.2191E+05E
 ACTION:UPD 12-06-08 11:37 OP:RALL STATUS:               ID:20081023104319     I
 2008-10-23-1043-12S.PLUR1_003                                                 6
 STAT SP IPHASW D HRMM SECON CODA AMPLIT PERI AZIMU VELO AIN AR TRES W  DIS CAZ7
 LZ4  SZ E        1043 23.52                  333.6 36.6      0        22.8 154 
 LZ4  SN IP       1043 23.59                             110    0.0010 22.8 154 
 LZ4  SE IS       1043 26.63                             110    0.0010 22.8 154 
 LZ4  SZ  AML     1043 29.36        10.8 0.64                          22.8 154 
                                                                                
