 2008 1023 1232 10.2 L  21.555 -99.363 10.0  RAL  1 0.0 0.1LRAL                1
 GAP=360        0.30       4.3     3.3  0.0 -0.1436E+02  0.1448E+01  0.1567E+02E
 ACTION:UPD 12-06-08 11:37 OP:RALL STATUS:               ID:20081023123210     I
 2008-10-23-1232-00S.PLUR1_003                                                 6
 STAT SP IPHASW D HRMM SECON CODA AMPLIT PERI AZIMU VELO AIN AR TRES W  DIS CAZ7
 LA4  SZ E        1232 12.23                  324.4  9.8      0        9.67 144 
 LA4  SN IP       1232 12.62                             136    0.0210 9.67 144 
 LA4  SE IS       1232 14.37                             136   -0.0210 9.67 144 
 LA4  SZ  AML     1232 14.63         4.8 0.20                          9.67 144 
                                                                                
