 2008 1023 1313 12.2 L  21.678 -99.352  0.0  RAL  2 0.1 1.2LRAL                1
 GAP=359        0.98       9.7     2.8159.3 -0.2053E+02  0.2172E+03 -0.9724E+03E
 ACTION:UPD 12-06-08 11:37 OP:RALL STATUS:               ID:20081023131312     I
 2008-10-23-1313-02S.PLUR1_006                                                 6
 STAT SP IPHASW D HRMM SECON CODA AMPLIT PERI AZIMU VELO AIN AR TRES W  DIS CAZ7
 LA4  SZ E        1313 15.97                  350.2  8.6      2        22.0 168 
 LA4  SN IP       1313 15.98                              93   -0.0610 22.0 168 
 LA4  SE IS       1313 18.46                              93   -0.3910 22.0 168 
 LA4  SZ  AML     1313 20.52        33.6 0.64                          22.0 168 
 LZ4  SN IP       1313 19.12                              92    0.0410 39.4 167 
 LZ4  SZ E        1313 19.17                  344.4  7.3     -2        39.4 167 
 LZ4  SE IS       1313 24.52                              92    0.4110 39.4 167 
 LZ4  SZ  AML     1313 25.52        31.6 0.28                          39.4 167 
                                                                                
