 2008 1023 1150 45.6 L  21.641 -99.328  0.0  RAL  2 0.3 0.9LRAL                1
 GAP=356        4.28      40.2     8.2508.0 -0.2101E+03  0.1507E+04 -0.1167E+05E
 ACTION:UPD 12-06-08 11:37 OP:RALL STATUS:               ID:20081023115045     I
 2008-10-23-1150-35S.PLUR1_006                                                 6
 STAT SP IPHASW D HRMM SECON CODA AMPLIT PERI AZIMU VELO AIN AR TRES W  DIS CAZ7
 LA4  SZ E        1150 48.30                    3.8  9.3     10        17.5 174 
 LA4  SN IP       1150 48.37                              94   -0.3410 17.5 174 
 LA4  SE IS       1150 50.75                              94   -0.1910 17.5 174 
 LA4  SZ  AML     1150 51.38        19.6 0.24                          17.5 174 
 LZ4  SN IP       1150 51.65                              92   -0.0810 34.8 170 
 LZ4  SZ E        1150 51.92                  332.1  8.7    -17        34.8 170 
 LZ4  SE IS       1150 56.79                              92    0.6110 34.8 170 
 LZ4  SZ  AML     1150 57.92        15.4 0.36                          34.8 170 
                                                                                
