 2008 1023 1154 34.0 L  21.702 -99.409  1.1  RAL  3 0.2 1.7LRAL                1
 GAP=346        2.81      17.2     8.6 17.5 -0.1077E+03  0.1448E+01  0.1567E+02E
 ACTION:UPD 12-06-08 11:37 OP:RALL STATUS:               ID:20081023115434     I
 2008-10-23-1154-24S.PLUR1_009                                                 6
 STAT SP IPHASW D HRMM SECON CODA AMPLIT PERI AZIMU VELO AIN AR TRES W  DIS CAZ7
 LA4  SN IP       1154 38.43                              95   -0.2010 26.2 157 
 LA4  SZ E        1154 38.46                  345.9 10.2      9        26.2 157 
 LA4  SE IS       1154 41.84                              95   -0.1510 26.2 157 
 LA4  SZ  AML     1154 41.97       394.0 0.24                          26.2 157 
 LZ4  SZ E        1154 41.86                  329.9  7.7    -10        43.5 161 
 LZ4  SN IP       1154 41.91                              63    0.3310 43.5 161 
 LZ4  SE IS       1154 46.42                              63   -0.6710 43.5 161 
 LZ4  SZ  AML     1154 49.13       117.2 0.40                          43.5 161 
 LD5  SZ E        1154 44.39                  344.7 16.1     -5        57.7 171 
 LD5  SN IP       1154 44.41                              63    0.6210 57.7 171 
 LD5  SE IS       1154 50.98                              63    0.0610 57.7 171 
 LD5  SZ  AML     1154 52.14         9.5 0.44                          57.7 171 
                                                                                
