 2008 1023 1354 38.5 L  21.333 -99.272 10.0  RAL  1 0.8 0.5LRAL                1
 GAP=360       10.22     999.9   999.9  0.0  0.6870E+07  0.2172E+03 -0.9724E+03E
 ACTION:UPD 12-06-08 11:37 OP:RALL STATUS:               ID:20081023135438     I
 2008-10-23-1354-25S.PLUR1_003                                                 6
 STAT SP IPHASW D HRMM SECON CODA AMPLIT PERI AZIMU VELO AIN AR TRES W  DIS CAZ7
 LZ4  SZ E        1354 40.27                  267.8 10.5    -48        0.40 137 
 LZ4  SN IP       1354 40.59                             178    0.2310 0.40 137 
 LZ4  SE IS       1354 41.47                             178   -0.2310 0.40 137 
 LZ4  SZ  AML     1354 42.34        19.3 0.88                          0.40 137 
                                                                                
