 2008 1023 1826 35.2 L  21.331 -99.280 10.0  RAL  1 0.1 0.5LRAL                1
 GAP=360        0.57     999.9   138.6  0.0  0.4799E+06 -0.7545E+05  0.3625E+06E
 ACTION:UPD 12-06-08 11:37 OP:RALL STATUS:               ID:20081023182635     I
 2008-10-23-1826-24S.PLUR1_003                                                 6
 STAT SP IPHASW D HRMM SECON CODA AMPLIT PERI AZIMU VELO AIN AR TRES W  DIS CAZ7
 LZ4  SZ E        1826 37.08                  273.1 15.3      0        1.05  93 
 LZ4  SN IP       1826 37.39                             174    0.3310 1.05  93 
 LZ4  SE IS       1826 38.07                             174   -0.3310 1.05  93 
 LZ4  SZ  AML     1826 39.76        18.5 0.60                          1.05  93 
                                                                                
