 2008 1023 1034 21.8 L  21.714 -99.274 10.0  RAL  1 0.0 0.7LRAL                1
 GAP=360        0.30       3.8     0.9  0.0  0.2172E+01  0.6472E+04 -0.2191E+05E
 ACTION:UPD 12-06-08 11:37 OP:RALL STATUS:               ID:20081023103421     I
 2008-10-23-1034-15S.PLUR1_003                                                 6
 STAT SP IPHASW D HRMM SECON CODA AMPLIT PERI AZIMU VELO AIN AR TRES W  DIS CAZ7
 LA4  SN IP       1034 26.44                             107    0.0110 25.7 188 
 LA4  SZ E        1034 26.51                    8.0  8.8      0        25.7 188 
 LA4  SE IS       1034 29.78                             107   -0.0110 25.7 188 
 LA4  SZ  AML     1034 29.94        11.5 0.28                          25.7 188 
                                                                                
