 2008 1023 1931 48.5 R  22.041 -99.548  0.0  RAL  2 0.1 2.0LRAL                1
 GAP=358        0.59     174.2    72.9361.3 -0.1269E+05 -0.2632E+05  0.6290E+05E
 ACTION:UPD 12-06-08 11:37 OP:RALL STATUS:               ID:20081023193148     I
 2008-10-23-1931-48S.PLUR1_006                                                 6
 STAT SP IPHASW D HRMM SECON CODA AMPLIT PERI AZIMU VELO AIN AR TRES W  DIS CAZ7
 LA4  SZ E        1931 59.26                  337.5  8.8      0        66.4 158 
 LA4  SN IP       1931 59.96                              63    0.2410 66.4 158 
 LA4  SE IS       1932  7.69                              63   -0.2210 66.4 158 
 LA4  SZ  AML     1932 10.74        79.4 0.60                          66.4 158 
 LZ4  SN IP       1932  2.16                              63   -0.2410 83.7 160 
 LZ4  SZ E        1932  2.45                  340.8 10.6      1        83.7 160 
 LZ4  SE IS       1932 12.75                              63    0.2210 83.7 160 
 LZ4  SZ  AML     1932 17.64        85.4 0.48                          83.7 160 
                                                                                
