 2008 1023 1334 58.1 L  21.284 -99.215 10.0  RAL  1 0.0 0.7LRAL                1
 GAP=360        0.30       4.2     4.9  0.0 -0.2031E+02  0.2172E+03 -0.9724E+03E
 ACTION:UPD 12-06-08 11:37 OP:RALL STATUS:               ID:20081023133458     I
 2008-10-23-1334-47S.PLUR1_003                                                 6
 STAT SP IPHASW D HRMM SECON CODA AMPLIT PERI AZIMU VELO AIN AR TRES W  DIS CAZ7
 LZ4  SN IP       1335  0.39                             143    0.0310 7.62 313 
 LZ4  SZ E        1335  0.41                  132.5 12.4      0        7.62 313 
 LZ4  SE IS       1335  1.96                             143   -0.0310 7.62 313 
 LZ4  SZ  AML     1335  2.28        22.4 0.44                          7.62 313 
                                                                                
