 2008 1023 1344 44.5 L  21.542 -99.584 10.0  RAL  1 0.0 1.2LRAL                1
 GAP=360        0.30       2.3     3.3  0.0 -0.6654E+01  0.2172E+03 -0.9724E+03E
 ACTION:UPD 12-06-08 11:37 OP:RALL STATUS:               ID:20081023134444     I
 2008-10-23-1344-41S.PLUR1_003                                                 6
 STAT SP IPHASW D HRMM SECON CODA AMPLIT PERI AZIMU VELO AIN AR TRES W  DIS CAZ7
 LZ4  SN IP       1344 51.33                             100    0.0210 40.1 126 
 LZ4  SZ E        1344 51.95                  305.7 28.2      0        40.1 126 
 LZ4  SE IS       1344 56.24                             100   -0.0210 40.1 126 
 LZ4  SZ  AML     1344 59.30        23.1 0.64                          40.1 126 
                                                                                
