 2008 1023 2228 24.9 L  21.204 -99.332 10.0  RAL  1 0.2-0.1LRAL                1
 GAP=360        0.66      31.4    22.5  0.0 -0.7065E+03  0.6959E+01 -0.3740E+01E
 ACTION:UPD 12-06-08 11:37 OP:RALL STATUS:               ID:20081023222824     I
 2008-10-23-2228-12S.PLUR1_003                                                 6
 STAT SP IPHASW D HRMM SECON CODA AMPLIT PERI AZIMU VELO AIN AR TRES W  DIS CAZ7
 LD5  SN IP       2228 27.19                             167    0.4010 2.30 146 
 LD5  SZ E        2228 27.24                  326.2 10.7      0        2.30 146 
 LD5  SE IS       2228 27.76                             167   -0.4010 2.30 146 
 LD5  SZ  AML     2228 27.86         4.9 0.22                          2.30 146 
                                                                                
