 2008 1023 2321 18.9 L  21.947 -99.410  5.2  RAL  3 0.3 1.4LRAL                1
 GAP=354        3.62     309.9    63.7611.0 -0.1935E+05 -0.3806E+05  0.1887E+06E
 ACTION:UPD 12-06-08 11:37 OP:RALL STATUS:               ID:20081023232118     I
 2008-10-23-2321-14S.PLUR1_009                                                 6
 STAT SP IPHASW D HRMM SECON CODA AMPLIT PERI AZIMU VELO AIN AR TRES W  DIS CAZ7
 LA4  SZ E        2321 26.83                    1.1  7.1     13        52.4 169 
 LA4  SN IP       2321 27.00                              63   -0.5710 52.4 169 
 LA4  SE IS       2321 33.16                              63   -0.7110 52.4 169 
 LA4  SZ  AML     2321 37.23        63.4 0.40                          52.4 169 
 LZ4  SN IP       2321 29.86                              63   -0.4110 69.8 168 
 LZ4  SZ E        2321 30.25                  337.0  8.9    -10        69.8 168 
 LZ4  SE IS       2321 38.12                              63   -0.4110 69.8 168 
 LZ4  SZ  AML     2321 44.35        46.6 0.36                          69.8 168 
 LD5  SN IP       2321 33.68                              63    1.0910 84.7 174 
 LD5  SZ E        2321 33.72                  345.3 11.9     -7        84.7 174 
 LD5  SE IS       2321 43.56                              63    1.0110 84.7 174 
 LD5  SZ  AML     2321 46.57         4.1 0.64                          84.7 174 
                                                                                
