 2008 1023 2332  7.2 L  21.982 -99.439  1.2  RAL  3 0.5 1.9LRAL                1
 GAP=354        6.81     574.8   140.2999.9 -0.7917E+05 -0.1569E+06  0.6535E+06E
 ACTION:UPD 12-06-08 11:37 OP:RALL STATUS:               ID:20081023233207     I
 2008-10-23-2332-02S.PLUR1_009                                                 6
 STAT SP IPHASW D HRMM SECON CODA AMPLIT PERI AZIMU VELO AIN AR TRES W  DIS CAZ7
 LA4  SZ E        2332 16.08                  359.7  7.4     13        56.8 166 
 LA4  SN IP       2332 16.23                              63   -0.5410 56.8 166 
 LA4  SE IS       2332 23.17                              63   -0.6110 56.8 166 
 LA4  SZ  AML     2332 26.64       211.9 0.48                          56.8 166 
 LZ4  SN IP       2332 19.39                              63   -0.0710 74.2 166 
 LZ4  SZ E        2332 19.60                  314.1  7.1    -31        74.2 166 
 LZ4  SE IS       2332 27.46                              63   -0.9910 74.2 166 
 LZ4  SZ  AML     2332 33.18       129.4 0.40                          74.2 166 
 LD5  SZ E        2332 22.11                    6.5 17.0     14        88.9 172 
 LD5  SN IP       2332 22.29                              63    0.5410 88.9 172 
 LD5  SE IS       2332 34.07                              63    1.6710 88.9 172 
 LD5  SZ  AML     2332 35.98        11.4 0.64                          88.9 172 
                                                                                
