 2008 1023 2034  1.2 L  21.336 -99.278 10.0  RAL  2 0.4 0.8LRAL                1
 GAP=227        6.15       3.0     9.3 43.8  0.1793E+02  0.6959E+01 -0.3740E+01E
 ACTION:UPD 12-06-08 11:37 OP:RALL STATUS:               ID:20081023203401     I
 2008-10-23-2033-48S.PLUR1_006                                                 6
 STAT SP IPHASW D HRMM SECON CODA AMPLIT PERI AZIMU VELO AIN AR TRES W  DIS CAZ7
 LZ4  SZ E        2034  2.67                  292.7  7.4     -8        1.00 121 
 LZ4  SN IP       2034  2.70                             174   -0.3410 1.00 121 
 LZ4  SE IS       2034  3.54                             174   -0.8410 1.00 121 
 LZ4  SZ  AML     2034  3.70        84.2 0.60                          1.00 121 
 LA4  SN IP       2034  5.17                             119    0.6510 16.7 349 
 LA4  SZ E        2034  5.21                  140.7 12.2    -27        16.7 349 
 LA4  SE IS       2034  7.49                             119    0.5410 16.7 349 
 LA4  SZ  AML     2034  7.89         9.6 0.32                          16.7 349 
                                                                                
