 2008 1023 2032 49.9 L  21.552 -99.351 10.0  RAL  1 0.0 0.6LRAL                1
 GAP=360        0.30       4.9     3.0  0.0 -0.1471E+02 -0.2632E+05  0.6290E+05E
 ACTION:UPD 12-06-08 11:37 OP:RALL STATUS:               ID:20081023203249     I
 2008-10-23-2032-39S.PLUR1_003                                                 6
 STAT SP IPHASW D HRMM SECON CODA AMPLIT PERI AZIMU VELO AIN AR TRES W  DIS CAZ7
 LA4  SN IP       2032 52.31                             139    0.0210 8.80 150 
 LA4  SZ E        2032 52.35                  330.0 10.6      0        8.80 150 
 LA4  SE IS       2032 53.99                             139   -0.0210 8.80 150 
 LA4  SZ  AML     2032 55.54        17.3 0.44                          8.80 150 
                                                                                
