 2008 1024 0342 47.2 L  21.327 -99.310  4.8  RAL  3 0.3 0.5LRAL                1
 GAP=177        1.75       0.6     1.9 11.4  0.3563E+00  0.3597E+01  0.3420E+00E
 ACTION:UPD 12-06-08 11:37 OP:RALL STATUS:               ID:20081024034247     I
 2008-10-24-0342-33S.PLUR1_009                                                 6
 STAT SP IPHASW D HRMM SECON CODA AMPLIT PERI AZIMU VELO AIN AR TRES W  DIS CAZ7
 LZ4  SZ E         342 48.28                  265.2 10.1      1        4.23  84 
 LZ4  SN IP        342 48.29                             144   -0.2110 4.23  84 
 LZ4  SE IS        342 49.36                             144   -0.0510 4.23  84 
 LZ4  SZ  AML      342 50.01        93.0 0.60                          4.23  84 
 LD5  SZ E         342 49.39                    0.9  8.8     -2        15.6 184 
 LD5  SN IP        342 49.41                             110   -0.7410 15.6 184 
 LD5  SE E         342 51.69                                           15.6 184 
 LD5  SE IS        342 51.69                             110   -0.5810 15.6 184 
 LD5  SZ  AML      342 53.85         4.8 0.40                          15.6 184 
 LA4  SN IP        342 50.57                             109    0.1210 17.4   0 
 LA4  SZ E         342 50.76                  176.6  9.6     -3        17.4   0 
 LA4  SE IS        342 54.24                             109    1.4510 17.4   0 
 LA4  SZ  AML      342 57.74         9.8 0.32                          17.4   0 
                                                                                
