 2008 1024 0238 58.9 L  21.249 -99.270 19.9  RAL  2 0.0 0.0LRAL                1
 GAP=216        0.29       0.5     0.2  2.8  0.7313E-01 -0.5763E-02 -0.3695E-02E
 ACTION:UPD 12-06-08 11:37 OP:RALL STATUS:               ID:20081024023858     I
 2008-10-24-0238-49S.PLUR1_006                                                 6
 STAT SP IPHASW D HRMM SECON CODA AMPLIT PERI AZIMU VELO AIN AR TRES W  DIS CAZ7
 LD5  SZ E         239  2.47                   36.9 16.6      0        8.60 217 
 LD5  SN IP        239  2.49                             157   -0.0310 8.60 217 
 LD5  SE IS        239  5.19                             157    0.0110 8.60 217 
 LD5  SZ  AML      239  5.73         2.9 0.14                          8.60 217 
 LZ4  SZ E         239  2.52                  180.6 10.4      0        9.11   1 
 LZ4  SN IP        239  2.58                             156    0.0310 9.11   1 
 LZ4  SE IS        239  5.22                             156   -0.0110 9.11   1 
                                                                                
