 2008 1024 0305 50.7 L  21.851 -99.686 10.0  RAL  1 0.0 1.9LRAL                1
 GAP=360        0.30       3.2     2.9  0.0 -0.5337E+01 -0.5763E-02 -0.3695E-02E
 ACTION:UPD 12-06-08 11:37 OP:RALL STATUS:               ID:20081024030550     I
 2008-10-24-0305-47S.PLUR1_003                                                 6
 STAT SP IPHASW D HRMM SECON CODA AMPLIT PERI AZIMU VELO AIN AR TRES W  DIS CAZ7
 LZ4  SZ E         3 6  2.25                  323.2  7.6      0        71.9 143 
 LZ4  SN IP        3 6  2.39                              95    0.0110 71.9 143 
 LZ4  SE IS        3 6 10.90                              95   -0.0110 71.9 143 
 LZ4  SZ  AML      3 6 15.83        63.9 0.60                          71.9 143 
                                                                                
