 2008 1024 0321  8.7 L  21.675 -99.395  0.0  RAL  2 0.1 1.3LRAL                1
 GAP=356        1.99      18.7     8.8339.1 -0.1465E+03  0.1768E+04 -0.4038E+04E
 ACTION:UPD 12-06-08 11:37 OP:RALL STATUS:               ID:20081024032108     I
 2008-10-24-0320-59S.PLUR1_006                                                 6
 STAT SP IPHASW D HRMM SECON CODA AMPLIT PERI AZIMU VELO AIN AR TRES W  DIS CAZ7
 LA4  SN IP        321 12.95                              93    0.1810 23.0 157 
 LA4  SZ E         321 12.97                  342.1 10.4      5        23.0 157 
 LA4  SE IS        321 15.37                              93   -0.3410 23.0 157 
 LA4  SZ  AML      321 15.57        83.3 0.28                          23.0 157 
 LZ4  SZ E         321 15.78                  333.1 20.8     -7        40.3 161 
 LZ4  SN IP        321 15.84                              92    0.0510 40.3 161 
 LZ4  SE IS        321 21.04                              92    0.1110 40.3 161 
 LZ4  SZ  AML      321 23.98        18.9 0.56                          40.3 161 
                                                                                
