 2008 1024 0420 34.2 L  21.618 -99.300 10.0  RAL  1 0.0 0.2LRAL                1
 GAP=360        0.30       4.4     0.5  0.0  0.1260E+01  0.3597E+01  0.3420E+00E
 ACTION:UPD 12-06-08 11:37 OP:RALL STATUS:               ID:20081024042034     I
 2008-10-24-0420-25S.PLUR1_003                                                 6
 STAT SP IPHASW D HRMM SECON CODA AMPLIT PERI AZIMU VELO AIN AR TRES W  DIS CAZ7
 LA4  SZ E         420 37.22                    3.5 10.5      0        14.9 184 
 LA4  SN IP        420 37.34                             122    0.0310 14.9 184 
 LA4  SE IS        420 39.54                             122   -0.0310 14.9 184 
 LA4  SZ  AML      420 41.11         5.4 0.60                          14.9 184 
                                                                                
