 2008 1024 0950 23.1 L  21.495 -99.502 10.0  RAL  1 0.0 0.9LRAL                1
 GAP=360        0.30       2.4     3.3  0.0 -0.7287E+01 -0.9199E+05  0.3522E+06E
 ACTION:UPD 12-06-08 11:37 OP:RALL STATUS:               ID:20081024095023     I
 2008-10-24-0950-17S.PLUR1_003                                                 6
 STAT SP IPHASW D HRMM SECON CODA AMPLIT PERI AZIMU VELO AIN AR TRES W  DIS CAZ7
 LZ4  SZ E         950 28.12                  307.1 10.5      0        30.2 127 
 LZ4  SN IP        950 28.39                             104    0.0210 30.2 127 
 LZ4  SE IS        950 32.19                             104   -0.0210 30.2 127 
 LZ4  SZ  AML      950 33.19        16.5 0.56                          30.2 127 
                                                                                
