 2008 1024 0818 17.6 L  21.335 -99.288 10.0  RAL  1 0.1 0.3LRAL                1
 GAP=360        0.48     999.9   520.3  0.0  0.1075E+07 -0.9199E+05  0.3522E+06E
 ACTION:UPD 12-06-08 11:37 OP:RALL STATUS:               ID:20081024081817     I
 2008-10-24-0818-06S.PLUR1_003                                                 6
 STAT SP IPHASW D HRMM SECON CODA AMPLIT PERI AZIMU VELO AIN AR TRES W  DIS CAZ7
 LZ4  SN IP     C  818 19.73                             169    0.2410 1.97 102 
 LZ4  SZ E         818 19.89                  282.9  8.7      1        1.97 102 
 LZ4  SE IS        818 20.60                             169   -0.2410 1.97 102 
 LZ4  SZ  AML      818 20.68        10.4 0.12                          1.97 102 
                                                                                
