 2008 1024 0507  1.6 L  21.587 -99.384 10.0  RAL  1 0.0 0.8LRAL                1
 GAP=360        0.30       3.7     2.7  0.0 -0.1001E+02  0.3597E+01  0.3420E+00E
 ACTION:UPD 12-06-08 11:37 OP:RALL STATUS:               ID:20081024050701     I
 2008-10-24-0506-52S.PLUR1_003                                                 6
 STAT SP IPHASW D HRMM SECON CODA AMPLIT PERI AZIMU VELO AIN AR TRES W  DIS CAZ7
 LA4  SZ E         5 7  4.48                  325.8 11.8      0        13.9 146 
 LA4  SN IP        5 7  4.56                             124    0.0110 13.9 146 
 LA4  SE IS        5 7  6.68                             124   -0.0110 13.9 146 
 LA4  SZ  AML      5 7  7.06        21.8 0.28                          13.9 146 
                                                                                
