 2008 1024 0607 20.0 L  21.950 -99.443  4.9  RAL  3 0.4 1.6LRAL                1
 GAP=354        5.77     421.1   111.8840.3 -0.4623E+05 -0.9199E+05  0.3522E+06E
 ACTION:UPD 12-06-08 11:37 OP:RALL STATUS:               ID:20081024060720     I
 2008-10-24-0607-14S.PLUR1_009                                                 6
 STAT SP IPHASW D HRMM SECON CODA AMPLIT PERI AZIMU VELO AIN AR TRES W  DIS CAZ7
 LA4  SN IP        6 7 28.00                              63   -0.7810 53.5 165 
 LA4  SZ E         6 7 28.25                    4.9  8.8     20        53.5 165 
 LA4  SE IS        6 7 34.18                              63   -1.0310 53.5 165 
 LZ4  SN IP        6 7 31.46                              63   -0.0210 70.9 165 
 LZ4  SZ E         6 7 31.59                  320.1  7.5    -24        70.9 165 
 LZ4  SE IS        6 7 40.40                              63    0.5310 70.9 165 
 LZ4  SZ  AML      6 7 42.27       108.8 0.36                          70.9 165 
 LD5  SZ E         6 7 34.22                  349.1 10.8     -1        85.5 171 
 LD5  SN IP        6 7 34.62                              63    0.8710 85.5 171 
 LD5  SE IS        6 7 44.21                              63    0.4110 85.5 171 
 LD5  SZ  AML      6 7 48.07         9.1 0.62                          85.5 171 
                                                                                
