 2008 1024 1552 55.7 L  21.274 -99.248 10.0  RAL  1 0.0 0.5LRAL                1
 GAP=360        0.30       6.3     2.4  0.0 -0.1541E+02 -0.9199E+05  0.3522E+06E
 ACTION:UPD 12-06-08 11:37 OP:RALL STATUS:               ID:20081024155255     I
 2008-10-24-1552-45S.PLUR1_003                                                 6
 STAT SP IPHASW D HRMM SECON CODA AMPLIT PERI AZIMU VELO AIN AR TRES W  DIS CAZ7
 LZ4  SN IP       1552 57.91                             147    0.0210 6.70 340 
 LZ4  SZ E        1552 57.97                  160.3 16.1      0        6.70 340 
 LZ4  SE IS       1552 59.43                             147   -0.0210 6.70 340 
 LZ4  SZ  AML     1553  0.50        14.4 0.28                          6.70 340 
                                                                                
