 2008 1024 1112 20.2 L  21.332 -99.279 10.0  RAL  1 0.1 0.8LRAL                1
 GAP=360        1.22     999.9   335.5  0.0  0.4104E+06 -0.9199E+05  0.3522E+06E
 ACTION:UPD 12-06-08 11:37 OP:RALL STATUS:               ID:20081024111220     I
 2008-10-24-1112-08S.PLUR1_003                                                 6
 STAT SP IPHASW D HRMM SECON CODA AMPLIT PERI AZIMU VELO AIN AR TRES W  DIS CAZ7
 LZ4  SZ E        1112 22.13                  282.8  7.9      5        1.03  97 
 LZ4  SN IP       1112 22.29                             174    0.2110 1.03  97 
 LZ4  SE IS       1112 23.22                             174   -0.2110 1.03  97 
 LZ4  SZ  AML     1112 24.50        36.9 0.52                          1.03  97 
                                                                                
