 2008 1024 2340 37.2 L  21.885 -99.375 10.0  RAL  1 0.0 1.0LRAL                1
 GAP=360        0.30       3.7     1.4  0.0 -0.2040E+01  0.2322E+02 -0.1939E+02E
 ACTION:UPD 12-06-08 11:37 OP:RALL STATUS:               ID:20081024234037     I
 2008-10-24-2340-36S.PLUR1_003                                                 6
 STAT SP IPHASW D HRMM SECON CODA AMPLIT PERI AZIMU VELO AIN AR TRES W  DIS CAZ7
 LA4  SZ E        2340 43.80                  351.3 12.5      0        44.9 171 
 LA4  SN IP       2340 44.75                              98    0.0110 44.9 171 
 LA4  SE IS       2340 50.23                              98   -0.0110 44.9 171 
 LA4  SZ  AML     2340 55.11        11.7 0.44                          44.9 171 
                                                                                
