 2008 1024 2024 34.8 L  21.358 -99.308  0.0  RAL  2 0.2 0.6LRAL                1
 GAP=232        1.14       1.2     1.4 35.9 -0.1432E+01  0.2322E+02 -0.1939E+02E
 ACTION:UPD 12-06-08 11:37 OP:RALL STATUS:               ID:20081024202434     I
 2008-10-24-2024-20S.PLUR1_006                                                 6
 STAT SP IPHASW D HRMM SECON CODA AMPLIT PERI AZIMU VELO AIN AR TRES W  DIS CAZ7
 LZ4  SZ E        2024 35.00                  308.0  8.5      1        4.97 127 
 LZ4  SN IP       2024 35.01                             102   -0.6310 4.97 127 
 LZ4  SE IS       2024 36.05                             102   -0.2410 4.97 127 
 LZ4  SZ  AML     2024 36.19        68.8 0.44                          4.97 127 
 LA4  SZ E        2024 36.95                  181.8 10.8      2        13.9 359 
 LA4  SN IP       2024 37.45                              95    0.2510 13.9 359 
 LA4  SE IS       2024 39.60                              95    0.6210 13.9 359 
 LA4  SZ  AML     2024 41.79         9.7 0.36                          13.9 359 
                                                                                
