 2008 1024 2057 20.4 L  21.344 -99.296 10.0  RAL  1 0.1 0.6LRAL                1
 GAP=360        0.46       9.0    18.7  0.0 -0.1690E+03  0.2322E+02 -0.1939E+02E
 ACTION:UPD 12-06-08 11:37 OP:RALL STATUS:               ID:20081024205720     I
 2008-10-24-2057-08S.PLUR1_003                                                 6
 STAT SP IPHASW D HRMM SECON CODA AMPLIT PERI AZIMU VELO AIN AR TRES W  DIS CAZ7
 LZ4  SZ E        2057 22.49                  297.4  7.0      0        3.11 117 
 LZ4  SN IP       2057 22.57                             163    0.2310 3.11 117 
 LZ4  SE IS       2057 23.49                             163   -0.2310 3.11 117 
 LZ4  SZ  AML     2057 23.58        19.7 0.12                          3.11 117 
                                                                                
