 2008 1025 0031 46.7 L  21.326 -99.262 10.0  RAL  2 0.9 0.6LRAL                1
 GAP=256       13.57       8.8    20.4 98.1 -0.1408E+03 -0.6216E+02  0.4592E+02E
 ACTION:UPD 12-06-08 11:37 OP:RALL STATUS:               ID:20081025003146     I
 2008-10-25-0031-35S.PLUR1_006                                                 6
 STAT SP IPHASW D HRMM SECON CODA AMPLIT PERI AZIMU VELO AIN AR TRES W  DIS CAZ7
 LZ4  SZ E         031 49.53                  190.6 10.3     66        0.99 305 
 LZ4  SN IP        031 49.57                             172    0.9810 0.99 305 
 LZ4  SE IS        031 51.02                             172    1.0910 0.99 305 
 LZ4  SZ  AML      031 51.24        39.5 0.20                          0.99 305 
 LD5  SN IP        031 49.47                             119   -0.5710 16.6 201 
 LD5  SZ E         031 49.49                   22.8  9.7      1        16.6 201 
 LD5  SE IS        031 50.93                             119   -1.5110 16.6 201 
 LD5  SZ  AML      031 51.46         5.7 0.18                          16.6 201 
                                                                                
