 2008 1025 0620  7.8 L  21.272 -99.268 10.0  RAL  1 0.0 0.4LRAL                1
 GAP=360        0.30       6.9     0.2  0.0 -0.9690E+00  0.5510E+01  0.8378E+00E
 ACTION:UPD 12-06-08 11:37 OP:RALL STATUS:               ID:20081025062007     I
 2008-10-25-0619-56S.PLUR1_003                                                 6
 STAT SP IPHASW D HRMM SECON CODA AMPLIT PERI AZIMU VELO AIN AR TRES W  DIS CAZ7
 LZ4  SN IP        620  9.93                             147    0.0010 6.48 359 
 LZ4  SZ E         620  9.94                  178.9 13.3      0        6.48 359 
 LZ4  SE IS        620 11.47                             147    0.0010 6.48 359 
 LZ4  SZ  AML      620 12.55        11.9 0.56                          6.48 359 
                                                                                
