 2008 1025 0807 17.7 L  21.938 -99.474  0.1  RAL  3 0.3 1.7LRAL                1
 GAP=352        3.41     203.2    67.1412.3 -0.1339E+05 -0.2705E+05  0.8322E+05E
 ACTION:UPD 12-06-08 11:37 OP:RALL STATUS:               ID:20081025080717     I
 2008-10-25-0807-13S.PLUR1_009                                                 6
 STAT SP IPHASW D HRMM SECON CODA AMPLIT PERI AZIMU VELO AIN AR TRES W  DIS CAZ7
 LA4  SZ E         8 7 26.45                  348.0  7.4      7        53.1 161 
 LA4  SN IP        8 7 26.58                              63   -0.2710 53.1 161 
 LA4  SE IS        8 7 32.46                              63   -1.0510 53.1 161 
 LA4  SZ  AML      8 7 37.32       121.8 0.52                          53.1 161 
 LZ4  SZ E         8 7 29.43                  327.0  8.2    -15        70.4 162 
 LZ4  SN IP        8 7 29.61                              63    0.0710 70.4 162 
 LZ4  SE IS        8 7 38.52                              63    0.3610 70.4 162 
 LZ4  SZ  AML      8 7 42.76       103.3 0.48                          70.4 162 
 LD5  SZ E         8 7 31.76                  356.3 21.5      7        84.6 169 
 LD5  SN IP        8 7 31.90                              63    0.1510 84.6 169 
 LD5  SE IS        8 7 42.74                              63    0.7510 84.6 169 
 LD5  SZ  AML      8 7 44.01         8.3 0.38                          84.6 169 
                                                                                
