 2008 1025 0423 10.5 L  21.474 -99.503 37.6  RAL  2 0.1 0.8LRAL                1
 GAP=324        0.91       1.3     4.1 12.2 -0.1599E+01  0.8433E+01 -0.7064E+00E
 ACTION:UPD 12-06-08 11:37 OP:RALL STATUS:               ID:20081025042310     I
 2008-10-25-0423-07S.PLUR1_006                                                 6
 STAT SP IPHASW D HRMM SECON CODA AMPLIT PERI AZIMU VELO AIN AR TRES W  DIS CAZ7
 LA4  SZ E         423 16.10                  265.0 18.0     -1        20.1  87 
 LA4  SN IP        423 16.62                             152   -0.4010 20.1  87 
 LA4  SE IS        423 21.60                             152   -0.1710 20.1  87 
 LA4  SZ  AML      423 21.83         4.4 0.24                          20.1  87 
 LZ4  SZ E         423 17.28                  305.0 23.2      2        28.9 123 
 LZ4  SN IP        423 17.76                             140    0.0710 28.9 123 
 LZ4  SE IS        423 23.43                             140    0.5010 28.9 123 
 LZ4  SZ  AML      423 30.47        13.5 0.64                          28.9 123 
                                                                                
