 2008 1025 0314 31.7 L  21.200 -99.319 10.0  RAL  1 0.2-0.3LRAL                1
 GAP=360        1.66     168.3   411.4  0.0 -0.6922E+05 -0.6216E+02  0.4592E+02E
 ACTION:UPD 12-06-08 11:37 OP:RALL STATUS:               ID:20081025031431     I
 2008-10-25-0314-19S.PLUR1_003                                                 6
 STAT SP IPHASW D HRMM SECON CODA AMPLIT PERI AZIMU VELO AIN AR TRES W  DIS CAZ7
 LD5  SZ E         314 33.93                  356.1 10.6      7        1.48 183 
 LD5  SN IP        314 33.97                             172    0.4010 1.48 183 
 LD5  SE IS        314 34.52                             172   -0.4010 1.48 183 
 LD5  SZ  AML      314 34.90         2.9 0.24                          1.48 183 
                                                                                
