 2008 1025 0432 50.5 L  21.339 -99.281  4.9  RAL  3 0.2 0.7LRAL                1
 GAP=156        4.33       1.7     4.9 10.7  0.4582E+01  0.5510E+01  0.8378E+00E
 ACTION:UPD 12-06-08 11:37 OP:RALL STATUS:               ID:20081025043250     I
 2008-10-25-0432-36S.PLUR1_009                                                 6
 STAT SP IPHASW D HRMM SECON CODA AMPLIT PERI AZIMU VELO AIN AR TRES W  DIS CAZ7
 LZ4  SZ E         432 51.45                  299.2  8.8     -6        1.53 126 
 LZ4  SN IP        432 51.48                             166   -0.0510 1.53 126 
 LZ4  SE IS        432 52.35                             166    0.0410 1.53 126 
 LZ4  SZ  AML      432 52.42       233.5 0.52                          1.53 126 
 LA4  SZ E         432 53.35                  150.2  8.3    -19        16.3 350 
 LA4  SN IP        432 53.36                              63   -0.1310 16.3 350 
 LA4  SE IS        432 56.01                              63    0.3110 16.3 350 
 LA4  SZ  AML      432 56.35        26.3 0.44                          16.3 350 
 LD5  SZ E         432 53.38                  359.7 11.5     14        17.3 193 
 LD5  SN IP        432 53.45                              63   -0.2010 17.3 193 
 LD5  SE IS        432 56.00                              63    0.0310 17.3 193 
 LD5  SZ  AML      432 59.37         3.3 0.46                          17.3 193 
                                                                                
