 2008 1025 0225 49.4 L  21.621 -99.351 10.0  RAL  1 0.0 0.4LRAL                1
 GAP=360        0.30       4.1     1.3  0.0 -0.5181E+01 -0.6216E+02  0.4592E+02E
 ACTION:UPD 12-06-08 11:37 OP:RALL STATUS:               ID:20081025022549     I
 2008-10-25-0225-40S.PLUR1_003                                                 6
 STAT SP IPHASW D HRMM SECON CODA AMPLIT PERI AZIMU VELO AIN AR TRES W  DIS CAZ7
 LA4  SZ E         225 52.53                  344.0  9.2      0        15.8 164 
 LA4  SN IP        225 52.60                             120    0.0010 15.8 164 
 LA4  SE IS        225 54.93                             120    0.0010 15.8 164 
 LA4  SZ  AML      225 57.35         7.3 0.32                          15.8 164 
                                                                                
