 2008 1025 0653 58.6 L  21.335 -99.281 10.0  RAL  1 0.3                        1
 GAP=360        3.67     471.4   610.1  0.0  0.2875E+06  0.5510E+01  0.8378E+00E
 ACTION:UPD 12-06-08 11:37 OP:RALL STATUS:               ID:20081025065358     I
 2008-10-25-0653-46S.PLUR1_003                                                 6
 STAT SP IPHASW D HRMM SECON CODA AMPLIT PERI AZIMU VELO AIN AR TRES W  DIS CAZ7
 LZ4  SZ E         654  0.49                  273.7  8.5    -16        1.32 111 
 LZ4  SN IP        654  0.71                             173    0.2410 1.32 111 
 LZ4  SE IS        654  1.57                             173   -0.2410 1.32 111 
                                                                                
