 2008 1025 1048 15.7 L  21.681 -99.615 10.0  RAL  1 0.0 1.3LRAL                1
 GAP=360        0.30       2.9     2.9  0.0 -0.6462E+01 -0.2705E+05  0.8322E+05E
 ACTION:UPD 12-06-08 11:37 OP:RALL STATUS:               ID:20081025104815     I
 2008-10-25-1048-12S.PLUR1_003                                                 6
 STAT SP IPHASW D HRMM SECON CODA AMPLIT PERI AZIMU VELO AIN AR TRES W  DIS CAZ7
 LZ4  SN IP       1048 24.40                              97    0.0110 52.7 137 
 LZ4  SZ E        1048 24.55                  317.3  9.5      0        52.7 137 
 LZ4  SE IS       1048 30.74                              97   -0.0110 52.7 137 
 LZ4  SZ  AML     1048 31.60        24.4 0.56                          52.7 137 
                                                                                
