 2008 1025 1310  7.0 L  21.546 -99.415 10.0  RAL  1 0.0 0.9LRAL                1
 GAP=360        0.30       3.3     2.3  0.0 -0.6980E+01 -0.2705E+05  0.8322E+05E
 ACTION:UPD 12-06-08 11:37 OP:RALL STATUS:               ID:20081025131007     I
 2008-10-25-1310-00S.PLUR1_003                                                 6
 STAT SP IPHASW D HRMM SECON CODA AMPLIT PERI AZIMU VELO AIN AR TRES W  DIS CAZ7
 LZ4  SZ E        1310 11.91                  327.7  7.8      0        28.2 148 
 LZ4  SN IP       1310 11.96                             105    0.0210 28.2 148 
 LZ4  SE IS       1310 15.54                             105   -0.0210 28.2 148 
 LZ4  SZ  AML     1310 17.12        17.3 0.44                          28.2 148 
                                                                                
