 2008 1025 1451 36.8 L  21.321 -99.298 10.0  RAL  1 0.0-0.1LRAL                1
 GAP=360        0.34       5.2    14.9  0.0  0.7778E+02 -0.2705E+05  0.8322E+05E
 ACTION:UPD 12-06-08 11:37 OP:RALL STATUS:               ID:20081025145136     I
 2008-10-25-1451-25S.PLUR1_003                                                 6
 STAT SP IPHASW D HRMM SECON CODA AMPLIT PERI AZIMU VELO AIN AR TRES W  DIS CAZ7
 LZ4  SZ E        1451 38.76                  249.4 14.6      0        3.12  69 
 LZ4  SN IP       1451 38.81                             163    0.1210 3.12  69 
 LZ4  SE IS       1451 39.96                             163   -0.1210 3.12  69 
 LZ4  SZ  AML     1451 40.12         4.6 0.44                          3.12  69 
                                                                                
