 2008 1025 1513 41.8 L  21.341 -99.289 10.0  RAL  1 0.1 0.2LRAL                1
 GAP=360        0.59     922.1   569.6  0.0  0.5252E+06 -0.2705E+05  0.8322E+05E
 ACTION:UPD 12-06-08 11:37 OP:RALL STATUS:               ID:20081025151341     I
 2008-10-25-1513-30S.PLUR1_003                                                 6
 STAT SP IPHASW D HRMM SECON CODA AMPLIT PERI AZIMU VELO AIN AR TRES W  DIS CAZ7
 LZ4  SZ E        1513 43.93                  298.1 10.9      0        2.28 118 
 LZ4  SN IP       1513 44.03                             168    0.3410 2.28 118 
 LZ4  SE IS       1513 44.71                             168   -0.3410 2.28 118 
 LZ4  SZ  AML     1513 44.83         8.7 0.20                          2.28 118 
                                                                                
