 2008 1025 2237 33.7 L  21.165 -99.301 10.0  RAL  1 0.1-0.4LRAL                1
 GAP=360        0.46      15.1    13.6  0.0 -0.2058E+03 -0.2705E+05  0.8322E+05E
 ACTION:UPD 12-06-08 11:37 OP:RALL STATUS:               ID:20081025223733     I
 2008-10-25-2237-22S.PLUR1_003                                                 6
 STAT SP IPHASW D HRMM SECON CODA AMPLIT PERI AZIMU VELO AIN AR TRES W  DIS CAZ7
 LD5  SZ E        2237 35.37                  140.0 25.8      0        3.08 320 
 LD5  SN IP       2237 35.82                             163    0.2310 3.08 320 
 LD5  SE IS       2237 36.74                             163   -0.2310 3.08 320 
 LD5  SZ  AML     2237 37.47         2.1 0.28                          3.08 320 
                                                                                
