 2008 1025 2256 25.2 L  21.310 -99.300 10.0  RAL  1 0.0 0.0LRAL                1
 GAP=360        0.30       4.4     0.8  0.0  0.3145E+01 -0.2705E+05  0.8322E+05E
 ACTION:UPD 12-06-08 11:37 OP:RALL STATUS:               ID:20081025225625     I
 2008-10-25-2256-15S.PLUR1_003                                                 6
 STAT SP IPHASW D HRMM SECON CODA AMPLIT PERI AZIMU VELO AIN AR TRES W  DIS CAZ7
 LD5  SZ E        2256 27.93                    8.6 13.1      0        13.9 189 
 LD5  SN IP       2256 28.18                             124    0.0010 13.9 189 
 LD5  SE IS       2256 30.32                             124    0.0010 13.9 189 
 LD5  SZ  AML     2256 31.25         3.1 0.24                          13.9 189 
                                                                                
