 2008 1027 0701 39.3 L  21.631 -99.622 10.0  RAL  1 0.0 0.8LRAL                1
 GAP=360        0.30       1.9     3.7  0.0 -0.5768E+01 -0.2705E+05  0.8322E+05E
 ACTION:UPD 12-06-08 11:37 OP:RALL STATUS:               ID:20081027070139     I
 2008-10-27-0701-36S.PLUR1_003                                                 6
 STAT SP IPHASW D HRMM SECON CODA AMPLIT PERI AZIMU VELO AIN AR TRES W  DIS CAZ7
 LA4  SN IP        7 1 45.47                             101    0.0210 36.2 117 
 LA4  SZ E         7 1 45.74                  296.7 14.7      0        36.2 117 
 LA4  SE IS        7 1 49.96                             101   -0.0210 36.2 117 
 LA4  SZ  AML      7 1 50.44         9.7 0.40                          36.2 117 
                                                                                
