 2008 1027 1328 27.7 L  21.332 -99.280 10.0  RAL  1 0.3 0.8LRAL                1
 GAP=360        3.16     999.9   277.1  0.0 -0.3702E+06  0.3851E+00 -0.2417E+00E
 ACTION:UPD 12-06-08 11:37 OP:RALL STATUS:               ID:20081027132827     I
 2008-10-27-1328-15S.PLUR1_003                                                 6
 STAT SP IPHASW D HRMM SECON CODA AMPLIT PERI AZIMU VELO AIN AR TRES W  DIS CAZ7
 LZ4  SZ E        1328 29.98                  260.4  9.9    -14        1.09  95 
 LZ4  SN IP       1328 30.00                             174    0.4310 1.09  95 
 LZ4  SE IS       1328 30.48                             174   -0.4310 1.09  95 
 LZ4  SZ  AML     1328 31.23        39.7 0.56                          1.09  95 
                                                                                
