 2008 1027 1719 52.4 L  21.256 -99.388 13.9  RAL  4 1.3 1.0LRAL                1
  118.5700   90.0000   90.0000     0  0.0   0.0                       FOCMEC   F
 GAP=241       23.71      21.8    25.6184.3 -0.1831E+03  0.4957E+03 -0.5251E+03E
 ACTION:UPD 12-06-08 11:37 OP:RALL STATUS:               ID:20081027171952     I
 2008-10-27-1719-40S.PLUR1_012                                                 6
 STAT SP IPHASW D HRMM SECON CODA AMPLIT PERI AZIMU VELO AIN AR TRES W  DIS CAZ7
 LD5  SZ E        1719 56.23                    3.9 12.2     46        10.4 138 
 LD5  SZ  AML     1720  0.24         6.8 0.14                          10.4 138 
 LD5  SN IP     C 1719 56.21                             143           10.4 138 
 LD5  SE IS     D 1719 58.61                             143           10.4 138 
 LO8  SZ E        1719 57.43                  167.1  8.1    -99        21.1 120 
 LO8  SZ  AML     1720  2.63         5.8 0.56                          21.1 120 
 LO8  SN IP     C 1719 57.44                             122           21.1 120 
 LO8  SE IS       1720  0.35                             122           21.1 120 
 LZ4  SZ E        1719 54.87                  280.9  9.2     45        14.8  56 
 LZ4  SZ  AML     1719 56.22       494.1 0.36                          14.8  56 
 LZ4  SN IP     D 1719 55.03                             132           14.8  56 
 LZ4  SE IS     C 1719 56.05                             132           14.8  56 
 LA4  SN IP     D 1719 57.03                             116           26.5  18 
 LA4  SE IS     D 1720  0.18                             116           26.5  18 
 LA4  SZ E      D 1719 57.06                  149.5 10.0               26.5  18 
 LA4  SZ  AML     1720  1.78        35.4 0.52                          26.5  18 
                                                                                
