 2008 1027 1216 12.2 L  21.200 -99.301 10.0  RAL  1 0.2-0.1LRAL                1
 GAP=360        0.72      23.0    31.8  0.0  0.7331E+03 -0.2705E+05  0.8322E+05E
 ACTION:UPD 12-06-08 11:37 OP:RALL STATUS:               ID:20081027121612     I
 2008-10-27-1216-00S.PLUR1_003                                                 6
 STAT SP IPHASW D HRMM SECON CODA AMPLIT PERI AZIMU VELO AIN AR TRES W  DIS CAZ7
 LD5  SZ E        1216 14.54                   52.2 11.8      0        2.52 232 
 LD5  SN IP       1216 14.55                             166    0.4410 2.52 232 
 LD5  SE IS       1216 15.04                             166   -0.4410 2.52 232 
 LD5  SZ  AML     1216 15.18         4.2 0.14                          2.52 232 
                                                                                
