 2008 1027 1320 23.5 L  21.525 -99.661 10.0  RAL  1 0.0 0.9LRAL                1
 GAP=360        0.30       1.1     4.0  0.0 -0.1749E+01  0.3851E+00 -0.2417E+00E
 ACTION:UPD 12-06-08 11:37 OP:RALL STATUS:               ID:20081027132023     I
 2008-10-27-1320-21S.PLUR1_003                                                 6
 STAT SP IPHASW D HRMM SECON CODA AMPLIT PERI AZIMU VELO AIN AR TRES W  DIS CAZ7
 LA4  SN IP       1320 29.77                             101    0.0110 36.7  97 
 LA4  SZ E        1320 29.90                  277.2 13.8      0        36.7  97 
 LA4  SE IS       1320 34.33                             101   -0.0110 36.7  97 
 LA4  SZ  AML     1320 35.80        12.1 0.44                          36.7  97 
                                                                                
