 2008 1027 1253 39.7 L  21.213 -99.374  4.8  RAL  2 0.0 0.2LRAL                1
 GAP=282        0.38       0.3     0.6  3.6 -0.1219E+00  0.3851E+00 -0.2417E+00E
 ACTION:UPD 12-06-08 11:37 OP:RALL STATUS:               ID:20081027125339     I
 2008-10-27-1253-27S.PLUR1_006                                                 6
 STAT SP IPHASW D HRMM SECON CODA AMPLIT PERI AZIMU VELO AIN AR TRES W  DIS CAZ7
 LD5  SZ E        1253 41.07                  297.9 11.7      0        6.36 118 
 LD5  SN IP       1253 41.10                             132   -0.1310 6.36 118 
 LD5  SE IS       1253 42.39                             132    0.0710 6.36 118 
 LD5  SZ  AML     1253 42.71         3.1 0.22                          6.36 118 
 LZ4  SZ E        1253 42.71                  219.9 23.7      0        17.0  40 
 LZ4  SN IP       1253 42.75                             109   -0.1110 17.0  40 
 LZ4  SZ  AML     1253 45.05        15.7 0.64                          17.0  40 
 LZ4  SE IS       1253 45.31                             109    0.1710 17.0  40 
                                                                                
