 2008 1027 1302  9.0 L  21.510 -99.335 10.0  RAL  1 0.0 0.2LRAL                1
 GAP=360        0.34       8.6     8.6  0.0 -0.7325E+02  0.3851E+00 -0.2417E+00E
 ACTION:UPD 12-06-08 11:37 OP:RALL STATUS:               ID:20081027130209     I
 2008-10-27-1301-57S.PLUR1_003                                                 6
 STAT SP IPHASW D HRMM SECON CODA AMPLIT PERI AZIMU VELO AIN AR TRES W  DIS CAZ7
 LA4  SZ E        13 2 11.09                  317.1 11.4      0        4.00 137 
 LA4  SN IP       13 2 11.10                             159    0.1110 4.00 137 
 LA4  SE IS       13 2 12.31                             159   -0.1110 4.00 137 
 LA4  SZ  AML     13 2 13.44         7.8 0.48                          4.00 137 
                                                                                
