 2008 1027 1841 27.0 L  21.479 -99.444 10.0  RAL  1 0.0 0.7LRAL                1
 GAP=360        0.30       2.7     3.1  0.0 -0.7888E+01  0.4957E+03 -0.5251E+03E
 ACTION:UPD 12-06-08 11:37 OP:RALL STATUS:               ID:20081027184127     I
 2008-10-27-1841-20S.PLUR1_003                                                 6
 STAT SP IPHASW D HRMM SECON CODA AMPLIT PERI AZIMU VELO AIN AR TRES W  DIS CAZ7
 LZ4  SZ E        1841 31.32                  312.2  7.1      0        24.5 132 
 LZ4  SN IP       1841 31.43                             108    0.0010 24.5 132 
 LZ4  SE IS       1841 34.65                             108    0.0010 24.5 132 
 LZ4  SZ  AML     1841 34.90        10.2 0.60                          24.5 132 
                                                                                
