 2008 1027 1358 58.2 L  21.477 -99.302 10.0  RAL  2 0.3 0.7LRAL                1
 GAP=214        3.52       1.6     5.3 91.1  0.4601E+01  0.1604E+01 -0.2876E+01E
 ACTION:UPD 12-06-08 11:37 OP:RALL STATUS:               ID:20081027135858     I
 2008-10-27-1358-47S.PLUR1_006                                                 6
 STAT SP IPHASW D HRMM SECON CODA AMPLIT PERI AZIMU VELO AIN AR TRES W  DIS CAZ7
 LA4  SZ E        1359  4.66                  132.6 10.0     -1        1.05 314 
 LA4  SZ  AML     1359  8.62         7.1 0.48                          1.05 314 
 LZ4  SN IP       1359  2.41                             119    0.9410 16.5 168 
 LZ4  SZ E        1359  2.43                  335.2  7.1    -12        16.5 168 
 LZ4  SE IS       1359  2.93                             119   -0.9410 16.5 168 
 LZ4  SZ  AML     1359  3.22        63.0 0.16                          16.5 168 
                                                                                
