 2008 1027 1957 20.8 L  21.719 -99.380 10.0  RAL  1 0.0 0.9LRAL                1
 GAP=360        0.30       3.7     1.3  0.0 -0.4075E+01  0.4957E+03 -0.5251E+03E
 ACTION:UPD 12-06-08 11:37 OP:RALL STATUS:               ID:20081027195720     I
 2008-10-27-1957-14S.PLUR1_003                                                 6
 STAT SP IPHASW D HRMM SECON CODA AMPLIT PERI AZIMU VELO AIN AR TRES W  DIS CAZ7
 LA4  SN IP       1957 25.64                             106    0.0210 27.1 164 
 LA4  SZ E        1957 25.79                  344.2  8.2      0        27.1 164 
 LA4  SE IS       1957 29.12                             106   -0.0210 27.1 164 
 LA4  SZ  AML     1957 30.71        16.3 0.40                          27.1 164 
                                                                                
