 2008 1027 2228  8.8 L  21.332 -99.273  5.1  RAL  2 0.0 1.6LRAL                1
 GAP=265        0.36       0.2     0.5  1.6 -0.7516E-01  0.3033E-01  0.5015E-02E
 ACTION:UPD 12-06-08 11:37 OP:RALL STATUS:               ID:20081027222808     I
 2008-10-27-2227-55S.PLUR1_006                                                 6
 STAT SP IPHASW D HRMM SECON CODA AMPLIT PERI AZIMU VELO AIN AR TRES W  DIS CAZ7
 LZ4  SZ E        2228  9.79                  282.1  6.9      0        0.41 102 
 LZ4  SN IP       2228  9.83                             176   -0.0110 0.41 102 
 LZ4  SE IS       2228 10.56                             176   -0.0610 0.41 102 
 LZ4  SZ  AML     2228 11.06      3160.3 0.52                          0.41 102 
 LD5  SZ E        2228 11.73                   17.0  8.9      0        16.8 197 
 LD5  SN IP       2228 11.75                              91   -0.1010 16.8 197 
 LD5  SE IS       2228 14.28                              91    0.1710 16.8 197 
 LD5  SZ  AML     2228 14.82        17.5 0.52                          16.8 197 
                                                                                
