 2008 1027 2059 25.4 L  21.641 -99.404 10.0  RAL  1 0.0 0.5LRAL                1
 GAP=360        0.30       3.5     2.2  0.0 -0.7391E+01  0.4957E+03 -0.5251E+03E
 ACTION:UPD 12-06-08 11:37 OP:RALL STATUS:               ID:20081027205925     I
 2008-10-27-2059-18S.PLUR1_003                                                 6
 STAT SP IPHASW D HRMM SECON CODA AMPLIT PERI AZIMU VELO AIN AR TRES W  DIS CAZ7
 LA4  SN IP       2059 29.15                             114    0.0010 20.0 150 
 LA4  SZ E        2059 29.20                  330.4 10.2      0        20.0 150 
 LA4  SE IS       2059 31.90                             114    0.0010 20.0 150 
 LA4  SZ  AML     2059 32.50         8.1 0.24                          20.0 150 
                                                                                
