 2008 1027 2243  7.8 L  21.732 -99.363 10.0  RAL  1 0.0 1.4LRAL                1
 GAP=360        0.30       3.8     1.1  0.0 -0.2975E+01  0.3033E-01  0.5015E-02E
 ACTION:UPD 12-06-08 11:37 OP:RALL STATUS:               ID:20081027224307     I
 2008-10-27-2242-59S.PLUR1_003                                                 6
 STAT SP IPHASW D HRMM SECON CODA AMPLIT PERI AZIMU VELO AIN AR TRES W  DIS CAZ7
 LA4  SN IP       2243 12.78                             106    0.0110 28.1 169 
 LA4  SZ E        2243 12.90                  348.6  7.8      0        28.1 169 
 LA4  SE IS       2243 16.38                             106   -0.0110 28.1 169 
 LA4  SZ  AML     2243 18.07        52.8 0.28                          28.1 169 
                                                                                
