 2008 1027 2253 29.7 L  21.313 -99.309 10.0  RAL  1 0.0 0.6LRAL                1
 GAP=360        0.31       4.2     9.2  0.0  0.3831E+02  0.3033E-01  0.5015E-02E
 ACTION:UPD 12-06-08 11:37 OP:RALL STATUS:               ID:20081027225329     I
 2008-10-27-2253-17S.PLUR1_003                                                 6
 STAT SP IPHASW D HRMM SECON CODA AMPLIT PERI AZIMU VELO AIN AR TRES W  DIS CAZ7
 LZ4  SZ E        2253 31.69                  244.2  9.8      0        4.59  64 
 LZ4  SN IP       2253 31.71                             156    0.0710 4.59  64 
 LZ4  SE IS       2253 33.02                             156   -0.0710 4.59  64 
 LZ4  SZ  AML     2253 33.25        19.3 0.76                          4.59  64 
                                                                                
