 2008 1028 0024 33.7 L  21.660 -99.338 10.0  RAL  1 0.0 0.6LRAL                1
 GAP=360        0.30       4.0     0.9  0.0 -0.2649E+01  0.3033E-01  0.5015E-02E
 ACTION:UPD 12-06-08 11:37 OP:RALL STATUS:               ID:20081028002433     I
 2008-10-28-0024-26S.PLUR1_003                                                 6
 STAT SP IPHASW D HRMM SECON CODA AMPLIT PERI AZIMU VELO AIN AR TRES W  DIS CAZ7
 LA4  SN IP        024 37.43                             114    0.0210 19.7 171 
 LA4  SZ E         024 37.49                  351.2 11.0      0        19.7 171 
 LA4  SE IS        024 40.12                             114   -0.0210 19.7 171 
 LA4  SZ  AML      024 41.13        11.5 0.32                          19.7 171 
                                                                                
