 2008 1028 0734 43.4 L  20.788 -99.046 10.0  RAL  1 0.0 0.9LRAL                1
 GAP=360        0.30       3.5     2.2  0.0 -0.3950E+01  0.1440E+00 -0.1040E-01E
 ACTION:UPD 12-06-08 11:37 OP:RALL STATUS:               ID:20081028073443     I
 2008-10-28-0734-47S.PLUR1_003                                                 6
 STAT SP IPHASW D HRMM SECON CODA AMPLIT PERI AZIMU VELO AIN AR TRES W  DIS CAZ7
 LZ4  SZ E         734 52.86                  158.9  8.8      0        64.5 339 
 LZ4  SN IP        734 53.91                              95    0.0110 64.5 339 
 LZ4  SZ  AML      735  1.16         6.5 0.76                          64.5 339 
 LZ4  SE IS        735  1.58                              95   -0.0110 64.5 339 
                                                                                
