 2008 1028 0843 26.4 L  21.252 -99.234  4.6  RAL  2 0.0-0.1LRAL                1
 GAP=253        0.31       0.3     0.3  5.0 -0.5116E-02 -0.4529E-01  0.1837E+00E
 ACTION:UPD 12-06-08 11:37 OP:RALL STATUS:               ID:20081028084326     I
 2008-10-28-0843-15S.PLUR1_006                                                 6
 STAT SP IPHASW D HRMM SECON CODA AMPLIT PERI AZIMU VELO AIN AR TRES W  DIS CAZ7
 LZ4  SZ E         843 28.34                  157.4  7.2      0        9.44 337 
 LZ4  SN IP        843 28.35                             121    0.0510 9.44 337 
 LZ4  SE IS        843 29.65                             121   -0.0610 9.44 337 
 LZ4  SZ  AML      843 30.05        16.5 0.28                          9.44 337 
 LD5  SZ E         843 28.56                   50.8 10.1      0        11.5 231 
 LD5  SN IP        843 28.56                             116   -0.0610 11.5 231 
 LD5  SE IS        843 30.32                             116    0.0710 11.5 231 
 LD5  SZ  AML      843 30.54         1.1 0.52                          11.5 231 
                                                                                
