 2008 1028 0319 51.8 L  21.316 -99.301 10.0  RAL  1 0.1 0.4LRAL                1
 GAP=360        0.37       6.1    13.2  0.0  0.8089E+02  0.3033E-01  0.5015E-02E
 ACTION:UPD 12-06-08 11:37 OP:RALL STATUS:               ID:20081028031951     I
 2008-10-28-0319-40S.PLUR1_003                                                 6
 STAT SP IPHASW D HRMM SECON CODA AMPLIT PERI AZIMU VELO AIN AR TRES W  DIS CAZ7
 LZ4  SZ E         319 53.82                  243.6 14.8      0        3.64  64 
 LZ4  SN IP        319 53.85                             160    0.1510 3.64  64 
 LZ4  SE IS        319 54.96                             160   -0.1510 3.64  64 
 LZ4  SZ  AML      319 56.49        12.2 0.72                          3.64  64 
                                                                                
