 2008 1028 0657 42.8 L  21.313 -99.261 10.0  RAL  1 0.1 0.4LRAL                1
 GAP=360        0.50     540.7   999.9  0.0  0.7314E+06  0.1440E+00 -0.1040E-01E
 ACTION:UPD 12-06-08 11:37 OP:RALL STATUS:               ID:20081028065742     I
 2008-10-28-0657-31S.PLUR1_003                                                 6
 STAT SP IPHASW D HRMM SECON CODA AMPLIT PERI AZIMU VELO AIN AR TRES W  DIS CAZ7
 LZ4  SZ E         657 44.53                  155.5 60.9      0        2.17 335 
 LZ4  SN IP        657 44.99                             168    0.2810 2.17 335 
 LZ4  SE IS        657 45.80                             168   -0.2810 2.17 335 
 LZ4  SZ  AML      657 45.97        13.3 0.32                          2.17 335 
                                                                                
