 2008 1028 0413 23.2 L  21.330 -99.282 10.0  RAL  1 0.2 0.9LRAL                1
 GAP=360        1.21     999.9    10.1  0.0 -0.1583E+05  0.3033E-01  0.5015E-02E
 ACTION:UPD 12-06-08 11:37 OP:RALL STATUS:               ID:20081028041323     I
 2008-10-28-0413-10S.PLUR1_003                                                 6
 STAT SP IPHASW D HRMM SECON CODA AMPLIT PERI AZIMU VELO AIN AR TRES W  DIS CAZ7
 LZ4  SZ E         413 25.25                  269.9 10.2      4        1.30  86 
 LZ4  SN IP        413 25.53                             173    0.5110 1.30  86 
 LZ4  SE IS        413 25.86                             173   -0.5110 1.30  86 
 LZ4  SZ  AML      413 25.94        46.8 0.12                          1.30  86 
                                                                                
