 2008 1028 0821 32.9 L  21.322 -99.269 10.0  RAL  1 0.0 0.3LRAL                1
 GAP=360        0.36     140.7   999.9  0.0  0.5240E+06  0.1440E+00 -0.1040E-01E
 ACTION:UPD 12-06-08 11:37 OP:RALL STATUS:               ID:20081028082132     I
 2008-10-28-0821-21S.PLUR1_003                                                 6
 STAT SP IPHASW D HRMM SECON CODA AMPLIT PERI AZIMU VELO AIN AR TRES W  DIS CAZ7
 LZ4  SZ E         821 34.33                  177.5 13.2      0        1.03 358 
 LZ4  SN IP        821 34.73                             174    0.0410 1.03 358 
 LZ4  SE IS        821 35.99                             174   -0.0410 1.03 358 
 LZ4  SZ  AML      821 36.86        12.5 0.36                          1.03 358 
                                                                                
