 2008 1028 0652 37.4 L  21.337 -99.309  8.5  RAL  2 0.0 0.9LRAL                1
 GAP=275        0.33       0.1     0.5  2.5 -0.3956E-01  0.1440E+00 -0.1040E-01E
 ACTION:UPD 12-06-08 11:37 OP:RALL STATUS:               ID:20081028065237     I
 2008-10-28-0652-24S.PLUR1_006                                                 6
 STAT SP IPHASW D HRMM SECON CODA AMPLIT PERI AZIMU VELO AIN AR TRES W  DIS CAZ7
 LZ4  SZ E         652 39.25                  279.5  8.9      0        4.12  99 
 LZ4  SN IP        652 39.30                             155    0.1310 4.12  99 
 LZ4  SE IS        652 40.39                             155   -0.0610 4.12  99 
 LZ4  SZ  AML      652 41.33       213.1 0.28                          4.12  99 
 LD5  SZ E         652 40.52                    4.1 12.0      0        16.7 184 
 LD5  SN IP        652 40.56                             113   -0.0710 16.7 184 
 LD5  SE IS        652 42.98                             113    0.0010 16.7 184 
 LD5  SZ  AML      652 43.37         5.1 0.40                          16.7 184 
                                                                                
