 2008 1028 0004 28.2 L  21.311 -99.253 10.0  RAL  1 0.2 0.7LRAL                1
 GAP=360        0.72      27.6    22.5  0.0 -0.6204E+03  0.3033E-01  0.5015E-02E
 ACTION:UPD 12-06-08 11:37 OP:RALL STATUS:               ID:20081028000428     I
 2008-10-28-0004-16S.PLUR1_003                                                 6
 STAT SP IPHASW D HRMM SECON CODA AMPLIT PERI AZIMU VELO AIN AR TRES W  DIS CAZ7
 LZ4  SN IP        0 4 30.54                             165    0.4410 2.77 323 
 LZ4  SZ E         0 4 30.56                  142.8 10.4      0        2.77 323 
 LZ4  SE IS        0 4 31.03                             165   -0.4410 2.77 323 
 LZ4  SZ  AML      0 4 31.28        27.6 0.20                          2.77 323 
                                                                                
