 2008 1028 1331  7.6 L  21.308 -99.238 10.0  RAL  1 0.1 0.3LRAL                1
 GAP=360        0.36       7.4    10.1  0.0 -0.7511E+02  0.1089E+01  0.4850E+00E
 ACTION:UPD 12-06-08 11:37 OP:RALL STATUS:               ID:20081028133107     I
 2008-10-28-1330-56S.PLUR1_003                                                 6
 STAT SP IPHASW D HRMM SECON CODA AMPLIT PERI AZIMU VELO AIN AR TRES W  DIS CAZ7
 LZ4  SZ E        1331  9.14                  128.1 82.4      0        4.13 308 
 LZ4  SN IP       1331  9.65                             158    0.1410 4.13 308 
 LZ4  SE IS       1331 10.80                             158   -0.1410 4.13 308 
 LZ4  SZ  AML     1331 10.90        10.3 0.64                          4.13 308 
                                                                                
