 2008 1028 1721 48.9 L  21.300 -99.300 10.0  RAL  1 0.0 0.5LRAL                1
 GAP=360        0.34       7.5     7.4  0.0  0.5577E+02  0.1089E+01  0.4850E+00E
 ACTION:UPD 12-06-08 11:37 OP:RALL STATUS:               ID:20081028172148     I
 2008-10-28-1721-37S.PLUR1_003                                                 6
 STAT SP IPHASW D HRMM SECON CODA AMPLIT PERI AZIMU VELO AIN AR TRES W  DIS CAZ7
 LZ4  SN IP       1721 51.02                             156    0.1110 4.63  43 
 LZ4  SZ E        1721 51.04                  222.7 58.1      0        4.63  43 
 LZ4  SE IS       1721 52.25                             156   -0.1110 4.63  43 
 LZ4  SZ  AML     1721 53.54        16.0 0.76                          4.63  43 
                                                                                
