 2008 1028 1418 33.5 L  21.308 -99.297 10.0  RAL  1 0.1 0.3LRAL                1
 GAP=360        0.36       8.5    10.5  0.0  0.8895E+02  0.1089E+01  0.4850E+00E
 ACTION:UPD 12-06-08 11:37 OP:RALL STATUS:               ID:20081028141833     I
 2008-10-28-1418-22S.PLUR1_003                                                 6
 STAT SP IPHASW D HRMM SECON CODA AMPLIT PERI AZIMU VELO AIN AR TRES W  DIS CAZ7
 LZ4  SZ E        1418 34.72                  229.0 64.7      0        3.77  49 
 LZ4  SN IP       1418 35.58                             160    0.1410 3.77  49 
 LZ4  SE IS       1418 36.72                             160   -0.1410 3.77  49 
 LZ4  SZ  AML     1418 36.89        10.3 0.56                          3.77  49 
                                                                                
