 2008 1028 1742  5.6 L  21.318 -99.302 10.0  RAL  1 0.1 0.4LRAL                1
 GAP=360        0.36       5.4    13.4  0.0  0.7273E+02  0.1089E+01  0.4850E+00E
 ACTION:UPD 12-06-08 11:37 OP:RALL STATUS:               ID:20081028174205     I
 2008-10-28-1741-54S.PLUR1_003                                                 6
 STAT SP IPHASW D HRMM SECON CODA AMPLIT PERI AZIMU VELO AIN AR TRES W  DIS CAZ7
 LZ4  SN IP       1742  7.66                             161    0.1410 3.63  67 
 LZ4  SZ E        1742  7.68                  246.6 15.9      0        3.63  67 
 LZ4  SE IS       1742  8.78                             161   -0.1410 3.63  67 
 LZ4  SZ  AML     1742  8.94        15.0 0.44                          3.63  67 
                                                                                
