 2008 1028 1608  6.8 L  21.298 -99.299 10.0  RAL  1 0.0 0.8LRAL                1
 GAP=360        0.33       7.5     6.7  0.0  0.5047E+02  0.1089E+01  0.4850E+00E
 ACTION:UPD 12-06-08 11:37 OP:RALL STATUS:               ID:20081028160806     I
 2008-10-28-1607-54S.PLUR1_003                                                 6
 STAT SP IPHASW D HRMM SECON CODA AMPLIT PERI AZIMU VELO AIN AR TRES W  DIS CAZ7
 LZ4  SZ E        16 8  8.84                  219.8 12.2      0        4.73  40 
 LZ4  SN IP       16 8  8.86                             155    0.1010 4.73  40 
 LZ4  SE IS       16 8 10.12                             155   -0.1010 4.73  40 
 LZ4  SZ  AML     16 8 10.32        29.4 0.16                          4.73  40 
                                                                                
