 2008 1028 1021 38.0 L  21.314 -99.327  7.2  RAL  2 0.1 0.5LRAL                1
 GAP=256        0.65       0.4     0.8  6.3  0.1893E+00  0.1089E+01  0.4850E+00E
 ACTION:UPD 12-06-08 11:37 OP:RALL STATUS:               ID:20081028102138     I
 2008-10-28-1021-25S.PLUR1_006                                                 6
 STAT SP IPHASW D HRMM SECON CODA AMPLIT PERI AZIMU VELO AIN AR TRES W  DIS CAZ7
 LZ4  SZ E        1021 39.71                  253.3 10.4      0        6.23  73 
 LZ4  SN IP       1021 40.27                             139    0.4910 6.23  73 
 LZ4  SE IS       1021 40.91                             139   -0.1510 6.23  73 
 LZ4  SZ  AML     1021 41.31        62.0 0.60                          6.23  73 
 LD5  SZ E        1021 40.61                  357.4 10.1      0        14.2 177 
 LD5  SN IP       1021 40.65                             112   -0.1510 14.2 177 
 LD5  SE IS       1021 42.63                             112   -0.1910 14.2 177 
 LD5  SZ  AML     1021 43.46         4.0 0.26                          14.2 177 
                                                                                
