 2008 1028 2023  6.5 L  21.786 -99.510 10.0  RAL  1 0.0 1.9LRAL                1
 GAP=360        0.30       3.4     2.3  0.0 -0.5019E+01  0.1089E+01  0.4850E+00E
 ACTION:UPD 12-06-08 11:37 OP:RALL STATUS:               ID:20081028202306     I
 2008-10-28-2023-01S.PLUR1_003                                                 6
 STAT SP IPHASW D HRMM SECON CODA AMPLIT PERI AZIMU VELO AIN AR TRES W  DIS CAZ7
 LZ4  SZ E        2023 15.42                  333.8 10.4      0        56.2 154 
 LZ4  SN IP       2023 15.76                              96    0.0110 56.2 154 
 LZ4  SE IS       2023 22.50                              96   -0.0110 56.2 154 
 LZ4  SZ  AML     2023 26.05        89.7 0.56                          56.2 154 
                                                                                
