 2008 1028 2155 57.7 L  21.335 -99.283 10.0  RAL  1 0.1 0.2LRAL                1
 GAP=360        0.51     999.9   441.6  0.0  0.4445E+06  0.1089E+01  0.4850E+00E
 ACTION:UPD 12-06-08 11:37 OP:RALL STATUS:               ID:20081028215557     I
 2008-10-28-2155-46S.PLUR1_003                                                 6
 STAT SP IPHASW D HRMM SECON CODA AMPLIT PERI AZIMU VELO AIN AR TRES W  DIS CAZ7
 LZ4  SZ E        2155 59.84                  290.5  9.1      1        1.50 110 
 LZ4  SN IP       2155 59.84                             172    0.2710 1.50 110 
 LZ4  SE IS       2156  0.65                             172   -0.2710 1.50 110 
 LZ4  SZ  AML     2156  0.90         9.7 0.48                          1.50 110 
                                                                                
