 2008 1028 2337 24.4 L  21.313 -99.300 10.0  RAL  1 0.1 0.5LRAL                1
 GAP=360        0.36       6.9    11.8  0.0  0.8157E+02  0.1089E+01  0.4850E+00E
 ACTION:UPD 12-06-08 11:37 OP:RALL STATUS:               ID:20081028233724     I
 2008-10-28-2337-12S.PLUR1_003                                                 6
 STAT SP IPHASW D HRMM SECON CODA AMPLIT PERI AZIMU VELO AIN AR TRES W  DIS CAZ7
 LZ4  SZ E        2337 26.41                  238.0 12.5      0        3.75  58 
 LZ4  SN IP       2337 26.44                             160    0.1410 3.75  58 
 LZ4  SE IS       2337 27.58                             160   -0.1410 3.75  58 
 LZ4  SZ  AML     2337 27.96        16.3 0.40                          3.75  58 
                                                                                
