 2008 1029 0048 14.9 L  20.984 -99.464  0.4  RAL  2 0.4 0.7LRAL                1
 GAP=354        7.71      70.0    50.3126.5  0.3330E+04  0.3205E+04  0.4494E+04E
 ACTION:UPD 12-06-08 11:37 OP:RALL STATUS:               ID:20081029004814     I
 2008-10-29-0048-08S.PLUR1_006                                                 6
 STAT SP IPHASW D HRMM SECON CODA AMPLIT PERI AZIMU VELO AIN AR TRES W  DIS CAZ7
 LD5  SZ E         048 19.18                  233.4  8.9     20        27.0  34 
 LD5  SN IP        048 19.35                             124   -0.2410 27.0  34 
 LD5  SE IS        048 23.15                             124    0.1110 27.0  34 
 LD5  SZ  AML      048 25.42         3.8 0.18                          27.0  34 
 LZ4  SZ E         048 21.82                  175.7 18.0    -31        43.4  28 
 LZ4  SN IP        048 22.18                             110   -0.2810 43.4  28 
 LZ4  SE IS        048 28.43                             110    0.4210 43.4  28 
 LZ4  SZ  AML      048 30.93        17.2 0.56                          43.4  28 
                                                                                
