 2008 1029 0906 37.6 L  21.393 -99.349 10.0  RAL  1 0.0 0.9LRAL                1
 GAP=360        0.30       3.2     4.1  0.0 -0.1314E+02  0.3205E+04  0.4494E+04E
 ACTION:UPD 12-06-08 11:37 OP:RALL STATUS:               ID:20081029090637     I
 2008-10-29-0906-26S.PLUR1_003                                                 6
 STAT SP IPHASW D HRMM SECON CODA AMPLIT PERI AZIMU VELO AIN AR TRES W  DIS CAZ7
 LZ4  SN IP        9 6 40.12                             132    0.0110 10.8 130 
 LZ4  SZ E         9 6 40.16                  309.8  6.5      0        10.8 130 
 LZ4  SE IS        9 6 41.96                             132   -0.0110 10.8 130 
 LZ4  SZ  AML      9 6 43.18        32.9 0.40                          10.8 130 
                                                                                
