 2008 1029 0808 17.9 L  21.330 -99.274 10.0  RAL  1 0.2 0.8LRAL                1
 GAP=360        2.17     999.9   262.9  0.0 -0.8479E+06  0.3205E+04  0.4494E+04E
 ACTION:UPD 12-06-08 11:37 OP:RALL STATUS:               ID:20081029080817     I
 2008-10-29-0808-05S.PLUR1_003                                                 6
 STAT SP IPHASW D HRMM SECON CODA AMPLIT PERI AZIMU VELO AIN AR TRES W  DIS CAZ7
 LZ4  SZ E         8 8 19.84                  265.9 15.7     10        0.50  76 
 LZ4  SN IP        8 8 19.88                             177    0.1010 0.50  76 
 LZ4  SE IS        8 8 21.02                             177   -0.1010 0.50  76 
 LZ4  SZ  AML      8 8 21.08        33.0 0.16                          0.50  76 
                                                                                
