 2008 1029 0740 57.3 L  21.191 -99.317 10.0  RAL  1 0.7-0.4LRAL                1
 GAP=360        9.37     999.9   938.2  0.0 -0.2658E+07  0.3205E+04  0.4494E+04E
 ACTION:UPD 12-06-08 11:37 OP:RALL STATUS:               ID:20081029074057     I
 2008-10-29-0740-45S.PLUR1_003                                                 6
 STAT SP IPHASW D HRMM SECON CODA AMPLIT PERI AZIMU VELO AIN AR TRES W  DIS CAZ7
 LD5  SZ E         740 59.63                   76.0 15.6     45        0.60 211 
 LD5  SN IP        740 59.67                             177    0.4910 0.60 211 
 LD5  SE IS        741  0.02                             177   -0.4910 0.60 211 
 LD5  SZ  AML      741  0.31         2.2 0.28                          0.60 211 
                                                                                
