 2008 1029 1612 23.3 L  20.729 -99.283  5.1  RAL  2 0.1 0.9LRAL                1
 GAP=354        1.46     110.5     7.4215.0 -0.5369E+03  0.1039E+04 -0.2359E+05E
 ACTION:UPD 12-06-08 11:37 OP:RALL STATUS:               ID:20081029161223     I
 2008-10-29-1612-20S.PLUR1_009                                                 6
 STAT SP IPHASW D HRMM SECON CODA AMPLIT PERI AZIMU VELO AIN AR TRES W  DIS CAZ7
 LD5  SZ E        1612 31.16                  179.3 14.6      4        50.8 356 
 LD5  SN IP       1612 31.23                              63   -0.0710 50.8 356 
 LD5  SE IS       1612 36.75                              63   -0.4110 50.8 356 
 LD5  SZ  AML     1612 39.14         2.2 0.20                          50.8 356 
 LZ4  SZ E        1612 33.81                  176.0  9.2     -4        66.6   1 
 LZ4  SN IP       1612 33.83                              63    0.0710 66.6   1 
 LZ4  SE IS     C 1612 41.82                              63    0.4110 66.6   1 
 LZ4  SZ  AML     1612 44.43        28.7 0.20                          66.6   1 
                                                                                
