 2008 1029 1612 23.0 R  20.745 -99.322  5.3  RAL  2 0.3 0.9LRAL                1
 GAP=355        5.14      78.5    18.8999.9  0.1286E+03  0.1182E+05  0.6761E+06E
 ACTION:UPD 12-06-08 11:37 OP:RALL STATUS:               ID:20081029161223     I
 2008-10-29-1612-20S.PLUR1_009                                                 6
 STAT SP IPHASW D HRMM SECON CODA AMPLIT PERI AZIMU VELO AIN AR TRES W  DIS CAZ7
 LD5  SZ E        1612 31.08                  195.3 14.8     15        48.8   0 
 LD5  SN IP       1612 31.19                              90    0.0910 48.8   0 
 LD5  SE IS       1612 36.73                              90   -0.2610 48.8   0 
 LD5  SZ  AML     1612 39.14         2.2 0.20                          48.8   0 
 LZ4  SN IP       1612 33.82                              90    0.2010 65.0   5 
 LZ4  SZ E        1612 33.93                  164.8 10.4    -19        65.0   5 
 LZ4  SE IS       1612 41.33                              90   -0.0210 65.0   5 
 LZ4  SZ  AML     1612 44.43        28.6 0.20                          65.0   5 
                                                                                
