 2008 1029 1912  7.3 R  20.201 -98.963  0.0  RAL  3 0.3 1.8LRAL                1
 GAP=355        4.20     666.6   206.7999.9 -0.1363E+06  0.2745E+06 -0.8933E+06E
 ACTION:UPD 12-06-08 11:37 OP:RALL STATUS:               ID:20081029191207     I
 2008-10-29-1912-12S.PLUR1_012                                                 6
 STAT SP IPHASW D HRMM SECON CODA AMPLIT PERI AZIMU VELO AIN AR TRES W  DIS CAZ7
 LD5  SZ E        1912 25.28                  143.0 19.5    -17         115 341 
 LD5  SN IP       1912 25.67                              63   -0.4510  115 341 
 LD5  SE IS       1912 39.06                              63   -0.7610  115 341 
 LD5  SZ  AML     1912 44.47         5.4 0.60                           115 341 
 LZ4  SZ E        1912 28.09                  177.8 19.5     12         129 346 
 LZ4  SN IP       1912 28.32                              63    0.0510  129 346 
 LZ4  SE IS       1912 43.47                              63   -0.0710  129 346 
 LZ4  SZ  AML     1912 46.22        49.0 0.40                           129 346 
 LA4  SN IP       1912 31.12                              63    0.1410  146 346 
 LA4  SZ E        1912 31.29                  173.5  8.0      8         146 346 
 LA4  SE IS       1912 49.31                              63    1.0810  146 346 
 LA4  SZ  AML     1912 51.60        72.0 0.40                           146 346 
                                                                                
