 2008 1029 2216 47.3 L  21.624 -99.319 10.0  RAL  1 0.0 0.3LRAL                1
 GAP=360        0.30       4.3     0.5  0.0 -0.1399E+01  0.2745E+06 -0.8933E+06E
 ACTION:UPD 12-06-08 11:37 OP:RALL STATUS:               ID:20081029221647     I
 2008-10-29-2216-38S.PLUR1_003                                                 6
 STAT SP IPHASW D HRMM SECON CODA AMPLIT PERI AZIMU VELO AIN AR TRES W  DIS CAZ7
 LA4  SZ E        2216 50.40                  356.0  9.8      0        15.5 176 
 LA4  SN IP       2216 50.46                             121    0.0210 15.5 176 
 LA4  SE IS       2216 52.72                             121   -0.0210 15.5 176 
 LA4  SZ  AML     2216 54.46         7.0 0.24                          15.5 176 
                                                                                
