 2008 1030 0735 13.7 L  21.693 -99.377  0.0  RAL  2 0.2 1.5LRAL                1
 GAP=359        1.00      10.0     3.9192.2 -0.3107E+02  0.4115E+03 -0.1245E+04E
 ACTION:UPD 12-06-08 11:37 OP:RALL STATUS:               ID:20081030073513     I
 2008-10-30-0735-04S.PLUR1_006                                                 6
 STAT SP IPHASW D HRMM SECON CODA AMPLIT PERI AZIMU VELO AIN AR TRES W  DIS CAZ7
 LA4  SZ E         735 17.87                  343.1  9.5      0        24.2 163 
 LA4  SN IP        735 17.91                              93   -0.0310 24.2 163 
 LA4  SE IS        735 20.42                              93   -0.6210 24.2 163 
 LA4  SZ  AML      735 20.51        73.5 0.24                          24.2 163 
 LZ4  SN IP        735 21.01                              91    0.0310 41.6 164 
 LZ4  SZ E         735 21.07                                           41.6 164 
 LZ4  SE IS        735 26.91                              91    0.6210 41.6 164 
                                                                                
