 2008 1030 0926 23.1 L  21.688 -99.520 10.0  RAL  1 0.0 1.3LRAL                1
 GAP=360        0.30       3.2     2.5  0.0 -0.6159E+01 -0.2395E+05  0.2897E+05E
 ACTION:UPD 12-06-08 11:37 OP:RALL STATUS:               ID:20081030092623     I
 2008-10-30-0926-21S.PLUR1_003                                                 6
 STAT SP IPHASW D HRMM SECON CODA AMPLIT PERI AZIMU VELO AIN AR TRES W  DIS CAZ7
 LZ4  SN IP        926 31.00                              98    0.0110 47.3 147 
 LZ4  SZ E         926 31.02                  326.8  8.6      0        47.3 147 
 LZ4  SE IS        926 36.73                              98   -0.0110 47.3 147 
 LZ4  SZ  AML      926 37.18        23.4 0.64                          47.3 147 
                                                                                
