 2008 1030 0614 23.6 L  21.708 -99.305 10.0  RAL  1 0.0 0.4LRAL                1
 GAP=360        0.30       3.7     1.6  0.0  0.3494E+00  0.2745E+06 -0.8933E+06E
 ACTION:UPD 12-06-08 11:37 OP:RALL STATUS:               ID:20081030061423     I
 2008-10-30-0614-25S.PLUR1_003                                                 6
 STAT SP IPHASW D HRMM SECON CODA AMPLIT PERI AZIMU VELO AIN AR TRES W  DIS CAZ7
 LD5  SZ E         614 32.90                    1.6 10.1      0        57.8 182 
 LD5  SN IP        614 33.15                              96    0.0110 57.8 182 
 LD5  SE IS        614 40.07                              96   -0.0110 57.8 182 
 LD5  SZ  AML      614 41.16         2.4 0.28                          57.8 182 
                                                                                
