 2008 1030 0651 54.7 L  21.770 -99.376  5.2  RAL  2 0.3 0.9LRAL                1
 GAP=360        4.83     999.9   755.0999.9 -0.2389E+07 -0.4731E+07  0.1983E+08E
 ACTION:UPD 12-06-08 11:37 OP:RALL STATUS:               ID:20081030065154     I
 2008-10-30-0651-48S.PLUR1_006                                                 6
 STAT SP IPHASW D HRMM SECON CODA AMPLIT PERI AZIMU VELO AIN AR TRES W  DIS CAZ7
 LA4  SN IP        651 59.94                              63   -0.2510 32.4 168 
 LA4  SZ E         651 59.98                    0.4 10.3     13        32.4 168 
 LA4  SZ  AML      652  4.09        17.4 0.28                          32.4 168 
 LA4  SE IS        652  4.29                              63    0.0710 32.4 168 
 LZ4  SN IP        652  3.11                              63    0.2210 49.8 167 
 LZ4  SZ E         652  3.40                  327.4 14.7    -19        49.8 167 
 LZ4  SE IS        652  8.85                              63   -0.0410 49.8 167 
 LZ4  SZ  AML      652 10.28         8.1 0.52                          49.8 167 
                                                                                
