 2008 1030 0909 48.0 L  21.822 -99.733  6.3  RAL  2 0.2 1.5LRAL                1
 GAP=350        2.56     109.5    90.9268.8 -0.9791E+04 -0.2395E+05  0.2897E+05E
 ACTION:UPD 12-06-08 11:37 OP:RALL STATUS:               ID:20081030090948     I
 2008-10-30-0909-45S.PLUR1_006                                                 6
 STAT SP IPHASW D HRMM SECON CODA AMPLIT PERI AZIMU VELO AIN AR TRES W  DIS CAZ7
 LZ4  SZ E         9 9 59.47                  324.9  7.6      6        72.5 138 
 LZ4  SN IP        9 9 59.48                              63   -0.2910 72.5 138 
 LZ4  SE IS     C  910  7.94                              63   -0.4010 72.5 138 
 LZ4  SZ  AML      910  8.39       102.5 0.40                          72.5 138 
 LD5  SZ E         910  1.79                  318.7 10.1     -9        82.3 149 
 LD5  SN IP        910  1.88                              63    0.5910 82.3 149 
 LD5  SE IS        910 11.07                              63    0.1010 82.3 149 
 LD5  SZ  AML      910 14.50         6.3 0.72                          82.3 149 
                                                                                
