 2008 1030 0830 14.4 L  21.329 -99.116 10.0  RAL  1 0.0 0.5LRAL                1
 GAP=360        0.30       2.6     3.2  0.0 -0.7662E+01  0.4115E+03 -0.1245E+04E
 ACTION:UPD 12-06-08 11:37 OP:RALL STATUS:               ID:20081030083014     I
 2008-10-30-0830-08S.PLUR1_003                                                 6
 STAT SP IPHASW D HRMM SECON CODA AMPLIT PERI AZIMU VELO AIN AR TRES W  DIS CAZ7
 LA4  SZ E         830 18.84                  130.5 17.2      0        26.3 311 
 LA4  SN IP        830 19.12                             107    0.0010 26.3 311 
 LA4  SE IS        830 22.54                             107    0.0010 26.3 311 
 LA4  SZ  AML      830 22.71         6.8 0.32                          26.3 311 
                                                                                
