 2008 1030 1408  3.9 L  21.235 -99.280  4.4  RAL  2 0.1-0.1LRAL                1
 GAP=212        0.48       0.7     0.5  6.3  0.2687E+00 -0.8471E+00 -0.1388E+01E
 ACTION:UPD 12-06-08 11:37 OP:RALL STATUS:               ID:20081030140803     I
 2008-10-30-1407-52S.PLUR1_006                                                 6
 STAT SP IPHASW D HRMM SECON CODA AMPLIT PERI AZIMU VELO AIN AR TRES W  DIS CAZ7
 LD5  SZ E        14 8  5.12                   37.2 10.2      0        6.79 218 
 LD5  SN IP       14 8  5.17                             129   -0.2110 6.79 218 
 LD5  SE IS       14 8  6.44                             129   -0.0610 6.79 218 
 LD5  SZ  AML     14 8  7.65         1.4 0.16                          6.79 218 
 LZ4  SN IP       14 8  6.01                             117    0.0510 10.7   6 
 LZ4  SZ E        14 8  6.03                  185.0 10.9      0        10.7   6 
 LZ4  SE IS       14 8  7.70                             117    0.2210 10.7   6 
 LZ4  SZ  AML     14 8  9.76        14.7 0.36                          10.7   6 
                                                                                
