 2008 1030 1836 17.5 L  21.678 -99.407  0.0  RAL  2 0.2 1.3LRAL                1
 GAP=355        2.72      25.2    13.1497.9 -0.2980E+03  0.3976E+04 -0.8058E+04E
 ACTION:UPD 12-06-08 11:37 OP:RALL STATUS:               ID:20081030183617     I
 2008-10-30-1836-07S.PLUR1_006                                                 6
 STAT SP IPHASW D HRMM SECON CODA AMPLIT PERI AZIMU VELO AIN AR TRES W  DIS CAZ7
 LA4  SZ E        1836 21.90                  341.0  8.4      6        23.8 155 
 LA4  SN IP       1836 21.91                              93    0.2510 23.8 155 
 LA4  SE IS       1836 24.01                              93   -0.6910 23.8 155 
 LA4  SZ  AML     1836 24.22        97.5 0.28                          23.8 155 
 LZ4  SZ E        1836 24.80                  328.7  7.9    -10        41.0 160 
 LZ4  SN IP       1836 24.82                              91    0.1510 41.0 160 
 LZ4  SE IS       1836 30.19                              91    0.2910 41.0 160 
 LZ4  SZ  AML     1836 32.24        15.6 0.40                          41.0 160 
                                                                                
