 2008 1030 1412 10.2 L  21.624 -99.149 10.0  RAL  1 0.0 0.8LRAL                1
 GAP=360        0.30       3.5     1.7  0.0  0.4845E+01 -0.8471E+00 -0.1388E+01E
 ACTION:UPD 12-06-08 11:37 OP:RALL STATUS:               ID:20081030141210     I
 2008-10-30-1412-06S.PLUR1_003                                                 6
 STAT SP IPHASW D HRMM SECON CODA AMPLIT PERI AZIMU VELO AIN AR TRES W  DIS CAZ7
 LZ4  SZ E        1412 15.31                   20.9 99.9      0        34.8 201 
 LZ4  SN IP       1412 16.21                             102    0.0110 34.8 201 
 LZ4  SE IS       1412 20.54                             102   -0.0110 34.8 201 
 LZ4  SZ  AML     1412 25.01        11.5 0.56                          34.8 201 
                                                                                
