 2008 1030 1819 18.1 L  21.270 -99.273 10.0  RAL  2 0.2 0.3LRAL                1
 GAP=205        1.53       3.5     0.9 16.0  0.1787E+01  0.1799E+01  0.1199E+02E
 ACTION:UPD 12-06-08 11:37 OP:RALL STATUS:               ID:20081030181918     I
 2008-10-30-1819-06S.PLUR1_006                                                 6
 STAT SP IPHASW D HRMM SECON CODA AMPLIT PERI AZIMU VELO AIN AR TRES W  DIS CAZ7
 LZ4  SZ E        1819 20.40                  180.4  8.8     -2        6.71   3 
 LZ4  SN IP       1819 20.54                             151    0.3110 6.71   3 
 LZ4  SE IS       1819 22.14                             151    0.3510 6.71   3 
 LZ4  SZ  AML     1819 22.22        28.1 0.20                          6.71   3 
 LD5  SZ E        1819 20.36                   21.9 18.5     -5        10.5 208 
 LD5  SN IP       1819 20.43                             134   -0.1810 10.5 208 
 LD5  SE IS       1819 21.97                             134   -0.4810 10.5 208 
 LD5  SZ  AML     1819 22.42         3.2 0.30                          10.5 208 
                                                                                
