 2008 1030 2018 21.8 L  21.156 -99.208 10.0  RAL  3 1.0 0.8LRAL                1
 GAP=304       15.29      18.0    30.6100.3 -0.2690E+03  0.3261E+03 -0.2787E+03E
 ACTION:UPD 12-06-08 11:37 OP:RALL STATUS:               ID:20081030201821     I
 2008-10-30-2018-09S.PLUR1_009                                                 6
 STAT SP IPHASW D HRMM SECON CODA AMPLIT PERI AZIMU VELO AIN AR TRES W  DIS CAZ7
 LO8  SN IP       2018 24.92                             176    1.2310 0.65 312 
 LO8  SZ E        2018 25.39                  141.7  6.9      9        0.65 312 
 LO8  SE IS       2018 27.39                             176    2.3210 0.65 312 
 LO8  SZ  AML     2018 28.90         4.4 0.44                          0.65 312 
 LD5  SZ E        2018 24.55                   27.3  8.9    -78        12.1 286 
 LD5  SN IP       2018 24.56                             132    0.0510 12.1 286 
 LD5  SE IS       2018 26.00                             132   -0.4910 12.1 286 
 LD5  SZ  AML     2018 26.75        15.4 0.24                          12.1 286 
 LZ4  SZ E        2018 24.67                  195.9 10.3     34        20.4 342 
 LZ4  SN IP       2018 24.68                             117   -0.9410 20.4 342 
 LZ4  SE IS       2018 26.25                             117   -2.1710 20.4 342 
 LZ4  SZ  AML     2018 27.69       152.4 0.44                          20.4 342 
                                                                                
