 2008 1030 2152 37.6 L  21.257 -99.277  0.0  RAL  3 0.2 0.7LRAL                1
 GAP=205        2.51       3.5     1.7 98.4  0.3075E+01 -0.1738E+02 -0.6511E+02E
 ACTION:UPD 12-06-08 11:37 OP:RALL STATUS:               ID:20081030215237     I
 2008-10-30-2152-24S.PLUR1_009                                                 6
 STAT SP IPHASW D HRMM SECON CODA AMPLIT PERI AZIMU VELO AIN AR TRES W  DIS CAZ7
 LZ4  SZ E        2152 38.78                  188.4 11.7      3        8.20   5 
 LZ4  SN IP       2152 38.81                              97   -0.2210 8.20   5 
 LZ4  SE IS       2152 40.27                              97    0.1910 8.20   5 
 LZ4  SZ  AML     2152 41.21        94.3 0.68                          8.20   5 
 LD5  SZ E        2152 38.71                   29.2  8.8      0        9.03 210 
 LD5  SN IP       2152 38.72                              96   -0.4510 9.03 210 
 LD5  SE IS       2152 40.16                              96   -0.1710 9.03 210 
 LD5  SZ  AML     2152 40.91         7.3 0.26                          9.03 210 
 LA4  SZ E        2152 41.81                  159.3 10.2    -12        25.3 352 
 LA4  SN IP       2152 41.83                              93   -0.1810 25.3 352 
 LA4  SE IS       2152 46.09                              93    0.8410 25.3 352 
 LA4  SZ  AML     2152 48.49        14.3 0.60                          25.3 352 
                                                                                
