 2008 1030 2144  4.5 L  21.704 -99.489 10.0  RAL  1 0.0 1.3LRAL                1
 GAP=360        0.30       3.1     2.6  0.0 -0.7301E+01  0.3261E+03 -0.2787E+03E
 ACTION:UPD 12-06-08 11:37 OP:RALL STATUS:               ID:20081030214404     I
 2008-10-30-2143-58S.PLUR1_003                                                 6
 STAT SP IPHASW D HRMM SECON CODA AMPLIT PERI AZIMU VELO AIN AR TRES W  DIS CAZ7
 LA4  SZ E        2144  9.46                  322.6  7.6      0        30.7 143 
 LA4  SN IP       2144  9.90                             104    0.0210 30.7 143 
 LA4  SE IS       2144 13.76                             104   -0.0210 30.7 143 
 LA4  SZ  AML     2144 15.65        38.4 0.40                          30.7 143 
                                                                                
