 2008 1031 0710 28.0 L  21.380 -99.372  0.0  RAL  2 0.1 0.9LRAL                1
 GAP=311        0.75       1.3     1.8 59.6 -0.1821E+01  0.3481E+02 -0.1665E+02E
 ACTION:UPD 12-06-08 11:37 OP:RALL STATUS:               ID:20081031071028     I
 2008-10-31-0710-16S.PLUR1_006                                                 6
 STAT SP IPHASW D HRMM SECON CODA AMPLIT PERI AZIMU VELO AIN AR TRES W  DIS CAZ7
 LZ4  SZ E         710 30.22                  297.9  8.6      1        12.0 117 
 LZ4  SN IP        710 30.25                              95    0.1810 12.0 117 
 LZ4  SE IS        710 31.20                              95   -0.4010 12.0 117 
 LZ4  SZ  AML      710 31.34       206.6 0.36                          12.0 117 
 LD5  SZ E         710 32.03                  343.6  9.5     -1        22.1 166 
 LD5  SN IP        710 32.03                              93    0.2010 22.1 166 
 LD5  SE IS        710 34.67                              93    0.0210 22.1 166 
 LD5  SZ  AML      710 36.72         4.6 0.28                          22.1 166 
                                                                                
