 2008 1031 0045  2.3 L  21.258 -99.429 10.0  RAL  1 0.0 0.7LRAL                1
 GAP=360        0.30       3.5     2.0  0.0  0.6143E+01 -0.1738E+02 -0.6511E+02E
 ACTION:UPD 12-06-08 11:37 OP:RALL STATUS:               ID:20081031004502     I
 2008-10-31-0044-56S.PLUR1_003                                                 6
 STAT SP IPHASW D HRMM SECON CODA AMPLIT PERI AZIMU VELO AIN AR TRES W  DIS CAZ7
 LA4  SZ E         045  7.17                  206.4 14.3      0        27.9  26 
 LA4  SN IP        045  7.26                             106    0.0210 27.9  26 
 LA4  SE IS        045 10.82                             106   -0.0210 27.9  26 
 LA4  SZ  AML      045 11.78         9.1 0.60                          27.9  26 
                                                                                
