 2008 1031 0423 45.7 L  21.307 -99.303 10.0  RAL  1 0.0 0.4LRAL                1
 GAP=360        0.35       6.7     9.5  0.0  0.6341E+02 -0.6155E+06  0.5281E+07E
 ACTION:UPD 12-06-08 11:37 OP:RALL STATUS:               ID:20081031042345     I
 2008-10-31-0423-33S.PLUR1_003                                                 6
 STAT SP IPHASW D HRMM SECON CODA AMPLIT PERI AZIMU VELO AIN AR TRES W  DIS CAZ7
 LZ4  SZ E         423 47.75                  233.2 22.0      0        4.35  53 
 LZ4  SN IP        423 47.83                             157    0.1210 4.35  53 
 LZ4  SE IS        423 49.02                             157   -0.1210 4.35  53 
 LZ4  SZ  AML      423 49.24        14.5 0.32                          4.35  53 
                                                                                
