 2008 1031 0145 28.5 R  22.527 -99.432  0.0  RAL  3 0.4 2.3LRAL                1
 GAP=357        4.66     999.9   194.9999.9 -0.3165E+06 -0.6155E+06  0.5281E+07E
 ACTION:UPD 12-06-08 11:37 OP:RALL STATUS:               ID:20081031014528     I
 2008-10-31-0145-33S.PLUR1_009                                                 6
 STAT SP IPHASW D HRMM SECON CODA AMPLIT PERI AZIMU VELO AIN AR TRES W  DIS CAZ7
 LA4  SZ E         145 47.32                   12.0  8.5     18         116 174 
 LA4  SN IP        145 47.43                              63    0.0010  116 174 
 LA4  SE IS        145 59.84                              63   -1.4110  116 174 
 LA4  SZ  AML      146  8.00        99.9 0.32                           116 174 
 LZ4  SZ E         145 49.88                  337.5  9.0    -14         134 173 
 LZ4  SN IP        145 50.03                              63   -0.0710  134 173 
 LZ4  SE IS        146  5.86                              63   -0.0210  134 173 
 LZ4  SZ  AML      146 10.39       215.5 0.32                           134 173 
 LD5  SZ E         145 52.45                  348.3  8.8     -6         149 176 
 LD5  SN IP        145 52.55                              63    0.0610  149 176 
 LD5  SE IS        146 11.46                              63    1.4510  149 176 
 LD5  SZ  AML      146 12.40        25.8 0.42                           149 176 
                                                                                
