 2008 1031 0152 30.8 R  22.534 -99.519 10.0  RAL  1 0.0 1.7LRAL                1
 GAP=360        0.30       4.7     3.8  0.0 -0.2007E+01 -0.6155E+06  0.5281E+07E
 ACTION:UPD 12-06-08 11:37 OP:RALL STATUS:               ID:20081031015230     I
 2008-10-31-0152-40S.PLUR1_003                                                 6
 STAT SP IPHASW D HRMM SECON CODA AMPLIT PERI AZIMU VELO AIN AR TRES W  DIS CAZ7
 LZ4  SZ E         152 52.07                  349.1 12.5      0         136 169 
 LZ4  SN IP        152 52.15                              52    0.0110  136 169 
 LZ4  SE IS        153  7.68                              52   -0.0110  136 169 
 LZ4  SZ  AML      153 12.48        21.8 0.28                           136 169 
                                                                                
