 2008 1031 0021 23.3 L  22.065 -99.541 10.0  RAL  1 0.0 1.2LRAL                1
 GAP=360        0.30       3.5     2.3  0.0 -0.3757E+01 -0.1738E+02 -0.6511E+02E
 ACTION:UPD 12-06-08 11:37 OP:RALL STATUS:               ID:20081031002123     I
 2008-10-31-0021-28S.PLUR1_003                                                 6
 STAT SP IPHASW D HRMM SECON CODA AMPLIT PERI AZIMU VELO AIN AR TRES W  DIS CAZ7
 LA4  SN IP        021 34.46                              95    0.0110 68.7 160 
 LA4  SZ E         021 34.48                  339.6 10.7      0        68.7 160 
 LA4  SE IS        021 42.61                              95   -0.0110 68.7 160 
 LA4  SZ  AML      021 43.65        12.5 0.28                          68.7 160 
                                                                                
