 2008 1031 0805  6.3 L  21.332 -99.280 10.0  RAL  1 0.1 0.4LRAL                1
 GAP=360        0.48     999.9   330.6  0.0  0.1342E+07  0.3481E+02 -0.1665E+02E
 ACTION:UPD 12-06-08 11:37 OP:RALL STATUS:               ID:20081031080506     I
 2008-10-31-0804-54S.PLUR1_003                                                 6
 STAT SP IPHASW D HRMM SECON CODA AMPLIT PERI AZIMU VELO AIN AR TRES W  DIS CAZ7
 LZ4  SZ E         8 5  8.38                  274.9 11.5      0        1.07  95 
 LZ4  SN IP        8 5  8.38                             174    0.2610 1.07  95 
 LZ4  SE IS        8 5  9.21                             174   -0.2610 1.07  95 
 LZ4  SZ  AML      8 5 10.00        13.4 0.68                          1.07  95 
                                                                                
