 2008 1031 1041 51.3 L  21.286 -99.297 10.0  RAL  1 0.0 0.5LRAL                1
 GAP=360        0.30       6.7     4.0  0.0  0.2710E+02  0.3481E+02 -0.1665E+02E
 ACTION:UPD 12-06-08 11:37 OP:RALL STATUS:               ID:20081031104151     I
 2008-10-31-1041-40S.PLUR1_003                                                 6
 STAT SP IPHASW D HRMM SECON CODA AMPLIT PERI AZIMU VELO AIN AR TRES W  DIS CAZ7
 LZ4  SZ E        1041 53.13                  209.3 38.8      0        5.74  29 
 LZ4  SN IP       1041 53.38                             151    0.0410 5.74  29 
 LZ4  SE IS       1041 54.80                             151   -0.0410 5.74  29 
 LZ4  SZ  AML     1041 56.74        15.1 0.56                          5.74  29 
                                                                                
