 2008 1031 1951  9.0 L  21.274 -99.261 14.9  RAL  2 0.3 0.1LRAL                1
 GAP=220        1.47       2.4     0.8 14.7 -0.4998E-01 -0.4369E-01  0.2905E+01E
 ACTION:UPD 12-06-08 11:37 OP:RALL STATUS:               ID:20081031195109     I
 2008-10-31-1950-59S.PLUR1_006                                                 6
 STAT SP IPHASW D HRMM SECON CODA AMPLIT PERI AZIMU VELO AIN AR TRES W  DIS CAZ7
 LZ4  SZ E        1951 12.09                  171.1 11.6      0        6.36 352 
 LZ4  SN IP       1951 12.14                             157    0.3810 6.36 352 
 LZ4  SZ  AML     1951 13.80        11.9 0.36                          6.36 352 
 LZ4  SE IS       1951 14.48                             157    0.6910 6.36 352 
 LD5  SZ E        1951 12.17                   30.4  9.1     -1        11.4 212 
 LD5  SN IP       1951 12.18                             142    0.0210 11.4 212 
 LD5  SE IS       1951 13.39                             142   -1.0910 11.4 212 
 LD5  SZ  AML     1951 14.04         1.6 0.14                          11.4 212 
                                                                                
