 2008 1031 1941 43.4 L  21.566 -99.355 10.0  RAL  1 0.0 0.5LRAL                1
 GAP=360        0.30       3.7     1.5  0.0 -0.4695E+01  0.3481E+02 -0.1665E+02E
 ACTION:UPD 12-06-08 11:37 OP:RALL STATUS:               ID:20081031194143     I
 2008-10-31-1941-39S.PLUR1_003                                                 6
 STAT SP IPHASW D HRMM SECON CODA AMPLIT PERI AZIMU VELO AIN AR TRES W  DIS CAZ7
 LZ4  SN IP       1941 48.29                             106    0.0210 27.5 161 
 LZ4  SZ E        1941 48.43                  341.3 26.1      0        27.5 161 
 LZ4  SE IS       1941 51.81                             106   -0.0210 27.5 161 
 LZ4  SZ  AML     1941 52.86         6.3 0.52                          27.5 161 
                                                                                
