 2008 1031 2305 46.4 L  21.495 -99.779 10.0  RAL  1 0.0 0.8LRAL                1
 GAP=360        0.30       1.8     3.8  0.0 -0.3881E+01  0.3278E+00 -0.5576E+00E
 ACTION:UPD 12-06-08 11:37 OP:RALL STATUS:               ID:20081031230546     I
 2008-10-31-2305-48S.PLUR1_003                                                 6
 STAT SP IPHASW D HRMM SECON CODA AMPLIT PERI AZIMU VELO AIN AR TRES W  DIS CAZ7
 LZ4  SZ E        23 5 55.61                  289.1  7.1      0        55.9 109 
 LZ4  SN IP       23 5 55.66                              96    0.0110 55.9 109 
 LZ4  SE IS       23 6  2.36                              96   -0.0110 55.9 109 
 LZ4  SZ  AML     23 6  2.72         7.0 0.24                          55.9 109 
                                                                                
