 2008 1031 2156 46.8 L  21.755 -99.389  0.0  RAL  2 0.1 1.1LRAL                1
 GAP=359        1.17       9.2     3.9  9.4 -0.2264E+02  0.3278E+00 -0.5576E+00E
 ACTION:UPD 12-06-08 11:37 OP:RALL STATUS:               ID:20081031215646     I
 2008-10-31-2156-41S.PLUR1_006                                                 6
 STAT SP IPHASW D HRMM SECON CODA AMPLIT PERI AZIMU VELO AIN AR TRES W  DIS CAZ7
 LA4  SZ E        2156 51.95                  347.4  7.8      3        31.1 165 
 LA4  SN IP       2156 51.96                              92   -0.3010 31.1 165 
 LA4  SE IS       2156 56.23                              92   -0.0110 31.1 165 
 LA4  SZ  AML     2156 56.42        34.5 0.36                          31.1 165 
 LZ4  SZ E        2156 55.48                  340.9  9.1     -3        48.5 165 
 LZ4  SN IP       2156 55.51                              63    0.2710 48.5 165 
 LZ4  SE IS       2157  1.43                              63    0.0410 48.5 165 
 LZ4  SZ  AML     2157  4.08         9.3 0.80                          48.5 165 
                                                                                
