 2008 1031 2250 48.7 L  21.573 -99.322 10.0  RAL  1 0.0 0.4LRAL                1
 GAP=360        0.30       5.2     0.8  0.0 -0.3924E+01  0.3278E+00 -0.5576E+00E
 ACTION:UPD 12-06-08 11:37 OP:RALL STATUS:               ID:20081031225048     I
 2008-10-31-2250-39S.PLUR1_003                                                 6
 STAT SP IPHASW D HRMM SECON CODA AMPLIT PERI AZIMU VELO AIN AR TRES W  DIS CAZ7
 LA4  SZ E        2250 51.14                  352.2  8.7      0        9.97 172 
 LA4  SN IP       2250 51.15                             135    0.0010 9.97 172 
 LA4  SE IS       2250 52.95                             135    0.0010 9.97 172 
 LA4  SZ  AML     2250 53.30        11.1 0.28                          9.97 172 
                                                                                
