 2010  2 4 0228 22.4 L  21.359 -99.277 10.0  RAL  1 0.0-0.1LRAL                1
 GAP=360        0.30       3.8     1.4  0.0 -0.4570E+01 -0.1776E+06 -0.5550E+06E
 ACTION:UPD 12-06-08 11:37 OP:RALL STATUS:               ID:20100204022822     I
 2010-02-04-0228-20S.PLUR1_003                                                 6
 STAT SP IPHASW D HRMM SECON CODA AMPLIT PERI AZIMU VELO AIN AR TRES W  DIS CAZ7
 LO8  SZ E         228 26.66                  343.2  8.9      0        23.0 163 
 LO8  SN IP        228 26.69                             110    0.0210 23.0 163 
 LO8  SE IS        228 29.74                             110   -0.0210 23.0 163 
 LO8  SZ  AML      228 29.99         1.7 0.28                          23.0 163 
                                                                                
