 2010  2 6 0458 36.4 L  21.421 -99.311 10.0  RAL  2 1.8 1.1LRAL                1
 GAP=201       31.22     153.6    20.9381.0  0.2062E+03  0.2646E+03  0.4761E+05E
 ACTION:UPD 12-06-08 11:37 OP:RALL STATUS:               ID:20100206045836     I
 2010-02-06-0458-29S.PLUR1_006                                                 6
 STAT SP IPHASW D HRMM SECON CODA AMPLIT PERI AZIMU VELO AIN AR TRES W  DIS CAZ7
 LA4  SZ E         458 38.33                  203.9  8.4     23        6.98   1 
 LA4  SN IP        458 38.59                             146    0.0310 6.98   1 
 LA4  SE IS        458 41.37                             146    1.2210 6.98   1 
 LA4  SZ  AML      458 44.06       116.1 0.48                          6.98   1 
 LO8  SN IP        458 40.50                             104   -1.2510 30.6 161 
 LO8  SZ E         458 40.53                  131.7  7.2    151        30.6 161 
 LO8  SE IS        458 45.68                             104    0.0110 30.6 161 
 LO8  SZ  AML      458 46.55        10.4 0.34                          30.6 161 
                                                                                
