 2010  2 7 1346  9.5 L  21.359 -99.064  5.1  RAL  2 1.6 1.5LRAL                1
 GAP=277       25.63      51.0    69.7447.5  0.6606E+03  0.6571E+04  0.1721E+04E
 ACTION:UPD 12-06-08 11:37 OP:RALL STATUS:               ID:20100207134609     I
 2010-02-07-1346-03S.PLUR1_006                                                 6
 STAT SP IPHASW D HRMM SECON CODA AMPLIT PERI AZIMU VELO AIN AR TRES W  DIS CAZ7
 LO8  SZ E        1346 14.78                  138.2  7.2    103        27.0 215 
 LO8  SN IP       1346 14.84                              63    0.9410 27.0 215 
 LO8  SE IS       1346 19.73                              63    2.6510 27.0 215 
 LO8  SZ  AML     1346 20.69        23.3 0.40                          27.0 215 
 LA4  SN IP       1346 12.57                              63   -1.6210 28.9 299 
 LA4  SZ E        1346 12.58                  187.4 12.4     69        28.9 299 
 LA4  SE IS       1346 15.60                              63   -1.9710 28.9 299 
 LA4  SZ  AML     1346 18.39       212.8 0.36                          28.9 299 
                                                                                
