 2010  210 1337 37.7 L  21.669 -99.362 10.0  RAL  1 0.0 2.0LRAL                1
 GAP=360        0.30       3.9     1.3  0.0 -0.4218E+01  0.6571E+04  0.1721E+04E
 ACTION:UPD 12-06-08 11:37 OP:RALL STATUS:               ID:20100210133737     I
 2010-02-10-1337-31S.PLUR1_003                                                 6
 STAT SP IPHASW D HRMM SECON CODA AMPLIT PERI AZIMU VELO AIN AR TRES W  DIS CAZ7
 LA4  SN IP       1337 41.66                             112    0.0210 21.3 165 
 LA4  SZ E        1337 41.69                  345.1  9.9      0        21.3 165 
 LA4  SZ  AML     1337 44.41       224.7 0.28                          21.3 165 
 LA4  SE IS       1337 44.51                             112   -0.0210 21.3 165 
                                                                                
