 2010  210 1211 30.2 L  21.664 -99.369 10.0  RAL  1 0.0 1.4LRAL                1
 GAP=360        0.30       3.8     1.4  0.0 -0.4839E+01  0.6571E+04  0.1721E+04E
 ACTION:UPD 12-06-08 11:37 OP:RALL STATUS:               ID:20100210121130     I
 2010-02-10-1211-25S.PLUR1_003                                                 6
 STAT SP IPHASW D HRMM SECON CODA AMPLIT PERI AZIMU VELO AIN AR TRES W  DIS CAZ7
 LA4  SN IP       1211 34.16                             112    0.0210 20.9 163 
 LA4  SZ E        1211 34.17                  342.8 10.2      0        20.9 163 
 LA4  SE IS       1211 36.97                             112   -0.0210 20.9 163 
 LA4  SZ  AML     1211 37.01        68.1 0.24                          20.9 163 
                                                                                
