 2010  212 1705 13.0 L  21.145 -99.104 10.0  RAL  1 0.0-0.1LRAL                1
 GAP=360        0.30       0.8     5.2  0.0 -0.3642E+01  0.6571E+04  0.1721E+04E
 ACTION:UPD 12-06-08 11:37 OP:RALL STATUS:               ID:20100212170513     I
 2010-02-12-1705-07S.PLUR1_003                                                 6
 STAT SP IPHASW D HRMM SECON CODA AMPLIT PERI AZIMU VELO AIN AR TRES W  DIS CAZ7
 LO8  SZ E        17 5 15.71                   98.2  7.6      0        11.4 278 
 LO8  SN IP       17 5 15.73                             131    0.0010 11.4 278 
 LO8  SE IS       17 5 17.68                             131    0.0010 11.4 278 
 LO8  SZ  AML     17 5 18.01         3.3 0.12                          11.4 278 
                                                                                
