 2010  212 1334  8.7 L  21.656 -99.643 10.0  RAL  1 0.0 1.7LRAL                1
 GAP=360        0.30       2.0     3.6  0.0 -0.5952E+01  0.6571E+04  0.1721E+04E
 ACTION:UPD 12-06-08 11:37 OP:RALL STATUS:               ID:20100212133408     I
 2010-02-12-1334-06S.PLUR1_006                                                 6
 STAT SP IPHASW D HRMM SECON CODA AMPLIT PERI AZIMU VELO AIN AR TRES W  DIS CAZ7
 LA4  SN IP       1334 15.44                             100    0.0210 39.5 119 
 LA4  SZ E        1334 15.78                  298.9 11.9      0        39.5 119 
 LA4  SE IS       1334 20.30                             100   -0.0210 39.5 119 
 LA4  SZ  AML     1334 20.56        66.8 0.28                          39.5 119 
                                                                                
