 2010  214 0909 14.2 L  20.646 -98.808 10.0  RAL  1 0.0 1.1LRAL                1
 GAP=360        0.30       3.2     2.8  0.0 -0.5329E+01  0.6571E+04  0.1721E+04E
 ACTION:UPD 12-06-08 11:37 OP:RALL STATUS:               ID:20100214090914     I
 2010-02-14-0909-18S.PLUR1_003                                                 6
 STAT SP IPHASW D HRMM SECON CODA AMPLIT PERI AZIMU VELO AIN AR TRES W  DIS CAZ7
 LO8  SZ E         9 9 25.70                  143.4  6.8      0        70.8 324 
 LO8  SN IP        9 9 25.76                              95    0.0110 70.8 324 
 LO8  SE IS        9 9 34.16                              95   -0.0110 70.8 324 
 LO8  SZ  AML      9 9 39.62        10.7 0.38                          70.8 324 
                                                                                
