 2010  214 0313 34.4 L  21.642 -99.286 10.0  RAL  1 0.0 1.8LRAL                1
 GAP=360        0.30       4.1     0.8  0.0  0.2493E+01  0.6571E+04  0.1721E+04E
 ACTION:UPD 12-06-08 11:37 OP:RALL STATUS:               ID:20100214031334     I
 2010-02-14-0313-28S.PLUR1_003                                                 6
 STAT SP IPHASW D HRMM SECON CODA AMPLIT PERI AZIMU VELO AIN AR TRES W  DIS CAZ7
 LA4  SN IP        313 37.83                             117    0.0210 17.7 188 
 LA4  SZ E         313 37.86                    7.8  8.5      0        17.7 188 
 LA4  SE IS        313 40.31                             117   -0.0210 17.7 188 
 LA4  SZ  AML      313 41.61       185.0 0.28                          17.7 188 
                                                                                
