 2010  225 1934 18.2 L  21.187 -99.177 10.0  RAL  1 0.0 1.0LRAL                1
 GAP=360        0.31       5.8     7.8  0.0  0.4568E+02  0.6571E+04  0.1721E+04E
 ACTION:UPD 12-06-08 11:37 OP:RALL STATUS:               ID:20100225193418     I
 2010-02-25-1934-10S.PLUR1_003                                                 6
 STAT SP IPHASW D HRMM SECON CODA AMPLIT PERI AZIMU VELO AIN AR TRES W  DIS CAZ7
 LO8  SZ E        1934 20.26                   51.4  9.3      0        4.85 231 
 LO8  SN IP       1934 20.28                             155    0.0710 4.85 231 
 LO8  SE IS       1934 21.64                             155   -0.0710 4.85 231 
 LO8  SZ  AML     1934 21.70        56.8 0.10                          4.85 231 
                                                                                
