 2007 12 4 0812 20.2 L  21.460 -99.454 10.0  RAL  2 1.1 0.2LRAL                1
 GAP=323       12.75      84.5    51.1115.3 -0.2570E+04 -0.3399E+04  0.7457E+04E
 ACTION:UPD 12-06-08 11:37 OP:RALL STATUS:               ID:20071204081220     I
 2007-12-04-0812-15S.PLUR1_006                                                 6
 STAT SP IPHASW D HRMM SECON CODA AMPLIT PERI AZIMU VELO AIN AR TRES W  DIS CAZ7
 LD3  SN IP        812 24.17                             177    2.0910 0.06 193 
 LD3  SZ E         812 24.19                  319.0 15.8     54        0.06 193 
 LD3  SE IS        812 25.40                             177    1.9610 0.06 193 
 LD3  SZ  AML      812 26.20        10.3 0.26                          0.06 193 
 LD5  SZ E         812 25.03                  358.3 20.6     23        33.3 155 
 LD5  SN IP        812 25.04                             105   -0.9310 33.3 155 
 LD5  SE IS        812 27.04                             105   -3.1210 33.3 155 
 LD5  SZ  AML      812 27.89         2.6 0.44                          33.3 155 
                                                                                
