 2007 12 5 1807 19.1 L  21.460 -99.457 28.5  RAL  2 0.7 0.6LRAL                1
 GAP=311        4.24      26.5    17.8 41.0 -0.2771E+03 -0.2569E+03  0.5155E+03E
 ACTION:UPD 12-06-08 11:37 OP:RALL STATUS:               ID:20071205180719     I
 2007-12-05-1807-16S.PLUR1_006                                                 6
 STAT SP IPHASW D HRMM SECON CODA AMPLIT PERI AZIMU VELO AIN AR TRES W  DIS CAZ7
 LD3  SN IP       18 7 26.01                             179    2.2210 0.30 106 
 LD3  SZ E        18 7 26.06                  295.9 21.7     10        0.30 106 
 LD3  SE IS       18 7 27.40                             179    0.2210 0.30 106 
 LD3  SZ  AML     18 7 27.74        13.1 0.20                          0.30 106 
 LD5  SN IP       18 7 26.38                             127    0.2710 33.4 155 
 LD5  SZ E        18 7 26.42                  339.7 10.0      5        33.4 155 
 LD5  SE IS       18 7 28.48                             127   -2.7110 33.4 155 
 LD5  SZ  AML     18 7 28.90         3.3 0.64                          33.4 155 
                                                                                
