 2007 12 6 0131  8.7 L  21.479 -99.486 10.0  RAL  1 0.0 0.4LRAL                1
 GAP=360        0.35       6.8    10.8  0.0 -0.7351E+02 -0.2569E+03  0.5155E+03E
 ACTION:UPD 12-06-08 11:37 OP:RALL STATUS:               ID:20071206013108     I
 2007-12-06-0131-01S.PLUR1_006                                                 6
 STAT SP IPHASW D HRMM SECON CODA AMPLIT PERI AZIMU VELO AIN AR TRES W  DIS CAZ7
 LD3  SN IP        131 10.84                             159    0.1210 3.97 124 
 LD3  SZ E         131 10.85                  304.1 18.3      0        3.97 124 
 LD3  SE IS        131 12.03                             159   -0.1210 3.97 124 
 LD3  SZ  AML      131 12.13        14.0 0.10                          3.97 124 
                                                                                
