 2007 12 8 0630 17.5 L  21.184 -99.316 13.7  RAL  2 0.8 0.2LRAL                1
 GAP=327        8.92      10.4    25.8 56.1  0.2522E+03  0.2709E+02 -0.1749E+00E
 ACTION:UPD 12-06-08 11:37 OP:RALL STATUS:               ID:20071208063017     I
 2007-12-08-0630-12S.PLUR1_006                                                 6
 STAT SP IPHASW D HRMM SECON CODA AMPLIT PERI AZIMU VELO AIN AR TRES W  DIS CAZ7
 LD5  SZ E         630 21.74                   99.1 10.4    -22        0.53 302 
 LD5  SN IP        630 21.90                             179    1.9610 0.53 302 
 LD5  SE IS        630 22.82                             179    1.1210 0.53 302 
 LD5  SZ  AML      630 22.89         4.1 0.14                          0.53 302 
 LD3  SZ E         630 23.04                  187.8 10.3     33        33.7 335 
 LD3  SN IP        630 23.07                             111   -0.4310 33.7 335 
 LD3  SE IS        630 25.21                             111   -2.6510 33.7 335 
 LD3  SZ  AML      630 25.36         4.5 0.30                          33.7 335 
                                                                                
