 2007 12 9 0515 36.7 L  20.968 -99.255  0.0  RAL  2 0.8 0.3LRAL                1
 GAP=351       10.84     163.1    67.0999.9 -0.1048E+05 -0.2234E+06  0.5602E+06E
 ACTION:UPD 12-06-08 11:37 OP:RALL STATUS:               ID:20071209051536     I
 2007-12-09-0515-32S.PLUR1_006                                                 6
 STAT SP IPHASW D HRMM SECON CODA AMPLIT PERI AZIMU VELO AIN AR TRES W  DIS CAZ7
 LD2  SZ E         515 42.40                  200.2  8.5     45        24.1 336 
 LD2  SN IP        515 42.61                              93    1.6710 24.1 336 
 LD2  SE IS        515 43.34                              93   -0.6810 24.1 336 
 LD2  SZ  AML      515 43.71         4.0 0.24                          24.1 336 
 LD5  SZ E         515 42.03                  139.2 19.7    -24        25.2 344 
 LD5  SN IP        515 42.05                              92    0.9210 25.2 344 
 LD5  SE IS        515 42.44                              92   -1.9110 25.2 344 
 LD5  SZ  AML      515 42.53         6.0 0.18                          25.2 344 
                                                                                
