 2007 1210 0226 13.6 L  21.201 -99.283 17.0  RAL  3 0.9 0.9LRAL                1
 GAP=273       12.89      23.4    11.9999.9  0.2635E+02 -0.2532E+03 -0.1284E+05E
 ACTION:UPD 12-06-08 11:37 OP:RALL STATUS:               ID:20071210022613     I
 2007-12-10-0225-50S.PLUR1_009                                                 6
 STAT SP IPHASW D HRMM SECON CODA AMPLIT PERI AZIMU VELO AIN AR TRES W  DIS CAZ7
 LD5  SZ E         226 17.81                  102.9 16.0     35        4.15 247 
 LD5  SN IP        226 17.84                              95    1.2710 4.15 247 
 LD5  SE IS        226 18.28                              95   -0.4710 4.15 247 
 LD5  SZ  AML      226 18.37        45.9 0.32                          4.15 247 
 LD2  SZ E         226 18.34                   10.9 32.6    -49        7.99 241 
 LD2  SN IP        226 18.41                              94    1.6210 7.99 241 
 LD2  SE IS        226 19.37                              94    0.2410 7.99 241 
 LD2  SZ  AML      226 19.57        35.3 0.28                          7.99 241 
 LD3  SZ E         226 19.57                  187.1 13.4     39        33.6 328 
 LD3  SN IP        226 19.63                              93   -0.1110 33.6 328 
 LD3  SE IS        226 21.70                              93   -2.5410 33.6 328 
 LD3  SZ  AML      226 22.51         6.5 0.18                          33.6 328 
                                                                                
