 2007 1212 0440  3.4 L  21.187 -99.319 11.3  RAL  3 0.9 1.4LRAL                1
 GAP=259       13.54      12.7    34.8 77.9  0.4317E+03 -0.3189E+02 -0.1588E+02E
 ACTION:UPD 12-06-08 11:37 OP:RALL STATUS:               ID:20071212044003     I
 2007-12-12-0439-56S.PLUR1_009                                                 6
 STAT SP IPHASW D HRMM SECON CODA AMPLIT PERI AZIMU VELO AIN AR TRES W  DIS CAZ7
 LD5  SZ E         440  6.57                  119.0 15.2     37        0.09 262 
 LD5  SN IP        440  6.61                             175    1.1810 0.09 262 
 LD5  SZ  AML      440  6.99       151.0 0.28                          0.09 262 
 LD5  SE IS        440  7.03                             175    0.1110 0.09 262 
 LD2  SZ E         440  7.08                    0.2 21.3    -53        3.98 235 
 LD2  SN IP        440  7.16                             173    1.6010 3.98 235 
 LD2  SE IS        440  8.05                             173    0.9110 3.98 235 
 LD2  SZ  AML      440  8.34       150.1 0.28                          3.98 235 
 LD3  SN IP        440  8.38                             118   -0.8110 33.3 335 
 LD3  SZ E         440  8.38                  192.7 11.6     38        33.3 335 
 LD3  SE IS        440 10.44                             118   -2.9910 33.3 335 
 LD3  SZ  AML      440 10.73        21.7 0.40                          33.3 335 
                                                                                
