 2007 1212 1854  7.5 L  21.192 -99.310 25.3  RAL  3 0.9 1.0LRAL                1
 GAP=262       12.83      15.0    28.5 85.2  0.4075E+03 -0.1762E+03 -0.1042E+03E
 ACTION:UPD 12-06-08 11:37 OP:RALL STATUS:               ID:20071212185407     I
 2007-12-12-1854-03S.PLUR1_009                                                 6
 STAT SP IPHASW D HRMM SECON CODA AMPLIT PERI AZIMU VELO AIN AR TRES W  DIS CAZ7
 LD5  SZ E        1854 13.04                   83.8  8.1     23        1.19 241 
 LD5  SN IP       1854 13.07                             177    1.4210 1.19 241 
 LD5  SE IS       1854 14.00                             177   -0.6910 1.19 241 
 LD5  SZ  AML     1854 14.09        16.2 0.26                          1.19 241 
 LD2  SZ E        1854 13.65                    3.4 17.1    -51        5.08 236 
 LD2  SN IP       1854 13.73                             168    1.9810 5.08 236 
 LD2  SE IS       1854 15.36                             168    0.5010 5.08 236 
 LD2  SZ  AML     1854 15.69        19.9 0.28                          5.08 236 
 LD3  SN IP       1854 14.07                             124   -0.1110 33.2 333 
 LD3  SZ E        1854 14.08                  196.1 14.0     43        33.2 333 
 LD3  SE IS       1854 15.96                             124   -3.1010 33.2 333 
 LD3  SZ  AML     1854 16.10        20.0 0.28                          33.2 333 
                                                                                
