 2007 1212 2206 54.3 L  21.180 -99.320 10.0  RAL  2 0.3 0.2LRAL                1
 GAP=244        4.98       2.9     5.0 44.9  0.1109E+02 -0.1940E+01 -0.8621E+00E
 ACTION:UPD 12-06-08 11:37 OP:RALL STATUS:               ID:20071212220654     I
 2007-12-12-2206-47S.PLUR1_006                                                 6
 STAT SP IPHASW D HRMM SECON CODA AMPLIT PERI AZIMU VELO AIN AR TRES W  DIS CAZ7
 LD5  SZ E        22 6 56.50                  165.0 17.9    -13        0.67 359 
 LD5  SN IP       22 6 56.50                             176    0.4110 0.67 359 
 LD5  SE IS       22 6 57.13                             176   -0.3010 0.67 359 
 LD5  SZ  AML     22 6 57.44         5.3 0.20                          0.67 359 
 LD2  SZ E        22 6 56.38                   43.2 27.4    -19        3.55 243 
 LD2  SN IP       22 6 56.47                             161    0.2710 3.55 243 
 LD2  SE IS       22 6 57.23                             161   -0.3910 3.55 243 
 LD2  SZ  AML     22 6 57.37        12.2 0.16                          3.55 243 
                                                                                
