 2007 1213 1452 35.2 L  21.175 -99.301 10.0  RAL  1 0.2 0.9LRAL                1
 GAP=360        0.77      22.7    38.5  0.0 -0.8733E+03 -0.1940E+01 -0.8621E+00E
 ACTION:UPD 12-06-08 11:37 OP:RALL STATUS:               ID:20071213145235     I
 2007-12-13-1452-02S.PLUR1_009                                                 6
 STAT SP IPHASW D HRMM SECON CODA AMPLIT PERI AZIMU VELO AIN AR TRES W  DIS CAZ7
 LD5  SZ E        1452 37.51                  122.3 14.7      0        2.39 302 
 LD5  SN IP       1452 37.59                             167    0.4810 2.39 302 
 LD5  SE IS     D 1452 38.00                             167   -0.4810 2.39 302 
 LD5  SZ  AML     1452 38.08        43.9 0.26                          2.39 302 
                                                                                
