 2007 1214 0915 57.2 L  20.963 -99.398  8.1  RAL  2 1.0-0.1LRAL                1
 GAP=354       16.17     299.6    88.0999.9  0.2509E+05  0.9977E+05  0.3550E+06E
 ACTION:UPD 12-06-08 11:37 OP:RALL STATUS:               ID:20071214091557     I
 2007-12-14-0915-52S.PLUR1_006                                                 6
 STAT SP IPHASW D HRMM SECON CODA AMPLIT PERI AZIMU VELO AIN AR TRES W  DIS CAZ7
 LD2  SN IP        916  2.98                             104    1.6910 23.0  12 
 LD2  SZ E         916  3.04                  232.0 24.4     40        23.0  12 
 LD2  SE IS     D  916  4.08                             104   -0.2210 23.0  12 
 LD2  SZ  AML      916  4.10         1.3 0.20                          23.0  12 
 LD5  SN IP        916  2.44                             102    0.7010 26.0  18 
 LD5  SZ E         916  2.46                  131.0 13.7    -66        26.0  18 
 LD5  SE IS        916  2.90                             102   -2.1810 26.0  18 
 LD5  SZ  AML      916  2.96         2.1 0.24                          26.0  18 
                                                                                
