 2007 1219 0630 36.4 L  21.473-100.093  6.6  RAL  3 1.4 0.9LRAL                1
 GAP=337       23.74      96.3   311.1999.9 -0.1115E+05  0.2861E+07 -0.3009E+06E
 ACTION:UPD 12-06-08 11:37 OP:RALL STATUS:               ID:20071219063036     I
 2007-12-19-0630-45S.PLUR1_009                                                 6
 STAT SP IPHASW D HRMM SECON CODA AMPLIT PERI AZIMU VELO AIN AR TRES W  DIS CAZ7
 LD3  SZ E         630 49.25                  304.9 15.1     34        66.3  91 
 LD3  SN IP        630 49.68                              92    2.4910 66.3  91 
 LD3  SE IS        630 54.57                              92   -0.5010 66.3  91 
 LD3  SZ  AML      630 56.00         6.7 0.22                          66.3  91 
 LD2  SN IP        630 50.96                              91    0.9910 84.2 114 
 LD2  SZ E         630 53.51                  183.8  9.4    -99        84.2 114 
 LD2  SE IS        630 58.72                              91   -1.1610 84.2 114 
 LD2  SZ  AML      631  1.56         5.6 0.24                          84.2 114 
 LD5  SN IP        630 50.81                              91    0.5310 86.2 111 
 LD5  SZ E         630 50.92                    3.8 12.8     72        86.2 111 
 LD5  SE IS        630 58.06                              91   -2.3510 86.2 111 
 LD5  SZ  AML      630 59.19         5.8 0.46                          86.2 111 
                                                                                
