 2007 1219 1518 53.3 L  21.185 -99.317  3.9  RAL  2 0.4-0.2LRAL                1
 GAP=299        8.01       3.2     4.1 63.8  0.2528E+01  0.2382E+01  0.1954E+01E
 ACTION:UPD 12-06-08 11:37 OP:RALL STATUS:               ID:20071219151853     I
 2007-12-19-1518-44S.PLUR1_006                                                 6
 STAT SP IPHASW D HRMM SECON CODA AMPLIT PERI AZIMU VELO AIN AR TRES W  DIS CAZ7
 LD5  SZ E        1518 54.10                  150.5 17.3     32        0.32 299 
 LD5  SN IP       1518 54.13                             176   -0.0510 0.32 299 
 LD5  SE IS     D 1518 54.59                             176   -0.2210 0.32 299 
 LD5  SZ  AML     1518 54.88         7.6 0.18                          0.32 299 
 LD2  SZ E        1518 54.52                   35.4 26.4    -22        4.04 238 
 LD2  SN IP       1518 54.58                             142    0.1310 4.04 238 
 LD2  SE IS       1518 55.42                             142    0.1410 4.04 238 
 LD2  SZ  AML     1518 56.76         5.5 0.20                          4.04 238 
                                                                                
