 2007 1219 1922 34.9 L  21.160 -99.352 16.3  RAL  2 0.2 0.1LRAL                1
 GAP=325        2.30       2.1     2.5 20.6  0.4275E+01  0.8215E+00  0.6907E+00E
 ACTION:UPD 12-06-08 11:37 OP:RALL STATUS:               ID:20071219192234     I
 2007-12-19-1922-27S.PLUR1_009                                                 6
 STAT SP IPHASW D HRMM SECON CODA AMPLIT PERI AZIMU VELO AIN AR TRES W  DIS CAZ7
 LD2  SZ E        1922 37.34                  185.6 13.4     -7        0.63  13 
 LD2  SN IP       1922 37.43                             178   -0.3010 0.63  13 
 LD2  SE IS       1922 39.58                             178   -0.2210 0.63  13 
 LD2  SZ  AML     1922 40.08        10.6 0.40                          0.63  13 
 LD5  SZ E        1922 37.60                  235.7 20.2      7        4.39  49 
 LD5  SN IP       1922 37.71                             165   -0.0910 4.39  49 
 LD5  SE IS       1922 40.52                             165    0.6110 4.39  49 
 LD5  SZ  AML     1922 40.87         2.1 0.18                          4.39  49 
                                                                                
