 2007 1222 0307 35.3 L  21.045 -99.377 10.0  RAL  1 0.4 0.3LRAL                1
 GAP=360        5.90      76.3    17.5  0.0  0.1268E+04 -0.1890E+03 -0.3198E+03E
 ACTION:UPD 12-06-08 11:37 OP:RALL STATUS:               ID:20071222030735     I
 2007-12-22-0307-31S.PLUR1_009                                                 6
 STAT SP IPHASW D HRMM SECON CODA AMPLIT PERI AZIMU VELO AIN AR TRES W  DIS CAZ7
 LD2  SZ E         3 7 38.14                  168.5 24.3    -22        13.6  12 
 LD2  SZ EP        3 7 38.15                  214.6 14.7 125 23-0.0610 13.6  12 
 LD2  SN IP        3 7 38.27                             125    0.0610 13.6  12 
 LD2  SE IS        3 7 40.34                             125    0.0010 13.6  12 
 LD2  SZ  AML      3 7 41.10         6.3 0.24                          13.6  12 
                                                                                
