 2007 1222 1326 58.0 L  21.611 -99.769 42.9  RAL  3 1.3 1.9LRAL                1
 GAP=339       21.01     112.4   170.7285.5 -0.1584E+05  0.1523E+05 -0.7726E+04E
 ACTION:UPD 12-06-08 11:37 OP:RALL STATUS:               ID:20071222132658     I
 2007-12-22-1326-58S.PLUR1_009                                                 6
 STAT SP IPHASW D HRMM SECON CODA AMPLIT PERI AZIMU VELO AIN AR TRES W  DIS CAZ7
 LD3  SZ E        1327  8.17                  309.3 13.9     12        36.7 117 
 LD3  SN IP       1327  8.28                             131    1.9210 36.7 117 
 LD3  SE IS       1327 13.19                             131    0.7410 36.7 117 
 LD3  SZ  AML     1327 14.49        86.9 0.28                          36.7 117 
 LD2  SZ E        1327 10.26                  226.8 99.9    -91        65.7 139 
 LD2  SN IP       1327 10.36                             111    0.9810 65.7 139 
 LD2  SE IS       1327 15.92                             111   -1.7510 65.7 139 
 LD2  SZ  AML     1327 20.36        55.4 0.44                          65.7 139 
 LD5  SZ E        1327  9.85                   31.5  9.5     76        66.2 135 
 LD5  SN IP       1327  9.87                             111    0.4610 66.2 135 
 LD5  SE IS       1327 15.38                             111   -2.3510 66.2 135 
 LD5  SZ  AML     1327 21.09        45.3 0.88                          66.2 135 
                                                                                
