 2007 1222 1304 57.0 L  21.476 -99.753  5.3  RAL  3 1.2 1.3LRAL                1
 GAP=324       20.13      49.9   124.1999.9 -0.2872E+04  0.4530E+06 -0.2526E+05E
 ACTION:UPD 12-06-08 11:37 OP:RALL STATUS:               ID:20071222130457     I
 2007-12-22-1304-54S.PLUR1_009                                                 6
 STAT SP IPHASW D HRMM SECON CODA AMPLIT PERI AZIMU VELO AIN AR TRES W  DIS CAZ7
 LD3  SN IP       13 5  3.84                              91    1.4910 31.1  93 
 LD3  SZ E        13 5  4.06                  317.0 13.6     44        31.1  93 
 LD3  SE IS       13 5  7.84                              91    1.6010 31.1  93 
 LD3  SZ  AML     13 5  9.68        57.9 0.34                          31.1  93 
 LD2  SZ E        13 5  5.89                  220.5 14.6    -88        54.1 129 
 LD2  SN IP       13 5  6.02                              90    0.0910 54.1 129 
 LD2  SE IS       13 5 12.13                              90   -0.2910 54.1 129 
 LD2  SZ  AML     13 5 14.90        19.2 0.24                          54.1 129 
 LD5  SN IP       13 5  5.54                              90   -0.5510 55.2 125 
 LD5  SZ E        13 5  5.55                    4.3 10.3     59        55.2 125 
 LD5  SE IS       13 5 10.36                              90   -2.3410 55.2 125 
 LD5  SZ  AML     13 5 16.66        19.2 0.88                          55.2 125 
                                                                                
