 2007 1227  422 25.7 L                       RAL  1                            1
 ACTION:UPD 12-06-08 11:37 OP:RALL STATUS:               ID:20071227042225     I
 2007-12-27-0422-25S.PLUR1_009                                                 6
 STAT SP IPHASW D HRMM SECON CODA AMPLIT PERI AZIMU VELO AIN AR TRES W  DIS CAZ7
 LD2  SZ E         422 30.44                  194.5  6.8                        
 LD2  SZ  AML      422 37.92         6.5 0.24                                   
                                                                                
