 2007 1230 0943 44.8 L  21.186 -99.311 10.0  RAL  1 0.2-0.6LRAL                1
 GAP=360        2.08     458.2   348.2  0.0  0.1595E+06  0.1523E+05 -0.7726E+04E
 ACTION:UPD 12-06-08 11:37 OP:RALL STATUS:               ID:20071230094344     I
 2007-12-30-0943-37S.PLUR1_003                                                 6
 STAT SP IPHASW D HRMM SECON CODA AMPLIT PERI AZIMU VELO AIN AR TRES W  DIS CAZ7
 LD5  SZ E         943 46.78                   84.0  7.1     -9        0.91 274 
 LD5  SN IP        943 46.81                             175    0.2110 0.91 274 
 LD5  SE IS        943 47.73                             175   -0.2110 0.91 274 
 LD5  SZ  AML      943 48.43         1.5 0.22                          0.91 274 
                                                                                
