 2007 1231 0956 53.0 L  20.656 -99.446 10.0  RAL  1 0.0 0.7LRAL                1
 GAP=360        0.30       3.7     1.7  0.0  0.2123E+01  0.1523E+05 -0.7726E+04E
 ACTION:UPD 12-06-08 11:37 OP:RALL STATUS:               ID:20071231095653     I
 2007-12-31-0957-00S.PLUR1_003                                                 6
 STAT SP IPHASW D HRMM SECON CODA AMPLIT PERI AZIMU VELO AIN AR TRES W  DIS CAZ7
 LD2  SN IP        957  2.45                              96    0.0110 57.3  10 
 LD2  SZ E         957  2.83                  190.0  7.4      0        57.3  10 
 LD2  SE IS        957  9.32                              96   -0.0110 57.3  10 
 LD2  SZ  AML      957 14.71         5.3 0.28                          57.3  10 
                                                                                
