 2007 12 6  131  1.6 L                       RAL                               1
 2007-12-06-0131-01S.PLUR1_006                                                 6
 STAT SP IPHASW D HRMM SECON CODA AMPLIT PERI AZIMU VELO AIN AR TRES W  DIS CAZ7
                                                                                
