 2010  313 0956 13.7 L  21.161 -99.202 10.0  RAL  1 0.1 0.2LRAL                1
 GAP=360        0.40     999.9   748.0  0.0 -0.3200E+07  0.6571E+04  0.1721E+04E
 ACTION:UPD 12-06-08 11:37 OP:RALL STATUS:               ID:20100313095613     I
 2010-03-13-0956-06S.PLUR1_003                                                 6
 STAT SP IPHASW D HRMM SECON CODA AMPLIT PERI AZIMU VELO AIN AR TRES W  DIS CAZ7
 LO8  SN IP        956 15.75                             174    0.1710 1.16 261 
 LO8  SZ E         956 15.77                   81.0  8.6      0        1.16 261 
 LO8  SE IS        956 16.79                             174   -0.1710 1.16 261 
 LO8  SZ  AML      956 16.92         9.0 0.20                          1.16 261 
                                                                                
