 2010  318 2015 39.0 L  21.523 -99.117 10.0  RAL  1 0.0 0.4LRAL                1
 GAP=360        0.30       3.6     1.5  0.0  0.3245E+01  0.6571E+04  0.1721E+04E
 ACTION:UPD 12-06-08 11:37 OP:RALL STATUS:               ID:20100318201539     I
 2010-03-18-2015-41S.PLUR1_003                                                 6
 STAT SP IPHASW D HRMM SECON CODA AMPLIT PERI AZIMU VELO AIN AR TRES W  DIS CAZ7
 LO8  SN IP       2015 46.05                              99    0.0110 41.4 194 
 LO8  SZ E        2015 46.07                   13.9  8.2      0        41.4 194 
 LO8  SE IS       2015 51.15                              99   -0.0110 41.4 194 
 LO8  SZ  AML     2015 51.53         3.8 0.14                          41.4 194 
                                                                                
