 2010  321 1116 44.0 L  20.506 -98.685 10.0  RAL  1 0.0 1.2LRAL                1
 GAP=360        0.30       3.3     3.1  0.0 -0.4223E+01  0.6571E+04  0.1721E+04E
 ACTION:UPD 12-06-08 11:37 OP:RALL STATUS:               ID:20100321111644     I
 2010-03-21-1116-52S.PLUR1_003                                                 6
 STAT SP IPHASW D HRMM SECON CODA AMPLIT PERI AZIMU VELO AIN AR TRES W  DIS CAZ7
 LO8  SZ E        1116 58.64                  142.7  6.3      0        90.8 323 
 LO8  SN IP       1116 58.65                              94    0.0110 90.8 323 
 LO8  SE IS       1117  9.32                              94   -0.0110 90.8 323 
 LO8  SZ  AML     1117 11.20         9.7 0.40                          90.8 323 
                                                                                
