 2010  321 1014 47.5 R  21.768 -99.733 10.0  RAL  1 0.0 1.7LRAL                1
 GAP=360        0.30       3.2     3.1  0.0 -0.4609E+01  0.6571E+04  0.1721E+04E
 ACTION:UPD 12-06-08 11:37 OP:RALL STATUS:               ID:20100321101447     I
 2010-03-21-1014-54S.PLUR1_003                                                 6
 STAT SP IPHASW D HRMM SECON CODA AMPLIT PERI AZIMU VELO AIN AR TRES W  DIS CAZ7
 LO8  SZ E        1015  1.32                  321.4 10.2      0        86.2 141 
 LO8  SN IP       1015  1.43                              94    0.0110 86.2 141 
 LO8  SE IS       1015 11.58                              94   -0.0110 86.2 141 
 LO8  SZ  AML     1015 12.02        36.1 0.56                          86.2 141 
                                                                                
