 2010  326 0123  3.9 L  21.882 -99.515 10.0  RAL  1 0.0 1.8LRAL                1
 GAP=360        0.30       3.5     2.7  0.0 -0.3224E+01  0.6571E+04  0.1721E+04E
 ACTION:UPD 12-06-08 11:37 OP:RALL STATUS:               ID:20100326012303     I
 2010-03-26-0123-10S.PLUR1_003                                                 6
 STAT SP IPHASW D HRMM SECON CODA AMPLIT PERI AZIMU VELO AIN AR TRES W  DIS CAZ7
 LO8  SN IP        123 17.80                              94    0.0110 85.9 159 
 LO8  SZ E         123 17.91                  338.7 10.6      0        85.9 159 
 LO8  SE IS        123 27.91                              94   -0.0110 85.9 159 
 LO8  SZ  AML      123 29.17        44.3 0.48                          85.9 159 
                                                                                
