 2010  326 1723 39.8 L  21.148 -99.152 10.0  RAL  1 0.0 0.5LRAL                1
 GAP=360        0.30       1.4     7.4  0.0 -0.1026E+02  0.6571E+04  0.1721E+04E
 ACTION:UPD 12-06-08 11:37 OP:RALL STATUS:               ID:20100326172339     I
 2010-03-26-1723-32S.PLUR1_003                                                 6
 STAT SP IPHASW D HRMM SECON CODA AMPLIT PERI AZIMU VELO AIN AR TRES W  DIS CAZ7
 LO8  SZ E        1723 42.02                  101.2  7.5      0        6.43 281 
 LO8  SN IP       1723 42.03                             148    0.0210 6.43 281 
 LO8  SE IS       1723 43.57                             148   -0.0210 6.43 281 
 LO8  SZ  AML     1723 44.62        14.7 0.42                          6.43 281 
                                                                                
