 2010  328 0204 26.0 L  21.461 -99.327 10.0  RAL  1 0.1 0.2LRAL                1
 GAP=360        0.45      15.5    12.1  0.0  0.1871E+03  0.6571E+04  0.1721E+04E
 ACTION:UPD 12-06-08 11:37 OP:RALL STATUS:               ID:20100328020426     I
 2010-03-28-0204-19S.PLUR1_003                                                 6
 STAT SP IPHASW D HRMM SECON CODA AMPLIT PERI AZIMU VELO AIN AR TRES W  DIS CAZ7
 LA4  SN IP        2 4 28.14                             163    0.2210 3.14  36 
 LA4  SZ E         2 4 28.18                  216.1 12.2      0        3.14  36 
 LA4  SE IS        2 4 29.09                             163   -0.2210 3.14  36 
 LA4  SZ  AML      2 4 29.90         9.5 0.48                          3.14  36 
                                                                                
