 2010  328 2230  6.6 L  21.468 -99.306 10.0  RAL  1 0.3 1.3LRAL                1
 GAP=360        2.26     171.5    31.6  0.0 -0.5412E+04  0.6571E+04  0.1721E+04E
 ACTION:UPD 12-06-08 11:37 OP:RALL STATUS:               ID:20100328223006     I
 2010-03-28-2229-59S.PLUR1_003                                                 6
 STAT SP IPHASW D HRMM SECON CODA AMPLIT PERI AZIMU VELO AIN AR TRES W  DIS CAZ7
 LA4  SN IP       2230  9.10                             171    0.6110 1.71 350 
 LA4  SZ E        2230  9.11                  180.1  4.5     10        1.71 350 
 LA4  SE IS       2230  9.25                             171   -0.6110 1.71 350 
 LA4  SZ  AML     2230  9.37       111.8 0.26                          1.71 350 
                                                                                
