 2010  329 0453 32.3 L  21.468 -99.285 10.0  RAL  1 0.1-0.4LRAL                1
 GAP=360        0.47      11.9    18.3  0.0 -0.2181E+03  0.6571E+04  0.1721E+04E
 ACTION:UPD 12-06-08 11:37 OP:RALL STATUS:               ID:20100329045332     I
 2010-03-29-0453-28S.PLUR1_003                                                 6
 STAT SP IPHASW D HRMM SECON CODA AMPLIT PERI AZIMU VELO AIN AR TRES W  DIS CAZ7
 LA4  SN IP        453 34.49                             164    0.2510 3.06 305 
 LA4  SZ E         453 34.58                  124.8  5.0      0        3.06 305 
 LA4  SE IS        453 35.39                             164   -0.2510 3.06 305 
 LA4  SZ  AML      453 35.56         2.3 0.28                          3.06 305 
                                                                                
