 2010  329 0235 53.1 L  21.481 -99.212 10.0  RAL  1 0.0 0.4LRAL                1
 GAP=360        0.30       0.3     5.6  0.0 -0.9763E+00  0.6571E+04  0.1721E+04E
 ACTION:UPD 12-06-08 11:37 OP:RALL STATUS:               ID:20100329023553     I
 2010-03-29-0235-48S.PLUR1_003                                                 6
 STAT SP IPHASW D HRMM SECON CODA AMPLIT PERI AZIMU VELO AIN AR TRES W  DIS CAZ7
 LA4  SZ E         235 55.59                   91.9  5.4      0        10.0 272 
 LA4  SN IP        235 55.59                             135    0.0010 10.0 272 
 LA4  SE IS        235 57.40                             135    0.0010 10.0 272 
 LA4  SZ  AML      235 57.96        10.7 0.30                          10.0 272 
                                                                                
