 2010  330 0842 16.9 L  21.362 -99.293 10.0  RAL  1 0.1 0.8LRAL                1
 GAP=360        0.35       9.4     7.3  0.0 -0.6837E+02  0.6571E+04  0.1721E+04E
 ACTION:UPD 12-06-08 11:37 OP:RALL STATUS:               ID:20100330084216     I
 2010-03-30-0842-10S.PLUR1_003                                                 6
 STAT SP IPHASW D HRMM SECON CODA AMPLIT PERI AZIMU VELO AIN AR TRES W  DIS CAZ7
 LZ4  SZ E         842 18.96                  324.2 20.7      0        4.21 144 
 LZ4  SN IP        842 18.97                             158    0.1310 4.21 144 
 LZ4  SE IS        842 20.14                             158   -0.1310 4.21 144 
 LZ4  SZ  AML      842 20.46        31.3 0.20                          4.21 144 
                                                                                
