 2010  330 1111 10.8 L  21.533 -99.321 10.0  RAL  1 0.0 0.4LRAL                1
 GAP=360        0.30       7.5     1.9  0.0 -0.1411E+02  0.6571E+04  0.1721E+04E
 ACTION:UPD 12-06-08 11:37 OP:RALL STATUS:               ID:20100330111110     I
 2010-03-30-1111-04S.PLUR1_003                                                 6
 STAT SP IPHASW D HRMM SECON CODA AMPLIT PERI AZIMU VELO AIN AR TRES W  DIS CAZ7
 LA4  SN IP       1111 12.88                             151    0.0110 5.62 167 
 LA4  SZ E        1111 12.89                  346.9  8.8      0        5.62 167 
 LA4  SE IS       1111 14.36                             151   -0.0110 5.62 167 
 LA4  SZ  AML     1111 14.57        11.4 0.22                          5.62 167 
                                                                                
