 2010  330 1728 15.4 L  21.366 -99.322 10.0  RAL  1 0.0-0.3LRAL                1
 GAP=360        0.30      11.9     1.7  0.0 -0.2038E+02  0.6571E+04  0.1721E+04E
 ACTION:UPD 12-06-08 11:37 OP:RALL STATUS:               ID:20100330172815     I
 2010-03-30-1728-08S.PLUR1_003                                                 6
 STAT SP IPHASW D HRMM SECON CODA AMPLIT PERI AZIMU VELO AIN AR TRES W  DIS CAZ7
 LT7  SZ E        1728 17.26                  172.4  9.6      0        3.25 352 
 LT7  SN IP       1728 17.30                             162    0.0210 3.25 352 
 LT7  SE IS       1728 18.61                             162   -0.0210 3.25 352 
 LT7  SZ  AML     1728 18.73         2.7 0.14                          3.25 352 
                                                                                
