 2010  330 2031 26.6 L  21.313 -99.293 10.0  RAL  1 0.1 0.8LRAL                1
 GAP=360        0.61      16.0    21.7  0.0  0.3472E+03  0.6571E+04  0.1721E+04E
 ACTION:UPD 12-06-08 11:37 OP:RALL STATUS:               ID:20100330203126     I
 2010-03-30-2031-19S.PLUR1_003                                                 6
 STAT SP IPHASW D HRMM SECON CODA AMPLIT PERI AZIMU VELO AIN AR TRES W  DIS CAZ7
 LZ4  SZ E        2031 28.83                  231.6 25.0      0        3.18  52 
 LZ4  SN IP       2031 28.84                             163    0.3610 3.18  52 
 LZ4  SE IS       2031 29.51                             163   -0.3610 3.18  52 
 LZ4  SZ  AML     2031 29.81        34.5 0.36                          3.18  52 
                                                                                
