 2010  331 2203 12.4 R  20.512 -98.721 10.0  RAL  1 0.0 2.0LRAL                1
 GAP=360        0.30       3.5     3.3  0.0 -0.2903E+01  0.6571E+04  0.1721E+04E
 ACTION:UPD 12-06-08 11:37 OP:RALL STATUS:               ID:20100331220312     I
 2010-03-31-2203-24S.PLUR1_003                                                 6
 STAT SP IPHASW D HRMM SECON CODA AMPLIT PERI AZIMU VELO AIN AR TRES W  DIS CAZ7
 LZ4  SN IP       22 3 29.53                              93    0.0010  107 328 
 LZ4  SZ E        22 3 29.63                  147.7  8.5      0         107 328 
 LZ4  SE IS       22 3 42.04                              93    0.0010  107 328 
 LZ4  SZ  AML     22 3 43.20        49.1 0.30                           107 328 
                                                                                
