 2010  126 2011 26.6 L  21.887 -99.132 10.0  RAL  2 1.9 1.7LRAL                1
 GAP=344       33.49     360.3   191.7999.9  0.4739E+05 -0.2985E+06 -0.6321E+06E
 ACTION:UPD 12-06-08 11:37 OP:RALL STATUS:               ID:20100126201126     I
 2010-01-26-2011-26S.PLUR1_006                                                 6
 STAT SP IPHASW D HRMM SECON CODA AMPLIT PERI AZIMU VELO AIN AR TRES W  DIS CAZ7
 LA4  SZ E        2011 35.23                  293.6 14.7     89        48.2 202 
 LA4  SN IP       2011 35.32                              97    0.7210 48.2 202 
 LA4  SE IS       2011 40.04                              97   -0.4210 48.2 202 
 LA4  SZ  AML     2011 42.60       166.9 0.28                          48.2 202 
 LO8  SZ E        2011 39.91                  143.8  6.4    138        80.9 186 
 LO8  SN IP       2011 39.94                              94    0.2710 80.9 186 
 LO8  SE IS       2011 48.67                              94   -0.5710 80.9 186 
 LO8  SZ  AML     2011 50.47        11.6 0.34                          80.9 186 
                                                                                
