 2008 12 1  438 58.8 L                                                         1
 2008-12-01-0438-58S.PLUR1_003                                                 6
 STAT SP IPHASW D HRMM SECON CODA AMPLIT PERI AZIMU VELO AIN AR TRES W  DIS CAZ7
                                                                                
